Company Name,Street Address,Address Locality,Address Region,Postal Code,Telephone
K Family Trucking,507 Edgewood Drive,Marion,AR,72364,334-671-2851
Coggin Trucking,108 County Road 751,Jonesboro,AR,72401,870-243-3210
"N & L Trucking, Inc.",2581 Hwy 65 N,Dermott,AR,71638,870-538-8186
J Deen Trucking,4857 Hwy 5 South,Mountain Home,AR,72653,870-404-9895
Cook Trucking,619 Daisy Street,Thornton,AR,71766,870-413-8410
Doty Farms And Trucking,164 Industrial,Salem,AR,72576,870-371-0151
R & A Carriers,169 Johnston Road,Searcy,AR,72143,501-626-5634
Aa Trucking,107 Darby Road,Marion,AR,72364,870-636-1789
Rlp Trucking,1207 Ouachita #2,Stephens,AR,71764,870-786-9181
Johnson's Trucking,15117 James Cutoff Rd,North Little Rock,AR,72117,501-831-6396
P&g Mechanic Service,5 Jay Street,Warren,AR,71671,870-226-6437
A&r Trucking 808,512 North Washington,El Dorado,AR,71730,870-863-7191
Van Voast Trucking,169 Twin Bridges Rd.,Horatio,AR,71842,870-832-0165
Jj Trucking,3452 Torrey Street,Springdale,AR,72762,479-927-3058
Bdk Trucking,246 Clifton Dr,Wynne,AR,72396,870-238-3821
Chlorine Repair Service,24138 Hwy 412,Huntsville,AR,72740,479-790-9355
J & S,11620 Hwy 83 South,Star City,AR,71667,870-460-0027
R Hicks Trucking,Cr 757,Augusta,AR,72006,870-919-2908
Yellowhawk Express,4736 Old Uniontown Road,Van Buren,AR,72956,479-414-8052
Fulton Waste And Sustainability Services,810 Lester Ln,Rogers,AR,72756,479-631-2020
Sjo Transport,1710 Main St,North Little Rock,AR,72114,501-612-9562
East Arkansas Transportation,903 Gregory St,Augusta,AR,72006,870-347-2619
E & V Trucking,231 Sfc 442,Forrest City,AR,72335,870-519-8465
Silver Fern Transport,6074 Elm Springs Rd,Springdale,AR,72762,479-751-4378
Ivey Trucking LLC,630 North Fairview Road,Mammoth Spring,AR,72554,870-371-0456
Trueshot Transport,52 Linder Rd,Greenbrier,AR,72058,870-613-2991
Brown Trucking,900 E Hempstead,Hope,AR,71801,870-722-5236
K&b Transportation,3940 Orleans Ave,Springdale,AR,72762,641-328-0273
T & B Trucking,4002 Lockwood Dr,Paragould,AR,72450,870-215-0881
Maw &paw Express,9 Rock Island St,Brinkley,AR,72021,870-734-6541
Murdock Portable Toilets & Septic Tank Service,1908 West C Pl,Russellville,AR,72801,479-968-1282
Billings Trucking,1129 Beech Street,Eldorado,AR,71730,870-866-6828
Triple C Mobile Home Moving,13744 Cincinnati Road,Summers,AR,72769,479-549-7949
Garretts Trucking,2114 Cypress Apt 4,Harrison,AR,72601,870-577-0952
Palmer Trucking,18258 Hwy 39,Monroe,AR,72108,870-747-1382
C Nelson Trucking,6508 Mulberry,Pine Bluff,AR,71603,870-413-8697
B & B Express,44 Oak Grove Rd,Paragould,AR,72450,870-586-0536
Stephenson Transport,13621 Stonehenge Cove,North Little Rock,AR,72117,501-425-1973
Lil' Bozo Express,9 Rock Island St,Brinkley,AR,72021,870-734-6541
G&e Trucking,1603 So Main,Brinkley,AR,72021,870-734-9809
Capitol City Trucking,7005 Dahlia Drive,Little Rock,AR,72209,501-562-0877
Rock N M Trucking,443 Fire Tower Road,Bald Knob,AR,72010,501-724-5624
Pasley Trucking,1081 Arkansas Highway 13 South,Carlisle,AR,72024,501-516-5810
Wild West Transportation,6979 Green Road,Mabelvale,AR,72103,501-779-5325
R D W Hauling,3054 Mc 6 Road,Doddridge,AR,71834,918-429-9536
Graham French Trucking LLC,5708 Yohe Road,Stuttgart,AR,72160,870-830-4359
Dmc Trucking,146 Hempstead 108,Hope,AR,71801,870-777-1295
J & E Transportation,2003 Highway 67 S,Pocahontas,AR,72455,870-758-2021
Nine Flags Express,1937 Hwy 67 N,Prescot,AR,71857,870-330-0520
Two Men And A Truck,8050 Counts Massie Blvd Ste A,North Little Rock,AR,72113,501-812-4445
Smith Trucking,3175 Brewer Rd,Booneville,AR,72927,479-675-2097
J & G Transport,222 N Miller St,Jonesboro,AR,72401,479-387-5529
Tolliver Transport,1631 Wildwood Ln,Siloam Springs,AR,72761,479-685-0556
Small Town Truckin',1348 Copperhead Rd,Winslow,AR,72959,479-634-3421
Johny's Carpet Services,13808 Grober Hill Way,Fort Smith,AR,72916,479-646-3691
Pfeiffer Trucking,34 N Roseville Street,Ratcliff,AR,72951,479-635-2205
Cox Auto Sales,1907 R East Kingshighway,Paragould,AR,72450,870-236-3073
Cross Road Trucking,881 Hatcher Road Ste A,Bethel Heights,AR,72745,479-419-5161
F & S Logistics LLC,1194 Cr 307,Jonesboro,AR,72401,870-268-0645
Tim's Transport,209 Blaky Circle,Heber Springs,AR,72543,501-945-0123
Atw Transport,1322 Hillcrest Drive,Conway,AR,72034,870-501-2844
Sanders Trucking,709 East Pine Street,Gurdon,AR,71743,870-353-0019
Bayou Transport,Rt 1 Box 162 A,Hampton,AR,71744,870-798-2154
K & H Trucking,317 Forrest Oak Drive,Jacksonville,AR,72076,501-983-4679
R & M Trucking Of Piercetown Ar,Hc 72 Box 108,Jasper,AR,72641,870-715-7799
Barnett Trucking,411 East Main,Alma,AR,72921,479-420-0918
Anthony Trucking,3415 Price Cir,Fort Smith,AR,72904,N/A
Dane Smith Trucking,3052 Sunny Slope Road,Edgemont,AR,72044,870-213-5818
Chris Mccoy Trucking,401 East Helen Ave,Wynne,AR,72396,870-208-4469
Provence Trucking,20144 North Hwy 71,Mountainburg,AR,72946,479-369-4085
Pacific Auto Transport,12107 Landers Road,Rogers,AR,72756,479-619-6358
Jdm Express,16925 Linda Acres Ln,Mabelvale,AR,72103,501-261-7725
Pike's Trucking,23450 Carlton Dr,Decatur,AR,72722,479-752-3363
Rb Trucking,6827 Magnolia Highway,El Dorado,AR,71730,870-862-4753
Lft Transport,306 S 31st Street Unit 96,West Memphis,AR,72301,870-394-9494
Hog Country Delivery,1714 Commerce Park Dr,Springdale,AR,72764,479-756-5542
Young Farms And Trucking,7019 Old Olvey Road,Harrison,AR,72601,870-754-1868
Campbell Welding Service,494 Hill Ave,Decatur,AR,72722,479-228-0254
Mlr Trucking,913 N 3rd St,Augusta,AR,72006,870-347-6188
Davids Transportation,3984 Burkett Lane,Springdale,AR,72764,479-595-3055
Mds Hauling,109 W 4th St,Ashdown,AR,71822,214-673-1098
J & L Trucking,175 West South,Humnoke,AR,72072,417-312-0479
Franceschi Trucking,1803 East O Street Apt. C,Russellville,AR,72801,479-886-5116
Roper Express,18433 S Hwy 59,Siloam Springs,AR,72761,479-200-2092
Got Orphans Transport,1425 Cole Deading Road,Scott,AR,72142,501-351-4548
Buford's Transport,22944 Hwy 14,Mountain View,AR,72560,559-395-4297
S&w Tank Service LLC,2190 Hwy 31 North,Beebe,AR,72012,N/A
J & J Transportting,4458 Hempstead 21,Hope,AR,71801,870-397-1588
The Shirley Hughes Trucking Company,82 Arkansas Street,Mariannna,AR,72360,773-778-7750
Pam & James Chandler Trucking,6094 Hwy 38 East,Des Arc,AR,72040,870-256-4208
Artexoma Logistics,819 Lakewood Rd,Camden,AR,71701,870-836-0357
Regulator Trucking,3490 State Highway 818,Clarksville,AR,72830,479-774-4757
Foran Trucking,359 Phillips 623 Road,Marvell,AR,72366,N/A
James Strough,19 Business Park Dr Suite7,Greenbrier,AR,72058,501-733-4578
Lps Trucking,1909 Sw Ave,El Dorado,AR,71730,870-862-0870
J & H Express,1133 Persimmon Street,Rogers,AR,72756,479-313-2344
Carter Trucking,430 Westwood Loop,Bismarck,AR,71929,870-353-7699
Markham Litter Services,589 Ebenezer Road,Amity,AR,71921,870-398-5609
Courtney Transport,509 South 2nd Street,Mcgehee,AR,71654,870-501-1102
J&h Trucking,3114 Calhoun 54,Hampton,AR,71744,870-798-4678
Simpson Trucking,2776 Haw Creek Loop,Waldron,AR,72958,479-207-2988
P & J Trucking,190 Sullivan Rd,Wilmar,AR,71675,870-460-0482
S N K Trucking,2240 Hwy 65,Eudora,AR,71640,870-814-9045
Raymax Trucking,15941 Truelove Rd,West Fork,AR,72774,479-466-8856
Showpro,701 Skyline Drive,Van Buren,AR,72956,479-981-9433
R & R Trucking,Rt 1 Box 998 Katydid Rd,Camp,AR,72520,870-421-5091
Franklin Dodson Trucking,1625 Hwy 371n,Waldo,AR,71770,870-693-5751
Ray Whitaker And Sons Trucking,104 Carmen Ln,Haskell,AR,72015,501-317-9039
Meredith Transportation,7325 Denise Dr,Little Rock,AR,72209,501-565-4413
Wilhite Trucking,726 W Puppy Creek Place,Lowell,AR,72745,479-544-4325
Long's Trucking,13057 Hogeye Rd,Prairie Grove,AR,72753,479-846-2471
The Auto Connection,880 Us Hwy 64,Marion,AR,72364,870-739-1199
Jets,2630 Lacy Drive,Jonesboro,AR,72401,870-935-5387
M D Trucking,511 S Anna,Stuttgart,AR,72160,870-672-7242
D&d Movers,3429 Creek Bend Lane,Texarkana,AR,71854,903-278-2221
A & S Hauling,17182 Liles Ln,Trumann,AR,72472,870-418-0023
Jm Sales And Pump Service,367 Bent Oak Ln,Midway,AR,72651,870-431-5445
Last Chance Trucking,942 Old England Hwy,Stuttgart,AR,72160,870-830-2559
Az Auto Sales LLC,1912 E Hwy 412,Siloam Springs,AR,72761,479-220-2021
K & M Hotshot,228 Landis Rd,Judsonia,AR,72081,501-388-2800
Bradley Trucking,Avalon Road,Star City,AR,71667,870-370-1946
Marty Parker Trucking,1179 Madison 2350,Huntsville,AR,72740,497-665-2664
Harveys Hauling,7218 W Wedington Dr,Fayetteville,AR,72704,479-442-4405
Rickie Harvey Trucking,7220 W Wedington Dr,Fayetteville,AR,72704,479-426-8865
Mario Garcia Trucking,2733 Carondolet St B,Springdale,AR,72764,479-305-1029
Bd&d Trucking,4858 Lisbon Road,Eldorado,AR,71730,870-310-4458
Amador Trucking,2550 W Orlando Dr # 4,Fayetteville,AR,72701,479-313-1412
Ozark Mountain Country Dump Truck,22391 Damsite Rd,Garfield,AR,72732,479-656-3128
Pj Trucking,6522 Paradise Road,Charleston,AR,72933,479-414-6672
Triple D's Trucking,2111 Sfc 858,Palestine,AR,72372,870-270-1518
Chance Paige Trucking,2803 Garland Street,Texarkana,AR,71854,903-244-8540
Mj Enterprises,223 N Mcneely Rd,Marion,AR,72364,901-335-3488
Crossroads Truck Wash Mobile Service,4201 Petro Road,West Memphis,AR,72301,870-735-2100
J And J Trucking,16718 Garner Rd,Little Rock,AR,72206,501-888-7314
Mcgowan Trucking,3170 Cr 74,Calico Rock,AR,72519,870-297-8376
Four Star Transportation,12217 S Robin Rd,Gentry,AR,72734,479-502-4600
K & D Grain Transport,2712 Sunny Brook Dr,Jonesboro,AR,72404,870-243-1556
Mst Trucking,254 Circle High Drive,Salem,AR,72576,870-371-0458
Carpet Express,250 Hwy 62 West,Ash Flat,AR,72513,870-994-3535
Dashboard Trucking,1608 2nd Street,Earle,AR,72331,870-635-5471
Patrick Jones Trucking,5312 Fox Run Drive,Harrison,AR,72601,870-741-4638
Sam And Sons Auto,4304 Alma Hwy,Van Buren,AR,72956,479-262-6789
S & S Apiaries,2244 Eagles Nest Road,Ash Flat,AR,72513,501-945-0123
Nathan Howard Distributing Hiland Dairy,260 Polk 74,Mena,AR,71953,479-394-0826
Beasley's Trucking,9866 N State Hwy 23,Magazine,AR,72943,479-635-2139
L & J Trucking,260 Richmond Hill,West Helena,AR,72390,870-995-5157
Donny Adcock Trucking,310 N. Elm,Dewitt,AR,72042,870-673-3411
Glenn Trucking,70 County Road 331,Cherry Valley,AR,72324,870-588-7814
Scorpion Logistics,2406 Rill St,Rogers,AR,72758,417-592-3770
Jbc Movers And Ministorage,4803 Jefferson Ave,Texarkana,AR,71854,870-216-2740
J P Trucking,1314 Janda Dr,Rogers,AR,72756,479-270-3829
Rpl Trucking,701 North Hope,Waldo,AR,71770,870-904-0917
B&b Trucking,909 Welch St,Little Rock,AR,72202,501-372-2979
D & B Transport,79 Greene 840 Rd,Paragould,AR,72450,870-239-9335
Mayo Trucking Company,261 Wilson Circle,Haynes,AR,72341,870-633-3503
Forrest Trucking,854 Cr 255,Cash,AR,72421,870-477-5710
Saxton Trucking,6016 Saxton Road,Biscoe,AR,72017,870-998-5098
Spears Trucking,953 Lee 232,Marianna,AR,72360,870-295-5462
"Amp Control, Inc.",5300 South 31st Street,Fort Smith,AR,72901,479-646-7770
E Mack Trucking,900 Stevenson Cove,Jacksonville,AR,72076,501-993-4469
M & M Trucking,998 Wish St,Pleasant Plains,AR,72568,501-345-3999
H & H Litter Service,929 County Road 705,Berryville,AR,72616,870-423-5344
Hope Transportation,1330 Bon Air,Van Buren,AR,72956,479-208-2621
Diamond Trucking,10211 Hwy 65 N,Omaha,AR,72662,870-426-3161
Friendship Express,1941 North Scott Hollow,Springdale,AR,72764,479-409-5263
Marvin J Fort Trucking,346 Madison 1515,Huntsville,AR,72740,479-559-2769
Hubbard Services,4808 Hwy 64w,Hartman,AR,72840,479-214-0847
Pulley Engineering,12254 East State Hwy 10,Danville,AR,72833,180-073-1246
Hinton Brothers Trucking,118 Davis,Parkin,AR,72373,870-270-6728
Steven C Fowler Trucking,18392 State Hwy 80 West,Danville,AR,72833,479-495-7084
Woodson Trucking,564 Lee 310,Marianna,AR,72360,870-821-0031
J&t Express,15101 Hyw 71,Fouke,AR,71837,903-276-3158
Auto Connection,17062 Harmon Road Wc-31,Fayetteville,AR,72704,479-582-5252
Outlaw Trucking,245 Conley Dr,Floral,AR,72534,501-345-2620
Bill Champion Trucking,6801 Blackjack Dr,Fort Smith,AR,72916,479-651-5750
Champlin Crane Service,1477 Hwy 143,Berryville,AR,72616,870-423-2053
Ed & Bobbys Backhoe & Dozer Service,223 E Holman,Mulberry,AR,72947,479-806-2268
John Grigsby Trucking,40 Jerry Street,Conway,AR,72032,501-350-0676
Hanson Trucking LLC,11960 Highway 19 South,Emerson,AR,71740,870-515-0053
24 Hour Movers,2202 North J,Fort Smith,AR,72901,479-461-5494
Nowden Transportations,601 East Nichols Street,England,AR,72045,972-998-5179
Stith Trucking,1307 E Pridemore Ave,Lincoln,AR,72744,479-824-2255
A & J Trucking Co,2404 N Vine,Magnolia,AR,71753,870-234-9333
C & T Transportation,136 Byrn St,Winchester,AR,71677,870-857-3529
Jesse Whitehead Trucking LLC,262 Pr 1163,Texarkana,AR,71854,870-773-6720
Super 10 Express,701 Mcauley Dr,West Memphis,AR,72301,901-653-9723
Alveno Castillo Trucking,Highway 79 167 Bypass,Fordyce,AR,71742,870-352-8002
"Jy Auto Sales, Inc.",12310 Arch St,Little Rock,AR,72206,501-779-1263
Kilgore Trucking,1743 North Clark,Eldorado,AR,71730,870-665-2541
Paradise Carriages,220 Lewisburg Rd,Austin,AR,72007,501-771-9500
Roadrunner Moving,10713 West High Meadows Drive,Rogers,AR,72756,479-925-7099
Kelly & Sons Trucking,13470 Hwy 63,Rison,AR,71665,870-357-2583
Rachel Jackson Trucking,17905 Hwy 13 South,Humnoke,AR,72072,501-275-8010
Rivas Trucking Company,1152 Mosby Street,Elevator,AR,71730,870-305-4019
Baj Moving Company,2176 Hwy 278 West,Wilmar,AR,71675,870-723-6678
A & B Trucking,9444 Nest Lane,Omaha,AR,72662,417-294-4659
Morgan Trucking,163 Dodd Lane,Royal,AR,71968,501-622-8284
B&a Trucking,6527 Hwy 269,Mccrory,AR,72101,870-731-8154
D & D Services,1505 Lois Place,Searcy,AR,72143,501-454-7014
Cooney Trucking,804 West 3rd Street,Carlisle,AR,72024,501-259-0633
J E Distributor,1204 Christian Ave Apt # 7,Springdale,AR,72764,479-200-7382
Wilkerson Auto Sales,4583 W State Hwy 22,Paris,AR,72855,479-963-8007
Maurer Trucking,219 Wanda Street,De Queen,AR,71832,870-642-5676
C J Nieters Trucking,718 Humphrey Rd,Dover,AR,72837,479-331-3131
Lee Mt Transport,742 Sherman Main,Dover,AR,72837,904-861-2916
Mike Carter Trucking,311 North Wall Rd,Crossett,AR,71635,870-500-5400
Parsons Transport,1045 Morgan Haley Ln,Springdale,AR,72764,479-409-6184
Field's Mobile Welding Service,405 Smith Ridge Turnoff,Rogers,AR,72756,479-636-1164
Todd Scruggs Trucking,1881 Hwy 79 North,Mcneil,AR,71752,903-276-4781
Franks Trucking LLC,#4 Kenilworth,Harrison,AR,72601,870-391-1850
Bankhead Trucking,128 Fox Estates Lane,Hot Springs,AR,71901,501-321-2462
Keith's Backhoe & Septic Service,14081 Goodlett Rd,Bentonville,AR,72712,479-466-0779
Five K Trucking,337 Barner,Fordyce,AR,71742,870-352-5322
Dunn Transport,41 E Main,Farmington,AR,72730,479-841-3769
B & S Enterprises & Auto Sales,280 West Boswell Street,Batesville,AR,72501,870-698-0644
"Ems Trucking, Inc.",760 Hwy 189 Byp,Warren,AR,71671,870-226-4440
J & A Hotshot Services,79 Owens Trail,Ravenden Springs,AR,72460,870-869-7999
Delph And Son Hauling,8 Fields Loop,Twin Groves,AR,72039,501-908-6573
Herman Hunter Jr Trucking,327 Phillips 350 Rd,Poplar Grove,AR,72374,870-228-6258
C&d Transport,399 Batesville Mountain Road,Damascus,AR,72039,813-446-4414
E & L Trucking,1421 Roosevelt St,Texarkana,AR,71854,903-244-3270
Lytle & Lytle Logistics LLC,2208 S Main,Stuttgart,AR,72160,870-261-2794
Hintons Express,2760 Hwy 33,Almyra,AR,72003,870-456-1604
Mr Tidy Sales & Service,8608 Riverwwod Park,North Littl Rock,AR,72113,800-871-1192
Ricky Wright Trucking,250 Rice,Royal,AR,71968,501-767-9461
Brad Robertson Trucking,903 Gregory St,Augusta,AR,72006,870-347-2619
Clifford R Glover Trucking,6848 Moro Bay Hwy,El Dorado,AR,71730,870-315-1777
Ra &la Trucking,300 Sweet Rd,Junction City,AR,71749,870-599-4404
Macxz Transport,14997 St Hwy 196,Genoa,AR,71837,916-505-6174
Mahan Transport,321 Columbia 159,Waldo,AR,71770,501-472-7672
Bailey Trucking,3 Mike Bailey Rd,Kirby,AR,71950,870-398-4446
Jack Scott Russell Trucking,2937 Phillips 600 Rd,Marvell,AR,72366,870-995-3508
Apogee Transport,17659 E Hwy 412,Springdale,AR,72764,479-684-9955
Tony's Transport,1332 Wildcat Rd,Prescott,AR,71857,501-827-8490
Go To Transportation,5375 Hwy 80 East,Waldron,AR,72958,479-637-6835
Golden Trucking,202 Bart Street,West Helena,AR,72390,870-338-0627
R & D Trucking,1157 Mc31,Doddridge,AR,71834,903-733-4535
Moore's Dozer Service,927 Highway 70 East,Glenwood,AR,71943,870-356-7469
Caddo Recovery Services,43 County Line Dr,Glenwood,AR,71943,870-356-4583
B & L Trucking,8602 Belmont Dr,Alma,AR,72921,479-414-9096
Cox Ag Trucking,2018 Phillips Rd 145,Marvell,AR,72366,870-829-1033
Howell Trucking,2020 Lafayette 47,Bradley,AR,71826,870-894-6176
Ronnie Roberts Trucking,1050 Bird Street,Benton,AR,72015,501-315-8600
Adairs Auto Sales,1123 E Johnson,Jonesboro,AR,72401,870-932-5165
Rdb Trucking,3000 Beauchamp Road,Little Rock,AR,72210,501-821-3808
Robertson Trucking Company,520mc 285,Texarkana,AR,71854,870-774-2683
Gmti,3111 A May Apple Dr,Harrison,AR,72601,870-715-2990
Geisler & Geisler Trucking,125 Doc Edger Drive,Wheatley,AR,72392,870-457-4511
Brandon Transportation,191 Sherryane Lane,Dover,AR,72837,501-967-6939
A & S Trucking,1050 Bird Street,Benton,AR,72015,520-400-6291
Double A Trucking,828 Bradley Rd 57,Hermitage,AR,71647,870-463-2879
Jones Trucking,2295 Shaw Road,White Hall,AR,71602,870-247-3343
"D&a Transport, Inc.",11501 East Stoney Point Court,Little Rock,AR,72211,870-768-4547
"Longhorn Express, Inc.",19696 Greenfield Road,Harrisburg,AR,72432,870-243-3743
Hot Rod Express,248 Timber Lake Dr ,Benton,AR,72015,501-467-8918
J B Stone Supply & Services,1262 Fairfax Road,Clinton,AR,72031,501-745-5093
Mule Kreek Trucking Co,P.o. Box 1552,Gentry,AR,72734,479-427-6688
Everett's Trucking,104 Crestview Drive,Pangburn,AR,72121,501-728-3195
Rocket Express Transport,805a Megan Street,Siloam Springs,AR,72761,617-251-9686
David Shipman Trucking,926 Greene 240,Delaplaine,AR,72425,870-249-3716
E & B Transport,17096 Stewart Lane,Caraway,AR,72419,870-926-2596
Kevin Beck Trucking,206 E Muldrow St,Lewisville,AR,71845,870-921-3864
Bubba Wright Trucking,1195 Barkada,Monticello,AR,71655,870-367-8609
Rmw Trucking,2710 West Fir Street,Rogers,AR,72758,479-631-5861
T & R Trucking,147 Bradley 23,Warren,AR,71671,870-226-4226
Harris Trucking Co,1601 W Avenue D,Hope,AR,71801,903-244-1279
G And G Trucking,12578 Wildwood Rd,Mansfield,AR,72944,479-928-7102
Brooks Lee Transportation,1354 Woodruff 407,Mccory,AR,72101,870-761-1757
Primo Trucking,20 Windover Drive,Marion,AR,72364,870-739-4279
Hott Wheels Auto Sales,2006 N Thompson,Springdale,AR,72764,479-872-2385
Dba Tedder Transport,4108 West Kingshighway,Paragould,AR,72450,870-236-0309
Mainline Trucking,178 Alco,Star City,AR,71667,870-942-1500
Jsc Transportation,1050 Bird Street,Benton,AR,72015,479-685-3382
Timothy Mcdaniel Trucking,310 East Laurel Street,Corning,AR,72422,870-857-0138
Stonebridge,1601 B South 28th Street,Van Buren,AR,72956,479-474-3255
Sonny's Boy Trucking,122 North Wilhite St,Wilmot,AR,71676,870-818-8494
J Wells Trucking,1120 Hwy 35 E,Lake Village,AR,71653,870-222-6114
Tennessee Transport,1050 Bird Street,Benton,AR,72015,901-289-2606
Mckinney Trucking Co,10955 Hwy 79 West,Moro,AR,72368,870-821-0065
Rlb Trucking,35 Cecil Rd,Morrilton,AR,72110,501-354-3116
8044 Old 81 Loop,1514 Old Rudy Rd,Alma,AR,72921,479-632-8300
Ron Manley Carriers,Hwy 65 City,Pindall,AR,72669,870-439-2564
Double J Express,5920 Whitson Dr,Rudy,AR,72952,479-632-3999
Black Branch Trucking,758 Hwy 234,Lockesburg,AR,71846,870-287-4368
S & A Rollback Service,932 Bing Rd,Casa,AR,72025,501-233-6617
D E K,615 N Main St,Stuttgart,AR,72160,870-673-2572
Twin Oaks Transportation,1217 Stone St Suite 240,Jonesboro,AR,72401,870-932-7649
Brandon Morse Transportation LLC,1810 B Ingles Lane,Alma,AR,72921,479-200-1106
King Transport,1055 Cr 966,Alpena,AR,72611,870-437-2164
C K L Transport,1203 Richland Dr,West Memphis,AR,72301,870-629-9605
Butler Trucking,224 South Georgia St,Marianna,AR,72360,870-295-0032
Stronghold Freight Systems,2207 Greensboro Rd,Jonesboro,AR,72402,870-935-9399
J A M Transportation,715 N N Street,Ft Smith,AR,72901,479-782-2427
Chisem Trucking,1022 Cr 739,Wynne,AR,72396,870-238-3840
All Auto,1800 South 11 Th Street,Fort Smith,AR,72901,479-629-2134
J Efrain Trucking,131 S Bennett St,Dequeen,AR,71832,870-642-6733
T & M Trucking,286 Hempstead 149,Hope,AR,71801,870-777-5596
Halls Custom Hauling,330 Jerri Ann Drive,Paragould,AR,72450,870-586-9142
Lafoys Hot Shotters,252 James Mill Rd,Crawfordsville,AR,72327,901-428-8329
K T Express,217 East 13th,Hope,AR,71801,870-777-2880
Vlp Trucking,711 Justin Street,Cave City,AR,72521,870-283-6627
Full Pull Transport,2629 Hwy 115,Imboden,AR,72434,870-869-1147
Brian Reid Trucking,1616 Hwy 369 North,Dierks,AR,71833,870-286-2117
C & E Robinson Trucking,501 N Ridge Dr,West Helena,AR,72390,870-572-2547
Cole Trucking,908 Cedar Street,Searcy,AR,72143,501-268-2636
Poke Chop Trucking,1110 Penister St,Warren,AR,71671,870-952-0144
Charles Hefley Trucking,6171 Market St,Russellville,AR,72802,479-967-3049
Industrial Equipment Service,201 E Van Buren Ave,West Memphis,AR,72301,870-735-5507
J & J Trucking,527 E Hwy 10,Havana,AR,72842,805-488-7776
W & W Trucking,533 Walker St,Helena,AR,72342,870-995-4669
G F Trucking,3600 W Hwy 10,Greenwood,AR,72936,479-996-5286
Getter Done Trucking,265 Twin Bridges Road,Horatio,AR,71842,870-832-2419
Gto Auto Repair Tires & Sales,721 S 8th St,Rogers,AR,72756,479-633-0353
Neelyville Ag Center,910 Townsend Dr,Pocahontas,AR,72455,870-249-2676
Henderson And Son Trucking LLC,1050 Neal,Conway,AR,72032,501-329-2020
Happy Daze Trucking,16875 North State Hwy 7,Centerville,AR,72829,479-576-2539
Patterson House Moving Company,136 Ashley 23,Hamburg,AR,71646,870-500-3090
James Car Hauling & Transport,405 Rosewood Rd,Batesville,AR,72501,870-698-0487
Jackson Trucking,705 Hwy 7 So,Dardanelle,AR,72834,479-264-9818
U-needham-freight,616 Hwy 71 Ne,Mountainburg,AR,72946,479-926-3190
Cubamerica Express,10554 Hwy 21 North ,Oak Grove,AR,72660,870-749-2448
L R Vance Trucking,1867 North Grand,Brinkley,AR,72021,870-225-9150
S And B Trucking,808 S Pack Rd,Sherrill,AR,72152,870-766-8391
Tidwell's Trucking,144 North St,Camden,AR,71701,870-231-9036
Doug Turner Trucking,41424 Pritchett Road,Lepanto,AR,72354,870-475-4743
Bill Kernan Trucking,1116 Jones Drive,Sheridan,AR,72150,870-941-8569
T & J Trucking,3038 Klondike Rd,Wilmar,AR,71675,870-460-0920
Running Wolfe Transport,4300 West 65th St,Little Rock,AR,72209,501-569-5300
Estep Transport,5880 Hwy 64,Pottsville,AR,72858,479-968-7934
Carney Truckers,11 Countryside Rd,Quitman,AR,72131,501-733-5111
Drake Trucking,600 Cane Creek Road,Star City,AR,71667,870-628-5306
Don Grills Trucking,Hwy 56 W,Violet Hill,AR,72584,870-322-7140
B & T Carriers,536 Bonnie Ballard Road,Proctor,AR,72376,870-732-6764
Lyons Trucking,12482 Nicewarner Rd,Lincoln,AR,72744,479-824-0566
Patrick Trucking,401 Cleveland,Springdale,AR,72764,479-751-0830
Albin Trucking,571 Highway 82 E,Magnolia,AR,71754,870-234-4540
Matt Young Trucking,622 Columbia Rd 44,Magnolia,AR,71753,870-234-0527
Willie T Harris Trucking,735 Annette Street,Forrest City,AR,72335,870-519-9943
Randy Young Trucking,151 Church St,Tyronza,AR,72386,870-487-2286
Bull Lake Trucking,660 Poe Farm Road,Perryville,AR,72126,501-889-3751
E M Trucking,985 Ashley 12 W,Hamburg,AR,71646,870-853-9295
Scale Service,4221 East 64 Hwy,Alma,AR,72921,479-459-6141
Harris Hauling,178 Sfc 543,Heth,AR,72346,870-657-2525
R & D Logistics,3109 Woodsgate Drive,Little Rock,AR,72211,501-350-0290
Christian Auto Sales,13709 Smalling Rd,North Little Rock,AR,72118,501-352-2093
Cameron Trucking,3503 Red Hill Rd,Alma,AR,72921,479-632-0124
Sdm Trucking,236 Linder Rd,Hamburg,AR,71646,225-933-2260
B & V Active Transport,3102 Karen Ave,Springdale,AR,72762,479-283-7376
Lr Trucking,7711 Morris Drive,Little Rock,AR,72209,501-565-5862
Dba Dsb Trucking,720 Smith Street,Trumann,AR,72472,870-483-6690
Cox Trucking,209 North Pine Street,Marvell,AR,72366,501-626-1771
Myers Trucking,426 S Lakeshore,Lake Village,AR,71653,870-222-7962
Horns Hauling Services,1402 West Crescent,Huntington,AR,72940,479-322-8014
Heavyrig Trucking,840 Fleetwood Dr,Hot Springs,AR,71913,501-767-8735
Heath Farms Trucking LLC,2657 Sfc 130,Palestine,AR,72372,870-581-2363
Gwf Trucking,503 West South Street,Jasper,AR,72641,870-446-5452
H & H Trucking,105 Central,Lexa,AR,72355,870-295-2164
Sanford's Farm Grain Hauling,21805 Hwy 70e,Heth,AR,72346,901-574-1124
Otr Express,605 B Hwy 62-65 N #172,Harrison,AR,72601,870-743-1341
G & G Trucking,386 Gravel Hill Rd,Romance,AR,72136,501-745-6701
Reed's Auto Sales,3295 Greene 514 Road,Paragould,AR,72450,870-565-3468
Wilson Suggs,711 E Jackson Ave,West Memphis,AR,72301,870-733-9578
Ozark Runner J B Trucking,432 Mckinley St,Clarendon,AR,72029,720-840-7250
Donnie Nowlin Trucking,123 Willow,Hampton,AR,71744,870-798-3119
Piggee Trucking,1005 South Hutchinson,Nashville,AR,71852,870-451-9233
Harrison's Dozer Service,788 Polk 69,Mena,AR,71953,479-394-6429
Newingham Trucking,203 W First Street,Corning,AR,72422,870-323-1454
G And T Transport,164 Mc 3061 Hwy 14,Summit,AR,72677,870-453-5351
A-1 Razorback Moving Company,6500 Holt Road,North Little Rock,AR,72117,501-945-3338
Denson Trucking,30 Cr 158,Corning,AR,72422,870-857-0294
K & N Trucking,301 Moorewood Road Apt # 1021,Eldorado,AR,71730,870-866-0889
Tl Moore Trucking,245 Four Oaks Lane,El Dorado,AR,71730,870-864-0352
Superior Mobile Home Service LLC,135 Langston Lane,Beebe,AR,72012,501-882-7250
Seigler Trucking,704 Commerce Street,Benton,AR,72015,501-376-0657
Campbell Kids Distributing,333 Links Drive Apt 3801,Texarkana,AR,71854,870-773-6899
Van's Trucking,123 Lawrence 224,Imboden,AR,72434,731-733-9548
J P Trucking,14923 Union Star Rd,West Fork,AR,72774,479-839-4057
Lark Trucking,21 Blue Street,Anthonyville,AR,72376,870-732-3706
J & J Trucking,606 East Woodlawn,West Memphis,AR,72301,901-413-2003
Jones Hauling,2490 Rushing Road,Dover,AR,72837,479-880-1910
Nb Trucking Company,5361 Hwy 1 South,Jonesboro,AR,72404,870-802-2545
Pork N Beans Trucking LLC,304 North Virginia,Crossett,AR,71635,870-304-2017
Quiroz Transport,2512 North Albert Pike,Fort Smith,AR,72904,479-782-0967
R-truck,75 Cove Creek Road,Quitman,AR,72131,501-206-1491
Hubbard Transit,4717 Lochmoor Cir,Jonesboro,AR,72401,870-931-0716
Foster Trucking,4869 Greene 853 Rd,Paragould,AR,72450,870-236-9172
Extreme Auto,357 Upper Mcguier Loop,Russellville,AR,72802,479-890-5672
B & W Trucking,11709 Hwy 49,Brinkley,AR,72021,870-734-2919
Boston Trucking,1800 West College Blvd,Jonesboro,AR,72401,870-830-1287
Martin Logistics,701 Crossroads West,Quitman,AR,72131,501-206-5332
Ben-fam Express LLC,2310 N Church,Jonesboro,AR,72401,870-203-0720
Welch Trucking,3720 Hwy 133 N,Hamburg,AR,71646,870-853-5585
D&d Trucking,123 North 20th Street,Arkadelphia,AR,71923,870-403-8953
Jim's Trucking,2509 Oc Drive,Pine Bluff,AR,71602,870-247-2209
Hamilton Trucking,21 Phillips County Rd #323,West Helena,AR,72390,870-673-1263
D & B Movers & Renovators,710 N Dupree,Ashdown,AR,71822,870-898-6650
Gosney & Son Trucking,502 Hwy 144 West,Lake Village,AR,71653,870-265-4845
Mike Harrell Trucking,58 Gipson Lane,Dover,AR,72837,501-331-4076
Bolden & Son Transport,90 Sfc 202,Forrest City,AR,72335,870-633-8834
Ozark Express,1000 Se 5th St. Suite J,Bentonville,AR,72712,479-271-9696
Jr Trucking,2208 South Main,Stuttgart,AR,72160,719-963-3244
Ray House Trucking,4105 Northbrook Circle,Van Buren,AR,72956,479-629-4788
"J Martin Trucking, Inc.",501 Chimney Cliff Rd,Lamar,AR,72846,501-885-0118
Petty's Service Center,40 Library Road,Dover,AR,72837,501-331-2049
Gary Eldridge Trucking,Rt 1 Box 145-b4,Des Arc,AR,72040,870-256-4957
Sears Burnett Trucking,109 N West End Street,Springdale,AR,72764,501-750-9416
Cafi Transportation,2838 Alton Apt B,Springdale,AR,72764,N/A
Diamond State Manufactured Housing Service,3755 Highway 67 West,Hope,AR,71801,870-777-2500
Red's Transport & Recovery,5301 Towson Ave,Fortsmith,AR,72901,501-285-3008
Savage Trucking,2521 Hwy 425 N,Hamburg,AR,71646,870-853-5452
Spar Transport,6400 Northern Hills Drive,Texarkana,AR,71854,870-774-8822
Ronnie Victory Trucking,418 N Main,Luxora,AR,72358,870-658-2374
J&j Trucking,243 Hodge Road,Judgonia,AR,72081,501-729-3084
Tfc Septic Tank Service,14815 Hwy 165,Scott,AR,72142,501-961-2277
Holliman's Trucking,213 Ouachita 56,Chidester,AR,71726,870-807-1126
Williams Family Freight,3620 Watson Road,Greenwood,AR,72936,479-996-7701
Johnson & Oliver Trucking,752 Archer,Hampton,AR,71744,870-798-2794
Jones Trucking,Rt 3 Box 135,Mccrory,AR,72101,870-731-2182
Lake Front Trucking,240 Martin Luther King Drive,Lexa,AR,72355,870-827-4009
Johnny Camp Trucking,391 Columbia Road 49,Stephens,AR,71764,870-596-2994
R & R Trucking,1476 Cr 219,Berryville,AR,72616,870-423-5703
Mcclellan's Trucking,608 West 3rd South,Prescott,AR,71857,870-946-0192
M A B Trucking,2000 Dee Avenue,Springdale,AR,72762,501-750-9124
Green Trucking,Rt 7 Box 3052,Texarkana,AR,71854,870-773-0432
Crazy Horse Trucking,103 White Wolf Trail,Searcy,AR,72143,501-368-1381
"Montana Truck Services, Inc.",2628 Hwy 33,Almyra,AR,72003,870-672-7469
Cupp Trucking,3002 Hwy 1 North,Watson,AR,71674,870-644-3430
K Kendrick Trucking,Box 183 Ault Road,Adona,AR,72001,501-727-5281
J & A Trucking,335 Greene Road,Tillar,AR,71670,870-392-7400
B & C Transport,609 Forrest Hill Drive,West Helena,AR,72390,870-572-7468
Don Timbs Trucking,115 Poplar Street,Trumann,AR,72472,870-483-5376
Janis Trucking,106 Berkshire Circle,Jacksonville,AR,72076,501-985-9984
Glory Bound Transportation,2418 West Main,Clarksville,AR,72830,479-647-9835
Tommy Ashworth Trucking,310 N Morrow Church St,Searcy,AR,72143,501-742-5409
Scott Mcgilton Trucking,34 Fish Levee Road,Crocketts Bluff,AR,72038,870-946-1155
Hayes Trucking,Hc 75 Box 161,Marshall,AR,72650,870-448-4758
El Trucking,263 Winchell Circle,West Memphis,AR,72301,901-438-5423
O Gulley Trucking For Jesus,918 Ellen,Magnolia,AR,71753,870-234-8625
Caldwell Trucking,21280 Hwy 39,Brinkley,AR,72021,870-734-6642
Buffer & Sperry Trucking,9968 Sperry Rd,Maysville,AR,72747,501-291-4698
A & S Trucking,128 Judge Smith,Marion,AR,72364,870-739-6468
Toland Trucking,43 Smithville Rd,Lynn,AR,72440,870-528-8616
Crystal Hill Express Transport,5112 Crystal Hill Rd,North Little Rock,AR,72118,501-758-4159
Hauling Cattle,Hc 72 Box 243,Fifty Six,AR,72533,870-757-2703
Fort Trucking,5465 Hwy 230,Walnut Ridge,AR,72476,870-886-3005
I W Carriers,1787 Mcneal Ln,Brinkley,AR,72021,918-810-0508
Earhart Auto Transport Services,2005 A N Reynolds Road,Bryant,AR,72022,501-653-0101
Tommy Ward Trucking,984 Armer Rd,El Dorado,AR,71730,870-862-7002
Riggins Trucking,Spring Street,Ulm,AR,72170,870-241-3242
G & L Trucking,Hc 71 Box 69a,Mountain View,AR,72560,870-269-2796
Coyote Transport,2208 South Main Street,Stuttgart,AR,72160,888-425-7149
Thoroughbred Truck Lines,68 Timberwood Drive,Cabot,AR,72023,501-605-8686
H G S Trucking,729 South Washington,El Dorado,AR,71730,870-864-6640
York Trucking,6913 Gerald Lane,Truman,AR,72472,870-593-2022
"Chris Weaver Trucking, Inc.",4608 0ak Park Drive,Jonesboro,AR,72404,870-802-0779
Sheids Transportation,10 East 9th Street,Mountain Home,AR,72653,870-425-5165
"J & P Abernathy Trucking, Inc.",2265 Mallet Road,Malvern,AR,72104,501-384-2365
"Sparkman Trucking, Inc.",135 Cactus Creek Rd,Quitman,AR,72131,501-589-3539
Shively Log Hauling,1249 Hwy 84 W,Glenwood,AR,71943,870-356-4536
Scaife Trucking,3958 East Service Road Apt 30,West Memphis,AR,72301,870-732-5896
Petit Jean,1826 1/2 West Pine,Warren,AR,71671,870-226-5015
Blackmon Hauling,1542 Hwy 73 W,Washington,AR,71862,870-777-1173
Booth Trucking,110707 Case Rd,Woodson,AR,72180,501-397-6220
"Millennium Trucking, Inc.",2628 Hwy 33,Rosston,AR,71858,870-946-8811
Run In Poor Trucking,159 Lr 51 S,Foreman,AR,71836,870-542-6054
Davis Transportation,101 Eason,Brookland,AR,72417,870-933-6323
G Mcmorris Trucking,1069 Hwy 195 N,Hope,AR,71801,870-874-2650
Skinner Trucking,Po Box 164,Portland,AR,71663,870-737-2700
Flemmons Trucking LLC,2202 Old Tillar Hwy,Mcgehee,AR,71654,870-501-2532
Needham's Auto Sales,5721 Hwy 34 W,Paragould,AR,72450,870-586-9101
Steve Hill Trucking,700 South Monroe,Dewitt,AR,72042,870-946-1074
Leroy Keigley Trucking,14853 S Hwy 59,Siloam Springs,AR,72761,479-549-3546
Rickey Smith Trucking,808 South College Street,Stuttgart,AR,72160,870-672-9628
Extreme Transportation,216 N Bailey St,Lowell,AR,72745,501-770-0851
Smith Transport,296 Arrowhead Rd,Mc Rae,AR,72102,501-412-7776
Gib Express,716 Wilson Road,West Memphis,AR,72301,870-733-0926
Circle R Transport,833 West State Line Rd,Junction City,AR,71749,318-986-4986
Cornwell Transport,R T 1 Box 75,Knoxville,AR,72845,501-885-3632
Ken Johnson Trucking,1901 North County Road 503,Blytheville,AR,72315,870-564-2456
Dale Sipes Trucking,301 S Hwy 181,Keiser,AR,72351,870-526-2493
Sam Morgan Trucking,515 Sw 5th St,Walnut Ridge,AR,72476,870-886-5330
"Larry's Trucking, Inc.",334 Hwy 246 East,Vandervoort,AR,71972,870-387-3301
Steven Lewis Trucking,4365 Hwy 67 West,Fulton,AR,71838,870-722-6647
N & L Trucking,267 Cr 652,Wynne,AR,72396,870-208-9659
Bryan Davis Trucking Co,2405 Wood St,Jonesboro,AR,72401,870-243-3447
Hester Trucking,253 Mcalvin Ave,Proctor,AR,72376,870-735-5476
Razorback Transport,62 Crooked Creek Rd,Conway,AR,72032,501-945-0123
Gabrial's Express,2609 North 12th Ave,Paragould,AR,72450,870-236-6920
Cm Trucking,1618 Phillips 241 Road,Lexa,AR,72355,870-572-6940
Laman Truck & Equipment Sales,819 N Main,Cave City,AR,72521,870-283-6488
Taylor's Trucking,90 Taylor Road,Rison,AR,71665,870-357-2202
Burnett's Trucking,500 Hwy 63 North,Warren,AR,71671,870-226-7389
Danner Trucking,710 W Halliburton,Dewitt,AR,72042,870-946-1517
Brown Trucking,Rt 6 Box 174,Clarendon,AR,72027,870-672-7469
J & T Trucking,24410 Hwy 17,Clarendon,AR,72029,N/A
A B C Haulers,104 Leah Lane,Bald Knob,AR,72010,501-724-6846
Bobby Hood Trucking,999 Parks Circle Road,Gentry,AR,72734,501-366-2321
D W La Cotts Trucking,Rt 1 Box 220,Watson,AR,71639,870-866-9323
J & L Trucking,1404 Ash,Star City,AR,71667,870-628-3786
R G Ray Trucking,916 South B Street,Rogers,AR,72756,501-636-8403
Patterson's Trucking,5909 Trenton Lane,Little Rock,AR,72209,501-562-9390
Tom Morton Trucking,604 N E 5th St,Atkins,AR,72823,479-857-0450
Jaybird Trucking,70 Marne Street,Marianna,AR,72360,870-295-6060
Advanced Transportation Group,20 Rutland Drive,Bella Vista,AR,72714,479-855-5876
Mclerran Trucking,1013 Lakeview Dr,Horseshoe Bend,AR,72512,870-404-0783
S & H Trucking,5445 N 79 Hwy,Bearden,AR,71720,870-687-3915
"Little Riggs Hauling, Inc.",2205a Malvern Ave,Hot Springs,AR,71901,501-321-1582
Steven W Baxter Trucking,Hwy 10 E,Belleville,AR,72824,479-493-2244
Billy Beavers Trucking,9739 Patsy Drive,Cabot,AR,72023,501-983-1485
C C Trucking,3304 S 54th,Fort Smith,AR,72903,501-484-9001
Joy Transport,3816 Albert Pike Rd,Hot Springs,AR,71913,501-762-2588
David Morris Trucking,703 Bemis St,Prescott,AR,71857,903-824-6123
Hoover Trucking,5147 Hwy 9 North,Salem,AR,72576,870-895-2009
S & G Trucking,1401 Boston,Pine Bluff,AR,71601,870-672-7469
Daniels Trucking Company,3412 Huttig Hwy,Huttig,AR,71747,870-797-2647
Eddie R Couch Trucking,1422 Hwy 355 W,Hope,AR,71801,870-722-1914
David L Thomas Trucking,641 Cr 310,Clarkville,AR,72830,501-754-4199
David Patton Trucking,26765 Hwy 20,Elaine,AR,72333,870-827-3584
R & L Trucking,5900 Hwy 131,Brickeys,AR,72320,870-295-2317
Circle F Transport,219 Highway 234,Ashdown,AR,71822,870-898-3432
T Henry Jr Trucking,500 Cherry St,Lewisville,AR,71845,870-921-5706
Dallas Stone Trucking,P O Box 85,Delight,AR,71940,870-379-2700
Yates Trucking,400 Homestead Lane,Cedarville,AR,72932,501-474-5291
One Source Transportation,4836 Elm Springs Rd,Springdale,AR,72762,479-756-2849
D & K Trucking,308 E Locust St,Cabot,AR,72023,501-337-0513
Triple H Trucking,360 Phillips Rd,Jacksonville,AR,72076,501-985-0615
C & C Transport,3067 Highway 174 S,Hope,AR,71801,870-777-4951
Sarrells Distributing,12 Cr 778,Jonesboro,AR,72401,870-931-4677
B E S Transport,20361 Widowmaker Rd ,Waldron,AR,72958,479-928-4234
C & R Transit,117 Oak Drive,Harrison,AR,72601,870-743-3334
Triple J Express,P O Box 997,Crossett,AR,71635,870-364-4061
Rawding Aquatic Distributing,309 Wagonsheel Park,Carlisle,AR,72024,870-552-7817
M & R Trucking,11830 Haynesville Hwy,Junction City,AR,71749,870-599-4227
Hampton Transport,500 Miller St #2,Clarksville,AR,72830,501-940-7302
Coleman Transportation,Rt2 Box 110,Holly Grove,AR,72069,870-462-8475
B B K Trucking,110 Bruce St,Helena,AR,72342,870-338-6693
S D Roberts Trucking,4900 Sassafras Trl,Whitehall,AR,71602,870-247-2996
D & W Trucking,Pob 341,Stuttgart,AR,72160,870-672-7469
Kirklands Express,3208-a Twin County St,Springdale,AR,72764,479-750-2032
R Hearts Trucking,3294 Union Rd,Harrison,AR,72601,870-743-4143
H & R Transportation,11290 Brookside Road,Bentonville,AR,72712,501-795-2727
C W Transportation,710 Stephens St,Success,AR,72470,870-532-3989
John Galbraith Trucking,126 Quachita Rd 506,Louann,AR,71751,870-689-3640
Suviaz Brothers Trucking,20783 Highland Drive,Springdale,AR,72764,479-927-5516
R & D Transportation,435 Greene 773 Road,Paragould,AR,72450,870-239-5128
Cooks Transportation,18657 No Mt Olive,Gravette,AR,72736,501-787-6343
Em Trucking,207 Bradley 84,Hermitage,AR,71647,870-463-2671
Piggy Back Express,1015 E Gum St,Russellville,AR,72802,501-967-7557
M L Cate Trucking,5500 E Robinson,Springdale,AR,72764,479-301-4745
O A Trucking,2401 W Main Apt 4b,Clarksville,AR,72830,760-596-2417
Tommy Solsbee Trucking Co,9501 E Hwy 10,Greenwood,AR,72936,501-996-8211
R & R Trucking,Rt 6 Box 344,Hardy,AR,72542,870-257-5434
Ugly Trucking,149 Mcculloch,Pea Ridge,AR,72751,501-451-0437
Bottom Line Trucking,Po Box 461,Morrilton,AR,72110,501-208-0171
Overdrive Trucking,1370 Madison 7880,Wesley,AR,72773,479-456-2249
Hill Top Trucking,309 West Central # 42,Central City,AR,72941,501-474-5291
B B Bait Hauling,Hwy 11 Rt 1 Box 139 B,Griffithville,AR,72060,870-256-3648
Gaston Trucking,201 Ouachita Road 365,Camden,AR,71701,870-231-6506
Triple T Auto,Rt4 Bo4 171,Prescott,AR,71857,870-887-2886
M & H Trucking,391 Wolff Project Rd,Tillar,AR,71670,870-222-3578
"Wrestless Trucking, Inc.",1333 Holly Rd,Salem,AR,72576,870-895-3709
Franklin Transportation,908 Fieldstone Ct,Centerton,AR,72719,501-795-8924
King Trucking,18610 King Road,Siloam Springs,AR,72761,501-524-9197
Johnson Trucking,1080 Polks,Grannis,AR,71944,870-385-7908
Sure Shot Trucking Service,109 Parkway Square,Pearcy,AR,71964,501-760-5057
Eudy Dozer Service,494 Westbrook Road,Dierks,AR,71833,870-286-2028
A & J Trucking,40 Brook Street,Allport,AR,72046,501-275-3332
Edgmon Trucking,Hcr 70 Box 401,Jasper,AR,72641,870-428-5957
Jackson Delivery Service,4612 W 22 St,Little Rock,AR,72204,501-664-1736
Jim Morrison Hot Shot Service,2002 Lynnwood,Benton,AR,72015,501-315-3894
Rdt Trucking,7923 Old County Road,Pocahontas,AR,72455,870-892-9082
Simkins Trucking,154 Indian Point Road,Ward,AR,72176,501-843-4433
Direct Express,P O Box 180233,Ft Smith,AR,72918,501-806-4696
G L Farris Mobile Home Services,665 Hilltop Lane,Mountain Home,AR,72653,870-425-0302
Triple L Express,1829 Lee 527,Brickeys,AR,72320,872-295-3259
D J Noe Trucking,3701 Watson Rd,Greenwood,AR,72936,501-996-6207
Shane Holland Trucking,Hwy 33 South,Des Arc,AR,72040,501-516-5517
Southern Trucking,741 Hayden Heights Rd,Mountain View,AR,72560,870-585-2567
Prunty Auto Sales,125 E Word,Jonesboro,AR,72401,870-935-5063
M & S Trucking,806 Knott St,Pocahontas,AR,72453,870-892-3381
J & R Trucking,1109 Hwy 79 B,Altheimer,AR,71901,870-766-4532
Ruby & Tony Smith Distributing,21021 Hwy 244 N,Siloam Springs,AR,72761,501-524-8361
Brian Mcclain Trucking,34634 Capps Road,Marked Tree,AR,72365,N/A
C & W Transport,4323 South 24th Street,Ft Smith,AR,72901,479-646-2401
C & F Trucking,720 S Union,Dewitt,AR,72042,870-946-0102
Phillip Stills Trucking,Route 1 Box 13,St Joe,AR,72675,870-439-2121
J & J Auto Transport,462 Greene 742 Rd,Paragould,AR,72450,870-672-7469
Art's Delivery And Custom Hauling,50 N Oak,Reyno,AR,72462,870-769-2520
Danny Kidd Trucking,132 Ouachita 565,Camden,AR,71701,870-231-6386
R T Trucking,112 Shoute Division,Eldorado,AR,71730,870-875-1592
Amazon Trucking,28050 Freedom Road,Chester,AR,72934,479-435-0259
Dc Jordon Trucking,126 Panama Rd,West Helena,AR,72390,870-572-2111
Riggins Transportation,P O Box 242,Ulm,AR,72170,870-672-7469
Bohannon Trucking,411 N Monroe,Dewitt,AR,72042,870-672-7469
Avery Truck,3253 278 East,Monticello,AR,71655,870-367-0482
H & G Trucking,1109 West 14th Street,Stuttgart,AR,72160,870-673-2167
Top Express,5407 N Highway 5 Suite 16,Bryant,AR,72022,501-653-2844
M & T Trucking,#10 Cloverdale Drive,Warren,AR,71671,870-226-2647
H D Trucking,1020 Mount Union Rd,Eldorado,AR,71730,870-875-1072
Jmj Trucking,Pob 388,Wheatley,AR,72392,N/A
Harness Trucking,1572 Lorance Dr,Little Rock,AR,72206,870-672-7469
Ron Kalkas Trucking,1963 Tokalon Road,Scranton,AR,72863,479-938-0054
J & S Trucking,2424 Clark Rd,Clarksville,AR,72830,501-754-7085
Tracy Jones Trucking,201 Strawberry River Rd,Smithville,AR,72466,870-528-4084
B & B Trucking,376 Law 352,Strawberry,AR,72469,870-528-4994
Lonestar Express,2215 Daniel Dr,Searcy,AR,72143,501-268-2528
J Bradshaw Trucking,103 Matthew Cr,Wynne,AR,72396,870-672-7469
Bullinger Bros Trucking,205 W 9th St,Rector,AR,72461,870-595-2527
Jmt Express,11 Shafer Trail,Austin,AR,72007,501-605-8170
Frank Guzzo Trucking,117 Mitchen Rd,North Little Rock,AR,72117,870-672-7469
Cds Express,Hwy 65 N # 10,Gould,AR,71643,870-263-8881
Chris Wilson Trucking,115 Lawrence 352,Strawberry,AR,72469,870-528-3610
Double L Trucking,Rr 4 Box 216,Camden,AR,71701,870-836-7712
Equity Transportation Of Arkansas,2113 Atlanta,Blytheville,AR,72315,877-767-0950
Doles Trucking,2762 Hwy 70 East,Lonoke,AR,72086,501-676-3332
C & C Auto Repair,6602 Tracy Avenue,Little Rock,AR,72206,501-490-2024
Harris Trucking,131 Lee 236,Marianna,AR,72360,870-295-5790
Griffith Trucking,Box 190,Hazen Ar,AR,72064,870-830-1423
Rogers' Trucking,296 South Wood Rd,Arkadelphia,AR,71923,870-403-0038
Mst Express,16187 Old Hwy 68,Siloam Springs,AR,72761,479-248-1843
Madison Trent Young,255 Eureka Street,Turrell,AR,72384,901-331-6365
Ken Deason Trucking,348 Farm To Market Road,Dequeen,AR,71832,870-642-3907
Parham Trucking,1212 Brookside Drive,Forrest City,AR,72335,870-519-9923
Bradley Roberts Trucking,221 Orchard Lane,Brinkley,AR,72021,870-734-2740
Ronnir Gregory Trucking,Hwy 108,Foreman,AR,71836,870-542-7545
Summers Trucking,12 Hankins St,Wooster,AR,72181,501-679-0884
Midway Trucking,877 Nev 7 ,Buckner,AR,71827,870-899-2225
C&k Trucking,3407 Old Tillar Highway,Mcgehee,AR,71654,870-382-2154
R L White Trucking,1416 West 25 Street,Pine Bluff,AR,71603,870-534-1774
Norris Trucking,13359 Hwy 39,Holly Grov,AR,72069,870-672-7469
Zeiler Trucking,108 Ouachita 505,Camden,AR,71701,870-231-4975
James Excavating & Trucking,101 Sherwood Ct,Dierks,AR,71833,501-622-8050
Steve Hill Trucking,406 Oak St,Delight,AR,71940,870-379-2556
Barnett Trucking,559 Winchester Rd,Monticello,AR,71655,870-367-4450
"Carson Transports, Inc.",248 Gum Springs Road,Mountain Pine,AR,71956,870-672-7469
Allen Trucking,209 Arabain Drive,Pine Bluff,AR,71602,870-672-7469
Green Trucking,130 West Oakland,Monticello,AR,71655,870-918-1396
"Cheyenne Trucking, Inc.",616 Ussery Rd,Jefferson,AR,72079,870-489-1712
Auto & Truck Transport,9607 Base Line Rd,Little Rock,AR,72209,501-569-0632
Shermans Trucking,Rt 2 Box 130d,Fouke,AR,71837,870-653-4576
Python Logistics,8 Lovett Lane,Morrelton,AR,72110,501-208-3611
Watkins Trucking,111 S Pine,Stuttgart,AR,72160,870-672-7469
Wish N Want Trucking,102 Lawrence,Fisher,AR,72429,870-328-7311
Watson & Seals Trucking,215 Watson Street,Osceola,AR,72370,870-622-0229
Vision Trucking,393 County Road 1075,Mountain Home,AR,72653,870-425-2270
Stanfill Trucking,177 Stroope Ln,Mt Ida,AR,71957,870-867-2698
Peso Transport,609 5th Street,Gillett,AR,72055,870-548-2384
Gene Hauling Co,1020 Holden Ave,Newport,AR,72112,870-523-8894
P & W Trucking,871 Rankin St,Ashdown,AR,71822,870-898-8785
"B A Trucking, Inc.",130 Sawmill Rd,Stephens,AR,71764,870-786-5463
Rapid Transportation,7001 W 43rd Street,Little Rock,AR,72204,501-425-1181
Kenny Hughes Trucking,803 Hickory St,Arkadelphia,AR,71923,870-246-5999
Dj Trucking,1 Sullivan Rd,Smithville,AR,72466,870-528-3018
Capital Trucking,872 Hays Creek Road,Ahs Flat,AR,72513,870-994-7391
Kli Transportation,8844 Hwy 261,Palestine,AR,72372,870-672-7469
Chuck Tucker Services,1107 Letha,Springdale,AR,72765,501-756-1061
Mcghee Trucking,256 Newhome Rd,Quitman,AR,72131,501-589-3738
Ellison Trucking,814 Union 143,Stong,AR,71765,870-562-6543
"Mmac Bailey Trucking, Inc.",128 Begonig Place,Hot Springs,AR,71909,501-321-6153
Tadlock Trucking,9032 Hwy 71 South,Grannis,AR,71944,870-385-7861
Tramway Express Trucking,5740 White Dr,Batesville,AR,72501,870-793-6808
J & M Transport,34 Williamsburg,Cabot,AR,72023,501-941-7812
Dlr Express,566 2nd St,Keo,AR,72083,N/A
T N T Trucking,334 Dallas 126,Ivan,AR,71748,870-352-8079
Smith Hauling,5610 Us Hwy 278,Rosston,AR,71858,870-899-4078
John Blosser Transport,20807 Hwy 62 West,Lincoln,AR,72744,479-841-1754
D & B Trucking,416 Beasley Road,Proctor,AR,72376,870-733-9867
Nail Transport,4959 Hwy 70 West,Newhope,AR,71959,870-398-4095
Gillam Railroad Service,260 Griggs Street,Clinton,AR,72031,800-599-8437
Brown's Hotshot Service,300 Baker Rd,Glenwood,AR,71943,870-356-3020
Ronald D Bearden Trucking,101 Key Circle,Marked Tree,AR,72365,870-358-4290
D & L Hotshot Transport,107 Wacker Rd,Conway,AR,72032,N/A
"Double E Express, Inc.",2201 Taylor Rd,Searcy,AR,72143,501-305-4120
Della Trucking,1403 Meagan St,Springdale,AR,72762,479-751-9770
R H Trucking,Hc 79 Box 275,Oxford,AR,72565,870-258-3185
C & C Trucking,808 E 7th,Stuttgart,AR,72160,870-672-7469
Rockett Express,422 Pratt Loop,El Dorada,AR,71730,225-268-8134
Boykin Trucking,1010 Rae Ln,Pine Bluff,AR,71602,870-247-9411
"Price & Son Trucking, Inc.",5516 Elm Spring Rd,Springdale,AR,72762,800-687-5684
Dbf Transport,403 S Poplar,Searcy,AR,72143,501-268-3648
Los Amigos Transport,538 W Aldwin St,Nogales,AR,85621,520-287-0079
Molnaird Transport,210 Strong Hwy,Eldorado,AR,71730,405-354-0473
Kickin Back Truckin,Hc76 Box 380,Marshall,AR,72650,501-448-4433
Gardner Trucking LLC,2829 Highway 153,Crocketts Bluff,AR,72038,870-946-2918
James Lewis Diggs Trucking,130 Catlin Land,Hot Springs,AR,71901,501-622-2520
Bob's Transports,85 Ranchette Rd,Conway,AR,72032,501-328-7754
E & J Trucking,79 Lowe Dr,Pencil Bluff,AR,71965,870-326-4724
Cm Express,902 Dreher C/o Rd,Little Rock,AR,72219,501-261-7112
Kiwi Auto Transportation,595 E River Dr,Strawberry,AR,72469,870-528-4351
Thomas Construction And Custom Hauling,1103 Mcclure Lane,Mountain Home,AR,72653,870-425-9452
Sanders Trucking,715 Hamer Rd,Alma,AR,72921,501-806-6844
Kp's Transit,3017 S Izard,Little Rock,AR,72206,501-376-3214
R & P Express,10195 Hwy 84,Bismarck,AR,71929,501-865-2394
D & N Transport,2909 South V St,Fort Smith,AR,72901,479-782-1209
J Adams Trucking,141 Todd Muffit Rd,Hamburg,AR,71646,870-853-5927
Jim's Trucking,282 Greene 809 Rd,Rector,AR,72461,870-522-3922
Auto Master,615 Jean Mary,Tontitown,AR,72770,479-361-2183
J Davis Trucking,805 S Weible,Pocahontas,AR,72455,870-892-0109
Tony Harcrow Trucking,200 Ouachita 59,Bearden,AR,71720,870-687-2831
W & W Motor Home Service,1402 North 26th St,Van Buren,AR,72956,479-883-9949
Gaines Trucking,1612 S R Street,Fort Smith,AR,72901,479-784-9053
Double H Express,310 West Service Road,West Memphis,AR,72301,870-733-0897
Brandon J Phillips Trucking,442 Cr 132,Hickory Ridge,AR,72347,870-672-7469
Twinz Trucking,3604 N 46th St,Fort Smith,AR,72904,479-494-7201
Terry Lee Binns Trucking,3051 Hwy 278 West,Wilmar,AR,71657,870-469-5629
Delta Ice,120 E Broadway,West Memphis,AR,72301,870-735-1352
Gci Excavation & Hauling,401 Moro,Fordyce,AR,71742,870-352-3836
Timberwolf Transport,920 Bob Hogue Rd,Clinton,AR,72031,501-745-7379
D & T Trucking,2180 Moores Church Road,Rison,AR,71665,870-325-6049
B & L Trucking,310 Eleanor,Wynne,AR,72396,870-208-8041
Freebird Trucking,360 Columbia 2 East,Emerson,AR,71740,870-696-2900
Cummings Trucking,1020 Park Avenue,Ashdown,AR,71822,870-898-2841
Lee Davis Trucking,4404 Stonebrook,Jonesboro,AR,72404,870-934-1337
A & B Transportation,416 62-65 South,Harrison,AR,72601,810-365-0104
Willis Transportation,9450 Pine Grove Rd,Gentry,AR,72734,501-736-8284
Dickerson Truckin,241 Nevadal,Prescott,AR,71857,870-887-3946
Trans-pro Express,817 Segar,Van Buren,AR,72956,479-474-5291
"Wespar Trucking, Inc.",1039 S Gutensohn Suite L,Springdale,AR,72764,479-725-1145
Ramey Trucking,1309 W Faulkner,El Dorado,AR,71730,870-863-0567
Rush Transport,904 E 28th Street,Russellville,AR,72802,479-857-1278
Maddox Trucking,106 Will Henry Drive,Lepanto,AR,72354,870-475-6092
Randall Sweet Trucking,192 Sweet Rd,Junction City,AR,71749,870-599-4301
Charles Brown Trucking,163 Russell Road,Earle,AR,72331,870-792-8471
B J Trucking,841 Cr 739,Wynne,AR,72396,870-238-2435
T & L Trucking,5513 Hwy 243 South,Lexa,AR,72355,870-295-6812
Fortenberry Transport,287 Hwy 159 E,Tillar,AR,71670,870-382-5963
R & R Trucking,4005 Webster Branch Rd,Van Buren,AR,72956,479-474-8310
Murphys' Trucking,1500 Col 8 East,Emerson,AR,71740,870-547-2747
Tad Yount Trucking,Rt 2 Box 46-a,Clarksville,AR,72830,501-754-2600
T & T Transportation,P O Box 52,Coal Hill,AR,72832,479-497-2901
Horton Trucking LLC,678 Mt Moriah Rd,Bonnerdale,AR,71933,501-525-8544
Harris Trucking,P O Box 574,Elkins,AR,72727,N/A
S P R Transportation,208 Parkcrest Dr,Bentonville,AR,72712,479-366-5971
Arter Trucking,804 Knott St,Pocahontas,AR,72455,870-892-5437
Marvin Hopson Trucking,602 So 10 St,Wilmar,AR,71675,N/A
J C Trucking,200 Ashley 495,Hamburg,AR,71646,870-853-4755
Low Down Trucking,Rt. 1 Box 179-d,Star City,AR,71667,870-535-2652
B D & A Trucking,4745 Greers Ferry Rd,Greers Ferry,AR,72067,501-825-8682
South Central Trucking,708 Fairfax Street,Mansfields,AR,72944,479-597-0510
G & D Transportation,138 Cottonwood Lane,Monticello,AR,71655,870-367-5037
Bc Trucking,4706 Sunbury,Texarkana,AR,71854,903-278-7813
J & N Trucking,45 Sfc 324,Forrest City,AR,72335,870-630-1130
Spells Trucking,561 Mc 158,Doddridge,AR,71834,318-464-0780
Rockin C Trucking,39 Wornick Road,Glenwood,AR,71943,870-356-5604
Awsemm Trucking,706 East Parks,Prairie Grove,AR,72753,479-846-2977
Tonacia Transport,1050 Bird Street,Benton,AR,72015,870-897-6215
Higgins Trucking,Co-268 Lafayette Road 126,Stamps,AR,71860,870-533-4560
Hamilton Trucking Co,14307 Parnell Rd,Cabot,AR,72023,870-241-3438
Vip Enterprises Trucking Express,132 W Bay Road,Atkins,AR,72823,479-641-1632
S G Trucking,819 Brownlea Ave,North Little Rock,AR,72117,870-241-3438
Hansford Courier & Transport,2706 Hwy 64,Alma,AR,72921,970-387-5012
Pro Transportation Logistics,7821 Zeuber Rd,Little Rock,AR,72206,501-490-0700
Keith Banks Trucking,607 Crafton Street,Corning,AR,72422,870-857-3409
Vinson Transport,145 East Hangar Road,Newark,AR,72562,870-799-8756
Willie's Wrecker Service,1306 East Mccloy,Monticello,AR,71655,870-367-8695
Cleveland Tyrone Davis,118 Market St,Helena,AR,72342,870-827-3736
B And B Trucking,878 Grant 4653,Sheridan,AR,72150,870-942-8273
C & D Trucking Co,1235 Cuba Cir,Camden,AR,71701,870-836-6459
Burke Trucking,147 Addie B Brown Rd,Crawfordville,AR,72327,870-823-5726
Santos Trucking,282 Colorado Ave,Springdale,AR,72764,479-756-0709
B & W Transportation,1789 Madison 5551,Huntsville,AR,72740,479-677-3002
Mcbryde Trucking,Hc 78 Box 19-aa,Star City,AR,71667,870-672-7469
Bbt,711 Golf Course Drive,Searcy,AR,72143,501-268-9402
Rn & Sons Trucking,6331 Elm Springs Road,Springdale,AR,72762,479-756-9534
Goodhaul Trucking Co,603 Nw 4th Street,Atkins,AR,72823,479-641-2516
Miss Frog Transport,415 Evans Rd,Caldwell,AR,72322,870-633-1434
Crisel Trucking,2134 Becker Rd,Little Rock,AR,72210,501-821-3565
C & L Express,323 South Main,Harrison,AR,72601,870-743-1200
Log Hauler Jimmy Billings Trucking,3135 Chestnut St,Bismarck,AR,71929,501-865-2983
Iron Eagle Trucking,13231 Old Military Lane,Harrisonville,AR,72432,870-578-3040
P And M Trucking,Rt 2 Box 170m,Fouke,AR,71837,870-653-2232
Medieval Express,6465 Gregory Road,Benton,AR,72015,501-316-1362
Holtons Trucking,3056 Mc35,Doddridge,AR,71834,903-701-3110
Dean's Trucking,9105 E Hwy 10,Greenwood,AR,72936,479-650-2520
Z-man Trucking,1013 N Second,Mcgehee,AR,71654,870-222-4099
Big Daddy Trucking,222 Chula Vista,El Dorado,AR,71730,870-864-9290
L J Trucking,236 Linder Road,Hamburg,AR,71646,870-853-2309
Re Phillips Trucking,10082 N Ark Hwy 265,Fayetteville,AR,72701,479-521-0508
Goldsberry Trucking,313 Mooney ,West Helena,AR,72390,870-536-2503
A & O Transport,410 Beck Rd,Proctor,AR,72376,901-848-9201
Carlisle Auto Repair,305 West Park,Carlisle,AR,72024,870-552-7850
Scott Taylor Trucking,1504 West Pine Street,Warren,AR,71671,870-820-2595
Harbin Transit,900 E Line Road,Searcy,AR,72143,N/A
J & S Transportation,7624 Hwy 70 W,Palestine,AR,72372,870-581-3562
J & S Hauling Service,Rt 1 Box 77-2,Star City,AR,71667,870-628-5808
Robinson Trucking,9435 Strong Hwy,Strong,AR,71765,870-797-2621
Tc Trucking,12488 Key West Salvage Rd,Bentonville,AR,72712,479-220-9084
Jacobo Transport,24 Fitzgerald St,Clarksville,AR,72830,479-214-1664
Lampkin Trucking,377 Cr 351,Jonesboro,AR,72401,870-243-1099
Hale Trucking Co,285 Gum Corner,Eudora,AR,71640,501-355-4263
Timberline Transport,4115 Jenkins Road,Waldron,AR,72958,501-637-4166
Pizanno Trucking Co,155 Lake Dr,Drasco,AR,72530,501-362-7150
Rodgers Trucking,4828 Hwy 158,Lake City,AR,72437,501-237-8097
B & K Trucking,Rt 1 Box 160 B/ Hwy 167 N,Hampton,AR,71744,501-798-2638
James J Dale,1351 Hwy 7 North,Harrison,AR,72601,501-741-3984
Tommy Thornton Trucking,513 S 6th Street,Ashdown,AR,71822,501-898-6565
R & C Trucking,1224 Bradley Rd 25 N,Warren,AR,71671,501-226-6901
El Dorado Transfer & Storage,191 Union 729,El Dorado,AR,71730,501-962-3575
Triple A Trucking,1101 Karena,Springdale,AR,72762,501-756-3530
"Mike Craig Trucking, Inc.",2405 South 7th,Rogers,AR,72756,501-636-7380
Curryco Distributing,4607 Trout Farm Rd,Springdale,AR,72762,501-751-6738
Thester Louden Trucking,824 Beouff,Eudora,AR,71640,870-355-2734
S & S Trucking,Hc 64 Box 33ef,Star City,AR,71667,501-628-5676
Wise Choice Moving,10371 Ne Jeter Rd,Fayetteville,AR,72701,501-443-2350
J E Irons Trucking,Rt 2 Box 23 A,Dewitt,AR,72042,501-946-2431
Pilcher Trucking,293 Ashley Rd,Donaldson,AR,71941,501-865-3057
Hutson Trucking,509 S Hazen,Hazen,AR,72064,501-255-4842
R D Transport,3650 Dogwood Lane,Cabot,AR,72023,501-843-2336
Mary Jo House,111 White Oak,Camden,AR,71701,870-390-6588
Moss Trucking,11136 South Old Cincinnat,Lincoln,AR,72744,501-824-5582
Gentry Bus Service,2401 W 31st Apt 12,Pine Bluff,AR,71601,501-534-0571
Youngman Trucking,16677 Hwy 94,Pea Ridge,AR,72751,501-451-8610
Jj & J Trucking,Walton Ave & Hwy 135,Black Oak,AR,72414,N/A
R & Z Trucking,6433 Hwy 242 West Road,Lexa,AR,72355,501-572-6009
Crawley Trucking,Rt 2 Box 124,Lowell,AR,72745,501-751-8849
S & S Trucking,Rt 1 Box 185 D,Gould,AR,71643,501-263-4920
Shepherd Trucking,11357 Cowger Ln,Dardanelle,AR,72834,501-229-1576
Prince-kelley Transportation,115 Robin Street,Batesville,AR,72501,N/A
Clifton Trucking,1605 Se P Street,Bentonville,AR,72712,501-273-3228
Oliver Trucking,Box 602,Corning,AR,72422,501-857-3395
Courtney Trucking,403 Collage St,Hughes,AR,72348,501-339-2186
R L D Trucking,2430 Highway 35 East,Monticello,AR,71655,870-723-3475
Mustang Transportation,7931 Colonel Maynard Road,Scott,AR,72142,501-961-2117
Cody Trucking Company,510 W River St,Ozark,AR,72949,479-264-7721
Rusty Crow Trucking,P O Box 346,Fouke,AR,71837,501-779-1209
J L Haynie Trucking,154 Havnivill Ln,Monticello,AR,71655,870-723-6776
Kandi's Transport Service,9 Lakeshore Dr,Greers Ferry,AR,72067,501-825-8016
Jim Rogers Mobile Home Sales,6700 Hwy 71 South,Fort Smith,AR,72903,501-648-1577
Banks Dowdy Trucking,17479 Highway 16,Siloam Springs,AR,72761,501-524-2470
Strope's Auto Sales,Hwy 62 E,Corning,AR,72422,501-857-3099
Albert Taylor Trucking,1326 A Q Circle Apt J11,Springdale,AR,72764,501-751-1226
Sammy Johnson Trucking,1110 Cutler,Arkadelphia,AR,71923,501-246-6942
John Hays Trucking,313 S Carl,Siloam Springs,AR,72761,501-524-6797
Dragon Express,9825 Pinnacle Valley Rd,Little Rock,AR,72212,501-868-9118
Gary Waltz Trucking,Po Box 162,Almyra,AR,72003,501-992-3502
Red Springs Transport,Rt 2 Box 768,Gurdon,AR,71743,501-353-6211
Rick's Wrecker Service,545 East Main Street,Magnolia,AR,71753,501-234-1223
Paul Jones Trucking,1305 North 46th Street,Fort Smith,AR,72904,501-785-4323
Larry Trucking,226 Bart Street,West Helena,AR,72390,501-572-7655
Budgetext Corporation,1936 North Shiloh Dr,Fayetteville,AR,72704,479-684-3443
"B & L Trucking Co, Inc.",174 Ashley 23 Rd,Hamburg,AR,71646,501-364-8057
Ready Transportation Company,2003 Hwy 82 West,Crossett,AR,71635,501-364-7550
Cherokee Express,1400 Arrowhead,Red Field,AR,72132,501-397-7340
Miller Trucking,300 Monroe Street,Clarendon,AR,72029,501-747-3944
Staton Trucking,13308 Frazier,Little Rock,AR,72206,501-897-1154
Whisenhunt Trucking,Rt 2 Box 515 - D,Dequeen,AR,71832,501-642-5064
Scott Trucking,Rt 1 Box 621 A,West Helena,AR,72390,501-572-9526
Miro Transportation,603 1st Ave S W,Gravette,AR,72736,501-787-6870
Shelly Henson Trucking,11151 Benuex Bottom Rd,Mulberry,AR,72947,479-997-1881
Express Rental,1520 Market St Suite A175,Little Rock,AR,72211,501-227-7448
R & R Trucking,Airport Rd,Augusta,AR,72006,870-347-2162
"Matthews Trucking, Inc.",1301 E College Street,Berryville,AR,72616,501-423-3694
Newman Trucking,Rt 3 Box 1063,Berryville,AR,72616,501-423-4037
Miller Trucking,308 Union 151,Strong,AR,71765,501-797-2203
Herbert Fort Trucking,14 Cantalejo Lane,Hot Springs Village,AR,71909,501-977-3307
Huffman Trucking,107 Maurice,Humphrey,AR,72073,501-873-4875
Tommie Reed Trucking,108 Railroad St,Monticello,AR,71655,870-367-5182
Jr Wrecker Service,73 Columbia 301,Magnolia,AR,71753,870-234-5879
Addison Benson Trucking,4305 N Armour St,Ft Smith,AR,72904,501-783-3514
J & S Trucking,4213 Fairview Rd,Paragould,AR,72450,501-239-2750
Halls Trucking Co,1907 Madden Rd,Jacksonville,AR,72076,501-985-0825
Danny Waltz Trucking,P O Box 229,Almyra,AR,72003,501-992-3348
"G T B Trucking, Inc.",Rt 1 Box 147,Wesely,AR,72773,501-738-2982
L & J Express,2621 Quebec,Little Rock,AR,72204,501-227-4067
Tbs Express,Rt 3 Box 16 Poplar Lane,Sheridan,AR,72150,501-942-2350
Heartland Marine Transport,2704 Sunny Brook,Jonesboro,AR,72401,501-935-3193
E J Trucking,P O Box 154,Carthage,AR,71725,501-254-2488
Gilley Trucking,Hwy 118 South,Tyronza,AR,72386,501-358-4076
P B Trucking,Route 4 Box 68b,Harrison,AR,72601,501-427-2019
Lewis Trucking,2013 Highway 63,Walnut Ridge,AR,72476,N/A
May's Trucking,609 West Radford St,Hamburg,AR,71646,404-775-6846
Whitson Trucking,1701 Parker N,Little Rock,AR,72114,501-372-2874
Rodney Glenn Trucking,2709 Scotchwood,Jonesboro,AR,72401,501-932-7172
K & K Carriers,100 Loucust,Green Forrest,AR,72638,501-438-6635
Stuart's Mail Service,220 Westover,Hot Springs,AR,71904,501-623-4697
Hunter's Trucking,529 Krewson,Jonesboro,AR,72401,501-933-8980
Gt Express,413 N Evans Rd,White Hall,AR,71602,870-247-1422
Short Hop Freight Co,Rt 8 Box 289f,Mountain Home,AR,72653,501-481-5164
Mcdaniel Express,141 Hwy 463 N,Trumann,AR,72472,501-483-6448
B & B Hot Shot Transport,401 S Moses,Hope,AR,71801,501-777-2160
Ledine Trucking,Young Street,Tontitown,AR,72770,501-751-6114
T G Trucking,98 Mulberry St,Marianna,AR,72360,501-295-2188
Bonner Trucking,Hwy 71 South Of Rest Area,West Fork,AR,72774,501-839-8591
Leon Kropf Dump Trucking,Hc 68 Box 80,Green Forrest,AR,72638,501-438-5857
Double L Express,151 Hl Circle,Hot Springs,AR,71914,501-767-0373
Reed Trucking,3724 Hwy 425 South,Fountain Hill,AR,71642,870-367-1972
J & S Trucking,631 N Beech,Ashdown,AR,71822,870-898-3187
Sheppherd Trucking,Hwy 50,Crawfordsville,AR,72327,800-386-2161
Drake Trucking,72 Drake Road,Gurdon,AR,71743,501-353-4261
Blb Trucking Co,P O Box 129,Smackover,AR,71762,N/A
Murphy Trucking,3638 Phillips Rd 115,Marvell,AR,72366,870-829-2406
Keeney Transports,Rt 2 Box 101a,Nashville,AR,71852,501-845-2462
Spakes Sign Service,2184 Highway 49,West Helena,AR,72390,501-572-7494
S & S Trucking,3502 East Lake Drive,Pine Bluff,AR,71603,501-879-0832
Big Country Transportation Services,825 South Booth Road,Searcy,AR,72143,N/A
Woods & Blankenship Trucking,802 Cr 176,Success,AR,72470,501-857-6543
C & L Trucking,1400 Ann Alden,Clarendon,AR,72029,501-747-5639
Barens & Son Trucking,2008 North Thompson Street,Springdale,AR,72764,501-750-9693
Marty R Harvey Trucking,2355 Jackson 70,Swifton,AR,72471,870-485-2717
Hot-rod Trucking,29 Delta Circle,Sheridan,AR,72150,N/A
Wade Blann Trucking,510 Cumberland,Hampton,AR,71744,870-798-4077
Nix Auto Transport,Rt 2 Box G12,Hughes,AR,72348,501-339-3197
Sid Ellis Trucking,1661 Columbia 27 S,Waldo,AR,71770,501-234-7951
Diamond T Trucking,P O Box 12,Wynne,AR,72396,501-238-2313
Mcv Transportation,2014 Patti,Springdale,AR,72762,501-750-9454
Montgomery Trucking,3819 Pointer Trail East,Van Buren,AR,72956,501-474-8776
Falkner Trucking,606 Paige Bvd,Lowell,AR,72745,501-751-5450
Tommy Henry Trucking,403 Lafayette,Lewisville,AR,71845,870-921-4930
K & D Trucking,402 W Palm,Brinkley,AR,72021,501-734-4554
Tbc Trucking,Rt 3 Box 180,Arkadelphia,AR,71923,501-246-6267
Dallas Stone Trucking,P O Box 174,Delight,AR,71940,N/A
Bonds Trucking,408 Mound City Road #c,West Memphis,AR,72301,501-732-3428
Jerry Childers Trucking,1310 W 16th St,Dewitt,AR,72042,870-946-0226
J & S Trucking,202 Bowling Ln,Hatfield,AR,71945,870-389-6932
Mad Mike's Autosales,2412 1/2 W Hudson Rd,Rogers,AR,72756,501-936-8896
American Distribution Services,206 Pebble Beach Dr,Harrison,AR,72602,501-741-0859
Fritts Trucking,817 Segar,Van Buren,AR,72956,405-657-3964
Buccelli Transport,536 Goosepond Road,Lonsdale,AR,72087,501-623-0190
Bell Trucking,115 Jordan St,West Helena,AR,72390,870-572-1449
Hood's Trucking,Po Box 231,Tyronza,AR,72386,501-358-3825
Don's Trucking,92 Cr 661,Wynne,AR,72396,501-238-8057
J P Trucking,901 E Perry,Hazen,AR,72064,501-998-7029
Batemon's Trucking,1902 Laurel,Pine Bluff,AR,71602,501-534-8942
"Ricky Griffin Trucking, Inc.",101 Martha Lane,Gurdon,AR,71743,870-353-6656
Blancha Merchant,119 Senator,Texarkana,AR,71854,870-772-5674
Jj Express Ltd,119 Liles Dr,Searcy,AR,72143,501-268-3343
Stanley Trucking,1010 E 8th Street,Stuttgart,AR,72160,501-673-8524
B & J Distributing,102 Oakland Street,Mcgehee,AR,71654,501-222-4551
Bullion's Trucking,115 Taylor St,Keiser,AR,72351,501-526-2493
Dyer Trucking,Rt 2 Box 453,Gurdon,AR,71743,501-353-4165
Mark3transportation,11 Billstown Rd,Delight,AR,71940,501-379-2097
Tommy Lane Trucking,Acorn Drive,Reydell,AR,72133,501-479-3545
Allen Express Delivery Services,14008 Bigsprings Road,Gravette,AR,72736,501-787-5506
Reeves Trucking,4545 Floral Rd,Floral,AR,72534,501-345-8870
Parker Trucking,Rt 1 Box 106 C,Dewitt,AR,72042,501-946-2066
Brad Braden Trucking,Rt 1 Box 299,Yellville,AR,72687,501-449-4422
Jr Smith Farms,596 Kaysinger Rd,Melbourne,AR,72556,870-373-1150
Shepherd Trucking,391 Mc 182,Doddridge,AR,71834,870-691-2805
Carl Sain Trucking,Po Box 357,Holly Grove,AR,72069,501-462-3512
Duayne Deaton Trucking,20651 Shady Grove Rd,Siloam Springs,AR,72761,479-524-9785
Parris Trucking,420 Grant 481,Prattsville,AR,72129,870-699-4473
"Horton Wrecker Service, Inc.",2803 Dan Ave,Jonesboro,AR,72401,870-931-6643
Mcjj Trucking,14900 Colonel Glenn Rd,Little Rock,AR,72210,501-954-7370
J&s Trucking,Rt 4 Box 96b,Nashville,AR,71852,501-286-3129
T & P Trucking,819 N Morril,Morrilton,AR,72110,501-354-6000
John James Trucking,1730 Grant 23,Grapevine,AR,72057,501-247-4645
Mike Eddy Trucking,105 Hunt Loop,Fordyce,AR,71742,501-352-5979
Rider Trucking,Rr 1 Box 160 R,Fouke,AR,71837,501-653-6794
Select Mobile Home Transport,1807 Edgewood Cove,Beebe,AR,72012,501-882-5801
Domino Transportation,817 Segar,Van Buren,AR,72956,501-474-5291
Williams Trucking,15 Winfield Circle,Trumann,AR,72472,501-483-2473
J D Custom Hauling,30436 Hatchie Coon Rd,Trumann,AR,72472,501-483-7647
J D Services,1403 Daline,Springdale,AR,72762,501-751-0927
Strope's Hauling,1607 Palm Street,Paragould,AR,72450,501-236-1277
Mike Ruchalski Trucking,375 Caddo Gap Rd,Delight,AR,71940,870-379-2005
David White Trucking,5174 Hwy 70 West,Forrest City,AR,72335,501-581-2946
Smackover Pressure Service,808 Maple,Smackover,AR,71762,501-725-2398
D E Trucking,3979 Gammon Road,Marion,AR,72364,501-739-4614
Jd & J Hauling,Po Box 942,Parkin,AR,72373,501-755-2603
"Schafer Bait Hauling, Inc.",4974 Ar Hwy 236 West,Lonoke,AR,72086,501-676-6492
Posinski Dumptruck Services,838 Rachel,Rogers,AR,72756,501-621-5457
N & L Hollis Trucking,827 School Street,Stamps,AR,71860,501-533-2935
Lazy B Trucking,1215 Grand,Benton,AR,72015,501-860-7913
M L Ayers Trucking,106 N Redding,West Memphis,AR,72301,501-732-3377
Sample Trucking,41 Lakeview Drive,New Blaine,AR,72851,501-938-2285
Roto Rooter Drain Service,1308 South Zero,Fort Smith,AR,72901,479-646-6208
J & J Trucking,1220 1/2 Fayetteville Road,Van Buren,AR,72956,501-410-1000
Holmes Trucking,106 Lambert Drive,West Helena,AR,72390,501-572-1914
Cox Trucking,273 Holman Rd,Dierks,AR,71833,870-286-2888
D Mitchell Trucking,18 Phillips 356 Road,Helena,AR,72342,870-572-9504
Muse Trucker,Po Box 121,Harrisburg,AR,72432,501-578-3222
"Hickmon Transport, Inc.",109 E Arch St,Searcy,AR,72143,501-268-5119
Jack's Hauling,3632 Hwy 163,Harrisburg,AR,72432,501-578-2983
Wright Trucking,147 Guwin Lane,Mountain Pine,AR,71956,501-760-1242
Eli Carpenter Trucking,3701 Walls Road,Pine Bluff,AR,71602,501-247-5467
Cnm Trucking,131 Carls Rd,Hamburg,AR,71646,501-853-9162
Jvt Trucking,11225 Dogwood Valley Rd,Rogers,AR,72756,501-359-3068
Maxwell Trucking,Highway 80 West,Waldron,AR,72958,501-637-3807
White Trucking,207 Martha St,Rondo,AR,72355,501-295-9434
Arkansas Back Haulers,126 Pier Road,Smackover,AR,71762,501-725-3688
Knr Transport,608 4th St,Van Buren,AR,72956,501-229-1592
Hudson Trucking,585 Jack Ware Rd,Junction City,AR,71749,501-599-4328
Ralston Trucking,749 Pangburn Rd,Heber Springs,AR,72543,501-362-8378
"Morphew Dozer Service, Inc.",Hc 72 Box 58,Langley,AR,71952,501-398-4258
Don Gray Trucking,Hc 80 Box 60,Casscoe,AR,72026,501-241-3208
Goodman Mobile Home Service,19025 N Springlake Rd,Little Rock,AR,72206,501-888-3815
Boggi Depot Trucking Co,Po Box 1764,Harrison,AR,72601,501-743-6035
Mid South Truck Sales,2870 Sfc Highway 261,Palestine,AR,72372,501-581-2548
Smith Trucking,13880 Meacham Rd,Prairie Grove,AR,72753,501-756-5693
S&s Trucking,0811 Williford Rd,Hughes,AR,72348,870-339-3489
Johnson Trucking,Highway 49 East,Marvell,AR,72366,501-829-2934
S N S Trucking,128 Lyndy Circle,Hot Springs,AR,71913,501-767-2837
Cannon Trucking,15 Shirley,Pine Bluff,AR,71602,501-536-4468
West Trucking,208 South Pine,Hamburg,AR,71646,N/A
C&t Trucking,900 South Denver,Russellville,AR,72801,501-890-6622
Dale Higgins Trucking,595 Hwy 4 E,Wickes,AR,71973,N/A
Jim Case Trucking,12442 E State Highway,Subiaco,AR,72865,501-938-2817
Ffa Trucking,8200 Hwy 90 E,Walnut Ridge,AR,72476,501-892-5546
Cullipher Trucking,Rt 8 Box 150,Texarkana,AR,71854,501-773-0285
"Dumarc Trucking, Inc.",323 Geelan Dr,Marion,AR,72364,501-739-5658
Hillbilly Truckin,5305 E Hwy 96,Ozark,AR,72949,479-667-7212
R & A Trucking,107 Pierce Street,Mcgehee,AR,71654,501-222-5035
Ccr Transportation,1850 Lancaster Drive,Springdale,AR,72762,501-751-1195
E T Trucking,13400 Youngs Road,Gentry,AR,72734,501-736-8528
C W Thornton Trucking,Route 3 Box 169,Rosston,AR,71858,501-899-2555
White Tail Express,50 Central Road,Arkadelphia,AR,71923,501-246-5697
Bell Trucking,290 Hwy 230,Cave City,AR,72521,870-283-7432
Woodson & Son Trucking,190 Jarrett Street,Marianna,AR,72360,870-295-9449
De Mar Ka Transportation,901 North Pine,Nashville,AR,71852,501-845-4066
Ken's Trucking,915 Kennedy,Paragould,AR,72450,501-236-4253
J & B Mobile Home Transport,116 Fairwood Ln,Mena,AR,71953,501-394-0591
Randy Fowler Trucking,817 Segar,Van Buren,AR,72956,501-474-5291
Dawson's Backhoe Service,588 Deer Haven Trl,Salem,AR,72576,501-895-4247
Dexter's Express Services,1207 E 8th Ave,Pine Bluff,AR,71601,870-535-7169
Densmore Trucking,Rt 1 Box 81 C,Mcgehee,AR,71654,501-222-6020
G & D Trucking,604 Nevada 1,Prescott,AR,71857,501-887-6710
"Lance Ferrell Trucking, Inc.",2870 Hwy 8 South,Hermitage,AR,71647,870-463-8367
Driftwood Trucking,1097 Hwy 361,Strawberry,AR,72469,501-528-3362
J R Trucking,Rt 1 Box 526,Dumas,AR,71639,501-263-4658
Trade Show Express,5945 Camp Tahokoda Road,Floral,AR,72534,501-345-2072
Ashdown Service Center,666 Highway 71 South,Ashdown,AR,71822,501-898-2744
L & L Produce Distributing,611 S 4th Street,Van Buren,AR,72956,501-471-5145
Tahoe Trucking,2134 Aurelle Road,Strong,AR,71765,870-310-7558
Gray Land Trucking,Rt 1 Box 238,Lockesburg,AR,71846,501-289-6480
Calloways Hotshots,3105 West 36th,Pine Bluff,AR,71603,N/A
"Holman Construction Co, Inc.",85 Johnson Rd,Dover,AR,72837,479-885-6463
Ken Norris Trucking,344 Scott Road,Holly Grove,AR,72069,501-462-8421
Moody Farms Trucking,490 Highway 231,Walnut Ridge,AR,72476,501-886-6240
Green Trucking,Hwy 8,Caddo Gap,AR,71935,870-356-4445
Don W Spiegel Trucking,14945 Hwy 214 East,Harrisburg,AR,72432,870-578-5088
Wylie Harmon Trucking,717 E 4th Street,Rector,AR,72461,501-595-3712
J & A Trucking,Hwy 86 West,Holly Grove,AR,72069,501-462-3333
J K D Trucking,Po Box 139,Western Grove,AR,72685,501-429-6477
505 Transport Company,5223 Mc 505,Fouke,AR,71837,870-653-3616
Pre Fab Crane Service,25520 Interstate 30,Alexander,AR,72002,501-847-8401
D & M Trucking,128 Cannidal Lane,Horatio,AR,71842,870-832-3530
Dennis Green Trucking,522 Posey Rd,Sparkman,AR,71763,501-366-4232
S & B Trucking,3299 Cr 150,Bono,AR,72416,501-931-3484
Squires Farms,P O Box 7524,Springdale,AR,72766,501-789-2919
Hollywood Trucking,Hc 63 Box 29,Witter,AR,72776,501-677-2805
Rascoe Farm Services,240 Rainwood Terrace,Pearcy,AR,71964,501-767-2536
J & M Transport,Rt 19 Box 3350,Texarkana,AR,71854,501-779-1459
Wood Backhoe Service,18917 Y City Road,Gentry,AR,72734,501-736-2482
David Shinn Trucking,3180 Hwy 425 N,Monticello,AR,71655,501-367-6354
F & L Trucking,3541 Hwy 121 South,Marianna,AR,72360,501-295-5043
D & T Trucking,28 Mcneely Road,Arkadelphia,AR,71923,501-246-5799
V & P Trucking,10370 Noah Road,Gravette,AR,72736,501-795-0109
Ramey Trucking,199 Mc 6018,Yellville,AR,72687,501-449-6585
Central Arkansas Trucking,P O Box 410,Mabelvale,AR,72103,501-455-3141
Essex Design Transport,1451 Batesville Blvd,Batesville,AR,72501,501-251-2230
Edward Jones Trucking,1391b S Highway 65,Eudora,AR,71640,501-355-4656
Rmc Trucking,747 Highway 130 West,Dewitt,AR,72042,501-946-2605
B & S Trucking,437 North 8th St,Clarendon,AR,72029,501-747-3634
Bo's Trucking,110 Ashley Road 544,Crossett,AR,71635,000-007-1635
Environmental Transport Services,506 North Front Street,Dardanelle,AR,72834,501-229-3622
Kidd Trucking,320 North Park Ave,Ashdown,AR,71822,870-898-5987
G & R Trucking,1002 Shop Street,Warren,AR,71671,501-226-7885
John Belcher Dump Truck Backhoe & Asphalt Service,363 Hwy 90,Ravenden,AR,72459,870-869-3161
Bill Lindell Trucking,22 Park Dr,Evening Shade,AR,72532,870-266-3391
Hasty Motor Freight,1235 Cooper Drive,Springdale,AR,72764,501-756-5491
Clinton Marks Trucking,145 Pleasant Hill,Chidester,AR,71726,870-685-2003
Bearden's Overland Express,1583 Greene 138 Rd,Paragould,AR,72450,870-586-9256
A & S Trucking,208 Timberline Drive,N Little Rock,AR,72118,501-758-5206
Watkins Trucking,8874 Hwy 242,Lexa,AR,72355,870-572-1859
Circle S Trucking,110 Callahan,Mccrory,AR,72101,501-731-5133
Loyd R Graves Trucking,Walnut Valley Rd,Hot Springs,AR,71909,N/A
A 1 Hot Shots,202 Se 4th Street,Atkins,AR,72823,501-982-0901
L & L Trucking,Rt 1 Box 528,New Edinburg,AR,71660,501-226-3648
Alan Green Trucking,Po Box 117,Genoa,AR,71840,870-772-8733
Clyde Clark Trucking,1392 Collar,Pea Ridge,AR,72751,N/A
Ryder & Ryder Trucking,Route 1 Box 179-c,Waldron,AR,72958,501-637-4900
Scooby Express,635 Hwy 82 E,Magnolia,AR,71753,870-234-2242
M & T Trucking,210 E Central,Warren,AR,71671,N/A
Baker Trucking,4638 Hwy 234,Foreman,AR,71836,870-381-7388
L & B Payne Trucking,1695 Cedar Creek Pass,Waldron,AR,72958,501-637-3578
Lightfoot Transport,140 Stark St,Cherry Valley,AR,72324,870-442-7007
B & L Trucking,375 Cr 271,Mccaskill,AR,71847,870-874-9838
Vaughn Trucking,3343 Hwy 355 South,Fulton,AR,71838,870-983-2593
Jrc Trucking,1910 S 28th St,Van Buren,AR,72956,918-427-5709
George R Strother Trucking,119 Polk 641,Mena,AR,71953,501-394-7968
Boykin Trucking,3244 Hwy 160 E,Hermitage,AR,71647,870-463-2655
Need More Trucking,242 Lr 201,Ashdown,AR,71822,870-898-8299
Acklin Hauling,113 Country Rd 1007,Mountain Home,AR,72653,870-492-4753
Fitzgerald Trucking,3105 Kendyl Rd,Pine Bluff,AR,71603,501-879-5145
Allbright Trucking,7294 Hwy 35 South,Grapevine,AR,72057,870-942-3674
Auto-plex,1366 E Robinson,Springdale,AR,72764,501-756-0070
Cgm Trucking,200 Henderson,Horatio,AR,71842,870-832-5238
Tiger Distributors,35 Coffman Drive,New Hope,AR,71959,870-398-4510
Jarrell's Transportation,1695 Highway 64,Wynne,AR,72396,501-238-8859
L K Trucking,4600 W Seaton,Springdale,AR,72956,501-751-5240
G & L Trucking,205 Wilks St,Mcrae,AR,72102,501-726-3238
Maestre Transport,1429 E Brown St,Paris,AR,72855,870-672-7469
J & R Trucking,7 Cr 355,Vanndale,AR,72387,870-238-0535
R & R Trucking,108 Aja Ave,Crossett,AR,71635,870-364-2517
Smith Transportation,315 W Magnolia,Siloam Springs,AR,72761,501-524-4238
Jason Herron Trucking,#20 Cardinal St,Warren,AR,71671,N/A
J & M Trucking,268 1/2 Bowman Rd,Mcrae,AR,72102,000-007-2102
Wm E Hicks Transport Leasing LLC,17512 N Sardis Rd,Mabelvale,AR,72103,501-847-5116
Morgan Hauling,701 Shiloh Rd,Paragould,AR,72450,870-236-9784
Icenhower Trucking,146 Windy Hill Rd,Dierks,AR,71833,870-286-2486
Cook Trucking,Rt 1 Box 31,Star City,AR,71667,870-628-4006
Mcraven Trucking,2502 W Plainview Rd,Hope,AR,71801,879-777-4719
Young Trucking,3876 East Monitor Road,Springdale,AR,72764,501-750-1396
Robinson Trucking,20 Parkdale,West Helena,AR,72390,501-572-5961
Keith Craig Trucking,266 Cbs Rd,Lake Village,AR,71653,870-265-3812
Steve Hammond Trucking,190 Sturkie Rd,Sturkie,AR,72578,870-895-2614
M & M Tile Company,Hwy 412 West,Tontitown,AR,72770,501-361-2551
Industrial Service Group,609 E 2nd St,Stuttgart,AR,72160,870-673-6341
Jac's Transportation,3449 Ryan St,Springdale,AR,72764,501-927-0556
Douglas Trucking,22 S 22nd Street,Van Buren,AR,72956,501-474-7655
Jack Weldon Trucking,1017 A North Jackson Ct,Russellville,AR,72801,501-967-7887
Quimby Trucking,1665 Florence Rd,Monticello,AR,71655,870-460-0535
S M T Trucking,200 West Kerr,Sulphur Springs,AR,72768,501-298-3416
J W Smart Trucking,1513 Euclid,Texarkana,AR,71854,870-773-2693
"Long Trucking, Inc.",Rt 1 Box 382,Waldron,AR,72958,501-637-4407
Rose Of Sharon Express,21618 West Hwy 12,Gentry,AR,72734,501-736-2658
Triple B Trucking,Rt 2 Box 207,Hindsville,AR,72738,501-789-2686
Crisp Trucking,Route 1 Box 346-a,Shirley,AR,72153,501-723-8497
Run About Trucking,2522 River Road,Casscoe,AR,72026,870-241-3239
Holliman Trucking,21480 S Hiway 59,Evansville,AR,72729,501-848-3831
Robinson Trucking,Hc 32 Box 148,Hasty,AR,72640,870-429-6481
Rooster Trucking,916 Driftwood,Forrest City,AR,72335,870-633-3765
Jerry Peters Transporting,19071 S Skylight Mt Rd,Canehill,AR,72717,479-957-5355
Cdh Trucking,93 Grant 270040,Sheridan,AR,72150,870-942-4114
A To Z Transport,Rt 2 Box 3a Wve Mt,Bigelow,AR,72016,501-330-2701
Mobile Movers,3041 Hwy 65 North,Harrison,AR,72601,870-743-1290
Mid-america Environmental,600 North 12th Street,Ozark,AR,72949,501-667-1443
Tommy Joe Smith Trucking,403 Banks St,Tyronza,AR,72386,870-487-2549
Branch Trucking,43 Edgewood Circle,West Helena,AR,72390,870-572-6521
Richard Abernathy Trucking,Wheeler Lane,Mount Ida,AR,71957,870-867-2085
Dixon Trucking,1503 Dixon Ln,Fisher,AR,72429,870-219-5843
Gaston Trucking,3619 Pilot Grove Loop,Ozark,AR,72949,479-468-9330
K & S Trucking,Po Box 194,Alma,AR,72921,501-632-3106
Wheeler Trucking,3249 B Twin County St,Springdale,AR,72764,501-927-2346
Grider Trucking,246 Bradley Road 34,Warren,AR,71671,870-463-8172
Gene's Wrecker Service,13611 Cloverdale Rd,Rogers,AR,72756,501-631-6747
T & M Trucking,1727 Hwy 130 West,Almyra,AR,72003,501-474-5291
Team Transport,6668 Wedington Dr,Fayetteville,AR,72704,501-521-8095
Gaither Trucking,605 West Third Street,Stuttgart,AR,72160,870-673-2735
Matt Rae Trucking,Corner Of Whillington & Van Bu,Mount Ida,AR,71957,870-867-3096
3 D Trucking,911 Ada Street,Paragould,AR,72450,870-239-3105
Dunham Transportation,5179 Highway 367 N,Bradford,AR,72020,501-344-8574
Butler Trucking Co,501 Lr 65,Winthrop,AR,71866,870-381-7690
Dougan Transportation,405 Brandenburg Gate,Stuttgart,AR,72160,870-673-7991
Ralph Norris Trucking,413 Nance Street,Grubbs,AR,72431,870-252-3512
T & C Hauling,2000 East Shores Avenue,Lowell,AR,72745,501-248-6640
Triple C Auto Transport,P O Box 70,Garner,AR,72052,501-726-3862
Chuck Wagon Trucking,Po Box 1106,Greenbrier,AR,72058,501-679-5235
Jlm Custom Hauling,42 Varnadore Lane,Dewitt,AR,72042,870-946-4620
Five Star Trucking Co,810 S Holcomb,Springdale,AR,72764,501-872-1113
A B S Trucking,998 Silver Valley Rd,Harrison,AR,72601,870-741-7847
L Q Trucking,1810 S Timber,Stuttgart,AR,72160,870-673-1263
G&g Trucking,1004 Spruce,Lewisville,AR,71845,870-921-4868
Palmer Trucking,2538 Lee 129,Moro,AR,72368,870-768-3285
Mountain Pure Natural Spring Water,6921 Interstate 30,Little Rock,AR,72209,501-568-3540
Ed Shuman Trucking,Rt 1 Box 438,Bismark,AR,71929,N/A
S & S Trucking,5401 Line Ferry Rd,Texarkana,AR,71854,870-772-7530
Parker Trucking,1086 Highway 276,Stuttgart,AR,72160,870-946-3220
Watkins Express Trucking,1687 N County Rd 139,Manila,AR,72442,870-561-3641
Rickey Bishop Trucking,617 N Willow Rd,Trumann,AR,72472,870-483-5186
Ricky Sirmon Trucking,Rt 3 Box 201 T,Amity,AR,71921,870-398-5501
Arey Trucking,Hc 64 Box 213,Star City,AR,71667,870-628-4708
Walker's Hauling,702 Opera St,Stamps,AR,71860,870-533-2461
R A Spradlin Trucking,1545 N 10th St,Arkadelphia,AR,71923,870-230-1528
Bush Hauling America,Rt 1 Box 57,Damascus,AR,72039,501-335-8165
B & B Trucking,Rt 1 Box 89,Bismarck,AR,71929,501-865-3315
Reliable Mobile Home Service,506 Sherman,Fayetteville,AR,72701,501-444-0342
Bowman Trucking,138 Stokes Rd,Dermott,AR,71638,870-538-3326
Mtv Trucking,516 Wilson Road,W Memphis,AR,72301,870-732-9129
Jeffro's Trucking,Rt 1 Box 170-shelbyville Rd,Cave City,AR,72521,870-528-8001
T & M Express,Hwy 67 South,Prescott,AR,71857,870-887-1559
Von Kanel Trucking Co,1301 C Rd 256,Lexa,AR,72355,870-572-3703
707 Auto Porters,1812 Crestview,Jonesboro,AR,72404,870-273-6992
Woods Trucking,412 Erwin Street,Success,AR,72470,870-276-5585
Conner & Son Trucking,102 Sunrise Hills Drive,Hurricane Grove,AR,71957,870-867-6257
Clark Trucking,4043 Hoppe Lane,Fisher,AR,72429,870-328-7667
Silver City Trucking,1006 Nancy #8,Whitehall,AR,71602,501-247-9676
Tony's Trucking,3203 Hwy 167 S,Sheridan,AR,72150,870-942-0958
Circle D Transport,298 Coombe Rd,Bald Knob,AR,72010,501-724-6501
D & W Transportation,207 Marna Lynn Drive,Prairie Grove,AR,72753,501-751-5693
Southern Performance Transport,5921 E Johnson,Jonesboro,AR,72401,870-910-5560
Metro,2223 N College Ave,Fayetteville,AR,72703,501-582-3636
Pete's Trucking Co,260 Wish Street,Pleasant Plains,AR,72568,501-345-2567
T N T Trucking,210 Grove Street,Marshall,AR,72665,870-448-5580
"T S C Express, Inc.",520 Walnut Street,Helena,AR,72342,870-338-3467
Cobb's Carrier Service,4804 Sunbury,Texarkana,AR,71854,870-772-4148
Southern Performance Transport,5921 E Johnson,Jonesboro,AR,72401,870-910-5560
Cunningham Trucking,310 Ashley 454 Rd,Hamburg,AR,71646,870-853-5292
Rose Trucking,1006 E 7th St,Stuttgart,AR,72160,870-673-1562
Mccollum Trucking,1205 South Rose,Stuttgart,AR,72160,870-673-6226
Thompson Trucklines,110 Barrier St,Des Arc,AR,72040,870-256-9971
R & J Trucking,213 E 16th,Stuttgart,AR,72160,870-673-2993
Bar-k's Transport,1109 N Highway 65,Harrison,AR,72602,870-743-6762
White Trucking,218 Polk 96,Mena,AR,72958,479-207-0237
B & S Trucking,Rt 1 & 2nd Street,Atkins,AR,72823,501-641-1338
Koehn Commodity Transfer,579 Lafayette 57,Bradley,AR,71826,870-894-6378
Whodathoutit Trucking,136 Lawrence 233,Powhatan,AR,72458,870-878-6804
Norman Trucking,124 Norman Lane,Eudora,AR,71640,870-355-4542
Rhodes Trucking,321 Stanley St,Wilmot,AR,71676,870-473-2461
C & E Trucking,Rt 1 Box 354,Mulberry,AR,72947,501-997-1468
Harshaw & Bateman Hauling Service,1920 Romine Road,Little Rock,AR,72205,501-224-3789
Shook Transportation,10 W Keaton Flats Rd,Almyra,AR,72003,870-946-2396
Fred Baine Trucking,1448 Tidwell Rd,Tyronza,AR,72386,870-343-2864
Mcentire & Son Trucking,1309 Center,Alma,AR,72921,501-474-5291
Junior Phillips Trucking,12538 W Hwy 62,Farmington,AR,72730,479-530-2704
Owen Auto Oarts,4589 Hwy 71 South,Hatfield,AR,71945,870-389-6565
N & P Trucking,257 Sealand St,Marianna,AR,72360,870-295-2813
Rdm Transport,2000 Bee Branch Rd,Quitman,AR,72131,501-589-3623
Davidson Trucking,4022 Mountain Road,Harrison,AR,72601,870-741-5804
"A Plus Express, Inc.",9810 Hwy 84,Bismarck,AR,71929,501-865-2827
"Clegg Trucking, Inc.",30 Cr 7489,Wynne,AR,72326,870-238-7801
Igwt,1110 East 2nd Street,Russellville,AR,72801,501-890-5400
Reyes Trucking,Po Box 12,Winchester,AR,71677,870-392-2557
Glh Trucking,24 J R Circle,Greenbrier,AR,72058,501-679-6767
Marty Gregory Trucking,11181 Sr 124,Russellville,AR,72802,479-331-4873
Cazer Trucking Co,Po Box 1028,Carlisle,AR,72024,870-552-7312
Haynes Trucking,Route 1 Box 264-2,Star City,AR,71667,870-628-4358
P S Trucking,Box 92,Wilmar,AR,71675,870-673-1263
Currey Trucking,1300 Hwy 53 South,Gurdon,AR,71743,870-353-8081
Bobby Fondrer Trucking,80 Bewley Ln,London,AR,72847,501-293-4488
Jbf Trucking,Po Box 181,Grannis,AR,71944,870-385-7996
Pressley Trucking,2219 North 55th Lane,Fort Smith,AR,72904,501-782-7355
Triple J Trucking,216 Polk 204,Grannis,AR,71944,870-385-2589
P & L Trucking,87 Cr 7425,Wynne,AR,72396,870-238-0217
A & M Trucking,408 Chsmville Place,Greenwood,AR,72936,479-996-4252
Keith Black Trucking,P O Box 247,Hackett,AR,72937,501-638-7377
J & D Transportation,735 Edna,Fayetteville,AR,72703,501-443-3502
Bowman Trucking,138 Stokes Rd,Dermott,AR,71638,870-538-5857
G & P Trucking,130 Brewer St,Walnut Ridge,AR,72476,870-886-7279
Shelton Trucking,1301 H St,Strong,AR,71765,870-863-7392
Mi I Promotions Trucking,1010 N First St J-24,Jacksonville,AR,72076,501-834-6167
Vallance Trucking,139 New Hope Rd,Hardy,AR,72542,870-966-4470
Highfill & Son Trucking,319 Monroe,Plainview,AR,72857,501-272-4893
L & J Trucking,747 Cr 502,Rector,AR,72461,573-888-1471
Mcmaster Trucking,1611 Dodd Dr,Wynne,AR,72396,870-238-8430
R W Cook Trucking,12602 Hwy 140 N,Lepanto,AR,72354,870-475-6024
Baby Girl Delivery,760 Laurel Drive,Greenwood,AR,72936,479-420-4472
Emerald Ridge Trucking,1543 Cr 264,Cash,AR,72421,870-477-5556
Greenwood Transport,80 Grandview Dr,Greenwood,AR,72936,501-996-4730
Delta Environmental,1784 Hwy 1 North,Wynne,AR,72396,870-238-3260
Barnett Trucking,1506 Old Paragould Hwy,Jonesboro,AR,72401,870-931-9131
Jericho Logistics,88 Faith Lane,Russellville,AR,72812,501-967-5165
Gilligans Express,P O Box 336,Cotter,AR,72626,501-474-5291
Campbell Trucking,260 Gunther Road,Cushman,AR,72526,870-793-6154
Wright Trucking Co,Po Box 3254,West Helena,AR,72390,870-572-0367
Hill Delivery,500 Washington Street,West Memphis,AR,72303,870-735-2860
Leonard Griffie Trucking,1700 Lefargue Rd,Dewitt,AR,72042,870-946-2991
James Roosevelt Trucking,1864 Front Street,Eudora,AR,71640,N/A
Reliant Backhoe Service,1334 Lowery Dr,Lead Hill,AR,72644,870-436-9035
Tim Swan Hauling,153 Ashley 470 N,Hamburg,AR,71646,870-853-5361
Crosscountry Transport,510 Carlton St,Springdale,AR,72762,501-750-1208
L J's Trucking,1113 Zinc Rd,Harrison,AR,72601,870-741-7159
P T H Trucking,10395 South Jackson Highway,Lincoln,AR,72744,501-824-3828
Midstate Truck & Wrecker Service,5401 Highway 161,North Little Rock,AR,72117,800-853-6295
"Randy Rogers Trucking, Inc.",160 Knight Road,Scranton,AR,72863,501-938-7789
Triple B Trucking,716 S Main,Hamburg,AR,71646,870-853-8482
Burgess Transport,Po Box 2519,Conway,AR,72033,501-759-3538
Aubrey Fatherree Trucking,Route 1,Dierks,AR,71833,870-286-8243
Paint Horse Transportation,4905 Main,Pine Bluff,AR,71601,870-534-0120
C & S Trucking,21989 Summers Mtn Rd,Lincoln,AR,72744,501-824-2297
Double E Trucking,3008 Elm,Pine Bluff,AR,71603,870-534-8072
Milligan Auto Sales,Highway 18,Lake City,AR,72437,870-237-4228
Don Gage Trucking,664 Lemores Trail,Leola,AR,72084,501-332-8349
C & M Trucking,3725 Bay Lane,Harrisburg,AR,72432,870-578-3356
Lee Johnson Custom Hauling,33 Greene 749 Road,Paragould,AR,72450,870-236-1187
Wynn's Grading Service,# 2 Tamworth Circle,Bella Vista,AR,72715,501-855-3050
Phillips Trucking,10082 N Hwy 265 South,Fayetteville,AR,72701,501-521-0508
Triple L Express,9150 Grant 14,Pine Bluff,AR,71602,870-942-7447
T & C Trucking,544 Hwy 165 North,Dewitt,AR,72042,870-946-0466
S D Perry Trucking,10522 Grant 75,Sheridan,AR,72150,870-942-7368
Johnston Trucking,3610 Red Hill Rd,Alma,AR,72921,501-474-5291
Rainey Trucking,Rt 2 Box 190,Fordyce,AR,71742,870-352-2309
G & L Trucking,11703 Effie Way,Farmington,AR,72730,479-846-4584
Cmv Thomas Transportation,6443 Ridge Road,Malvern,AR,72104,501-332-8485
Jim Webster Trucking,513 Nelsonville Rd,Smithville,AR,72466,870-528-4049
Paul Ray Trucking,1161 Melrose Rd,Lockesburg,AR,71846,870-289-4208
Hancock Trucking,505 Davison St,Manila,AR,72442,870-561-3425
Kannada Trucking,512 S Rose,Stuttgart,AR,72160,870-673-1224
"Reinhart Trucking, Inc.",2008 N Crockett St,Stuttgart,AR,72160,870-673-7593
Bull Dog Express,2475 Sr 326,Russelville,AR,72802,501-967-4337
Horton Trucking,347 Cr 917,Mtn Home,AR,72653,870-425-8001
Ellis Express,500 Se Gibson St,Hoxie,AR,72433,870-886-9668
L J Trucking,Po Box 217,Rohwer,AR,71666,870-644-3870
T Bar J Trucking,Hwy 206,Pyatt,AR,72672,870-427-4107
Brasel Trucking,9616 Harris St,Harrison,AR,72601,870-741-4781
Ja Smith Trucking,704 Mckinney,Springdale,AR,72764,501-632-0790
Thomas Eagle Trucking,Hc 73 Box 203,Star City,AR,71667,870-535-0858
"359 Transport, Inc.",687 Bates Street,Batesville,AR,72501,870-793-0035
Esau Transportation,Rt 1 Box 478,Dumas,AR,71639,870-382-5393
R R Transport,2208 South Main Street,Stuttgart,AR,72160,870-673-1253
Murphy Trucking Co,Po Box 1002,Carlisel,AR,72024,870-672-7469
B & S Trucking,475 Reed Loop,Atkins,AR,72823,501-641-7600
L D Folkner Trucking,19 Morrison Cove,Marion,AR,72364,870-733-0649
Turner Trucking,Rt 1 Box 139,Clarendon,AR,72029,870-734-6557
Suzie Mcknight Trucking,1073 Stock Burger Ave,West Fork,AR,72774,501-846-1772
T & M Trucking,1117 E Union,Wynne,AR,72396,870-238-0522
J & T Trucking,2401 Wixson St Apt 8,Wynne,AR,72396,870-238-5571
James Trucking,108 Watkins Rd,Marion,AR,72364,501-739-4758
Hantover,7111 Star Greig Dr,Alma,AR,72921,479-410-2617
M J Trucking,510 Fern St,Marianna,AR,72360,870-295-4411
Smith Trucking,26 Williams Circle,Fouke,AR,71837,870-653-3741
Hill Excavating Hauling,Rt 7 Box 2459,Texarkana,AR,71854,903-748-0453
Rb Timber & Trucking,682 Madison 5521,St Paul,AR,72760,479-677-2154
Butler's Trucking,600 East Gibson,Dewitt,AR,72042,870-946-4488
Lap Trucking,808 East Sparks,Hazen,AR,72064,870-255-4803
Tc's Auto Transport,418 Shiloh,Marion,AR,72364,870-739-2568
Hall Trucking,603 West 21st Apt 24,Stuttgart,AR,72160,870-673-0615
Yellow Rose Transportation,Rt 1 Box 230-a2,Rosston,AR,71858,870-887-3392
C & K Pallet Company,1115 Hwy 165 E,Dumas,AR,71639,870-382-3898
B A Trucking,502 S Wood,Stuttgart,AR,72160,870-673-2812
R & R Trucking,891 County Rd 744,Colt,AR,72326,870-238-1744
Keith Irons Trucking,Rt 1 Box 310,Dumas,AR,71639,870-382-1257
Walker Trucking,Po Box 362,Wickes,AR,71973,870-385-7927
Curlett Trucking,504 E Washington,Hazen,AR,72064,870-255-4006
C W Slate Trucking,Po Bx 568,Mansfield,AR,72944,501-782-4864
Fliteline Express Services,1412 Phoenix Ave,Fort Smith,AR,72901,501-646-4771
Chick Trucking,1319 San Miguel,Springdale,AR,72764,N/A
Cliff Taylor Trucking,Rr 1 Box 7,Evening Shade,AR,72532,501-266-3457
Wright Trucking,Route One Box 260,Glenwood,AR,71943,N/A
Roy Silvey Trucking,Rt 4 Box 162-01,Waldron,AR,72958,501-637-2223
Norris Trucking,2004a Christy Dr,Springdale,AR,72764,N/A
L&b Trucking,Box 23,Lonoke,AR,72086,501-552-3303
Bennie M James Trucking,709 South Van Buren,Dewitt,AR,72042,501-946-3340
Ray's Trucking Co,2489 Hwy 79 S,Camden,AR,71701,870-836-9008
J P Jones,3739 Hwy 53,Buckner,AR,71827,870-533-4926
Roy Rose Trucking Co,Rr 1 Box 145f,Hazen,AR,72064,N/A
R & D Trucking,2004 Horton Lake Way,Greenwood,AR,72936,501-996-2657
Edward Davis Trucking,1114 Eicher St,Springdale,AR,72764,501-751-8279
C-b Trucking,1704 Westgate Dr,Blytheville,AR,72315,N/A
Busby Trucking Co,Rt 1 Box 256,Palestine,AR,72372,501-581-2873
Steffy's Trucking,2211 N Hwy 253,Lavaca,AR,72941,501-674-5653
"Carl Long Trucking, Inc.",Rr 2 Box Wg-23,Charleston,AR,72933,N/A
E L Mcfarlin Trucking Co,Rt 2 Box 25a,Des Arc,AR,72040,N/A
Lawson Trucking,Rr 1 Box 156-a,Mcgehee,AR,71658,N/A
Brasfield's Trucking,1506 E Broadway St,West Memphis,AR,72301,501-735-1448
Spar Transport,6400 Northern Hills Drive,Texarkana,AR,71854,903-794-6853
Wells Trucks,123 S 11th Street,West Memphis,AR,72301,501-735-9361
N & N Trucking,10194 Noah Rd,Gravette,AR,72736,501-471-0935
Sample Trucking,Po Box 237,Pleasant Plains,AR,72568,N/A
Anderson Auto Sales,208 Se Case Street,Hoxie,AR,72433,501-412-3904
Lazy Valley Trucking,P O Box 681,Morrilton,AR,72110,501-354-0333
Cordes Trucking,605 Oakridge Dr,Springdale,AR,72764,479-927-2043
Curtis Garner,17100 Hwy 79,Kingsland,AR,71652,870-348-5566
Powell Trucking,4404 Hwy 32 W,Foreman,AR,71836,870-542-6527
Rocking G Express,508 Foster Chapel Rd,Searcy,AR,72143,501-323-4677
Mcelroy Trucking,#10 Lochland Drive,Greers Ferry,AR,72067,501-825-6852
Elder Distributing Co,9300 Maumelle Blvd,North Little Rock,AR,72113,501-758-4170
Can-do Construction LLC,183 Nevada 220,Prescott,AR,71857,318-957-9570
Mercy Trucking,4300 Cobb St,Little Rock,AR,72204,501-562-3829
Razorback Transportation Service,1630 South 8,Rogers,AR,72756,N/A
P & L Trucking,1221 Overview,Jacksonville,AR,72076,N/A
E & P Express,4908 1/2 Sycamore,North Little Rock,AR,72118,N/A
Roy Morgan Trucking,229 Buck Branch Rd,Quitman,AR,72131,501-589-4035
Taylor & Lee Wrecker Service,Hwy 15- South,El Dorado,AR,71731,870-862-2066
B & J Trucking,501 M Street,Barling,AR,72923,501-474-5291
Reggans Trucking,403 Grant,Eudora,AR,71640,501-355-2959
Otha Barrow Trucking,7 Pc Highway 224,Lexa,AR,72355,870-995-3682
Lucas Trucking,Thomas Street,Parkin,AR,72373,501-755-2208
Arkansas Carriers,Rt 4 Box 77,Russellville,AR,72801,N/A
A R Carrier,Rt 4 Box 77,Russellville,AR,72801,N/A
James H Saffell Trucking,P O Box 111,Strawberry,AR,72469,501-528-4070
Napier Trucking,Box 153,Hermitage,AR,71647,870-463-2888
Southland Express,Po Box 111,Searcy,AR,72143,N/A
Don Devazier Trucking,3115 Sanyo Road,Forrest City,AR,72335,870-633-4020
Five Star Trucking,Hwy 71 North,Van Buren,AR,72956,N/A
Lakeside Trucking,Rt 1 Box 176,Rosston,AR,71858,N/A
M-k Trucking,Rt 1 Box 352,Lowell,AR,72745,N/A
20th Century Holiness Church,P O Box 710,Van Buren,AR,72956,501-997-1542
Graham Trucking,P O Box 723,Siloam Springs,AR,72761,918-422-5635
Larry Sivils Trucking,650 South Church,Wilmot,AR,71676,870-473-5129
Hite Trucking,Route 1 Box 121a,Canehill,AR,72717,501-848-3502
All American Auto Transport,1750 S Ingram St,Springdale,AR,72764,N/A
Dennis Forestry Service,Rt 1 Box 80-a,Waldo,AR,71770,501-693-5111
Chesshir Trucking,Po Box 209,Taylor,AR,71861,501-694-2801
Aa Auto,8125 Hwy 161,North Little Rock,AR,72117,501-835-5209
O R Trotter Trucking,111 Briar Crest Ct,Jonesboro,AR,72401,870-932-2631
Greg Thomas Trucking,Hc 73 Box 272,Mountain View,AR,72560,501-269-2796
Raper's Trucking,Rt 1 Box 22a,Traskwood,AR,72167,N/A
D & D Trucking,Rt 1 Box 57,Scotland,AR,72141,N/A
Sam Breshears Trucking,539 Polk 277,Cove,AR,71937,870-387-6402
"Rmb Food Service, Inc.",115 North 2nd Street,Fort Smith,AR,72902,501-783-6151
Anstine Trucking,410 S Debra,Bono,AR,72416,501-933-7138
S&s Trucking,1102 4th Terrace,Barling,AR,72923,479-452-3634
J & W Trucking,102 Ralph Reed St,Judsonia,AR,72081,N/A
Price Trucking,Po Box 3191,North Little Rock,AR,72118,N/A
W Trucking,437 Dixie Rd,Grady,AR,71644,501-479-3435
Home Trucking Co,390 Columbia 124,Waldo,AR,71770,501-693-5447
Independent Distributor,Rt 2 Box 0195,Ashdown,AR,71822,501-898-6785
Cline Distributing Co,Walnut Grove Rd,Booneville,AR,72927,501-675-4922
F & F Trucking,Rt 2 Box 128a,Bee Branch,AR,72013,N/A
Stevens D Hamby Trucking,6b Larkin Lane,Dewitt,AR,72042,870-946-2408
D T Trucking,Sandy Creek Lane,Genoa,AR,71840,501-772-8737
Peters Mobilehome Transporting,1236 West Hwy 16,Fayetteville,AR,72703,N/A
Price Brothers Express,314 North Moose St,Morrilton,AR,72110,N/A
Pony Express Trailer Mfg,7195 Herber Springs Road West,Quitman,AR,72131,501-589-3370
Roy's Auto Sales & Salvage,Rt 1 Box 17,Viola,AR,72583,501-458-2354
Country Road Truckin,243 Denison Rd,Rose Bud,AR,72137,501-556-5719
Bill Taylor Trucking,3863 Hwy 71,Lockesburg,AR,71846,501-289-6973
C & C Trucking,1903 Pattie,Springdale,AR,72764,501-751-4400
Steele Brothers Distributing,2360 Wedington Dr,Fayetteville,AR,72701,N/A
Att Express,22524 Interstate 30,Bryant,AR,72022,501-847-9189
Harold Collins Trucking Co,701 N 7th St,Augusta,AR,72006,501-347-2700
Paul Miller Trucking,Rt 1 Box 234-d,Harrisburg,AR,72342,501-578-5481
Parks Trucking,536 Dean Springs Rd,Alma,AR,72921,479-474-5291
C & E Trucking Co,P O Box 549,Paragould,AR,72451,501-236-1380
Pyramid Automotive LLC,4535 E St Hwy 18,Blytheville,AR,72315,870-763-2010
Mcclains Trucking,34596 Capps Rd,Marked Tree,AR,72365,501-358-3322
L & H Transportation,1062 N Bradley 25,Warren,AR,71671,870-226-3837
R Bryan Trucking,P O B 513 302 High,Mansfield,AR,72944,501-928-4502
Perry Transportation,Rr 1 Box 48,Trumann,AR,72472,N/A
Petticoat Express,305 S Cypress,Beebe,AR,72012,N/A
Leslie Trucking,869 Rachelle Ln,Newark,AR,72562,501-799-3745
E & E Trucking,1913 Pattie,Springdale,AR,72762,501-750-9209
Doug Easterling Trucking,Steelman Road,Thornton,AR,71766,870-352-7802
Columbine Trucking,Rt 1 Box 218a,Lockesburg,AR,71846,N/A
Quenzer Farms,1716 Grant 56,Sheridan,AR,72150,870-917-2156
Joe Payne Trucking,117 East Smithdale,Parkin,AR,72373,501-755-2353
Bryant Trucking,159 Bryant Lane,Searcy,AR,72143,501-268-7063
Waldron Hot Shot Service,Rt 3 Box 316,Waldron,AR,72958,501-637-2396
Glenn Wilson Trucking,Lot 19 Ashbriar St East Ridge,Green Forest,AR,72638,501-438-5702
Epig Trucking,2810 South Popular St,Pine Bluff,AR,71603,N/A
Jerry Baldwin Trucking,5300 Sunshine Rd,Pearcy,AR,71964,501-767-3889
Di-co Transport Co,Rt 1 Box 760,Green Forest,AR,72638,501-438-5338
Redfearn Transportation,436 Pr 1125,Texarkana,AR,71854,903-824-9876
Ellis Trucking,Rt 2 Box 340a,Forrest City,AR,72335,501-581-2878
J & O Trucking,Rt 4 Box 283,Arkadelphia,AR,71923,501-246-7769
Cherokee Trucking,305 Kane St,Siloam Springs,AR,72761,501-524-2054
Eugene Imboden Trucking,649 W Mount Zion Road,Monticello,AR,71655,870-367-5800
John Wallace Trucking,120 Hurricane Lake Rd,Bald Knob,AR,72010,N/A
M&j Transportation,Hc 73 Box 537,Mountainview,AR,72562,N/A
M & G Trucking,P O Box 402,Elaine,AR,72333,501-827-3769
Craig Trucking,207 Phillip Rd 327,West Helena,AR,72390,870-572-9430
C & C Trucking,210 Worden Rd,Bald Knob,AR,72010,N/A
Marks House Moving,711 E 2nd,Stuttgart,AR,72160,501-673-7611
Barnes Trucking,13734 Dan Lane,Harrisburg,AR,72432,870-578-3183
Winchester Trucking,Rt 3 Box 52,Piggott,AR,72454,501-598-3587
Rick's Trucking,1723 Missle Base Rd,Judsonia,AR,72081,501-729-5010
Benny Trevillion Trucking,Route 5 Box 82,Prescott,AR,71857,501-887-2746
Paj Trucking,1002 Flatrock Dr,Van Buren,AR,72956,N/A
Fowlkin Transportation,1810 A Waco,Fort Smith,AR,72901,N/A
Carroll's Machinery Service,Rt 1 Box 171 58a,Jacksonville,AR,72076,501-982-9218
Morgan Trucking,Rt 1 Box 263,Booneville,AR,72927,N/A
Melvin L Berry Trucking Co,Hc 74 Box 340,Mountain View,AR,72560,N/A
Foreman Trucking,1238 Vista Place,Fayetteville,AR,72703,501-575-0877
M & D Trucking,Rt 2 Box 209b,Holly Grove,AR,72069,501-462-3929
Larry Grantham Auto Transit,8703 A J Patton Rd,Cabot,AR,72023,N/A
Pat Essary Trucking,1520 North Flat Rock Drive,Van Buren,AR,72956,501-471-0237
P & W Trucking,Rt 1 Box 263a,Mc Gehee,AR,71654,N/A
Billy Ray Jones Sr Trucking,Rt 1 Box 339,Pocahontas,AR,72455,501-892-8111
J & A Hauling,517 Dover Rd,West Memphis,AR,72301,N/A
Mcmillan Trucking,703 Cherry Wood Rd,Cabot,AR,72023,800-868-5043
Stouffer Trucking,Rt 1 Box 539,Van Buren,AR,72956,N/A
East Side Truck,415 E Walnut,Walnut Ridge,AR,72476,N/A
T L Holmes Trucking,Rt 3 Box 45,Van Buren,AR,72956,N/A
L & J Trucking,1006 E Third Ave,Foreman,AR,71836,501-542-7285
B-n-b Trucking,653 Fleeman Rd,Manila,AR,72442,870-561-4825
J & L Trucking,314 E Wheel Street,Strawberry,AR,72469,501-528-4082
Adams Trucking,814 West 2nd,Dewitt,AR,72042,501-946-3012
"C And L Auto Recycling, Inc.",511 Malcolm Avenue,Newport,AR,72112,501-523-4406
Osborne Trucking,6831 Hwy 71 North,Alma,AR,72921,479-632-4881
Watson & Watson Trucking,Rt 1 Box 71k Hwy 64e,Wynne,AR,72396,501-238-9791
E J Singleton Trucking,3596 Hwy 1 N,Watson,AR,71674,501-644-3467
Ss Auto Transport,18 Jackson Oaks,North Little Rock,AR,72120,501-835-5457
Brian Evans Trucking,2117 W Nettleton Apt C,Jonesboro,AR,72401,501-972-5871
Brent Taylor Trucking,Route 1 Box 395,Grapevine,AR,72057,501-942-5150
Triple B Trucking,929 Skyline Dr,Searcy,AR,72143,N/A
Fitzgerald Auction Service Transportation F A S Tran,15783 Twelve Corners Road,Garfield,AR,72732,501-451-1367
Alice Henry Transport Co,664 Pc 338 Rd,Lexa,AR,72355,501-572-2846
Larry's Tire Service,100 S 16th,West Memphis,AR,72301,501-732-3147
James Mason Trucking,617 Southbay Drive,Bay,AR,72411,870-781-9417
Smith Trucking Company,Rt 1 Hwy 132,Taylor,AR,71861,318-539-3051
Bob Barenberg Trucking,228 1/2 E County Line Rd,Springdale,AR,72765,501-756-9050
"Southern Wholesale, Inc.",401 Wheeler Ave,Fort Smith,AR,72902,501-782-8811
Onie Moore Trucking Company,Rt 18 Box 305-c7,Texarkana,AR,75502,501-772-2464
Sturdivant Trucking,Rt 2 Box 392-a2,Lowell,AR,72745,N/A
G D Trucking,104 E Rosswood Road,Pine Bluff,AR,71603,501-535-6900
B Tinkes Trucking,P O Box 171,Winthrop,AR,71866,501-381-7915
D&e Housemoving,1401 Blacksnake Road,Hot Springs,AR,71913,501-760-2448
Diamond Transport Service,Rr 1 Box 892,Higden,AR,72067,501-654-2246
Rico Truck & Excavating,13115 West Highway 270,Pine Bluff,AR,71602,501-247-3245
A & B Trucking,Rt 1 Box M30,Ratcliff,AR,72951,501-635-8501
Solomon Trucking,3203 Westmoreland,Springdale,AR,72762,501-756-3334
Bmj Trucking,P O Box 662,Palestine,AR,72372,501-581-2870
J Reeves Trucking,1428 New Castle Road,Forrest City,AR,72335,870-630-7486
Flash Shuttle Service,2702 Donald St,Jonesboro,AR,72401,N/A
Buckaroo Express,310 Jonathan Dr,Bentonville,AR,72712,501-271-8788
Midwest Luxury Transportation,3719 Highway 261,Colt,AR,72326,870-630-2166
Tuff Enuff Express,P O Box 694,Siloam Springs,AR,72761,N/A
M & R Trucking,1247 N Gabbert,Monticello,AR,71655,501-367-1430
Lassiter Enterprises Trucking,P O Box 264,Norphlet,AR,71759,501-797-7810
Southard Trucking,2417 Harper,Corning,AR,72422,501-857-0004
Martin Trucking,10418 Tall Pine Drive,Mabelvale,AR,72103,N/A
Hellums Trucking,Rt 1 Box 17,Combs,AR,72721,501-677-2319
David R Watt Trucking,212 Ashley 440,Crossett,AR,71635,501-364-9218
Cross Country Transportation,124 Highway 71 North Suite 116,Alma,AR,72921,501-632-2053
B & B Trucking,131 Lakeshore Dr,Morrilton,AR,72110,501-977-1602
Galliher Transportation Services,1130 North Rollison Dr,Dewitt,AR,72042,501-946-3444
Stc Trucking,1081 Maya,Camden,AR,71701,501-231-9926
J & P Trucking,Rt 2 Box 307,Jonesboro,AR,72401,501-931-4465
W & W Trucking,103 Gayle Circle,Parkin,AR,72373,501-755-2177
L C Bishop Trucking,Rt 2 Box 9c 1,Lockesburg,AR,71846,501-289-2077
Don Shinn Trucking,106 Nelson St,Leachville,AR,72438,501-539-6826
Rickey Mcclain Trucking,P O Box 535,Lepanto,AR,72354,501-475-2479
Kirk Hood Trucking,9008 Hwy 302,Brinkley,AR,72021,870-734-4799
Associate Dump Haulers,11102 Hwy 70 West,Scott,AR,72142,501-961-1666
Armsco,330 Winona,Hot Springs,AR,71901,501-623-5005
Rj's Auto Sales,14203 Chicot Rd,Mabelvale,AR,72103,501-945-7444
Mcgee Trucking,Hc 64 Box 453,Star City,AR,71667,870-628-4038
Claydunk Enterprises LLC,118 Cr 4091,Jonesboro,AR,72404,870-243-4791
Bst,2201 E Broad St,Texarkana,AR,71854,903-278-9190
G W Palmer LLC,19 Mchue Road,Batesville,AR,72501,870-793-0006
Mayo & Mayo Transportation LLC,210 Mayo Lane,Holly Grove,AR,72069,870-462-8215
Blue Train Transport LLC,1500 Crestwood Road,North Little Rock,AR,72116,501-945-0123
H Trucking Express,4308 Mt Harmony Rd,Greenwood,AR,72936,479-996-2505
A L H,Po Box 3385,West Helena,AR,72160,870-995-5067
"Eti, Inc.",160 West Ridgewood Drive,Alexander,AR,72002,501-653-0319
L Town Transportation LLC,P O Box 37,Buckner,AR,71827,417-396-6248
"Bo Speed Construction, Inc.",330 Albano Dr,Springdale,AR,72762,800-226-3696
G&g Enterprises,Po Box 207,Stuttgart,AR,72160,270-928-3660
Ca Kennedy Enterprises LLC,424 Thacker Road,Rose Bud,AR,72137,501-593-1859
Last Chance,176 Dickson Rd,Wilmar,AR,71675,870-308-4562
J V Specialty,1400 Crownwood Rd,Viola,AR,72583,870-458-2791
"Darrell Steele Transportation Of Hoxie, Inc.",P O Box 190,Hoxie,AR,72433,870-886-3200
Tigger Transportation LLC,Po Box 25510,Little Rock,AR,72221,501-569-5395
Triple Bbb Hotshot Services LLC,Po Box 6844,Van Buren,AR,72956,918-448-6424
Joshlin Trucking LLC,151 Campground Lane,Beebe,AR,72012,870-589-0365
"Ratliff Oilfield Services, Inc.",757 Martin Road,Judsonia,AR,72081,501-728-3950
Sartin Tire LLC,403 N Main,Jonesboro,AR,72401,870-932-1412
"Dvt, Inc.",Po Box 428,Alma,AR,72921,479-430-8530
Deffenbaugh Industries,Po Box 1700,Lowell,AR,72745,479-872-9098
David Fetner,P O Box 157,Fouke,AR,71837,903-280-0456
P T L Transport Services LLC,9925 Highway 270,White Hall,AR,71602,870-692-2356
S A S G,P O Box 1976,Alma,AR,72921,479-632-5302
Coronado Installation,700 Elm Street,Clarksville,AR,72830,479-746-1418
Holman Trucking LLC,2133 Sfc 255,Palestine,AR,72372,870-317-5893
J & C Timber,461 Sullivan Rd,Wilmar,AR,71675,870-367-6690
Randall''s Welding,4725 Cameron Rd,Uniontown,AR,72955,479-353-7199
Right Choice Transport,311 Stone Creek Drive,Benton,AR,72015,501-794-6344
Sanchez Carport Construction,2423 Cr 2171,Heartman,AR,72840,479-774-5264
West Crossett Trucking,3405 Hwy 82 W,Crossett,AR,71635,318-805-1047
Weindel Metal,510 Sturgeon Place,Hackett,AR,72937,479-926-7130
A & J Trucking,515 North Long,Hope,AR,71801,870-292-9870
Jj Transportation,3600 S Frankfort,Russellville,AR,72802,479-967-6887
Drop And Roll Trucking,1904 Mc 18,Texarkana,AR,71854,903-293-6501
"Pearson Logging, Inc.",239 Polk 75,Mena,AR,71953,419-216-4189
Blandd Transport,2700 W Remmel Ave,Pinebluff,AR,71601,559-246-7352
Hatch Hauling,5703 Hempstead 3,Hope,AR,71801,870-777-4828
D&l Trucking,610 S Mockingbird Lane,Hope,AR,71801,870-292-0045
Govea Installation,4 Love Circle Apt B,Clarksville,AR,72830,229-589-3806
C Bar S Trucking,2645 Ponds Road,Maynard,AR,72444,870-631-2059
Dean Farms Trucking,3319 S Woolum Rd,St Joe,AR,72675,870-754-4717
Professional Auto Recovery & Transport,1605 Dan Ave,Jonesboro,AR,72401,870-378-6647
Cv Trucking,1149 N Myrtle,Warren,AR,71671,870-226-1432
Arroyo Installations,401 Lucas Street,Clarksville,AR,72830,479-214-7680
Smith & Sons Logistic,3691 Hwy 364,Wynne,AR,72396,870-980-8133
Geisser Transport,1778 Meadow Creek Rd,Clinton,AR,72031,870-363-4221
Jbocc Farms,109 Doc Brown,Marvell,AR,72366,870-995-2655
David Strobel Welding,110 Bartell Rd,Judsonia,AR,72081,501-368-8661
Quality Construction,22303 Hwy 64 West,Lamar,AR,72846,479-746-4028
C & D Cattle Company,28944 W Hwy 28,Waldron,AR,72958,479-637-4456
Lanny Jones Farms,932 Hwy 361,Strawberry,AR,72469,501-658-2945
Ricochet's Auto Salvage And Towing,479 County Line Road,Rosebud,AR,72137,800-226-3696
Wolfe Trucking,202 East Elm St,Russellville,AR,72802,479-420-4607
We 2 Transport,710 Amis Loop,Alco,AR,72680,815-761-9357
D & S Trucking,1902 Dogwood Street,Pocahontas,AR,72455,517-507-0612
Justin Wildy Farms,3080 Ncr 69,Manila,AR,72442,870-561-3500
Osburn Heavy Haulers,899 N Blue Jay Ln,Fayetteville,AR,72704,479-387-7330
Valley Gas,39b Southpointe Drive,Paragould,AR,72450,870-236-8332
Determined Destiny,1600 North Lane Street Apt K,Pine Bluff,AR,71602,870-718-2779
Galloway Construction,1945 Prim Rd,Prim,AR,72130,870-948-2401
Electra Signs Co,10006 N Campbell Rd,Fayetteville,AR,72701,479-236-0259
Anthony Transport,3412 Price Cir,Fort Smith,AR,72904,956-432-2265
Splash And Dash Tank Service,18 Ashley Dr,Plumerville,AR,72127,501-977-0500
No Cash Auto Sales,1015 W Broadway,Forrest City,AR,72335,870-494-3124
Piney Woods Trading Post,1621 Hilltop Drive,Texarkana,AR,71854,870-774-1586
Wjd Trucking,2817 Barber Road,Booneville,AR,72927,479-206-0959
Stinger Transport,1020 Mattox Rd,Ozark,AR,72949,479-209-5454
R & J Scrap Metal LLC,671 Fairview Rd,De Queen,AR,71832,870-642-8986
Opm Transportation,84 W Park St,West Helena,AR,72390,863-272-2558
Unlimited Recovery Towing,1501 Justice Dr,Harrisburg,AR,72432,870-578-9997
Guanajuato Express,101 North Michael,Lowell,AR,72745,479-502-5273
D&e Trucking,72 Sfc 840,Palestine,AR,72372,870-270-0193
Willie Makeit Farm'n,2 Suzanne Dr,Morrilton,AR,72110,501-428-1285
Dustin Rusert,156 Polk 681,Mena,AR,71953,479-394-4176
Flying Rf Feed & Farm Supply,16601 Hwy 62,Garfield,AR,72732,479-359-2211
Kirkwood Jr Farm,2274 Phillips 315,West Helena,AR,72390,870-995-2559
Smi Express Services,2960 Prim Road,Prim,AR,72130,870-307-3318
Tabor Transportation,730 E Parks St,Prairie Grove,AR,72753,479-595-2099
Deans Heating And Ac,1300 California,Camden,AR,71701,870-836-7785
Harold's Classics Cars,11137 Hwy 412 W,Paragould,AR,72450,870-525-2235
Fuller Amusement,57 Lowder Road,Booneville,AR,72927,479-518-6727
P & H Contractors,602 Lanes Way,Manila,AR,72442,214-566-4605
"Crabtree Rv Center, Inc.",400 Heather Lane,Alma,AR,72921,479-632-0829
Grizzly Transport,12655 Colonel Myers Rd,Bentonville,AR,72712,918-951-4902
Arkoma Recovery,2541 Vest St,Branch,AR,72928,479-965-4908
P S Express,4216 Urbana Dr,Fort Smith,AR,72904,479-769-0934
Dustin Cook Trucking,10107 Shadow Lane,Dardanelle,AR,72834,479-747-0992
Browns Landscaping,270 Private Road 1115,Fouke,AR,71837,870-653-3827
P And T Distribution,1912 S 71 Street,Fort Smth,AR,72903,479-646-6906
D & D Hotshot,355 Romance Rd,Romance,AR,72136,501-278-0730
Jj Trucking Service LLC,21911 North Mill Road,Little Rock,AR,72206,501-231-7007
Arkla Taylor,7201 Scott Hamilton Drive,Little Rock,AR,72209,501-562-1262
Suemac Farms,1502 S Golf Links Cv,West Memphis,AR,72301,901-484-0050
J&b Farms,3008 Highway 53,Rosston,AR,71858,870-899-2760
Hauling Portable Buildings Actramsport,1924 Hwy 70 W,Glenwood,AR,71943,870-828-9718
M&l Trucking,2200 E 19th St,Russellville,AR,72802,870-834-9656
Strong Tower Delivery And Setup,3716 Princeton Court,Van Buren,AR,72956,479-883-3823
Horton Logging,1062 Hwy 8 East,Amity,AR,71921,870-356-9059
Wilmoth Excavating,21831 Bozarth Blvd,Gentry,AR,72734,479-957-2820
Prima,3010 Dugan Drive Suite 1,Little Rock,AR,72206,501-244-2195
Rooster 1 Transport,279 N Wilmoth Rd,Fayetteville,AR,72704,479-422-5082
Bobby's Towing & Recovery,1142 Hwy 133 North,Crossett,AR,71635,870-304-9143
Truong Son Market,4000 North O Street,Fort Smith,AR,72904,479-785-4444
Alltel Wireless,1001 Technology Drive,Little Rock,AR,72223,501-448-1263
S A Smith Trucking,15120 Trace Branch Rd,West Fork,AR,72774,479-799-8870
Universal Express Motor Courier,1475 Toltec Mound Lake Rd,England,AR,72046,501-606-3158
James Shipman,278 Georgia Ln,Starcity,AR,71667,870-370-2089
G & T Trucking,346 Madison 1515,Huntsville,AR,72740,479-559-2769
Enviromental Transport Co,7907 Sr 124,Russellville,AR,72802,501-208-2449
Mgr Transport,219 Great Stone Circle,Centerton,AR,72719,479-270-7635
Private Carrier,176 Polk 626,Mena,AR,71953,479-234-6677
Sciara & Whittington,1102-b Hwy 8 Weat,Eudora,AR,71640,870-355-4006
Beau Clem Trucking,86 Easley Loop,Greenwood,AR,72936,479-883-7196
Creasey Trans,2201 Russenberger Rd Lot C,Little Rock,AR,72206,501-316-9618
Remington Hauling,111 West Parks Street,Prairie Grove,AR,72753,479-846-1777
Morris & Morris Transport,567 Thomas Road,Pangburn,AR,72121,501-827-2208
Elder Trucking,2540 B Cr 762,Brookland,AR,72417,870-273-5755
Graves Logging,727 Cherry St,Waldron,AR,72958,479-227-0480
Crystal Springs Ice Co,334 Meyers Creek Road,Royal,AR,71968,501-991-3739
Hester Hauling,338 Stanley Rd,Bald Knob,AR,72010,501-283-1733
Twist Auto & Transport,3412 Cr 766,Jonesboro,AR,72401,870-476-8700
Perdew Trucking,89 Sfc 709,Forrest City,AR,72335,770-205-0218
Bar Ck Trucking,10212 Highway 278 W,Nashville,AR,71852,870-451-3590
Cosmo Transportation,98 Tecumseh Trail,Jacksonville,AR,72076,501-650-6721
H D Bailey Welding,147 Old Railroad Rd,Kensett,AR,72082,501-388-2193
Paul Mitchell Trucking,408 Midland Avenue,Springdale,AR,72764,479-871-7808
G & J Fort Trucking,203 Jenee Drive,Huntsville,AR,72740,479-263-1937
Cz Marine Transport,1612 Beth Dr,Rogers,AR,72758,479-899-7071
Guaranteed Trucking,4109 Highway 64,Menisee,AR,72107,661-816-8190
Walker Logistics,495 Wallick Drive,Cotter,AR,72626,540-966-2174
Childress Trucking LLC,3714 County Road 532,Monette,AR,72447,870-486-2417
Fort Smith Glass,8516 Hwy 282,Alma,AR,72921,479-632-5200
Smokey's Hot Shot Service,8704 Shaver Rd,Lavaca,AR,72941,479-632-1659
Cbtransport,9914 Virginia Drive,Mabelvale,AR,72103,870-723-8958
Tillman And Sons,3608 North State Hwy 239,Blytheville,AR,72315,870-763-7258
Miller & Sons,5426 Lariat Ln,Everton,AR,72633,870-688-5350
Bb Farms,2465 Estes Dr,Harrison,AR,72601,870-741-4734
Belle Starr Trucking,144 Powerline Road,Ashdown,AR,71822,903-278-5669
Carroll Trucking,138 Margo,Benton,AR,72015,501-860-1379
Crutchfield Windows,3718 South Highway 229,Benton,AR,72015,501-574-8952
Hl Transportation,1321 N 41st,Ft Smith,AR,72904,479-831-5906
Watson Ice,512 North Culberhouse,Jonesboro,AR,72401,870-932-3366
L&s Contracting,3 Whispering Pines,Fordyce,AR,71742,870-313-2117
Spring Valley Beef,13517 Rennic Rd,Summers,AR,72769,479-263-9584
J Jones Jones Transportation,2405 Silver Maple Dr,Little Rock,AR,72110,501-291-8450
Hk Transport,129 North Reveille,Magazine,AR,72943,479-227-1783
Pugh Trucking,200 N Pine,Hope,AR,71801,870-703-9846
Rdixsonxpress,500 Thomasville,Pocahontas,AR,72455,870-378-5721
M & M Express,906 Eastwood,Leachville,AR,72438,870-219-2788
Tuff World Trucking,511 N 1st #8,Jacksonville,AR,72076,870-331-3697
C5 Auto Transport,5500 Old Military Ln,Harrisburg,AR,72432,870-926-8881
Big Boyz,731 Hwy 8 North,Warren,AR,71671,870-226-6250
Double D Oilfield Service,16529 Hwy 65 S,Damascus,AR,72039,501-335-7140
Lane Trucking,372 Locust St,Marianna,AR,72360,870-945-1098
Mcnear Farm,1108 South Franklin,Blytheville,AR,72315,870-763-2539
Gg Transport,104 Flight Lane,Mena,AR,71953,479-243-7500
J C T,415 Ewen St,Weiner,AR,72479,870-408-0545
Meh Specialized Tire Repair,1927 Old Cemetery Lane,Cedarville,AR,72932,479-961-3240
"Trucking, Inc.orporated",3740 Midland Blvd,Fort Smith,AR,72904,479-494-7778
Lawson Farms,1066 Stony Point Rd,Houston,AR,72070,501-514-3232
Bill Lee Company LLC,415 Crosstrails Rd,De Queen,AR,71832,870-642-7127
Cvt Transport,624 Slack St,Pea Ridge,AR,72751,479-228-1816
Moore's Sales Company,4320 Hwy 65 South,Harrison,AR,72601,870-741-6600
In 4 D Haul Trucking,839 Sherwood Dr,Forrest City,AR,72335,870-630-0546
Arkansas Walnut And Timber Co,101 Oakhurst,Bentonville,AR,72712,479-685-9657
Tc Trucking,1409 W 57th,North Little Rock,AR,72118,501-553-5216
Moore Asphalt,2900 Moore Road,Jonesboro,AR,72401,870-273-1222
H & H Welding Supply,1507 E Broadway,Morrilton,AR,72110,501-354-0435
Gt&t Farms,98 Hwy 261,Palestine,AR,72372,870-581-2722
3c Transport,9300 Treasure Hill Rd Apt402,Little Rock,AR,72227,501-912-1758
Ultra Oilfield Services,17834 Potts Rd,Clarleston,AR,72933,479-252-0273
"Towncrier Promotions, Inc.",496 North Coral Canyon Loop #106,Fayetteville,AR,72704,970-393-2883
T Walker Transport,10678 Us Hwy 82 East,Texarkana,AR,71854,903-278-1358
A&d Transportation,948 Neil Sain Loop,Marion,AR,72364,901-848-3549
Glory Dawn Farms,315 Hwy 284,Wynne,AR,72396,870-588-7594
Deltatransportation LLC,210 N Vanburen,Weiner,AR,72479,870-684-2228
Tinajero Trucking,2702 N 5th Street,Rogers,AR,72756,479-295-5796
James Price Trucking,#30 Burkimo Lane,Holiday Island,AR,72801,479-253-4254
Grooms Hotshot Trucking,193 L R 201,Ashdown,AR,71822,501-568-5128
Arkansas Translink,1004 North 11 Street,Fort Smith,AR,72901,479-652-7192
"Wells Trucking, Inc.",125 Wells Rd,Monticello,AR,71655,870-367-2015
Travis Hanna,310 Harold Brown Road,Leslie,AR,72645,501-745-3540
Heigle Farms,187 Miller County 197,Doddridge,AR,71834,903-748-7087
Adams Transport Of Arkansas LLC,804 Kentucky,West Helena,AR,72390,870-995-7363
Bennie Mitcham,252 Paradise Island,El Dorado,AR,71730,870-797-2228
Palmer Marine,1024 Nickle Town Road,Greenwood,AR,72936,479-322-1144
Miller Farms Trucking,1328 Sorgham Hollow Rd,New Blaine,AR,72851,479-438-4372
Mpm Trucking,1388 Eldrigde Road,Springdale,AR,72762,479-283-4673
Mcghee's Shipping,6300 Arkansas 161,North Little Rock,AR,72117,501-801-5895
Turner Trucking,209 North Adams,De Witt,AR,72042,870-718-8157
Mrm Auto Transport,68 Laver Circle,Little Rock,AR,72210,501-813-0930
Lemus Trucking,3709 Reed Ln,Ft Smith,AR,72904,479-221-5163
W&w Trailer Sales,4505 Bloomer Rd,Charleston,AR,72933,479-970-4624
Near Ready Mix,1302 Jones Road,Paragould,AR,72451,870-236-9898
High Mountain Transport,207 E Parkin Ave,Parkin,AR,72373,870-755-7821
Ktcs Radio,5304 Highwayy 45 East,Fort Smith,AR,72916,479-646-6151
Vr Trucking,115 North Dixieland Road Suite 17,Rogers,AR,72756,479-419-9246
Finney And Sons Auto Service And Detail Center,1179 Hwy 133 North,Crossett,AR,71635,870-304-2184
Stomper Trucking,1226 Silver Road,Columbus,AR,71831,870-451-1260
Rabbs Watercraft Towing,8955 Kennedy Rd,Rogers,AR,72758,479-202-2049
Henry's Saw Mill,115 Mill St,Oak Grove,AR,72260,870-749-2091
Never Late Freight,905 Locust St,Texarkana,AR,71854,479-651-3627
M J R Trucking,8 Quail Creek Ct,Little Rock,AR,72206,501-897-1135
Instant Shade Of Nwa,11921 Ervin Mcgarrah Rd,Lowell,AR,72745,479-871-5166
Miller And Son Forstry Resoures,504 East Simmons,Waldo,AR,71770,870-234-4699
Nwa Motorsports,1351 E Henri De Tonti Blvd,Springdale,AR,72762,479-717-2040
Kilgore,13223 Dubuque Road,Omaha,AR,72662,870-754-5413
Two State Mobile Homes,6411 Pierce Drive,Fort Smith,AR,72908,479-474-0624
"Platinum Transport Co, Inc.",2104 E Line Rd,Searcy,AR,72143,501-268-4672
Hughes Trucking,5589 Hwy 24,Chidester,AR,71726,870-685-2868
Ellis Trucking,10991 Wpa Road,Gentry,AR,72734,479-549-8415
P&r Trucking,809 Clement,West Memphis,AR,72301,901-277-3898
Argus Logistics,302 E Millsap Rd,Fayetteville,AR,72703,888-888-8281
Lee Eddings Trucking,Hc 31 Box 484,Deer,AR,72628,870-866-1985
Darrell Gist,615 Calhoun,Luxora,AR,72358,870-822-0312
Beachler Trucking,1155 Hopson Road,Roe,AR,72134,870-468-7038
R&d Morse Trucking,8129 White Oak Rd,Mulberry,AR,72947,479-997-1352
D & T Trucking,107 Pierce Street,Mcgehee,AR,71654,870-222-5035
Cole Frams,215 W 19th,Stuttgart,AR,72160,870-673-1263
Walter Fears,852 Phillips 319 Rd,West Helena,AR,72390,870-572-9478
Top Logistics,12110 Stagecoach Rd,Little Rock,AR,72210,501-455-2337
Lakeland Logistics,3004 Industrial Park Road,Van Buren,AR,72956,479-471-1424
Shelby's Trucking,182 Cranberry Trail,Royal,AR,71968,501-767-4119
J V Transportation,20410 Sonora Road,Springdale,AR,72764,479-935-9737
Darrell Johnson's Sales LLC,1518 S Main,Leachville,AR,72438,870-539-2317
Roger Bruster Trucking,104 Bruster Lane,Mena,AR,71953,479-243-6266
Gilbert's Hauling,119 Central St,Flippin,AR,72634,870-453-8199
Harrison Trucking,5328 Hwy 8 W,Arkadelphia,AR,71923,870-246-2045
Ronnie King Trucking,15330 Hwy 220,Chester,AR,72934,501-929-5630
Eagleone Logistics,4001 Planters Rd,Ft Smith,AR,72908,479-785-3524
Farmers Transport,2213 Highway 65n,Eudora,AR,71640,870-355-4230
Dougan Farms,601 North Walnut St,Emmet,AR,71835,870-703-7777
Espejo Trucking,1106 W Collum Lane,Alma,AR,72921,479-430-1862
Dill Trucking & Service Co,200 Ownes Street,Ward,AR,72159,501-843-4214
Larry Cox Farms,2473 Sfc 722,Forrest City,AR,72335,501-630-1891
F D Litchford Trucking,299 Frog Level Rd,Horatio,AR,71842,501-832-3904
"Code J Transport, Inc.",115 Lakewood Place,Ashdown,AR,71822,870-898-6709
Commercial Express,37 Reich Av,Everton,AR,72633,870-427-5272
Godfrey Trucking,17 Adalaide Cove,Conway,AR,72032,501-472-7732
Lovett Transport Service,20516 N Hwy 71,Mountainburg,AR,72946,479-200-9991
Sha-lu Transportation,2557 Hwy 26 E,Delight,AR,71940,870-279-2405
J & N Trucking,227 Brent St,Dumas,AR,71639,501-548-2251
Advantage Food Group,1619 Grand Ave,Fort Smith,AR,72901,479-459-4620
Terry Hathorn Trucking,17488 Clear Water Road,Fayetteville,AR,72704,479-443-9066
D-c Trucking,158 Caudle Ln,Horatio,AR,71842,870-832-3681
J & S Trucking,98 Cook Lane,Perryville,AR,72126,501-333-2504
O & O Trucking,1900 South Spring,Stuttgart,AR,72160,870-673-3212
Vms,1453 Hwy 234,Ashdown,AR,71822,870-898-8103
T L Findley,3 Pintail Loop,Stuttgart,AR,72160,870-673-6702
Mccune Trucking,1104 Crooked Creek Rd,Humphrey,AR,72073,870-873-4869
William House Trucking,3531 Crestwood Dr,Texarkana,AR,71854,916-751-8768
Yates Iron & Transport,19431 Jones Creek Road,Waldron,AR,72958,479-923-4323
"Ramsey Trucking, Inc.",1366 Coler Dr,Pea Ridge,AR,72751,501-451-0258
Horseshoe Express,422 Bass Road,Horseshoe Lake,AR,72348,870-339-2415
Haynie Express Logging,Route 1 Box 49 A 1,Rosston,AR,71858,870-871-2751
Corley Contract Hauling,12100 Hwy 84,Bismarck,AR,71929,501-662-0173
James Boys Trucking,16785 Kinchloe Road,Siloam Springs,AR,72761,479-530-9639
Dana Of West Virginia,963 Highway 24 East,Dequeen,AR,71832,870-798-4789
Mike Neal Trucking,1238 Red Hill Road,Romance,AR,72136,501-849-3196
C&j Heavy Haul,3620 Fischer Avenue,Fort Smith,AR,72904,479-783-6216
C & B Trucking,28 Cr 398,Wynne,AR,72396,870-588-5100
Dw & Cw Trucking,14076 Indian Creek Rd,Garfield,AR,72732,501-656-3544
Holbrook Farms,58 Copperas Gap Rd,Houston,AR,72070,501-889-2292
Joe W Givens Co,1200 Webb Rd,Benton,AR,72015,501-316-1749
Rocking B Trucking,1204 South Maple Street,Stuttgart,AR,72160,870-673-3035
Johnston Farms,416 N Main,Luxora,AR,72358,N/A
Mcpherson Transport,132 Palarm Creek Road,Conway,AR,72032,501-366-9946
Lynchburg Transport,11120 Mccratic Rd,Lincoln,AR,72744,479-824-2280
"Aph Transport, Inc.",110 Will Blvd,Searcy,AR,72143,870-672-7469
Parrish Delivery Services,101 S Victory Ste 101,Little Rock,AR,72201,501-372-4806
Thornton Hauling,5614 Us Hwy 278,Rosston,AR,71858,870-899-2305
Trojan Transport,22 Mack Triplet Trail,Kirby,AR,71950,870-398-5392
Hc Trucking & Sons,Hc 73 Box 49,Dogpatch,AR,72648,870-446-2398
Key Farms,3493 Hwy 121 N,Moro,AR,72368,870-946-8811
C J's Trucking Company,611 South Hazel St,Emmet,AR,71835,870-887-1519
Golden Logging,Rt 4 Box 235,Camden,AR,71701,870-574-0053
Owens Planting Co,113 South Main,Clarendon,AR,72029,870-747-5850
Davis Trucking,8725 S Graphic Dr,Alma,AR,72921,501-997-1964
Hurst Transportation,3976 Cr 528,Rector,AR,72461,870-529-3722
D & E Trucking,69 Sue Lane,Pocahontas,AR,72455,870-609-1007
High Road,231 Ashley 401,Crossett,AR,71635,870-304-7423
A & M Trucking,643 Buckhorn Rd,Monroe,AR,72108,870-734-7207
"Lambert Trucking, Inc.",931 N Centennial Ave,West Fork,AR,72774,479-841-5351
Jl Weir Trucking,2351 Country Lane,Springdale,AR,72762,479-361-2344
B & T Trucking,913 Ball Rd,Humnoke,AR,72072,501-275-0101
"Wood Construction, Inc.",123 Wright St,Chester,AR,72934,479-883-6630
Madison Farms,80 Lone Oak Rd,Williford,AR,72482,870-966-3547
Keathley Trucking,562 Lower Ridge Road,Conway,AR,72032,501-329-5932
Carrol Mccune Trucking,1871 Hwy 15 North,Lonoke,AR,72086,501-676-2870
Dj Trucking,655 French Rd,Bee Branch,AR,72013,501-654-2350
Trc Service Co,14822 Hwy 71 South,Fort Smith,AR,72916,479-996-7142
White Line Transport,609 N 2nd St,Augusta,AR,72006,870-347-6263
D & D Enterprises,2631 Claud Road,Pine Bluff,AR,71602,870-247-1080
D & D Trucking,5596 Us Hwy 278,Rosston,AR,71858,870-899-2537
D L Abbott Trucking,447 Foster Chapel Rd,Searcy,AR,72143,501-278-6755
Shelley Trucking,18509 Lake Sequoyah Rd,Fayetteville,AR,72701,479-575-0036
Hempstead Trucking,195 Quachita 269,Bearden,AR,71720,870-687-3737
Jerry Bocksnick,4444 Rushing Road,Dover,AR,72837,479-885-2194
Trying To Get Up,6302 Timber Ridge,Pine Bluff,AR,71603,870-879-3971
Stillwell Trucking,2202 Quail Ridge Road,Jonesboro,AR,72404,870-926-1470
Kelvin & Barb Trucking,4011 Robin Hood Lane,Pine Bluff,AR,71603,870-534-7440
Rj Trucking,182 Hempstead 48,Washington,AR,71862,870-983-2905
Freedom,6901 Red Bud,Fort Smith,AR,72916,479-649-3329
Les Reynolds,608 Nettles,Hampton,AR,71744,870-814-5189
Sanchez Systems,13125 Meadowview Drive,Alexander,AR,72002,972-824-9217
J & J Trucking Company,140 Columbia 420,Emerson,AR,71740,870-547-3393
D&d Hot Shot,1611 Broken Hill,Van Buren,AR,72956,479-651-5831
Walters Trucking,1050 Bird Street,Benton,AR,72015,910-829-9297
Howton Trucking,1878 Sfc 867,Palestine,AR,72372,870-581-2389
Jackson Express,82 Creekwood Drive,Jacksonville,AR,72076,501-912-8130
Shiloh Transportation,29034 Hwy 84,Malvern,AR,72104,501-337-6363
Peachey Transport,8840 N Hwy 43,Maysville,AR,72747,479-291-4608
Shelton Trucking,18 Cr Rd 478,Rector,AR,72461,870-595-1199
Fabian Trucking,44 Mill Creek Road,Delight,AR,71940,870-379-2862
Lynch M Logistics,301 N E 2nd Street,Atkins,AR,72823,479-641-1299
T G Johnson Trucking,487 Water Road,Clinton,AR,72031,501-745-4464
O & R Trucking,219 Kenwood,Lepanto,AR,72354,870-475-2515
"P Rye Trucking, Inc.",8411 Hwy 64 West,Russellville,AR,72802,479-967-7099
Tony Graham,12658 West Hwy 62,Farmington,AR,72730,479-846-2629
Shirley's Nuvision,178 Cr 365,Jonesboro,AR,72401,573-772-0008
Rbi,2703 South Boulder,Russellville,AR,72802,476-964-1090
Wayne Grinder Trucking,367 Polk 72,Mena,AR,71953,479-394-7847
K & S Transportation,Pob 784,Palestine,AR,72372,870-672-7469
Robert Nichols Trucking,141 Magnolia Rd,Adona,AR,72001,501-662-4964
Oxner Brothers Farms,129 W Cypress,Brinkley,AR,72021,501-940-1565
R & G Farms,718 S Division,Humphrey,AR,72073,870-873-4463
Glamour Logistics,118 Allen Cove,Marion,AR,72364,901-626-2770
Martin Trucking,307 Marys Lane,Mulberry,AR,72947,479-997-2550
Material Excess,600 Sw Sims Dr,Bentonville,AR,72712,303-304-2020
Freeman's,1140 E Page,Malvern,AR,72104,501-337-5926
Ash Transportation,2307 Russenberger Road,Little Rock,AR,72206,508-459-1223
Womack's Hot Shot,5628 S 98th,Fort Smith,AR,72903,479-484-0514
Ph Trucking,205 South 16,Lavaca,AR,72941,479-674-5044
Spence & Spence Farms LLC,392 Lafayette 57,Bradley,AR,71826,870-894-3733
Jjd Transport,109 Mooncrest Way,Russellville,AR,72802,479-968-2983
Dollar & Son,230 11th St,Marked Tree,AR,72365,870-243-2837
Alert Recovery,1518 Sams Way,Benton,AR,72015,800-643-8362
"Z-line, Inc.",53 Hwy 62b,Flippin,AR,72634,870-453-5489
Btc,183 Lr 71,Ashdown,AR,71822,N/A
Gary Holladay Transportation,106 County Road 933,Brookland,AR,72417,870-972-6841
Triple T & M Trucking,1344 Jackson 60,Tuckerman,AR,72473,870-926-5506
R&r Trucking,138 Bonita St,Hot Springs,AR,71913,501-760-7581
Bales Trucking,5882 Red Bud Road,Sturkie,AR,72578,417-257-4319
Reeves And Sons,3335 State Highway 247,Atkins,AR,72823,479-264-3591
Blackland Trucking,178 Hwy 174 North,Hope,AR,71801,870-777-4107
Rex Robrahn,21089 Davidson Road,Siloam Springs,AR,72761,479-524-4040
Dumler Enterprises,971 Rocky Pines Road,Glenwood,AR,71943,870-356-5001
M&n Transport LLC,1313 N Hills Blvd Ste 306,N Little Rock,AR,72114,501-908-3893
Kowboy Karrier,2715 Timbermist Drive,Benton,AR,72015,501-315-3273
Tnt,19356 Bill Young Rd,Siloam Springs,AR,72761,479-238-0454
Moore's Wrecker Service,1223 North 12th St,Ft Smith,AR,72901,479-782-5159
Mike Kuykendall Trucking,2458 St Louis Valley Rd,Paris,AR,72855,479-938-7556
Rhoades Farm,10331 Kristen Lane,Gravelly,AR,72838,479-299-4959
Downtown Towing,20935 Three Mile Street,Siloam Springs,AR,72761,479-524-3933
W D M Trucking,301 East 22nd,Pine Bluff,AR,71601,870-534-5800
B & S Mobile Home Service,14100 Mann Lane,Alexander,AR,72002,501-847-1991
Arctic Cat Tranportation,10301 Jims Trail,Rogers,AR,72756,479-633-3339
B&m Investments,3504 Jeffcoat Road,Pine Bluff,AR,71603,870-879-1786
Delta Ag Farms,903 Gregory Street,Augusta,AR,72006,870-347-2619
Stampede Express,5159 North St Louis,Batesville,AR,72501,417-793-5773
"Jita Enterprise, Inc.",12801 Westglen Drive,Little Rock,AR,72211,501-224-2725
L & J Trucking,70 White City Road,Mayflower,AR,72106,479-769-0322
Blue Moon Express,907 Nw A Street,Bentonville,AR,72712,479-254-0049
H&h Mobile Home Transport,12121 Hwy 98,Stephens,AR,71764,870-949-5665
Rfi Transportation,640 N Welsh Ave,Booneville,AR,72927,479-675-3434
Hale Trucking,202 College Street,Marshall,AR,72650,870-504-1591
Johnson Enterprise,907 North Drew,Dermott,AR,71638,870-538-5753
Jr Bergan Trucking,2100 Christy Apt B,Springdale,AR,72764,229-699-0108
R & S Trucking,919 Chitwood St,Alma,AR,72921,479-632-3572
Cts Express,1352 Red Bridge Road,Dequeen,AR,71832,870-642-5735
Quackertime,1038 Cr 945,Jonesboro,AR,72401,870-273-6365
Paschall Trucking,1695 Cane Creek Road,Star City,AR,71667,870-628-3114
Will Trucking,7060 Columbia Road 36,Magnolia,AR,71753,870-562-3435
Bridge Auto Haul,1006 W Green Acres Pl,Rogers,AR,72756,479-426-4102
Al Transport,349 Blevins Ln,Locust Grove,AR,72550,870-251-3737
Hiser Transport,3936 W County Road 230,Manila,AR,72442,870-561-3939
4 C Farm & Equipment,1724 Hwy 43 E Unit 6,Harrison,AR,72601,870-741-0199
Eagle Construction,588 Nevada 20,Prescott,AR,71857,870-887-6611
James Johnson Trucking,14411 Springtown Road,Siloam Springs,AR,72761,479-220-0410
Rocky Pines Transport,198 Rocky Pines Rd,Glenwood,AR,71943,870-356-4516
J & B Irvin Expedite Service,7191 Nick Ln,Mabelvale,AR,72103,501-261-1488
Joe Felty Trucking,2187 Hixon Loop,Malvern,AR,72104,501-337-4199
Rlk Trucking,369 Highway 277 E,Dumas,AR,71639,870-377-1242
Henington Trucking,14576 Shipe Rd,Gravette,AR,72736,479-644-1946
Clemons Construction,770 Ouachita 95,Bearden,AR,71720,870-687-2927
Pcci,Hcr 78 Box 764,Leslie,AR,72645,870-447-2953
Leonard Mcdonough Hauling,10 Baker West,Perryville,AR,72126,501-889-5251
Marc's Hauling Services,638 Plantersville Rd,Monticello,AR,71655,870-723-7998
Barbara Jordan Trucking,206 S Park Ave Lot 10,Stuttgart,AR,72160,501-499-1249
Dts,26 Law 433,Walnut Ridge,AR,72476,870-243-0737
B&k Trucking Crop,898 East Spring,Eldorado,AR,71730,870-862-2151
Twtrucking,16805 Mac Arthur Drive,North Little Rock,AR,72118,501-569-5395
K & S Express,613 Jenkins Road,Prairie Grove,AR,72753,479-846-0304
M P Trucking,3001 Freedom Valley Rd,Alma,AR,72921,479-414-2607
Pm Trucking,13 County Road 803,Gamaliel,AR,72537,561-789-2646
R & J Trucking,1001 Arrowhead Farm Road,Jonesboro,AR,72401,870-530-6885
Rob G Transportation,2212 East 9th,Texarkana,AR,71854,501-247-8832
Lucky Joe Ross LLC,221 Ridge Road,Malvern,AR,72104,501-802-2508
Findley Transport,2103 Cherry Street,Stuttgart,AR,72160,870-672-1233
Wells Trucking,2 Western Hills Drive,Arkadelphia,AR,71923,870-246-8341
Studdard Trucking,267 Cr 25,Mountain Home,AR,72653,870-424-3198
Jp Xpress,130 Fieldstone Dr,Judsonia,AR,72081,618-795-6388
M E Transport,30236 Highway 49 North,Brinkley,AR,72021,870-734-6541
Fisher Farms,448 Highway 355 West,Hope,AR,71801,870-777-3008
David Phillips Trucking,130 Fieldstone Drive,Judsonia,AR,72081,501-940-9368
Robinson Farm Lines,830 County Road 744,Colt,AR,72326,870-238-2822
B & D Trucking,9224 Us 82,Texarkana,AR,71854,903-244-0058
M C Trucking,210 Midyett St,Beebe,AR,72012,501-358-0165
Hayhurst Transport,1354 Cr 436,Berryville,AR,72616,870-749-2948
Ceballos Installions,2895 Cr 3341,Clarksville,AR,72830,479-705-9140
Woodall Transport,21615 Mackey Lane,Gentry,AR,72734,479-233-9636
Castro Construction,2423 Cr 2171,Hartman,AR,72840,479-746-1344
A & B Hotshots,1229 S Cokely Street,Lake Village,AR,71653,870-265-2229
King's Hotshot Express,1700 West Dixon Road #68,Little Rock,AR,72206,501-690-8066
Twister Trucking,25 Cr 145,Wynne,AR,72396,870-697-2003
Rightway Transportation,1096 Main St,Vilonia,AR,72173,501-425-6587
Larry's Transport,725 Highland,Helena,AR,72342,972-365-7159
Twin City Towing,1307 East Street,Texarkana,AR,71854,870-774-0416
American Composites,550 Dennison Heights,Batesville,AR,72501,870-698-1518
Deady's Express,302 5th Avenue Ne,Gravette,AR,72736,479-305-0234
Selvy Trucking,208 Cowilham,Parkin,AR,72373,901-921-0216
C-3 Hot Shots,475 Grange Road,Cave City,AR,72521,870-283-6250
Jeb Transport,2791 Stratford,Springdale,AR,72764,479-325-1693
D & S Construction,1831 Pecan Grove Rd,Alma,AR,72921,479-430-6710
Troy Sims Enterprises,1825 Sr 247,Russellville,AR,72802,479-968-3522
Tillman Trucking,10677 Bob Kit Rd,Prairie Grove,AR,72753,479-601-6297
Bounds And Son,228 Jones Loop,Junction City,AR,71749,870-599-4365
V&p Trucking,332 Geelan Drive,Marion,AR,72364,870-897-7578
Critton Trucking,116 Hudson St,Eldorado,AR,71730,870-299-1269
Imagine That Trucking,311 Sims Langley Trail,Junction City,AR,71749,870-314-2686
Reck -n- Sons,316 North Hazel,Hope,AR,71801,870-703-7202
Farmer Transport,1394 Gentry Rd,Lonoke,AR,72086,501-653-2871
J & B Trucking,2631 W Main St,Blytheville,AR,72315,870-776-0861
40th Street Towing & Repair,381 North 40th Street,Springdale,AR,72762,479-751-0370
Rusty Smalling,1007 Bugscuffle Road,Lavaca,AR,72941,479-434-0651
Wander Transport,1502 Creek St Apt A,Pocahontas,AR,72455,870-323-2030
Chrloxazi,4237 Hempstead 2,Hope,AR,71801,870-777-5212
Tamez Transports,3121 Frog Pond Rd,Jonesboro,AR,72404,870-268-0763
Mighty Mac Enterprise,22825 Worthington Rd,Gentry,AR,72734,479-790-6822
Classic Auto Transport,104 N 36th St ,Van Buren,AR,72956,479-474-0245
G E B Trucking,1421 N 9th,Van Buren,AR,72956,479-629-1924
Ar Transport,1144 Thomas Loop,Bismarck,AR,71929,501-520-7494
Tim Slagley Trucking,607 E Main,Swifton,AR,72471,870-503-0133
Road Hot Trucking,13604 Patterson Rd,Mansfield,AR,72944,479-353-0217
Dennis L Brown Trucking,1403 Riley Circle,Alma,AR,72921,479-883-6087
Ramirez Construction,# 3 Smokey Lane,Clarksville,AR,72830,479-647-2108
Fhw,114 Oak Ridge Cove,Maumelle,AR,72113,501-766-3038
J Henry Transport,2002 Pine Valley Lane,Jonesboro,AR,72404,870-761-2535
G & T Express,12 Shady Lane Drive,Conway,AR,72034,501-764-1582
Johnny White,315 Highway 17 South,Newport,AR,72112,870-217-6040
Lone Wolf Towing & Transport,2222 Towson Ave,Fort Smith,AR,72901,479-926-6787
Amvet LLC,7104 Texas Road,Fort Smith,AR,72908,479-434-6845
Sdi,17730 Hwy 45,Hackett,AR,72937,479-463-8082
Mid South Machinery,2691 S City Lake Rd,Fayetteville,AR,72701,479-444-8268
Collins Constuction,2307 A Pinson St,Texarkana,AR,71854,903-691-0252
Materials Recovery,2049 Barrington Road,Springdale,AR,72762,479-419-9395
Brown Auto Transport,155 S Carolina St,Marianna,AR,72360,870-662-0636
Poole Transportation,12290 Hwy 74 West,Huntsville,AR,72740,479-738-2469
Bobby Young Trucking,6054 N State Hwy 137,Blytheville,AR,72315,870-740-0044
Superior Trucking,10605 Facts Ct,Little Rock,AR,72209,501-626-1039
Bulldog Towing,739 W Center,Greenwood,AR,72936,479-996-0230
Bailey & Company,2745 Glohaven Dr,Conway,AR,72034,501-548-2848
Plains Trucking Services,163 Mt Pisgah Road,Searcy,AR,72143,580-445-1270
"R & R International, Inc.",46 Columbia 425,Magnolia,AR,71753,318-433-3710
Jrb Enterprises,127 Highway 64 West,Beebe,AR,72012,501-882-1065
La Frontera Towing,2111 South 7th Street,Rogers,AR,72758,479-631-6819
Camx,908 Poplar Dr,Star City,AR,71667,870-718-2381
Cskj Transport,320 Belew Street,Hope,AR,71801,870-703-0415
Goodsell Trucking,8 Shale Lane,Conway,AR,72032,501-514-1686
Lee's Express LLC,#7 Radio Tower Road,Murfreesboro,AR,71958,870-285-2337
North Central Towing & Recovery,89 Ashberry Lane,Quitman,AR,72131,501-428-7052
Yesican Transport,1097 Highway 236 W,Lonoke,AR,72086,501-945-0123
Niece Trucking,345 Bell Street,Rudy,AR,72952,501-945-0123
Mighty Mouse Express,3200 S Turner St,Springdale,AR,72764,479-409-2513
Source On Global,6005 Scott Hamilton Drive,Little Rock,AR,72209,501-978-6630
Cauthorne Commercial Carrier Services,411 Haze Street,Texarkana,AR,71854,678-260-7355
Davis Trucking,104 Country Club Blvd,Trumann,AR,72472,870-483-3531
Toller Shipping And Concrete,6 Pine Street,Greenbrier,AR,72058,501-253-5488
Stay Safe Storm Shelters,219b Ravenwood Blvd,Siloam Springs,AR,72761,479-215-7880
Robert Reed Trucking,30 Robin Lane,Arkadelphia,AR,71923,870-210-0641
Rodney Middleton,Rt 1 Box 353a,Western Grove,AR,72685,870-429-1029
"Jacob Thompson, Inc.",9185 Fork Creek Rd,Harrison,AR,72601,870-688-3066
Aydani Nurseries,1371 Col 13,Mcneil,AR,71752,870-695-3333
Sherman's Trucking,2576 Mt Willow Road,Malvern,AR,72104,501-945-0123
Barr Trucking,8 Doris St,Parkin,AR,72373,870-635-5553
Convoy Logistics,113 Pine Street,Crossett,AR,71635,866-626-6869
Swaim Office Products,13 South 12th Street,Van Buren,AR,72956,479-474-3632
B&m Transport,243 Wayne Walker Rd,Romance,AR,72136,813-436-1299
Er Feed Services,905 River Overlook Loop,Van Buren,AR,72956,140-264-0080
Mitchell Reed Farms,104 Bream Creek,President,AR,72081,501-827-1418
Harris Concrete Pumps,7322 Macarthur Drive,North Little Rock,AR,72118,501-868-5579
Epic Signs LLC,511 S 2nd Street,West Memphis,AR,72301,870-735-4516
A J's Trucking,620 West Scott,Forrest City,AR,72335,870-270-9107
Weast Trucking,431 Journey Road,Star City,AR,71667,870-370-1148
Beck Spur,47 Sfc 903,Goodwin,AR,72340,870-317-6279
Bb Transport,17701 Lawson Rd,Little Rock,AR,72210,832-605-7660
Henington Trucking,14576 Shipe Rd,Gravette,AR,72736,479-644-1946
"Batesville Poultry Equipment, Inc.",1401 White Drive,Batesville,AR,72501,870-793-7855
Alex Truckin,301 Christina St,Dardanelle,AR,72834,501-208-3165
Dean Transport,5021 Lambert Rd,Bauxite,AR,72011,501-944-9811
D R Trucking,19011 Highway 98,Emerson,AR,71740,870-314-3207
Mdw,40 Wilson Ave,Humnoke,AR,72072,501-285-0615
Hamilton Heavy Hauling,45 Turnage Lane,Hattieville,AR,72063,501-893-6181
Thompson & Son Trucking,1201 Tony Drive,Jonesboro,AR,72401,870-253-2560
Skyhills Enterprises,815 Tipton Loop,Mountain Home,AR,72638,870-321-6980
Hoyer Farms,5595 Greene 932 Rd,Paragould,AR,72450,870-565-0884
Dalton Farms,5109 Koala Drive,Jonesboro,AR,72404,870-932-1659
Long Trucking,4366 Jackson Road 82,Tuckerman,AR,72473,870-512-8989
Morgan And Sons,13638 Henley Rd,Mansfield,AR,72944,479-928-7425
Collins Trucking,75 Hinds Road,Murfreesboro,AR,71958,870-285-3586
Hurst Transportation,503 Fairoaks Circle,Marion,AR,72364,870-636-3003
Alpha Delivery,3849 Madison 8270,Huntsville,AR,72740,479-325-1762
Estrada Trucking,2106 Ashlee Drive Apt B,Springdale,AR,72764,479-966-7259
Before You Know It Transport,5205 Nalley Lane,Harrison,AR,72601,870-688-8530
J&j Trucking,3801 Natalie Ave,Springdale,AR,72762,479-283-4483
C & A Trucking,307 Post Street,Rogers,AR,72756,805-868-0260
Garcia's Excavating,3567 N Salem,Fayetteville,AR,72701,479-236-3708
Wahrmund Farms,11 Wahrmund Road,Springfield,AR,72157,501-354-6427
Walker Transportation,2711 S Rondo Rd,Texarkana,AR,71854,800-226-3696
Hills Custom Hauling,1927 Greene 521 Rd,Paragould,AR,72450,870-450-9848
Jc Shield Contractors,15803 Peterson Rd,Gentry,AR,72734,479-283-3238
4 States Cross Country Hauling,562 Tollett Road,Newhope,AR,71959,870-925-0214
David Spurling Logging Plc,104 Abernathy Road,Pencil Bluff,AR,71965,870-326-4488
Double T Ranch,107 Amity Ln,Mena,AR,71953,479-216-5696
Cross Timbers Trucking,301 Madison 8520,Huntsville,AR,72740,479-737-5228
Cw Farms,2091 Eagle's Nest Road,Ash Flat,AR,72513,870-710-2509
Berryhill Transportation,1574 Spot Efird Rd,Malvern,AR,72104,501-779-6804
Rushin & Rushin Farms,13207 Hwy 31 N,Ward,AR,72176,501-843-6802
Triple H Farms,Hwy 62 Cr 255,Berryville,AR,72616,479-253-1568
Tsl,100n Dixieland Rd,Rogers,AR,72756,510-387-2942
R & M Farms,611 Shelbyville Rd,Cave City,AR,72521,870-307-8761
Mcknight Sand & Gravel,201 Little River 725,Ashdown,AR,71822,870-898-4549
Thompson Trucking,1572 Madison 1505,Huntsville,AR,72740,479-738-7360
Duckwater Trucking,1815 Countryside Lane,Paragould,AR,72450,870-215-3495
Rankin Trucking,182 Riverview Dr,Horatio,AR,71842,870-784-0987
Bowles Transportation,245 Northwind Dr,Marion,AR,72364,870-702-1902
Hampton Aviation,102 Aviation Lane,Mena,AR,71953,479-394-5290
Fells Transportation,6 Cloie Circle,Lilttle Rock,AR,72204,501-400-8067
R Bar 5,109 Doc Brown,Marvell,AR,72366,870-995-2655
Trips Trucking,905 Se Falcon Lane Apt #10,Bentonville,AR,72712,479-549-5464
Es,512 N Brown St,Clarksville,AR,72830,479-754-0088
Bullet Transport,606 Dogwood Ln,Bald Knob,AR,72010,501-593-8066
Hall's Trucking,402 West 2nd,Fordyce,AR,71742,870-352-5322
Mcgarity Trucking,26 Robin Lane,Sheridan,AR,72150,870-917-0574
Van's Trucking,57 Mack Road,Ravenden,AR,72459,731-733-9548
Seagraves Farms,85 Tweedy Trail,Pocahontas,AR,72455,870-248-9021
Four States Wrecker Service,11023 State Hwy 196,Texarkana,AR,71854,903-748-0561
Greg Davidson's Delivery,2702 Timbermist Circle,Benton,AR,72015,501-317-0578
Performance Automotive,1201 East Main,Flippin,AR,72634,479-641-1431
Otd Transport,701 W 18th St Apt 13,N Little Rock,AR,72114,501-618-5970
Tyler Trucking,101 Will Henry St,Lepanto,AR,72354,507-732-5809
Morning Star Lllp,1203 Goldsmith Road,Paragould,AR,72450,870-236-2537
Jp Trucking,180 S Grandfield Rd,Newhope,AR,71959,870-285-1192
Mendoza Distribution,1168 A Homestead Loop,Bethal Heights,AR,72764,818-916-1449
Courtney Bracy,3109 Barrington Circle,Jonesboro,AR,72404,870-935-5760
"H&w Trucking,, Inc.",11142 Crooked Pine Rd,Dardanelle,AR,72834,479-229-5540
Hanna Trucking,146 Chipper Road,Mountain View,AR,72560,870-214-0463
R & W Farms,18213 Blue Springs Rd,Fayetteville,AR,72703,479-200-7226
United Towing And Recovery,120 Grider Field Rd,Pine Bluff,AR,71601,870-730-1000
Pda Carriers,1403 Smith Rd,Texarkana,AR,71854,903-277-5519
B And C Transport,244 Sandy Creek Rd,Oxford,AR,72565,870-258-3304
Statewide Timber,208 Riverview Dr,Horatio,AR,71842,870-832-5702
Precision Transport,1510 Jennifer St,Berryville,AR,72616,870-480-2354
Nebo,611 Wildwood Cove,Perryville,AR,72126,501-733-7955
Osman Farms,2924 Osman Lane,Rudy,AR,72952,479-430-1652
R & S Trucking,853 Chicago Street,West Helena,AR,72390,901-232-5298
Freeman Excavating,6606 Hwy 206 West,Harrison,AR,72601,870-688-3269
Pl Service,9727 Hwy 46 N,Sheridan,AR,72150,501-397-5139
Nathaniel Boyd,3500 East Broadway,West Memphis,AR,72301,760-237-8018
Curtis Farms,1011 Greene 424 Road,Marmaduke,AR,72443,870-239-1513
Nic Adams Trucking,7 Helen Lane,Dewitt,AR,72042,870-509-1337
Nagel Farms,612 Jackson 61,Tuckerman,AR,72473,870-349-3081
Koehn Transport Solutions,645 Lafayette 314,Bradley,AR,71826,405-701-4173
Marklatex Services LLC,2166 Highway 425 South,Hamburg,AR,71646,870-853-8776
H&h Trucking,746 Cr 730,Jonesboro,AR,72401,870-219-8531
Tate Transport,210 S E Gibson St,Hoxie,AR,72433,870-679-9427
Turner Welding,600 French Prairie Road,Booneville,AR,72927,479-675-9765
S J Shippey,2452 Park Ave,Van Buren,AR,72956,479-650-7400
Owner Operator Of Hotshot Carrier,303 W Arch St,Paris,AR,72855,479-461-1030
S And S Trucking,1747 West Prairie Street,Devalls Bluff,AR,72041,501-388-1188
T D P Transport,54 Phillips 310 Rd,West Helena,AR,72390,501-733-8541
Jackson Trucking,101 S Oak Street,Dumas,AR,71639,501-687-3690
R & M Lettering,2302 Bugscuffle Rd,Lavaca,AR,72941,479-674-2666
Dustin Dowler Trucking,254 Greene 142 Road,Paragould,AR,72450,870-450-3186
Mcclenton Transport,214 South Front,Hope,AR,71802,870-826-4416
C B & G Farms Partnership,4358 Greene 119 Road,Delaplaine,AR,72425,870-249-3410
Parish Trucking,688 Hwy 76,Rosston,AR,71858,870-299-1159
Jw Shipping,123 Taylor Road,Ash Flat,AR,72513,870-847-9772
Not Applicable,5201 Spradling Av 1 C,Fort Smith,AR,72904,479-222-4812
Joes Moving Company,3500 Garden Ct,Harriaon,AR,72601,870-204-6208
Tri-state Fence,6787 Hwy 160,Doddridge,AR,71834,903-748-1075
H And H Auto And Rv,1204 N 18th St,Ozark,AR,72949,479-209-6762
B&b Trucking,3210 Tennessee,Pine Bluff,AR,71601,870-267-0464
Southwest Arkansas Recovery,118 Plantation Dr,De Queen,AR,71832,870-784-2738
Palmer Farms,1717 Cr 528,Rector,AR,72461,870-240-6270
Ramos Transport,901 N Albert Pike Apt 9,Fort Smith,AR,72903,973-393-6029
Hilltop Trucking,500 E Main,Gentry,AR,72734,479-871-1052
A-ok Truck Service,3117 Freedom Valley Rd,Alma,AR,72921,479-806-2368
J And V Transportation,1231 Barton Rd,Mountainburg,AR,72946,479-285-2604
Yancey Sales,1481 Hwy 74w,Marshall,AR,72650,870-448-5347
Michaud Farms,4729 Compressor Rd,Ratcliff,AR,72951,517-507-0612
Deals & Steals,2391 Hwy 62 East,Mtn Home,AR,72653,870-492-2057
Mike Mcfarland Distributing,1208 North 26th Street,Van Buren,AR,72956,479-420-9582
Christner Custom Cabinets,5314 Blackwell Den Rd,Warm Springs,AR,72478-9078,870-248-0844
Privado Trucking,1721 Churchill Rd,Fort Smith,AR,72904,310-721-2182
Soda Valley Express,97 Mill Creek Drive,Greenbrier,AR,72058,501-945-0123
Jobe Farms,7835 Highway 37,Grubbs,AR,72431,870-503-1989
Alpena Monument,14493 Hwy 62 East,Alpena,AR,72611,870-437-5119
S & J Company,92 Summit Ln,Salem,AR,72576,870-371-1037
Jose Frias Trucking,605 Carter St,Clarksville,AR,72830,805-824-1007
Als,201 West Woodruff,Searcy,AR,72143,191-872-1497
Wilson Drywall,6314 Hwy 221 N,Berryville,AR,72616,870-423-5955
Big Ben's Shipping & Hauling,163 Hiawatha Drive,Cherokee Village,AR,72529,870-847-6534
Born Trucking,24079 Highway 164,Clarksville,AR,72830,479-979-5159
Williams Candy Company,2055 Cr 741,Brookland,AR,72417,870-919-0809
Royalty Transport,1315 Huntington,Jonesboro,AR,72401,901-347-2715
Kimcade Trucking,1551 Baker St,Eudora,AR,71640,870-355-3881
Cb Trucking,37 White Oak Circle,Searcy,AR,72143,501-305-9306
Breadman,340 Geelan Drive,Marion,AR,72364,901-833-0955
Raymond Branscum Trucking,3563 Hwy 223 N,Calico Rock,AR,72519,870-373-1170
R & O Farms,1300 S Church Street Condo E10,Jonesboro,AR,72401,870-897-6730
Davis Delivery,1307 Medallion Cr,Jonesboro,AR,72401,870-932-4844
J & R Trucking,100 Danette Dr,Lepanto,AR,72354,870-475-3435
Dba Express,106 Concord Place,Bull Shoals,AR,72619,931-629-4864
Sko Transport,514 E Velma Ave,Springdale,AR,72764,217-246-7520
Diamond O Trucking LLC,422 Ashley 461 Road,Hamburg,AR,71646,870-831-9993
S&s Spray Painting,5900 Cobb Street,Pine Bluff,AR,71602,870-718-2878
Ra Stinebaugh Trucking,7701 S 25th Street,Fort Smith,AR,72908,479-252-1023
Scott Farms Ascoco,900 East Iowa Street,Derrmott,AR,71638,870-538-3930
Tim Willems Trucking,1500 Magnolia,Scranton,AR,72863,479-847-5838
W E Smith Farms,511 Highway 115,Cave City,AR,72521,501-412-2703
Xtreme Hauling,409 South Pine Street,Cabot,AR,72023,501-422-8638
Arkla Trucking,100 North Main,Junction City,AR,71749,870-315-4342
J&k Trucking,1270 Columbia 54,Waldo,AR,71770,800-226-3696
Griffin Trucking,1055lr 11,Ashdown,AR,71822,870-898-2625
No Stress Express,2940 Hwy 71 North,Mena,AR,71953,800-226-3696
Styers Transport,Blue Sky Drive,Van Buren,AR,72956,479-235-0069
Private,699 Ben Cartwrright Lane,Mountain View,AR,72560,707-932-0078
Wyrick Trucking,713 S Pecan,Stamps,AR,71860,870-648-2103
Jimmy Pierce Painting,12201 Dollar Way Rd,White Hall,AR,71602,870-718-1855
Graves Hotshot,688 Lemay Loop,Austin,AR,72007,501-681-2682
Marcus Helms Trucking,1026s 12th Street,Arkadelphia,AR,71923,870-246-2155
Miller Fisheries Trucking,810 Woodlawn Dr,Lonoke,AR,72086,501-266-0337
Stanley Morris,2118 Sweet Gum Drive,Jonesboro,AR,72401,870-275-6931
Hobbs Hotshot,9025 N Hwy 96,Lavaca,AR,72941,479-674-5204
Trucking First,228 Sfc 844,Palestine,AR,72372,870-270-0193
Yoderbilt Designs,22681 Hwy 71 North,Mansfield,AR,72944,479-212-0743
Dst Trucking,507 N 6 Th,Gillett,AR,72055,870-830-4613
Rgm Transport,247 Akron Circle,Newark,AR,72562,870-503-3060
Stor-mor Buildings,12021 Highfill Rdg Rd,Gentry,AR,72734,479-736-8876
Fayettechill,1725 S Smokehouse Trail,Fayetteville,AR,72701,479-283-1484
Chisum Logging,47 Heflin Hill Lane,Russellville,AR,72802,479-970-9830
Natural State Transport,8610 North Cole Street,Harrisburg,AR,72432-9330,870-243-2273
Mr B Auto Center Towing,965 E Robinson Ave,Springdale,AR,72764,479-599-6041
Express Transportation,1810 Green Meadows Ave,Springdale,AR,72764,479-530-2884
Holly Island Transport,181 North Thornton Ave,Piggott,AR,72454,870-324-1036
Martin Idustrial Supplies,916 East Lincoln,Searcy,AR,72143,800-343-4421
Cj Transport,3908 Hassell Ave,Springdale,AR,72764,479-935-6573
Shappell Transport,20047 1/2 Fawn Road,Springdale,AR,72764,479-236-2989
Sunset Customs,1013 Bennett Dr,Harrison,AR,72601,870-741-8468
Razorback Welding,405 Harshaw Lane,Letona,AR,72085,501-551-5091
Heifner's Transport & Hauling LLC,1011 Ada Lane,Little Rock,AR,72206,501-888-8920
Trusted Hotshot Transportation,7158 Floy Ct,Springdale,AR,72762,479-750-2494
Aquaculture Transport,10711 Hwy 31 South,England,AR,72046,501-676-2425
Mcpherson Logistics,209 Carson,Bono,AR,72416,870-926-7719
Corvettes And Classics,302 Hwy 62-65 Bypass South,Harrison,AR,72601,870-743-3333
Jackson Trucking,1709 High Ridge,Jonesboro,AR,72401,870-476-5310
Lytle Trucks And Equipment,3996 Hwy 1 North,Forrest City,AR,72335,870-494-3111
Arklatex Hauler,2491 Columbia Rd 30,Magnolia,AR,71753,202-521-1493
Self Employed No Business Name,788 Madison 1620,Huntsville,AR,72740,479-200-6661
Matco Tools,713 So Wright St,Siloam Springs,AR,72761,479-524-6267
Cornwell Tool Dealer,503 Alma Drive,Alma,AR,72921,479-430-9952
"Ark-la Timber Harvesting, Inc.",718 Bradley Rd 31,Hermitage,AR,71647,870-510-6972
Secretary,104 3rd St,Lamar,AR,72846,479-647-8429
Andres Arroyo,2326 Roselawn St,Rogers,AR,72756,785-236-9160
Bill Varnell Trucking,4722 Ncr 583,Blytheville,AR,72315,870-740-1317
Ar Equiptment Sales,118 Flossie,Trumann,AR,72472,870-530-0868
C & D Floor Covering,301 Crosscreek Dr,Bentonville,AR,72712,479-633-1936
S & H Transport,5625 Smith Creek,Ozark,AR,72949,479-213-6774
Hough Hotshot Services,12 Shady Lane Ave,Bella Vista,AR,72714,479-586-4628
Springtown Seventh Day Adventist Company,12444 Fairmount Drive,Gentry,AR,72734,479-220-3065
Don's Canopies And Metal Products,849 Old Wire Road,Rogers,AR,72756,479-636-5586
Car-mart,802 Se Plaza Ave Suite 200,Bentonville,AR,72712,479-418-8010
Time 2 Roll Trucking,3610 East Maryland Ave Apt 113,Sherwood,AR,72120,501-833-1000
California Auto Sales,12122 Landers Rd,Rogers,AR,72756,479-531-9609
Freedom Line,1404 E Walnut Line,Rogers,AR,72756,360-961-7208
Black Hat Designs,9765 Bearclaw Road,Mulberry,AR,72947,479-208-9968
Servicemaster Restore By Quality Restoration,5010 South 35th Street,Fort Smith,AR,72903,479-242-5765
Ellis Hauling,6112 Willow St,Alexander,AR,72002,501-326-5372
T&t Trucking,1203 N Greening Street,Hope,AR,71801,870-826-9385
Gilbert Transport,429 E Mulberry St,Rogers,AR,72756,517-507-0612
"Kenney Oilfield Services, Inc.",833 Main St,Vilonia,AR,72173,570-250-7272
Brewer Trucking,217 Pr 1122,Fouke,AR,71837,903-824-6614
Jm Trucking,6604 Tyro Rd,Hackett,AR,72937,479-597-0803
Southern Pallet Supply,2933 Highway 133 North,Crossett,AR,71635,870-500-9500
Grinn And Bare It Trucking,2885 Hwy 70w,Kirby,AR,71950,870-223-2976
Dba Snap-on Tools,1706 N America,Siloam Springs,AR,72761,479-599-8103
D & D Transport,309 Springwood Dr,Mountain Home,AR,72653,870-706-0794
Mcgarrah Enterprises,11921 Ervin Mcgarrah Rd,Lowell,AR,72745,202-521-1493
Adam A Aguilar,104 Sunnydale Drive,Springdale,AR,72764,323-770-1982
King Enterprises,4326 Hwy 9,Springfield,AR,72157,501-208-5955
A&h Auto Sales &service,601 Towson Ave,Fort Smith,AR,72901,479-782-2822
9/21/1952,290 Blue Jay Trail,Viola,AR,72583,870-458-2329
Rlx Trucking,190 Madison St,Nashville,AR,71852,870-925-0865
Johnson Logistics,2625 N Arroyo St Apt 3,Fayetteville,AR,72703,479-301-0649
Double L Transport,4196 Hwy 261,Colt,AR,72326,901-262-9868
Esaw Hauling,6114 Petit Jean Drive,Alexander,AR,72002,501-442-3913
Tiff City Pump,351 W Harris St,Pea Ridge,AR,72751,479-936-1220
Drw Transport,5095 E County Rd 134,Blytheville,AR,72315,870-824-2355
Double B,4422 Mcbride Rd,Texarkana,AR,71854,903-244-8446
Lovell Trucking,354 Bend Rd,Knoxville,AR,72845,479-264-3907
Matthews Trucking,6106 Timber Lake Drive,Pine Bluff,AR,71603,870-879-0363
W B Transport,291 Longley Ln,Marianna,AR,72360,870-821-9718
Latinos Wreaking Service,3720 Midland Blvd,Ft Smith,AR,72903,479-274-9475
Hudson Trucking,420 E 1st,De Witt,AR,72042,870-830-2085
Double G Transportation LLC,9018 Hwy 161,North Little Rock,AR,72117-1847,501-241-0311
Koehn Trucking,20996 Hwy 293 S,Dumas,AR,71639,870-382-6996
Jennings Boat Docks & Lifts,3915 Hwy 101,Gamaliel,AR,72537,870-467-5477
Eric S Foster,219 Mc 89,Fouke,AR,71837,903-748-6862
Midnight Express,1384 Red Bud Road,Elkins,AR,72727,479-684-6966
Bam Bam Trucking,2851 Xavier Street Apt 111,Fort Smith,AR,72901,401-524-8043
Whiskey House Trucking,4105 East Northbrook Circle,Van Buren,AR,72956,479-650-6952
Blue John Transport LLC,8876 White Drive,Cord,AR,72524,870-612-0978
Justin Mencer Trucking,356 Airport Rd,Lake Village,AR,71653,870-538-4067
Veterans Trucking,1002 Locust Street Apt 3,Texarkana,AR,71854,870-571-4236
Starlite Transport,101 Highland Drive,Searcy,AR,72143,501-281-5580
Trumans Septic Tank Service,7600 Holly Ave,Fort Smith,AR,72908,479-646-6627
Cruz Installations,2771 Kenton Street,Springdale,AR,72764,479-935-5105
Henry Farm,2800 S Coker,Greenwood,AR,72936,479-461-0168
Womack Fence,2007 Highway 10 Se,Hackett,AR,72937,479-638-8626
"Surety Transport, LLC",6300 Hwy 161,North Little Rock,AR,72117,501-801-5890
Kevlar Hotshot Trucking,467 Parker Ln,Oxford,AR,72565,870-373-0821
J & S Distributing,1519 Lamar Place,Jonesboro,AR,72401,870-793-6851
Menco Distributing,367 Cr 799,Jonesboro,AR,72401,870-793-6851
Pirtle Distributing,482 Green 702 Road,Jonesboro,AR,72401,870-793-6851
J Reynolds Distributing,2292 Hwy 267,Searcy,AR,72143,870-793-6851
Lee Southerland Distributing,5159 Heber Springs Road,Drasco,AR,72530,870-793-6851
D Ramsey Distributing,203 S Pecan Street,Searcy,AR,72143,870-793-6851
Jerry Morris Distributing,299 Riverview Road,Searcy,AR,72143,870-793-6851
Di Distributing,1895 Lakeview Drive,Kensett,AR,72082,870-793-6851
Cats,5099 Heber Springs Road West,Quitman,AR,72131,501-589-2553
Juan's Floor Covering,471 Cascade Circle,Springdale,AR,72764,479-365-7354
Bell Transportation,9919 Brown County Line Road,Alexander,AR,72002,501-945-0123
B And L Trucking,540 Old Caddo Gap Rd,Bonnerdale,AR,71933,870-223-3858
Matthews Trucking,1235 Cr 703,Jonesboro,AR,72401,870-974-3334
Harris Fencing Company,4577 Hwy 46 S,Sheridan,AR,72150,870-942-5453
Tristan Dodd Trucking,205 Auction Street,Weiner,AR,72479,870-351-9752
America United Auto Transport,9158 Hwy 135 N,Paragould,AR,72450,870-476-0124
Kamakazi Transport,2747 Hwy 65 South,Clinton,AR,72031,501-945-0123
Asphalt Tech,8304 Hwy 71,Alma,AR,72921,479-310-1265
C Conell Trucking,375 Hwy 64 E,Conway,AR,72032,501-514-9011
Curtis Trucking & Excavation,51 Brewster St,Fordyce,AR,71742,870-352-3034
Ejtransport,420 Mcguire St,Batesville,AR,72501,870-613-0804
Owner,114 Bridgeview Circle,Hot Springs,AR,71913,501-276-6142
Bradshaw House Movers,9800 Highway 271 South,Fort Smith,AR,72908,479-650-4544
Hostetler Express,87 Alder Ln,Green Forest,AR,72638,870-423-8277
Price Mobile Homes,2200 Hwy 71 N,Mena,AR,71953,202-521-1493
Ranger Ski Transport,43 Colt Loop,Greenbrier,AR,72058,800-226-3696
C Kline 4 Transport,144 W Hazelwood,Lead Hill,AR,72644,417-839-7061
Terry Bowman Trucking,127 Lr 716,Ashdown,AR,71822,870-330-5644
T & J Trucking,916 Scooty Dr,Beebe,AR,72012,870-219-5059
Hulls Trucking,1658 Madison 8440,Huntsville,AR,72740,479-422-4060
Stratton Farmes,11 Wynnewood,Wynne,AR,72396,870-238-3377
Cdm Logging LLC,252 Paradise Island,Eldoardo,AR,71730,870-797-2228
Jt Transport,3503 Lilac Street,Pine Bluff,AR,71603,956-511-2673
Premier Auto Transit,12122 Landers Rd,Rogers,AR,72756,479-619-8596
Dean Trucking,3261 S Woolum Rd,Saint Joe,AR,72675,870-221-1160
D-n-t Trucking,25233 Highway 64 E,Knoxville,AR,72845,479-647-9262
Dry Creek Trucking,3740 Miller Co 18,Texarkana,AR,71854,903-748-7484
Gordon Trucking,4 Keswick Cv,Little Rock,AR,72212,202-521-1493
Jab Transportation,800 Belmont Drive,Pine Bluff,AR,71601,870-643-0855
Mcs Enterprises,4090 N Oak St,Bethel Heights,AR,72764,479-304-1196
Kevin Silvey Trucking,1011 Rena Road,Van Buren,AR,72921,479-207-1276
Ross Equipment Company,5585 S Shaeffer Rd,Fayetteville,AR,72701,479-444-7677
J & J Trucking,15172 Highway 54,Star City,AR,71667,601-382-7683
Greg Barton,5022 Hwy 7 South,Camden,AR,71701,870-807-4269
Jd Currey Trucking,55 Central Road,Arkadelphia,AR,71923,870-210-6496
Xit,2815 Amity Rd,Hot Springs,AR,71913,559-101-7751
Sharp Asphalt Solutions,13611 Dollarway Rd,White Hall,AR,71602,214-717-3783
J&e Enterprize,14706 Mollie Ln,Trumann,AR,72472,405-576-3186
Mctigrit Trucking,300 Fish Ave,Star City,AR,71667,870-370-5033
Carsten Concessions,20932 Shady Grove Rd,Siloam Springs,AR,72761,479-633-5980
Chris Gee Trucking,1019 Cherry St,Forrest City,AR,72335,501-650-2454
Rhodes Machine Shop,320 South E St,Fort Smith,AR,72901,479-242-7024
Ridge Runner,14195 Watalula Rd,Ozark,AR,72949,615-939-2151
Deep C Deliveries,10620 W High Meadows Dr,Rogers,AR,72756,479-530-4459
Satterfield Trucking,319 W Scenic Drive,Perryville,AR,72126,501-680-3949
Flower Power LLC,Route 1 Box 98,Western Grove,AR,72685,870-429-5048
Catdog Trucking,103 Stark Aptb,Cherry Valley,AR,72324,870-318-9165
Maury Hotshot Delivery,109 Spring St Suite 6,Springdale,AR,72764,479-717-2891
Wind Breaker Transport,1009 E Main St,Charleston,AR,72933,479-965-0100
Johnston Transportation,1457 Miller County 233,Texarkana,AR,71854,501-945-0123
R & Z Trucking,171 Oliver Road,De Queen,AR,71841,870-582-1617
Schriver Dozer Service,7529 North State Highway 109,Magazine,AR,72943,479-963-0003
Clc Trucking,6 Belmont Drive,Conway,AR,72032,501-945-0123
Equine Activites,17982 Bennie Robison Road,Siloam Springs,AR,72761,479-427-4126
J&j Transportation,609 Sw 8th St - 6th Floor,Bentonville,AR,72712,617-877-1790
Tyson Trucking Co,503 S Neeley St,Benton,AR,72015,501-940-7038
Afc Trucking,3849 West Wedington Drive,Fayetteville,AR,72704,800-643-3525
C&t Trucking Of Arkansas,1601 Myrna Lane,North Little Rock,AR,72117,501-541-6889
Wcp Trucking,920 East 2nd St,Hope,AR,71801,870-703-1212
4d Trucking,151 Dickerson Lane,Cove,AR,71937,479-234-1874
Woolf Transport,822 Cedar Lane,Perryville,AR,72126,501-945-0123
Dustin Buck Trucking,132 Hempstead 261,Blevins,AR,71825,870-703-7813
Ronnie Gay Equipment Sales,1583 Batesville Blvd,Batesville,AR,72501,870-793-2530
Double H,1342 Hwy 425 N,Monticello,AR,71655,217-259-4790
"Jones Distribution, Inc.",4026 Baugh Rd,Alma,AR,72921,479-632-4440
Creative Foods LLC,710 N Pearl St,Osceola,AR,72370-2038,501-563-2601
Almco,4772 Columbia Road 7,Emerson,AR,71740,870-547-2287
Rowland Trucking,131 West 6th Street,Ulm,AR,72170-0053,870-830-8310
Dossett Trucking,350 Arena Rd,Lamar,AR,72846,479-885-2169
Reg Transportation,63 S Meadow Cliff Dr,Little Rock,AR,72209,501-568-2584
Douglas G Keck Trucking Co,311 Forest St,Taylor,AR,71861-0004,870-694-2221
Everett Long Trucking,12526 Highway 270,White Hall,AR,71602,870-247-2427
Brown Bag Company,24925 Lawson Rd,Little Rock,AR,72210-4927,501-821-3666
Jackie Irby Trucking,5416 Sturgeon Rd,Greenwood,AR,72936,479-883-3914
Elmus Burton,4510 N 6 F,Fort Smith,AR,72904,479-782-4615
Bachman Trucking,75 Warrior Road,Batesville,AR,72501,501-698-1598
Empty Pockets Trucking,700 Hardwood Rd,Rogers,AR,72758-0154,479-366-0362
James Vaughn Trucking,906 Roselee Drive,Paragould,AR,72450-2474,870-236-2553
C R Thomas Trucking,1227 Kimmell Rd,Redfield,AR,72132,501-397-6513
"Gro Ag, Inc.",30 Lafayette 9,Lewisville,AR,71845,870-894-3751
Chris D Onstad Trucking,4786 Hwy 71 S,Hatfield,AR,71945,479-243-3803
A & R Trucking,344 Hargett Road,El Dorado,AR,71730,501-962-3432
T & A Trucking,20 Old Stagecoach,Cabot,AR,72023,501-676-5958
J & L Xpress,3956 Butterfield Coach Rd,Springdale,AR,72764,479-595-0568
Wallace Trucking,Pobox 812,Monette,AR,72447,870-930-4627
Tim Sharp,5916 Dayton Road,Huntington,AR,72940,479-928-5092
Paw Paw Jackon's Trucking,5401 Hwy 161,North Little Rock,AR,72117,501-945-2706
R & C Leasing,160 R Lauen Road,Searcy,AR,72143,501-268-8072
Tsb Trucking,1390 Stokes Road,Pocahontas,AR,72455,850-265-1519
K & H Trucking,156 Ouachita 231,Bearden,AR,71720,870-574-1085
Roberson & Sons,7483 Sr 105 North,Russellville,AR,72802,479-641-5012
Stockman Trucking,448 Melrose Rd,Lockesburg,AR,71846,501-289-6841
Jim Ruple Trucking,19615 North Pass Rd,Mablevale,AR,72103,501-888-9295
Hal Fancher & Son Trucking,171 B W Davis Rd,Searcy,AR,72143,901-619-4522
Jackson Trucking,31 Sunset Drive,Wynne,AR,72396,870-238-4522
Garner Transportation,2424 Mc 505,Fouke,AR,71837,870-653-6789
E & G Cattle Co,1768 Hwy 163,Wynne,AR,72396,870-588-5703
Wayne Barenberg Trucking,452 E County Line Rd,Springdale,AR,72764,479-756-9050
Hollingsworth Trucking,3560 Silent Grove Rd,Springdale,AR,72762,479-751-3608
Joe Brown,20112 Nokes Farm Rd,Siloam Springs,AR,72761,501-524-4453
T D I,8792 Reddmann Ln,Harrisburg,AR,72432,870-578-5358
S & S Trucking,2355 Hwy 299,Prescott,AR,71857,870-887-5585
Gary Miles Trucking,4 Oak,Brinkley,AR,72021,870-734-4258
Silver Bullet Transport,225 Polk 76 West,Mena,AR,71953,660-281-2231
Flying Hog Enterprises,7167 Hwy 67 N,Corning,AR,72422,870-857-0007
Terry Tribble Trucking,284 Deshaw Trail,Pocahontas,AR,72455,870-892-8732
Jonesboro Warehousing And Distribution Center LLC,6555 Hwy 1 South,Jonesboro,AR,72404,870-931-4800
Kittler Trucking,50 Ratcliff Lane,Almyra,AR,72003,870-673-1263
"Tkb Trucking, Inc.",901 Ashley 14n,Crossett,AR,71635,870-364-6190
Hall's Trucking,7332 Jetcity Hwy,El Dorado,AR,71730,870-924-5134
Tbh Enterprises,2663 Cocklebur Rd,Ward,AR,72176,501-843-9899
Cornett Excavating,164 Mc 502,Texarkana,AR,71854,903-748-1919
Tr Trucking,1909 Pace Rd,Pocahontas,AR,72455-4412,870-892-3408
J C Trucking Express LLC,165 County Road 308 Hempstead,Fulton,AR,71838,870-777-3171
Glover's Truck Parts & Equipment,1200 Baucum Industrial Drive,North Little Rock,AR,72117,501-945-2000
Moten Trucking,3275 Highway 355 South,Fulton,AR,71838,870-896-2714
Aa Wrecker,6601 Hwy 271 So,Fort Smith,AR,72908,479-649-9100
Scj Hauling,2009 Madison Layne Ct,Sherwood,AR,72120,501-834-5797
B & L Transport,1231 Doyle Jones Road,Malvern,AR,72104,501-818-9415
Roadhog National Auto Transport LLC,6000 Longwood Rd,Little Rock,AR,72207,501-664-4483
Richey Trucking,530 Lawrence 310,Smithville,AR,72466,870-834-3292
C & C Trucking,569 Hwy 32 W,Saratoga,AR,71859,918-421-0128
"Thurmon Trucking, Inc.",123 Pinson Rd,Eldorado,AR,71730,870-863-3200
Hawkins Hotshotten,1342 Hwy 425 N,Monticello,AR,71655,870-443-1465
Crk Trucking,46 Westminister,Little Rock,AR,72209,501-295-8122
Car Hauler,4000 Park Ave Apt #9,Fort Smith,AR,72903,479-739-5719
Wwt,61 Calamine Rd,Strawberry,AR,72469,573-776-5094
J Solis Group,1301 Main St,Clarksville,AR,72830,479-754-8806
Mann's Sand And Gravel,407 Hempstead 108,Hope,AR,71801,870-777-9305
M & L Express,4562 Highway 1 North,Lexa,AR,72355,870-816-7004
Crazy Horse Trucking,13862 Slo Fork Road,Dardanelle,AR,72834,479-229-3414
Red Hill Trucking,5016 Lamb Road,Alma,AR,72921,479-285-8013
Rodriguez Installation,1301 E Main St Lot 20,Clarksville,AR,72830,429-885-1258
T3 Custom Cutters,2630 Old Military Rd,Paris,AR,72855,479-438-4543
Rockstar Transport,6964 Skyline Drive,Benton,AR,72019,501-317-8597
Hester & Sons Trucking,524 Colgate Drive,West Memphis,AR,72301,901-216-6852
C & S Trucking,507 S Elm,Searcy,AR,72143,501-268-2629
Loyolas Trucking,18264 Mary Kay Lane,Rogers,AR,72756,479-721-3616
J & J Trucking,161 Kyler Rd,Batesville,AR,72501,870-805-8338
Triple D Trucking,5643 Hwy 71 South,Cove,AR,71937,870-387-7791
G & J Trucking,206 North School Street,Dermott,AR,71638,870-538-4312
Quick Way Transportation,312 E Parker St,Plumerville,AR,72127,501-977-0020
Napco,755 Gray Drive,Springdale,AR,72765,501-751-7155
Bagwell Trucking,6 Tarpley Rd,Delight,AR,71940,870-379-3074
Brugess Trucking,475 Sfc 503,Widener,AR,72394,870-317-3261
Cleveland Davis,709 Moore St,West Helena,AR,72390,870-662-2681
K Wyrick Trucking,1611 Hickory St,Texarkana,AR,71854,435-881-7319
Valentine Distribution,4502 Quail Ct,Harrison,AR,72601,870-577-5982
Rossville Metals,5600 Hwy 18,Jonesboro,AR,72401,423-903-8090
Franks' Auto Hauling,237 South Main,Jonesboro,AR,72401,202-521-1493
Zamora's Trucking,15556 Airport Road,Siloam Springs,AR,72761,479-220-0229
Midnight Auto Transport,703 W Commercial St,Ozark,AR,72949,405-283-0698
Jimmy Patrick,1546 Madison 4805,Pettigrew,AR,72752,479-677-2240
Sharon Mccord Trucking,3714 Cr 532,Monette,AR,72447,870-486-2417
King Freight,72 Vickery Road,Sidney,AR,72577,870-736-0997
Powell Trucking,411 Lawrence 204,Imboden,AR,72434,870-878-0101
Bootheel Transport,4945 Hwy 135 South,Caraway,AR,72419-9631,870-482-3003
Calzada's Pacific Transport,8112 Avignon,Fort Smith,AR,72908,760-419-6336
Done Right Delivery,902 Sw Apache Ct,Bentonville,AR,72712,479-426-9800
Truman Investments,8508 Kanis Road,Little Rock,AR,72204,501-240-4774
F & J Trucking,800 Moore St Apt 28,Searcy,AR,72143,517-507-0612
Sho-nuff Transport,1621 Cherry St Apt C5,Conway,AR,72032,501-269-4283
T & H Trucking,232 Mcwhorter Rd,Lockesburg,AR,71846,N/A
Sams Hotshot,2500 Batesville Mountain Rd,Damascus,AR,72039,517-507-0612
Kagebein Excavating & Farm Products,1165 Hwy 11 South,Dewitt,AR,72042,870-946-4542
Rankin Trucking,13880 Meacham Rd,Prairie Grove,AR,72753,479-879-1430
Jj Xpress,416 S Stonebrook Cir,Wynne,AR,72396,765-631-7753
Garcias Trucking,3125 Memory Lane #a,Springdale,AR,72764,479-595-3257
Bumble Bee Express,22600 Bidville Road,Winslow,AR,72959,479-369-4274
Pods,5225 N Oak Street,Bethel Heights,AR,72764,479-409-1857
Holeshot Trucking,1400 Magnolia Rd,Jonesboro,AR,72401,870-316-1778
Acd Trucking,1339 West Main Street,Gentry,AR,72734,479-256-3170
Dmt Trucking,9802 Mayo Drive,Barling,AR,72923,918-577-8038
Cb Trucking,2459 Hwy 425 South,Monticello,AR,71655,870-830-7350
Collums Enterprises LLC,1124 Hwy 24e,Prescott,AR,71857,870-681-1300
Baker Transport,2100 North 31st St Suite 247,Fort Smith,AR,72904,860-815-0728
Bucky B Carrier,516 Belehr Dr,West Memphis,AR,72301,870-702-6700
Smart Moves Trucking,10515 W Markham St Ste J7,Little Rock,AR,72205,678-835-7316
Fowler Trucking,107 Glosup Dr,Mcgehee,AR,71654,870-818-8734
G W Transportation,520 Water Street,North Little Rock,AR,72117,501-414-6724
Miner Trucking & Co,525 Ne 2nd St,Junction City,AR,71749,870-314-0737
Thompson Trucking,416 Louisinia,Camden,AR,71701,870-818-5314
R&b Trucking,395 Columbia 133,Waldo,AR,71770,254-289-7603
Double D Brothers Trucking,5376 Highway 21,Clarksville,AR,72830,479-214-0488
Dba Duggar Services,548 Arbor Acres Ave,Springdale,AR,72762,479-799-8999
7 G Hauling,5903 Melody Lane,Ozark,AR,72949,517-507-0612
Bolin Transport,Hc72 Box 73,Jasper,AR,72641,870-688-0723
Jim's Asphalt Services,11902 Dollarway Rd,White Hall,AR,71602,870-489-6866
T C Kidd Transport,6608 Delilah Lane,Little Rock,AR,72209,501-247-0824
Hattons Express Trucking,100 Meadowbrook Circle,Marion,AR,72348,860-815-0728
Paige Worldwide Transportation,203 Bettis Street,West Memphis,AR,72301,860-815-0728
Jim's Asphalt Services,11902 Dollarway Rd,White Hall,AR,71602,870-489-6866
Schmitt Trucking,2002 Pinecrest Avenue,Hope,AR,71801,870-703-9747
Scott Deliveries,6701 Blackjack Mountain Rd,Mansfield,AR,72944,479-252-0298
Triple H Elite Transport,2800 W Graphic Rd,Mountainburg,AR,72946,479-276-7186
Richart Transport,503 Allen Rd,Lockesburg,AR,71846,870-582-3433
"Eagle Transport, Inc.",514 Honey Hill Rd,Searcy,AR,72143,501-230-2726
Mccoy Trucking,8717 Mabelvale Cut Off Rd,Mabelvale,AR,72103,501-794-9927
Ford Trucking,12120 Highway 63,Mena,AR,71953,479-216-9732
Onycha Transport,1928 S Olive St,Pine Bluff,AR,71601,870-718-2411
G&a Auto Transportation,3103 S G St,Rogers,AR,72758,479-685-2070
Mitchell Transport,340 Chateau Dr,Dover,AR,72837,479-886-2357
W Ch Transportation,2312 Birch St,Van Buren,AR,72956,479-420-6883
D & S Logistics,4603 Longbell Rd,Wabbaseka,AR,72175,870-209-8725
Ccc,2113 Military Dr,Dardanelle,AR,72834,479-453-0242
Rbc Transport,420 N Buerkle Pl,Stuttgart,AR,72160-3053,210-253-9113
Larry Harris Trucking,118 N Pitts,Cherry Valley,AR,72324,870-588-5445
Richard Fuller,639 Silverwood Ln,Salem,AR,72576,423-489-5810
Rk Solutions,18764 Huntington Dr,Gravette,AR,72736,479-366-8956
Venable Transport,218 Lower Ridge Rd,Conway,AR,72032,501-764-6419
Justin H Thomas Dba Hidalgo Trucking,157 Dead End Rd,Clinton,AR,72031,501-850-3706
Marion On The Move,1701 Chickasawba St,Blytheville,AR,72315,870-838-8305
G W Hauling,411 Lighthouse Dr,Alma,AR,72921,479-414-1942
Diamante Car Hauling,2321 Orchard St B105,Springdale,AR,72764,860-815-0728
K & R Trucking,4069 Highway 261,Colt,AR,72326,870-662-0213
Hudson Mobile Home Movers And Recovery,19190 Strickler Rd,West Fork,AR,72774,479-263-9973
Wl Transport,145 Dclark Rd,Lake Village,AR,71653,860-815-0728
Martin Transport,667 Blackjack Mountain Rd,Romance,AR,72136,501-772-0277
Jackson Hauling,1311 County Road 211,Eureka Spgs,AR,72632,402-995-9463
J & M Transport,190 Cato Rd,Sherwood,AR,72120,501-804-3021
Joe Moore Trucking,123 College Vw,Magnolia,AR,71753,870-310-5605
Alan Rogers Farm,7026 Highway 90 West,Pocahontas,AR,72455,870-219-7655
W W Rigging Co,7409 Hwy 271 S,Fort Smith,AR,72908,239-281-4849
Ag-pro Companies,1616 Hwy 79 South,Stuttgart,AR,72160,870-673-4411
Battles Farm,Hightower Road,Sidney,AR,72577,870-346-5525
Ritter Grain Services,300 Adamson Road,Marked Tree,AR,72365,870-358-2130
Pgtelco,139 N Mock,Prairie Grove,AR,72753,479-846-7200
American Excavating,13079 Rothrock Rd,Lincoln,AR,72744,479-841-9082
Pipeline Welder,107 Fish Bayou Road,Lake Village,AR,71653,662-781-9560
T & D Express,2575 Marie Dr,Conway,AR,72034,870-317-5155
Nea Supergas LLC,118 Meadow,Bono,AR,72416,870-926-8160
Md Welding,18 Brayden Dr,Houston,AR,72126,501-889-3521
Triple P Ranch Bargain Barn LLC,1085 Polk 67,Mena,AR,71953,214-793-3313
Triton Stone Of Little Rock,10 Clearwater Drive,Little Rock,AR,72204,501-562-9994
First Produce And Foods,3043 Distribution Drive,Jonesboro,AR,72401,870-932-1059
Mighty Acres,458 Steele Road,Springdale,AR,72762,479-361-9221
Toyota Of Fayetteville,1352 W Showroom,Fayetteville,AR,72704,501-316-1400
Welder,155 Glaze Mason,Bald Knob,AR,72010,501-724-0788
Rockin R Cattle Farm,606 E 10th St,Russellville,AR,72801,479-692-3548
Woods Trucking,402 Porter Dr,West Helena,AR,72390,870-995-5476
Keeper Of My Sound,145 Hibiscus Dr,Maumelle,AR,72113,501-920-0893
Park Place,210 East Everett,Pocahontas,AR,72455,870-892-8866
Mcfadin Global Logistics,535 Enterprise Avenue,Conway,AR,72032,888-611-3397
M&j Stone And Timber,280 Madison 8003,Rogers,AR,72756,870-277-9410
Mark Cogburn Logging,152 Waggoner Street,Norman,AR,71960,870-828-0158
Bad Boys Trucking,178 Polk 646,Mena,AR,71953,479-216-9592
Atchley Air,3100 Wheeler Ave,Fort Smith,AR,72901,479-785-1111
Sunset Truckin,80 Wortman Lane,Higden,AR,72067,501-516-6189
Garth Trucking,2420 Quattlebaum Cv ,Conway,AR,72034,501-231-8372
Harvey Logistics,7115 Eddy Ln,Little Rock,AR,72209,501-747-2679
Calvert Enterprises,278 Arkavalley Rd,Greenbrier,AR,72058-9633,501-472-1361
Spears Farm,16462 W Highway 28 ,Briggsville,AR,72828,479-495-9445
Grassroots Trucking,4622 Whippoorwill Ln,Van Buren,AR,72956-8758,800-226-3696
Richard W. Smith,1201 N 7th St ,Fort Smith,AR,72901,479-926-7179
Three C's,804 N 4th St ,Dardanelle,AR,72834,479-699-5723
Concord Specialty Corrugated,101 Industrial Drive,Batesville,AR,72501,870-793-1100
Scruggs Loging LLC,22116 St Hwy 237,Doddridge,AR,71834,870-691-2524
Taylor Made Ambulances,3704 Medallion Place,Newport,AR,72112,180-046-8131
Elliott Sawmill,Hwy 62,Yellville,AR,72687,870-427-5587
Polite Logging,692 Oak Grove Rd,Lockesburg,AR,71846,870-582-1486
Holcomb Machine Tool,14364 Hwy 112,Elm Springs,AR,72728,479-248-1489
Mason Oil,3705 Hwy 32 West,Foreman,AR,71836,870-542-7267
Mkc Plastics,2407 Cupp Rd,Paragould,AR,72450,870-239-3013
Homer Dean Leasing,7131 East Johnson Ave,Brookland,AR,72417,870-931-7407
Foresee Logging,13600 Walnut Valley Rd,Rogers,AR,72756,479-636-9339
Mike Ezell Logging,109 N Fir,Whelen Springs,AR,71772,870-353-4753
Hard Surfacing Contractor,12058 Hwy 82,Texarkana,AR,71854,800-717-7967
Charles Logistics,402 Saint Renee Dr,Paragould,AR,72450,870-450-3551
Hernandez Trucking,1999 N Patrick St,Jonesboro,AR,72401-1883,860-815-0728
Lorry Xpress,203 Mccarrell St ,Dumas,AR,71639,860-815-0728
Juan Velez-zacuala,116 Elm St 116 Elm St ,Hermitage,AR,71647,870-315-5221
Jeffrey S Feil,415 Blakey Rd ,Heber Springs,AR,72543,501-691-4920
J & R Trucking,789 Highway 38 W ,Des Arc,AR,72040-3253,501-246-0947
Top Notch Hotshot And Transportation,2913 Oakview Rd 2913 Oakview Rd ,Fort Smith,AR,72908,918-424-4912
Jd Wilson Transportation,7 Clearwater Dr,Glenwood,AR,71943,870-260-2635
Seymour Trucking,5455 County Road 912,Jonesboro,AR,72401,870-897-6901
Sisters Trucking,1912 South Plum Street,Pine Bluff,AR,71603,870-850-6256
A & A Hotshotting,422 Gibson Cir,Dermott,AR,71638,870-538-4122
Ledarius Matthews,9 Olympia Ct Apt 103,Little Rock,AR,72210,501-246-1866
Tiger Express,310 Mid Continent Plz Ste 460,West Memphis,AR,72301-1700,901-833-4740
Hotshot Hauling,19 Bracey Cir,Little Rock,AR,72204,501-952-7775
M&m Service & Logistics,132 Florence St,Vandervoort,AR,71972,479-234-3606
Ghost Rider Trucking,8587 Rally Hill Rd,Everton,AR,72633-8168,870-754-3748
Bless And Favored Trucking,1900 Reservoir Rd Apt 55,Little Rock,AR,72227-6601,501-777-4670
Parchman Trucking,115 Union St,Forrest City,AR,72335,469-243-7537
Coach's Corner Transport,1521 W Cherry St,Clarksville,AR,72830,479-283-2859
Jr Trucking,98 Jones Rd,Jacksonville,AR,72076,501-988-2783
Sanford Dixon,10008 Stardust Trail,Lr,AR,72209,501-247-5110
Inferno River Trucking,1902 Fox Meadow Ln,Jonesboro,AR,72404,870-318-6788
James Goff,268 Star Thistle Dr,Marshall,AR,72650-8472,870-504-0125
J&b Movers,10000 Highway 1,Harrisburg,AR,72432,870-578-8280
Huckabys Transport,11115 Samples Rd,Alexander,AR,72002,501-680-1865
Earth Works Truckline,965 East Robinson Ave,Springdale,AR,72764,479-599-6014
R & S Transport,180 Luckau Ln,Alma,AR,72921,479-208-3621
Big Fellas,2556 Highway 17 S,Newport,AR,72112,870-284-3368
1 2 3 Tap-in Transport LLC,1301 Jones St,Little Rock,AR,72202,501-804-1614
1 Trip Trucking LLC,520 Chicago Blvd ,Lake Village,AR,71653,870-265-0805
Universal Trucking LLC,6409 Highway 365 S,Little Rock,AR,72206,501-952-0253
10 Dash 10 LLC,9611 Highway 59 North,Cedarville,AR,72932,479-883-0590
10-52 Clear Transporting LLC,7328 Gibson Rd,Jacksonville,AR,72076,501-749-0010
"1010 Trucking, Inc.",526 Del Circle,Lowell,AR,72745,501-770-6355
11 South LLC,9 Professional Drive,Bella Vista,AR,72715,479-250-5558
1400 Ways,318 S Larch St,Pine Bluff,AR,71601,208-834-4444
1647 Group Trucking LLC,3517 W 13th Street,Little Rock,AR,72204,202-590-6364
18 Wheels Logistics LLC,1198 Forest Hills Blvd Ste 106,Bella Vista,AR,72715-2391,479-633-8005
1917 Logistics,9500 Belhaven Vw,Fort Smith,AR,72908,479-304-2803
1933 Wr4w Enterprises,2402 Sheraton Park Dr,Pine Bluff,AR,71603,254-466-9852
David Gordon Trucking,1048 Hwy 259 North,Moro,AR,72368,501-768-3458
Daniel Perry Trucking LLC,1306 East 48th Street,Texarkana,AR,71854,903-824-6272
1st 50 States Anywhere LLC,2304 Mitzi Ln,Jonesboro,AR,72405,870-316-3437
"1st Choice Trucking, Inc.",915 E Main St,El Dorado,AR,71730,870-433-1875
1st Integrity Logistics & Trucking LLC,2 Overton Cv,Sherwood,AR,72120,501-541-9047
"1st Recovery, Inc.",2206 Bishop,Bryant,AR,72022,501-653-2122
2 Brothers Driving,611 Se 3rd St,England,AR,72046,501-842-4102
Hunter Hvacr,13 Cowgur Ln ,Bella Vista,AR,72715,479-414-8360
2 Friends Trucking LLC,614 Pc 237,Lexa,AR,72355,870-816-8287
2 Hawk Distributing LLC,2919 Phillips 251 Road,Lexa,AR,72355,870-572-1264
2 K Xpress LLC,562 Lemay Trail,Jacksonville,AR,72076,501-982-8511
2 Lou's Trucking LLC,2018 Peevey Ave,Forrest City,AR,72335,615-995-2841
2 Playa Road Runna LLC,2308 Helena St,El Dorado,AR,71730,870-814-8758
2 Vets Logistics LLC,15 Stonehaven Dr,Cabot,AR,72023,501-743-2859
2020 Vision,17533 S Highway 59,Canehill,AR,72717,479-439-3953
2222,389 Hwy 65 North,Conway,AR,72032,501-908-3125
24 7 Movers,3425 Short Wilma Street,Fort Smith,AR,72904,479-226-1927
24-7 Construction LLC,Box 3034,Camden,AR,71711,870-574-0335
24-7 Logistics LLC,221 Ridge Rd,Malvern,AR,72104,501-384-5329
24-7 Retail Corporate Worldwide,10600 Colonel Glenn Rd Ste 500,Little Rock,AR,72204-8033,501-205-0145
2nd Wind Hauling And Trucking,4 Westbury Drive,Bella Vista,AR,72714,479-619-6881
2s Get N It LLC,5113 Alpha St,N Little Rock,AR,72117,972-786-5760
2winfarms LLC,304 Huntcliff Dr,Jonesboro,AR,72404,479-442-7660
Vouk Transportation,701 Judi Drive,North Little Rock,AR,72117,800-844-8685
3 Coats Carriers LLC,112 Cathy St,Colt,AR,72326,870-633-4670
3 Crosses Transport LLC,561 Highway 26 E,Murfreesboro,AR,71958,870-826-4451
"3 D Transport, Inc.",873 Hwy 367 N,Judsonia,AR,72081,501-729-3001
3 J Transport LLC,350 Main St,Pleasant Plains,AR,72568,501-345-8003
3 Kiddos Trucking LLC,1305 Sandhill Rd,Lonoke,AR,72086,501-517-3570
3 L Trucking LLC,4919 Sfc 311,Forrest City,AR,72335,870-270-7236
3 P Trucking LLC,163 Ashley Rd 333,Hamburg,AR,71646,870-415-0406
3 R Construction And Hauling Ltd Co,127 Banks Road,Mammoth Spring,AR,72554,N/A
"3 Rivers Expedited, Inc.",2002 S Cherry,Stuttgart,AR,72160,870-672-4877
"3 Rivers Express, Inc.",60 Doughboy Road,Gillett,AR,72055,870-946-8880
3 Willis Transportation LLC,3321 S Bowman Rd Apt 321,Little Rock,AR,72211,870-945-7140
"3-b Transport, Inc.",197 Hwy 235,Saint Joe,AR,72675,870-439-2652
Central Records Services,301 Rogers Ave,Fort Smith,AR,72901,479-782-7779
"316 Logging, Inc.",288 Malvern Road,Arkadelphia,AR,71923,501-425-3028
360 Trucking LLC,101 Kimberly Cv,Widener,AR,72394,870-317-3091
365 Freight Hauling LLC,1005 W 55th St,N Little Rock,AR,72118,501-271-9865
38 Trucking,196 Sfc 608 ,Hughes,AR,72348-9006,870-394-2485
3be Logistics LLC,701 Judi Drive,North Little Rock,AR,72117,501-945-4541
"3d Davis Transportation, Inc.",8603 Bunch Rd,Mabelvale,AR,72103,501-478-9131
3d Hauling LLC,2106 Se Atherton Cir,Bentonville,AR,72712,479-685-9430
3j Solutions LLC,100 W Greene,Magnolia,AR,71753,870-562-2004
"3kc, Inc.",7592 Airport Rd,Bonnerdale,AR,71933,870-356-7433
3m Transit LLC,104 Meritt Cv,Marion,AR,72364,870-514-3289
3m Trucking,782 Walnut Ave,Cherry Valley,AR,72324,501-412-6928
3m Trucking LLC,301 Moorewood Rd Apt#1411,El Dorado,AR,71730,N/A
"3mc, Inc.",27714 S Springlake Road,Hensley,AR,72065,501-454-3926
3p Transportation LLC,220 N Bumble Bee Rd,Glenwood,AR,71943,870-413-0563
3rk Trucking,300 Sylvia St,Magnolia,AR,71753,870-299-9220
3rp Trucking LLC,515 E Ash St,Mc Gehee,AR,71654,870-690-2028
4 Amigos Transport LLC,1112 Dupwe Dr,Jonesboro,AR,72401,870-882-7240
4 C Haulers LLC,1880 Highway 138,Monticello,AR,71655,870-723-6311
"4 G Trucking, Inc.",2418 Lakeland Drive,Alma,AR,72921,479-420-0159
"4 H Transport, Inc.",100 Leslie Hollow Rd,Batesville,AR,72501,870-793-5070
"4 Kids Farms, Inc.",2582 Hwy 124,Damascus,AR,72039,501-472-8753
4 Nova Trucking LLC,1708 W Walnut St,Rogers,AR,72756,479-426-0927
4 Sisters Logistics And Agricultural Consulting LLC,4752 Lee County Rd 119,Moro,AR,72368,870-995-9995
"4 States Distribution, Inc.",228 Elm,Glenwood,AR,71943,N/A
4 Way Transport LLC,407 Warren St,Lewisville,AR,71845,903-824-5634
"4 Way Transportation, Inc.",422 West Walnut,Rogers,AR,72756,479-621-6660
"4 Way's Logistics, Inc.",4916 Mellwood Rd,Little Rock,AR,72204,501-366-5815
"412 Transportation, Inc.",7760 Hwy 412 E,Paragould,AR,72450,870-236-2360
413 Hauling,618 N 12th St,Van Buren,AR,72956,479-420-1805
479 Logistics LLC,3214 Mount Zion Rd,Greenwood,AR,72936,479-252-2907
"48 Xpress, Inc.","400 W Capitol Avenue, Suite 1700",Little Rock,AR,72201,786-405-8045
4d Logistics LLC,3 County Road 628,Wynne,AR,72396,870-318-5505
"4d Transportation, Inc.",11762 Hwy 8,Amity,AR,71921,870-223-1205
4j Shipping And Hauling LLC,38 Goodwin Cir,N Little Rock,AR,72117,501-584-1987
4y Trucking,199 Jamie St,Huntsville,AR,72740,479-935-6336
"5 Boys Enterprises, Inc.",211 Tenor Place,Pearcy,AR,71964,501-767-1673
5 Roots Trucking LLC,13212 Krystal Cv,Alexander,AR,72002,501-352-7977
Betina Wilson,1000 Alabama St Apt 3,Earle,AR,72331,870-318-4914
5 Star Trucking LLC,Highway 43 South,Compton,AR,72624,N/A
501 Transport & Hauling LLC,1020 E Broadway St,N Little Rock,AR,72114,501-521-7547
501 Transport LLC,643 Lost Creek Rd,Pearcy,AR,71964,501-545-8117
504 Boss LLC,5300 W 30th St,Little Rock,AR,72204,501-541-3856
5b Express LLC,21017 Springston Ford Rd,Elkins,AR,72727-3578,479-957-8694
5k Transport LLC,300 N Hickory,Humphrey,AR,72073,870-674-7347
5m Hauling LLC,1889 Batesville Blvd,Batesville,AR,72501,870-844-5015
64 Trucking LLC,1107 Sfc 107,Palestine,AR,72372,870-317-4589
"657 Transport, Inc.",15444 Hwy 95,Cleveland,AR,72030,501-592-3573
"7 Seas Transport, Inc.",1304 W Roderweis Rd,Cabot,AR,72023,707-971-0042
71b Auto Auction,4635 North Thompson Street,Springdale,AR,72764,479-756-5001
7b Trucking,3755 Hwy 67 West,Hope,AR,71801,972-235-6215
870 Logistics LLC,1105 Elkhorn Lane,Jonesboro,AR,72404,N/A
870 Motoring LLC,602 Center Street,Marvell,AR,72366,310-435-7331
870 Trucking Co LLC,3410 Philco,Blytheville,AR,72315,870-278-9730
8x Transport LLC,4811 Red Hill Rd,Alma,AR,72921,479-670-3632
"99 Transport, Inc.",171 Falls Rd,Pottsville,AR,72858,479-280-0071
A & B Logistics LLC,8801 Herrick Lane,Little Rock,AR,72209,501-744-2858
A & B Pallet,12516 Hwy 378,Mansifield,AR,72944,479-459-1820
A & J Logistics LLC,10200 Richsmith Ln Apt 106,Mabelvale,AR,72103,501-647-1501
A & K Kargo Xpress LLC,103 Main St Apt W803,Little Rock,AR,72201,601-842-4239
A & M Trucking Of Monroe Arkansas LLC,18438 Highway 39,Brinkley,AR,72021,501-945-0123
A & M Xpress Freight LLC,4330 Mcbride Rd Spc 1,Yellville,AR,72687,928-848-3361
Anl Chief Logistics Company,1508 Macon Drive Suite C10,Little Rock,AR,72211,501-517-4315
A & P Freight Agents LLC,1496 Turkey Ridge Rd,Magazine,AR,72943,479-221-2110
A & T Delivery Corporation,3012 East 19th,Texarkana,AR,71854,870-774-2886
A & T Express Freight LLC,4302 Sw Plumley Ave,Bentonville,AR,72712,501-909-1461
A & V Trucking LLC,302 Burns St,Black Oak,AR,72414-9504,870-243-3481
"A & W Services, Inc.",1615 Pine Bluff St #a,Malvern,AR,72104,507-332-3200
A A Farms,5095 East County Rd 132,5095 East County Rd 132,AR,72315,870-838-5074
"A A M Transportation, Inc.",214 Cedar Creek,Hot Springs,AR,71901,479-381-2138
"A And K Freight, Inc.",506 E 2nd St,Hope,AR,71801,870-703-4475
A And N Transports LLC,3315 Moonlighting Place Dr,Bryant,AR,72022,410-259-3097
A B Cooper Carriers LLC,2713 W Sayre Ln,Rogers,AR,72758,479-721-6934
A B Oil Company LLC,900 East Jackson,Harrisburg,AR,72432,870-578-9585
A Better Avenue Trucking LLC,3437 Wheeler Chapel Rd,Pine Bluff,AR,71601-9767,870-489-6307
A Bttr Courier LLC,3900 Mccain Park Dr Apt 104,N Little Rock,AR,72116,501-256-7032
A & C Towing Service,390 Newport Road,Batesville,AR,72501,870-698-1046
"A C Cartage, Inc.",1702 East Line Rd,Searcy,AR,72143-9308,501-268-2431
A D Trucking,Rt 1 Box 146a,Foreman,AR,71836,501-542-6854
A D Trucking LLC,133 Redbud,Crossett,AR,71635,870-305-5203
"A Dependable Fencing Co, Inc.",4315 E Main St,Russelville,AR,72802,479-968-7322
A G Auto Sales,1018 Speedway,Trumann,AR,72472,870-483-6622
"A G C Transport, Inc.",524 W Johnson,Jonesboro,AR,72403,501-932-1118
"A G Reynolds Transport, Inc.",109 Dayton Drive,Judsonia,AR,72081,501-207-3564
"A G Shephard Trucking, Inc.",Hwy 64 E,Ozark,AR,72949,501-667-3055
A Grey Area Company,308 S University Ave Apt 2111,Little Rock,AR,72205,501-773-2162
"A Harris Moving & Storage, Inc.",4711 South Zero,Fort Smith,AR,72903,479-452-4888
"A I Trucking, Inc.",Highway 1b,Dewitt,AR,72042,501-946-3596
A J Harvey,300 Crabapple Lane,Bismarck,AR,71929,501-467-2522
A J Wells Trucking LLC,109 Park Street,Monticello,AR,71655,870-723-6990
A K Rigg Trucking LLC,5909 S University Ave,Little Rock,AR,72209,501-519-3545
A L Transportation,1416 Old Monticello Hwy,Warren,AR,71671,870-820-5111
A Lamb Transport,400 Northport Apt 604,Cabot,AR,72023,501-765-1225
A Little Bit Of Hauling & More LLC,5155 Highway 29 S,Hope,AR,71801,870-397-4333
"A Lopez, Inc.",812 N Thompson St Ste 12,Springdale,AR,72764,479-751-6917
A M J Carriers LLC,820 Sellars St,Forrest City,AR,72335,901-436-3646
A Marii Closet,1114 E 13th St,N Little Rock,AR,72114-4348,501-952-7316
A N P Hauling LLC,7053 Hwy 167 S,Sheridan,AR,72150,870-917-5752
A R Express Hotshot LLC,1001 S Walnut St,Hope,AR,71801,870-826-6181
A Star Trucking LLC,200 Shamrock Dr,North Little Rock,AR,72118,501-247-9711
A State Express LLC,1411 Stafford Rd,Sherwood,AR,72120-5028,501-319-5805
A T Hauling Corp,2117 North Fork Circle,Benton,AR,72015,501-607-1493
"A T Transport, Inc.",2930 Wish Street,Pleasant Plains,AR,72568,501-345-2942
A T Trucking LLC,1253 Bradley 25 North,Warren,AR,71671,870-918-1095
A To B Hotshot & Transport LLC,5910 Pacific Rd,Jonesboro,AR,72401,870-340-6364
A W Pearl LLC,2803 Ewing Ln,Cabot,AR,72023,501-286-3429
"A&a Communications, Inc.",102 Wormwood Drive,Story,AR,71970,817-296-3083
A&a Enterprise & Logistics LLC,2375 Clinton St,Little Rock,AR,72210,504-655-7374
"A&b Dirt Movers, Inc.",1425 Hwy 365 South,Conway,AR,72032,501-329-5182
A&c Tree Services,511 Hwy 385 N,Judsonia,AR,72081,501-729-5815
A&d Jr Transportation LLC,417 W Buford St,Forrest City,AR,72335,501-266-8075
A&d Otr Transportation,948 Neil Sain Loop,Marion,AR,72364,870-514-5463
A&d Supply Of Fort Smith LLC,5434 Wheeler Ave,Ft Smith,AR,72901,479-668-2111
A&h Logistics LLC,2501 E Broadway St,West Memphis,AR,72301,901-338-9436
A&k Mccoy Trucking LLC,310 North 3rd Street,Mcgehee,AR,71654,870-222-8025
A&k Trucking LLC,7613 Vestal Blvd Apt 15,Maumelle,AR,72113,501-555-5555
"A&l Trucking, Inc.",111 West Runnels St,Mineral Spring,AR,71851,870-287-4530
A&m Hot Shots LLC,1446 Traskwood Rd,Traskwood,AR,72167,501-326-9111
A&r Evans Transport LLC,1508 Oakwood Cr,White Hall,AR,71602,870-209-3704
"A&r Jordan Trucking, Inc.",2845 Plateau Dr,Conway,AR,72032,501-697-0301
A&w Express LLC,114 Cypress St,Centerton,AR,72719,479-530-9725
A'unique Lylly - LLC,512 Oneida St,Jacksonville,AR,72076,501-247-6552
A-1 Auto Salvage LLC,2815 East St,Texarkana,AR,71854,870-773-6606
A-1 Transport Services Group LLC,5835 Highway 5,Cabot,AR,72023,501-605-1210
A-1 Wrecker,1408 Thompson,West Memphis,AR,72301,870-732-1010
A-kot Transport Co LLC,1343 W Main St,Marvell,AR,72366-9306,870-338-4671
A-state Trucking,3221 Shelby,Jonesboro,AR,72404,870-284-0889
"A-team Express Enterprises, Inc.",3607 W Roosevelt Rd,Little Rock,AR,72204,501-240-3806
A-team Trucking LLC,6404 Navajo Trl,N Little Rock,AR,72116,501-515-9799
A1 Freight Solutions LLC,1705 Misty Dr.,Benton,AR,72019,501-563-8850
A1 Trucking Co,120 Southeastern Ave,Jacksonville,AR,72076,501-487-0415
A2 Delivery Llp,5004 Boulder Point Dr,Alexander,AR,72002,501-414-3414
A28 Shipping & Receiving LLC,1013 S James St Apt B,Jacksonville,AR,72076,501-607-8407
A2b Hotshot LLC,164 Lakewood Dr,Clarksville,AR,72830,479-774-4501
A2b Trucking LLC,14 Winston Dr,Sheridan,AR,72150,870-540-9210
A3 Logistics LLC,35 Oliver Ln,Crawfordsville,AR,72327,870-514-9963
Aa Running Wild LLC,105 Bishop Ln,Mcrae,AR,72102,501-606-1108
Aa Trucking Corp,271 Rush Ln,Imboden,AR,72434,870-844-2008
Aa Trucking LLC,2921 Beatty St,West Memphis,AR,72301-3619,870-351-5099
Aa Trucking LLC,2921 Beatty St,West Memphis,AR,72301-3619,208-391-5802
Aa Williamsons Trucking LLC,30 Bass Circle,Little Rock,AR,72223,501-804-2993
"Aaa Business Systems, Inc.",2715 N Drake Street,Fayetteville,AR,72703,479-442-4185
Aaa Crippen Trucking LLC,203 Tennessee St,Forrest City,AR,72335,870-945-1108
"Aaa Drain Service, Inc.",543 Dean Springs Rd,Alma,AR,72921,479-883-1106
Aaa Rolloff Company LLC,2305 B Industrial Park Road,Van Buren,AR,72956,479-471-7368
"Aaa Septic Tank Service, Inc.",6980 Hutchens Rd,Bentonville,AR,72712,479-631-8000
"Aaa U-rent It, Inc.",830 North Greenwood,Fort Smith,AR,72901,479-782-4073
"Aah Logistics, Inc.",4700 South Zero,Fort Smith,AR,72903,479-649-7070
Rem Trucking,3895 Highway 232 E,England,AR,72046,501-266-3741
Aaron Boswell,277 Mc 472 Lot 1,Texarkana,AR,71854,903-276-5228
Aaron Brown,1910 Cartwright St,Earle,AR,72331,870-514-3388
Aaron Gibson,600 Earle Dr,Benton,AR,72019,501-398-5489
Aaron Lathan Trucking LLC,122 Bradley 224 Rd,Warren,AR,71671,870-918-1095
Aarons Two State Towing,Georgia,Van Buren,AR,72956,147-947-4838
Aaron Riggin Trucking LLC,624 Dudley St,Weiner,AR,72479-9267,870-243-2428
Aaron Salas,101 Laurel Lake Drive,Marion,AR,72364,901-265-6686
Aaron Sanders,12200 Mountainview Rd,Mansfield,AR,72944,479-285-3459
Aaron Trucking,678 Boak Lane,Tyronza,AR,72386,870-487-2472
"Aaron Trucking, Inc.",4629 Hw 63 N,Black Rock,AR,72415,870-878-6911
Aaron Whitmire Trucking,602 Circle Dr,Cave City,AR,72521,870-283-9277
Aaron's Transport LLC,400 N Bowman Rd Ste 14,Little Rock,AR,72211,501-256-1196
Aary Hotshot Xpress LLC,5612 S 98th St,Ft Smith,AR,72903,479-719-7851
Ab Moving Storage,625 Oakley Ln,Jacksonville,AR,72076,N/A
Ab&j Transport,4927 Hwy 67 West,Hope,AR,71801,310-508-7609
Abaababe Trucking LLC,300b S Davis St,Conway,AR,72034,914-314-7415
"Abacus Transport, Inc.",333a Dellinger Rd,Lockesburg,AR,71846,941-584-9868
Abbott Ives Trucking Co LLC,149 Smith Road,Tumbling Shoals,AR,72581,501-362-2529
Abc Equipment,6902 Brodie Lane,Little Rock,AR,72204,501-455-2457
Abc Ready Mix,225 Featherston Street,Mount Ida,AR,71957,870-867-0122
Abdul K Sageer,3133 Commerce,Forrest City,AR,72335,202-521-1493
Abernathy Company,3820 East 19th Street,Texarkana,AR,71854,501-774-5103
"Abernathy Construction & Excavation, Inc.",24 Stanley Lane,Mt Ida,AR,71957,501-617-1512
Abernathy Trucking LLC,9401 Susanne Drive,Little Rock,AR,72209,501-412-9011
"Abf Cartage, Inc.",3801 Old Greenwood Rd,Fort Smith,AR,72903,479-785-8700
"Abf Freight System, Inc.",P O Box 10048,Fort Smith,AR,72917,N/A
Abh Haulers LLC,191 N George Cir,Marion,AR,72364,870-739-6641
Abias Transport LLC,2480 Mountain Pine Road,Hot Springs,AR,71913,501-760-2602
"Able Air Couriers, Inc.",1012 N Dogwood St,Siloam Springs,AR,72761,479-575-9459
"Able Bodied Movers, Inc.",770 Hwy 164 West,Dover,AR,72837,479-331-1004
Able Expedited LLC,812 Orange St,N Little Rock,AR,72114,501-786-7100
Abound Trucking LLC,11620 S Hwy 41,Branch,AR,72928,479-438-0369
"About Tyme Transport, Inc.",15000 Sara Dr,Little Rock,AR,72206,501-240-4117
Abraham Trucking LLC,6607 Pecan Ave,Little Rock,AR,72206,501-410-3927
"Absolute Transportation, Inc.",201 N. Main Street,Imboden,AR,72434,870-869-1200
Eureka Springs Limo Co,810 South Fifth Street,Rogers,AR,72756,479-553-8294
Ac Green Trucking LLC,6218 Clark St,Little Rock,AR,72206,501-261-4641
Ac Mobile Home Transport,871 Cr 903,Green Forest,AR,72638,870-438-5667
Aka Acadian Industries,6840 East Meadow Lane,North Little Rock,AR,72118-2122,501-791-6840
Patterson Trucking,Rt 3 Box 132,Star City,AR,71667,501-628-5073
"Accord Logistics Solutions, Inc.",1840 Shelby Lane,Fayetteville,AR,72704,479-587-8308
"Accord Logistics Solutions, Inc.",1840 Shelby Lane,Fayetteville,AR,72704,479-587-8308
"Accu-temp, Inc.",9001 Old 81 Loop,Rudy,AR,72952,479-782-3083
Accurate Boring Company,12601b Alexander Road,Alexander,AR,72002,501-716-2673
Acccurate Transport,603 Porter Industrial Rd,Clarksville,AR,72830,479-214-4705
Accurate Logistics LLC,2800 South Division St,Blytheville,AR,72315,870-623-1980
"Accurate Transportation, Inc.",13376 Dixie Lane,Trumann,AR,72472,870-483-1773
"Ace Haulers, Inc.",3236 Thicket Dr,Pine Bluff,AR,71603,870-879-9878
"Ace Moving Storage, Inc.",600 E Broad St,Texarkana,AR,71854,501-773-4628
Ace Signs Of Arkansas LLC,11935 Interstate 30,Little Rock,AR,72209,501-562-0800
Aces High Largecar LLC,13 Iniciador Way,Hot Springs Village,AR,71909,N/A
Acklin Gap Express LLC,15 Happy Hill Road,Conway,AR,72032,501-764-1811
Acme Equipment Transportation,301 Clement Road,West Memphis,AR,72301,870-735-4703
Arkansas Sign And Banner,2107 S Walton Blvd Suite C,Bentonville,AR,72712,479-271-9722
"Action Architectural Fabricators, Inc.",3261 Hwy 64 W,Marion,AR,72364,870-739-4472
Action Towing,609 E Apple Blossom Ave,Springdale,AR,72764,479-750-7600
Action Freight,418 Magnolia Street,Marion,AR,72364,870-739-4472
Action Motorsports,2 Glenridge Rd,Little Rock,AR,72227,501-680-8618
"Action Truck & Trailer, Inc.",2323 Hwy 157,Judsonia,AR,72081,501-729-5769
Actw,89 Easter Rd,Earle,AR,72331-9749,870-636-0419
Ad Carriers LLC,5440 S Primrose Rd,Lowell,AR,72745,503-757-4771
Ad Stomper LLC,400 Cliff Rd,Russellville,AR,72802,479-890-0025
"Ad-cam Trucking, Inc.",2208 S Main,Stuttgart,AR,72160,N/A
"Nava's Trucking, Inc.",2106 Patti Ave,Springdale,AR,72762,479-770-4634
Ag Trucking,1331 Hwy 138,Monticello,AR,71655,870-367-1588
Adam French Farms,4218 Hwy 304,Delaplaine,AR,72425,870-243-5344
Adam Harrison Jr Trucking,Hc 64 Box 103a,Star City,AR,71667,501-628-5490
Adam Mcclelland Trucking,141 Greene 734 Rd,Paragould,AR,72450,870-335-8616
Adam R Harris,5507 Saint Regis Dr Apt 4,Benton,AR,72019-8755,870-834-3716
Adams Land Company,1805 E Third St,Leachville,AR,72438,870-539-6314
"Adams Transport, Inc.",985 Ball Rd,Humnoke,AR,72072,501-275-8890
Adams Fertilizer Equipment,1503 South Whitehead Drive,Dewitt,AR,72042,870-946-2494
Adams Trucking Co,P O Box K,Hazen,AR,72064,501-255-3274
"Adams Trucking Co, Inc.",Highway 10 West,Ola,AR,72853,479-489-5186
Adams Trucking Company,Route 1,Center Ridge,AR,72027,N/A
"Adams Truss, Inc.",12425 Collins Rd,Gentry,AR,72734-9506,479-736-8581
Jaynkay Enterprises,1423 Lansing St,Little Rock,AR,72223,501-916-9713
Adesa Little Rock,8700 Highway 70,North Little Rock,AR,72117,501-945-2444
Adj Hauling LLC,626 N Water St,Forrest City,AR,72335,501-590-6516
Adj Logistics LLC,12915 Meadowview Dr,Alexander,AR,72002,501-722-3746
Adl Logistics LLC,910 E Apple Blossom Ave,Bethel Hts,AR,72764,479-305-2491
"Admiral Moving Services, Inc.",664 W Ash,Fayetteville,AR,72703,479-442-4631
Avila Transportation,507 West Olive Street,Rogers,AR,72756,479-381-6800
Adolph Pirani,335 Block Street,Marion,AR,72364,870-739-3111
Adonai Logistics LLC,1303 Spruce St,Pea Ridge,AR,72751,479-664-5809
Adonai's Trucking,145 Cr 463,Jonesboro,AR,72404,870-679-9329
Two Brothers Trucking,14769 Highway 79 West,Moro,AR,72368,870-317-3640
Maxwell Transportation,10918 Lancelot Ct,Little Rock,AR,72209,501-551-7081
Adrian Love Sr,509 West Street,Watson,AR,71674,870-395-1295
D & L Auto Sales,9611 Bloomfield North Rd,Gentry,AR,72734,479-685-6074
Adrian Schuyler Baker,3528 N Rudy Rd,Van Buren,AR,72956,479-522-1086
Valdez Transporation,181 Hickory Street,Camden,AR,71701,870-833-7332
Ads Ranch And Livestock LLC,248 Little River 32,Ashdown,AR,71822,469-693-4368
Advance Fleet Management,213 Volman,Bigelow,AR,72016,501-388-0094
Advance Sign And Lighting Corp,5305 Stadium Blvd,Jonesboro,AR,72404-9231,870-275-6465
Advanced Hydro Seeding,6543 Hwy 21 N,Berryville,AR,72616,870-749-2254
"Advanced Moving And Storage, Inc.",231 Newman Road,North Little Rock,AR,72117,501-398-6683
Advanced Transport LLC,307b Mildred St,Conway,AR,72034,501-306-9436
Advanced Transportation LLC,1601 Detroit,Broken Arrow,AR,72921,918-259-0991
"Advantage Recycling, Inc.",402 Van Asche Drive,Johnson,AR,72741,479-444-6080
"Adventure Transportation, Inc.",620 Henri De Tonti Blvd,Springdale,AR,72762,479-419-5611
Adyrem Enterprise LLC,5325 North Oak Street,Bethel Heights,AR,72764,479-379-0565
Ae Cooper Transport LLC,474 Georgia Ridge Road,Searcy,AR,72143,501-388-6186
Ae Transportation Services,31 Warner Drive,Paragould,AR,72450,870-819-5000
Ael Transport LLC,963 Phillips Rd 237,Lexa,AR,72355,870-816-8287
Aesir Hauling And Vehicle Transport LLC,17625 Ethel Rd,Little Rock,AR,72206,501-398-2334
Affiliated Equipment Co,21510 Old Highway 365 North,Maumelle,AR,72113,501-803-4111
James R Mcdaniel,3810 Owen St,Van Buren,AR,72956,479-325-9075
Affordable Wrecker Service LLC,2537 South State Hwy 23,Booneville,AR,72927,479-675-1865
J & S Trucking,40 Bush Ln,Vilonia,AR,72173,870-307-5869
Agape Energy Group LLC,222 Fox Run Pl Apt#a,Lowell,AR,72745,918-694-3660
Agape Transportation LLC,323 Center St Ste 105,Little Rock,AR,72201,501-359-8238
Agerton Timber LLC,3166 Aurelle Rd,Strong,AR,71765,870-951-0584
Agh Transport,2524 Sfc 236,Colt,AR,72326,870-519-8111
Agot Services LLC,5405 Hwy 278,Rosston,AR,71858,870-602-0300
"Agp Transport, Inc.",29 Grant 441,Prattsville,AR,72129,870-699-5098
"Agra Turf, Inc.",2008 East Line Road,Searcy,AR,72143,501-268-7036
"Agrasource, Inc.",11560 Growley Road,Ola,AR,72853,479-272-4663
Minturn Grain,1403 Hwy 67,Hoxie,AR,72433,870-886-7011
Ags Direct LLC,151 Highway 63 Bypass South,Hermitage,AR,71647,870-463-2500
Agseal Poultry Foam LLC,6800 White Fence Drive,Harrison,AR,72601,870-741-9269
Aguilera & Santillan Trucks LLC,308 E Sandlewood Dr,Rogers,AR,72758,970-405-5143
Ruas Trucking,3542 Belinda Lane,Springdale,AR,72764,202-521-1493
Ah Express LLC,948 Neil Sain Loop,Marion,AR,72364,870-514-7361
"Ah Transportation, Inc.",P O Box 441,Monette,AR,72447,870-561-3512
Ah Trucking LLC,62b Phillips 261 Road,Poplar Grove,AR,72374,501-569-5371
Ahounou Enterprise LLC,4108 W 26th St,Little Rock,AR,72204,402-612-1348
Aatl,190 Hempstead 12,Hope,AR,71801,855-969-7307
