Company Name,Street Address,Address Locality,Address Region,Postal Code,Telephone
Flamming Eagle Trucking,20644 Hwy 65,Cedaredge,CO,81413,970-856-3296
Loveland Auto Transport,616 Mckinley Ave,Loveland,CO,80537,970-593-1325
B & B Transport,2199 East Floyd Place,Englewood,CO,80113,720-519-8534
Guess Who Trucking,35909 Wcr 49,Eaton,CO,80615,970-301-9729
49 Square Trucking,9790 Cr 39,Mancos,CO,81328,650-438-7339
Jacco Distributing Company,27211 Road P3,Dolores,CO,81323,970-882-8845
Cj Trucking,14612 East 26th Way,Aurora,CO,80011,303-513-2088
Michael's Trucking,5801 E 66th Ave,Commerce City,CO,80022,915-256-0584
Integrity Trucking,41 West Sylvestor Place,Littleton,CO,80129,303-470-5656
Energy Services LLC,685 West Gunnison Avenue 104,Grand Junction,CO,81501,970-245-7302
Kamla Trucking,36860 County Road Ff,Wray,CO,80758,970-332-2058
Kb Hauling,620 37th Ave,Greeley,CO,80634,970-396-7080
J & M Transport,3924 Falcon Lane,Evans,CO,80620,970-389-6530
K & T Trucking,7587 Willow Wind Dr,Colorado Springs,CO,80925,719-329-4070
Mon Trans,7558 East Warren Circle 6 208,Denver,CO,80231,303-632-7397
Pontino Pilot Car Service,25006 Rd F6d,Cortez,CO,81321,970-799-1373
C And S Trucking,101 Reeder Mesa Rd,Whitewater,CO,81527,970-712-4591
Affordable Express,3398 S Elkhart St,Aurora,CO,80014,303-300-9700
Choice Hot Shot Trucking LLC,2286 I 1/4 Road,Grand Junction,CO,81505,970-361-8220
Arkay Services,8380 East 105th Avenue,Henderson,CO,80640,303-907-8575
T & K Trucking,2332 Judson Street,Longmont,CO,80501,303-517-8156
C & J Express LLC,10475 Hwy 52,Wiggins,CO,80654,970-483-6603
Lucky Luke's Trucking,995 Main Street,Sanford,CO,81151,719-580-0263
24 Trinity Transport,310 W 4th N,Cheyenne Wells,CO,80810,719-767-2889
Crdn Of Denver & Northern Colorado,6086 E County Line Road,Highlands Ranch,CO,80126,303-946-2762
Geo Transportation,4760 Hunterwood Drive,Highlands Ranch,CO,80130,303-521-0033
Chris Go Trucking,198 Hwy 160 Frontage Road,Mancos,CO,81328,970-533-7086
Abm Airport Shuttle,7375 E Quincy Avenue No 207,Denver,CO,80227,720-275-4755
Cow Camp Trucking,10730 Cr 24 One Half,Ft Lupton,CO,80621,303-810-6890
Tp Trucking,130 8th Ave,Sterling,CO,80751,970-424-4281
Lenocker Trucking,26 Parachute Way St,Parachute,CO,81635,520-678-2805
Slide By Trucking,21741 Cr Z,La Junta,CO,81050,719-469-4077
Mook Trucking,2975 County Rd U,Wiggins,CO,80654,970-483-7775
Top Colorado Express,7560 E Harvard Ave Apt 304,Denver,CO,80231,720-404-8020
Advanced Trans-logistics,4740 Nightingale Dr J301,Colorado Springs,CO,80918,303-520-4438
Burkholder Transportation,4704 White Sands Street,Greeley,CO,80634,303-807-1881
Westside Auto Parts,15859 Us Highway 34,Fort Morgan,CO,80701,970-867-2486
Twctruckinginc,5133 S Oak Way,Littleton,CO,80127,303-484-1945
Pirate Energy Services LLC,646 Irish Walk,Grand Junction,CO,81504,970-629-3698
Bulldog Hot Shot Service,28485 Hwy 6 & 24 Building 8 Unit A,Rifle,CO,81650,970-456-5754
Raw Trucking,20520 H 50 Rd,Delta,CO,81416,970-874-4454
Jmj Transport,6865 Woodstock Street,Colorado Springs,CO,80911,719-392-6682
Shallow River Trucking,425 Yuma County Road Y,Burlington,CO,80807,719-346-0329
First Choice Equipment Sales And Service,906 L Street,Penrose,CO,81240,719-372-0990
Howie Nguyen Trucking,6610 W 73rd Pl,Arvada,CO,80003,303-881-6565
Square Peg Trucking,2209 Antelope Rd,Fort Collins,CO,80525,970-493-6902
L & J Trucking,964 20 1/2 Rd,Fruita,CO,81521,970-858-9177
M G Transportation,13880 Albrook Dr Apt 1603,Denver,CO,80239,303-375-9204
K&j Trucking,61977 Grand View Ct,Montrose,CO,81401,970-323-6858
Waws Trucking,3910 Wcr 37,Brighton,CO,80603,720-299-4863
Longhorn Express,200 Colorado Ave Apt 8204,Parachute,CO,81635,866-824-3163
Jose H Retana Trucking,1003 Harrison St,Monte Vista,CO,81144,719-852-3204
Nightbreed,137 Mckinley Ave,Fort Lupton,CO,80621,402-202-9869
Annaray Transport,17 Darren St,Castle Rock,CO,80109,720-936-4120
Lucky Charm Trucking,11502 Downing Street,Northglenn,CO,80233,303-254-2718
Swag Trucking,400 Camptosaurus Road,Dinosaur,CO,81610,970-374-2812
D & D Transportation,2162 Calle Fontana St,Fountain,CO,80817,719-229-8340
Black Dog Energy Services,1903 Avery Way,Castle Rock,CO,80109,970-623-5990
Frankson Transportation,641 W Mineral Ave # 1423,Littleton,CO,80120,303-963-5674
Chapman Trucking,1039 Revere St,Aurora,CO,80111,720-318-1239
Mrtruck Dot Net,12745 East 144th Avenue,Brighton,CO,80601,303-288-2082
Aj Trucking,1395 Clinton St Apt B,Aurora,CO,80010,281-932-8038
Sm Trucking Services,149 North Denver Avenue,Fort Lupton,CO,80621,720-771-0520
Mehdi Ait Mbarek,13201 Randolph Pl,Denver,CO,80239,303-956-5050
Always Reliable Transport,163 Pelican Cir #1206,Breckenridge,CO,80424,970-333-1521
R Box Trucking,1309 N Hwy 287,Ft Collins,CO,80524,970-493-9694
G And J Trucking,861 Meadows Drive,Pagosa Springs,CO,81147,970-903-4544
Quinonez Express Company,1276 S Zuni St,Denver,CO,80223,303-742-9839
Hot Shot Transport,4100 Lakefront Dr,Loveland,CO,80537,N/A
R Parker Hydraulics,3788 Mariposa St,Colorado Springs,CO,80907,719-313-0493
Bayless Trucking,26900 Highway 96 East,Pueblo,CO,81001,719-948-5525
Lonewolf Trucking,311 Clark Ave,Trinidad,CO,81082,719-846-3089
T C Trucking,301 3rd Avenue,Crook,CO,80726,970-466-1040
Guy Yearous Truck Service,930 Saunders St,Fort Morgan,CO,80701,602-708-1246
Touch Of Class Transport,2000 W 92nd Ave Sp 111,Denver,CO,80260,303-657-5593
Barnes Transport,16699 W 10th Ave,Golden,CO,80401,720-880-8974
Chad Transportation,2343 Vaughn Way Apt 407,Aurora,CO,80014,303-999-1252
Bazor Trucking,202 Martin St,Longmont,CO,80501,720-291-5541
Wolf Run Trucking,2860 Melvina,Canon City,CO,81212,719-275-2580
Wylane Transporters,10341 W 59th Ave Apt 4,Arvada,CO,80004,303-295-0199
Ray Walker Trucking,4593 Fraser Way,Denver,CO,80239,303-373-1662
Sol Mar Transportation,8141 Irving St,Westminster,CO,80031,303-284-4594
Bigbear Trucking LLC,2111 Quebec St,Denver,CO,80207,720-435-8631
Rudy's Trucking,1188 Fall River Circle,Longmont,CO,80504,303-776-6873
Skyline Npc Construction,16330 6416 Rd,Montrose,CO,81403,970-209-6639
M & J Auto Transport,803 Holmes Drive,Colorado Springs,CO,80909,719-633-1695
One More Mile Trucking,1208 Hickman St,Eads,CO,81036,719-691-1617
W E Quarter Circle Trucking,30846 Hwy 109,La Junta,CO,81050,719-853-6031
Carlos Mejia Authorized Distributor For Matco Tools,23201 E Orchard Pl,Aurora,CO,80015,720-937-8215
Rafael Varela,616 N Birch St,Yuma,CO,80759,970-378-7323
Dd Trucking LLC,11555 Us Hwy 34,Greeley,CO,80634,970-356-5883
Kuplack Trucking,30574 Blue Mountain Road,Golden,CO,80403,N/A
Rjl Transportation,587 Harrison St,Walden,CO,80480,970-819-8685
Dam Trucking,2020 Hwy 84,Pagosa Springs,CO,81147,719-557-1032
Bullhound Trucking,1680 S Decatur St,Denver,CO,80219,720-569-6215
Hot Shot Runner,5796 S Jamaica Way,Englewood,CO,80111,303-941-1119
On Time Auto Transport LLC,4255 So Buckley Rd Suite # 269,Aurora,CO,80013,303-656-8326
Jp Distibution,9123 E Mississippi Ave,Denver,CO,80247,303-927-8716
J T Transport,4812 Stone Canon Ranch Rd,Castle Rock,CO,80104,805-350-4456
"K & F Trucking, Inc.",6261 E 66th Pl,Commerce City,CO,80022,720-278-1838
Grey River Trucking,11116 W Arbor Dr,Littleton,CO,80127,303-304-2174
Braxton Trucking,8458 Liverpool Circle,Littleton,CO,80125,720-810-0145
Xiya Trucking,615 Bosque Vista Pt,Colorado Springs,CO,80916,719-322-3662
Fsm Trucking,11301 Niagra Street,Thornton,CO,80233,303-920-2514
Wmd Trucking,804 Walnut Ave,Rocky Ford,CO,81067,719-468-0808
Mccoy Trucking,898 North Fifth Street,Johnstown,CO,80534,970-587-5273
A & S Trucking,5420 Netherland St,Denver,CO,80249,720-810-0233
Stone Trucking,10588 Hwy 172,Ignacio,CO,81137,970-779-0449
Bookcliff Auto,1372 M 1/4rd,Loma,CO,81524,970-858-8717
Let Me Roll It Motorcycle And Automotive Transport,613 Cherry St,Fort Morgan,CO,80701,970-380-1457
Carson Moving And Storage,509 Yampa Avenue,Craig,CO,81625,N/A
Jemelo Trucking,1919 Bounty St,Aurora,CO,80011,303-946-7522
Conejo's Trucking,1428 S Zeno Way,Aurora,CO,80017,303-870-1430
Dgl Trucking,104-38th Ave,Greeley,CO,80634,970-356-5883
Red's Trucking,708 Carson Avenue,Fort Garland,CO,81133,719-379-4059
Shannon's Trucking,2512 Montego Bay,Evans,CO,80620,970-590-5220
Elite Transporting Services,2487 Antelope Ridge Trl,Parker,CO,80138,303-841-0763
C&c + 3 Trucking,3504 Goodfellow Ct,Whitewater,CO,81527,970-640-3212
E&l Nestor Transport,36245 Appy Road,Eaton,CO,80615,970-454-2086
Sunset Ranch Enterprises,7641 Newton St,Westminster,CO,80030,303-241-1944
Lss,4019 County Road 1,Montrose,CO,81403,970-596-5680
Foxfield Services,1045 Barclay St,Craig,CO,81625,N/A
Dream Trucking,283 Columbine Street #173,Denver,CO,80206,303-886-0653
Sergio R Cano,2175 Bainbridge Rd,Colorado Springs,CO,80916,719-306-2110
Franklin Universal Transport,1116 Broad St,Milliken,CO,80543,N/A
Empire Transport LLC,34 Saxony Rd,Johnstown,CO,80534,970-978-8629
Ball's Quarter Horses,5137 North County Road 11,Fort Collins,CO,80524,970-484-4148
Frasasa Transportation,1720 East 84 Av,Denver,CO,80229,303-833-5496
Holloway Transportation,910 Pond Side Drive,Colorado Springs,CO,80911,719-391-8965
R & S Trucking,540 Second Street,Sanford,CO,81151,719-229-7061
Leif Logistics,1625 Jackson St,Pueblo,CO,81004,719-924-8661
S&s Distributing,380 Catchpole,Pagosa Springs,CO,81147,970-749-6734
Barbwire Trucking,565 East First Avenue,Bethune,CO,80805,719-346-9504
Taykor Transport,8683 Cr 510,Bayfield,CO,81122,970-884-4478
Luke Northrup,8991 Cr X,Idalia,CO,80735,970-354-7341
Student Transportation Connections,1768 Billings St #105,Aurora,CO,80011,720-435-2083
Tack Trucking,68777 Open Field Rd,Montrose,CO,81401,970-249-2318
Jfc Transportation,1078 Granby St,Aurora,CO,80011,720-324-6898
I & C Tow,919 South Quitman Street,Denver,CO,80219,202-521-1493
Army Ant Moving & Storage,734 E 3rd Ave,Durango,CO,81301,970-903-5802
Baumgartner Trucking LLC,5231 W 11th St Apt 1506,Greeley,CO,80634,970-515-6896
Ob Enterprises,4775 Argonne St Apt H301,Denver,CO,80249,303-934-2417
Horn Services,710 E 5th Ave,Yuma,CO,80759,970-848-3111
Pizarro Trucking,113 S First St,Holly,CO,81047,719-940-0110
Rob's Automotive,203 South Helen,Olney Springs,CO,81062,719-252-5256
Kim F Wheeler Transportation,210 S Ethel Ave,Milliken,CO,80543,970-231-3222
C R Trucking,2055 S Paris Way #101,Aurora,CO,80014,720-987-4631
Vawter Distributors,3836 W 8th Street,Greeley,CO,80634,970-353-2674
D & J Express,18939 E Warren Cir 303,Aurora,CO,80013,303-437-3734
Wolf Pack Enterprises LLC,408 Garfield Ave,Nunn,CO,80648,970-590-1153
Vic's Hotshot,1220 Hermosa Ave,Grand Junction,CO,81506,970-985-2434
Clipper Transportation,500 O Street,Greeley,CO,80631,970-353-7222
T And T Trucking,643 Ingleside Rd,Laporte,CO,80535,970-493-4161
C & L Trucking,53361 3rd Street,Arapahoe,CO,80802,719-342-2617
L & M Hotshot,16410 Road 23,Dolores,CO,81323,970-882-7106
"Adams Welding Service, Inc.orperated",3086 Pinyon Pl,Grand Junction,CO,81504,970-434-4712
Owner,10050 E Gunnison Pl #802,Denver,CO,80247,720-207-1691
Dc Trucking,6250 N Federal #50,Denver,CO,80221,720-413-1067
Thunder Road Trucking LLC,23922 Cr 74,Eaton,CO,80615,970-443-8838
Transportation Of Property,8757 E Dry Creek Road Unit # 1528,Englewood,CO,80112,702-232-1404
Smitty's Transport,417 Columbine St,Fountain,CO,80817,719-213-1143
Mkd Yellow Dog Trucking,715 Park,Meeker,CO,81641,970-878-5832
Dot Delivery LLC,1354 Brentwood,Lakewood,CO,80214,720-436-8097
Beeline Express,3015 6125 Road,Olathe,CO,81425,970-323-9870
Bob's Trucking,10700 E 40th Ave,Denver,CO,80239,303-371-1500
Dba Grace Hauling,8436 Weld County Road 31,Fort Lupton,CO,80621,303-949-1562
Wbm Trucking,1906 Carolione Ave,Wattenburg,CO,80621,303-500-4542
Y Lazy S Ranch,2115 County Road 3,Craig,CO,81625,970-824-6668
Rocky Top Trucking,25633 Cr T,Dolores,CO,81323,970-749-2091
Watkins Trucking,211 Cr 310,Durango,CO,81303,970-385-0335
Southern Colorado Truck Service,1863 County Road 389,Wetmore,CO,81253,719-671-8128
Wzziel Trucking,16638 E Phillips Lane,Englewood,CO,80112,303-627-9456
Rcy Trucking,511 Melody Lane,Platteville,CO,80651,970-785-0519
Adams Trucking,3251 Cr 61/4,Walsenburg Co,CO,81089,N/A
Backroad Trucking,27653 Hwy 6 & 24 #1312,Rifle,CO,81650,970-319-5721
R & J Transport,6165 Brooks Dr,Arvada,CO,80004,720-234-8483
T & S Trucking LLC,28 County Road 102,Rangley,CO,81648,970-675-5007
W Bar M,1793 County Road 219,Rifle,CO,81650,970-625-2786
Masters Transports,2510 Marina Street,Evans,CO,80620,970-396-9088
J & S Trucking,20234 County Road 24,Ft Morgan,CO,80701,970-842-2305
Bk Transport,1326 Venado Rd,Silt,CO,81652,970-876-0811
Marrufo Trucking,1101 E 24 St Rd,Greeley,CO,80631,970-584-6015
M R Trucking,909 Dogwood Ave,Ft Lupton,CO,80621,303-847-6389
Lozoya Trucking,15895 Gadsden Drive,Brighton,CO,80603,303-304-2129
Carbajal Trucking,601 Hwy 172,Durango,CO,81303,970-769-7469
B & S Trucking,2154 South Waco Street,Aurora,CO,80013,303-337-0340
Romero's Trucking,10 Zeta Street,Golden,CO,80401,303-493-1831
Rocky Boy Transport,801 W South 1st St,Johnstown,CO,80534,970-532-5327
Pinkstaff Trucking,1204 30 St Rd,Greeley,CO,80631,970-356-5883
No Bull Transport,15702 East Exposition Dr,Aurora,CO,80017,727-288-6801
Bojangles Express,689 Hwy 50 6,Delta,CO,81416,970-874-3947
Kerns Transportation,101 Ironweed Drive,Pueblo,CO,81001,719-623-9341
Htr Trucking,29657 County Rd 35,Wray,CO,80758,970-332-4199
Caldwell Trucking,6241 E 66th Pl,Commerce City,CO,80022,303-289-6484
Double J Trucking,3090 Scranton St,Aurora,CO,80011,303-366-0599
Pro Moving And Storage,225 Se 12th,Loveland,CO,80537,970-412-8289
Superior Oilfield Services,723 35 8/10 Road,Palisade,CO,81526,970-242-4688
Don's Hot Shot Service,469 1/2 Seckel,Clifton,CO,81520,970-216-9280
Five C Transportation,432 Tony Street,Burlington,CO,80807,719-346-7939
Mac Tools Distributor,32955 County Rd 30,Mcclave,CO,81057,719-829-4427
"Smittys Auto Recovery, Inc.",2098 S Olathe St,Aurora,CO,80013,303-994-3128
Saguilan Trucking,13659 E 6th Place,Aurora,CO,80011,303-537-7750
R & R Ventures,32072 Horseshoe Drive,Evergreen,CO,80439,720-635-1272
D&r Hotshot Services,2933 Lost Creek Rd No,Montrose,CO,81401,970-252-0255
E & K Ford,13391 Weld County Road 104,Nunn,CO,80648,970-518-5712
Intimidator Trucking LLC,261 Allyce Ave,Grand Junction,CO,81503,970-241-1499
Ptb Trucking,101 Sharp Ave,Haswell,CO,81045,719-436-2010
Ilona Trucking,7570 Painted Rock Dr,Widefield,CO,80911,719-391-8332
Three Aaa Transport LLC,595 Park Ave,Rifle,CO,81650,970-274-8771
C&m Trucking Company,361 S Camino Del Rio Suite 307,Durango,CO,81303,970-946-9009
Unified Transportation,19720 Clubhouse Drive #230,Parker,CO,80138,720-261-9963
Watermann Farms Livestock & Grain,1151 East Second Avenue,Vona,CO,80861,970-664-2438
Double J Trucking Co,907 3rd Ave,Romeo,CO,81148,719-843-9737
Seiber Trucking,18674 Road 2,Wiggins,CO,80654,970-397-3826
Summit Transport,34872 Hwy 184,Mancos,CO,81328,970-903-8750
Rose City Trucking,1792 Joliet St,Aurora,CO,80010,303-246-8087
Tumbleweed Trucking,6938 Big Timber Dr,Colorado Springs,CO,80923,719-623-9780
Sibley And Son Moving And Storage LLC,21685 Hwy 135,Crested Butte,CO,81224,970-349-0200
T And D Trucking,13759 County Rd M,Antonito,CO,81120,719-580-3541
Short's Trucking,1903 Kenton St,Aurora,CO,80010,303-901-8835
Silver Flight Transport,836 Gregory Road,Fort Collins,CO,80524,970-482-0557
A-movingco And Starving Movers Of Colo,4995 Colorado Blvd,Denver,CO,80216,303-289-3433
Strong Back Moving & Domestic Labor LLC,3206 York Street,Denver,CO,80205,877-255-5897
Infinity Freight,1056 S Elkhart Way Ste 106,Aurora,CO,80012,720-329-8278
Macias Trucking,15082 Andrews Dr,Denver,CO,80239,720-323-9371
Soto Trucking,308 Prospect,Ft Morgan,CO,80701,970-542-1475
Martinez Trucking,307 Cotton St,Fort Morgan,CO,80701,970-867-2580
I And F Services,2913 W Magnolia,Ft Collins,CO,80521,970-493-1410
Cd Tractor Services,515 3rd Avenue,Ault,CO,80610,970-635-4722
Interstate Transport Services,1532 Center Lane,Pueblo,CO,81006,719-948-2177
Derail Trucking,103 2nd St,Pritchett,CO,81064,719-523-6430
Trans Porter,2904 Cr 314,New Castle,CO,81647,970-984-2845
Trucking Up LLC,8637 Bobcat Tail Lane,Loveland,CO,80538,970-667-5359
Geared Up Auto Transport,2341 Pioneer Road,Delta,CO,81416,970-874-9003
Mac Tools,10230 Cr 15,Longmont,CO,80504,303-775-7778
G And D Transport Specialist,16434 East Adriatic Palce,Aurora,CO,80013,720-314-1664
Scorpion's Trucking,3510 W Hoye Pl,Denver,CO,80219,720-472-4994
Just Haulin' Ag,6649 Lcr 1,Windsor,CO,80550,970-674-9203
Valdez Trucking,4306 Deep Haven Ct,Denver,CO,80239,720-374-3080
Lang Enterprises,62473 Falcon Rd,Montrose,CO,81401,970-323-6210
Genesis Transportation,16213 Road R,Ft Morgan,CO,80701,970-542-0403
Gibson Family Trucking,2287 S Norfolk Street,Aurora,CO,80013,720-568-9008
Fast Forward Carriers,2596 South Flanders Court,Aurora,CO,80013,303-521-9580
Larry W Nation,1931 25th Ave,Greeley,CO,80634,970-356-3604
Happy Acres Transport,3656 2195 Rd,Delta,CO,81416,970-874-5024
Jr Soto Transportation,8096 Greenwood Blvd,Denver,CO,80221,303-650-8551
Dpx Trans,3888 E 45th Ave,Denver,CO,80216,303-399-7336
Chaparro's Trucking,1212 Butte Rd Unit 24,Loveland,CO,80537,N/A
Van's Equipment Co,4046 Joe Collier Dr,Dacono,CO,80514,303-828-9600
Walking Tall Trucking,301honeysuckle Cir,Fruita,CO,81521,970-858-1062
Bramwell Trucking,8892 W 24th Ave,Lakewood,CO,80215,303-434-3199
Tdr Black Bull Hauling LLC,8868 State Hwy 151,Ignacio,CO,81137,970-883-3002
Western Trucking,0013 County Road 136,Florence,CO,81226,719-371-6645
Westen Transport Ltc,13178 Milwaukee Court,Thornton,CO,80241,303-451-6137
Morado & Son Trucking,24848 3rd Street,Galeton,CO,80622,970-454-2057
Affordable Choice Moving,361 S Camino Del Rio #250,Durango,CO,81303,970-247-1239
Rey Trucking,811 Linda,Fort Morgan,CO,80701,970-867-7513
Brothers Transport,14157 E 101st Ave,Commerce City,CO,80022,214-986-8522
Cosmic Debris Transportation,101 Murillo St,Brush,CO,80723,970-978-9971
J G Canales Transport,6341 Poplar St ,Commerce City,CO,80022,970-819-2002
Cbe Distributing,7744 S Kittredge Ct,Englewood,CO,80112,303-927-1739
Don Schoon Construction,438 N Golden Dr,Silt,CO,81652,970-876-0250
R J Trucking,602 E Cranston,Fowler,CO,81039,719-469-7761
00 Shot,723 Elk Run,New Castle,CO,81647,970-274-0078
Onesource Commercial Property Services,14677 E Easter Ave Ste A,Centennial,CO,80112,303-680-9599
Tti Hotshot,718 35 8/10 Roa,Palisade,CO,81526,970-623-3046
Roberison Roof Service,2536 Rimerock Ave Suite 400-330,Grand Junction,CO,81505,970-260-0444
Russ' Windmill & Pump Service,1799 Minter Lane,Castle Rock,CO,80109,866-857-7173
Pinpoint,41475 Wcr 45,Ault,CO,80620,303-710-0790
Ron Sporing's Trucking,425 E Strohm St,Haxtun,CO,80731,970-774-6134
7 C's Transportation,14 North Wilmont,Williamsburg,CO,81226,719-240-6059
Whisenand Trucking,605 W Cheyenne,Holly,CO,81047,719-537-0611
Bristol T Express,275 Christiansen Ave,Granby,CO,80446,970-887-2953
Just Trucking,207 W Lowell,Eads,CO,81036,719-438-2299
Braden Lane,50989 County Road R,Chivington,CO,81036,719-688-7770
Piceance Well Service,99 Mosher,Parachute,CO,81635,970-285-9912
M & K Trucking,9729 3000 Rd,Hotchkiss,CO,81419,970-872-4332
Sadler Trucking,1344 N Road,Loma,CO,81524,970-858-1302
C & S Transportation,9133 Hwy 141,Egnar,CO,81325,970-739-9827
Colorado Transport,1033 21 Road,Fruita,CO,81521,970-234-5236
D P Macgill Livestock Transport LLC,29664 Ruby Ranch Rd,Evergreen,CO,80439,303-525-4039
Cox Transportation,8530 W 64 Th Place,Arvada,CO,80004,303-463-1577
Timber Wolf Transportation LLC,15270 Hwy 94,Colorado Springs,CO,80930,719-683-2080
Summit Trucking,783 Valley Court,Grand Junction,CO,81505,970-255-1055
Arctic Truck Services,424 32 Road #38,Grand Junction,CO,81504,805-268-3696
Liz Rios Logistic,10401 Cr 5 South,Alamosa,CO,81101,719-587-1994
Big Discount Shuttle,14821 East Kansas Place,Auroro,CO,80012,720-234-0526
Straight Shot Hot Shot Services,30 Buckskin Circle,New Castle,CO,81647,970-984-3384
Road Boss Haulers,2010 Co Rd 250,Silt,CO,81652,970-876-2806
Wagon Wheel Moving,19237 E Cottonwood Drive #1015,Parker,CO,80138,720-234-3472
Beek Farms And Truck Service,10494 County Rd 49,Cheyenne Wells,CO,80810,719-545-6220
Randev Transportation,4898 S Killarney Ct,Aurora,CO,80015,303-766-2287
Ams Auto Sales,1882 E 104th Ave # 1331,Thornton,CO,80233,714-280-6622
Honesty's Trucking,4325 E 93rd Dr,Thornton,CO,80229,720-240-8643
Rodgers Trucking,14281 E 51st Ave,Denver,CO,80239,813-532-6115
Dck Transport,863 Carriage Drive,Milliken,CO,80543,970-587-5416
Oswald Trucking,19343 County Road G,Kit Carson,CO,80825,719-688-5096
P & R Trucking,219 S 8th St,Holly,CO,81047,719-537-0201
Time Couriers LLC,5805 W 6th Ave # 1-c,Lakewood,CO,80214,303-832-8463
Cia Trucking,5014 S Grove St,Englewood,CO,80110,303-669-7302
Outlaw Customs,9090 Brighton Road,Henderson,CO,80640,303-289-3318
"Big Daddys, Inc.",8968 County Road 300,Parachute,CO,81635,970-285-0188
Professional Drain Services,1731 N Erie,Pueblo,CO,81001,719-547-8005
Koon Trucking,1506 Garland Rd,Pueblo,CO,81006,719-544-4131
Ims Services,Po Box 8184,Pueblo,CO,81008,719-545-2714
Jfm Transports,3740 Downing St,Denver,CO,80205,773-800-4695
Esm Trucking,16555 Rcr 16,Oak Creek,CO,80467,970-819-8624
Dove Courier & Hot Shot Service,3197 Highview Road,Grand Junction,CO,81504,970-523-0233
D & C Trucking,1770 Somerset Lane,Pueblo,CO,81006,719-544-1249
Three Fingers Trucking,2712 Unaweep,Grand Junction,CO,81503,970-261-7017
Rosa Moran Hauling,6141 E 62nd Ave,Commerce City,CO,80022,720-490-6403
Sam Mccomb Trucking,2051 Oriole Rd,Pueblo,CO,81006,719-240-3869
Rollin' Rock Truckin',619 E Harrison Ave,Fruita,CO,81521,320-556-3646
Ej Express,1550 Larimer St 624,Denver,CO,80202,303-489-8667
Eagle Trucking & Oilfield Services LLC,150 Main #4,Fort Lupton,CO,80621,303-857-2600
Pickering Fire Services LLC,2846 40th Ave,Greeley,CO,80634,970-405-1753
Greenline Transportation,318 Bellows Ct,Canyon City,CO,81212,719-285-8530
Dolphin Trucking,2200 Apollo Street,Pueblo,CO,81008,719-543-4854
Ronnie Fowler Trucking,1406 Cr 514,Ignacio,CO,81137,970-884-8186
Hall's Garage Door Service,370 Vallejo St,Denver,CO,80223,303-898-5409
B & D's Maintenance & Oilfield Service,1392 Denver Avenue,Fort Lupton,CO,80621,303-472-7054
Tatco,6531 N Washington St Unit A,Denver,CO,80229,303-257-8537
Fish Bear Logistics,3 West 1st Street,Swink,CO,81077,719-650-8555
Cordova Trucking,25902 Cr 301,Buena Vista,CO,81211,719-221-0152
J-n-t Transports,14577 Hayesmount Rd,Brighton,CO,80603,303-637-0609
Rj Trucking,61 Haynes St,Maybell,CO,81640,970-272-3061
Tino Cornejo Enterprises,1183 Milky Way,Thornton,CO,80260,303-487-1354
A Esparza Trucking,2915 Orchard Avenue # B-11,Grand Junction,CO,81504,970-270-7457
D & S Hauling,417 Charles St,Debeque,CO,81630,970-285-0146
Boyer Trucking,15603 Hadfield Street,Sterling,CO,80751,970-522-7636
Marples Transport LLC,14450 Jj 2nd Street,Blanca,CO,81123,719-379-2836
Boward Hauls,127 Stallo St,Monte Vista,CO,81144,719-852-4927
Funke Construction Services,12650 Mc Cune Road,Elbert,CO,80106,800-810-8262
Rountree Trucking,36996 Bone Mesa Road,Paonia,CO,81428,970-527-2489
Blackhawk-central City Ace Express,14000 West 44th Ave,Golden,CO,80403,303-421-2780
4 Lyon Enterprises,4702 E 108th Place,Thornton,CO,80233,720-872-6668
Arrieta Hauling,1647 Havana Street,Aurora,CO,80010,303-739-0846
Burns Enterprise,1194 21 Road,Grand Junction,CO,81505,970-260-6948
M & M Trucking,5750 Chap View,Pueblo,CO,81008,719-232-3283
Rickway Transportation,341 Hickory Avenue,Eaton,CO,80615,970-454-2726
Copper Brothers Trucking LLC,569 E St,Penrose,CO,81240,719-372-6893
Dark Horse Transportation,1550 Cr 973,Ignacio,CO,81137,970-769-3629
Stanley Company Trucking,545 S Sherman St,Denver,CO,80209,303-722-4777
Wjl Transportation,2808 North Arcadia,Colorado Springs,CO,80907,719-634-2859
Flying J Express,9582 Townsville Cir,Highlands Ranch,CO,80130,303-489-8742
Global Transportation LLC,4915 York St,Denver,CO,80216,303-298-1585
Big City Express,516 Poplar Street,Sterling,CO,80751,970-522-3479
Two Bits Trucking,21334 H 75 Road,Delta,CO,81416,970-874-9984
Askelson Trucking,52820 East 16th Avenue,Strasburg,CO,80136,303-622-6405
Wyatt Transportaion LLC,2411 52nd Ave Ct,Greeley,CO,80634,970-339-4001
J B N Farm And Trucking,46995 Deer Trail Rd,Deer Trail,CO,80105,303-769-4755
L B Trucking,4737 So Oak Ct,Littleton,CO,80127,720-922-1442
L C Watts Trucking,2506 Northpark Central Blvd #103,Denver,CO,80238,720-285-6331
Genwell Trading & Services,1750 30th St #366,Boulder,CO,80301,303-550-3148
4c,19412 E Princeton Pl,Aurora,CO,80013,720-333-6552
True Blue Trucking,501 East Elder St,Walsenburg,CO,81089,719-989-1469
Sutton & Sons Trucking,10220 Brighton Boulevard,Henderson,CO,80640,720-988-4837
Brandt Trucking,13029 County Road 36 3,Ovid,CO,80744,970-463-5388
Tlgs Trucking,23900 Wcr 34 1 2,La Salle,CO,80645,970-539-0557
Gossard Trucking,6020 N County Rd 111,Mosca,CO,81146,719-378-2128
Three Way Horse Transportation,7655 Calhan Highway,Calhan,CO,80808,719-347-2531
Lightning Wireline,103 N Main Street,Platteville,CO,80651,970-785-2670
Gomez Trucking & Cdl Testing,56002 County Road G,Center,CO,81125,719-754-9244
Lujan Trucking,13155 W 62nd Pl,Arvada,CO,80004,303-994-0239
Kmd Express,670 Calle Entrada,Fountain,CO,80817,719-382-8461
Denver Pro Express,18355 East Tanforan Drive,Centennial,CO,80015,303-995-6513
Theron Pace Transportation,15470 Monaco St,Brighton,CO,80602,303-637-9050
Smith Trucking LLC,8419 Never Summer Cir,Ft Collins,CO,80528,970-231-7890
D Sanchez Trucking,10458 Billings Street,Commerce City,CO,80022,720-898-8221
Bt Trucking,322 Fairfax St,Colorado Springs,CO,80911,719-390-9702
Daniels Truckin,575 I Street,Penrose,CO,81240,719-372-6963
T & R Trucking,3610 Myrtle Street,Evans,CO,80620,970-506-0519
Kl Transport,9125 E Summit Rd,Parker,CO,80138,720-851-6286
Tjm Trucking,1480 W 134th Pl,Westminster,CO,80234,720-434-0340
Motitos Trucking,3479 Watada Dr,Brighton,CO,80601,720-685-8246
A & G Transportation,4659 Fontana Way,Denver,CO,80239,303-576-0369
"Frontier Environemntal Services, Inc.",5350 Vivian St Unit B,Arvada,CO,80002,303-234-9350
Colorado State 2000 Trucking,10431 Tucson Street,Commerce City,CO,80022,303-853-9479
Timlaur Trucking,18740 North County Rd 15,Wellington,CO,80549,970-568-0288
Wayne Cline Trucking,56091 County Road Xx,Yuma,CO,80759,303-451-5107
S & G Trucking,409 W Swink,Fowler,CO,81039,719-263-4873
Svservices,1221 Caprice Dr,Castle Rock,CO,80109,303-688-1007
Unicorn Transport,229 North County Road 17,Berthoud,CO,80513,970-532-4254
Son Do Trucking,890 Revere St.,Aurora,CO,80011,303-920-1075
Hauger's Hauling LLC,50506 County Road 13,Wellington,CO,80549,970-402-0669
Finley Trucking,18703 Mitchell Place,Denver,CO,80249,303-373-0829
Unicorn Trucking,18462 County Road 3,Wiggins,CO,80654,970-483-7438
Airmac Service Comapny,1158 S Jason St,Denver,CO,80223,303-777-2750
Donovan Trucking,20417 County Road 19,Haxtun,CO,80731,970-774-7049
Farrell Fast Freight,3702 6000 Rd,Olathe,CO,81425,970-323-6866
Jesus Hauling,4522 Logan St,Denver,CO,80216,720-937-1670
Fowler Trucking,34488 Cr 2,Fowler,CO,81039,719-263-5555
Calvin Secrist Transportation,1156 N Colorado Ave,Brush,CO,80723,970-768-9333
E&r Auto Transport,2866 Rhyolite Drive,Hartsel,CO,80449,303-619-1640
Sifuentes Trucking,807 Timothy Dr,Longmont,CO,80503,303-772-3111
"Cast Services, Inc.",22107 State Hwy 12,Trinidad,CO,81082,719-846-9683
Belle Trucking,4885 Eldon Drive South,Colorado Springs,CO,80916,719-200-6659
Ramirez Trucking,26261 Cr 61,Iliff,CO,80736,970-526-3068
Frog Trucking,750 Golden St,Calhan,CO,80808,719-347-2049
Dj Vaughn Trucking,1554 S Zang Court,Lakewood,CO,80228,303-809-3618
Harrison Trucking,1654 E 131st Ct,Thornton,CO,80241,303-280-8547
Paradise Trucking,32345 Big Springs Rd,Yonder,CO,80864,719-478-2089
B & R Trucking,20683 County Road 37,Sterling,CO,80751,970-522-5832
Sdg Trucking,6728 S Wolff Ct,Littleton,CO,80128,303-901-8386
Bar Em Welding And Hotshots,1847 County Road 46,Rangely,CO,81648,970-629-2555
Long Haul,88 Inverness Circle East E106,Englewood,CO,80112,720-529-9090
Trans Ola Transit,8001 E 11th Ave #4203,Denver,CO,80220,303-521-4198
Kitzmann Trucking Co LLC,8170 Jasmine St,Dupont,CO,80024,303-263-2198
Ojeda's Trucking,801 Smith St,Blanca,CO,81123,719-588-8719
A Golden Hand Moving,9437 E Colorado Ave,Denver,CO,80247,303-745-4000
H2express,195 S 38 St,Boulder,CO,80305,303-554-8389
Darby Trucking,25887 Wcr 20,Keenesburg,CO,80643,303-536-4292
Bs Trucking- 2 Dogs Trucking,1906 Caroline Avenue,Wattenburg,CO,80621,303-659-1421
Tl Rodwell Trucking,35200 County Road Dd 75,Wray,CO,80758,970-554-1204
"Liberty Railway Services, Inc.",598 North States Ave,Pueblo,CO,81007,719-544-6867
Higgs Transport,639 W Main St,Grand Junction,CO,81501,970-241-3075
Shepard Enterprises LLC,2885 Florida St,Grand Junction,CO,81504,970-270-5807
Mach Trucking LLC,75 Dickson Street,Keenesburg,CO,80643,303-732-4007
Freight Express,10004 West 30th Avenue,Wheat Ridge,CO,80215,720-581-3764
"Dj's Pick Up And Delivery, Inc.",6391 Chippewa Road,Colorado Springs,CO,80915,719-201-7680
Randall Trucking,9202 Adams St,Thornton,CO,80229,303-412-9012
Collazo Trucking,21336 E 55th Place,Denver,CO,80249,303-960-6142
Dependable Auto Transport,4305 E 119 Th Way,Thornton,CO,80233,303-255-8376
Tlc Transport,5050 Blackhawk Wy,Denver,CO,80239,303-817-8096
A Z Trucking,1334 Mallard Lane,Brighton,CO,80601,720-318-6426
Cow Poke Trucking,608 Twin Mtn Dr,Del Norte,CO,81132,719-298-0092
Denver Colorado Express Airport Shuttle,3398 S Elkhart St,Aurora,CO,80014,720-350-8050
Grand Valley Vts,2149 I 70 Frontage Rd,Debeque,CO,81630,970-778-0866
Martin Distributing,400 East 7th,Trinidad,CO,81082,719-859-0991
M & K Trucking,9729 3000 Rd,Hotchkiss,CO,81419,970-872-4332
I & M Mobile Home Transport,4480 Rock Creek Road,Pueblo,CO,81005,719-248-5277
Wa Trucking,7906 Road Bb,Las Animas,CO,81054,719-456-1042
"Flt, Inc.",14190 Gleneagle Dr,Colorado Springs,CO,80921,719-359-8680
Rm Express,706 Narcisso Ave,Fort Garland,CO,81133,719-480-2616
Stevenson Lazy S Hotshot Service,16751 County Rd #25,Dolores,CO,81323,970-946-3519
Silver Fox Transprotation LLC,502 East Florence Ave,Fowler,CO,81039,719-251-4194
Weinheimer Trucking,1647 Reservoir Road,Canon City,CO,81212,719-275-8981
Country Moving & Storage,1840 W Oxford Ave,Englewood,CO,80110,303-697-7331
Felix Trucking,8313 Navajo St,Denver,CO,80221,303-429-2450
Sidney Kay Trucking,4092 Sunrise Lane,Brighton,CO,80603,303-857-2851
Chopper Trucking,1667 S Dover Ct,Lakewood,CO,80232,303-917-3964
Loman Trucking,42209 Cr D 5,Del Norte,CO,81132,719-543-3441
Jsc Transportation & Management,1749 S Lee Unit A,Lakewood,CO,80232,720-281-2334
Bachman Services,1076 Sooner Court,Fruita,CO,81521,970-858-9002
Complete Mobile Mixer Service,816 40 St,Evans,CO,80620,970-381-3830
Electrical Apparatus Service Company,3183 Mesa Ave,Grand Junction,CO,81506,970-858-5159
Mark Mcguire Trucking,205 Hwy 160,Kim,CO,81049,719-643-5472
Robby L Hall - Rlh Trucking,11051 Otis Street,Westminster,CO,80020,303-501-7065
Rt Express,8205 Hwy 165,Rye,CO,81069,719-489-2086
A & V Trucking Co,4273 Woodglen Blvd,Thornton,CO,80233,303-280-9440
Altitude Express Airport Shuttle,1699 South Trenton Street Unit 64,Denver,CO,80231,720-747-0640
Espino Trucking,707 Valdai Ave,Lochbuie,CO,80603,303-637-7189
"Hacienda Trucking, Inc.",1765 E Dry Creek Place,Centennial,CO,80122,720-298-8981
Working World Cars And Trucks,3001 N Main,Durango,CO,81301,970-385-4822
Allen Trucking,14793 Hwy 24,Woodland Park,CO,80866,719-686-7698
Durango Electric And Nice Electric,877 E 3rd St,Durango,CO,81301,970-247-9144
Tex Transport,2937 W 17th St,Greeley,CO,80634,970-356-4129
Dingo Auto Transport LLC,11396 E 7th Ave,Aurora,CO,80010,303-503-9176
Ron Hall Trucking,39767 Wcr 136,Herford,CO,80732,970-895-2232
B & T Trucking,2321 Reeder Mesa Road,Whitewater,CO,81527,970-261-2636
Altitude Transportation,607 Elliott St,Longmont,CO,80501,303-678-0537
Colorado Mechanical Cmi Mechanical,11001 East 51st Ave,Denver,CO,80239,303-364-3443
F-5 Express,10182 Detroit Ct,Thornton,CO,80229,303-853-0002
Epps Construction LLC,1219 Sage Ct,Rifle,CO,81650,970-625-9569
Avatar Trucking LLC,105 8th Ave,Greeley,CO,80631,970-301-4501
Pine Bluffs Transportation,2702 W Water Ave,Denver,CO,80219,720-883-7745
Riegle Transport,9715 Brighton Rd,Henderson,CO,80640,509-879-0709
Long Gone Trucking,22910 Murphy Rd,Calahan,CO,80808,719-244-0219
Valentine Enterprises,2986 S Elm Street,Denver,CO,80222,303-929-2670
Travis Cox Trucking,523 4th St,Burlington,CO,80807,719-342-1037
"Moving Connection, Inc.",405 South Jasmine St,Denver,CO,80224,303-482-1416
Yardawg Motor Freight,2993 E 101st Ave,Thornton,CO,80229,303-457-1045
S & M Trucking,4501 Grand Canyon Dr,Greeley,CO,80634,970-371-7968
Queen Farms,28774 County Road 51 1/2,Burlington,CO,80807,719-343-5107
Ropin The Wind Ranch And Trucking,3778 Blair Rd,Whitewater,CO,81527,970-640-6724
"Nak Trucking, Inc.",3874 Mariposa,Colorado Springs,CO,80907,719-598-7276
17 Mile Ranch,0601 Cr 19,Ft Morgan,CO,80701,970-768-4430
Armstong Moving & Storage,1460 Newport Road,Colorado Springs,CO,80916,719-475-2800
Armstrong Moving & Storage,2025 Sharp Point Drive,Ft Collins,CO,80525,970-484-0700
Mcmillen Trucking Company,3400 15th Ave,Evans,CO,80620,970-330-8769
B And D Hotshot Service,930 Tracy St ,Delta,CO,81416,970-858-7835
Carl's Trucking,3237 Scranton St,Aurora,CO,80011,303-366-0408
Designcrete Services LLC,8205 Hoyt Ct,Arvada,CO,80005,303-942-0047
C&l Trucking,1503 Eagles Nest Rd,Livermore,CO,80536,970-482-8917
Gardner Trucking,28555 County Road 26/5,Wray,CO,80758,970-332-5126
Big House Trucking,23785 E Alabama Drive,Aurora,CO,80018,720-338-5108
Jzr Trucking,1509 Lawrence Ave,Trinidad,CO,81082,719-845-1206
Box Truck Delivery,9422 W Kentucky Pl,Lakewood,CO,80226,303-988-7987
Neufs Transfer,104 38th Ave,Greeley,CO,80634,970-356-5883
Wild Flower Express,2020 Alliance Drive,Georgetown,CO,80444,303-569-0730
Speedvision Production,44 Cook St #611,Denver,CO,80206,303-377-3278
Heavenly Transport,15100 Cr 71 1,Trinidad,CO,81082,719-846-2019
Connett Express,8 West Broadmoor Dr ,Littleton,CO,80120,303-347-8891
Rocking V Trucking,9421 Hwy 34 #38,Grand Lake,CO,80447,970-627-0601
Rau Trucking,533 Woods Ave,Ault,CO,80610,970-834-2107
Walgreens,20549 E Saratoga Pl,Aurora,CO,80015,303-963-5424
Dmdrn Mail Hauling,1330 E Street #2,Salida,CO,81201,719-539-5343
Gale Trucking,962 18 Rd,Fruita,CO,81521,N/A
T & D Ayars Trucking,380 E 1st Ave,Bethune,CO,80805,719-346-8343
Patton Auto Transport,4548 S Parfet Ct,Littleton,CO,80127,303-933-9843
Eaglehorn Trucking,2327 Carmel Dr,Colorado Springs,CO,80910,719-635-6298
T & S Trucking,34280 Wcr 55,Gill,CO,80624,970-834-9669
"Neiman Trucking, Inc.",7572 Newland Sr,Arvada,CO,80003,N/A
D And K Trucking,871 Marylin Road,Penrose,CO,81240,719-275-8540
Dlee Trucking,138 N Ohio,Eckley,CO,80727,970-359-2256
Ivy Transport,6734 Yarrow St #313,Arvada,CO,80004,303-940-1453
Shults And Sons Trucking,36539 Cr 74,Briggsdale,CO,80611,970-656-3605
Sixmile Trucking,1328 S Lacross,Pueblo,CO,81001,719-583-0781
Richard Dill-rts Trucking,1610 San Juan Circle,Evans,CO,80620,970-339-8519
Sean Rhodes Trucking,2238 Braun Ct,Lakewood,CO,80401,N/A
Joseph Trucking,19089 Cr 50 1/2,La Salle,CO,80645,970-284-0912
Perry King Trucking Company,1 W Agate,Granby,CO,80446,970-887-0270
Extreme Transportation,8100 Dahila #5c,Henderson,CO,80640,303-487-1687
Gold Dust Trucking,2706 Frederick Dr,Loveland,CO,80537,N/A
Dragon Hauler Express,634 S 5th St,Pagosa Springs,CO,81147,970-264-5676
William Mcclanahan Trucking,460 1/2 Spruce St,Del Norte,CO,81132,719-652-0522
E & F Trucking,980 Florida,Canon City,CO,81212,N/A
Lujan Transport,2299 W Tennesee Ave,Denver,CO,80223,303-936-5014
Strong 's Trucking,29777 Wcr 57,Greeley,CO,80631,970-351-6727
D H Trucking,48872 Cr 98,Limon,CO,80828,719-775-0521
Lopez Trucking,703 Park Ave,Fort Lupton,CO,80621,N/A
Standish Trucking,59-155 Highway #50,Olathe,CO,81425,970-323-5365
J D C Trucking,360 Puma Ln,Milliken Co,CO,80543,970-587-4513
Cheetah Transport,310 Dix Circle,Colorado Springs,CO,80911,719-391-4617
Yahsway Trucking,966 Victor St,Aurora,CO,80011,303-326-0719
Geodee Trucking,139 Beethoven Drive,Black Hawk,CO,80422,303-905-6035
Travis Grippin Trucking,17000 Beaver Creek Dr,Brush,CO,80723,N/A
Rod Judson Trucking,23914 Cr 48,La Salle,CO,80645,970-284-5922
D L & L Trucking,39820 Cr 33,Steamboat Springs,CO,80477,970-879-8652
Klag Trucking,205 S Alice Ave,Milliken,CO,80534,970-587-2377
Cvc Trucking,20255 Wigwam Rd,Pueblo,CO,81008,719-499-9912
Merrick Trucking,12131b Bannock St,Westminster,CO,80234,303-452-4144
Southern Colorado Truck Service,26665 Hwy 96,Wetmore,CO,81253,719-332-3958
Don Huls Trucking,54 Mountain Shadow Ln,Castle Rock,CO,80104,303-663-7951
Doan Trucking,121 Cr 37,Lochbuie,CO,80601,303-659-8157
Gorbach Trucking,8870 W Jewell Ave #7,Lakewood,CO,80232,303-985-4521
Sun-chey Trucking,7435 Hwy 50,Lamar,CO,81052,719-336-8389
All Pro Moving,121 N 22nd Ct # B,Grand Junction,CO,81501,970-257-1652
So-n-so Trucking,15557 Hwy 385,Julesburg,CO,80737,970-474-4271
Tad's Trucking,452 East Maher Dr,Pueblo West,CO,81007,719-547-8160
Preciado Trucking,300 N 50th Ave,Greeley,CO,80634,970-352-1989
Bobby Darnell & Son Transportation,76000 E 168th Avenue,Wiggins,CO,80654,888-297-9119
Golden Star Trucking,2245 W Expostion Ave,Denver,CO,80223,720-373-2828
Cunningham Trucking,5383 E Best Road,Larkspur,CO,80118,303-434-7391
Swift Trucking,1590 11th Street,Penrose,CO,81240,719-372-3002
Dj Trucking,251 O Street,Greeley,CO,80631,970-352-5126
Eva Trucking,4778 Cr 331,Silt,CO,81652,970-876-0913
Trucking His Way,1141 E St,Salida,CO,81201,719-539-2767
Bobby Darnell And Son Transportation,76000 E 168th Avenue,Wiggins,CO,80654,970-833-5697
Rocking T Trucking,8771 Jackson Creek Rd,Sedalia,CO,80135,720-635-4013
Cleartalk,930 Quince Avenue,Boulder,CO,80304,310-798-7110
Lunas Trucking,34130 Hwy 94,Yoder,CO,80864,303-833-3682
Yellow Rose Trucking,14206 Cr H,Ordway,CO,81063,719-267-4781
Rethke Trucking,4088 Cr 8,Berthoud,CO,80513,303-775-0097
Jab Underground,969 D-bar-k,Durango,CO,81301,970-749-2673
Hoffmeyer Trucking,1101 S 19th Street,Rocky Ford,CO,81067,719-254-4237
Leaver Trucking,1330 1st St,Vona,CO,80861,719-339-1726
K & M Express,86 S Cr 1e,Monte Vista,CO,81144,719-852-0190
Epperly Trucking,17961 Cr 40,Bethune,CO,80805,719-346-7561
Tbs Trucking,209 Moonshadow Ln,Ignacio,CO,81137,505-334-0013
Lonewolf Ltd,130 S W 2nd St,Cedaredge,CO,81413,970-856-9414
Krsk Trucking LLC,4501 Wynkoop St,Denver,CO,80216,303-781-1172
F R Smithey Transportation,4625 W 2nd St,Greeley,CO,80634,970-346-7737
M D Trucking,10350 Cr 10,Fort Lupton,CO,80621,303-591-0532
L & A Ayers Trucking,5289 Pagosa Way ,Centennial,CO,80015,303-359-6563
Vanegmond Services,546 Doe Valley Rd,Guffey,CO,80820,719-689-0877
K & M Trucking,716 Craft Dr,Alamosa,CO,81101,719-589-4338
Wesodi,13589 Cr 213,Durango,CO,81303,970-375-2466
Mclavey,32902 Wcr 49,Greeley,CO,80631,970-346-9208
Martin's Transportation,3324 W Chenango Ave,Englewood,CO,80110,303-794-6460
Osborne Transportation,5352 E Brittany Pl,Centennial,CO,80121,303-358-4398
Ken Norel Trucking,6687 2200 Road,Delta,CO,81416,970-874-0677
Saints Transport Service,1516 E 8th St,Loveland,CO,80537,970-587-2300
"J-mack Transportation, Inc.",9458 W Hamilton Drive,Lakewood,CO,80227,303-638-6439
B&j Trucking,18591 Cr 37,Sterling,CO,80751,970-522-4254
Kel Thiessen Livestock,11938 County Rd 370,Sterling,CO,80751,701-340-2219
Triple H Trucking,595 High Pasture Rd,Florissant,CO,80816,719-748-8037
Lujan Trucking,4545 Cathay Ct,Denver,CO,80249,720-374-0709
Ortenblad Seed Service,30283 Eagles Rdg,Buena Vista,CO,81211,320-967-4311
Zamora's Garage,34721 Cr 42 4,Trinidad,CO,81082,719-846-3021
T D And Sons Trucking,29801 Lyn Rd,Aguilar,CO,81020,719-941-4275
Cross Trucking,15615 Gadsdin Dr,Brighton,CO,80603,303-637-7240
Monarrez Trucking,6970 Leyden St,Commerce City,CO,80022,303-288-4189
Ball And Sons Trucking,61719 Lynnellen Way,Montrose,CO,81403,405-283-0698
Environmental Carriers,405 Willow Ridge,Grand Junction,CO,81503,352-680-0111
Hill,24857 1 St Street,Galeton,CO,80622,970-454-2078
Weis Trucking,150 7th St,Burlington,CO,80807,303-726-7556
Whitfield Hay & Grain,5824 Wcr 87,Roggen,CO,80652,303-732-9500
W D S Trucking,23539 Cr 72,Eaton,CO,80615,970-454-2869
Divide Transport,11102 Hwy 24,Divide,CO,80814,719-622-9307
J And S Trucking,105 Gordon St,Wiley,CO,81092,719-691-0924
"Express Charters, Inc.",521 North Link Lane,Fort Collins,CO,80524,970-482-0629
Moon Enterprises LLC,6860 W Floyd Avenue,Lakewood,CO,80227,303-434-6104
Bennett Trucking,8084 Cr Mm 3,Lamar,CO,81052,719-336-2848
Hubbs Trucking,1232 Sherwood Lane,Colorado Springs,CO,80906,580-332-3320
R S W D Trucking,1109 Arch St,Colorado Springs,CO,80904,719-632-8218
Morrison Trucking,12019 County Road 38,Platteville,CO,80651,970-532-4975
Dno Trucking,1522 Alton St,Aurora,CO,80010,303-367-5761
Front Range Transport,14439 Mead Ct,Longmont,CO,80504,970-535-4177
Nelson Trucking,23865 Cr 132,Yampa,CO,80483,970-638-4451
Keas Trucking Co,571 Greenfield Cir W,Grand Junction,CO,81504,970-256-7335
B & B Better Service,1249 S Quail St,Lakewood,CO,80232,303-988-4183
Bob Amerin Hauling,14730 N Colorado Blvd,Brighton,CO,80601,303-452-4684
Continental Transportation,6825 E Tennessee Avenue Suite 102,Denver,CO,80224,N/A
Goose Transport,3400 Coyote Lane,Evans,CO,80620,612-282-2000
C-e Hauling,658 Euclid,Carbondale,CO,81623,970-963-2181
Colorado Trans Airport Shuttle,19036 E Grand Circle,Aurora,CO,80015,303-564-6728
Katco Trucking,22 S Acacia,Pueblo West,CO,81007,719-647-2457
Russell Trucking,15991 Cr 25,Platteville,CO,80651,970-539-2086
Heath Schlieker Trans,7128 County Road 19,Fort Lupton,CO,80621,720-480-7595
5 Bar J Transport,30193 Cr 65,Iliff,CO,80736,970-522-9657
"D T Trucking, Inc.",0565 N Meadow Dr,Rifle,CO,81650,970-618-3821
Cozzens Trucking,15785 Cr 84,Ault,CO,80610,970-381-2701
George Heronema Trucking,33008 Cr 26 5,Wray,CO,80758,970-332-5026
Flat Out Trucking,5 Austin Rd,Lamar,CO,81052,719-336-3467
R&j Transportation,2004 S Corona Ave,Colorado Springs,CO,80906,719-630-7873
Mike Seeger Trucking,14430 Hayesmount Road,Brighton,CO,80603,303-726-6941
Superior Transportation Company,625 West Platte Avenue Suite 2,Fort Morgan,CO,80701,970-867-0689
C & J Trucking,21198 Cr V6,Lewis,CO,81327,970-565-4231
Ihnen Trucking,321 S Broadway Space 42,Cortez,CO,81321,970-564-0734
B&t Trucking,108 S Main,Eads,CO,81036,719-438-2068
Trinity Express,18200 W 3rd Ave,Golden,CO,80401,303-587-5295
Slix Express,14891 Pensacola,Denver,CO,80218,303-375-1852
J E T S Trucking Co,3815 S Uravan St,Aurora,CO,80013,303-766-5963
Mendoza Trucking,8764 W Floyd Ave,Lakewood,CO,80227,303-716-2903
Hauschildt Trucking Ii,18422 Cr 105,Ramah,CO,80832,719-541-2080
Fantasy Farm Transpo,11089 E Stallion Drive,Parker,CO,80138,303-841-2077
Myers Trucking,281 W 4th,Springfield,CO,81073,719-523-4738
Gordon Transport,1740 Monroe St,Strasburg,CO,80136,970-378-7323
Whg Trucking,10558 Stonewillow Dr,Parker,CO,80134,303-840-4509
Flying S-r Transportation,112 Cr 37,Lochbuie,CO,80601,303-824-3857
Billy Moore Trucking,1342 S East Ellicott Rd,Calhan,CO,80808,719-578-5566
J Julius Trucking,5499 Cr Hh,Lamar,CO,81052,719-336-7140
M & D Trucking,2900 Sherman Ave,Monte Vista,CO,81144,719-657-3323
A L Transport Services,463 Leonard Lane,Northglenn,CO,80233,303-280-6890
Angels Transportation,12098 E Kansas Dr # A,Aurora,CO,80012,720-939-5592
Vio Trucking,7970 Chase Circle #87,Arvada,CO,80003,720-226-4148
Carlson Trucking,18281 Cr 24,Brush,CO,80723,970-842-4250
Woodard Trucking,611 Arapahoe Ave,Simla,CO,80835,719-541-3433
Promise Land Express,564 And One Half Eastmoor Drive,Grand Junction,CO,81504,970-434-4075
Clark's Auto & Truck Sales Lllp,100 I-7o Frontage Road,Bennett,CO,80102,303-644-4220
Tedesco Trucking,9650 Yoder Rd,Calhan,CO,80808,719-347-2670
Mathias Trucking,601 S Bryant St,Denver,CO,80219,303-922-6194
M Molina & Son Trucking,503 Jackson Street,Monte Vista,CO,81144,719-850-1570
G-l Trucking,336 Jones Ave,Pierce,CO,80650,970-834-2097
One Stop Auto Hauling,5601 W 18th Street #42,Greeley,CO,80634,970-330-7373
Dpx,3888 E 45th Ave Dock 37,Denver,CO,80216,303-399-7351
Dt Trucking,208 Alamosa,Alamosa,CO,81101,719-580-3158
Williams Trucking,8421 Uinta St,Henderson,CO,80640,303-366-5476
"Sanders Trucking, Inc.",100 Oil Court,Rifle,CO,81650,970-625-4440
Exotic Transport,13935 E Idaho Pl,Aurora,CO,80012,720-748-3939
Western Colorado Truck Center,711 Raptor Rd,Fruita,CO,81521,970-858-5400
Hellbusch Hauling And Transport,907 Paloverde Dr,Loveland,CO,80538,970-663-3230
Mary L Deschamps Est,23678 Cr 37 1/2,Wray,CO,80758,970-356-5883
Robert Heck Trucking,412 Chadwick Way,Lamar,CO,81052,719-940-6685
W & M Hauling,2752 B Road,Grand Junction,CO,81503,970-257-7989
Swilley Trucking,5961 S Tibet St,Aurora,CO,80015,303-617-7433
Winkler Trucking,21370 H 75 Rd,Delta,CO,81416,970-874-3371
Thumpr's Truck'n,13008 Cr 17,Fort Morgan,CO,80701,970-542-9751
Cj Kerbs Trucking,906 S Cedar,Yuma,CO,80759,970-848-3330
Banegas Mobile Home Transport,622 1/2 Main St,Longmont,CO,80501,303-702-1143
Sellers Trucking,105 Jack St,Manassa,CO,81141,719-843-9778
Rocking W Transport,11432 Big Bend,Longmont,CO,80504,303-702-9426
Garrett Trucking,38000 Hwy 350,Model,CO,81059,719-845-8840
Foothills Trucking,1706 17th St,Penrose,CO,81240,719-372-9645
Goens Trucking Co,4575 Argonne St K205,Denver,CO,80249,720-272-1377
Guardiola Trucking,16526 Cr 53,La Salle,CO,80645,970-284-7977
G B Trucking,6970 Osage St #d,Denver,CO,80221,303-426-9132
T And D Transportation,18865 Sage Crest Road,Peyton,CO,80831,719-683-2958
Two Bucks Trucking,68764 Racine Rd,Montrose,CO,81401,970-240-6026
Two Men And A Truck,520 Violet St,Golden,CO,80401,303-344-9911
White Tiger Equipment & Transportation,7170 S Platte Canyon Rd,Littleton,CO,80128,720-922-9496
Cooper Trucking,48060 Cr N,Burlington,CO,80807,719-346-7228
Lone Wolf Trucking,512 Rodeo Rd,Rangely,CO,81648,970-675-8454
4 Daughters Transport,10558 Stone Willow Dr,Parker,CO,80134,303-810-2939
C Gurule Trucking,3072 Bookcliff Ave,Grand Junction,CO,81504,970-434-9728
Sa Trucking,103 N Josephine,Milliken,CO,80543,970-978-7269
Topout Trucking,10304 Bexley Close #303,Thornton,CO,80229,303-252-8064
Katz Meow Transportation,3060 E Bridge St #8,Brighton,CO,80601,720-685-0291
Kavanaugh Trucking Co,3220 Lally Rook,Colorado Springs,CO,80906,719-527-0602
J Ronquillo Trucking,7558 Brown Bear Ct,Littleton,CO,80125,720-231-6760
G & C Trucking,10520 Pennsylvania St,Northglenn,CO,80233,303-252-7786
Roman Hauling And Trucking,317 N 1st,Johnstown,CO,80534,303-373-4807
R S W Trucking,43445 Saddlehorn Dr,Elizabeth,CO,80107,303-371-3934
H & M Trucking,549 W Maplewood,Walsh,CO,81090,719-324-5463
L And F Trucking,218 E Union Ave,La Salle,CO,80645,970-283-6768
Integrated Striping Systems,408 Violet St,Golden,CO,80401,303-277-9249
Carbon County Truck Sales,20158 Cr 50,La Salle,CO,80645,970-284-5249
Aspen Trucking,118 Aspen Drive,Frederick,CO,80530,303-833-2484
J Gee Trucking,33550 E Hwy 96 #371,Pueblo,CO,81001,719-948-3318
C And N Sanchez Trucking,1510 Osceola St,Denver,CO,80204,720-338-7821
Rawhide Services,11 Main Street,Flagler,CO,80815,903-714-1214
Mlm Trucking LLC,7512 County Road 37,Yuma,CO,80759,970-848-0401
Leo Trucking,102 Cr 31,Craig,CO,81626,720-837-4222
Landon Trucking Ii,17851 Sunset Lane,Brighton,CO,80603,303-746-0300
Starlight Trucking,7095 Pfost Drive,Peyton,CO,80831,719-683-8575
Hispanic American Trucking Company,2658 S Flower Ct,Lakewood,CO,80227,303-517-0185
We N Love,920 S Edinburgh Dr,Loveland,CO,80537,970-667-4255
Prince Trucking,33040 Railroad Ave,Lucerne,CO,80646,970-356-8660
Paul Howard Trucking,19637 Hill Drive,Morrison,CO,80465,303-250-0585
J S C Trucking,30835 Hwy 50,Holly,CO,81047,719-537-0436
Janet's Trucking,14620 Timberedge Lane,Colorado Springs,CO,80921,719-481-2734
Garcia Express,1211 Macdougal,Dacono,CO,80514,303-833-3197
J & J Transportaion,3556 S Clarkson,Englewood,CO,80110,303-241-5890
Smits Trucking,8491 Garfield Way,Thornton,CO,80229,303-588-0059
Lopez Trucking,5555 Cnty Rd 106,Alamosa,CO,81101,719-589-2997
S Bar S Transport,47904 E Dartmouth Ave,Bennett,CO,80102,720-273-5515
Coras Trucking Company,18131 E Linvale Dr,Aurora,CO,80013,720-339-5301
Sweney Trucking,324 Boulder Ln,Johnstown,CO,80534,970-842-3299
Conan Transportation,1065 Shoshone,Canon City,CO,81212,719-491-9878
Gold Rush Ranch Performance Horse Transportation,110 Polo Crossing,Durango,CO,81301,970-247-3337
M C Oil Transportation,27079 5th Ave,Gill,CO,80624,970-336-1552
The Move Center,501 S Francis St,Longmont,CO,80501,303-776-3166
Boulder Trucking,2920 Incalls St,Wheat Ridge,CO,80214,303-478-1275
Roy Trucking,7290 Ivanhoe St,Commerce City,CO,80022,N/A
R Thomas Trucking,4670 S Deframe St,Morrison,CO,80465,303-697-8282
Twilight Express,27115 Cr 13,Elizabeth,CO,80107,970-819-1063
R K Trucking,6070 W 76th Ave,Arvada,CO,80003,303-669-2811
Howe Hauling,36006 Back River Rd,Hotchkiss,CO,81419,970-872-2264
A T Trucking,501 32nd St,Evans,CO,80620,970-330-0467
Bret W Werle Trucking,13310 Cottontail Dr,Peyton,CO,80831,719-683-8376
David's Transportation,2871 W 175th Ave,Erie,CO,80516,720-313-5081
Adame Brothers Trucking,146 E 4th,Las Animas,CO,81054,719-671-4844
Jaguarr Transport,218 Irving St,Denver,CO,80219,303-618-7194
"Gsr Trucking, Inc.",2040 Hooker St Unit H,Denver,CO,80211,303-433-1999
Rusty Horse Trucking,45978 Cr J,Yuma,CO,80759,970-848-8249
Jpm Trucking Company,5751 S Perth Place,Aurora,CO,80551,303-204-1903
Yenissey Trucking,10414 W 44th Ave #2a,Wheat Ridge,CO,80033,303-188-4172
Arnold Trucking,310 S 31st St,Colorado Springs,CO,80904,719-338-5778
Esau Trucking,6380 Oak St #203,Arvada,CO,80004,N/A
J & J Trucking,4895 Tejon St,Denver,CO,80221,303-477-4951
Jerry Roth Trucking,6686 Hwy 392,Windsor,CO,80550,970-686-9781
Double Time Trucking,4127 Mesquite Lane,Evans,CO,80631,970-330-2448
Jvr Custom Hauling,16350 Hwy 165,Colorado Springs,CO,80926,719-661-5311
Thunder Mountain Trucking,879 Biherbrush Lane,Fort Collins,CO,80526,970-282-7296
Rd Trucking,2301 West Platte Ave,Colorado Springs,CO,80904,719-339-5668
Jc's Big Dog Trucking,37523 W Hwy 50,Gunnison,CO,81230,970-641-2826
Big Bird Express,735 Ambassador Thompson Blvd,Las Animas,CO,81054,719-456-2556
Don Hersh Trucking,3466 E Cr 206 Unit B6,Loveland,CO,80537,970-227-3487
"Dcl Trucking, Inc.",1462 S Laredo Way,Aurora,CO,80017,720-747-1360
Howland Trucking LLC,29939 County Rd Gg,Holly,CO,81047,719-537-9000
Paul & Rose Trucking,675 6th St,Bennett,CO,80102,303-644-3862
Atwood Truck Line,9151 Welby Rd,Thornton,CO,80229,303-287-2882
B & L Trucking,23363 Cr N,Cortez,CO,81321,970-565-3421
Pl & K Trucking,2389 Jasmine Street,Denver,CO,80207,720-339-4619
Blue Mountain Trucking,2998 W Fontanero,Colorado Springs,CO,80904,719-632-7173
Glaspy Trucking,3558 Rock Hampton Ct,Colorado Springs,CO,80920,719-532-0254
C & R High Country Trucking,3335 S Birch St,Denver,CO,80222,303-936-9916
Valley Crane & Equipment,1795 Launa Drive,Montrose,CO,81401,970-240-8442
"Experimental And Applied Siences, Inc.",555 Corporate Circle,Golden,CO,80401,720-497-4227
Eagle Transport,525 W 39th St,Loveland,CO,80538,970-669-0775
Robert L Cline Trucking,1445 21 Rd,Grand Junction,CO,81505,970-858-3556
Rising Wolf Transport LLC,10051 Dallas,Henderson,CO,80640,303-307-9375
"Hartland Trucking, Inc.",10361 Newcombe St,Broomfield,CO,80021,720-566-0699
Road King Trucking,5250 E 105th Place,Northglenn,CO,80233,N/A
"Reynolds Trucking, Inc.",30495 Cr 383,Buena Vista,CO,81211,303-378-2803
Werewolf Express,100 Jackieann St,Ault,CO,80610,970-371-7154
Jolly Trucking,1310 11th St,Greeley,CO,80631,970-356-5757
Rhoads Trucking,1712 Blake St,Pueblo,CO,81003,719-595-9925
Spk Trucking,3109 E Mulberry #7,Fort Collins,CO,80524,970-204-0953
Diamond & Associates Trucking,3871 W Saratoga Ave,Littleton,CO,80022,303-797-9503
Twin Transsportation LLC,600 17th Street Suite 950s,Denver,CO,80202,303-260-6423
K & A Trucking,916 N Cameron,Brush,CO,80723,970-867-4962
H & B Trucking,20533 Blue Springs View,Peyton,CO,80831,719-495-0864
S & B Transportation,7428 Fortman Ave,Fountain,CO,80817,719-499-9611
Ward Enterprises,2113 Zion Road,Grand Junction,CO,81507,970-243-9064
Forster Trucking,38422 Saddle Mtn Ln,Crawford,CO,81415,970-250-3301
Frunkenstein Transport,336 Poe Pl,Colorado Springs,CO,80910,719-339-0739
Markenstar Hauling,9615 W 25th Pl,Lakewood,CO,80215,303-232-6604
American Transport,7954 E Hwy 402,Loveland,CO,80537,970-613-0609
Cr Trucking,665 24 Road,Grand Junction,CO,81505,970-241-6106
Puhicah Transport,7106 County Rd 24 3,Cortez,CO,81321,970-565-3331
George Wood Trucking,2819 Hwy 50,Grand Junction,CO,81503,970-254-9042
Colorado Aggregate Supply Hauler,11453 Canterberry Lane,Parker,CO,80138,303-880-4415
Bever Trucking,14360 Cr 50,Alamosa,CO,81101,719-589-9592
Richmond Trucking,7273 E 96 Ave Unit A,Henderson,CO,80640,303-287-9736
Manzanares Trucking,10913 W Bellwood Place,Littleton,CO,80127,720-495-5255
Norther Co Truck Driving Academy,7200 E Hwy 14,Fort Collins,CO,80524,970-690-4486
Cam Cummings Trucking LLC,45833 Cr 89 7,Trinidad,CO,81082,719-846-8526
M A S Freight,200 Abeyta Street,Frederick,CO,80530,303-833-0437
Silver Streak Auto Transport,244 Mallard Ct,Windsor,CO,80550,970-978-6660
Aspenite Express,115 N Spring Street,Aspen,CO,81611,970-544-5854
Armadillo Production Services,114 Cr 158,Elizabeth,CO,80107,303-344-4411
Deloera's Trucking,4757 Decatur St,Denver,CO,80211,303-480-5336
Najar Trucking,60638 Falcon Rd,Olathe Rd,CO,81425,970-323-5052
Charm Trucking,30050 Big Springs Rd,Calhan,CO,80808,719-491-6381
Doug Mortensen Trucking,11953 County Road 18,Manassa,CO,81141,719-843-5075
Lonesome Dove Express,13491 6700 Rd,Montrose,CO,81401,970-240-6140
Lucero Trucking,6105 N Union Blvd,Colorado Springs,CO,80918,719-534-0296
Besy Trucking,21405 E 51 Ave,Denver,CO,80249,303-726-0268
Two Men And A Truck Ft Collins,1600 Riverside Ave,Fort Collins,CO,80524,970-686-6683
Geterdun Transport,2709 Saddle Creek Dr,Ft Collins,CO,80528,970-377-0687
Big Foot Express,1007 Sunburst Ct,Lafayette,CO,80026,303-579-2631
Shamrock Airport Express,4414 East Harmony Road #200,Fort Collins,CO,80528,970-225-4800
Fat Kid Trucking,11699 Hywy 17n,Hooper,CO,81136,719-378-2108
Robinson Transportation,18262 Rd 8,Wiggins,CO,80654,970-483-6437
L & S Trucking,10064 E 112th Way,Henderson,CO,80640,303-288-5304
C & H Trucking,495 Cr 45,Hudson,CO,80642,303-659-5406
Stv Trucking LLC,701 Verdos Drive,Elizabeth,CO,80107,303-646-4959
Ac Logistics,2075 Potomac St #66,Aurora,CO,80011,303-241-5830
A K E Logistics,2 Amesbury St,Broomfield,CO,80020,303-755-5294
State Line Trucking,1110 E Co Rd 82,Wellington,CO,80549,970-568-3673
E O S Trucking,1881 E 112th Place,Northglenn,CO,80233,720-272-1767
"Gorbach Trucking, Inc.",8870 W Jewell Ave #7 ,Lakewood,CO,80232,303-985-4521
Smith First Trucking,488 O St,Penrose,CO,81240,740-241-0272
Bj & Sons Trucking,2264 Dayton St,Aurora,CO,80011,720-232-8663
Akita Transportation,11020 E Colorado Drive,Aurora,CO,80012,303-695-1162
Silver Pony Express,10702 Pierson Street,Westminster,CO,80021,303-885-4119
Kc Trucking,386 Birch Ave,Brighton,CO,80601,303-654-9510
Zip's Transport And Auto Relocators,309 W 3rd Avenue,Otis,CO,80743,970-580-5327
B&g Transport,147 Buck Board Dr ,Norwood,CO,81423,970-275-0442
All Points Moving And Storage,1935 S Josephine St,Denver,CO,80210,303-744-0242
M & M Newman Farms Jv,59811 Co Road T,Haxtun,CO,80731,970-774-7113
"Miracle Industrial Services, Inc.",350 E 7th St Suite 12,Loveland,CO,80537,970-669-6600
S & J Trucking,716 Clarkson Ave,Rifle,CO,81650,209-217-7011
White Dog Transportation,8199 Welby Rd 304rd,Thornton,CO,80229,303-853-9287
Lawrence Wright,33114 Rd 11,Manzanola,CO,81058,719-462-5011
"Western Truck & Equipment, Inc.",871 Thornton Pkway #303,Thornton,CO,80229,435-817-0216
B A T T Equipment Hauling,6535 Pfost Dr,Peyton,CO,80831,719-683-6776
"Timberlake Trucking, Inc.",18443 Cr 3,Craig,CO,81625,970-824-2565
Morris Trucking,845 Barberry Dr,Loveland,CO,80538,970-203-1025
G&r Trucking,345 Rogers Lane,Durango,CO,81303,970-259-5038
"Rocky Mountain Hotshot & Transportation, Inc.",28730 Highway 6 & 24,Rifle,CO,81650,970-618-8722
Rock Mtn Transport,5951 West 26th Street,Greeley,CO,80634,970-506-1981
C & T Trucking,6279 County Rd 137,Bennett,CO,80102,303-550-9940
Us Movers Relocation Services,6500 Stapleton Dr S,Denver,CO,80216,303-399-2002
Dominguez Trucking,11486 River Run Pkwy,Henderson,CO,80640,303-853-8553
Hagemeier Trucking,400 South Main Street,Eckley,CO,80727,N/A
Jag Trucking,4128 Madison Street,Denver,CO,80216,720-212-3889
G & G Transport,3217 1/2 White Avenue,Clifton,CO,81520,970-434-5895
Stoneys,10759 County Road F,Olney Springs,CO,81062,719-267-5522
Missal Transport,870 20 1/2 Road,Fruita,CO,81521,970-858-4824
Trevino Trucking LLC,430 Macgregor Road,Sterling,CO,80751,970-522-0485
J & B Marsh Trucking,1628 E 7th,Pueblo,CO,81001,719-524-2644
C-services,One One Two Nine Sandra Drive,Johnstown,CO,80534,308-631-2315
"Quintana Trucking, Inc.",845 Benton St,Lakewood,CO,80214,303-349-4196
We-haul U,4328 North Taft Hill Road,Fort Collins,CO,80524,970-430-1242
Mccurry Trucking,39780 Wcr 68,Briggsdale,CO,80611,970-215-9743
O P Transport LLC,49204 E Dorado Place,Bennett,CO,80102,213-725-1600
Walter Farms Trucking,10164 County Road C5,Olney Springs,CO,81062,719-267-3499
Al's Trucking,4000 West Eisenhower,Loveland,CO,80537,970-663-6583
Wisemon Trucking,28423 Rd 809,La Junta,CO,81050,719-384-2384
Harsh Refrigerated Trans,214 South Spaulding Avenue,Pueblo,CO,81007,719-647-0893
Meyer Hauling,316 W 51st Street,Loveland,CO,80538,970-461-0848
Green Acres Trucking,10287 6400 Road,Montrose,CO,81401,970-209-2772
Eddys Hay And Hauling,3151 N 95th St,Boulder,CO,80301,303-665-4010
"J Cortez Trucking, Inc.",618 Ponderosa Drive,Fort Collins,CO,80521,970-691-2364
S M Trucking,15698 E 51st St,Denver,CO,80239,303-373-1687
R & J Trucking Company,23 Pinyon Pine Road,Littleton,CO,80127,303-973-5053
G&m Trucking,1386 East 81 Place,Thornton,CO,80229,303-324-0867
John Evans Trucking,1070 Josie Belle,Canon City,CO,81212,N/A
Nix Livestock Express,400 Hickory #14,Fort Collins,CO,80524,970-215-6269
Mountain Express Transport LLC,116 8th Street,Steamboat Springs,CO,80487,970-846-4503
Johnson Trucking,2732 Cook Street,Denver,CO,80205,303-333-9736
Aztec Trucking,7961 Cr 2a,Rush,CO,80833,719-478-3062
Area Mobile Home Service,5999 Pecos Street,Denver,CO,80229,303-574-1709
J & A Trucking,157 E Powers Ave S Apt 6,Littleton,CO,80121,720-283-1095
Enzo Express,6000 58th Ave,Commerce City,CO,80022,303-286-3788
Chester Bay Trucking,31166 Hwy 50 East,La Junta,CO,81050,719-384-9693
Paradox Basin Services,19748 Cr 21-4,Lewis,CO,81327,970-882-2681
Kestler Trucking,2004 Ivy Wood Ct,Fort Lupton,CO,80621,970-457-1609
Lebsock Trucking,6475 Cr 16,Fort Morgan,CO,80701,970-432-5507
Brad Cleaveland Trucking,27259 Cr M,Dolores,CO,81323,N/A
Exodus Moving & Storage Dba Brians Moving & Storage,825 E 11th Street,Loveland,CO,80537,970-669-3959
Danny Leeper Trucking,8497 Sonata Ln,Wellington,CO,80549,970-218-6001
Bulldog Trucking,10495 Tomichi Dr,Franktown,CO,80116,303-660-3977
Jcm Trucking,648 Pinewood Ct,Grand Junction,CO,81504,970-241-3707
J M Trucking,511 Plateau Pkwy,Golden,CO,80403,303-278-7289
Surman Trucking,5280 Altura St,Denver,CO,80239,303-375-7670
Cargo Transfer Services,370 Van Gordon Street,Lakewood,CO,80228,303-914-4621
W Niesent Trucking,629 Hwy 287 N,Fort Collins,CO,80524,970-493-0834
Chris Brown Trucking,510 Cherry St,Del Norte,CO,81132,719-657-3557
Snow Shoe Express,227 8 Mile Hill,Canon City,CO,81212,719-275-1900
Gordon Smith Trucking,1117 Elm St,Canon City,CO,81212,719-269-3736
Llr's Auto Transport,3301 Cr 52e,Laporte,CO,80535,970-224-9688
Bert Lewis Trucking,407 Seeley,La Junta,CO,81050,719-384-2707
Gipple Farms,19900 Blue Jay Lane,Weston,CO,81091,719-213-8420
Olson Millwright Service,320 Kipp,Keenesburg,CO,80643,970-732-4564
Hackett Trucking,17731 Cr G,Cortez,CO,81321,970-565-9877
John P Toler Trucking,18150 Sage Crest Rd,Peyton,CO,80831,719-683-5133
M A Watts Trucking,1169 S Downing St,Denver,CO,80210,303-698-1452
Loop Services LLC,4876 Clay Street,Denver,CO,80221,303-477-2404
Ghilarducci Farms,758 Wcr #34,Longmont,CO,80504,303-775-4090
J P Transport,19134 Cr 18,Sanford,CO,81151,719-274-5893
Jim Johnson Trucking,307 E Denver,Holyoke,CO,80734,970-854-2378
Cody's Dairy,3588 East County Rd 350,Monte Vista,CO,81144,719-852-6987
Pullara Trucking,40261 Hwy 50 E,Pueblo,CO,81006,719-948-3415
Winford Trucking,515 Fruit,La Junta,CO,81050,719-384-9479
G T I Trucking,5715 Wild Lane,Loveland,CO,80538,970-663-3803
Cullen Crushing,1900 St Charles Rd,Pueblo,CO,81006,719-545-4189
Gruber Trucking,539 W Maplewood,Walsh,CO,81090,719-324-5871
Brahma Trucking,1001 Colorado Ave,Loveland,CO,80537,970-593-1733
Yellow Jacket Trucking,7 Pebble Cr,Pagosa Springs,CO,81147,970-731-4576
M & R Trucking,7260 Shawnee Pl,Colorado Springs,CO,80915,719-573-8539
Sandell Trucking,4811 White Sands Court,Greeley,CO,80634,970-356-6235
Apache Trucking,830 Grant St,Fort Morgan,CO,80701,970-867-3855
Waskosky Trucking,8076 Cr Mm 3,Lamar,CO,81052,719-336-3646
"Adamson Brothers & Sons, Inc.",33008 Cr 26 1/2,Wray,CO,80758,970-332-5026
L J Day Trucking,7341 Cr 43,Bailey,CO,80421,N/A
Frost Livestock,9082 Cr 7,Meeker,CO,81641,970-878-5290
Ron Curtis Trucking,32855 Cr 59,Gill,CO,80624,970-352-9593
"Marlin P Lebsock Trucking, Inc.",915 Heather,Sterling,CO,80751,970-659-6189
Gary Coston Trucking,1750 P 3/4 Rd,Loma,CO,81524,970-858-0629
Boot Hill Tire Service,1600 Big Thompson Canyon # B1,Drake,CO,80515,970-663-1093
Mark Osborn Trucking,33609 Cr 6,Lamar,CO,81052,719-336-7946
I R Trucking,1592 Boston St #101,Aurora,CO,80010,303-344-9717
D & E Trucking,919 Prospect Street,Fort Morgan,CO,80701,970-867-3782
Johnston Trucking,508 Redwood Cr,Berthoud,CO,80513,970-532-0889
Dysart Trucking,11481 Cr 370,Sterling,CO,80751,970-522-8814
Rich Baldwin Transportation,19163 E Montview Blvd,Aurora,CO,80011,303-364-9338
Lee Quintana Trucking,10238 Cr G,Antonito,CO,81120,719-376-2175
C & J Trucking,55973 E Apache Place,Strasburg,CO,80136,303-622-6829
M & F Varela Trucking,785 Worth St,Center,CO,81125,308-762-1218
Kangaroo Express,4137 Sinton Rd,Colorado Springs,CO,80907,719-594-0043
Longs Peak Transportation,2535 Sunset Dr M268,Longmont,CO,80501,303-682-0936
Scs Direct,1617 S Circle Dric,Colorado Springs,CO,80910,719-390-0505
Boo Express,17868 Fringed Sage Way,Parker,CO,80134,720-480-0904
"Rich Plan Of Colorado Home Food Service, Inc.",5996 Terminal Ave,Colorado Springs,CO,80915,719-591-2127
Alt Trucking,449 Custer,Akron,CO,80720,970-345-0933
Circle L Trucking,14641 Hayesmount Rd,Brighton,CO,80601,303-655-0786
Struensee Trucking,12040 W Rangeview Dr,Calhan,CO,80808,719-347-2051
High Hopes Trucking,524 16th St,Greeley,CO,80631,970-351-0241
"Lou Barnett Trucking, Inc.",309 N Lincoln,Fleming,CO,80728,970-265-3461
Ll Martin Trucking,6532 S Field Way,Littleton,CO,80123,303-978-1671
Charles Dean And Sons Trucking,3574 Cr 22,Fort Morgan,CO,80701,970-432-5663
Gonn Trucking,18103 Cr Dd,Rocky Ford,CO,81067,719-254-4035
Schelter Trucking,10355 Burgess Rd,Colorado Springs,CO,80908,719-495-4648
Sct Transportation,6264 S Cedar St,Littleton,CO,80161,303-798-7784
Daves Diversified Delivery,5986 W 3rd Ave,Lakewood,CO,80226,303-274-1433
Rojas Trucking,8405 E Hampden #20e,Denver,CO,80231,303-338-0347
G & G Transport Ltd,22970 W County Rd 22,Hudson,CO,80642,303-536-4628
Last Chance Trucking,30900 Robinson Hill Rd,Golden,CO,80403,303-279-6433
Hejl Trucking,214 Hillcrest Circle,Rangely,CO,81648,970-675-2437
Ulsh Trucking,442 Crestmoor Rd,Canon City,CO,81212,719-275-9266
Jass Trucking,2151 Riverside Dr,Idaho Springs,CO,80452,303-567-9393
Tinsley Trucking,11614 Oakland Dr,Henderson,CO,80640,303-288-9373
Cortez Trucking,3745 Roosevelt Ave,Wellington,CO,80549,970-568-9106
Mix Trucking,10002 Weld County Road 22,Ft Lupton,CO,80621,303-480-0844
Gentz Trucking,7677 7th St,Atwood,CO,80722,970-522-5048
John Mccormick Trucking,34989 Cr X,Hillrose,CO,80733,970-847-3327
Covered Wagon Express,15251 Wcr 86,Pierce,CO,80650,970-834-2099
Gtl Trucking,325 E 6th,Springfield,CO,81073,719-523-0025
Drivers Seat Transportation,115 Vista Grande,Grand Junction,CO,81503,207-698-5843
Lawler Transport,8465 Cr 24,Fort Lupton,CO,80621,970-785-0500
John Copeland Trucking,442 Crestmoor Rd,Canon City,CO,81212,719-275-9266
Robert Parker Trucking,2280 1st Ave #59,Greeley,CO,80631,970-353-6200
Basin Water Hauling,25100 Cr Ff,Wray,CO,80758,970-332-4573
W W Express,6725 Cr Hh 5,Lamar,CO,81052,719-336-5655
Medcoffs-r-trucking,1978 W 76th Ave #1204,Denver,CO,80221,303-426-0620
High Mountain Transportation,2510 49th Ave Ct #1,Greeley,CO,80634,970-798-7784
Double D Trucking,9406 W Wagon Trail Cr,Littleton,CO,80123,303-973-5732
Everett B Briggs Trucking,645 Hermosa,Del Norte,CO,81132,719-657-3486
Dale's Trucking,357 Mohee,South Fork,CO,81154,719-873-5138
Ron Morris & Sons Trucking,215 State St,Antonito,CO,81120,719-376-2047
Timberline Trucking,6614 E 80th Ave,Commerce City,CO,80022,303-287-4721
R H Snook Trucking,5436 Cr 78,Woodland Park,CO,80866,719-660-3777
Florence & Son Trucking,940 Goshawk Rd,Eaton,CO,80615,970-454-3025
Henson Trucking,219 2nd St,Roggen,CO,80652,970-367-2167
Longhair Express,5011 S Meade St,Littleton,CO,80123,303-794-7587
Triple C Ranch & Trucking Co,42322 Cr 520,Walsenburg,CO,81089,719-738-6612
"Wallis Flats, Inc.orporated",4861 Quail Court,Frederick,CO,80504,303-485-5311
F & M Transport,518 W 7th Street,Fort Morgan,CO,80701,970-867-9251
S & M Trucking,8335 Quebec St,Commerce City,CO,80022,303-366-6474
Mical Transportation,15488 Navajo St,Broomfield,CO,80020,303-280-0175
Brady Trucking,19620 Hwy 285,La Jara,CO,81140,719-274-9842
Sanders Trucking,518 W Hwy 666,Dove Creek,CO,81324,970-677-2526
L D Wells Trucking,9010 Hickory Pl,Thornton,CO,80229,303-289-2370
Jewell Trucking,001 Alpine Ct,Parachute,CO,81635,970-285-9424
Rodger Dyck Trucking,52841 Banner Rd,Delta,CO,81416,970-874-1828
Smith Trucking,25 Grant,Penrose,CO,81240,719-372-3528
"K Bernard Trucking, Inc.",14860 Brighton Road,Brighton,CO,80601,303-637-7536
Coca Trucking,2409 E Routt,Pueblo,CO,81004,719-560-0633
Schroeder Trucking,10 Scott Pl,Lamar,CO,81052,719-336-2863
Bowers Trucking,20525 Cr Q,Fort Morgan,CO,80701,970-223-1750
Flatbed Express,7775 Log Rd,Peyton,CO,80831,719-636-2406
Kirrane Trucking,8778 Osage #27a,Thornton,CO,80260,303-657-3071
Timberline Transportation,9195 W 44th Ave #a1,Wheat Ridge,CO,80033,303-425-1694
Alholm Trails & Trucking,2724 Lark Dr,Colorado Springs,CO,80909,719-635-4883
Huerta Bros Trans,9331 Lilly Ct,Thornton,CO,80229,303-288-9476
Hojio Brothers Trucking,3236 W 6th St Rd,Greeley,CO,80631,970-395-9886
Koenig Luxury Lines,295 Clayton St #203,Denver,CO,80206,303-393-7969
Wrt LLC,316 Elm Avenue,Eaton,CO,80615,970-454-0817
Angel Express Transport,97 Kunkle St,Genoa,CO,80818,719-763-2333
Bull Transfer & Installation,1255 Shoshone St,Denver,CO,80204,303-820-2520
Bob Jones Trucking,1739 E Platteville Blvd,Pueblo West,CO,81007,719-583-5393
Hedges Trucking,7326 Upham Ct,Arvada,CO,80003,303-467-2844
Whitehorn Dumptruck Hauling,103 N 20th St,Dolores,CO,81323,970-882-4748
Bauer Trucking,521 E Parmenter St,Lamar,CO,81052,719-336-6506
Vandeusen Trucking,807 E 14th St,Pueblo,CO,81001,719-310-1177
B R Trucking & Excavating,486 Circle Dr,Florissant,CO,80816,719-748-8379
High Valley Trucking,17927 Hwy 285,Centerville,CO,81211,719-530-0510
Deweese Trucking,14081 Hwy 96,Westcliffe,CO,81252,719-784-3271
Davies Trucking,9225 Cr 174,Elizabeth,CO,80107,719-621-2966
Lyons And Son Trucking,7115 Harold St,Fort Lupton,CO,80621,970-857-2556
Nicolich Transportation,1739 Danube St,Aurora,CO,80011,303-366-6671
Grand Valley Moving Company,612 Yucca Drive,Grand Junction,CO,81503,970-245-7584
Tullis Trucking,2813 Deliverance Dr,Colorado Springs,CO,80918,719-593-9261
Helton Trucking,6395 Garlock Way,Colorado Springs,CO,80918,719-598-4140
Baker Distributing Company,679-c Turner Dr,Durango,CO,81301,970-382-9706
Dsp Transportation,3808 Dall Pl,Fort Collins,CO,80525,970-226-5278
T & M Trucking,13801 Cr 55,Hillrose,CO,80733,970-847-3516
Jim Wyss Transport,8822 E Florida Ave #113,Denver,CO,80247,303-369-9972
C & C Trucking,343 North Kansas,Walsh,CO,81090,719-324-5860
O I And E's Transportation Services,331 Riverwood Dr,Alamosa,CO,81101,719-589-6981
Orozco Trucking,624 E 41st Street,Loveland,CO,80538,970-214-4161
Wagner Crane Service,702 5th St,Pierce,CO,80650,970-834-2158
Wild Heart Trucking,6800 Hwy 140,Hesperus,CO,81326,970-759-8569
Benjamin Transportation,12492 Hickman Pl,Denver,CO,80239,303-725-1142
L & K Trucking,16535 Brooks Way,Elbert,CO,80106,719-495-8873
Goforth Trucking,18100 Cr 105,Ramah,CO,80832,719-541-2428
Eagle Transport,535 W 7th St,Salida,CO,81201,303-881-6544
Williamson Trucking,272 27 Road,Grand Junction,CO,81503,N/A
"K & R Trucking, Inc.",1911 S Dahlia,Denver,CO,80222,303-412-8364
Blackburn Trucking,435 N Pine,Dove Creek,CO,81324,970-677-2687
Chaloupka Trucking,6175 S Oak Way,Littleton,CO,80127,303-973-7920
B & M Trucking,103 Broadway,Penrose,CO,81240,719-784-0838
A J Trucking,6692 Cr 92,Lake George,CO,80827,719-948-3191
Long Hair Express,5011 S Meade St,Littleton,CO,80123,303-794-7587
T & D Trucking,6500 E 88th Ave #164,Henderson,CO,80640,303-289-7856
Casper Trucking,458 Miller Ave,Brighton,CO,80601,303-637-9501
Aaron's Moving Service,915 Shoshone Street,Ignacio,CO,81137,970-382-8589
Jim Trucking,2906 W Prospect Rd,Fort Collins,CO,80526,970-484-8870
T L Trucking,1783 A S Pitkin St,Aurora,CO,80017,303-695-6793
Specialty Transport,4344 Cr 31,Atwood,CO,80722,N/A
D & L Connor Trucking,686 Lodegpole Drive,Golden,CO,80403,303-582-9579
Wescott Trucking,320 Grand Ave,Las Animas,CO,81054,719-456-2316
Jeff Pope Trucking,19255 Cr 88,Pierce,CO,80650,970-834-2984
Drewer Transportation,325 E 1st St #436,Ault,CO,80610,970-834-2403
Good Trucking,336 East Byrd Drive,Pueblo West,CO,81007,719-547-2778
Frank Mesarcs Trucking,8901 Huron D209,Thornton,CO,80260,303-650-5607
"Mikita Trucking, Inc.",2406 Horrogate Rd,Byers,CO,80103,303-619-3281
Lu-k-z Trucking,750 Railroad,Rifle,CO,81650,970-625-1810
Holman Transportation,633 51st Ave,Greeley,CO,80634,970-352-8708
Bellomy Trucking,112 E Central,Hasty,CO,81044,719-439-5255
Bob Simmons Trucking,34741 Cr 22,Wray,CO,80758,970-332-5161
S & S Trucking,27411 Wyoming,Walsh,CO,81090,719-324-5232
Michel Spraying Service,21250 Cr 181,Limon,CO,80828,719-775-9269
Harmon Trucking,401 E 4th Ave,Springfield,CO,81073,719-523-6284
"P J Dewey Trucking, Inc.",538 Locust,Brighton,CO,80601,303-287-3897
Robert T Dodson Trucking,7617 Hwy 50,Lamar,CO,81052,719-336-4054
"Lam Trucking, Inc.",2044 Ponderosa Rd,Franktown,CO,80116,303-841-0270
Hi-altitude Carriers,8201 S Santa Fe Dr #149,Littleton,CO,80120,303-795-1570
Persons Transport,2401 Pennock Way,Longmont,CO,80501,303-746-0336
Gregg Trucking,2501 E Cr 62,Wellington,CO,80549,970-568-3987
Lucas Trucking,20229 E Purdue Pl,Aurora,CO,80013,303-617-6160
W Bar S Trucking,959 5th St,Nunn,CO,80648,970-897-2700
Pollitt Trucking,3100 Cr 80,Wellington,CO,80549,970-568-3703
Speedy Express,619 6th St,Fort Lupton,CO,80621,303-857-1106
Tom Wigham Transport,9325 Raleigh Ct,Westminster,CO,80031,303-427-2130
Knox Farms Milling & Mfg,315 E Bijou Avenue,Fort Morgan,CO,80701,970-542-1954
Horseshoe Trucking,37282 Cr Vv,Holly,CO,81047,970-625-5702
Gullikson Truck & Equipment Sales,2224 Sanford Dr,Grand Junction,CO,81505,970-245-7882
Joe Sexton Trucking,3835 Goodell Ln,Fort Collins,CO,80526,970-568-7346
"Schwartzkopf Trucking, Inc.",25569 Wcr 44,Kersey,CO,80644,970-284-6719
Shuttleking,4954 S Dillon Street,Aurora,CO,80015,303-363-8000
Church Trucking,6330 Hwy 36,Joes,CO,80822,970-358-4310
Hutch's Hot Shot Transport Service Con,526 1/2 Centennial Rd,Grand Junction,CO,81504,970-243-4496
J Winters Trucking,14207 Hwy 52,Wiggins,CO,80654,970-483-6218
Martinez Trucking,Po Box 1451,Alamosa,CO,81101,719-589-2399
Perez Trucking,4680 E 72nd Way,Commerce City,CO,80022,303-288-6153
Slow Ride Transportation,7850 1st,Wellington,CO,80549,970-568-3726
G S Mobile Home Transport,1259 Garfield St,Meeker,CO,81641,970-878-5137
Romer Trucking,38019 Hwy 160,Bayfield,CO,81122,918-473-4004
High Plains Trucking,508 Main,Windsor,CO,80550,970-396-9116
S & D Trucking,18874 Wcr 33,Lasalle,CO,80645,970-381-5917
Pds LLC,2336 W College Ave,Englewood,CO,80110,303-629-0300
"B & D Trucking, Inc.",1433 41st Ave,Greeley,CO,80631,970-378-7323
K & A Trucking,356 Fairway S,Colorado Springs,CO,80906,719-579-9614
R&e Trucking,2960 Quincy Pl,Colorado Springs,CO,80916,719-391-1331
John Ardrey Trucking,920 O St,Penrose,CO,81240,719-372-6956
Lafebre Trucking,2719 E 102nd Ave,Thornton,CO,80229,303-289-7374
Double H Express,8083 Cr Mm 3,Lamar,CO,81052,719-336-9444
Katzenberger Trucking,7102 Sioux Ct,Longmont,CO,80504,303-833-3453
Tom Parks Hauling And Transport,1030 Sprucewood Land,Glenwood Springs,CO,81601,970-948-1997
Ritter Trucking,1 Highland St,Lamar,CO,81052,719-336-5933
"Russell Trucking, Inc.",1895 S Dale Ct,Denver,CO,80219,303-947-1074
Mason Trucking,8601 Valentia St,Commerce City,CO,80022,303-288-0375
Jones Transportation,444 W Pawnee,Holly,CO,81047,719-336-6869
Oakes Transport,4790 S Wright Way,Morrison,CO,80465,303-933-6683
Jdk Trucking,31039 Cr Rr,Holly,CO,81047,719-739-4005
Mcschooler Truckin,1711 Locust St,Canon City,CO,81212,719-269-7011
Mike Watson Trucking,41766 Cr Dd,Akron,CO,80720,970-345-2138
F T K Trucking,3810 S Lincoln St,Englewood,CO,80110,303-761-7859
Corey And Anderson Transportation,8460 W 46th Ave,Wheat Ridge,CO,80033,303-425-5153
J D Trucking,43322 Undercliff Rd,Avondale,CO,81022,719-948-1328
Russell Brothers Truck Line,1044 P. St.,Penrose,CO,81240,719-372-3468
Phil's Auto & Truck Repair,131 Arch St,Trinidad,CO,81082,719-846-4885
Holm Transfer,720 Pomeroy St,Burlington,CO,80807,719-346-8261
Mac's Oilfield Services,25147 Cr Kk,Springfield,CO,81073,800-315-7400
Bill's Truck,460 N Park St,Woodland Park,CO,80863,719-687-1242
Jim Blan's Trucking,317 W Adams,Pueblo,CO,81004,719-543-3954
Dlk Trucking,10440 Holland St,Westminster,CO,80021,303-466-2416
Mt Trucking,25285 Cr 31,Snyder,CO,80750,970-847-3347
Kelly Trucking,511 S 9th St,Lamar,CO,81052,719-336-7309
Cooley & Son Transport,6369 Brooks Dr,Arvada,CO,80004,303-280-0143
James Express,468 Pear,Clifton,CO,81520,970-523-5498
Al Griego Trucking,705 E 16th St,Greeley,CO,80631,970-356-0178
Granados Trucking,311 S 2nd St,Lamar,CO,81052,719-336-2040
Childs Trucking,81700 Hwy 36,Byers,CO,80103,970-842-4778
"Lcm Trucking, Inc.",1407 19 Rd,Fruita,CO,81521,970-858-6686
Bc Logistics,14192 E 26th Place,Aurora,CO,80011,303-341-1950
Rush Transportation,21633 Cr 80,Eaton,CO,80615,970-834-1723
Retchloff Trucking,27908 Cr 5,Elizabeth,CO,80107,719-646-0180
Mac Taylor Trucking,731 Douglas St,Sterling,CO,80751,970-522-7720
Skytop Total Production Services,18101 E Loyola Dr,Aurora,CO,80013,303-671-8671
B-g Trucking,42694 W Hwy 160,Walsh,CO,81090,719-324-5633
Jay's Trucking,12430 Bradshaw Road,Peyton,CO,80831,719-339-8468
Zimbelman Trucking,34522 Cr 18,Keenesburg,CO,80643,303-732-9933
Ike's Transport Service,7820 Oneida St,Commerce City,CO,80022,303-288-2757
Mullins Trucking Service,73 N Dutch Valley Road,Bennett,CO,80102,303-644-3143
Metzger Transportation Services,17725 E Arizona Ave,Aurora,CO,80017,303-337-5429
Pd Trucking,8791 Chase Dr #219,Arvada,CO,80003,303-431-8083
Gifford Trucking,204 Sherrillo,Penrose,CO,81240,719-372-6082
Dave's Trucking,26900 E Colfax #348,Aurora,CO,80018,303-343-1791
Pawnee Transportation,367 4th St,Nunn,CO,80648,970-897-2850
Archer Truckin,112 1/2 Alamosa Ave,Alamosa,CO,81101,303-588-0438
Avery Trucking Authority,172 Denargo Market,Denver,CO,80216,303-293-9114
Bonrad Transport,27259 Cr M,Dolores,CO,81323,970-564-0224
Duncan Trucking,4134 W 111th Cr,Westminster,CO,80030,303-466-9659
Gaines Trucking,402 N 9th,Lamar,CO,81052,719-336-3804
H & H Trucking,35500 E Colfax Ave Sp 30,Watkins,CO,80137,303-261-8573
Mark Spady Transportation,33694 Road 15,Las Animas,CO,81054,719-468-3490
Ada Generator Services LLC,2801 West County Road #6,Berthoud,CO,80513,970-532-1085
"Venture Trucking, Inc.",2000 E 40th Ave,Denver,CO,80205,303-292-1506
Christensen Express,5815 West 27th Street,Greeley,CO,80634,970-330-5077
Bobcat Trucking,904 Plum Ave,Lochbuie,CO,80601,303-659-2506
Lone Pine Trucking,5020 Cr Y,Capulin,CO,81124,303-343-9907
Harris Trucking Co Ltd,7701 W Florida Dr,Lakewood,CO,80232,303-986-5368
R M P Trucking,7111 W 29th Ave,Lakewood,CO,80215,303-237-1561
Cat Creek Express,111 Indiana St,Walsh,CO,81090,719-324-5783
T E A M Panels International,3251 S Zuni St,Englewood,CO,80110,303-935-8575
Jerry Carter Trucking,12945 County Road Jj,Las Animas,CO,81054,719-469-8193
Jcd Transports,28766 E Hwy 24,Ramah,CO,80832,719-541-3226
Walters Trucking,9514 Damon Drive,Thornton,CO,80260,303-428-4025
D & L Trucking,4026 Wills Blvd,Pueblo,CO,81008,719-584-3850
Patterson Brothers Trucking,5198 Cr 49,Hudson,CO,80642,303-536-4988
Eagle Truck Line,3435 Zuni #1,Denver,CO,80211,303-455-6605
Steve Monks Transportation,50801 Cr 30,Genoa,CO,80818,719-763-2488
Choat Trucking,1001 S 1st #14,Lamar,CO,81052,719-336-3190
Rider Trucking,17550 Cr 34,Holly,CO,81047,719-940-1959
Chualan Trucking,20525 Cr Q,Fort Morgan,CO,80701,303-289-4651
"Integrity Transport, Inc.",66 Prospector Way,Bailey,CO,80421,303-816-6444
Lyall Trucking,7513 Cr 16,Frederick,CO,80530,303-833-3393
Rocky Mountain Transport,920 Cr 335 ,Pagosa Springs,CO,81147,970-264-2970
Mondragon Trucking,23311 Ridge Road,Trinidad,CO,81082,719-491-3973
Herpel Transportation,859 1550 Rd,Delta,CO,81416,970-874-8859
W-j Trucking,31948 Hwy 71,Snyder,CO,80750,970-842-5274
Velasquez Trucking,10329 Cr G,Antonito,CO,81120,719-376-5846
Ellis Trucking,208 E 5th St,Florence,CO,81226,719-784-6822
Clemen Trucking,10001 E Evans #57c,Denver,CO,80231,303-755-2118
Mejewski Trucking,8191 Quebec St,Commerce City,CO,80022,303-464-0249
Tannehill Trucking,2182 Martin Ave,Burlington,CO,80807,970-580-9574
Country Rose Trucking,5427 Dover St Unit C,Arvada,CO,80002,303-420-5367
Eltex Environmental Service,747 Sheridan Blvd #4a,Lakewood,CO,80214,303-238-8710
Michael Greene Trucking,337 11th Street,Burlington,CO,80807,307-705-3888
"Monarch Transportation, Inc.",145 Redcloud Ave,Berthoud,CO,80513,970-344-5037
Paulson Trucking,1616 E 78th Ave 127,Denver,CO,80229,303-227-6852
Harrington Trucking,8725 West 95th Ave,Westminster,CO,80021,303-524-7659
Mcdonald Trucking,1865 Frontage Rd,Fruita,CO,81521,970-858-3208
5 K Trucking,27411 Wyoming,Walsh,CO,81090,N/A
Rheubottom Trucking,76 Sylvia Ct,Loveland,CO,80537,970-222-1972
"Superior Food Service, Inc.",1450 Aviation Way,Colorado Springs,CO,80916,719-574-0424
J & D Express,11801 Cr Hh 2,Lamar,CO,81052,719-336-5115
V & V Trucking,790 Washington St,Monte Vista,CO,81144,719-852-0718
Bostelman Trucking,627 Partee Dr,Grand Junction,CO,81504,970-245-5964
Hartzell Transport,4210 E 100th Ave #722,Thornton,CO,80229,303-452-2028
Leoffler Trucking,20105 Cr 32,Stratton,CO,80836,719-348-5909
"Acam Trucking, Inc.",10460 Marion St,Northglenn,CO,80233,303-280-8542
Solid Gold Transport,17868 Fringed Sage Way,Parker,CO,80134,303-680-2448
B P Trucking,20936 Main St,Matheson,CO,80830,719-541-3307
Padilla Trucking,8641 E 104th Ave,Henderson,CO,80640,303-289-5636
Jarmon Transfer,12989 E Elgin Pl,Denver,CO,80239,303-341-7698
Palmer Brothers Trucking,2016 Cr 2 N,Dove Creek,CO,81324,970-677-2976
Whitlatch Transport,13645 E Dakota Ave,Aurora,CO,80012,303-341-4313
Ficco Trucking,956 N Cameron,Brush,CO,80723,970-842-3609
Mehring Transportation,37 Rockrimmon Rd,Williamsburg,CO,81226,719-784-4603
Wiegand Trucking,108 Dahlia St,Fort Morgan,CO,80701,970-867-3420
D & S Transportation,33040 Railroad Ave,Lucerne,CO,80646,970-356-8660
T & L Trucking,322 Arapahoe St,Otis,CO,80743,970-246-0162
B&b Transport,27259 Cr M,Dolores,CO,81323,970-565-7682
Copeland Trucking,5221 Isabel Dr,Colorado City,CO,81019,719-676-3407
Pinpoint,25195 Cr 22,Keenesburg,CO,80643,303-536-0508
Durall Transport,1263 Cr 17,Del Norte,CO,81132,719-657-3599
K & P Transport,308 Medinah Ave,Johnstown,CO,80534,970-587-5549
3b Trucking,116 W 9th,Yuma,CO,80759,970-396-7141
K & M Trucking,470 3rd Street,Penrose,CO,81240,970-356-5883
Rizza & Sons Trucking,2530 Orchard Pl,Fort Collins,CO,80521,970-224-9390
"George Molson Trucking, Inc.",4997 Allison,Arvada,CO,80002,303-940-6609
Buck's Trucking,906 Colorado Ave,La Junta,CO,81050,719-384-5694
Shannon Unruh Trucking,1214 E Cr 7n,Monte Vista,CO,81144,719-852-0457
Barraza Trucking,4218 E 94th Pl,Thornton,CO,80229,303-289-8537
Double E Trucking,810 E 14th St,Lamar,CO,81052,719-336-5210
Triangle N Trucking,14425 Cr 15,Fort Morgan,CO,80701,970-867-4754
Tkj Trucking,9241 N Albion St,Thornton,CO,80229,303-288-2148
Jarnagin Trucking,21517 Cr 44,Burlington,CO,80807,719-346-9560
Terra Dyne Underground Services,12430 2nd St,Eastlake,CO,80614,909-280-9574
John Briggs Hauling,375 Columbia,Del Norte,CO,81132,719-657-0514
Mc Bates Trucking,212 Main Street,Genoa,CO,80818,719-763-2453
Agman Trucking,3115 Cr 17,Gunnison,CO,81230,970-641-3903
Reitz Trucking,421 Ash,Hudson,CO,80642,303-536-4274
Jump Trucking,25404 Wcr 48,Kersey,CO,80644,970-396-2558
C N T Trucking,420 Penasco St,Del Norte,CO,81132,719-657-3520
Excellence In Transportation,8158 Pecos Way,Denver,CO,80221,303-457-1045
Rafter W Hauling,33150 Hwy 149,Creede,CO,81130,719-658-2800
G & M Transport,2626 W 1st St #294,Greeley,CO,80631,970-353-6157
Joey Kemper Trucking,6823 S Ivy Way Apt 5-106,Englewood,CO,80112,303-221-8354
"Joyful Transportation, Inc.",18055 Cr G #4,Ordway,CO,81063,719-267-3058
Behunin Trucking,572 Western Ave,Craig,CO,81625,970-824-6151
"Two Tone Transportation, Inc.",408 29 Road,Grand Junction,CO,81502,970-242-6946
M Provost & Sons Trucking,2227 41 1/2 La,Avondale,CO,81022,719-948-9094
Ferguson Trucking,422 Mitford Dr,Pueblo,CO,81007,970-396-7207
Double Diamond Trucking,7729 Lincoln Way,Denver,CO,80221,303-650-1429
Struesnee Trucking,12555 Jordan Rd,Fountain,CO,80817,719-382-5119
Baker Trucking,8511 Alice Ct,Fort Collins,CO,80525,N/A
"Weldon's Trucking, Inc.",102 Sunbird Cliffs Ln E,Colorado Springs,CO,80919,N/A
Dan Dane Trucking,51955 Cr Jj,Wray,CO,80758,N/A
Easy Does It Auto Transport,8627 Santa Fe,Denver,CO,80221,303-657-1074
American Son Trans,359 East 4 Th Street,Campo,CO,81029,719-787-2413
Thompson Trucking,444 2nd St,Frederick,CO,80530,303-833-3424
Elmer The Pebble Hauler,5704 N Taft Hill Rd,Laporte,CO,80535,970-481-4777
D K Trucking,3345 Wiesner Rd,Calhan,CO,80808,719-444-8560
Pacemaker Transport,10521 Pierson Circle,Broomfield,CO,80021,303-460-0158
Barela Trucking,4601 S Lincoln St,Englewood,CO,80110,303-783-3827
Reliable Transportation,388 E 88th Ave #319,Thornton,CO,80229,303-560-4599
K & J Distributing,12981 Randolph Pl,Denver,CO,80239,303-574-9095
Gutierrez Transport,4929 Cr 51,Hudson,CO,80642,303-536-4746
Ilex Transport,1936 15th Ave,Greeley,CO,80631,970-352-5552
Dawson Trucking,7 Oak Creek Dr,Williamsburg,CO,81226,719-784-2470
Red Eye Xpress,8200 E Palmer Divide Rd,Larkspur,CO,80118,303-660-1531
Ratliff Trucking,64 S 11th Ave,Brighton,CO,80601,303-659-8426
D Vigil Trucking,8191 Quebec St,Commerce City,CO,80022,303-881-6484
Williams Trucking,2534 Benton Street,Edgewater,CO,80214,303-233-5844
T K Enterprises,15101 Co Road 19,Fort Morgan,CO,80701,970-867-0450
Jim Wolf Trucking,504 Kansas Ave,Grand Junction,CO,81503,970-243-0701
"Troxel Auto Carriers, Inc.",46958 Cr 9,Parker,CO,80138,303-841-6945
"Allen P Small Trucking & Excavation, Inc.",13577 Cr 213,Durango,CO,81301,970-259-2307
Bueno Trucking,5528 Salem St,Denver,CO,80239,303-371-4725
J & J Hotshot Services,477 Sundown Dr,Grand Junction,CO,81504,970-260-9745
Wehaul,17506 Hwy 71,Brush,CO,80723,970-842-2838
I-25 Truck Leasing-see C581886,7301 Sw Frontage Rd,Fort Collins,CO,80525,970-352-7200
Triple C Trucking,3715 S Garfield,Loveland,CO,80537,970-622-0785
Simpson Trucking,7749 Cr 14 South,Alamosa,CO,81101,719-587-9820
Tom Hansen Trucking,1365 Cr 20,Fort Lupton,CO,80621,303-637-0110
"Todd Smith Trucking, Inc.",46333 Cr 29,Nunn,CO,80648,970-834-1825
Pikes Peak Transfer,252 Davie Dr,Security,CO,80911,719-390-7581
Ray Lewis & Son Trucking,39800 E Arizona Ave,Bennett,CO,80102,303-644-5926
Belke Trucking,6453 S Dayton St,Englewood,CO,80111,303-901-9702
Aaa Denver City Express,5050 Wagon Box Pl,Highlands Ranch,CO,80137,720-488-9191
Tyrer's Trucking,6297 Sunshine Canyon Dr,Boulder,CO,80302,303-440-8210
G & R Transport,601 S Sherman St 14,Fort Morgan,CO,80701,970-225-1432
Morning Star Trucking Svs,4853 S Salida Ct,Aurora,CO,80015,720-690-0812
Red Feathers Transportation,168 Balsom Court,Red Feather Lakes,CO,80545,619-258-9746
Davisson Trucking,636 Grand Ave,Akron,CO,80720,970-345-6747
Rockin N Transportation LLC,6614 Welch Ct,Arvada,CO,80004,303-475-3388
Kma Express LLC,55 Sleepy Hollow Dr,Bailey,CO,80421,303-838-1658
Olson Trucking,2715 Howbert St,Colorado Springs,CO,80904,719-685-2289
Stryker Trucking,8601 Zuni #188,Denver,CO,80221,N/A
Aspen Snowmass Limousine & Airport Transportation,38995 Hwy 82,Aspen,CO,81612,970-925-5549
Sommers,1520 38th Street Road,Evans,CO,80620,303-808-8978
Richard P Kane,1486 28th Lane,Pueblo,CO,81006,719-382-7721
Parceltek,4105 Holly Street,Denver,CO,80216,303-371-3003
White Buffalo Express,1400 S Collyer St#225,Longmont,CO,80501,303-774-9345
Lincoln Trucking,11256 Hwy 368,Alamosa,CO,81101,719-589-3088
Knowles Trucking,1320 Edmonds St,Brush,CO,80723,970-842-4632
Ortiz Trucking,3635 Jason St,Denver,CO,80211,303-480-0169
P And H Trucking,435 N 35th Ave Unit 121,Greeley,CO,80631,970-351-8571
Morgan Trailer & Transport LLC,1736 F Road,Delta,CO,81416,970-874-1398
Peterson Auto Transport,8033 Marshall Circle,Arvada,CO,80003,303-467-1280
Marty Thieman LLC,6500 East 88th Ave #61,Henderson,CO,80640,303-289-3405
Robert Odom Transport,121 S Chelton Rd,Colorado Springs,CO,80910,719-591-4910
Lone Pine Transportation,2547 Kenneth Ct,Grand Junction,CO,81503,970-245-8576
Jabiru Trucking,6905 Cattlemans Trail,Colorado Springs,CO,80911,719-390-8820
Pjs Trucking,1864 Lincoln Dr,Longmont,CO,80501,970-356-8660
Dan Neill Trucking Llp,498 Big Sky Place,Pagosa Springs,CO,81147,970-731-4855
Mcdaniel Trucking,8833 Colorado Blvd #f302,Thornton,CO,80229,303-288-9404
D & H Trucking,1200 Yuba,Aurora,CO,80011,303-739-0488
Cache Creek Transportation,6274 County Road 301,Parachute,CO,81635,970-270-3319
Forsythe Trucking,205 W Hoag,Yuma,CO,80759,970-848-5781
Kevin Cox Trucking,19507 Hwy 71,Ordway,CO,81063,719-267-4311
Heard Trucking,12605 Hwy 24,Seibert,CO,80834,719-346-5947
Dct Trucking,2312 Limousin Ct,Fort Collins,CO,80526,970-223-1732
B 2 Kiyo T Express,6765 Lakota Ct,Loveland,CO,80537,970-284-0986
Miller Livestock Express,32549 Cr 57,Gill,CO,80624,970-346-9036
Smith Trucking,707 E Olive,Lamar,CO,81052,719-336-7462
Larsen Auto Transport,3879 E 120th Ave #90,Thornton,CO,80233,303-237-5702
May Day Trucking,101020 Hidden Springs Rd,Hotchkiss,CO,81419,970-872-6168
Cheryl & Dan's Express,1716 1st Ave,Greeley,CO,80631,303-618-3759
Limousine Express,5200 N Broadway,Denver,CO,80229,303-299-9299
Miller Trucking,208 Johnson's Corner Camp S E,Johnstown,CO,80534,970-593-9739
Banjo Transportation,8345 Hwy 78 W,Beulah,CO,81023,719-485-2231
S & P Trucking,1629 Azalea Drive #1,Fort Collins,CO,80526,970-244-5963
"T M J Trucking, Inc.",Po Box 39346,Denver,CO,80239,303-698-1452
J T's Trucking,38 Cr 59 #5,South Fork,CO,81154,719-873-0278
Clint C Sweetin Trucking,8821 Hwy 172,Ignacio,CO,81137,970-884-9183
Daniel Koehn Trucking,6649 Hwy 112,Del Norte,CO,81132,N/A
Ddl Trucking,15505 Mary Ave,Fort Lupton,CO,80621,303-857-2705
Timberwolf Trucking,2825 Preakness Way,Colorado Springs,CO,80935,719-392-8472
E & A Trucking,721 Graf Drive,Alamosa,CO,81101,719-589-4137
Get Away Express Shuttle,4039 S Logan Street,Englewood,CO,80110,303-806-5313
Hucks Hauling Service,17201 Cr 41 1,Boncarbo,CO,81024,719-846-4180
Shakey Trucking,302 West 1st Ave,Kit Carson,CO,80825,719-962-3394
Johnson Transport,625 1/2 Church St,Olathe,CO,81401,970-209-3745
Breeze Enterprises,1704 Ross Ave,Alamosa,CO,81101,915-849-1028
Freedom Transportation Services,1212 East Burlington Avenue,Fort Morgan,CO,80701,970-542-9563
"Long Gulch Trucking, Inc.",562 Rose St,Craig,CO,81626,970-824-8149
Kurt Houp Trucking,512 Windsor Lane Lot 2,Fountain,CO,80817,719-382-4889
J & L Transportation,4416 Flattop Court,Fort Collins,CO,80528,970-461-8405
Sr Strong Trucking,62880 W La Salle Rd # 60,Montrose,CO,81401,970-252-3371
Hefty Hauling,818 N Raynolds,Canon City,CO,81212,N/A
"Lands Edge Transportation, Inc.",1325 S Colorado Blvd #b200,Denver,CO,80222,303-300-0800
O-husky Trucking,3140 South Peoria St Suite K 274,Aurora,CO,80014,720-514-0255
Deanna Marie Trucking Company,18785 Sweet Rd,Peyton,CO,80831,719-749-2060
Al-mar Transportation,6475 Mulberry Rd,Calhan,CO,80808,719-347-3087
L & V Trucking,73751 Hwy 36,Byers,CO,80103,303-822-5693
"Petro Trucking, Inc.",1957 S Ouray Street,Aurora,CO,80013,303-292-6029
Rbr Trucking,57 Powderhorn Place,Longmont,CO,80501,303-772-0137
C & E Trucking,14461 Marine Rd Lot 560,Montrose,CO,81401,970-352-1742
Jrs Transport Service,251 S Owens,Byers,CO,80103,303-822-9388
Erry Trucking,525 Aztec Drive,Security,CO,80911,719-213-1001
Beverage Express,1700 E 68th,Denver,CO,80211,303-289-8655
D & A Transportation,4140 Yulle Rd,Strasburg,CO,80136,303-622-4581
J & F Trucking,10088 E 159th Place,Brighton,CO,80602,303-654-0852
Vic's Trucking,1960 W 56th Ave,Denver,CO,80202,303-433-5805
Jundt Transportation Co LLC,10796 E Virginia Ave #101,Aurora,CO,80012,303-360-7836
Hofmann Trucking,11459 N Settlers Dr,Parker,CO,80138,N/A
Rojas Trucking,14696 Cr 2,Wiggins,CO,80654,303-588-6005
"Eagle Transport, Inc.",7529 Harlan Way,Arvada,CO,80003,303-210-2364
John Garcia Trucking,7095 Dexter St,Commerce City,CO,80022,303-227-9097
Lands Edge Transport,1325 S Colorado Blvd #304,Denver,CO,80222,303-300-0800
M D Winters Trucking,3709 Mc Avoy Avenue,Evans,CO,80620,970-506-0309
Circle Jr Trucking,63263 W Oak Grove Rd,Montrose,CO,81403,970-252-0920
Ibarra Trucking,5101 W 2nd Ave,Denver,CO,80219,303-934-4338
4 My Girls Trucking,209 Chatoga Ave,Grover,CO,80729,970-895-2207
Esquibel Transportion,7036 Delcamino Ct,Longmont,CO,80504,303-833-4215
J Z H Trucking,1320 S Osage,Denver,CO,80223,303-905-6921
Lost Canyon Trucking,27710 Cr T,Dolores,CO,81323,970-882-3370
Diamond N Trucking,503 Deer St,Simla,CO,80835,719-541-2521
Sena Transportation,4401 Main St,Timnath,CO,80547,970-493-0320
Moore Trucking,456 2nd St,Yampa,CO,80483,970-638-4667
Bohrers Trucking,200 4th St,Haswell,CO,81045,719-436-2255
Talavera Trucking,10011 Elm St,Denver,CO,80260,N/A
Medina Brothers Trucking,2015 Pepperwood Dr,Colorado Springs,CO,80910,719-536-2087
Md Trucking Corp,713 Central,Kremmling,CO,80459,303-995-0678
Boothill Express,1755 Linden St,Longmont,CO,80501,303-945-7580
Endurance Racing Services,472 7th St,Steamboat Springs,CO,80477,970-870-8457
Foos Trucking,310 Wcr 55,Keenesburg,CO,80643,303-732-4743
Lantz Trucking,9100 E Florida Ave 18-306,Denver,CO,80247,303-750-7778
Longacre Trucking,330 1/2 N 1st St,La Salle,CO,80645,405-283-0698
Thunder Road Trucking,6195 Ivy St,Commerce City,CO,80022,303-288-0127
Ars Service,7145 Rafter Road,Franktown,CO,80116,303-660-1665
"Western Skies Distributing, Inc.",27227 Cr 22,Rocky Ford,CO,81067,719-254-6645
"Mountain View Trucking, Inc.",1925 Whitehorn Dr H,Colorado Springs,CO,80920,719-457-0227
Newsom Trucking,21234 Cr 3t,Limon,CO,80820,303-635-0166
Arias & Sons Trucking,1563 Caroline Avenue,Fort Lupton,CO,80621,303-289-6287
Dickens Trucking,401 Cortez St,Denver,CO,80221,602-439-4598
Cat Creek Trucking,7100 Cr 700,Pagosa Springs,CO,81147,970-731-4854
L J D Express,693 Garfield,Walden,CO,80480,970-723-8442
Kinne Trucking,3097 Apple St,Lazear,CO,81420,970-872-2533
Blitz Trucking,224 Wellington St,Northglenn,CO,80234,303-252-8479
P A O Trucking,76 E 3rd,Byers,CO,80103,N/A
Roadrunner Transport,492 Mountain Dr,Grand Junction,CO,81504,970-948-4044
B & K Trucking,467 Mountain Vista Dr,Clifton,CO,81520,970-523-1229
Lopez Trucking,2241 11th St,Greeley,CO,80631,970-590-5159
Eeckhout Trucking,11730 Cr 43,Sedgwick,CO,80737,970-474-3650
C & R Custom Service,25002 Cr 8,Weldona,CO,80653,970-645-9928
J & J Trucking LLC,229 S Bassett,Colorado Springs,CO,80910,970-356-5883
M B Carriers,20269 Cr 4,Hudson,CO,80642,303-659-7215
Classic Trucking,3100 W Cr 80,Wellington,CO,80549,970-568-3703
Luke's Hauling,218 Mosher Avenue,Parachute,CO,81635,970-261-7671
Jett Transport,7420 Rio Rd,Peyton,CO,80831,719-495-4201
Den & Gin Trucking,10201 Riverdale Rd,Thornton,CO,80229,303-255-0789
Big Sky,14775 Cr 100,Nunn,CO,80648,970-897-2524
"Ace Hauling, Inc.",28146 Hwy 285,Fairplay,CO,80440,970-389-2749
Maximum Team,4770 Forest St Unit B,Denver,CO,80216,303-320-4520
Babcock Trucking,15785 Cr 84,Ault,CO,80610,970-834-1063
Graham Scotland Trucking,4893 E Tarcoola Ln,Highlands Ranch,CO,80126,303-522-7418
Earley Express,508 Main St,Windsor,CO,80550,970-686-9618
Bar K Trucking,15522 Cr 310,Atwood,CO,80722,970-521-9862
Brads Custom Ag Service,8904 Road U 5,Weldona,CO,80653,970-645-2291
Devco Transport,4995 E 77th Ave,Commerce City,CO,80022,303-755-5334
Miller Trucking,302 Welton,Wiley,CO,81092,N/A
Joe Dilka Trucking,615 Maple Ave,Eaton,CO,80615,970-396-2882
Rohr Trucking,3440 Cr Mm,Wiley,CO,81092,719-688-1872
Guy Stamm Trucking,3443 Colony Hills Rd,Colorado Springs,CO,80916,281-893-1437
"Hamilton Farms Transportation, Inc.",6707 Cr 19,Fort Lupton,CO,80621,970-654-0864
Broadway Moving And Storage,4985 Locust St,Commerce City,CO,80022,303-288-2671
Peterson Trucking,2140 Buena Vista Dr,Greeley,CO,80631,N/A
Akron Truck Line,555 Fremont St,Akron,CO,80720,N/A
Leed Energy Services & Northern Plains Trucking,3770 Puritan Way Suite J,Frederick,CO,80516,303-665-6126
Melonas Trucking,232 Welton Ave,Walsenburg,CO,81089,719-738-3744
C & C Grain & Hay,20668 Cr 149,Matheson,CO,80830,719-541-2806
Midas-auto Systems Experts,10885 E 51st Ave,Denver,CO,80239,303-371-0037
Merit Wrecker Services LLC,5365 Newport St,Commerce City,CO,80022,303-287-2579
Hawks Express,205 South Hillcrest Drive,Montrose,CO,81401,970-249-5821
Jenkins Livestock Transportation Co,12174 County Road 27,Campo,CO,81029,719-787-2337
Fleischli Oil,6395 E 80th Ave,Commerce City,CO,80022,307-638-0289
Janssen Transportation,25028 Hwy 6,Rifle,CO,81650,970-625-8121
Vistar,12650 East Arapahoe Rd,Centennial,CO,80112,303-662-7100
Leroy's Wrecker Service,1103 E Hwy 402,Loveland,CO,80537,970-667-0818
Frank Trucking,26677 Cr 7,Merino,CO,80741,970-437-5421
Joe Transport,1616 E 78th Space 78,Denver,CO,80229,N/A
Graese Automotive,2005 N Garfield,Loveland,CO,80537,970-667-3215
Dohe Trucking,330 1/2 N Ave,Limon,CO,80828,N/A
Colpac,6770 E 56th Ave,Commerce City,CO,80022,303-296-1885
"Palmer Oil Company, Inc.",907 N Main St,Lamar,CO,81052,719-336-4323
C-t Transportation,2061 W Hamilton Pl,Englewood,CO,80110,303-355-6677
R L Shaffer And Son Trucking,P O Box 532,La Salle,CO,80645,N/A
Colorado West Trucking,420 Victoria Dr,Fort Collins,CO,80525,970-232-9064
Mckinley Trucking,52123 Cr 89,Grover,CO,80729,970-656-3627
Harp Moving & Storage,127 North Market Street,Cortez,CO,81321,970-565-7500
Rodney Barker Trucking,21633 Cr 80,Eaton,CO,80615,970-449-0622
Prairie Dog Express,56434 Cr 86/5,New Raymer,CO,80742,970-437-5367
Run Late Freight,5445 Dahlia St,Commerce City,CO,80022,303-388-3685
Stc Transit,8941 Cr 22,Kremmling,CO,80459,970-724-3889
Centennial Express,2013 26th St Rd,Greeley,CO,80631,303-356-5293
Larry Archer Trucking,54221 E Bison Dr,Strasburg,CO,80136,303-427-3978
Br And H Brokerage Trucking,3414 Trinidad,Evans,CO,80620,970-339-3512
Classic One Transportation,17696 E Girard Ave,Aurora,CO,80013,303-690-8037
Asap Transportation,521 W 5th Ave,Yuma,CO,80759,970-848-5103
"All American Moving Services, Inc.",13800 E Moncrieff,Aurora,CO,80011,303-373-5101
St Vrain Moving,501 S Francis St,Longmont,CO,80501,303-776-3166
Jim Seery Trucking,615 Maple Ave,Eaton,CO,80615,970-454-2579
"Wrightway Trucking, Inc.",2881 Cr F,Cortez,CO,81321,970-565-3703
Stephens Truckline,7th And Santa Fe,Fowler,CO,81039,719-263-4236
Frb National Transport,10200 W 44th Ave #432,Wheat Ridge,CO,80033,303-233-0800
Timberline Express,P O Box 1415,Buena Vista,CO,81211,719-539-3935
G A Cabana,6795 Brighton Blvd,Commerce City,CO,80022,303-287-1575
Foster Sales And Service,25793 Cr P,Dolores,CO,81323,970-565-3613
Sallee Trucking,700 Front St,Arriba,CO,80804,816-358-4265
Rakhra,10719 Co Rd 5 S,Alamosa,CO,81101,719-589-5882
All Points Transportation,15240 W 48th,Golden,CO,80403,303-279-1846
Motom Transport,124 Ponderosa Dr,Sterling,CO,80751,970-522-1534
Knedler Trucking,9959 E Peakview Ave #g-103,Englewood,CO,80111,303-427-0992
Medco Marketing,1106 North County Road 100,Alamosa,CO,81101,719-339-3838
Bens Better Transportation,7931 Stuart St,Westminster,CO,80030,303-429-8735
Fred Ardrey Trucking Co,7411 Hwy 196,Lamar,CO,81052,719-336-3203
Action Mobile Home Transport,3925 S Hwy 85/87,Colorado Springs,CO,80911,719-390-1316
K-v Transportation LLC,122 4th Street,Kersey,CO,80644,970-353-5180
Sidney D Lloyd Trucking,3583 Grand Valley Canal Road,Grand Junction,CO,81526,970-250-8217
Mccargar Trucking,33685 Hwy 134,Toponas,CO,80479,970-638-4274
Mikes Trucking,4417 Timberline Rd,Fort Collins,CO,80525,N/A
Lht Trucking LLC,13565 Cr 78,Towner,CO,81071,719-727-5300
Kalblinger Refrigerated Transportation,986 2nd St,Berthoud,CO,80513,970-669-2117
D B Ward Trucking,725 Hover Rd,Longmont,CO,80501,303-579-0999
K-j Gunn Trucking,802 Jack St,Manassa,CO,81141,719-843-5657
"Custom Delivery Systems, Inc.",2400 S Kearney St,Denver,CO,80222,303-753-1668
Haiston Oil Co,335 S Summit View,Fort Collins,CO,80504,970-482-8053
Patrick's Trucking,2200 Oakland Street,Aurora,CO,80010,303-343-9318
B T Companies,2600 East Platte Place,Colorado Springs,CO,80909,719-635-5659
Jim Young Enterprises LLC,272 43zs Road,Norwood,CO,81423,303-327-4845
George Lemmons Trucking,7076 Olive St,Commerce City,CO,80022,303-288-5983
Ray Stumpff Trucking,860 W 132nd Ave #222,Denver,CO,80234,303-288-5969
Gary Sporhase Trucking LLC,305 S Walsh,Holyoke,CO,80734,308-289-6128
Silver Rodo Express,4740 E 129th Cr,Thornton,CO,80241,N/A
D & G Trucking,8850 Lane 10 N,Hooper,CO,81136,719-378-2424
Expedite Express Systems,3296 Geneva St,Denver,CO,80231,N/A
Mjb Trucking,136 Ash St,Denver,CO,80220,303-333-2803
Western States Distributors,5045 Oakland St,Denver,CO,80239,303-371-4700
John A Barnhouse,6000 County Road 203 # 43,Durango,CO,81301,970-764-4729
F & D Trucking,3919 State Street,Evans,CO,80620,970-330-7368
"Service Trucking, Inc.",4412 E Mulberry #210,Fort Collins,CO,80524,970-482-8417
"Edco, Inc.",4201 S Navajo St,Englewood,CO,80110,303-761-6060
J D Express,713 Grand Ave #15,Platteville,CO,80651,N/A
J & L Cozad Trucking,42875 Wcr 37,Ault,CO,80610,970-834-1629
Sparlin Trucking,10220 62 Co Rd,Montrose,CO,81401,970-249-5173
H & R Trucking,7225 S Pennsylvania St,Littleton,CO,80122,303-789-5706
Peterssen Trans Ltd,Po Box 3364,Estes Park,CO,80517,307-742-3200
B & M Auto Transport,194 S Willow Ct,Broomfield,CO,80020,N/A
Jbs Distribution,1770 Promontory Circle,Greeley,CO,80634,720-322-2477
Let's Go Trucking,5651 S 106 Rd,Alamosa,CO,81101,719-588-7056
Afs,7310 Turkey Rock Rd,Littleton,CO,80125,303-986-0122
Rocky Hills Express,1695 Watkins Rd,Watkins,CO,80137,303-981-0973
Freight Damaged Furniture And Furniture Junction,119 Bower Avenue,Palisade,CO,81526,970-464-0453
Wilson Trucking,29254 Cr 35,Wray,CO,80758,970-332-4947
Jacobsen Harvesting,55143 Cr Dd,Burlington,CO,80807,719-346-7547
Gardner Trucking,1705 Concord,Fort Collins,CO,80526,970-484-9186
Eagle Transportation Co,Po Box 34,Watkins,CO,80137,N/A
Ugly Trucking Co,15334 Cr 18,Fort Lupton,CO,80621,303-536-9520
Hindmarsh Trucking,13724 Country Rd 28,Dolores,CO,81323,970-565-1198
Knupp LLC,36 Alder Court,Parachute,CO,81635,970-285-7611
Gary R Neal Trucking,17923 Cr W,Fort Morgan,CO,80701,970-867-5532
K & D Trucking,10049 Scenic View Dr,Rye,CO,81069,719-676-3780
"Llg Trucking, Inc.",5636 S Sycamore,Littleton,CO,80120,303-761-1637
You Pack We Drive LLC,1860 Lincoln Suite 110,Denver,CO,80295,877-751-0373
Duroux Trucking,526 36 3/4 Rd,Palisade,CO,81526,970-464-5182
Asbestos Transport Systems,5780 Hooker Street,Denver,CO,80221,303-433-0641
Rich Gareis Trucking,21041 Cr 34,Sterling,CO,80751,303-522-5125
Western Freightways,6540 Washington Street,Denver,CO,80229,303-287-0999
Roys Diesel Services,506 O St #2,Greeley,CO,80631,970-356-5846
G & R Trucking,5713 Zephyr St,Arvada,CO,80002,303-425-6659
S & H Trucking,619 Jackson Rd,Clifton,CO,81520,970-434-4851
Helicopter Roundup Service,60285 Hwy 318,Maybell,CO,81640,970-272-9931
Equipment Savers Fleet Services,5040 Havana St,Denver,CO,80239,303-373-3900
Mountain Air Drilling Service,2466 Commerce Blvd,Grand Junction,CO,81505,970-243-5295
Rule Trucking,26202 Cr L,Cortez,CO,81321,970-565-0959
Ricks Transportation,721 S 7th,Grand Junction,CO,81501,970-243-9594
G W Trucking,10 Bonny Dr,Burlington,CO,80807,N/A
K & S Trucking,47989 Cr 46,Yuma,CO,80759,970-848-5669
"Long-haul Trucking, Inc.",2387 Leland Ave,Grand Junction,CO,81505,970-254-8590
Lakin Express,5800 Franklin Ste 202e,Denver,CO,80216,N/A
Hub Transportation Brokers,1772 S Elkhart St,Aurora,CO,80012,N/A
Schmidt Transportation,7987 Quitman Street,Westminster,CO,80030,303-289-4217
L T C Trucking Co,7335 Tennyson #4,Westminster,CO,80030,303-650-9890
Valdez Trucking LLC,38150 Hwy 350 E,Trinidad,CO,81082,719-846-9493
J L G Trucking,16100 Penrith Rd,Keenesburg,CO,80643,303-732-7308
Mctruck's,1072 E 130th Pl,Thornton,CO,80241,303-457-4002
Gazelle Fine Art Services,1800 Boulder St #b,Denver,CO,80211,N/A
Sweet Creek Trucking,100 23rd St Se,Loveland,CO,80537,970-669-1830
Chharlli Transport,14539 Andrews Dr,Denver,CO,80239,N/A
Dms Trucking,11721 Jackson St,Denver,CO,80233,303-286-7566
L & R Trucking,210 Cr 9 S,Alamosa,CO,81101,719-589-5344
Auto Carrier Express,7090 W 29th Pl,Lakewood,CO,80215,303-232-4874
"Hall Interstate Transportation, Inc.",865 S Quebec St #304b,Denver,CO,80231,N/A
Blue Bolt Transport,2750 Janitell Rd,Colorado Springs,CO,80906,719-540-8091
Arikaree Express,Rt 1 Box 48,Lucerne,CO,80646,913-298-3479
Kinnett Trucking,508 N 4th,Olathe,CO,81425,970-323-5146
Depps Transportation,22668 County Rd S,Dolores,CO,81323,970-564-0186
South County Trucking,28189 Cr 5,Flagler,CO,80815,719-383-2374
Dollar Wise Moving,6969 Roaring Springs Ave,Fountain,CO,80817,719-391-8196
Wehner Trucking,2744 Kittyhawk Road,Colorado Springs,CO,80920,719-599-0804
Sky Transport,328 S Xanadu St,Aurora,CO,80012,N/A
Cody Trucking Co,622 Central,Wiggins,CO,80654,N/A
"Stugart Enterprises, Inc.",2600 2nd Ave,Greeley,CO,80631,303-353-3661
Glory Transportation,33040 Railroad Ave,Lucerne,CO,80646,N/A
Brian Cleaveland Trucking,27259 Cr M,Dolores,CO,81323,970-565-7682
Ed Vigil Trucking,8191 Quebec St,Commerce City,CO,80022,N/A
American Transit,304 1/2 S Ogden St,Denver,CO,80209,303-722-5444
Pnyac,12729 Hwy 151,Ignacio,CO,81137,970-883-2354
Lafleur Trucking,319 5th St,Windsor,CO,80550,N/A
Hot Shot Services,1510 Mesa Verde,Cortez,CO,81321,N/A
Late Nite Trucking,23470 Cr Ll,Hasty,CO,81044,N/A
R C Trucking,6883 Peppertree Dr,Niwot,CO,80503,N/A
R & S Trucking,Po Box 143,Bethune,CO,80805,719-346-8766
"Kangaroo Express Of Longmont, Inc.",2130 N Main St #13,Longmont,CO,80501,303-678-1714
Boyd Evans Trucking,7010 Holly St,Commerce City,CO,80022,N/A
Transmac,304 1/2 S Ogden St,Denver,CO,80209,303-722-5444
Schriner Trucking,54795 E Bobcat Ln,Strasburg,CO,80136,N/A
Eagle Investment LLC,6041s Syracuse Wy Bldg 2 #220,Greenwood Village,CO,80111,N/A
"Mccomb Brothers Trucking, Inc.",20950 Cr 20,Lewis,CO,81327,970-882-7578
Norton Trucking,10151 Hwy 14,Ault,CO,80610,970-356-8660
Cliff Ricketts Trucking,993 Hwy 85,Brighton,CO,80603,303-478-0916
Casey And Will Truck Operations LLC,2844 Arbor Drive,Evans,CO,80620,970-819-6098
Summit Transport,4103 Greens Place,Longmont,CO,80503,303-885-8249
Quality Enterprise LLC,24885 Timothy Rd,Cedaredge,CO,81413,970-497-2576
R D J Transport LLC,6990 Olive St,Commerce City,CO,80022,720-495-3485
Holloway Enterprises LLC,2000 Biron Road,Montrose,CO,81401,970-417-1128
Cargoal LLC,2343 S Vaughn Way Ste 412,Aurora,CO,80014,630-464-3710
Realtime Transport,9905 Pine Valley Dr,Franktown,CO,80116,303-663-1435
"Bb Trans, Inc.",4818 Ireland Ct,Denver,CO,80249,303-522-2236
"J Peek Promotions, Inc.",25795 Williams Ln,Pueblo,CO,81006,719-543-3266
Mcdonald Enterprises,1466 E 12th Street,Rifle,CO,81650,970-625-8701
Ilar LLC,5652 S Rome St,Aurora,CO,80015,412-352-0137
Rosa Lidia Rosales Cardona,8511 Crescent Dr,Westminster,CO,80031,303-246-8087
Brijido Dela Trinidad,12985 E 55th Ave,Denver,CO,80239,303-435-0020
"R J R Highland, Inc.",8944 Lander St,Westminster,CO,80031,303-489-8900
American Carrier LLC,2074 Village Dr,Milliken,CO,80543,970-978-8149
Roger Edwards,10024 Gwendelyn Ln,Highlands Ranch,CO,80129,720-350-4372
"Iron Horse Trucking, Inc.",49204 East Dorado Place,Bennett,CO,80102,213-725-1613
Atos LLC,15557 Olmsted Pl,Denver,CO,80239,720-298-1393
Fresh Tracks Transportation,Po Box 4503,Breckenridge,CO,80424,970-453-4052
Sergios Trucking LLC,8323 Fox St,Denver,CO,80221,303-907-0167
Quality Bagging LLC,1716 North Main Street Suite A,Longmont,CO,80501,303-776-5252
Alpine Trucking LLC,5460 Ward Road Ste 125,Arvada,CO,80002,303-674-1520
"Jlh Welding And Repair, Inc.",Po Box 23002,Glade Park,CO,81523,970-985-0339
Black Gold Hot Shot LLC,1301 S Chestnut St,Cortez,CO,81321,970-570-9125
Joe Nelson Colletti Jr,5770 S I -25,Pueblo,CO,81004,719-371-6880
D-n-d Transportation,35594 Cty Dd75,Wray,CO,80758,308-672-8312
Justice Brohers Trucking,3518 F Road,Clifton,CO,81520,970-210-3995
Muro''s Services Plus,736 Winnepeg Drive,Colorado Springs,CO,80910,805-980-3527
D&l Packard Farms LLC,14318 Cr 14,Pritchett,CO,81064,719-523-4725
Timmie''s Enterprise,9551 Dorothy Blvd,Thornton,CO,80229,720-448-4727
Chris Blecha Farms,320 South Cedar Street,Yuma,CO,80759,970-630-5720
Triple B Treescapes,73 E Birch Hills Dr,Pueblo West,CO,81007,316-243-0540
Big Belly Acres Trucking,34770 Weld County Road 39,Eaton,CO,80615,970-590-0811
Big T Trucking,1395 Live Oak Rd,Castle Rock,CO,80104,720-212-3206
"Padilla Express, Inc.",Cedar Ave,Denver,CO,80223,720-690-3249
Us Horse Transport,1720 York Ave,Canon City,CO,81212,719-429-7534
Trans-tek LLC,541 W 123rd Ave Apt 9108,Westminster,CO,80035,303-356-8559
Triple A''s Trucking,10761 Cook Ct,Northglenn,CO,80233,303-917-7649
Parties Made Simple,34235 Co Rd 31,Peetz,CO,80747,970-334-2337
Burrito Kitchens Enterprises,505 Weaver Park Rd Unit A,Longmont,CO,80501,720-652-9000
Pagosa Satellite Tours,581 Rainbow Drive,Pagosa Springs,CO,81147,970-426-8913
Transportes Guerrero,929 Marmot Ct,Longmont,CO,80504,303-588-8670
Shimon Trucking,3712 Yosemite Dr,Greeley,CO,80634,970-310-1684
Trails End Tranpsort,32556 County Road 30,La Junta,CO,81050,719-853-6652
Edj Trucking,1001 Kerr Street,Eads,CO,81036,719-688-8752
Bavarian Bakery,613 Frontage Road,Longmont,CO,80501,303-678-1014
F Maldonado Trucking,2614 Apple Avenue,Greeley,CO,80631,970-353-2819
Commercial Transportation,305 Karr Rd,Colorado Springs,CO,80916,719-310-6408
Bigtcycle,1881 S Broadway,Denver,CO,80210,720-242-8030
Tiger Transport Co,3510 Congress St,Montrose,CO,81401,970-901-1019
Rick's Plumbing,56 Tierra Casa Dr,Pueblo,CO,81005,719-561-8906
Kgm,8090 Linvale Pl,Denver,CO,80231,303-745-1688
Airport Transport,19733 E 55th Place,Denver,CO,80249,720-297-7963
Fr,8802 Kent St,Westminster,CO,80031,720-842-2123
Sherling Trucking,10375 Wcr 118,Carr,CO,80612,970-518-5725
Wallace Enterprises,23358 Cr 30 1,Boncarbo,CO,81024,719-845-0105
Good Health Cleaning,360 14th St,Burlington,CO,80807,719-346-7579
Triple A Gutters,1000 Hemmingway Ave,Lamar,CO,81052,719-688-1517
5280 Wine Tours LLC,17552 E Whitaker Dr,Centennial,CO,80015,720-364-9613
Padilla Landscaping & Lawn Services,7095 Raleigh St,Westminster,CO,80030,720-675-2476
Quinones Trucking,80 South 13th St Lot # 9,Burlington,CO,80807,719-342-0107
Ci Industrial,1302 Lancaster Ave,Fort Lupton,CO,80621,720-231-9184
Bison Creek,9265 Stuart St,Westminster,CO,80031,720-496-8524
Ti Trucking,270 Round Mountain Road,Westcliffe,CO,81252,719-371-3153
Xpress Mobile Storage LLC,1129 East Carollina Av #3,Fruita,CO,81521,970-231-0554
Reeder Trucking,544 20th Street,Delta,CO,81416,970-275-2912
Lluvias Auto,3701 E 50th Ave,Denver,CO,80216,303-382-1998
"Colorado Built Manufacturing, Inc.",150 East Rose Ave,Burlington,CO,80807,719-346-5565
Zellitti Farms,781 County Rd 302,Durango,CO,81303,970-247-8071
Garrhs Heating & Cooling,721 Turner Drive,Durango,CO,81303,970-259-5579
Jl Hernandez Trucking,1933 Lansing St,Aurora,CO,80010,720-998-4733
Ats LLC,1963 Jasper Street Unit A,Aurora,CO,80011,303-810-8266
Mercedes-benz Of Westminster,10391 Westminster Blvd,Westminster,CO,80020,303-410-7800
Big West Transportation,4005 South Huron Street,Englewood,CO,80110,303-761-7079
Soehner,26875 County Road 9-1,Idalia,CO,80735,970-380-1856
Fugate Trucking,8445 Bluegrass Circle,Parker,CO,80134,303-346-8756
Prime Time Productions,14760 Cr 6,Fort Lupton,CO,80621,303-857-4810
"Cornerstone Concrete, Inc.",1096 Haybarn Hill Rd,Estes Park,CO,80517,970-586-6744
Mh Tools Dba Cornwell Tools,3120 Chase Drive,Fort Collins,CO,80525,970-817-1812
Carreon Transports,129 E 22nd Street,Loveland,CO,80538,970-308-2938
Carreon Transports,129 E 22nd St,Loveland,CO,80538,970-308-2938
Tyt Trucking,3805 Goodell Lane,Fort Collins,CO,80526,970-218-7795
Midnight Trucking LLC,16518 E Wesley Ave,Aurora,CO,80013,720-936-7748
Landscape,4705 E Louisiana Ave 203,Denver,CO,80246,303-257-0913
A R S Construction,1034 Beulah Ave,Pueblo,CO,81004,719-595-9431
Loading Associates,4401 Lancaster Dr,Colorado Springs,CO,80916,719-404-2706
Creek Bottom Carriers,76898 County Road B,Holly,CO,81047,719-727-4038
S & J Trucking,30584 Mountain View Trial,Kiowa,CO,80117,720-438-9480
Mountain Wood Supply,1303 1/2 Esty Lane,Gunnison,CO,81230,970-641-9663
Horizon Quarter Horses,31501 Hwy 52,Keenesburg,CO,80643,303-732-0616
Van Guard Transport LLC,128 Talon Circle,Silverthorne,CO,80498,000-000-0000
Red Rocks Hot Shot,2317 Grand Park Dr Unit 1-a,Grand Junction,CO,81505,970-234-1619
Bruces Machinery,13855 Deere Court,Longmont,CO,80504,970-535-6251
Vw Ellithorpe,Box 489,Center,CO,81125,719-754-3649
Saucedo & Son Trucking,12989 Wcr 8 1/2,Fort Lupton,CO,80621,720-232-2309
Tom Sharpe,1227 M 3/4 Road,Loma,CO,81524,970-261-3528
E And E Transport,13927 6760 Road,Montrose,CO,81401,970-209-4583
Me Davis Transportation LLC,14567 E 45th Ave,Denver,CO,80239,720-427-2046
Ms Transport,4860 Ironton Street,Denver,CO,80239,720-529-9743
Bht,20417 East Dartmouth Drive,Aurora,CO,80013,720-323-8778
Animas Transportation,189 St Andrews Circle,Durango,CO,81301,970-259-1315
Rtc Restoration And Renovation,1610 Tennessee Street,Loveland,CO,80538,970-663-3400
J & J On Time Trucking,2303 S Benton Ct,Lakewood,CO,80227,303-922-6344
Pats Trucking & Pickle Co,1597 Main St,Strasburg,CO,80136,720-202-9487
Escobar Company,5460 Heartland St,Arvada,CO,80002,720-225-8128
Dippin' Dots Ice Cream,606 Hudson Bay,Grand Junction,CO,80504,970-241-3064
Alpha Shuttle,12 S Nome Stunit F,Aurora,CO,80012,720-327-6735
5 J's Ranch,7290 Hwy 287,Campo,CO,81029,719-787-2443
5 J's Ranch,7116 Hwy 287,Campo,CO,81029,719-787-2443
A Aces Auto Transportation LLC,370 W 1st Ave,Broomfield,CO,80020,303-619-2686
Kansas,2708 E 11st,Pueblo,CO,81001,719-244-3569
Circle Dl Ranch LLC,68820 East County Road 38,Byers,CO,80103,303-822-9408
Western Property Management,10450 S Progress Way Suite A101,Parker,CO,80134,720-201-7576
Dba Phillip Andrew Wolf,2892 Robinson Hill Rd Private Estate,Golden,CO,80402,303-456-5536
Tacos Michoacan,8181 Orchard Dr,Denver,CO,80221,303-406-8881
Mpk Trucking,2480 Doyle Rd,Pueblo,CO,81006,970-319-6252
Warrior Trucking,6924 Raleigh Street,Wellington,CO,80549,970-488-9271
Favela Implement And Metal Recycling,37977 County Road T 3,Eckley,CO,80727,970-630-6690
Read Trucking,14303 Cr 417,Weston,CO,81091,405-283-0698
Consolidated Builders,15155 Mcr 19,Fort Morgan,CO,80701,970-467-9253
Mc Trucking,4101 Crittenton Lane Unit 204,Wellington,CO,80549,435-851-3735
May Sky LLC,6733 Big Horn Trail,Littleton,CO,80125,303-249-0876
Kashayo Transportation,6401 Monroe St,Commerce City,CO,80022,720-556-9963
Ags Transportation LLC,1842a Parker Rd #21,Denver,CO,80231,303-923-3150
Tani Trucking,451 West Saddlerock Drive,Branson,CO,81027,719-989-1268
Advanced Hospitality Management Group,3737 Quebec St,Denver,CO,80207,303-388-6161
Crazy Carls Place,52026 Carnation Rd,Delta,CO,81416,970-314-0343
Special Touch Transportation LLC,3101 S Federal Blvd F-11,Denver,CO,80236,720-841-1299
Djk Transport,20345 Thunder Road East,Colorado Springs,CO,80908,719-244-1198
Green Giant Technologies,783 Valley Court,Grand Junction,CO,81505,970-255-1055
Sfservices,12200 E Highway 160,Pagosa Springs,CO,81147,970-264-0679
Plantorium Greenhouse,2933 West County Rd 54g,Fort Collins,CO,80524,970-482-9145
Roscoe's Iron & Metal,801 E 6th Ave,Springfield,CO,81073,719-523-4040
Big Panda Trucking,E 78th Dr,Thornton,CO,80229,720-234-9350
C & A Seamless Gutters,1708 35th Ave Court,Greeley,CO,80634,970-353-8542
Mesa Verde Tours,497 Hwy 172,Durango,CO,81303,970-247-8533
Myco Transport LLC,41180 Round Hill Circle,Parker,CO,80138,303-805-1922
Kokes Farms,36837 County Rd 79,Crook,CO,80726,970-253-5007
Gray Brothers,1646 Columbine Village Drive,Woodland Park,CO,80863,970-209-4877
Glantz Farms,333 Aspen Drive,Frederick,CO,80530,303-895-9207
Rose Energy,12083 Song Bird Hills St,Parker,CO,80138,303-731-9850
Saint Jude Transport,5250 W 53 Rd Lot 13,Arvada,CO,80002,214-643-0349
Kentner Farms,9475 W Cedar Ave,Lakewood,CO,80226,303-349-7280
Cvf LLC,14661 Harback Road,Keenesburg,CO,80643,303-229-4749
John Johnson Farms,34890 Rd 19,Fort Morgan,CO,80701,970-867-0279
Lone Star Energy,12083 Song Bird Hills Street,Parker,CO,80138,303-731-9850
Veazie Enterprises,1405 West 38th Place,Loveland,CO,80538,970-218-2808
This N That,7748 Canyon Oak Dr,Colorado Springs,CO,80922,719-358-7172
Total Remodel Contractor,852 E 20th St Lane,Greeley,CO,80631,970-430-2651
E D Transportation,17115 Cr 75 1,Trinidad,CO,81082,719-855-0880
J Braun Trucking,2411 Fenton Street,Edgewater,CO,80214,303-237-0458
Matt Andes,15847 Road 35 Period 3,Mancos,CO,81328,970-560-6097
Redstone Trucking,2719 Trenton Way,Fort Collins,CO,80526,970-231-6150
Vertical Transport,187 Rainbow Dr,Grand Junction,CO,81503,208-720-9394
S & S Asset Transportation,1337 Lisbon Dr,Parker,CO,80138,303-840-7971
Hot Shot Carrier,74 North Linda Vista Dr,Craig,CO,81625,970-629-8860
King Of Kings,1228,Paloma,CO,80906,909-985-8404
Gb Trucking,504 Willow Valley,Lamar,CO,81052,719-480-0989
Stockman Hot Shot And Trucking,442 Smallwood Dr,Clifton,CO,81520,970-434-1199
Roadrace Factory,8606 Se Frontage Road,Fort Collins,CO,80528,970-227-2385
T & W Hotshots,2110 Astoria Lane,Longmont,CO,80501,303-827-6192
Rocky Mountain Refrigeration,605 W 2nd St,Salida,CO,81201,719-207-0822
J C Services,7716 Vallejo,Denver,CO,80221,720-288-9415
Tlm,3921 Morning Glory Dr,Castle Rock,CO,80109,720-475-0351
All Star Express LLC,4121 Aspen Lane,Evergreen,CO,80439,303-726-1597
Rush Creek Ag LLC,1001 Hickman Street,Eads,CO,81036,719-688-2455
The Goods Shipping,15242 E Hialeah Pl,Aurora,CO,80015,720-252-6846
Anderson Trucking,105 Columbia Drive,Julesburg,CO,80737,308-289-5678
"Cherokee River, Inc.",767 Lincoln St,Burlington,CO,80807,719-346-5444
Servpro Of Archuleta Laplata Montezuma And San Juan Counties,463 Turner Dr Ste 101-a,Durango,CO,81303,970-259-6184
Carlton Farms,31101 County Rd 19,Lamar,CO,81052,719-931-0367
Lee R Sankey Transport,1 N Edison Road,Yoder,CO,80864,719-216-6884
Cm Private Shipping LLC,622 Pawnee St,Strasburg,CO,80136,303-906-3064
Cass Transportation,4657 Hoyt St,Wheatridge,CO,80033,720-474-3289
Brooks Welding And Fabrication,39565 Rcr 37,Hayden,CO,81639,970-846-4928
Rak Recovery,7673 Steward Lane,Colorado Springs,CO,80922,720-891-7376
Mountain Top Concrete,1035 Race St,Colorado Springs,CO,80904,719-330-0521
Crisa Towing,4500 19th St Lot 529,Boulder,CO,80304,720-226-1253
Struna Ranch,140 Myles Road,Hartsel,CO,80449,719-539-5803
Vaquero Trucking,14304 E Kentucky Pl Apt 305,Aurora,CO,80012,303-656-1215
Wheels On Wheels,6085 East 162nd Ave,Brighton,CO,80602,970-261-3874
R & K Logistics,21077 E 112th Ave,Commerce City,CO,80022,303-655-9879
Harris Transport,2236 Magnolia St,Denver,CO,80207,720-941-0166
J And R And Son's Transport,3200 S Federal Blvd 2-1,Denver,CO,80236,720-324-3148
S P T A,1100 10th St Ste #403,Greeley,CO,80631,970-304-9559
Trucking,1703 County Road 241,New Castle,CO,81647,970-984-0647
B C T,6182 Xavier St,Arvada,CO,80003,303-359-8636
Klueckman & Son Trucking LLC,11317 Bryce,Longmont,CO,80504,303-702-9971
Charlie Walton,306 Boogie Ct,Trinidad,CO,81082,719-214-6585
Paradise Beverages,316 N Main St,Fountain,CO,80817,719-382-5882
Lower Shipping Cost Technologies,5330 Fox St,Denver,CO,80216,303-746-2197
Marsh Farms,605 Smokey Trail Dr,Limon,CO,80828,719-775-0155
B D Kiser,516 Beaman Ave,Debeque,CO,81630,970-283-5349
South West Auto Towing,13181 N Highland Circle,Littleton,CO,80125,720-987-1697
Superior Shuttle,2395 Glencoe St,Denver,CO,80207,303-399-2812
Chisom Enterprises,10702 Pierson Street,Westminster,CO,80021,720-566-9795
Stormy Creek Stone Co,46272 Cr 29,Nunn,CO,80648,970-227-5534
Ingham,59842 E Mesa Rd,Olathe,CO,81425,970-323-0739
D R Wailes Company,232 Habitat Cr,Windsor,CO,80550,970-834-9669
The Redhead Ranch LLC,380 Aspen Lane,Pine,CO,80470,720-320-8125
A & D Enterprize LLC,12206 E 2nd Drive,Aurora,CO,80011,720-260-0715
G K D Trucking,2642 E 116th Ave,Thornton,CO,80233,720-289-7897
Dupont Towing Service,8141 Brighton Rd,Dupont,CO,80024,303-287-4766
Sugar Creek Ranch,446 Deerview Dr,Lake George,CO,80827,719-748-1210
Bergin Farms,1880 Circle Lane # 24,Limon,CO,80820,719-740-2279
M A H Ventures LLC,1410 101st Av Ct,Greeley,CO,80634,970-515-6803
Ace Executive Van Lines,9695 Brighten Road,Henderson,CO,80640,720-254-3281
Dc Enterprizes,3648 E 88th Circle North,Thornton,CO,80229,303-853-0611
Cook's Towing,411 N 12th,Lamar,CO,81052,719-336-3205
