Company Name,Street Address,Address Locality,Address Region,Postal Code,Telephone
Jim Fahey Moving And Storage,45 Webster St,Fairfield,CT,06824,203-255-5845
Aztek Trucking,176 Gridley St,Bristol,CT,06010,860-299-5443
Trafco Transports,96 Belair Dr,New Milford,CT,06776,860-921-4126
Lmp Moving,27 Highridge Road,New Britain,CT,06503,860-622-1618
Earth Turf & Snow,103 Brook St,Noank,CT,06340,860-204-7203
Jk Transport,383 Norfolk Rd,East Canaan,CT,06024,860-453-4034
Performance Logistics,445 Mckinley Avenue,Stratford,CT,06615,203-377-6660
Cl Maintenance & Services Co,19 Roosevelt Street,Hartford,CT,06114,860-796-1450
Jcb Interiors,914 East Main Street,Stamford,CT,06902,203-327-0450
Woods Restoration Services LLC,398 Stamm Rd,Nesington,CT,06111,860-523-0027
Jmr Trucking Co,129 Connecticut Ave Fl 2,New Britain,CT,06051,860-348-7544
Tak Trans LLC,78 Hidden Valley,Meriden,CT,06451,860-331-0735
Rc Transport,827 Margaret Henry Rd,Sterling,CT,06377,860-564-7767
Flat Rate Moving & Trucking,2 Mountainview Terr,Danbury,CT,06810,888-693-0009
Ej Moving Co LLC,19 Fairfield Ave,Danbury,CT,06810,203-885-5670
Tjs Transportation,826 Burlington Ave,Bristol,CT,06010,818-430-1656
Dans Mover,201 Notch Hill Rd,North Branford,CT,06471,203-488-1940
Watkis Express,52 Homestead Street,Manchester,CT,06041,860-432-8872
S & M Logistics,25 Leonard St Apt 8,Norwalk,CT,06850,203-866-7279
Eagle Transport,996 Meriden Waterbury Tnpk 4b,Plantsville,CT,06479,203-527-2835
Lowther Trucking,21 Milo Peck Lane,Windsor,CT,06095,N/A
College Educated Movers,7 Hiram Hill Rd,Monroe,CT,06468,203-261-9792
Rr Ultimate Transport,79 Park Ave Apt 101,Danbury,CT,06810,N/A
Porkys Distributors,300 Cold Spring Rd,Rocky Hill,CT,06067,860-748-0567
Am Pm Transport,15 Carolina Road,Stamford,CT,06902,203-363-0313
J A Trucking,20 Bliss St,East Hartford,CT,06108,787-361-9591
Hesco,277 Main St,Niantic,CT,06357,860-739-4446
E Moves Me,300 Coldspring Road #c110,Rocky Hill,CT,06067,860-593-5171
Bennett Trucking,33 Shephard Hill Road,Central Village,CT,06332,860-564-3943
J Brose Trucking,60 Newfield Ave,New Britain,CT,06053,860-505-0522
Rdb Transport LLC,94 Roxbury Rd,New Britain,CT,06053,860-202-5206
Boma's Trucking,109 West Morningside Street,Hartford,CT,06112,860-655-1966
Sunset Auto Sales,1223 Meriden Waterbury Tpke,Southington,CT,06489,203-410-4336
Boateng Trucking LLC,231 Ellington Road Apt#n,East Harford,CT,06108,860-816-2359
Moving Services,59 Unit 4 Ridge Road,Naugatuck,CT,06770,203-437-0122
Rainone Distributors,1 Eastview Dr,New Fairfield,CT,06812,203-746-1132
Stewart Express,1 Elliott Place,Hartford,CT,06114,860-995-0875
LLC,246 Spring St,New Haven,CT,06519,203-508-4170
Rt 66 Discount Auto Sales,576 Washington St,Middletown,CT,06457,860-346-7182
Billen Transport,20 Mountain Hill Rd,North Grosvenordale,CT,06255,401-480-3414
Jacek Gronkiewicz Trucking,8 Doyle Drive,Ansonia,CT,06401,203-543-1180
Pro Delivery,32m Weed Hill Ave,Stamford,CT,06907,203-554-7994
J Kyle Hoese & Livestock Transport,162 Hampton Ave,West Hartford,CT,06110,860-233-0883
Sound Beach Moving,11 Harding Rd,Old Greenwich,CT,06870,203-698-0170
Zielinski Family Moving & Removal,122 S Pomperaug Ave Suite 6b,Woodbury,CT,06798,N/A
Transportation,170f Brittany Farms Road,New Britian,CT,06053,860-505-0068
Northeast Carriers,366 Old Maple Ave,North Haven,CT,06473,N/A
Drm Transport,1832 Main Street,Glastonbury,CT,06033,860-368-8275
D & L Trucking,146 Newhall St,New Haven,CT,06511,203-752-0849
Distributer,249 Williamstown Court,Newington,CT,06111,718-490-0808
Kirbys Moving And Delivery,29 Robert Street,Bridgeport,CT,06606,203-449-7682
Fastlane Motor Carrier,548 Spring Street,Windsor Locks,CT,06096,860-831-0031
Julio Benitez,104 Long Ridge Rd,Danbury,CT,06810,203-616-5712
Wmw Trucking LLC,166 Homestead Avenue Apt 2b,Hartford,CT,06112,860-756-6016
Northwind 2 Trucking,393 South St,Brooklyn,CT,06234,860-774-1157
Elite3pl LLC,27 Banbury Lane,Bloomfield,CT,06002,860-216-4209
Star Boyz Trucking,84 Forest Street Apt C1,Hartford,CT,06105,305-397-3035
Jjjh Trucking,34 Rudden Lane,Colchester,CT,06415,860-227-0201
Dignity For Pets,1283 Whirlwind Hill Road,Wallingford,CT,06492,917-568-4563
Zf Bowman & Son Trucking,536 Levita Rd,Lebanon,CT,06249,860-237-0680
W And G Trucking,51 Day Street 2nd Floor,New Haven,CT,06511,203-535-1515
O'neill Trucking,60 Warfield St,Milford,CT,06460,203-874-3775
Airport Express Exec,106 Chestnutridge Rd,Bethel,CT,06801,203-791-9557
Bull Bag Elm City Services,"63 North Branford Rd, Unit 4",Branford,CT,06405,203-488-1377
Seaport Sealcoating And Striping,73 Montauk Ave,New London,CT,06320,860-536-6161
John & Sons Automotive,125 New Britain Ave,Hartford,CT,06106,860-247-6527
Flynns Motor Express,100 Smoron Court,Southington,CT,06489,860-276-0657
Pb & J Logistics,105 Grassyhill Road,Waterbury,CT,06410,203-757-1707
Connecticut Soapstone LLC,22 Vermont Dr,Willimantic,CT,06226,860-456-7627
Minors Trucking,24 Blueridge Rd Apt L4,Waterbury,CT,06704,203-757-5330
Tacede Express,85 Bedford Ave,East Hartford,CT,06118,860-622-9894
The Butlers,75 Melton Drive,East Hartford,CT,06118,860-519-5191
Gt Logistics,39 1/2 Wedgewood Drive,Jewett City,CT,06351,877-305-1503
Mjs Trucking,48 Sunny Lane,Oakville,CT,06779,203-525-2047
Rayindcis Transportation,99 Malikowski Circle,Bristol,CT,06051,860-335-3433
A Sedan Service & Limousine,55 High Gate Rd Suite A-2,Newington,CT,06111,860-995-8308
Frechette Logistics,25 Davis St,Putnam,CT,06260,401-349-2099
Pedal And Pull,58 Manor Dr,North Haven,CT,06473,203-525-1289
Fred's Truck & Trailer Service,211 Wauregan Road,Canterbury,CT,06331,860-546-6886
G & W Delivery Service LLC,83 Daniel Blvd,Bloomfield,CT,06002,860-306-2940
Ultimate Plant Care And Horticultural Services LLC,69 Downs Avenue,Stamford,CT,06902,203-406-0455
Jopro Trucking,44 Deerfield Dr,Oneco,CT,06373,860-564-7529
A C Trucking,100-104 Kent Ave 2nd Floor,Bridgeport,CT,06610,203-612-7124
Dave Trucking,2076 Boston Ave,Bridgeport,CT,06610,203-545-8521
L H R Trucking,206 Amenia Road,Sharon,CT,06069,860-364-5208
Advanced Auto Repair,207 Rt 44,East Canaan,CT,06024,860-824-5553
Auto Transport,48 Twining St,Plainville,CT,06062,860-681-5016
Arthur J Barry Jr,#4 Route 165 A,Preston,CT,06365,860-887-2682
Mansfield Auto,214 Stafford Road,Mansfield,CT,06250,860-423-4514
K C Gerard Trucking,45 Depietro Dr,East Hartford,CT,06118,860-568-4255
Pluas Transportation,639 Arch Street,New Britain,CT,06051,860-680-2342
Sj Trucking,328 Meadowbrook Ct,West Haven,CT,06516,203-747-6959
Gerard Delivery Service,154 Brittany Farms Road #b,New Britain,CT,06053,860-518-8258
Armstrong Moving And Storage,10 Turnberry Ln Unit 4,Sandy Hook,CT,06482,203-426-5773
Jose Miranda,955 Connecticut Ave # 4108,Bridgeport,CT,06607,203-870-4418
Jessica's Trucking,1560 Corbin Ave 1,New Britain,CT,06053,860-505-0428
Er Transport LLC,54 Moulton Court,Willimantic,CT,06226,860-786-7458
Coastal Trucking,50 Wells Street,Manchester,CT,06040,860-502-4166
Pozzato Trucking,204 Abbe Rd,Enfield,CT,06082,860-543-5117
Nordic Ewp Distribution,522 Cottage Grove Rd Bldg F,Bloomfield,CT,06002,888-667-3420
Brp Hauling,2 Nemczuk Drive,Norwich,CT,06360,860-822-8935
Olem Distributors,106 Bourbon Street,South Windsor,CT,06074,860-644-9584
Pt Trucking LLC,914 Forbes St,Easthartford,CT,06118,860-878-5698
Cargo Transportation,142 Bronx Ave,Bridgeport,CT,06606,203-368-6206
Kr Del Service,295 William Street,Bridgeport,CT,06608,203-673-2152
Steve's Express Co,44 E Morningside St,Hartford,CT,06112,860-286-9920
Kanter Auto Transport,248 Bedford Road,Greenwich,CT,06831,203-861-7020
Art Transportation LLC,360 Main St,Middletown,CT,06457,860-997-6643
De La Rosa Distributor,375 Pacific Street,Bridgeport,CT,06604,203-543-2081
3 Ed S Courier Service,4 Town Farm Rd,Woodstock,CT,06281,774-200-7693
Majid Trucking Company,277 W Spring St,West Haven,CT,06516,203-479-4304
Rocha Trucking,54 Locust Ave,Danbury,CT,06810,203-948-9602
Craters & Freighters,2100 Thomaston Ave,Waterbury,CT,06704,203-753-0303
Js Services,88 West St,Windsor Locks,CT,06096,860-490-1649
Beavex Moving & Storage,1 Corporate Drive,North Haven,CT,06473,203-234-9950
Stamford Volvo,107 Myrtle Ave,Stamford,CT,06902,203-359-2632
Setaro Moving Company,180 Sunny Valley Road,New Milford,CT,06776,860-355-3742
Cemino Trucking,13 Mercer Avenue,East Hartford,CT,06118,860-895-9493
Andy's Auto,824 Stanley Str,New Britain,CT,06051,860-223-3100
B & R Services L L C,66 Prospect Hill Rd,New Milford,CT,06776,860-350-2963
"North Haven Transportation, Inc.",332 Old Maple Avenue,North Haven,CT,06473,203-239-5037
Mlm Trucking,102 Jenks St,Oakville,CT,06779,860-274-2201
Rak'em Hauling,27 Sunset View,Griswold,CT,06351,860-376-4680
Id Mail Systems,180 Johnson Street,Middletown,CT,06457,860-344-3335
T & J Trucking,146 Woodland Street,Manchester,CT,06040,860-643-6841
L Avery Hauling & Installing LLC,171 Rathbun Hill Rd,Salem,CT,06420,860-859-0001
The Blue Truck Transport,3m Gregory Rd,Norwich,CT,06360,860-887-9620
Ms Trucking,11 Plumtrees Rd,Bethel,CT,06801,203-942-2955
Jandreau Trucking,23 Riverside Drive,Wallingford,CT,06492,203-284-3836
Metfin Shotblast Systems,19 Kenny Roberts Memorial Dr,Suffield,CT,06078,860-668-1050
Streamline,2132 Middlebury Road,Middlebury,CT,06762,203-596-9888
The Beverage Dude,1337 Main Street,Stratford,CT,06615,203-520-7123
Vanguard Moving & Storage,22 Eagle Hill Rock Rd,Bethel,CT,06801,203-798-6060
S & A Trucking,1237 Silver Lane,East Hartford,CT,06118,845-527-0650
Mfs Trucking,8 Balmforth Ave 1fl,Danbury,CT,06810,203-948-9139
Sacs Limo,154 Acorn Ave,Bridgeport,CT,06606,203-396-0277
Oswald P Hayes,158 Forest Street,Manchester,CT,06040,860-533-0142
Rb Transportation,37 Booth Road,Enfield,CT,06082,860-670-3718
Bromella Transport,133 Brookline Ave,Bloomfield,CT,06002,860-881-7851
Vivaldo Moutinho Neto,6 Grant Pasture Rd 2floor,Danbury,CT,06810,203-943-2181
Da Trucking,188 Osborne St,Danbury,CT,06810,203-744-3430
A Ojeda Trucking,154 Columbus Ave,New Haven,CT,06519,203-776-0686
B K - Delivery,157 Rutledge Rd,Wethersfield,CT,06109,860-571-0123
Roman Transport,60 Sexton St,New Britain,CT,06051,860-259-5270
Central Mazda,96 Lathrop Road,Plainfield,CT,06374,860-564-4014
Trucking,33 Banfield Lane,Bloomfield,CT,06002,860-983-4276
T & S Movers LLC,672 Noble Ave,Bridgeport,CT,06608,203-335-1533
3c's Trucking,294 Putnam Pike,Dayville,CT,06241,860-779-0561
Affordable Services Trucking,57 Stillwater Avenue,Stamford,CT,06902,203-564-6026
Barbosa Trucking,224 Sawmill Hill Rd,Danielson,CT,06239,860-774-3980
Deleon Transport,39 West Street,New Britain,CT,06051,860-402-3398
Gbs Warehouse,302 Wilson Ave,Norwalk,CT,06854,203-831-8414
Wrs Trucking,55 Coalpit Hill Road # 3,Danbury,CT,06810,203-791-8117
Tony Trucking,190 Plain Drive,East Hartford,CT,06118,860-281-6011
Express Trucking,12 Newfield Ave,Hartford,CT,06106,860-490-6022
Bsg Transport,146 Gallup Hill Rd,Ledyard,CT,06339,860-383-0181
Santa Relocation LLC,1422 Corbin Avenue #1,New Britain,CT,06053,860-223-4148
Rj's Trucking Company,1175 South Broad Street,Wallingford,CT,06492,203-265-2293
Stahl Auto Transport,229 Avery St,South Windsor,CT,06074,860-432-4296
Poitras Trucking,23 Skyview Terr,Groton,CT,06340,860-446-2687
Kutzs Service LLC,145 Pulaski Hwy,Ansonia,CT,06401,203-735-9716
Paul's Heavy Haul Transport,62 Holly Place,Monroe,CT,06468,203-822-8828
Rosario Trucking,89 Ridgewood St,New Britain,CT,06053,860-225-3095
Chemstation New England,1496 John Fitch Blvd,South Windsor,CT,06074,860-291-2863
Barone's Limo Service,74b Riverbend Road,Stratford,CT,06614,203-378-9465
East Haven Auto Sales,556 Main St,East Haven,CT,06512,203-467-6325
Omeara Trucking,200 Main St,East Windsor,CT,06088,860-627-8102
Swaim's Trucking,15 Davis St,Danbury,CT,06810,203-778-8262
J And M Transport,97 Prospect Pl Ext,East Haven,CT,06512,203-467-8893
Indian Neck Service Station,98 Indian Neck Ave,Branford,CT,06405,203-488-2450
Excavation & Maintenance Service,1 Island Hill Ave,Ridgefield,CT,06877,203-894-1122
Kent & Son Trucking,360 Race Hill Rd,Guilford,CT,06437,203-457-1498
Park City Freight Forwarders,1052 Connecticut Ave,Bridgeport,CT,06607,203-345-1819
H S Trucking,76 Meadowbrook Court,West Haven,CT,06516,203-937-9708
Father And Son Moving & Storage,346 Quinnipiac Street #2,Wallingford,CT,06492,203-269-5800
Nate's Trucking Co,270 West St,Bristol,CT,06010,860-514-6830
T N Transportation,339 River Rd,Willington,CT,06279,860-429-7083
Laurita's Distributor,3851 Main Street,Bridgeport,CT,06606,914-939-5810
H Bailey Trucking,19 Longview Rd,Shelton,CT,06484,203-929-8523
Brittany Farms Health Center,2150 Corbin Avenue,New Britain,CT,06053,860-223-2761
Mulkerin Dairy Distr,85 Mead St,Stratford,CT,06615,203-377-8517
M & D,417 Mashamoquet Road,Pomfret Ctr,CT,06259,860-974-3775
Rainbow Transport,80 Haig Ave,Stamford,CT,06905,203-973-0898
Fredrick's Trucking,232 Matthews Street,Prospect,CT,06712,203-758-7520
S R S Transportation,306 East Quasset Road,Woodstock,CT,06281,860-974-2168
Affordable Dumpster Service,57 Marbern Dr,Suffield,CT,06078,N/A
Amelia Trucking Co,370 Candlewood Lake Rd #1,Brookfield,CT,06804,203-775-6492
Executive 2000 Taxi,11 Alcap Ridge Suite D,Cromwell,CT,06416,860-635-8555
Earth Soil Services LLC,35 Holbrook Road,Seymour,CT,06483,203-888-4190
J Wolfe Trucking,145 Poppleswamp Road,Cornwall Brg,CT,06754,860-672-0108
Professional Car Service,1358 Boston Post Road,Darien,CT,06820,203-981-8165
F&j Trucking,8 Karin Dr,Plainfield,CT,06374,860-564-8762
M Borsey Trucking,128 Waterbury Ave,Stamford,CT,06902,203-964-1075
New Canaan Moving & Storage,209 Center Street,Bridgeport,CT,06604,203-330-0020
M M Trucking,26 Sheridan St 2nd Floor,Danbury,CT,06810,203-730-0314
Mighty Auto Parts Of Ct,202 New Britain Road,Kensington,CT,06037,N/A
W R J Trucking,195 Ann Ave,Mystic,CT,06355,860-536-0585
Justice Express,60 Orchard St Apt 4,East Hartford,CT,06108,860-282-9769
I G W T Trucking Co,62 Ensign Street,East Hartford,CT,06118,860-568-4614
Mob Runner Express,404 Willow Street,Waterbury,CT,06710,203-759-0136
Jam Trucking,204 Chesterwood Terrace,Southington,CT,06489,860-620-1793
Lazz Enterprises,109 Newington Ave,Hartford,CT,06106,860-953-5772
Copson Trucking,6 Hickory Lane,Bloomfield,CT,06002,860-241-0568
Smith Trucking,81 Lebanon Street,Hartford,CT,06112,860-769-0524
High Point Transport Service,135 Norwich Avenue,Norwich,CT,06360,860-886-2940
Kie -edwards Moving,7 High St,Collinsville,CT,06019,860-693-9789
Worthington Trucking,467 Hartford Road,Brooklyn,CT,06234,860-774-3913
E C S,1050 Bridgeport Ave Suite C,Milford,CT,06460,203-877-2036
Silvester Trucking,119 Shawnee Rd,East Hartford,CT,06118,860-568-9556
Freds Marine Transport,56 Wakelee Ave Ext #24,Stratford,CT,06615,203-378-1258
Machnik Trucking,8 Machnik Drive,Old Lyme,CT,06371,860-662-6102
Silco Transportation,80 Salem Walk,Milford,CT,06460,203-874-1585
Jireh Transports,640 Maple Street,Bridgport,CT,06608,703-332-9051
Dcc Auto Parts,7 Singing Woods Road,Norwalk,CT,06850,203-840-0822
Mt Express,23 Nollet Rd Apt 2,Mansfield Ctr,CT,06250,860-645-1203
Chubby's Transportation,173 Otis St,Stratford,CT,06615,203-378-1493
P I C Transport Lines,779 Platt St,Bridgeport,CT,06606,203-374-6396
Wilder Auto Transport,40 South Road,Somers,CT,06071,860-749-1583
Casasola Trucking Co,37 Eaton St,West Haven,CT,06516,203-865-5545
Gilbert Trucking Co LLC,26 Richard Road,East Hartford,CT,06108,860-528-5276
R & L Cady Transportation,352 W Minster Rd,Canterbury,CT,06331,860-546-6595
M Crosier Trucking,21 Rankin Ct,Uncasville,CT,06382,860-367-0041
Legacy Transport,130 Midwood Ave,Wolcott,CT,06716,203-509-5505
J & A Trucking,93 West Prospect St,West Haven,CT,06516,203-931-1738
Bar-1 Moving & Delivery,22 Seymour Road,Woodbridge,CT,06525,203-783-0605
Herb's Pallet Service,24 Grove Street,Rockville,CT,06066,860-805-0911
Greenwich Gulf,111 West Putnam Ave,Greenwich,CT,06830,203-869-7860
Eric's Express,90 Kane Street Unit D3,West Hartford,CT,06119,860-977-3789
F & F Trucking,179 Lucille St # 1,Waterbury,CT,06708,203-759-0882
Steve Anderson Trucking,32 Jackson Road,Bloomfield,CT,06002,860-286-0273
Jpr Trucking LLC,15 Deer Run Rd,Clinton,CT,06413,203-988-4253
Marques Trucking,193 Savoy St,Bridgeport,CT,06606,203-396-0869
Harris Express,12 New Field Ave,Hartford,CT,06106,860-306-1462
Stillman Auto Sales & Service,670 Wordin Avenue,Bridgeport,CT,06605,203-366-1300
Ambassador Limousine,1 Riverside Dr,East Hartford,CT,06118,860-569-5656
Connecticut Auto Rescue,2 Wall Street,Bolton,CT,06043,860-604-0052
Chacon Trucking,44 Nacca Rd,West Haven,CT,06516,203-934-7841
Lgs Group Transport,1160 Tolland St,East Hartford,CT,06108,860-290-8902
Pierce Trucking,10 Root Road,Coventry,CT,06238,860-742-6568
Nova Transport,14 Buckley Hill Road,North Grosvenordale,CT,06255,860-923-9626
L R Express,4 Running Brook Dr,Waterbury,CT,06704,203-596-7248
Daniel J Kennedy Transportation,105 Wyndemere Court,South Windsor,CT,06074,860-644-0253
Boss Trucking,178 Roosevelt St Fl E,Hartford,CT,06114,773-551-0430
Constable Recovery Services,5 Mill Street,Enfield,CT,06082,860-749-7910
Samuel Andre Trucking,761 East Street,Suffield,CT,06078,860-668-0206
Fujis Rising Sun Express,720 Thompsonville Rd,Suffield,CT,06078,860-668-0206
Rooster Trucking LLC,2 Longworth Ave,Middletown,CT,06457,860-344-1870
Ksn Trucking,2j Lathrop Ln,Rocky Hill,CT,06067,860-563-9756
D & D Transport,865 Burnside Ave,East Hartford,CT,06108,860-206-3483
Fox Transport,14 Backley Hill Rd,North Grosvenordale,CT,06255,860-923-9626
Jw Express,21 Thompson Road,East Windsor,CT,06095,860-778-5998
Nva Trucking,11 Ken Oaks Drive,Danbury,CT,06810,203-730-1856
S & B Heavy Hauling,20 Haltenius Street,Plainville,CT,06062,860-793-1600
Chiaccio Distributors,548 Tollgate Rd,Groton,CT,06340,860-448-3225
Gtc Transport,3 Elm St,Terryville,CT,06786,860-585-7841
Lightning Transportation,159 Butts Rd,Woodstock,CT,06281,860-928-7177
Howard Trucking,52 Daniel Blvd,Bloomfield,CT,06112,860-242-1432
Thomas Express,17 East Morningside St,Hartford,CT,06117,860-869-1510
M B M Express,31 Muir Terrace,Southington,CT,06489,203-271-2063
Raceway Transport,264 Seymour St,Stratford,CT,06615,917-756-1232
Jstr Transport,129 Sunnyslope Drive,Southington,CT,06489,860-770-8040
Bekka Transport,31 Summit Road,Prospect,CT,06712,203-758-6575
Shaqir Beqiri Trucking,153-8 Stonefield Dr,Waterbury,CT,06705,203-757-2191
Hall's Welding Service,81 S Main Street,Newtown,CT,06470,203-270-6256
Tasco Services,54 Chestnut Woods Rd,West Redding,CT,06896,203-918-1052
Pepe Transportaion,782 Amity Road,Bethany,CT,06524,203-824-0656
Tow-tac Transport,40 W Euclid Street,Hartford,CT,06112,860-726-1075
Ray's Tree Removal,95 Hood Terrace,West Haven,CT,06516,203-931-9828
Advantage Transport,1 Cards Mill Road,Columbia,CT,06237,860-423-5100
Jt Repair Service,34 Savin Ct,West Haven,CT,06460,203-934-1861
G Gordon Trucking,53 Norfolk Rd,Winsted,CT,06098,860-379-4660
Aldi Chauffeur Service LLC,195 Garden Dr,Bridgeport,CT,06606,203-515-0378
Old Time Asphalt Services,98 Country Club Road,Dayville,CT,06241,860-779-2162
L & B Transport,90 Manorwood Dr,Branford,CT,06405,860-928-4478
Luis Rivera Trucking,2463 North Avenue 2nd Floor,Bridgeport,CT,06604,203-870-9930
Harwood Services,165 Hillside Ave,West Haven,CT,06516,203-934-4777
Cindy Fogliano,189 Brushy Hill Road,Newtown,CT,06470,203-270-1558
Rush Transportation,73 W Prospect St ,New Haven,CT,06515,203-389-1465
Ryco Services,1 North Water St,Greenwich,CT,06830,N/A
Pacelli Transportation,91 4th St Apt 17,Ansonia,CT,06401,203-395-8073
Maybin Transport,136 City Ave,New Britain,CT,06051,860-882-7496
G & C Transport,25 Beaver St Apt # 804,Danbury,CT,06810,914-224-6230
Scott Stone Trucking,1100 Main St,Oneco,CT,06373,860-608-7876
Wes-stor Container & Transportation,7 Elmata Avenue,Pawcatuck,CT,06379,860-599-2730
Fiumara Trucking,158 Jones Dr,New Britain Ct,CT,06053,860-250-4002
V & W Trucking,226 West Minister Street,Hartford,CT,06112,860-243-1719
Latin Cargo Express,693 Maple Ave,Hartford,CT,06114,860-548-0518
Silver Bullet Express,653 Pine St,Forestville,CT,06010,860-589-1985
Dolan Moving And Storage,81 Commerce Dr,Brookfield,CT,06804,203-740-2100
Capital Recycling Of Connecticut,123 Murphy Road,Hartford,CT,06114,203-249-2762
American Moving & Storage,52 Glasser Street,South Norwalk,CT,06854,203-838-3679
K & P Transportation,134 Mather Street,Manchester,CT,06040,203-293-5388
Warsovia Public Services,117 Grove Street,New Britain,CT,06053,203-225-0429
E-z Courier,17 Woods Hollow Road,West Suffield,CT,06093,860-668-5069
East Coast Moving Systems,55 Pierrepont Drive,Ridgefield,CT,06877,N/A
Air Cargo Express,40 Greenfield St,Windsor,CT,06095,860-285-8526
B P Transport,486 Plymouth Road,Harwinton,CT,06791,860-489-1282
"Diclin Distributors, Inc.",61 Maselli Road,Newington,CT,06111,860-666-7156
Bekoe Trucking,115 Nutmeg Lane Apt 127,East Hartford,CT,06118,860-569-9361
Agosto Trucking,57 Hodge Ave,Ansonia,CT,06401,203-735-7043
M A T Trucking,227 Montauk Avenue,New London,CT,06320,860-447-9160
Victor Manufacturing & Distributing,42 Rumsey Rd,East Hartford,CT,06108,203-289-4223
Mark Guarino Delivery,730 Dart Hill Road,Vernon,CT,06066,203-871-6066
Barney's Express,72 First Ave,West Haven,CT,06516,203-932-5528
Alex Horse Transportation,14 Orchard Street,Stamford,CT,06902,N/A
C H Young Trucking,624 Country Road,Woodstock,CT,06281,203-928-9516
N S Metals,51 North Main Street,West Hartford,CT,06107,N/A
J Pam Trucking,49 Old Hall Rd,Woodstock,CT,06281,203-928-4394
Bout N Hour Delivery Service,1322 North Ave,Stratford,CT,06497,203-482-8513
Oscar Roberts Trucking,6 Irving Street,Hartford,CT,06114,203-724-3549
"Gardiner Deck & Fence, Inc.",192 Burnham Street,South Windsor,CT,06074,203-289-3816
"Huntco Transportation, Inc.",2 Susquehanna Ave,West Haven,CT,06516,203-933-1956
C W Trucking,75 Juniper Dr,Windsor Locks,CT,06096,N/A
Dunbar Office Refreshments,96 Old Poquonock Roac,Bloomfield,CT,06002,203-242-5531
A E A Trucking,2264 Silas Deane Hwy Box 34,Rocky Hill,CT,06067,860-563-3522
Sears Transport,199 Edgewood Dr,Torrington,CT,06790,860-482-5731
M N B Trucking,58 Gaumond Road,Thompson,CT,06255,N/A
Stevens Transport Systems,R08 Maple Street,Naugatuck,CT,06770,203-723-5166
"Peterson Trucking, Inc.",405 New State Road,Manchester,CT,06040,800-533-1602
Ltx Direct Express,60 Newtown Rd Ste 144,Danbury,CT,06810,N/A
Tender Loving Care,56 E Main St,Torrington,CT,06790,860-482-2734
Mes Express,1 Parkerbridge Road,Columbia,CT,06237,203-228-0162
Stuart Hall Trucking,101 Harrison Ave,New Canaan,CT,06840,203-966-6494
Toms Truck & Auto,169 Main Street Ext,Middletown,CT,06457,203-343-0898
Jsb Group Transportation & Freight,151 New Park Avenue Suite 106,Hartford,CT,06106,860-586-2347
Cidc,327 Riggs Street,Oxford,CT,06478,203-881-3900
Prime Time Shuttle Of Connecticut,45 Connair Road,Orange,CT,06477,203-891-1280
Tony's Trucking,18 West Pond Road,North Branford,CT,06413,203-453-0170
E A Schurman Services,824 North Benson Road,Fairfield,CT,06824,203-345-6144
Cos Cob Gulf Service,370 E Putnam Avenue,Cos Cob,CT,06807,203-869-3777
Personalized Services,73 Spring Glen Drive,Granby,CT,06035,860-279-6418
Branch Motor Freight,163 Upper Maple Rd,Dayville,CT,06141,401-647-7300
Mike's Delivery & Mung Svc LLC,101 Powdered Metal Dr,North Haven,CT,06473,203-239-0227
"Mho-pro Movers, Inc.",20 Red Oak Lane,Norwalic,CT,06850,203-229-0102
Western Sun Express,92 Wakefield Circle,East Hartford,CT,06118,860-568-5497
"Liner Bros, Inc. Trucking Division",163 Elm Street Rear,Thomaston,CT,06787,860-283-1522
R M J Trucking,49 Milton Avenue,West Haven,CT,06516,203-933-8835
Bar-j Trucking,101 Morgan Lane,West Haven,CT,06516,203-877-3606
Bristol Wrecker Service,6 Andrews St,Bristol,CT,06010,860-584-8000
Kingsbury Septic Tank Service,48 Kingsbury Road,Thompson,CT,06277,860-923-2381
Henry Haulage,36 Hill Farm Road,Bloomfield,CT,06002,860-242-2332
Northeast Transport,65 North Main Street,East Hampton,CT,06082,860-745-5873
Austin Family Trucking,9 North Main St,Terryville,CT,06786,860-589-0586
Wolcott Auto Parts,400 Wolcott Rd,Wolcott,CT,06716,203-879-4933
B & T Leasing,582 Five Mile River Road,Putnam,CT,06260,860-928-4494
Cirillo Trucking LLC,5 Tipping Drive,Branford,CT,06405,203-488-3363
Maille Limo Service,684 Brooks,Bridgeport,CT,06608,203-368-6359
New Fairfield Limo,68 Mill Plain Court,Danbury,CT,06810,203-790-6396
Bills Refuse Service,430 Lime Rock Road,Lakeville,CT,06039,860-435-9508
Mancini Trucking,17 Creek Ct,Branford,CT,06405,203-671-4013
"Custer Transportation, Inc.",48 South Street,Cromwell,CT,06416,860-632-9794
Foster Express,103 Bridge St,Manchester,CT,06040,860-645-8660
Thames Transportation Group,24 Woodland Dr,Norwich,CT,06360,860-887-1201
J & D Trucking,52 Sunset Hill Rd,Simsbury,CT,06070,860-658-0039
Matco Tools Distributor,57 Wichett St,Pine Meadow,CT,06061,860-379-7658
P & B Trucking,40a Mount Pleasant Road,Newtown,CT,06470,203-270-1232
J L Distributors,171 Watch Hill Road,Branford,CT,06405,203-481-6211
D&d Trucking,330 Governor Street,East Hartford,CT,06108,860-610-0133
Family Trucking,2764 East Main Street,Waterbury,CT,06705,203-573-9211
24 Hour Town Car Service,86-92 Myrtle Avenue,Stamford,CT,06902,203-323-9461
Silver Lane Texaco,1475 Silver Lane,East Hartford,CT,06118,860-568-8819
Tcr Transportation,129 W Dudleytown Road,Bloomfield,CT,06002,860-243-5057
Vinnies Service Center,630 Main Street,Cromwell,CT,06416,860-635-3119
G L Weaver Jr Trucking,176 Atwater St #1,Plantsville,CT,06479,860-621-2213
Keith's Trucking,65 Flagler St,Newington,CT,06111,860-667-8569
Connecticut Express Trading Co,517 East Main Street,Stratford,CT,06497,212-406-2078
Service Station,242 South Salem Road,Ridgefield,CT,06877,203-438-3318
L B Deliveries,96 Silver Lane A-2,East Hartford,CT,06118,860-569-4251
B & K Trucking,251 Brightwood Avenue,Torrington,CT,06790,860-489-5935
Young Transport,81 North Street,Enfield,CT,06082,860-749-7803
R J H Trucking,123 Pautipaub Rd,Baltic,CT,06330,860-884-0923
Jam Trucking,32-a Darling Street,Southington,CT,06489,860-620-0655
Hastings Trucking,353 Sigourney Street,Hartford,CT,06112,860-246-4449
Ken's Express Service,21 Dodgwood Road,Monroe,CT,06468,203-261-7229
L & Z Trucking,44 Allen St,Windsor,CT,06095,860-727-4190
C & R Trucking,11 Ridge View Rd,Meriden,CT,06451,203-235-7212
Macs Transportation LLC,1509 Boston Post Rd,Westbrook,CT,06498,860-399-9865
"Pyramid Express, Inc.",292 Broadbrook Rd,Enfield,CT,06082,860-749-4886
Pat Summas Monster Truck,90 Old Farms Lane,New Milford,CT,06776,N/A
Essential Travel Service,63 West Avenue,South Norwalk,CT,06854,203-846-5959
R Basley Trucking,58 Basley Road,Danielson,CT,06239,860-774-3549
Terminal Trucking,71-104 Scott St ,Meriden,CT,06450,203-237-3540
R & S Transport,41 B Spring Street,Enfield,CT,06082,888-602-0498
C & C Transport,345 Buckland Hill Drive,Manchester,CT,06040,860-648-0839
Lee Capozzo Auto Service,157 Washington Avenue,North Haven,CT,06473,203-234-7380
Thomas Trucking,45 Kalish Ave,Enfield,CT,06082,860-741-0542
M & A Transport,45 Olmsted Street #10,East Hartford,CT,06108,860-282-8279
V & B Trucking LLC,26 Highview Avenue,Wethersfield,CT,06109,860-563-1050
A B Deliveries,147 Great Hill Road,Seymore,CT,06483,203-881-9793
W T B Trucking Co,287 Wyassup Road,North Stonington,CT,06359,860-535-3439
D & W Trucking,25 High Street,Windsor,CT,06095,000-000-0860
Lion Courier Service,47 Tobey Avenue,Windsor,CT,06082,877-768-2703
Billy Vans Trucking,56 Park Road,Oxford,CT,06478,203-888-0030
D And D Transport,26 White Wood Rd,Waterbury,CT,06708,203-754-3810
Parkers Trucking,22 St Marys Street,Stamford,CT,06907,203-348-7263
Ambassador Express Services,40 Sleepy Hollow Dr,Danbury,CT,06810,203-743-6022
K B Construction Services LLC,37 Thompson Road,Bethlehem,CT,06751,203-266-7825
K & S Trucking,50 Laurel Street,Enfield,CT,06082,860-741-5262
Superior Storage,12 Cascade Blvd,Orange,CT,06477,203-795-2741
Professional Movers,2132 Kings Highway East,Fairfield,CT,06824,203-319-9316
Border Cross Transprt,61 South Main Street,Moosup,CT,06354,860-564-9414
K E M Transport,106 Corttis Rd,North Grosvenordale,CT,06255,860-923-5762
Harvard Trucking,975 Upper Maple St,Dayville,CT,06241,860-774-3891
Tjc Trucking,1 Surrey Trail,Sandy Hook,CT,06482,203-426-2805
Fds Trucking,75 Farmington Valley Dr,Plainville,CT,06062,860-747-3399
A&b Trucking,22 Brentwood Dr,Bloomfield,CT,06002,860-243-2985
Dynamic Delivery System,3 Boulder Avenue,Old Greenwich,CT,06870,203-698-7700
Freedom Transport,135 Heatherwood Dr,South Windsor,CT,06074,860-644-3460
Jeb Transport,1254 Main St Apt 11,East Hartford,CT,06108,860-883-0486
M & M Transport,66 Oxbow Ln,Northford,CT,06472,203-484-7190
K&m Trucking,79 West Meeting House Rd,New Milford,CT,06776,860-354-6704
D & M Transportation,245 D New State Rd,Manchester,CT,06040,860-649-8901
Mr Cs Trucking Co,126 Palm St,Hartford,CT,06112,860-243-3343
Jones Auto,791 Mashamoquet Road,Pomfret Center,CT,06259,860-974-2455
Miller Transport,5 So Wind Dr,South Norwalk,CT,06854,203-324-7727
Tumbleweed Transportation,25 Falls Road,Moodus,CT,06469,860-267-5919
Cooney Transport Company,16 Green Valley Dr,Oakdale,CT,06370,860-886-2260
Able Services LLC,26 Hawthorne St S,Greenwich,CT,06831,203-531-4746
Robert Laneville Trucking,32 Wilder Court,Watertown,CT,06795,860-274-8213
Bee Line Service,71 Soundview Ave,Shelton,CT,06484,203-929-4921
Mad Dog Trucking,793 Toby Hill Rd,Westbrook,CT,06498,860-399-8725
C H B Transport,25 Floodbridge Road,Southbury,CT,06488,203-262-1482
Colbran Trucking,1499 Route 85,Oakdale,CT,06370,860-443-8255
Rkl Transport,75 Wilmont St,Wethersfield,CT,06109,860-563-9414
Connecticut Carriers Concerns,64 Legion Drive,Windsor,CT,06095,860-298-9854
The Happy Hauler LLC,17 Howard Rd,Bolton,CT,06043,860-645-8233
Leavenworth Tree Farm And Services LLC,749 Coleman Rd,Cheshire,CT,06410,203-272-2543
Professional Auto Transport,522 Cottage Grove Rd,Bloomfield,CT,06002,860-242-2831
D & R Express,10-4 Pinebrook Terr,Bristol,CT,06010,860-582-0085
L & T Express,28 Canterbury Rd,Plainfield,CT,06374,860-230-0097
Select Car Service,97 Hanover Street,Wallingford,CT,06492,203-265-7002
Big Gs Truckin,3 Woody Rd,Woodstock,CT,06281,860-974-2893
Rickey's Transport,133 Clark Hill Road,East Hampton,CT,06424,N/A
Guilford's Transportation Services,115 Boston Ave Suite 5794,Bridgeport,CT,06610,203-952-9957
Guys Moving & Storage,159 Lynnbrook Rd,Fairfield,CT,06825,203-467-2539
Eagle Harris Transportation,509 Salmon Brook,Granby,CT,06035,860-844-8642
Roger Corey Trucking,82 Red Oak Dr,Plainfield,CT,06374,860-564-0833
New England Trucking,40 Cora Rd,Tolland,CT,06084,N/A
Green Valley Transport Service,107 Green Road,Woodstock,CT,06281,860-208-1448
T & C Trucking,82 Wintonbury Ave,Bloomfield,CT,06002,860-243-0614
Gjet Trucking,137 South Wind Drive,Wallingford,CT,06492,203-265-6288
Pole Trucking,22 Longhill Rd,Windsor,CT,06095,860-683-1406
Executive Car Service,348 Fairfield Avenue,Stamford,CT,06902,203-353-1003
Abrantes Bakery,22 Greenwood St,Hartford,CT,06106,860-306-5422
Glens Trucking LLC,82 Truman St,Norwalk,CT,06850,203-899-0757
Thomas J Torres Trucking,256 Washington Blvd #13,Stamford,CT,06902,203-321-9336
R Kolek Transport Service & Repair,1260 B Hartford Pike - Rt 101,East Killingly,CT,06243,860-779-1233
A T Limo,73 Hecker Ave,Darien,CT,06854,203-855-1122
Cunningham Delivery Service,440 New Haven Aveune,Milford,CT,06460,203-783-1181
Ambassador Limousine,1 Riverside Drive,East Hartford,CT,06118,860-633-7300
Pravia Express,1208 East St North,Suffield,CT,06078,860-668-2262
Action Services,15 Britton Drive,Bloomfield,CT,06002,860-243-8815
L & L Hauling,30 Baxter Ave,Stamford,CT,06902,203-965-0073
Paul F Foster Trucking,16 Tomahawk Trail,Sandy Hook,CT,06482,203-270-3874
Executrans,8 Birch Circle #5,Colchester,CT,06415,860-537-6025
J C J Enterprises,59 Chapel St,Yalesville,CT,06492,203-284-0632
Industrial Air Filter Service,469 Brooklawn Ave,Fairfield,CT,06430,203-335-6672
Peter's Trucking,317 Lyme St,Hartford,CT,06112,860-726-9620
Valyn Farm Horse Transportation,690 Bucks Hill Road,Southbury,CT,06488,203-267-5596
Jdp Trucking,325 Walden Green,Branford,CT,06405,203-483-9079
Sport N Life Distributors,47 West Main Street,Stamford,CT,06902,203-325-0320
Kerrigan Transport LLC,152 Town Farm Rd,Farmington,CT,06032,860-559-7236
On Time Limo Service,810 Nichols Ave,Stratford,CT,06614,203-377-8244
Norton Trucking,797 East St N,Suffield,CT,06078,860-668-1861
S S Trucking,11 Crescent Street,West Hartford,CT,06119,860-236-8411
Orest Express,6 Antoni Dr,Bolton,CT,06043,860-512-0287
R & S Transportation,677 Garden St #2fl,Hartford,CT,06112,860-233-7662
Bobkat Trucking,127 Edgelake Dr,Sandyhook,CT,06470,203-426-1084
"J P Transportation, Inc.",30 Litchfield Dr,Enfield,CT,06082,860-253-9412
Airport Transportation,654 Naugatuck Ave,Milford,CT,06460,203-783-1135
Sdw Trucking,2 Sundance Dr,Branford,CT,06405,203-315-0386
Sandkastle,139 Allyn Rd,Goshen,CT,06756,860-491-5591
"J&j Distributors, Inc.",211c Ledyard St,Hartford,CT,06114,860-296-8934
G&e Trucking,55 Earle St,Hartford,CT,06120,860-527-9776
R&f Auto & Truck Repair,239 Danbury Rd,New Milford,CT,06776,860-355-0330
Gt Express,41 Carol Ave,Danielson,CT,06239,860-779-1614
A&c Trucking,3 Townline Rd,Woodbury,CT,06798,860-945-6421
Mitchell Trucking,20 Groton St,Hartford,CT,06106,860-560-0251
"Alpha & Omega Transportation, Inc.",135 Buddington Rd,Shelton,CT,06484,203-929-5148
"Independent Energy Services, Inc.",775 Bloomfield Ave,Windsor,CT,06095,860-298-8741
Ralph's Transportation,240 Knickerbocker Ave,Stamford,CT,06907,203-961-9408
1-2-3 Courier Express,90 Rocky Hollow Rd,North Stonington,CT,06359,860-535-1233
Doughty Transport,156 Roanoak Avenue,Willimantic,CT,06226,860-423-9052
Taj Transportation,26 Arlington St,Hartford,CT,06106,860-953-6032
Essex Service Center,153 Westbrook Road,Essex,CT,06426,860-767-2185
C Horan And Sons Transport,10 Woodsedge Dr,Newington,CT,06111,860-666-5926
Early Bird Transportation,26 Novak Street,Norwalk,CT,06854,203-858-2351
Hebert Transport,622 Rt 169,Woodstock,CT,06281,860-928-6767
Wayne's Freight,51 Derby Rd,Rockfall,CT,06481,860-349-9742
M C Express Limousine,17 Hadik Parkway,Norwalk,CT,06854,N/A
Hulings Trucking,173 Cook Hill Rd,Wallingford,CT,06492,203-265-4848
A M C Trucking,32 Seyms Street,Hartford,CT,06120,860-953-1383
Southpark Garage,51 Taff Ave,Stamford,CT,06902,203-353-8911
Quick Way Transports,22 St Mary's St,Stamford,CT,06902,203-348-7263
Palmer Brothers Moving & Storage,153 Main St,Ansonia,CT,06401,203-734-1681
H & R Hales Transfer,40 Addison St,Hartford,CT,06120,N/A
"Cameron & Dillon Service, Inc.",160 Windsor Ave,Wilson,CT,06095,203-247-6626
Tuff Stuff Of Conn,68 Neal Ct,Plainville,CT,06062,203-747-0886
Butler Moving & Storage,186 Ridge Rd,Stratford,CT,06497,N/A
Stratford Freight Co,1010 Woodend Rd,Stratford,CT,06497,203-378-7341
Fleury Trucking Co,449 Valley Rd E K Box 68,East Killingly,CT,06243,860-774-8329
Morris Transportation,188 Broad St,Wethersfield,CT,06109,860-529-4713
Nextair,68c King Spring Road,Windsor Locks,CT,06096,860-254-6398
Creative Transportation,30 R Tunxis Avenue,Bloomfield,CT,06002,860-243-2389
Curved Glass Distributors,72 Chapel St,Derby,CT,06418,203-735-9388
J & J Smyth Trucking,336 Smith Ave,New Haven,CT,06513,203-653-3275
G & L Trucking,3100 Stanford Ave,Farmington,CT,06034,N/A
"Terry Trucking, Inc.",2539 Wilbur Cross Hwy,Berlin,CT,06037,N/A
Awd,307 White St,Danbury,CT,06810,203-743-0405
Northeast&western Transportation,36 Lower Lane,Berlin,CT,06037,N/A
La Porta Truck Lines,83 Birch Dr,Milldale,CT,06467,N/A
Rapid Express,315 Ella Grasso Turnpike,Windsor Locks,CT,06096,860-623-2203
Merli Automotive,846 So Main St,Torrington,CT,06790,860-489-5587
Millbrook Livery Service,328 Poquonock Ave,Windsor,CT,06095,860-683-0223
Auto Dynamic Custom Coach Service,79 Sunshine Circle,Bridgeport,CT,06606,N/A
Bkm Total Office,300 East River Drive,East Hartford,CT,06108,860-528-9981
Board Walk Auto Sales,321 Kent Ave,Suffield,CT,06078,860-668-6373
"Heavy Hauling, Inc.",794 South St Rt 75,Suffield,CT,06078,203-668-4440
Statewide Auto Auction,1756 N Broad St,Meriden,CT,06450,203-237-1975
"Eastern Moving Co, Inc.",891 Park St,Hartford,CT,06106,860-247-3201
Plainfield Trucking,303 Mohegan Park Rd,Norwich,CT,06360,N/A
Life Style Limo Service,12 Tower Lane,Huntington,CT,06484,N/A
Arthur Grab Trucking,195 Bennett Pond Rd,Canterbury,CT,06331,860-234-6170
Reis & Son Import & Export Co,210 Oak St,Bridgeport,CT,06604,203-334-0069
Mike Granger Trucking,40 Kenney St,Bristol,CT,06010,203-583-8794
Affordable Towing Services,215 219 Naugatuck Avenue,Milford,CT,06460,203-693-2224
Dan Thomas Moving Company,222 Kelsey St,Newington,CT,06111,203-667-3333
Markham Trucking,27 Christian Street,Oxford,CT,06478,203-888-1584
Carolina Furniture Transport,24 Hotchkiss Street,Naugatuck,CT,06770,203-723-4730
Jendrewski Trucking,210 Palmer Rd,Chaplin,CT,06235,860-455-1051
"Diamond Sales Co, Inc.",395 Wethersfield Ave,Hartford,CT,06114,203-296-8080
Quality Mobile Washing Services,31 Carroll Rd,East Hartford,CT,06108,860-528-8181
Mobile Shredding Services,522 D1 Cottage Grove Road,Bloomfield,CT,06002,860-243-1311
Ham Trucking,93 West Hartford Road,Newington,CT,06111,860-930-1880
Merquip Distributing Co,256 Thames Street,Groton,CT,06340,203-445-7441
"Marmac Distribution, Inc.",4 Craftsman Rd,East Windsor,CT,06088,203-627-8764
"United States Produce Distributors, Inc.",219 Eden Road,Stamford,CT,06907,203-329-1175
Dean Caron Trucking,291 Lebanon Avenue,Lebanon,CT,06249,203-642-6201
Crudden Truck Body Co,466 Spring Street,Windsor Locks,CT,06096,203-292-1881
J & J Auto Transport,35 Florence Lane,Plainville,CT,06062,203-747-3198
Southford Garage,1380 Route 67,Southbury,CT,06488,203-264-5343
A-r Express,Po Box 458,Ellington,CT,06029,N/A
S S R Specialty Transportation,27 Hammond St,Vernon Rockvl,CT,06066,N/A
First Choice Delivery Services,23 Winding Lane,Enfield,CT,06082,N/A
Jordan Boat Haulers,8 Barry Dr,Gales Ferry,CT,06335,N/A
Singh Trucking,541 Burnside Ave F-2,East Hartford,CT,06108,203-528-4654
Garland's Road Service,363 Pleasant Valley Rd,South Windsor,CT,06074,860-528-7779
J T S Transport,6 Smith Street,Norwalk,CT,06851,203-853-1288
J M Distribution,Po Box 51,Portland,CT,06480,N/A
Bruce Fales Trucking,156 Grower Road,New Canaan,CT,06840,203-972-3593
R G A Transportation Systems,33 Cedar Hill Lane,Easton,CT,06612,N/A
Yellow Jacket Express,11 Gilman Street,Putnam,CT,06260,203-928-6160
Anderson & Son Trucking,66 Wynola Avenue,New Britain,CT,06051,203-224-7678
V S Trucking,1350 Blue Hills Ave,Bloomfield,CT,06002,203-243-0366
Northeast Associates,301 Main St,Somers,CT,06071,860-749-1476
All States Delivery Services,32 Middle Rd,Enfield,CT,06082,N/A
Lubrication Managment Co,488 Main Avenue,Norwalk,CT,06851,203-846-4144
O'furniture Distributors,254 Tailor Street,Vernon,CT,06066,203-646-7137
Fpm Transport,160 Sandbank Rd,Cheshire,CT,06410,203-271-0709
Killam Truck Mart,26 North Rd Rt 140,East Windsor,CT,06088,860-627-9409
Arxpress,100 Thomas St,East Hartford,CT,06108,860-289-7391
Family Delivery,93 Great Brook Rd,New Milford,CT,06776,203-355-9278
Haller Transportation,114 Mott Hill Road,Hampton,CT,06424,203-267-1477
K K B Transport,473 Elm St,West Haven,CT,06516,203-932-0051
Thomas Transport,17 Windwood Drive,Glastonbury,CT,06033,203-659-3433
Phantom Transport,89 Andrews Street,Bristol,CT,06010,203-585-9600
Carter Transport,1266 Essex Road,Westbrook,CT,06498,203-399-9337
Mark's Auto Center,54 South Broad Street,Pawcatuck,CT,06379,203-599-8905
A & S Trucking,239 Lake Street,Moosup,CT,06354,203-564-7071
Macedonia Transport,7 Taylor Terrace,New Milford,CT,06776,203-350-4770
C & M Transport,441 Litchfield Dr,Windsor Locks,CT,06096,203-623-6922
Flying Dutchman Trucking,Box 660,Newtown,CT,06470,203-731-1061
"Automotive Systems, Inc.",417 Washington Ave,North Haven,CT,06473,N/A
R P White Trucking L L C,41 Blood Rd,Putnam,CT,06260,860-928-1691
T E D Contract Carrier,310 Cherrybrook Rd,Canton,CT,06019,203-693-8626
B & M Transport,31 South St Extension,Bristol,CT,06010,860-583-6157
Grand Trucking,46 Stanley St,East Hartford,CT,06108,860-836-1980
Fisher's Trucking,253 Indian River Rd,Orange,CT,06477,203-281-0855
Casual Airport Service,3 Goldmine Rd,New Milford,CT,06776,203-354-7710
Shawmut Bank Connecticut,150 Windsor St Msn 399,Hartford,CT,06120,203-725-3566
Screwloose Transport,703 Margaret Henry Rd,Sterling,CT,06377,860-564-2616
Ambassador Express Services,40 Sleepy Hollow Dr,Danbury,CT,06813,203-792-0292
J S & D Trucking,114 Chappell St,Chaplin,CT,06256,203-455-9828
"Doane's Accent Auto, Inc.",1106 East Street Rte 159,Suffield,CT,06078,203-623-3894
Esd Delivery Service,147 A Downey Drive,Manchester,CT,06040,203-289-7509
Translimo,900 East Main St,Meriden,CT,06450,203-237-7466
Breeze Auto Transport,245 Brewster Rd,Bristol,CT,06010,860-583-4444
Cecil Peck Transportation,37 Cheshire Road,Wallingford,CT,06492,203-269-3715
A & A Livery Services,311 Main Street,Manchester,CT,06040,203-643-1211
Coppola Enterprises,137 Deer Hill Ave,Danbury,CT,06810,N/A
R L Beauvais Jr Trucking,147 Salisbury Ave,Moosup,CT,06354,203-774-2583
H & S Truck Repair & Sales,47 Depot Place,Unionville,CT,06085,860-675-6995
B & B Truckin,962 Riverside Dr,North Grosvenordale,CT,06255,203-923-3700
P & B Trucking,85 North Plains Road Unit 27,Wallingford,CT,06492,203-623-2113
Grace Trans,69 Alexander Dr,Bridgeport,CT,06606,203-367-5405
J I S Transport,370 Whitney Avenue,Trumbull,CT,06611,203-459-1087
L & S Transport LLC,6 Mainstruck Cir,Oakville,CT,06779,860-274-2399
Shell-trans Co,P O Box 88,Riverton,CT,06065,203-379-5064
C E O Courier Service,1127 High Ridge Road,Stamford,CT,06906,203-622-0083
Acme Transport,324-w Preston St,Hartford,CT,06114,203-956-2657
Day Trucking,30 Laurel Mtn Rd,Warren,CT,06754,860-868-7098
C M S Trucking Co,112 Tryon St Rt 160,South Glastonbury,CT,06073,203-659-9589
Potter Trucking,9 West Street,Andover,CT,06232,203-742-5858
Saybrook Auto Auction,Tompkins Road,Old Saybrook,CT,06475,203-388-3880
Paul's Transportation,26 Church Street,Naugatuck,CT,06770,203-729-2261
"Southbury Car Service, Inc.",22 Scatacook Lane,Southbury,CT,06488,203-262-6813
Faithway Bus Service 2,545 Sherman Pkwy Apt 13,New Haven,CT,06511,203-787-2701
Big J Trucking,33 Columbus Avenue,Bristol,CT,06010,203-589-1733
Moving Advertising Promotions,2437 Bedford St Apt C7,Stamford,CT,06905,203-357-7590
R & B Trucking,45 Ely Ave,South Norwalk,CT,06850,203-853-3252
Kramer Family Trucking,11 Upper Commons Woodlake,Woodbury,CT,06798,203-263-5057
Edevaldo Mello,175 Manhattan Ave,Bridgeport,CT,06606,203-650-9901
"Leroy Trucking, Inc.orporated",272 S Main Street,East Windsor,CT,06088,413-221-1894
E-z Transport LLC,63 Terrace St,East Haven,CT,06512,203-435-8707
Messado Trucking,19 Natalie St,Hartford,CT,06106,860-794-2740
Kevlar Express LLC,27 Rolocut Road,Broad Brook,CT,06016,860-217-1111
Ez Ride Sx,28 Lee Road,Prospect,CT,06712,646-236-5827
Tow Truck,134 Blanchard St,Waterbury,CT,06705,203-706-6905
Tony Walters Services,30 Hillside Street,East Hartford,CT,06108,646-642-2758
Shur Fire,340 West Thames Street,Norwich,CT,06360,860-886-0285
Easy Way Transport LLC,200 Putnam Street,Bridgeport,CT,06606,203-685-5299
Tristan And Damion Delivery,106 Plainfield Street,Hartford,CT,06112,860-478-2398
Lincoln Technical Institute,2279 Mt Vernon Road,Southington,CT,06489,186-062-8475
Hm Delivery,96 Rockwell Ave,New Britain,CT,06051,860-221-6626
Stonington Lawncare,29 Stillman Avenue Apt 2,Pawcatuck,CT,06379,860-917-9685
Paper Supply,97 A Whiting Street,Plainville,CT,06062,860-878-9680
Jb Transport LLC,144 Curtiss Road Ext,Woodbury,CT,06798,646-346-4004
Cornwallhardwoodfloors,67 Todd Hill Rd,West Cornwall,CT,06796,860-672-6052
Encon,1265 Woodend Road,Stratford,CT,06615,203-375-5228
Lion Hill Farm,1020 Sport Hill Rd,Easton,CT,06612,203-268-0089
Scotland Transportation,315 Pudding Hill Rd,Scotland,CT,06264,860-884-4695
New England Sheds Company,76 Depot Road,Berlin,CT,06037,860-828-1144
Castro Deliver Service,96 Ball Pond Rd,Danbury,CT,06811,203-885-3939
Hvo Mechanicals,5 Mountain View Avenue,New Milford,CT,06776,203-947-8117
Bachman Of Bloomfield,11b Old Winsor Road,Bloomfield,CT,06002,860-243-5562
Experienced Movers & Storage,2 Klarides Village Dr #129,Seymour,CT,06483,203-883-9312
Custom Wheels Unlimited,101 West Dudley Town Rd,Bloomfield,CT,06002,860-242-1816
River Ridge At Avon,101 Bickford Ext,Avon,CT,06001,860-677-2155
Village At Mariner's Point,111 South Shore Dr,E Haven,CT,06512,203-467-0067
Whyte Builders,201 Reutemann Rd,North Stonington,CT,06359,140-441-9516
J7p Best Welding Co,34 Willow St,Bridgeport,CT,06610,203-334-2512
Cw Shellfish Company,426 State Street,Guilford,CT,06437,203-453-0541
Gomez Landscape,31 Hoyt St,Danbury,CT,06810,203-470-2184
Waldron Masonry LLC,89 Nonnewaug Road,Bethlehem,CT,06751,203-266-5087
Dream Scape Contractor LLC,79 Michael Ave,East Hartford,CT,06108,860-922-5686
Christmas Hauling,25 Lincoln St,Enfield,CT,06082,860-741-6923
North Stamford Tree Service,Woodside Green 110 3c,Stamford,CT,06905,203-588-1722
Tm Delivery,106 Plainfield Street,Hartford,CT,06112,860-967-2866
Pauway Corp,63 North Cherry Street,Wallingford,CT,06492,203-265-3939
Teufel Hunden Trucking,19 Sam Green Rd,Coventry,CT,06238,860-212-7469
Mexican Grand Deli,313 Grand Ave,New Haven,CT,06513,120-377-6400
T N B Marble N Granite,237 Ledyard St,Hartford,CT,06118,860-296-7037
Gourmet Italian Kitchen,18 Linden Heights,Norwalk,CT,06851,203-642-3574
Sachem Farm,240 Kent Rd,Warren,CT,06754,860-868-6422
Universal Steel & Aluminum LLC,221 South Street,New Britain,CT,06051,860-224-3440
Christian Soderquist,7 Oak Dr,Sandy Hook,CT,06482,203-426-6097
Diego Transportation Service,633 Washington Avenue,New Haven,CT,06519,203-589-4038
Leos Auto Performance,132 Federal Rd,Brookfield,CT,06804,203-740-0888
Black Knights Services,52 Shea Ave Apt D,Milford,CT,06460,203-876-1604
Seth Bahler Dba Bahler Construction,76 Jobs Hill Rd,Ellington,CT,06029,860-871-2100
Full Bloom Apiaries,101 Lebanon Rd,Franklin,CT,06254,860-235-0624
Lamonica Trucking,1200 Halladay Avenue,Suffield,CT,06078,860-370-9725
S & P Trucking,147 Bay Avenue,New Britain,CT,06053,860-882-8098
Empire Fencing,280 Ethan Allen Hwy,Ridgefield,CT,06877,203-431-8553
Christiam C Delivery Services LLC,4 Third St,Danbury,CT,06810,203-917-2028
Juliana Isufaj,118 Governor St,East Hartford,CT,06108,860-372-0444
Mbro Trading,991 Ponus Ridge,New Canaan,CT,06840,203-966-4133
House & Home Handyman,8 Woodland Dr,Hartford,CT,06105,860-263-7259
Bms Transportation,49 Silver Birch La,Windsor,CT,06095,860-688-6720
Nielsen Trucking LLC,58 Yale Ave Unit # 7,Meriden,CT,06450,203-631-5136
Bridgewater Land Services,89 Wewaka Brook Road,Bridgewater,CT,06752,860-354-0050
Panda Market,16 Franklin St Suite 105,Norwich,CT,06360,401-556-7308
Mohawk Enterprises LLC,Mohawk Dr,Wallingford,CT,06450,203-715-3466
Limited Liability Company,24 Karen Drive,Manchester,CT,06042,860-371-0515
D & S Auto Transportation,33 Vera St,Wet Hartford,CT,06119,860-256-1869
Tepan Delivery Service,42 Lincoln Ave Apt 2,Danbury,CT,06810,203-826-6684
Maignan & Maignant Company,18 Richelieu Street,Norwalk,CT,06850,203-434-4306
Welweaon Pinto,12 Morning Mist Rd,Naugatuck,CT,06770,203-490-8061
All Mine Messenger,8 Fuller Ave,East Hartford,CT,06108,860-539-2028
Midnight Auto,179 West Ave,Stratford,CT,06615,203-923-2100
Action Oil,361 Thompson Road,Thompson,CT,06277,508-987-6985
Professional Carpet Systems,12 Progress Ave,Seymour,CT,06483,203-888-5560
Star Auto Sales,333 South Broad St,Meriden,CT,06450,203-630-2926
Eagles Equestrian,210 South Street,Morris,CT,06763,203-808-2869
H G Hedquist,160 Munyan Road,Putnam,CT,06260,860-928-7629
Futons Plus Comfort Zone,194 Buckland Hills Drive,Manchester,CT,06042,860-644-1999
Consign It Greenwich,115 Mason Street,Greenwich,CT,06830,203-869-9836
Donovan Trucking,24 Louis Drive,Bloomfield,CT,06002,860-995-7310
Spitfire Charters,257b Heritage Village,Southbury,CT,06488,203-278-1402
Back Country Home,100 Grey Rock Place,Stamford,CT,06901,203-410-3829
Abesthaul,88elizabethdrive,Hebron,CT,06248,860-647-0373
Joshua Transport,27 Shortwoods Rd,New Fairfield,CT,06812,203-460-1129
John Prime,40 Watertown Rd,Thomaston,CT,06787,860-283-6166
Inter Produce,42 Windsor Ave,Vernon-rockville,CT,06066,413-885-1428
Calvary Sda,827 Trumbull Avenue,Bridgeport,CT,06604,203-374-4533
Trs Building & Design,219 Haley Rd,Ledyard,CT,06339,860-917-1920
Nboss Recyclers,85 Coalpit Hill Road,Danbury,CT,06810,203-501-4422
Ace Carpentry,59 Pleasant St,Enfield,CT,06082,860-741-5176
Moving And Storage,5 Cozier Hill Rd Ext,Sherman,CT,06784,860-355-7076
Mattsten Unlimited,523 West Pond Meadow Road,Westbrook,CT,06498,860-759-9474
Hawk Air & Sea,101 Commerce Rd,Brookfield,CT,06804,N/A
B & T Leasing,582 Five Mile River Rd,Putnam,CT,06260,860-928-4494
Jr Recovery,15 Trinity Lane,Windsor Locks,CT,06096,860-752-0795
U S T Construction,120 Snakemeadow Hill Rd,Sterling,CT,06377,860-564-5162
Connecticut Towing,13 Church St,Norwalk,CT,06854,203-846-3137
H & L Limousine,15 Monroe St,S Norwalk,CT,06854,203-853-1267
Olmstead Contractors,36 Townline Road,Wolcott,CT,06716,203-704-1594
Mitchell & Son,444 Grand Avenue,New Haven,CT,06513,203-627-3315
Elj Enterprise,78 Middle Lane,Torrington,CT,06790,860-489-6832
Stanton Enterprises,9 Colleen St,Danielson,CT,06239,860-942-2535
Crean & Son Transportation,7 Donat Dr,Wallingford,CT,06492,203-213-2710
M R Winslow Tranportation,94 Park Ave,Bloomfield,CT,06002,860-209-7296
Robert G Baye Enterprises,36 Pamela Dr,Milford,CT,06460,203-395-5357
Ik & W Brothers,67 Kennedy Road,South Windsor,CT,06074,860-290-1009
Used Car Seller,4 Hartford Ave,Newington,CT,06111,860-665-7025
Normandie Excavation,1095 Plainfield Pike,Oneco,CT,06373,860-230-0201
Cpt Trucking,312 Wolcott Street,Waterbury,CT,06705,203-982-0195
Shep's LLC,5 Middleton Drive,New Fairfield,CT,06812,203-746-5056
Diamond Disposal,20 South Anguilla Road,Pawcatuck,CT,06379,860-599-8661
1-800-got-junk,280 Talcottville Rd,Vernon,CT,06066,860-930-5451
Cormier Rv Towing,36a Maple,Colchester,CT,06415,860-537-3871
Willy B No 1 Trucking,25 Pinney Road,Bloomfield,CT,06002,860-890-1985
Sherman & Son,441 Toby Hill Road,Westbrook,CT,06498,239-362-3250
Lagoon Royal,58 Highview Ave,Stamford,CT,06907,312-731-9711
Gap,99 Prospect Hill,New Milford,CT,06776,860-327-1840
Tk Trucking,172 Blue Hills Avenue,Hartford,CT,06112,860-922-3904
Shoreline Transport,6 Connolly Drive,Old Saybrook,CT,06475,860-510-0315
Joyner Enterprises,42 Taylor Ave,Norwalk,CT,06854,203-984-1618
Herman Innis - Hut,60 Rita Ave,Bridgeport,CT,06606,203-338-1648
Shantok Motors,2246 Norwich New London Tpke,Uncasville,CT,06382,860-848-7731
Ray Nerbonne Construction,152 Bee St,Meriden,CT,06450,203-235-8216
Y&m Moving Furniture LLC,35 Farview Ave Apt 2,Danbury,CT,06810,203-947-8261
Dj Movers,53-b Marshall Road,Rocky Hill,CT,06067,860-997-7625
Ruggiero's Produce,13 Fox Hollow Lane,Sandy Hook,CT,06482,203-364-9074
Servpro Park City Shoreline,1 Bishop St,Norwalk,CT,06851,203-847-4900
Pat Ron's Delivery Service,330 Ezra Street,Bridgeport,CT,06606,203-545-2775
D & C Trucking,3250 Main Street,Bridgeport,CT,06606,203-414-6134
Daniel Vanburen Services,79 Campville Rd,Northfield,CT,06778,860-283-1182
Js Crabshack,534 Lower Lane,Berlin,CT,06037,860-231-9545
7 Delivery Service,249 Woodland St,Manchester,CT,06042,860-477-7077
Creative Mobile System,189 Adams Street,Manchester,CT,06042,860-649-6272
Fair Lake Visions LLC,11 Lakeview Ave,Chester,CT,06412,860-510-6899
R&j Harvesting,126 Boston Turnpike,Eastford,CT,06242,860-974-1323
Riverside Auto Ii,1008 Bank St,New London,CT,06320,860-449-3684
Executive Putting Green,92 Vine Rd,Stamford,CT,06905,203-496-0891
Eba Transportation,254 Pixlee Place,Bridgeport,CT,06610,203-543-7183
Jrvv Moving,8 Moss Ave Apt 2n,Danbury,CT,06810,203-826-6544
Twin -cam Transport,125 Lyons Rd,Bristol,CT,06010,860-877-9372
Fleeting And Sons Moving And Delivery,713 Main St,Newington,CT,06111,860-667-7107
Chapter 1 Fine Home Furnishings & Interior Design,121 Talcott Rd,West Hartford,CT,06110,860-523-8131
Pen Refuse,188 Quarry Road,Stamford,CT,06903,203-968-0794
Matco Tools,24 Requa Cir,Guilford,CT,06437,203-453-4808
Northeast Newspaper Distributors,One Court St,New Britain,CT,06052,860-225-4601
Advanced Home Services LLC,63 East Street,Vernon,CT,06066,860-896-1331
Cruz Shipping,227 Howe Avenue 3-s,Shelton,CT,06484,856-668-6483
Unlimited Gutters,41 Dodgingtown Road,Bethel,CT,06801,203-798-6958
Timber Outdoor Services,321 Bozrah St,Bozrah,CT,06334,860-367-3899
Hillside Harvesting,145 Beecher Road,Woodbridge,CT,06525,203-910-9641
Lp Transport,100 Randall Avenue,Bridgeport,CT,06606,203-449-1080
Goal Transportation,43 Seaview Ave Apt 9,Stamford,CT,06902,203-550-2716
Gw & Son Hauling,14 Staffordshire Commons,Wallingford,CT,06492,203-886-9924
Ct-dominicana Shipping LLC,36 Darling St,Southington,CT,06489,860-637-8025
Landfall Navigation,151 Harvard Ave,Stamford,CT,06902,203-487-0775
Fibrelite,100 Mechanics Street,Pawcatuck,CT,06379,860-599-6081
Agg Distribution LLC,969 North Street,Suffield,CT,06078,860-668-0827
Braswell Antiques & Auctions,20 Pulaski Street,Norwalk,CT,06851,205-515-2424
Aj&h Shipping,11 Greenfield Ave,Branford,CT,06405,203-848-4789
Adkt Enterprise,5 Howard Court,Bridgeport,CT,06605-1620,203-543-2662
Kaplan Tarps,42 Hilliard St,Manchester,CT,06042,860-643-1384
Jay Trucking,11 Hine Street,West Haven,CT,06516-4708,347-836-0099
R & T Enterprises,107 Woodland Dr,Cromwell,CT,06416,203-525-2392
Whitcraft,76 County Road,Eastford,CT,06242,860-974-0786
Salem Transport,149 Forsyth Rd,Salem,CT,06420,860-885-6127
"Als, Inc.",176 Park St,Bristol,CT,06010,203-813-2234
Bella Transport,19 Dodge St,New Britain,CT,06053,860-223-8766
Strickland LLC,5 Roxwood Drive,Quaker Hill,CT,06357,860-625-1765
Amazonia Services,245 Grandview Ave,Bridgeport,CT,06606,203-521-0363
W Trans LLC,100 Ten Coat Lane 4b,Shelton,CT,06484,203-444-9006
New England Soft Serve,56 School Road,Colchester,CT,06415,860-537-5459
T Bones Welding,3 Oakwood Avenue Apt A13,Norwalk,CT,06850,203-869-9180
Ohana Home Deliveries,195 Mount Vernon Road,Plantsville,CT,06479,860-938-5392
Jp Trucking LLC,76 Batterson Park Rd,Farmington,CT,06032,860-716-6821
Aspa Limo,69 Topstone Dr,Danbury,CT,06810,203-223-7498
Triple H Hauling,45 Claremont Ave,Wallingford,CT,06492,203-606-1263
Field Racing,63 Cedar Swamp Rd,Deep River,CT,06417,860-526-4995
"Bridgeport Live Poultry, Inc.",477 Harral Ave,Bridgeport,CT,06604,203-334-2916
Curtiss Wright Surface Technologies,12 Thompson Road,East Windsor,CT,06088,860-623-9901
Sweetlee,149 Limekiln Road,Redding,CT,06896,646-286-2268
Mobile Commercial Service,618 Hawley Ave,Bridgeport,CT,06606,203-414-0095
Kennedy Equine,52 Koger Road,Trumbull,CT,06611,203-673-2842
Choice Motor Car,436 East St,Plainville,CT,06062,860-410-1060
Flp Moving & Transporation Services Co,77 Mountain Rd,New Haven,CT,06515,203-928-0231
Excaliber Lawn Care,45 Boston Hill Road,Andover,CT,06232,860-742-8940
Randy's Trucking,671 Beachwood Ave,Bridgeport,CT,06604,203-543-1937
Musterdogs,364 Main Street,Portland,CT,06480,860-221-8259
L&j Express Transportation,1630 Main Street Apt517,Hartford,CT,06120,860-897-0422
Sweetwater Farm,78 Killingworth Tpke,Clinton,CT,06413,860-669-9473
Meriden Winwater Works Company,187 Gracey Ave,Meriden,CT,06451,203-634-6789
Estate Services,481 Canal Street,Stamford,CT,06902,203-286-5580
Teds Auto Center,144 Main St Annex,New Haven,CT,06512,203-469-8838
Gerald S Chirico,376 Main St,New Hartford,CT,06057,860-379-9153
Ida,46 Harvest Lane,Windsor,CT,06095,860-298-0079
Iron Horse Enterprises,105 Straits Tpk Ln,Morris,CT,06763,860-318-6569
Tropical Trucking,142 Plymouth St,New Haven,CT,06519,517-507-0612
Asbury Moulding & Millwork,34 Piave Street,Stamford,CT,06902,203-348-4500
Rent A Center,54 Ledgewood Dr,Brookfield,CT,06804,914-490-6783
Sam's Stoneworks LLC,15 Clematis Ave,Waterbury,CT,06708,203-597-8782
Zaku Masonry,23 Muller Street,New Fairfield,CT,06812,203-746-8429
I-ride LLC,421 Main St,Willimantic,CT,06226,860-208-0471
Gco Transport,132 Auburn St,Naugatuck,CT,06770,203-565-4041
Madeline Garner,188 Black Hill Rd,Central Village,CT,06374,405-217-4903
C & H Trucking,30 Oakland Terrace,Hartford,CT,06112,860-726-8335
Krysshanna Fruits And Vegetables,190 Ludlow Street,Stamford,CT,06902,203-568-5598
A & J Company,6 Smith St,Danbury,CT,06810,202-521-1493
Xpress Delivery LLC,2 Weir St,Glastonbury,CT,06033,860-430-9000
Arra Carpentry,66 Courtland Hill Street,Stamford,CT,06906,120-332-5392
Gdi Bakery Distributors,55 Whitehill Dr,West Hartford,CT,06117,860-214-1818
Mccollough Opertion,1175 State St,New Haven,CT,06513,203-901-8546
Quality Trucking,3250 Main St Apt 209,Bridgeport,CT,06606,203-345-0562
Nya,43 Scott Drive,Manchester,CT,06042,860-778-5878
Tl Transport,3 Amato Drive,South Windsor,CT,06074,860-680-8036
Dr Energy Saver,800 Prospect Hill Road,Windsor,CT,06095,860-653-9327
Keaton Transport,111 Sherbrook Ave,Hartford,CT,06106,860-817-6294
Ace Shipping,80 Cabot St 2nd Flr,New Britain,CT,06053,860-357-8043
Joseph E Roderick Dba Usa Basement LLC,856 Bailey Hill Rd,Dayville,CT,06241,860-774-7855
Cardona Hernandez Transport,26 Babcock Hill Rd,South Windham,CT,06266,202-521-1493
A&j Trucking,86 Sanford Ave 2nd Floor,Bridgeport,CT,06604,347-310-8299
Stage Fright Racing,232 Kickhill Rd,Lebanon,CT,06249,202-521-1493
Four Winds Farm,97 Geer Road,Lebanon,CT,06249,860-886-0716
Hunter Express,95 Beacon St,Newington,CT,06111,860-310-7497
J N M Transportation,74 Liberty St,Stamford,CT,06902,347-661-5561
Headys LLC,183 Five Mile River Road,Putnam,CT,06260,860-933-6436
Steve's Building & Remodeling LLC,93 Till St,Enfield,CT,06082,860-539-9843
Brook Run Farm LLC,18 Cinnamon Ridge,Old Saybrook,CT,06475,860-510-3763
Ja La & Sons Enterprise,22 Cabot Street 2 Floor,Hartford,CT,06112,860-816-1183
James Potter,174 Sherwood Drive,Torrington,CT,06790,860-489-9065
Rd6 Logistics,15 Club Drive,New Milford,CT,06776,203-947-3288
Johnny Dupree Transportation,2410 W Memorial Rd,Windsor,CT,06095,405-283-0698
Rauch,183 Reutemann Road,North Stonington,CT,06359,860-535-4633
The Firewood-pellet Boys,555 Senexet Rd,Woodstock,CT,06281-2333,860-928-6000
Pjm Enterprises,138 Country Hills,Hamden,CT,06514,203-281-4382
Pits Antique,49 Case Avenue,Winsted,CT,06098,860-379-7767
Rg Trucking,16 Coalpit Hill Rd Rl Home,Danbury,CT,06810,787-231-2991
Cst Transport,329 Gates Rd,Lebanon,CT,06249,860-423-4244
Adventure Bound,434 Litchfield Road,New Milford,CT,06776,203-470-8106
LLC,20 Ivy Dr,Meriden,CT,06450,203-514-0631
Lamartin Freight Hauling Service,373 Noble Ave,Bribgeport,CT,06608,203-290-4897
Go Graham,33 Lawrence Ave,Milford,CT,06460,203-690-2763
Dovolani Masonry,36 Indian Valley Rd,Weston,CT,06883,202-521-1493
Tint LLC,240 Valley Ave,Bridgeport,CT,06606,203-362-9674
Fts,76 Newton St,Fairfield,CT,06824,203-400-8144
J J B Deliveries,17 Edgewood Ave Apt B101,New Britain,CT,06051,860-839-7720
M&a Produce,965 Bridgeport Ave,Milford,CT,06460,347-221-7307
Bk Hauling,11 Whitney Rd,Bethel,CT,06801,475-235-8839
Chestnut Hill Show Stables,313 Pond Meadow Road,Westbrook,CT,06498,860-663-1257
My Dreams Home Improvement,680 Westfield Avenue,Bridgeport,CT,06606,646-456-6907
Earthly Trucking,40 Henderson Dr,East Hartford,CT,06108,860-815-0728
Dan Zak,1288 Main St,Glastonbury,CT,06033,860-918-5140
Perrysparcelandfreight,350 Long Beach Blvd,Stratford,CT,06615,203-644-3903
T&t Automotive,343 Main St,Manchester,CT,06040,860-643-6969
Global Kingdom Logistics,190 West Main St,Stamford,CT,06902,203-280-2440
Action Jackson,61 Lang Road,Windsor,CT,06095,860-595-7702
Mr Brown Trucking,455 Trumbull Ave - Apt 102,Bridgeport,CT,06606-6421,203-212-2947
Grasshopper Grounds LLC,601 Old Colchester Rd,Uncasville,CT,06382,860-848-6906
Ecer,379 Saw Mill Road,West Haven,CT,06516,203-931-4690
Burt C Curtis Excavating,690 Hulls Hill,Southbury,CT,06488,203-264-5886
B & G Refuse Service,27 Charles Place,New Canaan,CT,06840-4220,203-966-9325
K N Elliott Ii,940 Chapel St,Stratford,CT,06614,203-380-9398
Shaw Boy's Enterprise,44 Sherrill Street,New Britain,CT,06051,860-614-1412
Patrick Cyril Transporters,595 Ridgewood Road,Middletown,CT,06457,754-581-6210
Burgos Transport,35 Alexander Road,New Britain,CT,06053,860-347-7430
Dezanate Trucking,95 Homeside Ave,West Haven,CT,06516,475-227-4033
Nes Xpress,727 Campbell Ave,West Haven,CT,06516,860-849-3633
Matco Tools Authorized Distributor,152 Stuart Dr,Southington,CT,06489,860-919-1102
Liberty Rehab & Patient Aid Center,65 Stillwater Avenue,Stamford,CT,06902,203-327-5250
Gold Dust Logistics,32 Timothy Road,East Hartford,CT,06108,860-216-9013
Christina Brooks Dba Highroller Transportation,47 Park St,Shelton,CT,06484,203-893-3774
One Accord Transport,246 High Street,East Hartford,CT,06118,860-881-9466
1985,8cornelio Av,Wisted,CT,06098,860-238-4029
Tryall Trucking,94 Grande Avenue,Windsor,CT,06095,860-683-8477
M&m Landcare,20 Jordan Drive,Norwich,CT,06360,860-889-2120
Kenmax Delivery,7 Barnum Court,Danbury,CT,06810,203-537-8218
Jc Fence Contractors,105 Plainfield Pike,Plainfield,CT,06374,860-564-5553
Dc Transportation LLC,175 Stimson Road,New Haven,CT,06511,203-641-8906
Tizoto Delivery Services,3 Autumn Court,East Windsor,CT,06088,860-212-8162
Gt Transport,259 Oakville Ave Apt B38,Waterbury,CT,06708,203-510-7689
Mhtc Delivery,440 Willow St.,Bridgeport,CT,06610,203-455-7728
Kingdom Karriers,120 Union St,Willimantic,CT,06226,860-933-1000
Soto's Transport,2 Lincoln St,East Hartford,CT,06108,860-883-0981
Rush Enterprise,208 Holcomb Street,Hartford,CT,06112,860-815-0728
Jiovany's Transport,219 Garfield Avenue,Bridgeport,CT,06606,203-336-5468
Jesse Schultz's Hauling,8 Case Ave,Winsted,CT,06098,860-806-1183
Junk Doctor,121 Elm St,Fairfield,CT,06824-5105,844-362-5865
Bosley Enterprises,130 Winchester Ave Apt 25,New Haven,CT,06511,203-507-5324
Tavarez Transportation,178 Clinton Ave,New Haven,CT,06513,978-930-9970
Oak Transportation,197 Palm St,Hartford,CT,06112,860-969-0182
Eo Transport,316 Jeffrey Rd - Apt C,Willimantic,CT,06226-1825,860-208-5319
Ellis Trucking,63 Lebanon St,Hartford,CT,06112,757-232-0466
Jimenez Transportation,45 Kensington St,Hartford,CT,06120,267-205-9555
Bertz Delivery Service,55 Wildman St Apt 109,Danbury,CT,06810,203-523-9087
New England Gypsum Floors,22 Thomas Street,East Hartford,CT,06108,860-289-4117
New England Carpentry Services,232 Park Rd,Oxford,CT,06478,203-410-2475
Terra Nossa Bakery,20 Taylor St,Bethel,CT,06801,203-648-2189
Thomas George Co,146 Springside Ave Unit A-6,New Haven,CT,06515,203-913-1368
Jc Cheese,3 Hillside Drive,New Fairfield,CT,06812,203-746-5376
Gmedium,27whisconier Road,Brookfield,CT,06804,203-304-2405
"Smd, Inc.",43 Warehouse Point Road,Wallingford,CT,06492,203-949-9133
Lucky Dragon Trading,708 Plainfield Pike,Moosup,CT,06354,860-564-1465
Dreamscapers LLC,30 Main Street Suite B5,Danbury,CT,06810,203-743-7165
Artistic Home Remodeling,70 Whalehead Road,Gales Ferry,CT,06335,860-608-0738
Del S Bakery On Brewer Grandma Krol S Pete S Grill,404 University Drive,Torrington,CT,06790,860-307-5617
National Seating & Mobility,151 Rockwell Rd,Newington,CT,06111,860-666-7500
Used Export Duran,191 Park Ave,East Hartford,CT,06108,860-328-1011
Brother In Laws Masonry LLC,7 Crestwood Dr,Danbury,CT,06811,203-743-7465
Snap On Tools,25 Hunter Road,Tolland,CT,06084,860-896-1283
North Point Farm LLC,287 Prospect Mountain Road,Litchfield,CT,06759,860-567-2474
A G Masonry,20 Blackberry Rd,Danbury,CT,06811,203-994-5146
Mac Celtic Wholesalers LLC,94 Long Hill Ave,Shelton,CT,06484,203-449-0902
Past To Present,260 Main Street,Niantic,CT,06357,860-449-3312
B M C,127 Millard Street,New Britain,CT,06051,860-834-1566
Nu2u Thrift Shop LLC,122 Norwich Road,Plainfield,CT,06374,860-933-4010
Bic Windows And Doors,22 Mills St,Norwalk,CT,06850,862-571-2804
Winching By The Numbers Protiedownscom,478 Bass Rd,Windham,CT,06280-2204,860-942-4379
Express Recovery & Transport,117 Buena Vista Ave ,Newington,CT,06111-3327,860-882-4807
Kaplan Tarps & Cargo Controls,42 Hilliard St,Manchester,CT,06042-3002,860-643-1384
Garretts Carpentry,1 Glen Arden Ln ,Enfield,CT,06082-4759,860-815-0728
Hanna Motorsports,2 Harvest Rd ,Enfield,CT,06082-3041,860-745-1870
Fbfc,318 Main St,Berlin,CT,06037-2637,860-828-0333
David Judd,1201 Riverside Dr ,N Grosvenordl,CT,06255,860-576-2994
Jks Trucking LLC,31 Alenier St,Hamden,CT,06514,203-230-1140
Bonito Manufacturing,97 Defco Park Rd,North Haven,CT,06473,203-234-8786
Jon Minard Lighting & Grip,283 Hope Valley Rd,Amston,CT,06231,203-228-9069
Energy Saving Products,713 George Washington Tpke,Burlington,CT,06013-1515,860-673-7068
Whitehouse Sales,450 Ashford Center Road,Ashford,CT,06278,860-429-6222
Aerial Electric,26 Hotchkiss Street,Naugatuck,CT,06770,203-720-0900
Harold E Cole Antiques,27 Middle Quarter Rd,Woodbury,CT,06798,203-263-4909
Michelle's Bakery,25 Railroad Ave,West Haven,CT,06516,203-937-7227
Ralph Solhem Racing,80 Rowe Avenue,Milford,CT,06460,203-877-9200
H&s Enterprise,50 Bina Avenue,Windsor,CT,06095,860-719-1173
Northstar Installations,120 Hemlock Pt Dr,Coventry,CT,06238,860-490-0540
Knollery Farm,70 Stoneybrook Road,Stonington,CT,06378,860-535-0462
Marie's Country Furnishings,88 Salem Road,Prospect,CT,06712,203-756-4273
Thomas Fuller,92 Thrall Road,Windsor,CT,06095,860-688-4926
Page Enterprise,295 Ballard Road,Thompson,CT,06277,860-928-1640
Ramase Genuine Old Bldg Mtls,35 Joshua Hill Rd,Woodbury,CT,06798,203-263-3332
Agd Trucking,605 South Main Street,West Hartford,CT,06110,860-357-8747
Leighton Leon,50 Saw Mill Rd Unit 7106,Danbury,CT,06810,914-338-2815
Northeast Transport,16 Emerald Drive,Vernon Rockville,CT,06066,860-558-7356
Transportation And Delivery,32 Acra Rd,Waterbury,CT,06708,203-706-2333
Na,76 Jeffrey Ln,Newington,CT,06111-1616,860-987-2053
007 Enterprise LLC,1124 Avalon Drive East,Orange,CT,06477,475-988-4805
1 Stop Auto Transport LLC,251 Rubber Ave,Naugatuck,CT,06770,203-707-1021
1000 Trucking LLC,27 Windsor St,Enfield,CT,06082,860-478-2156
101 Express LLC,425 Mountain Road,Newington,CT,06111,860-469-8100
1020 Transport LLC,11 Oakridge Dr,Granby,CT,06035,860-952-4735
111 Recovery LLC,1385 East Street,New Britain,CT,06053,860-826-6111
112 Wellington Street Enterprises LLC,100 Wellington St,Hartford,CT,06106,860-883-4486
Future Cure,2 West Mountain Rd,Ridgefield,CT,06877,204-438-2400
121 Inflight Catering LLC,7 Juliano Dr,Oxford,CT,06478,203-264-0692
123-let's Transport,517 Emmett St Apt B14,Bristol,CT,06010,860-626-3461
124 Transport,177 Naubuc Ave,East Hartford,CT,06118,860-569-0494
127 Logistics LLC,127 Shelbourne Drive,Goshen,CT,06756,860-459-8676
By Any Means Transport,2134 Avalon Gates,Trumbull,CT,06611,917-405-1901
Ultimate Automotive,1608 Stratford Ave,Bridgeport,CT,06607,203-332-9189
"17 Logistics, Inc.",1204 Main St Pmb 573,Branford,CT,06405,203-723-3956
Cedar Mountain Stone And Mulch,1943 Berlin Turnpike,Wethersfield,CT,06109,860-563-9200
Standard Auto Recovery,23 Ventura Dr,Oakdale,CT,06370-1137,860-887-2405
1968 Auto Transport LLC,14 Lucy St Apt A,Greenwich,CT,06831,475-257-8057
1source Solution Logistics LLC,143 Franklin Rd Apt 7,Hamden,CT,06517,203-909-3873
1st Choice Transport LLC,394 Ledyard St,Hartford,CT,06114,860-491-0976
"1st Choice Trucking, Inc.",912 Albany Ave,Hartford,CT,06112,860-656-4032
First Class Transportation,41 Garden St Apt 2a,East Hartford,CT,06108,860-298-8442
1st Ride & Go Corp,58 Pine Street,New Canaan,CT,06840,917-579-1901
2 Ez Express,47 South Rd Apt 1b,Groton,CT,06340,917-678-7677
Tate Trucking,19 Aramamet St,Windsor,CT,06095,860-888-9833
2 Run Bus Lines LLC,121 Quinnipiac Ave,North Haven,CT,06473,203-572-4312
203 Automotive LLC,25 Clifton Ave,Ansonia,CT,06401,203-997-4590
203 Automotive LLC,34 Birdseye Rd,Shelton,CT,06484-2102,203-997-4590
203 Trucking & Company LLC,214 Benton St,Stratford,CT,06615,203-448-7199
203transport LLC,11 Pembroke Rd Apt 2,Danbury,CT,06811,475-236-7151
Riverside Automotive,431 Laurel Hill Ave,Norwich,CT,06360,860-449-3684
24 7 Oil LLC,925 Oronoke Road,Waterbury,CT,06708,203-565-1630
24 Hours Design & Print LLC,459 E Main St,Bridgeport,CT,06608,347-350-4484
24/6 Electric LLC,219 Preston Allen Rd ,Lisbon,CT,06351-7429,860-208-7014
24seven Express,502 Howellton Rd,Orange,CT,06477-2626,203-901-7127
25 7 LLC,545 Barnum Terrace Ext,Stratford,CT,06614,203-300-8281
"283 Industries, Inc.",3 Mallory Hill Rd,Ridgefield,CT,06877,203-276-8956
2brosandatruck,229 Hemingway Ave,East Haven,CT,06512-3002,203-536-3459
2ex Trucking LLC,275 Bassett St,New Haven,CT,06511,203-218-9987
2ez LLC,849 Matianuck Ave,Windsor,CT,06095,860-794-0297
2go Express LLC,72 Driftwood Ln,Trumbull,CT,06611-1861,203-400-8868
2js LLC,81 Stadley Rough Rd,Danbury,CT,06811,203-814-8173
2nd Genesis Trucking LLC,251 White St,Hartford,CT,06106,860-996-0451
2wheelstransporting LLC,230 South St,New Britain,CT,06051,860-729-5054
3 B Ranch LLC,66 Lanes Pond Road,Northford,CT,06472,203-234-8696
3 C's Transporting,1291 Quinnipiac Ave Apt 20,New Haven,CT,06513,203-999-6348
3 D Delivery Systems LLC,47 Midland Drive,West Hartford,CT,06107,860-896-5192
3 D Service,527 Glennbrook Road,Stamford,CT,06906,203-324-0100
3 Generation Driver LLC,30 Mansfield Dr Apt 1603,Northford,CT,06472,203-430-0035
3 Mak Trucking LLC,57 Ashley Court,Bloomfield,CT,06002,860-916-8733
3 Sons Transportation,44 Leominster Rd,Bristol,CT,06010,203-465-3640
365 Industries LLC,70 Pine St,Columbia,CT,06237,805-722-4403
365 Logistics LLC,58 Herald Ave,Bridgeport,CT,06606,646-726-1531
365 Septic LLC,75 Daggett St,Moosup,CT,06354-1235,860-949-2199
3b Lawn Care LLC,351 Country Club Rd,Cheshire,CT,06410,203-507-1177
3bservices LLC,150 Manhan St Apt 6-6,Waterbury,CT,06710-1863,475-206-3519
"3d's Service, Inc.",300 Britannia St Apt 41,Meriden,CT,06450,646-418-0862
3gs Trucking LLC,14 First St,Plainfield,CT,06374,860-564-8257
3mw Express LLC,64 Country Hills Rd,Hamden,CT,06514,203-491-6471
3n1m Solutions LLC,615 W Johnson Ave Ste 202,Cheshire,CT,06410,800-293-0370
"3pl Worldwide, Inc.orporated",500 Bic Drive Bldg #4,Milford,CT,06460,203-567-1099
4 Brothers Transport LLC,325 N Bishop Ave Apt 16,Bridgeport,CT,06610,475-449-0128
4 Given Transport And Road Assistance LLC,184 Lukas Lane,Waterbury,CT,06705,203-768-7614
4 T's Logistics LLC,10 Jamie Ln Apt C,Manchester,CT,06042,860-986-9882
4 T's Trucking LLC,10 Jamie Ln Apt C,Manchester,CT,06042,860-986-9882
40 Of Us Transport LLC,45 Union St,New Britain,CT,06051,860-778-9417
454 Life Sciences Corporation,50 E Industrial Blvd,Branford,CT,06405,203-871-2300
4d Trucking LLC,181 Mckee St,Manchester,CT,06040,860-815-0728
4j Trucking LLC,12 Angela Dr,Wethersfield,CT,06109,860-573-3043
4p Transportation And Carrier LLC,151 Wooster St,Shelton,CT,06484,929-261-2543
5 Brothers Transporting LLC,1584 Stratford Ave,Bridgeport,CT,06607,203-394-3041
5 Js Trucking LLC,198 Davenport Ave,New Haven,CT,06519,203-361-1116
5 Star Express LLC,9 Deborah Dr,Ellington,CT,06029,718-877-6725
5 Star Farmers Market,475 Flatbush Avenue,Hartford,CT,06106,203-520-3366
5 Star G Trucking LLC,20 Brentwood Lane,Windsor,CT,06095,213-271-0628
5 Star Transportation LLC,131 Fern St,Waterbury,CT,06704,475-313-2962
Ramada Plaza Hartford,50 Morgan Street,Hartford,CT,06120,860-549-2400
519 Trucking LLC,83 Wooster Heights Road Suite 125 102,Danbury,CT,06810,203-510-1363
528 Trucking LLC,95 Truman Street,New Haven,CT,06519,475-241-4524
53 Stars Transportation LLC,954 N High St,East Haven,CT,06512,203-539-2189
55 Freight LLC,55 Bridgeport Ave,Shelton,CT,06484,202-521-1493
555 Express LLC,40 Hillside Ave,Bridgeport,CT,06604,475-284-9967
5e Transportation LLC,82 Rosario Dr Apt 2,Waterbury,CT,06708,203-206-4267
6ixx Express LLC,179 Wetherell St,Manchester,CT,06040,860-532-9788
7 Express LLC,1206 Storrs Rd Ste C334,Storrs,CT,06268,860-717-2020
7 Star Express LLC,174 Rosette St Fl 2,New Haven,CT,06519,475-261-5454
7 Winds Logistics LLC,40 Richards Ave Ste 3,Norwalk,CT,06854,917-690-5715
7k National Trucking LLC,146 Springside Ave Unit A4,New Haven,CT,06515,203-824-9951
8 Ball Courier Service LLC,204 Woodland Ave,Bloomfield,CT,06002,860-692-0454
"8 Ways, Inc.",44 Avonwood Rd Apt 302,Avon,CT,06001,860-874-5120
Johns Auto & Truck Repair,85 Mill Plain Rd,Danbury,CT,06811,203-748-2466
876 Express Trucking LLC,341 East Center Street Pmb 188,Manchester,CT,06040,203-706-2284
9 North LLC,17 Melrose Avenue,Branford,CT,06405,203-738-9112
914 Transport LLC,299 Bucks Hill Rd,Waterbury,CT,06704,914-830-9963
915 Trucking LLC,1423 Quinnipiac Ave Unit 501,New Haven,CT,06513,203-928-9377
926 Logistics LLC,29 Housman St Fl 1,Danbury,CT,06810,203-947-5434
95 Logistic Services LLC,60 Whiton St,Windsor Locks,CT,06096,N/A
95 Transport LLC,1445 Waterbury Rd,Cheshire,CT,06410,860-262-4587
9lives Investment Group,24 Park St Apt 9d,Hartford,CT,06106,860-803-2615
Dsa Companies,819 Bridgeport Ave,Shelton,CT,06484,203-225-7734
A & A Crane And Rigging LLC,688 N Washington Avenue,Bridgeport,CT,06604,203-336-0007
"A & A Drywall & Acoustics, Inc.",66 Quirk Rd,Milford,CT,06460,203-878-3392
Betts Snow,10 Van Tassell Ct,Norwalk,CT,06851,844-256-2316
A & B Excavating LLC,33 Core Rd,Uncasville,CT,06382,860-848-7299
A & B Fuel Oil LLC,194 Hallock Avenue,New Haven,CT,06501,203-777-4265
A & C Automotive LLC,27 Meadow St,Hartford,CT,06114,860-999-3727
A & C Logistics LLC,61 Charter Oak St Apt D,Manchester,CT,06040,860-990-8664
"A & D Centerless Grinding, Inc.",54 Lewis Street,Plainville,CT,06062,860-747-6630
A & E Carting And Refuse LLC,7 Ruby St,Norwalk,CT,06850,203-956-6361
A & E Mercado Transportation LLC,736 Ellis St Apt 22,New Britain,CT,06051,860-000-0000
A & E Reliable Transport LLC,11 Old Purdy Station Rd,Newtown,CT,06470,475-297-6068
A & E Towing & Transport LLC,51 Richard St,Newington,CT,06111,860-993-2757
A & E Transportation Service LLC,20 Nancy Dr,Danbury,CT,06811,203-545-2772
A & E Trucking LLC,109 Rose Hill Ave Apt 1,Danbury,CT,06810,203-617-9746
A & F Trucking LLC,622 Hanover Road,Meriden,CT,06451,203-379-7099
A & G Carting LLC,26 Gillette St,Milford,CT,06460,203-877-0773
A & H Transport Services,2 South Pine St,Plainfield,CT,06374,860-908-9554
A & I Express LLC,303 Nott Street,Wethersfield,CT,06109,860-656-5404
A & J Sossou LLC,385 Broad St # 2,New Britain,CT,06053,860-794-3850
A & J's Transport LLC,110 Linda Ct,Naugatuck,CT,06770,203-243-2370
A & K Figueroa Trucking,30 Webb Avenue,Stamford,CT,06902,203-969-7218
A & K Transport LLC,25 Avalon Dr Unit 2221,Milford,CT,06460,203-850-5209
A&l&p Trucking,195 Lexington Ave,New Haven,CT,06513,203-606-1893
"A & L Russo, Inc.",1 Padanaram Rd Suite 101,Danbury,CT,06811,203-730-1832
"A & M Group Enterprises, Inc.",1 Hartford Sq,New Britain,CT,06052,860-505-8323
A & M Transport LLC,379 Grand Ave Fl 1,New Haven,CT,06513,203-203-4916
A & M Transportation LLC,8 Kevin Drive,Danbury,CT,06811,203-746-8532
A & M Truckload LLC,146 Chestnut St,Manchester,CT,06040,407-567-8737
A & N Auto Service LLC,1516 Park Street,Hartford,CT,06106,860-233-7079
A & N Transportation LLC,161 Birch Dr,Cheshire,CT,06410,203-449-0937
A & O Transport LLC,434 Blohm St,West Haven,CT,06516,475-241-5137
"A & P Auto Sales, Inc.",365 Main Street,East Hartford,CT,06118,860-568-0202
"A & P Trucking Co, Inc.",106 Pent Hwy,Wallingford,CT,06492,203-269-1524
"Bufferd Junk Company, Inc.",121 Knowlton Street,Bridgeport,CT,06608,203-334-0327
A & R Fuel,20 Lake Drive,Oxford,CT,06478,203-888-5239
"A & R Electric, Inc.",31 Miles Street,Bridgeport,CT,06607,203-368-3912
A & R Lawncare & Snowplowing LLC,95 Ellsworth Avenue,Waterbury,CT,06704,203-573-9326
A & R Rolon Transportation LLC,833 Park St Apt D4,Hartford,CT,06106,860-339-2209
Red Holdings,33 Michael Dr,West Haven,CT,06516,203-543-9689
Robert Newell,2 Lakeview Drive,Middlebury,CT,06762,203-598-0840
A & R Trucking LLC,66 Joshua Hill,Windsor,CT,06095,860-306-8742
A & S Construction Services LLC,39 Adams Street,Winsted,CT,06098,860-379-3028
"A & S Electrical Services, Inc.",42 Ozick Drive Drive Suite 1,Durham,CT,06422,860-349-5449
A 1 Glass Company,255 Sullivan Avenue,South Windsor,CT,06074,860-289-3481
"A 1 Septic Service, Inc.",57 Phelps Rd,Woodstock,CT,06281,860-974-1482
A A D Associates LLC,141 North Hill Road,North Haven,CT,06473,203-376-1631
A A Industries LLC,223 Nutmeg Rd S,South Windsor,CT,06074,860-291-8929
A A R K Delivery Services LLC,262 State Route 39,New Fairfield,CT,06812,302-257-1921
A A Trucking Excavating LLC,119 Burr Hill Road,Killingworth,CT,06419,860-663-5434
A Absolute Fuel LLC,1171 Middletown Avenue,Northford,CT,06472,203-484-3835
"A Anastasio & Sons Trucking Co, Inc.",80 Middletown Ave,New Haven,CT,06513,203-787-5746
A And A Construction Services LLC,2891 State Street,Hamden,CT,06517,203-248-4432
A And A Ii LLC,281 Bridgeport Ave,Shelton,CT,06484,203-924-8641
A And G Development LLC,115 Canterbury Lane,Trumbull,CT,06611,203-261-4420
A And S Freight LLC,30 Palmer Ave Apt 2,Jewett City,CT,06351,860-319-4108
"A B Bazzano Fuels, Inc.",3 Blackberry Lane,Norfolk,CT,06058,860-542-5694
"A B Container Co, Inc.",21 Manning Rd,Enfield,CT,06082,860-745-8789
A B Nationwide Hauling LLC,763 Tolland Stage Road #18,Tolland,CT,06084,860-896-1318
A Best Buy Premium Fuel & Trucking LLC,155 Hemingway Avenue,East Haven,CT,06512,203-468-6966
"A Better Way Salka Sons, Inc.",50 Sebethe Dr,Cromwell,CT,06413,860-635-3344
A Chambers Trucking,342 Cherry St Ext,Naugatuck,CT,06770,203-906-8619
A Clear View Window Cleaning,37 Burnham Street,Enfield,CT,06082,860-741-7961
A Cut Above Lawncare LLC,1261 Meriden Rd,Wolcott,CT,06716,203-509-1963
A D Express LLC,41 Geissler Dr,Shelton,CT,06484,203-892-8708
Affordable Fabrics,2119 Silas Deane Highway,Rocky Hill,CT,06067,860-563-7647
"A Deleo Construction Company, Inc.",100 Wheeler Street Unit A,New Haven,CT,06512,203-468-2676
"A Deluca & Sons, Inc.",57 Cognewaugh Rd,Cos Cob,CT,06807-1712,203-629-5886
A Design By Artur LLC,384 Seymour Street,Stratford,CT,06615,203-540-5036
A Dong Oriental Grocery & Gift,160 Shield Street,W Hartford,CT,06110,860-953-8903
A E American Transport LLC,25 Lanouette St,Meriden,CT,06451,203-815-9760
"A E Sibley, Inc.orporated",489 East Street,Middletown,CT,06457,N/A
A Emf LLC,126 Abner Ct Unit A,Bridgeport,CT,06606,203-545-9123
"A F Forbes, Inc.",119 Commerce Street,East Haven,CT,06512,203-468-2777
"A G Benson, Inc.",17 Town Line Road,Wolcott,CT,06716,203-879-1114
A Gallo & Company,85 Thomaston Road,Litchfield,CT,06759,860-482-5515
A Gjoni LLC,42 Francis St,Ansonia,CT,06401,203-305-6674
A Gobin & Son Trucking LLC,162 Turnpike Road,Ashford,CT,06278,860-429-8972
A Great Big Pile Of Leaves LLC,175 Mountain St,Willimantic,CT,06226,860-377-5232
A Great Way Delivery LLC,33 Connecticut Ave,New Britain,CT,06051-1717,860-790-1671
"A H Harris & Sons, Inc.",433 S Main St Suite 202,West Hartford,CT,06110,860-216-9500
"A I M Trucking, Inc.",367 Huntington Road,Stratford,CT,06497,203-378-9047
A J Hauling,436 Blacks Road,Cheshire,CT,06410,203-272-1992
A J Lion Trucking LLC,376 West Ave,Stamford,CT,06902,203-357-1544
"A J Masse & Son, Inc.",197 Old Canterbury Tpke,Norwich,CT,06360,860-822-8038
A J Nordland Co,70 Whittlesey Road,Washington Depot,CT,06794,860-868-1438
"A J P Trucking, Inc.",48 Baker Rd,Roxbury,CT,06783,860-355-2188
A J T Truck Leasing Corp,87 Ford St,Ansonia,CT,06401,203-735-9107
A J Waste Systems LLC,22 Burton Drive,Cheshire,CT,06410,203-272-1992
A James Logistics LLC,57 Petrie St,Bridgeport,CT,06604,203-243-0920
A K Auto Transport LLC,5 High Acres Rd,Ansonia,CT,06401,203-736-6099
A K Trucking LLC,14 High Street,Terryville,CT,06786,860-583-9881
"A Krueger Co, Inc.",34 Stony Hill Rd,Bethel,CT,06801,203-743-2255
A L Express LLC,80 Wampus Lane,Milford,CT,06460,203-301-4170
A L T C LLC,18 E Hayestown Rd,Danbury,CT,06811,203-676-2766
A L Trucking LLC,199 Cherry Hill Drive Apt 1a,Bridgeport,CT,06606,203-984-0966
"A La Carte Logistics, Inc.",70 Edgewood Ave,Stamford,CT,06907,203-918-9611
"A Laugeni Son, Inc.",370 Ardale Street,West Haven,CT,06516,203-934-5302
A Lima Transport LLC,2 Coldspring St,Norwalk,CT,06850,203-642-4884
A Long Haul Transportation LLC,300 Newhall St,New Haven,CT,06511,203-710-6999
A Long Haul Trucking LLC,11 Warren Street,Meriden,CT,06450,475-775-9090
"A Luis & Son, Inc.",58 1/2 Sheridan St,Danbury,CT,06810,203-743-9426
A M Automotive,430 Tolland St,East Hartford,CT,06108,N/A
A M Express Trucking LLC,204 C Windgate Circle,Monroe,CT,06468,917-960-0923
"A M I Wholesale Dist, Inc.",12 Baer Circle,East Haven,CT,06512,203-466-5534
A M R Transport Corp,33 Valerie Ln,Danbury,CT,06811,914-406-1001
"A M Rizzo Electrical Contractors, Inc.",64 Triangle Street,Danbury,CT,06810-5014,203-731-3131
A Montecalvo Trucking LLC,34 Clifford Avenue,Stamford,CT,06905,203-975-2969
A Mozo Land Services LLC,24 Crescent Street Apt 2,Stamford,CT,06902,203-918-6310
A New England Auto & Truck,1087 East St South,Suffield,CT,06078,860-623-1427
Norwich Agway,217 Otrobando Ave,Norwick,CT,06389,860-889-2344
A One Recycling,56 Rose Hill Road,Branford,CT,06405,203-488-5510
"A P Marquardt, Inc.",114 South Road,Groton,CT,06340,860-445-1850
A Palmieri Trucking LLC,46 Pondview Terrace,East Haven,CT,06512,203-467-7054
Paul's Trucking & Excavating,146 Hartland Blvd Route 20,East Hartland,CT,06027,860-653-2942
A Plus Asphalt Services LLC,109 Hubbard St,Glastonbury,CT,06033,860-659-1917
A Plus Auto Service,1671 Fairfield Ave,Bridgeport,CT,06605,203-690-4534
A Plus Transport LLC,14 Kirkham St,Branford,CT,06405,203-488-9568
"A Posta Transfer, Inc.",65 Gate Ridge Rd,Easton,CT,06612,203-385-1031
"A Quick Pick Crane Service, Inc.",55 Bridgeport Ave,Shelton,CT,06484,203-924-2000
A R E Transportation LLC,174 Montauk Dr,Stamford,CT,06902,718-576-9551
"A R Express, Inc.",7c Pasco Drive,East Windsor,CT,06088,866-663-8608
A R L Transport LLC,40 Spaulding Cir E Hartford Ct,East Hartford,CT,06118,203-627-2821
A R Trucking And Logistics LLC,680 East Main Street Suite 771,Stamford,CT,06854,475-258-6793
A Reliable Fence,1072 Orange Ave,West Haven,CT,06477,203-933-5404
A & L Family Oil,38 Water Street,Meriden,CT,06451,203-630-2495
A S Henkind & Associates LLC,40 Scovil Rd Extension,Higganum,CT,06441,860-575-4323
A S J Trucking LLC,8 Byrd Road,Norwalk,CT,06850,203-257-6203
A S Logistics,335 Chestnut Street,Cheshire,CT,06410,203-641-1685
A S Transport LLC,1287 Troutbrook Drive,West Hartford,CT,06119,860-519-9382
"A Silverio Asphalt Paving, Inc.",28 Washington Avenue,Danbury,CT,06810,203-748-5649
A Sime Transportation LLC,1 Tremont Ave,Bethel,CT,06801,631-835-5756
A T Masonry LLC,33 Outlook Road,New Milford,CT,06776,860-350-0505
"A Team Express, Inc.",528 May St,Naugatuck,CT,06770-3342,475-455-0028
A Team Trucking LLC,25 Washington Ter,Bridgeport,CT,06604,203-502-3459
A To B Relocation Services LLC,38 Old State Road,New Milford,CT,06776,860-350-4810
A To Z Transport LLC,39 Walnut Rd,Rocky Hill,CT,06067,860-830-2109
A To Z Used Cars,21 Central Grand Ave,Wallingford,CT,06492,203-265-9230
"A Torello Trucking, Inc.",1 Mill Street,East Haven,CT,06512,203-468-0870
"A Usa Logistics, Inc.",214 Main Stree ,Hartford,CT,06106,203-524-9870
A Vitti Excavators LLC,35 Harbor Street,Stamford,CT,06902,203-359-4723
"A Vitti Recycling, Inc.",10 Rugby Street,Stamford,CT,06902,203-359-4723
A W P Trucking LLC,73 S Prospect St,Putnam,CT,06260,561-232-4245
A W Tools LLC,168 Rathbun Hill Rd,Salem,CT,06420,860-304-2306
A York Rooter,119 Carol Street,Danbury,CT,06810,203-744-6669
A Z Courier Trucking LLC,22 Cottage Pl,New Britain,CT,06051,860-224-4411
A Z Trucking Company,495 Thompson Ave,East Haven,CT,06512,203-467-0526
A&a Carriers LLC,1325 E Main St Ste 25,Waterbury,CT,06705-1072,203-299-2617
A&a Heavens Transportation LLC,14 Wind Sock Rd,West Haven,CT,06516-7155,203-804-6049
A&a Mobile Services LLC,116 Black Rock Ave,Bridgeport,CT,06605,203-690-8670
A&a Transportation LLC,44 William St,New Britain,CT,06051,860-221-4630
A&b Enterprises LLC,96 Central Ave,East Hartford,CT,06108,860-372-9633
A&btruckingLLC,5 Westview Dr Apt G,Bloomfield,CT,06002,615-877-0882
A&c Connection Inspection LLC,30 Over Look Drive,Hamden,CT,06514,203-389-7520
A&c General Contractors LLC,154 Cliff Street,Naugatuck,CT,06770,203-723-0199
A&d Auto Carrier LLC,37 Watch Hill Dr,Middletown,CT,06457,860-324-6815
A&d Logistics LLC,298 Thorme St,Bridgeport,CT,06606,203-953-8949
A&d Movers LLC,348 Willow Street,Bridgeport,CT,06610,203-923-6304
A&d Trucking LLC,56 Liberty Ave,Danbury,CT,06810,203-300-6328
A&e Auto Service,Wolcott Road,Wolcott,CT,06716,203-879-4611
A&e Enterprise LLC,221 Collins St,Hartford,CT,06105,845-661-0905
A&e Hauling LLC,20 Fairlawn St,West Hartford,CT,06119-1722,860-830-1200
A&e Logistics Ltd,287 Crown Street Apt 2,Meriden,CT,06450,646-712-1660
A&e Transport Brothers LLC,30 Edwin Ave,Waterbury,CT,06708,475-449-1054
A&e Transport LLC,158 Standish Avenue,North Haven,CT,06473,203-887-0681
A&f Quality Transport LLC,242 Litchfield St,Torrington,CT,06790-6409,347-604-5415
A&g Express Group LLC,19 Great Oak Ln,Redding,CT,06896,203-898-4417
A&g Transportation And Logistics LLC,177 W Putnam Ave,Greenwich,CT,06830,475-350-0328
A&g Transportation LLC,28 Westbourne Pkwy,Hartford,CT,06112,860-960-5753
A&h Trucking LLC,12 Coram Rd,Shelton,CT,06484,347-484-1165
A&i Transportation Express LLC,9 Tory Ln,New Milford,CT,06776,914-562-3261
A&j Lawncare,68 Oakleaf Dr,Waterbury,CT,06708,203-910-3572
A&j Reliable Transportation LLC,26 Charter Ave,Waterbury,CT,06705-3014,860-890-3150
A&j Transportation LLC,88 Sterling St,Hartford,CT,06112,201-877-8250
A&j Tree Service LLC,1722 New Britain Avenue,Farmington,CT,06032,860-677-4904
A&k Milestone Transport LLC,254 Hillside Ave,Waterbury,CT,06710,203-819-3153
A&l Trucking LLC,5 Valentine Rd,Pomfret Ctr,CT,06259-2113,860-823-8780
A&m Auto Transport,480 Circular Ave,Hamden,CT,06514,203-444-4677
A&m Contractors LLC,24 Brownstone Ridge,Meriden,CT,06451,203-634-4985
A&m Fencing LLC,120 Russo Ave ,East Haven,CT,06513-2742,202-521-1493
A&m Trucking LLC,89 Chestnut St Apt A,Bethel,CT,06801,203-501-7420
A&p Logistics LLC,78 Dora St Apt 2a,Stamford,CT,06902,475-393-8707
A&r Auto Body LLC,131 Kendall Street,New Haven,CT,06512,203-469-0116
A&r Logistics LLC,34 Lee Ave,Bridgeport,CT,06605,646-260-8452
A&t Communications LLC,11 Cedric Avenue,Derby,CT,06418,203-683-4839
A&w Trucking LLC,336 Buckingham St,Oakville,CT,06779,781-413-5463
"A&y Group, Inc.",63 Glemby St,Hamden,CT,06514,203-809-3182
"A-1 Auto Body Works, Inc.",26 Bridge Street,New Milford,CT,06776,860-355-4230
Otm Trucking,177 West Putnam Ave,Greenwich,CT,06830,860-983-1339
"A-1 Dirtmovers, Inc.",15 Morey Rd,New Milford,CT,06776,860-210-8074
A-1 Enterprises LLC,1400 New Britain Avenue,Farmington,CT,06032,860-677-1329
A-1 Pools And Spas Corp,199 Quaker Farms Rd,Oxford,CT,06478,203-888-5915
"A-1 Sealcoating, Inc.",37 Dutton Road,Oxford,CT,06478,203-888-7341
"A-1 Septic Co, Inc.",8 Dick Finn Road,New Fairfield,CT,06812,203-746-5482
A-1 Waste Removal And Recycling Company LLC,15 Stage Coach Road,Higganum,CT,06441,860-345-3119
A-b Port Logistics LLC,54 Hartford Tpke Unit 2137,Vernon Rockville,CT,06066,959-200-0139
A-l Automotive LLC,291 Terryville Road,Bristol,CT,06010,860-582-6276
A-n-e Transport,151 1st St,New Britain,CT,06051-1648,860-328-4679
A-plus Installation LLC,150 B Park Avenue,East Hartford,CT,06108,860-202-2288
A-team Hauling LLC,217 East St S,Suffield,CT,06078,860-752-0840
A-z Madison Excavating Co LLC,14 Lawson Drive,Madison,CT,06443,N/A
A-z Recovery Service LLC,27 Spencer Court,East Hartford,CT,06108,860-480-1390
A1 Distribution LLC,725 Burnside Ave,East Hartford,CT,06108,860-407-6277
A1 Priorities Professional Limited Liability Company,145 Highland Ave,Waterbury,CT,06708,203-819-3457
A1 Propane LLC,36 Sheldon Rd,Manchester,CT,06045,860-643-1552
A1 Trans LLC,1155 Huntington Tpke,Bridgeport,CT,06610,917-383-7852
Civitella & Associates,126 Derby Ave,Derby,CT,06484,203-736-2484
A2b Transportation LLC,255 Clover St,Stratford,CT,06614,475-236-9337
A2z Trucking LLC,41 Dougherty St,Manchester,CT,06040,954-669-5254
Aa & J Logistics LLC,998 Campbell Ave Apt 17,West Haven,CT,06516,203-361-2382
"Aa Glass, Inc.",1393 Blue Hills Ave,Bloomfield,CT,06002,860-243-3440
Aa To And Fro Movers LLC,4 Julie Ln,Bloomfield,CT,06002,860-416-2542
"Aa Truck Brokers, Inc.",1783 Meriden Waterbury Tpke,Milldale,CT,06467,203-621-9388
Aa Truck Transport LLC,9 Boxwood Cir,Bloomfield,CT,06002,860-874-8175
Aa Trucking LLC,114 Pine Hill Avenue,Stamford,CT,06906,203-550-4378
Aa&d Transport LLC,4 Button St 3rd Fl,New Haven,CT,06519,347-928-9973
Richard S Davis Jr Dba Aa-1 Hauling,246 Griswold St ,Glastonbury,CT,06033-1173,860-881-4745
Aaa Advantage Carting & Demolition Service LLC,37 B Diaz St,Stamford,CT,06902,203-329-3878
Bargain Moving And Storage,39 Maple Tree Avenue,Stamford,CT,06906,203-323-8677
Aaa Bongiorno Carting Demolition,79 Hardesty Rd,Stamford,CT,06903,203-223-2135
"Aaa Car Care, Inc.",35-49 Dodge Avenue,North Haven,CT,06473,203-937-2595
Kleen Sweep Container Services,8 Viaduct Road,Stamford,CT,06907,203-324-4090
Aaa Enterprises Usa LLC,22 Victoria Road,Hartford,CT,06114,917-415-3239
Aaa Global Logistics LLC,608 Main St,Stamford,CT,06901,646-715-8320
Mary & Louie Randall Oil,26 Greenfield Lane,North Haven,CT,06473,203-239-2000
Aaa Pavement Marking LLC,23 Eleanor Road,Somers,CT,06071-0826,860-745-2187
"Aaa Transport, Inc.",39 Farmington Ave,New Britain,CT,06053,347-498-6392
Aaa Transportation LLC,14 Regency Drive Apt 1,Bloomfield,CT,06002,860-656-5462
Aaak Trucking LLC,84 Walnut Rd,Rocky Hill,CT,06067,860-997-8256
Aaaw Enterprise LLC,190 Tomlinson Ave Unite 17d,Plainville,CT,06062,800-587-2893
Aah Trucking,245 South St,Hartford,CT,06114,860-656-8035
Aaron Express,2 High Street,Woodbridge,CT,06525,203-401-9472
Aaron's Trucking LLC,28 Emerson St,Manchester,CT,06040,860-899-4004
"Aastro Speed Transport, Inc.",77 Astoria Ave 77 Astoria Ave,Bridgeport,CT,06604,203-212-4510
Ab & J LLC,360 Connecticut Ave Suit 155,Norwalk,CT,06854,203-667-4313
Ab Cornelius Enterprises LLC,8 Bel Aire Drive,Plainville,CT,06062,860-351-5412
Ab Reilly Corporation,236d Main St,Monroe,CT,06468,203-459-4778
Ab Cdl Training Center,35 Great Neck Road,Waterford,CT,06385,860-444-8099
Ab Transports LLC,90 Sunrise Ave,Fairfield,CT,06824,475-999-1442
Abade LLC,107 Cornelius Ave,Waterbury,CT,06706,203-733-6089
Abatement Industries Group,802 Orange Ave,West Haven,CT,06516,203-932-9639
Abatement Plus,6c Northwood Rd,Bloomfield,CT,06002,860-242-7068
Abbey Road Transportation LLC,568 Center St,Manchester,CT,06040,860-646-1913
Rabbit Hill Farm,17 Papoose Hill Road,Newtown,CT,06470,203-270-1667
Abc Delivery Services,22 Cabot St,Hartford,CT,06112,860-250-6369
Abcdexcavating LLC,201 Lebanon Avenue,Lebanon,CT,06249,860-642-7909
"Abco Distribution, Inc.",880 West Main St,New Britain,CT,06053,860-224-8812
"Abco Welding Industrial Supply, Inc.",130 Cross Rd,Waterford,CT,06385,860-442-0363
Abco Wholesale Distributors,880 West Main St,New Britain,CT,06052,860-224-8812
Abdon B Pillacella LLC,2649 Main St,Bridgeport,CT,06606,914-562-2783
Abdoulaye Adjei,1008 Dixwell Ave,Hamden,CT,06514,203-407-9403
Abec Trucking LLC,33 Chester Dr,Windsor Locks,CT,06096,860-623-2577
Abel Transport Limited Liability Company,67 Melrose St,Bristol,CT,06010,860-502-9377
Abetterchoice LLC,11 Lee Ave Apt 1,Danbury,CT,06810,203-826-4608
Abl Enterprises LLC,68 Robert St 3rd Fl,New Britian,CT,06053,860-519-2294
Abl Trucking LLC,78 Ashford St,Windsor,CT,06020,860-306-4239
"Able Rigging Transfer, Inc.",185 Burnham Street,East Hartford,CT,06128,860-282-2233
Able Scale & Equipment Corp,10 Hilliard St,Manchester,CT,06040-3002,860-646-6929
Able Tool & Equipment LLC,410 Burnham Street,South Windsor,CT,06074,860-289-2020
Abm Transport LLC,120 Folly Brook Blvd,Wethersfield,CT,06109,860-833-6492
Abm Trucking LLC,262 Middle Tpke E,Manchester,CT,06040-4204,860-938-8551
Abn Logistics LLC,66 Park Ave,Wethersfield,CT,06109,518-225-7004
Aboki Express LLC,66 Pheasant Lane,East Hartford,CT,06108,860-328-4466
Above And Beyond Equipment Rentals LLC,736 Boston Post Rd,Madison,CT,06443,203-350-0542
Above The Sky Transport LLC,45 Taylor Drive,Hartford,CT,06120,N/A
Abq LLC,54 Fairview Ave,Stratford,CT,06614-4940,203-621-8007
Abraham Basher,35 Spring Street,Danbury,CT,06810,203-297-5705
Abrahams Trucking LLC,134 Brookside Road,Newington,CT,06111,860-518-3021
Abrams Paving Contractors LLC,46 Congress St,Hartford,CT,06114,860-578-9107
Abrams Trucking LLC,43 Burton St,Hartford,CT,06112,860-995-0076
Abro LLC,115 West Rd Unit 3002,Ellington,CT,06029-3791,860-796-1934
Absolute Auto Body,503 Broad Street,New London,CT,06320,860-437-0868
Absolute Energy LLC,600 East St # 100,New Britain,CT,06051-2132,860-992-6444
Absolute Logistic LLC,23 Newtown Rd,Danbury,CT,06810,203-994-5360
Absolute Packers LLC,76 Van St,Stratford,CT,06614,203-383-3167
Absolute Service LLC,4-c National Drive,Windsor Locks,CT,06096,860-627-0042
Absolute Transportation LLC,70 Dayton Rd,Redding,CT,06896,203-938-0000
"Abulani Movement, Inc.",106 Merriam St,Bridgeport,CT,06604,347-581-5798
Abundant Energy LLC,85 Rock St,Winsted,CT,06098,860-738-7450
"Ac Auto Body & Mechanical Service, Inc.",182 Main Street,New Canaan,CT,06840,203-966-1818
Ac Auto Carriers LLC,975 Campbell Avenue,West Haven,CT,06516,203-937-8697
Ac Carrier LLC,223 Spruce Brook Rd,Berlin,CT,06037,973-417-0579
Ac Expedited LLC,9 Union Sq # 1040,Southbury,CT,06488,860-804-2749
Ac Transport LLC,209 Franklin Rd,Hamden,CT,06517-3613,203-503-8202
Ac Transportation LLC,36 Hart Circle Apt 3,Waterbury,CT,06705,203-841-5084
"Academy Auto Sales, Inc.",26 Academy Street,Bristol,CT,06010,860-589-7080
Academy Overhead Door Corp,130 Lenox Ave,Stamford,CT,06906,203-325-3524
Acc Trans LLC,183 Alden St,New Britain,CT,06053,860-205-8145
Accelerated Diesel Tech LLC,38 Benson Street,New Britain,CT,06051,860-818-5739
Access Transportation Solutions LLC,84 Rivergate Lane,East Berlin,CT,06023,860-916-8211
Accessible Mobility LLC,32 Field Point Rd,Greenwich,CT,06830,203-860-4038
Accolade LLC,760 Ellis St Apt 51,New Britain,CT,06051,860-829-7221
AccucreteLLC,171 Woodchuck Lane,Harwinton,CT,06791,860-601-1510
Accurate Automotive,1173 Mill Street,East Berlin,CT,06023,860-828-9399
Accurate Burring Co LLC,161 Woodford Avenue St 5,Plainville,CT,06062,860-747-8640
Ace Auto Sales LLC,201 S Main St,Beacon Falls,CT,06403,203-729-6637
Ace Carting LLC,50 Scott Rd,Prospect,CT,06712-1332,203-795-3797
Ace Distributing LLC,93 West Main Street,Plainville,CT,06062,860-793-1400
Ace Finishing Co LLC,225 Terryville Road,Bristol,CT,06010,860-582-4600
Ace Global Logistics Corp,14 Brown St,Hartford,CT,06114,347-884-4677
Ace Holdings LLC,20 Totoket Rd,North Branford,CT,06471,860-874-7549
Ace Oil Co LLC,50 High St Unit 1-a,Meriden,CT,06450,203-630-9141
"Ace Trailer Leasing, Inc.",121 Pine Orchard Rd,Branford,CT,06405-6422,203-483-0201
Ace Transmission Auto Repair LLC,528 Honeyspot,Stratford,CT,06615,203-377-5199
"Ace Truck Repair, Inc.",12 Putnam Place,Plantsville,CT,06479,860-621-8388
"Ace Van & Storage, Inc.",210 Realty Dr,Cheshire,CT,06410,203-271-1555
Acela,10 Edgewood Street,Cromwell,CT,06416,860-754-6970
Aces Trucking LLC,49 Cullen Ave 49 Cullen Ave,West Haven,CT,06516,475-655-8862
Acethegreat1,30 Norton Ave,Hamden,CT,06514-3048,475-261-0543
Aci Transportation LLC,155 Abbotsford Ave,West Hartford,CT,06110,860-994-9264
Aclase Transport LLC,235 Caroline St # 2,Derby,CT,06418-1928,475-731-1063
Acm Carting Services LLC,29 Willow St,Norwalk,CT,06851,203-855-8405
Acme Auto Leasing LLC,440 Washington Avenue,North Haven,CT,06473,800-242-7767
Acme Monaco Corporation,75 Winchell Road,New Britain,CT,06052-1098,860-224-1349
"Acme Wire Products Co, Inc.",7 Broadway Ext,Mystic,CT,06355-2701,860-572-0511
Acorn Custom Pallet & Box LLC,910 Riverside Dr,N Grosv,CT,06255,860-617-7455
"Acoustic Creation Services, Inc.",850 Main St,Bridgeport,CT,06604,203-272-2755
Acp Plus LLC,1012 East St,Middletown,CT,06457,860-982-1330
Acp Trucking LLC,7 Christian St,New Preston,CT,06777,860-868-3924
Acres Of Diamonds Transport LLC,35 Talcottville Rd Ste 31,Vernon Rockvl,CT,06066,413-640-1732
Antonio Carlos Serra,777 Capitol Ave,Bridgeport,CT,06606-5259,203-360-3629
Act Trucking LLC,133 Oakland Pl,Stratford,CT,06615,860-217-1111
"Action Enterprises, Inc.",80 Bradley Rd,Woodbridge,CT,06525-2304,203-397-0822
Action Jackson Carriers LLC,23132 Town Walk Dr,Hamden,CT,06518-3764,203-816-8481
Action Moving & Storage,130 New Haven Rd,Seymour,CT,06483,203-881-3245
"Action Remodeling, Inc.",103 Wynwod Drive,New Milford,CT,06776,860-799-0455
Action Wholesale Autos,90 Weathervane Drive,New Milford,CT,06776,203-994-5279
Action Wildlife Foundation,337 Torrington Road,Goshen,CT,06756,860-482-4465
Active Auction Services,125 Greenwood Avenue,Bethel,CT,06801,N/A
Acura Of Avon,75 Albany Tpk,Canton,CT,06019,860-693-6981
Ad Driven LLC,49 Andrews St,Meriden,CT,06451,203-393-8332
Ad Enterprise LLC,11 Highland St # 13,East Hartford,CT,06108-3427,860-573-4014
Ad Transport LLC,232 Vine Street,Hartford,CT,06112,860-986-0213
Ada Express LLC,222 Jordan Lane,Wethersfield,CT,06109,860-878-8313
Adam Joyce,1224 Mill St Bldg B,East Berlin,CT,06023,844-836-8464
"Adam Stelmaszek & Sons, Inc.",16 Edison Ave,Fairfield,CT,06825,203-579-4651
Urbanski LLC,165 Cedar Heights Rd,Stamford,CT,06905,203-276-9283
Adam's Transportation LLC,155 Tracy Ave Fl 2,Waterbury,CT,06706,475-256-9428
Adamowski Heating And Cooling LLC,19 Kathy Ln,Ansonia,CT,06401-1349,203-494-7641
"Adams Refuse, Inc.",28 Jefferson St,Norwalk,CT,06851,203-847-1798
Adams Transport LLC,210 Fairfield Ave,Hartford,CT,06114,860-841-2927
Adams Travel Service,130 Market Square,Newington,CT,06111,N/A
Adams Watergardens,226 Filley Rd,Haddam,CT,06438,860-449-3084
American Dry Basement Systems,28 Del Mar Dr,Brookfield,CT,06804,203-730-2200
Adc Transportations LLC,25 Andover St,Hartford,CT,06112,860-890-1792
Add Transportation LLC,40 4th Ave,New London,CT,06320,860-857-0322
Addies Oil LLC,416 Highland Ave,Middletown,CT,06457,860-358-9744
Addy Brothers LLC,631 Talcottville Rd - Apt M7,Vernon,CT,06066-2317,860-872-8185
Adeleke A Adebowale Trucking LLC,27 Lansing Pl,Bridgeport,CT,06606,203-545-5453
Adella LLC,56 Mallard Ct,Windsor Locks,CT,06096,860-543-1145
Adelphia,One Hilltop Road,Norwich,CT,06360,860-889-6269
Ademir R Fedumenti,18 Coral Dr,Huntington,CT,06484,203-913-3557
Adh Trucking LLC,345 Buckland Hills Drive Unit 9122,Manchester,CT,06042,860-478-9643
Adilou Trucking LLC,76 Oak St Apt 3,Waterbury,CT,06704,203-312-4454
Adilson Loures,9 Woodside Ave,Danbury,CT,06810,203-482-9953
Adl Transport LLC,94 Hale Rd,Glastonbury,CT,06033,787-397-0672
"Admiral Moving & Storage, Inc.",420 Ellington Road,South Windsor,CT,06074,860-528-4421
"Admiral Trucking, Inc.",260 Tolland Tpke,Manchester,CT,06040,203-278-5170
Adoni Transport LLC,94 Hillview Ave,Waterbury,CT,06704,203-910-1628
Adrian Chavez-delgado,25 Knapp St Apt 1,Norwalk,CT,06854-4301,203-644-4216
A & D Express,62 Walnut St,Seymour,CT,06483,203-892-0952
Adt Hauling LLC,124 Maple Ave Apt D,Hartford,CT,06114,860-256-7844
Adt Transportation LLC,2660 North Ave Unit 117,Bridgeport,CT,06604-2395,413-222-7080
"Advance Auto Service, Inc.",321 A Indian River Rd,Orange,CT,06477,203-891-0622
"Advance Mold & Manufacturing, Inc.",71 Utopia Road,Manchester,CT,06042,860-783-5024
Advance Resources LLC,70 Foster Rd ,Waterford,CT,06385-1206,860-536-5833
Security 101,10 Pine St ,Plainville,CT,06062-1941,800-991-4170
Advance Septic Tank Service,185 W Newberry Rd,Bloomfield,CT,06002,860-653-5615
Advance Transport LLC,222 Tudor St,Waterbury,CT,06704,203-982-4637
Advance Trucking LLC,210 Read St,Bridgeport,CT,06607,203-760-0701
Advanced Asset Recovery LLC,401 Union City Road,Naugatuck,CT,06770,203-627-1806
Advanced Audio Visual Systems,206 Skinner Rd,Vernon,CT,06066,860-875-1991
Advanced Auto Works,47 Halley Court,Fairfield,CT,06825,203-384-2886
Advanced Copy Technologies,20 Commerce Drive,Cromwell,CT,06416,860-632-9294
"Advanced Delivery Systems, Inc.",1071 Post Road East,Westport,CT,06880,203-291-6840
"Advanced Electrical Contractors, Inc.",528 Washington Ave,North Haven,CT,06473,203-234-3945
"Advanced Gas Co, Inc.",129 West Dudley Town Road,Bloomfield,CT,06002-1379,860-243-5057
Advanced Graphics,55 Old South Avenue,Stratford,CT,06615,203-378-0471
Advanced Improvements LLC,61 West Main Street,Mystic,CT,06355,860-625-8846
"Advanced Logistics, Inc.",74 County Road,Woodstock,CT,06281,860-974-1855
Advanced Overhead Door LLC,152 Kick Hill Rd 152 Kick Hill Rd,Lebanon,CT,06249,860-608-5179
Advanced Package Transports LLC,400 Harwinton,Plymouth,CT,06782,N/A
"Advanced Performance Glass, Inc.",26 Schweir Road,South Windsor,CT,06074,860-290-8453
"Advanced Printing Services, Inc.",135 Cross St,Bristol,CT,06010,860-583-1906
Advanced Property Maintenance LLC,292 Green Manor Terrace,Windsor Locks,CT,06096,860-883-0690
Advanced Roadside Service LLC,580 Brookside Drive,Fairfield,CT,06824,203-254-2293
Advanced Roll-off LLC,111 Pumpkin Hill Rd,New Milford,CT,06776,860-350-9400
"Advanced Roofing Co, Inc.",6 Salem Road,Wilton,CT,06897,203-762-1002
Advanced Scaffold Services LLC,117 Mountain View Dr,Harwinton,CT,06791,860-689-0002
Advanced Scaffold Services Of Connecticut LLC,140 Dexter Ave,West Hartford,CT,06133,860-689-0002
Advanced Scaffold Services Of New England LLC,620 R Oakwood Ave,West Hartford,CT,06110,860-542-2222
Advanced Sheetmetal Associates LLC,52 Industrial Park Access Road,Middlefield,CT,06455,860-349-1644
Advanced Truck Enterprises LLC,313 Murphy Road,Hartford,CT,06114,860-278-2828
Advancers Transportation LLC,43 Scotland Rd,Windham,CT,06280,860-634-5856
Advantage Fuel LLC,53 Slater Street,Manchester,CT,06040,860-895-9999
Advantage Machinery Sales LLC,1210 Norwich Rd,Plainfield,CT,06374-1929,860-564-2222
Advantage Relocation LLC,15 Sunset Rd,Easton,CT,06612-1738,203-943-3857
"Adventures In Travel Of Westport, Inc.","Carriage Hill, 1200 Post Road East",Westport,CT,06880,N/A
"Advo Systems, Inc.",239 Service Rd,West Hartford,CT,06101,N/A
Ae Carting LLC,7 Ruby St,Norwalk,CT,06850-1614,203-956-6361
Aec Services LLC,31 Austin St,Danbury,CT,06810,203-947-9984
Aec Transport LLC,36 E Pembroke Rd Apt 4,Danbury,CT,06811,203-947-9623
Aeds LLC,412 Barbour St Unit 3,Hartford,CT,06120,860-680-8581
"Aen Asphalt, Inc.",45 Lebanon Road,Franklin,CT,06254,860-885-0500
Aep Enterprises LLC,15 Howard Ct Apt A,Milford,CT,06460-7689,475-731-2247
"Aequitas Design Services, Inc.",21 Francis J Clarke Cir,Bethel,CT,06801,914-224-3840
Aer Refurbished System,117 Spencer Plains Rd,Old Saybrook,CT,06475,860-399-5855
"Aero Gear, Inc.",1050 Day Hill Road,Windsor,CT,06095,860-688-0888
Aero Med Ltd,85 Commerce St,Glastonbury,CT,06033,860-659-0602
Aero Transport Services LLC,29 Lincoln Ave,Norwalk,CT,06854,475-747-0671
Aerodyne Alloys LLC,350 Pleasant Valley Road,South Windsor,CT,06074,860-289-6011
"Aerospace Alloys, Inc.",11 Britton Dr,Bloomfield,CT,06002,860-882-0019
"Aerospace Techniques, Inc.",1100 Country Club Road,Middletown,CT,06457,860-347-1200
Pro Quality Home Improvement,30 Burlington Road,Unionville,CT,06085,860-673-0493
Unishippers Association,1150 Summer Street,Stamford,CT,06905,800-728-4813
Aez Logistics LLC,335 Cannon Dr,Stratford,CT,06614,860-217-1111
Af Trucking,63 Ledge Brook La,Middletown,CT,06457,860-347-9163
Afa Trucking LLC,173 Spring Lake Road,Waterbury,CT,06706,203-753-2223
Affluence Logistics LLC,5209 Claro Dr,Manchester,CT,06042-7322,347-264-1904
Affordable Auto Transport LLC,45 Ivan Hill St,Willimantic,CT,06226,860-208-8528
Best Oil,17 Katina Drive,Waterbury,CT,06708,203-574-4050
"Affordable Cars And Trucks, Inc.",1349 Boston Ave,Bridgeport,CT,06610,203-873-0288
Affordable Cdl Training School,532a New London Rd,Colchester,CT,06415,860-537-8235
Affordable Cdl Training School LLC,532a New London Rd,Colchester,CT,06415,860-537-8235
Affordable Conveyor Services LLC,395 Broad St ,Bristol,CT,06010-6665,860-582-1800
Affordable Crane Service LLC,135 Beverly Rd,Wethersfield,CT,06109,860-257-8669
"Affordable Disposal Services, Inc.",180 West Newberry Rd,Bloomfield,CT,06002,860-243-8264
Affordable Heating & Fuel LLC,9 Colony Street,Norwalk,CT,06851,203-353-0232
Affordable Maintenace LLC,10 Masons Island Road Unit 10,Mystic,CT,06355,860-213-0349
Affordable Nursery Materials LLC,70 Orchard Lane,Southington,CT,06489-4260,860-628-8496
Affordable Portables LLC,91 Bates Pond Road,Canterbury,CT,06331,860-546-9081
Affordable Services LLC,411 Burrows Hill Rd,Amston,CT,06231,860-228-2557
Affordable Solutions Services,1816 North Ave,Stratford,CT,06614,631-303-4318
Affordable Tents LLC,4 Old Orchard Lane,Stamford,CT,06903,203-975-8708
Affordable Trucking And Transport LLC,21 Meeting House Rd,Barkhamsted,CT,06063-4402,860-379-2909
"Afj Logistics, Inc.",142 W Center St,Manchester,CT,06040,860-573-4073
Afrodaf Transport LLC,104 Lexington Ave,New Haven,CT,06513,203-435-4952
Afrodee Trucking LLC,163 High Street #4,East Hartford,CT,06118,203-435-5570
Afterfx Customs LLC,20 Crescent Street,Stamford,CT,06906,203-975-1188
Ag Metals LLC,49 Deerfield Lane,Portland,CT,06480,860-342-3080
Aga Timber Water Stone LLC,485 Warnertown Rd,West Suffield,CT,06093-2225,860-595-7590
Agave Grill,30r Bartholomew Ave,Hartford,CT,06106,860-206-6284
Agency Logistics Services LLC,200 Lamberton Rd,Windsor,CT,06095,860-573-4564
Agency Transportation Services LLC,200 Lamberton Road,Windsor,CT,06095,860-640-6541
Agf Delivery LLC,1568 E Main St,Bridgeport,CT,06608,475-731-1445
"Aggregate Trucking, Inc.",Rear 441 State St,North Haven,CT,06473,203-288-3228
Agi-shorewood Group Us LLC,400 Atlantic Street 14th Floor,Stamford,CT,06921,203-541-8100
Agile Transportation LLC,57 Columbia St Apt 2,New Britain,CT,06052,860-471-7155
"Agim Iljazi Trucking, Inc.",193 Capitol Ave,Waterbury,CT,06705,203-757-7678
Agn Carting Company LLC,206 Greenfield Dr,Bridgeport,CT,06606,203-258-5724
Agnoli Crane Co LLC,8 Conlin Dr,Enfield,CT,06082,860-763-5884
Batista Brothers LLC,15 Highwood Place,Trumbull,CT,06611,203-452-7360
"Agostinho Trucking, Inc.",114 Ezra Silva Lane,Windsor,CT,06095,860-285-8016
Agosto On The Go LLC,68 Liberty St,Newington,CT,06111,585-542-1687
"Agriventures Retail, Inc.",493 Danbury Road,New Milford,CT,06776,860-354-9404
Ags Development LLC,42 Lake Ave Ext 167,Danbury,CT,06811,203-743-9220
Agsr Distribution LLC,45 Pierce St,Fairfield,CT,06825,203-690-8346
Ah Enterprise,86 Gail Dr,Waterbury,CT,06704,203-578-6965
Ahearns & Sons L L C,17 Green Hill Rd,Killingworth,CT,06419,860-663-1680
"Ahl Co, Inc.",1b Cherry Hill Road,Hamden,CT,06514,203-275-7724
Zain Transport,59 Brookwood Dr Apt D,Rocky Hill,CT,06067,959-226-2476
Ahmed N Bhatti,492 Ash Drive,Windsor Locks,CT,06096,334-408-0437
Ai Logistics LLC,610 Maple St,Wethersfield,CT,06109,833-247-8699
Ail Transportation LLC,157 Rockwell Ave,Bristol,CT,06010-5945,860-995-5620
Ailton L Defaria LLC,15 Deerfield Ave,Danbury,CT,06810,203-730-1856
Aim High Transportation LLC,14 Walnut Street,West Haven,CT,06516,860-217-1111
Ains Transport,15 Atwood Lane,East Hartford,CT,06108,860-778-7001
Ainsworth Enterprise LLC,867 Windsor Avenue,Windsor,CT,06095,860-670-3831
First Choice Transportation Co,5 Forest Lane,Bloomfield,CT,06002,405-283-0698
Airlink Ground Transportation LLC,39 Ridgebury Rd Unit # 19,Danbury,CT,06810,203-297-6060
"Airoldis, Inc.",328 Plains Road,Tolland,CT,06084,860-896-0401
Airport Services LLC,61 East Dudley Town Road,Bloomfield,CT,06002,860-242-2325
Airport Transporter LLC,25 Sorrento Road,Wallingford,CT,06492,203-265-2125
"Airship Management Services, Inc.",2 Soundview Dr,Greenwich,CT,06830,203-625-0071
Aitkens Transport,145 Isinglass Hill Rd,Portland,CT,06480,860-402-1381
Aj & J Excavation LLC,21 Clint Eldredge Road,Willington,CT,06279,860-841-0743
Aj Albert Trucking,65 Edgewood Circle,Southington,CT,06489,860-621-2141
Aj Pool Plastering LLC,265 Hathaway Drive,Stratford,CT,06615,203-380-2656
Aj Rose Trucking LLC,321 A Indian River Rd,Orange,CT,06477,203-237-0627
Aj Stumpgrinding LLC,71 Scott Road,East Lyme,CT,06333,860-739-3778
"Aj Trailer Repair, Inc.",85 Fox Road,Putnam,CT,06260,860-928-4430
Aj Transportation LLC,37 Trinity St,New Britain,CT,06051,413-888-7418
Aj&j Usa Trucking Company LLC,132 Maheu St,Bristol,CT,06010,860-538-3366
"Aj's Center Service, Inc.",851 River Road,Shelton,CT,06484,203-929-1311
Aj's Transport LLC,171 Curtis Drive,New Haven,CT,06515,203-376-7751
Aj's Transportation LLC,188 Palisade Ave Apt 2a,Bridgeport,CT,06610,203-928-8427
"Aj21 Transportation, Inc.",194 Hamilton St Apt L,New Haven,CT,06511,203-410-1360
Ajax Transportation LLC,"45 Wintonbury Ave, Suite 304",Bloomfield,CT,06002,860-216-1220
"Ajner Trans, Inc.",78 Forestview Dr,Wolcott,CT,06716,773-710-7378
Ajs Trucking LLC,11 Norden Place - Unit 34,Norwalk,CT,06855,203-354-3093
Ak Logistics LLC,76 Maple Street,Norwalk,CT,06850,203-321-9980
Ak Motors LLC,271 Orchard Ave,Newington,CT,06111,203-404-0808
"Ak Trans, Inc.",561 Old Main St,Rocky Hill,CT,06067,860-882-9391
Akc Enterprise LLC,106 Plainfield St,Hartford,CT,06112,860-502-9991
Akine's Heavenly Transport LLC,470 Freeman Ave,Stratford,CT,06614-4026,917-889-1619
Akk Enterprise LLC,51 Vernon St,Manchester,CT,06042,917-201-9074
Akk Transport LLC,1390 East Street-apt 06,New Britain,CT,06053,860-217-1111
Akm LLC,122 Morgan St Apt 122b,Stamford,CT,06905,718-801-9954
Akra Group LLC,3250 E Main St Apt 31,Waterbury,CT,06705,860-217-1111
Al Amaker Trucking,352 Newfield St,Middletown,CT,06457,860-704-0289
Al Brayco Technologies,38 River Road,Cromwell,CT,06416,860-635-3369
Jewell Trucking,44 Brittany Farms Road Apartment K11 ,New Britain,CT,06053,860-505-9012
Al Transport LLC,25 Proprietors Lane,Torrington,CT,06790,860-538-5636
Ala Achou Transportation LLC,"35 Talcottville Road Ste 10, #1003",Vernon,CT,06066,860-215-4489
Adc Lawn & Estate Service,528 Federal Road,Brookfield,CT,06804,203-775-4234
Alan G Ducharme,485 Stafford Road,Mansfield,CT,06250,860-456-2029
Hills Farm,527 Gilead Street,Hebron,CT,06248,860-228-0425
Alanson Cummings,32 Walnut Hill Rd,East Lyme,CT,06333,860-912-4665
Alarcon Trucking LLC,161 Talcott Rd,West Hartford,CT,06110,860-993-4350
Alazhri Transportation,79 Zuella Dr Apt 10,Waterbury,CT,06704,203-502-9632
Alb Quality Freight LLC,3 Apple Hill Rd,Wolcott,CT,06716,203-806-0142
Alb Transportation LLC,27 Hungerford Ave,Oakville,CT,06779,203-982-5887
Albbird Trucking LLC,33 Chauncey Rd,Wethersfield,CT,06109,203-832-2141
"Albea Metal Americas, Inc.",1 Seemar Road,Watertown,CT,06795,908-565-6029
"Albea Thomaston, Inc.",60 Electric Avenue,Thomaston,CT,06787,860-283-2032
Albees Freight Broker LLC,980 Lindley St Unit 401,Bridgeport,CT,06606,203-685-2699
"Albert Bros, Inc.",225 East Aurora St,Waterbury,CT,06708,203-753-4146
Crown Auto Center,388 Crown Street,New Haven,CT,06511,203-865-4999
Albert Lello Jr Services LLC,172 Wilson Road,Easton,CT,06612,203-339-0120
Isaiah Wheelchair Transport,1800 Silas Dean Hwy #338s,Rocky Hill,CT,06067,860-970-2817
Albert Rigging Transfer,88 Ashford Lake Dr,Ashford,CT,06278,860-429-3277
A-rod Construction LLC,Po Box 630,Botsford,CT,06404,203-261-6155
Albert Trucking,1177 Foxon Rd,N Branford,CT,06471,203-469-9114
Albert's Pool Plastering LLC,128 Milne St Apt 1,Bridgeport,CT,06604,203-727-9932
Alberts Used Auto Parts LLC,422 Railroad Street,Thomaston,CT,06787,860-283-0760
Albey Pickup & Delivery LLC,360 Campfield Ave,Hartford,CT,06114,860-706-7483
Albey Trucking LLC,4 Mayfair Rd ,Bloomfield,CT,06002-3914,860-706-4366
Albreada Refuse & Sweeping LLC,14 Iffland Pond Road,E Litchfield,CT,06759,860-482-6799
Alc Courier Services LLC,854 Foster St Ext,South Windsor,CT,06074,860-730-3152
"Alc Freight, Inc.",61 N Plains Industrial Rd # 120,Wallingford,CT,06492,203-213-8101
Alcex LLC,1 Main St Apt B7,Manchester,CT,06042,860-801-7088
Aldcargo LLC,1028 Boulevard Ste 331,West Hartford,CT,06119,860-463-4138
Alden Bailey LLC,22 Sprucewood Lane,Ridgefield,CT,06877,203-826-9802
Alderman-dow,358 Chapel St,New Haven,CT,06511,203-562-1594
Aldine Metal Products Corp,566 Danbury Road Unit 1,New Milford,CT,06776,860-350-2552
A&s Trucking,27 Liberty Ave,East Haven,CT,06512,203-645-4637
Aleksandr Gershman,25 Washington Court Apt. 8-6,Stamford,CT,06902,203-496-9305
"Alert Scientific, Inc.",469 School Street,East Hartford,CT,06108,860-569-1992
Alex Amari Trucking LLC,320 Farmington Ave Apt C4,Hartford,CT,06105,860-967-9408
Alex Deliveries LLC,17 Woodside Ave,Danbury,CT,06810,203-739-0612
Alex Horse Transportation LLC,292 Reservoir Rd.,Southbury,CT,06488,203-770-2120
A Plus Exterior LLC,72 Soundview Ave,Milford,CT,06460,203-685-7121
Alex P Trucking LLC,65 1/2 Saginaw Trl,Shelton,CT,06484-4956,203-952-5043
Alex Ravenelle,546 Porter Pond Road,Moosup,CT,06354,860-564-5906
Big Al's Handyman Service,447 Hartford Turnpike,Hampton,CT,06247,860-617-1081
Alex Services,84 Gregory Blvd Apt B,Norwalk,CT,06855,203-515-1826
Alexander Trucking Co,36 Chestnut Ct,Cromwell,CT,06416,806-632-5722
Alexander Ez LLC,632 Arch Street,New Britain,CT,06051,860-796-5047
Alexander Prokop Jr,469 River Rd,Lisbon,CT,06351,860-886-0721
Miller Oil Co,447 Enfield St,Enfield,CT,06082-2453,860-745-0326
Alexander Services LLC,70 Hallock St,New Haven,CT,06519-1515,203-535-5727
Target Disposal Service,136 Belltown Road,Stamford,CT,06905,203-324-9883
Alexandro Mendez,490 E Main St,Bridgeport,CT,06608,203-257-5617
Alexei Khoudyakov,335 Grissom Rd,Manchester,CT,06042,617-620-8451
Alexis Mejia,35 Merwin St,Norwalk,CT,06850,347-749-1988
Alexis Trucking And Transport LLC,55 Nod Rd,Clinton,CT,06413,203-687-5678
Alexis Vazquez Garcia,84 Wilson St,Hartford,CT,06106,860-706-6603
Alexmarc Logistics LLC,12 Pinewood Crossing North,Naugatuck,CT,06770,203-231-5588
"Alexs Towing Services, Inc.",29 Fenway Street,Stamford,CT,06902,914-602-9212
Alexus Properties LLC,132 Collins #104,Hartford,CT,06105,860-597-5442
Alfa Team Electrical Contractors LLC,27 Lindstrom Rd Unit 1 C,Stamford,CT,06902,203-249-9736
Alfa Transportation LLC,115 Sutton Pl,Bloomfield,CT,06002,860-325-0748
Alfa Transportation Services LLC,41 Waldorf Ave,Bridgeport,CT,06605,203-224-9260
La Trucking,40 North St,Stamford,CT,06902,475-619-0050
Fire Wood And Mulch,38 Goose Ln,Tolland,CT,06084,186-087-2364
Al's Septic,13 Wrightson Drive,Thompson,CT,06277,860-774-2381
Alfred Tiadora,161 Woodford Avenue Unit 10,Plainville,CT,06062,860-224-7214
Alfredos Limo And Car Service LLC,38 Scofield Avenue,Stamford,CT,06906,203-667-4828
Algonquin Transport LLC,17 Shaw Street # 3,New London,CT,06320,N/A
Algonquin Trucking LLC,130 Norwood Ave,New London,CT,06320,N/A
"Ali Trucking, Inc.",30 Nutmeg Ln Apt 106,East Hartford,CT,06118,860-830-9904
Ali's Nursery LLC,421 Buckland St,Plantsville,CT,06479,860-621-6506
Ali-jay Transport LLC,106 Ox Hill Rd,Norwich,CT,06360,860-428-3233
Alibaba Transportation Services LLC,57 Barton Rd,Milford,CT,06460,203-314-3611
Mitch Alibozak,98 Schooll Hill Road,Goshen,CT,06756,860-491-3688
Alice Cooke,7 Riverview Drive,Norwalk,CT,06850,203-847-7109
Alisa Monz,20 Commercial Street,Brandford,CT,06405,203-314-5835
Alisha Express LLC,5 Sunnyside Court,Waterford,CT,06385,770-549-8491
"All About Service - S & P Carting, Inc.",12 Sperry Street,Waterbury,CT,06702,203-755-4656
All About Trucking LLC,8 W Clay St,Hartford,CT,06120-2050,860-462-1972
All American Carrier LLC,314 Hillside Ave,Hartford,CT,06106,860-560-0776
All American Courier And Transport LLC,28 Whitney St,Hartford,CT,06105,860-478-5178
All American Enterprise LLC,854 Foster Street Ext,South Windsor,CT,06074,860-478-9977
"All American Fence Sales & Installation, Inc.",70 Centerbrook Road,Hamden,CT,06518,203-627-1274
All American Installs LLC,215 E Main St Unit 5g,Vernon Rockvl,CT,06066,860-970-7040
All American Mackin Asphalt LLC,45 Preston Road,Jewett City,CT,06351,860-908-7351
All American Masonry,563 Wolcott St,Waterbury,CT,06705,203-982-5511
"All American Moving Storage Co, Inc.",81 Industrial Park Access Rd,Middlefield,CT,06455,860-349-5800
All American Sealcoating & Dumpster Service LLC,48 Richards Grove Road,Quaker Hill,CT,06375,860-437-1030
"All American Sewer And Drain Services, Inc.",52 Larkin St,Stamford,CT,06907,203-357-1322
All American Transport Services LLC,159 Bear Swamp Rd,East Hampton,CT,06424,860-367-5064
All American Trucking LLC,240 Boston Post Road,Old Lyme,CT,06371,860-434-5878
All American Waste LLC,15 Mullen Road,Enfield,CT,06082-6033,860-746-3200
All As Transport LLC,323 Tolland St,East Hartford,CT,06108,860-372-1456
All Brother's Trucking,232 Vine Street,Hartford,CT,06112,860-986-0213
All City Transport LLC,49 Innsbruck St,Milford,CT,06461,203-443-6227
All Country Transportation Logistics LLC,81 Elliot St Apt 1,New Haven,CT,06519,203-495-4989
All Dry Basement Systems LLC,26 Pahquioque Ave 1st Floor,Danbury,CT,06810,202-521-1493
All Freight Logistics LLC,222 Universal Dr South,North Haven,CT,06473,203-777-5244
"All Freight Systems, Inc.",P.o. Box 677,Milldale,CT,06467,N/A
All Green Hydroseed LLC,76 Greystone Rd Ext,Plymouth,CT,06782,860-601-9136
All Habitat Services LLC,2 Tipping Dr,Branford,CT,06405,203-245-1212
All In All Transport LLC,48 Evergreen Ave,Hartford,CT,06105,860-810-3953
All In One Trucking LLC,18 Hunthill Rd,Waterbury,CT,06705,203-509-6206
"All In Package Delivery, Inc.",73 Quarry Rd,Granby,CT,06035,860-550-0575
All In Waste Solutions,49 Linden St,New Britain,CT,06051,860-883-5739
All Miles Transport LLC,83 Stuart Ave,Norwalk,CT,06850,203-524-2226
All My Sons Moving & Storage Of Connecticut LLC,350 Long Beach Blvd,Stratford,CT,06615,864-962-9000
All Northeast States Trucking Co,226 Crestwood Drive,Guilford,CT,06437,203-458-6199
All Or Nothing Cleaning Service LLC,35 Ginger Ln Apt 139,East Hartford,CT,06118,973-592-9147
All Out Express LLC,123 Meriline Ave,W Hartford,CT,06110,860-922-8846
All Out Trucking LLC,920 Marion Ave,Plantsville,CT,06479,203-808-7638
All Pallet Recycling LLC,28 Britton Drive,Bloomfield,CT,06002,860-573-6891
All Panel Systems LLC,764 E Main St,Branford,CT,06405,203-208-3142
All Phase Dumpsters LLC,30 Wolfpits Road,Bethel,CT,06801,203-617-7300
All Phase Steelworks LLC,1700 Stratford Ave,Stratford,CT,06615,203-375-8881
All Points Cargo LLC,1201 Kings Hwy Ste 2 #1067,Fairfield,CT,06824,203-429-4100
All Points Logistics LLC,270 Glen Hills Rd,Meriden,CT,06451,203-213-5620
All Points Reliable Transport LLC,5 Dry Hill Ct,Norwalk,CT,06851,203-979-2779
All Points Transport LLC,44r Geer St,Cromwell,CT,06416,860-593-5695
All Pro Fence LLC,32 Fort Hill Ave Apt 4,Waterbury,CT,06704-1040,203-843-7847
All Pro Automotive,147 Boston Past Road,Old Lyme,CT,06371,203-434-8250
Ds Trucking Company,175 Bryant Rd,Watertown,CT,06795,203-509-2227
All Purpose Paving LLC,81 Colchester Ave,East Hampton,CT,06424,860-267-2109
"All Routes Trucking, Inc.",104 Whitewood Rd,Newington,CT,06111,860-869-3052
All Seasons Energy LLC,2344 Foxon Road Unit 11,North Branford,CT,06471,203-208-2356
All Source Of Connecticut,431 New State Rd,Manchester,CT,06042,860-432-9411
All Source Of New England LLC,431 New State Road,Manchester,CT,06042,860-432-9411
All Star Fuels LLC,29 Golden Hill St,Norwalk,CT,06854-2031,203-556-3406
All Star Towing,77 Edwin Ave,Waterbury,CT,06708,203-410-2242
All Star Trucking LLC,124 New Haven Ave,Orange,CT,06477-3162,203-520-0589
All Steel LLC,240 Crystal Lake Road,Ellington,CT,06029,860-871-6023
All Tech Auto Repair LLC,6 Quien St,Danbury,CT,06810,203-947-5876
All Terrain Services LLC,38 Sugarloaf Dr,Wilton,CT,06897,203-849-9880
All The Way Trucking & Transportation LLC,25 Wilson St,Waterbury,CT,06708,203-706-7835
All Town Hauling LLC,27 Standish Road,Ellington,CT,06029,860-875-4000
Trash,431 New State Road,Manchester,CT,06042,860-875-9000
All Trade Industries LLC,94 Edwin Ave,Waterbury,CT,06708,203-759-5709
All Transport Materials LLC,33 Jupiter Dr,Seymour,CT,06483,203-650-0726
"All Waste, Inc.",143 Murphy Road,Hartford,CT,06114,860-724-4575
"All Ways Dumpsters, Inc.",26 Chittenden Rd,Killingworth,CT,06419,860-663-3520
All White Trucks Haulers LLC,29 Horace St,Manchester,CT,06040,475-343-1211
"All-phase Enterprises, Inc.",191 West Stafford Road,Stafford Springs,CT,06076-1017,860-684-9779
All-star Fuel,304 Boston Post Road,Milford,CT,06460,203-693-2220
All-star Transport LLC,100 Westerleigh Rd,New Haven,CT,06515,203-812-8595
All-star Transportation LLC,268 Technology Park Dr,Torrington,CT,06790,860-489-3444
All-trans Corp,61 Walnut Lane,Northford,CT,06472,N/A
Sport Hill Farm LLC,596 Sport Hill Road,Easton,CT,06612,203-268-9526
Rogo Distributors,65 Roberts Street,East Hartford,CT,06108,860-528-9381
Allan Transportation LLC,148 Linen Ave Apt 2,Bridgeport,CT,06604,203-617-5021
Allard Capital Logistics LLC,178 Rood Ave,Windsor,CT,06095,860-580-5178
Allard Send LLC,46 Russell Rd Unit 1,East Granby,CT,06026,800-958-2899
Jak Logistics,55 Andover St ,Hartford,CT,06112,860-680-3877
Allen Petri,432 Hamburg Road,Lyme,CT,06371,860-434-9741
A S Christensen Excavating,14 Meadowbrook Road,Granby,CT,06035,203-653-3411
Allen Transportation LLC,205 Tower Ave,Hartford,CT,06120,405-576-3188
Allen Trucking LLC,18 Deerfield Drive,Broadbrook,CT,06016,860-386-0876
Allenlandscaping,16 Sunset Dr,Rockfall,CT,06481,860-346-1463
Alliance Global Associates LLC,66 Broad Street,Stamford,CT,06901,203-223-8981
Alliance Industries LLC,64 Albany Ave,New Britain,CT,06053,860-538-2474
Alliance Transport LLC,64 Albany Ave,New Britain,CT,06053,860-356-0979
Allicon Oil LLC,148 Avery Ave,Meriden,CT,06450,203-721-5025
Allied Community Services,6 Craftsman Rd,East Windsor,CT,06088,860-741-3701
"Allied Printing Services, Inc.",One Allied Way,Manchester,CT,06045,860-643-1101
Allison's Auto Detailing LLC,84 George St,East Hartford,CT,06118,860-690-9831
"Alloy Welding And Manufacturing Co, Inc.",233 Riverside Avenue,Bristol,CT,06010,860-582-3638
Allrich Trucking LLC,1119 Chopsey Hill Rd,Bridgeport,CT,06606,203-371-5201
Allstar Logistics LLC,532 Nova Scotia Hill Rd,Watertown,CT,06795,860-217-1111
"Allstar Supply, Inc.",101 River Road,Canton,CT,06019,860-379-9626
Allstate Transport LLC,11 Constitution Blvd South,Shelton,CT,06484,203-922-8252
Allstride LLC,9 West St,Stamford,CT,06902,203-832-5114
Allways Logistics LLC,Rt 207,No Franklin,CT,06254,860-884-2886
Allways Transportation LLC,7 West Avenue,Darien,CT,06820,203-984-1616
Ally Delivers LLC,121 Towne St Apt 502,Stamford,CT,06902,860-849-6650
Ako Transportation,160 Brewer St,East Hartford,CT,06118,860-816-3323
Ally Trucking,48 Girard Ave,Hartford,CT,06105,860-381-9148
Allyson Transportation LLC,25 Brownell Ave,Hartford,CT,06106,201-365-8297
Alm Services LLC,164 Clark Ln,Waterford,CT,06385,860-447-3441
Alm Transport LLC,41 Devonshire Drive,Waterford,CT,06385,860-984-3363
Almar Trucking LLC,23 Cadwell Road,Bloomfield,CT,06002,860-982-5680
Almighty Logistics LLC,164 Park St,West Haven,CT,06516,475-208-0999
Almighty Transports LLC,4 Colt St,New Britain,CT,06052-1004,860-801-7213
Almulhi Trucking Company LLC,193 Lawlor St Apt 3,New Britain,CT,06051,860-964-8944
Alnas Logistics,274 Middle St Ste 1,Bristol,CT,06010,860-506-7211
Alpha Auto LLC,170 N Main St,Middletown,CT,06457-2278,860-885-4611
"Alpha Connection Limo Service, Inc.",137 Hollow Tree Ridge Road Apt. 2002,Darien,CT,06820,203-223-4857
Alpha Oil LLC,68 S Branford Rd 68 S Branford Rd,Wallingford,CT,06492-2724,203-927-6854
Suburban Sanitation,198 Scott Rd,Terryville,CT,06786,860-294-1457
"Alpha Q, Inc.",87 Upton Road,Colchester,CT,06415,860-537-4681
Alpha Transportation LLC,95 Karen Ave Apt 1b,Waterbury,CT,06708,203-228-8352
Alpha Trucking LLC,74 Morton Road,Waterbury,CT,06705,203-343-2848
"Alpha Trucking Services, Inc.",315 Marion St.,New Haven,CT,06512,203-468-9851
Alpine Environmental Services LLC,2303 South Main Street,Middletown,CT,06457,860-346-0027
Alpine Us Transportation LLC,155 Cloverhill Ave,Bridgeport,CT,06606,917-696-0255
Alpine Worldwide Chauffeured Services LLC,58 Pine Street,New Canaan,CT,06840,203-966-4121
Alpinestar Express LLC,90 Wakelee Road Apt 10,Waterbury,CT,06705,860-918-8916
"Alplex Automotive, Inc.",79 Commercial St,Watertown,CT,06795,860-274-2547
"Als Auto Service, Inc.",475 Boulevard,New Haven,CT,06519,203-869-1488
"Altek Electronics, Inc.",89 Commercial Blvd,Torrington,CT,06790,860-482-7626
Altered States Express New England Diversified Transpor,116 Prospect Hill Road,East Windsor,CT,06088,860-627-7424
Alternative Heating LLC,80 Harwinton Ave,Terryville,CT,06786,860-585-0078
Alternative Pump Designs LLC,98 Crystal Lake Road,Ellington,CT,06029,860-573-1852
"Alternative Trucking, Inc.",263 Park Avenue,East Hartford,CT,06108,413-246-5500
Alto Transportation LLC,222 E Williams St #206,Glastonbury,CT,06033,860-657-3164
Alva Drywall LLC,41 Johnson St,Waterbury,CT,06710,203-278-4793
Alvarado Trucking 121 LLC,121 Farnham Road,South Windsor,CT,06074,860-610-8466
Alvarez Logistics LLC,312 Boston Post Rd,Orange,CT,06477,203-401-1152
E-z Transports,312 Boston Post Rd,Orange,CT,06477,202-521-1493
Alvarez Transportation LLC,32 1/2 Vernon St,New Haven,CT,06519,203-407-9710
Pavers,31 Holland St,Bridgeport,CT,06605,203-543-1135
Alves Insulation LLC,111 Doman Drive,Torrington,CT,06790,860-618-2529
Deschaine & Son,436 Birch Street,Bristol,CT,06010,860-582-5003
Alvin Transportation LLC,298 Monroe Ave,Waterbury,CT,06705,203-525-6884
"Alw Drilling And Blasting, Inc.",21 Dobrucki Road,North Franklin,CT,06254,860-642-4005
"Always Green Lawn Sprinkler Company, Inc.orperate",20 County Road,Killingworth,CT,06419,860-663-5611
Always Us Transports LLC,1512 Seaview Ave,Bridgeport,CT,06607,646-934-5162
Alwaysontherun LLC,105 Henry St,Hartford,CT,06114,860-322-1273
Alwood Transport LLC,99 Alexander Dr,Bridgeport,CT,06606,203-260-0899
Alwr Cv Trucking LLC,15 Pearl St,Norwich,CT,06360,860-705-6015
Am Construction Services LLC,430 Townline Road,Southington,CT,06489,860-747-4112
Am Delivery LLC,16 Pleasant View Rd,New Milford,CT,06776,203-739-9055
Am Express LLC,8 Lombardo Road,Marion,CT,06444,203-808-4153
Am Express LLC,15 Decubellis Ct,Putnam,CT,06260,860-428-6583
Am General Services LLC,126 Triangle St Apt# B19,Danbury,CT,06810,203-947-8942
Am Pm Transport LLC,15 Carolina Road,Stamford,CT,06902,203-400-7689
"Am Steel, Inc.",91 Sparrowbush Road,East Hartford,CT,06108,860-778-8866
Am Trucking Services LLC,382 Summit St,Bridgeport,CT,06606,475-319-3159
Ama Home Improvements LLC,68 Lenox St,East Haven,CT,06512,203-812-9327
Amadou And Sons Transport LLC,894 Burnside Ave Apt 3,East Hartford,CT,06108,860-502-2162
Amadou Brothers Transportation LLC,89 Kelsey St,Newington,CT,06111,860-478-8166
Amaho Trucking LLC,15 Ridge Dr,Uncasville,CT,06382,917-770-2063
Amal Transportation LLC,26 Selldan Street,West Hartford,CT,06110,860-236-5286
Amani Freight Connect LLC,72 Trailsend Dr,Canton,CT,06019,860-461-4038
"Amaral Motors, Inc.",40 South Main St,Newtown,CT,06470,203-426-4427
Amaro Transport LLC,17 Hurlburt St Apt 2,New Haven,CT,06519,860-217-1111
Amato's Lawncare LLC,418 Short Beach Rd,East Haven,CT,06512,203-468-1767
Amazed Rides LLC,31 Carolina Rd,Stamford,CT,06902,347-338-7495
Amazing G Express LLC,33 Valley View Dr,Bloomfield,CT,06002,860-286-0791
