Company Name,Street Address,Address Locality,Address Region,Postal Code,Telephone
Ktg Trans,123 Puuhale Road,Honolulu,HI,96819,808-841-0001
Dukes Trucking & Excavation LLC,314 A Alalani Street,Makawao,HI,96768,808-757-2788
24 Haul-it-all,1448 Young Street Suite 18,Honolulu,HI,96814,808-951-0350
Dynasty Express,98-501 Koauka Lp Apt A1204,Aiea,HI,96701,808-223-2288
Aloha Express Delivery Services,831 Eha St. #102,Wailuku,HI,96793,808-986-0820
Scotts Trucking,45456 Ohaha St,Kaneohe,HI,96744,808-235-4944
Beeh's Trucking,2029lauwiliwili Street,Kapolei,HI,96707,808-306-0039
Dadric Trucking,164 Kapaka Street,Hilo,HI,96720,808-959-7698
Triple S Hauling,1141 A Komohana Street,Hilo,HI,96720,808-959-5571
M W Miranda Trucking,47-007 Hawaii Belt Rd,Kamuela,HI,96743,808-960-5600
D And A Hauling LLC,44-2633 Kalopa Mauka Road,Honokaa,HI,96727,808-775-1394
Equipment Transport Service,1124 Palekaiko Street,Pearl City,HI,96782,808-456-9269
Philip Services Hawaii,91-127 Malakole,Kapolei,HI,96707,713-625-7000
F & S Services,48-350 Waiahole Vly Rd,Kaneohe,HI,96744,808-239-6146
E C Trucking,570 Ainaola Drive,Hilo,HI,96720,808-959-8754
H B Kamekona Trucking,10 Kaanua Place,Kailua,HI,96734,808-262-3752
Big O Truck Transport,91 824 Lapine Pl,Ewa Beach,HI,96706,671-653-5304
Island Delivery,1400 Ainaola Drive,Hilo,HI,96720,808-959-4209
R & C Trucking And Tractor Service,526 Melemele St,Wailuku,HI,96793,808-572-0684
Cypriano Trucking,672399 Mamalahoa Highway,Kamuela,HI,96743,808-885-8838
Kanekoa Trucking,94-205 Keaukaha Pl,Waipahu,HI,96797,808-688-0096
De Cambra Trucking,44-2304 Kalaniai Road,Honokaa,HI,96727,808-775-0234
D & D Trucking,35-167 Hokumahoe Rd,Laupahoehoe,HI,96764,808-962-6342
Rodney J Miyashiro Rental & Services,16-1306 35th Ave,Hilo,HI,96720,808-982-5338
Makoa Trucking & Services,70 Kaunakakai Pl,Kaunakakai,HI,96748,808-553-5319
Kamuela Trucking,64-492 Mamalahoa Hwy,Kamuela,HI,96743,080-885-6231
City Trucking Co,1141 Hoolai St Apt 301,Honolulu,HI,96814,N/A
Daily Produce Trucking,1020 Auahi St,Honolulu,HI,96814,808-538-3891
Don's Tractor Service,2340 Anini Way,Pearl City,HI,96782,808-455-5347
Lindsey Hauling & Equipment Rental,54-316 Kamehameha Highway,Hauula,HI,96717,808-293-1238
Camcor Transport Hawaii,305 Hahani Street #285,Kailua,HI,96734,808-595-4998
Rasmussen Trucking,59-533 Makana Road,Haleiwa,HI,96712,808-638-7310
D K Delivery Service,629 10th,Lanai City,HI,96763,808-565-6153
Tsunami Transport,84-596 Nukea St,Waianae,HI,96792,808-695-5995
Shamrock Transportation,95-500 Poiki Place,Mililani,HI,96789,808-682-1002
Hiki No Trucking,1115 Mowai Street,Kailua,HI,96734,808-754-6644
Hawaiian Western Transport,95-705 Hinalii Street,Mililani,HI,96789,808-623-8578
"Nexus Hazwaste Services, Inc.",3259 Koapka Street,Koapaka,HI,96819,808-836-0139
L&m Trucking LLC,91-521 Onelua Street,Ewa Beach,HI,96706,808-330-4496
Maxim Trucking,92-524 Hauone Pl,Kapolei,HI,96707,808-330-2080
Hollis Randall Hillner LLC,3519 Moloaa Rd,Anahola,HI,96703,808-821-1567
Haleiwa Off Road Towing,66-540 D Kam Hwy,Haleiwa,HI,96712,808-479-5286
Keeaumoku Supermarket,835 Keeaumoku Street Ste I-102,Honolulu,HI,96814,808-946-1155
Eco Hostel Hawaii,16-1925 Koloa Maoli,Kurtistown,HI,96760,808-315-2202
11 Hauling LLC,92-8772 Lehua Ln,Ocean View,HI,96704,808-491-3337
808 Palama Nui LLC,75-189 Kalani St,Kailua Kona,HI,96740-1840,808-747-4424
808 Studio Services LLC,4948 Kilauea Ave Apt 1,Honolulu,HI,96816-5784,808-457-9637
A & P Shipping Corporation,94-158 Leoole St,Waipahu,HI,96797,808-671-6711
"A M Trucking, Inc.",2733 East Manoa Road,Honolulu,HI,96822,808-690-4591
"A S Hauling, Inc.",2096 Kilauea Ave,Hilo,HI,96720,808-987-8041
A&a Trucking Services LLC,1 Old Plantation Rd,Paauilo,HI,96776,808-776-1633
A's Trucking,99 585 Halawa Heights Road,Aiea,HI,96701,808-485-2200
A-town Trucking LLC,4-4350 Kuhio Hwy,Anahola,HI,96703-9997,808-639-2172
"A1 Hawaii Trucking Equipment, Inc.",Po Box 1274,Ewa Beach,HI,96706,N/A
Aala Ship Service,869 N Nimitz Hwy,Honolulu,HI,96817,808-522-0550
Above And Beyond Delivery,80 Sand Island Access Road 138,Honolulu,HI,96819,808-478-3325
Takushi Trucking,68-3608 Kupunahine St,Waikoloa,HI,96738,808-896-5315
"Action Fuel, Inc.",360 Papa Pl #201,Kahului,HI,96732,808-871-5096
Advanced Trucking LLC,640 Kaiaulu Loop,Makawao,HI,96768,808-357-0963
"Ahualoa Dairy, Inc.",46-4023 Kahana Dr,Ahualoa,HI,96727,809-936-8000
Ahuna Special Effects LLC,510 18th Ave,Honolulu,HI,96816,808-368-1301
"Air Flo Express, Inc.orporated",Elliot St Bldg 6 Box 30546,Honolulu,HI,96820,808-833-1651
Air Service Hawaii,95 Nakolo Place,Honolulu,HI,96819,808-839-5003
"Akana Trucking, Inc.",5 Sand Island Access Road,Honolulu,HI,96819,808-845-9825
Akita Enterprises Limited,2960 Aukele St,Lihue,HI,96766,808-245-5344
Al Jr Trucking LLC,415 Dairy Rd Suite E #232,Kahului,HI,96732,808-870-2434
Albert Yuen Express,2121 Ladd Lane,Honolulu,HI,96813,N/A
Alderaan Logistics,1188 Bishop St Ste 1001,Honolulu,HI,96813,808-723-1758
Alex Gomes Trucking LLC,17 Waiolani Place,Wailuku,HI,96793,808-344-7271
Kng Services,87128 Maitela St,Waianae,HI,96792,202-521-1493
All American LLC,87-930 Kulauku St,Waianae,HI,96792,808-682-0697
"All Island Trucking, Inc..",590 Farrington Hwy. #210 Pmb162,Kapolei,HI,96707,808-479-9326
All Weather Surfaces Hawaii LLC,99-890 Iwaena Street,Aiea,HI,96701,808-487-3043
"All-american Moving, Inc.",91-110 Hanua Street #205,Kapolei,HI,96707,808-682-4552
Atf,775 Kinalau Place #909,Honolulu,HI,96813,808-688-6622
"Aloha International Moving Services, Inc.",91291 Kalaeloa Blvd D1,Kapolei,HI,96707,808-682-2500
Aloha Island Enterprises LLC,45466 Lo Lii Place,Kancohe,HI,96744,808-368-7227
"Aloha Isle Moving, Inc.",3116 Peleke Street,Lilhue,HI,96766,808-245-6683
Aloha Junk Man LLC,905 Kalanianaole Hwy #104a,Kailua,HI,96734,808-940-0809
Aloha Maintenance & Contractors,364 Seaside Ave Apt 401,Honolulu,HI,96815-2503,808-364-1892
Aloha Movers,55-256 Hoea Road A,Hawi,HI,96719,808-769-0505
Aloha Pallets & Distribution LLC,32 B Pohaku Street,Hilo,HI,96720,808-315-2073
Aloha Petroleum Ltd,1132 Bishop Street Suite 1700,Honolulu,HI,96813,808-522-9700
"Aloha Safety Towing, Inc.",1164 Bishop St # 124-136,Honolulu,HI,96813,808-882-9877
Aloha Shoyu Company Limited,96-1205 Waihona Street,Pearl City,HI,96782,808-459-5929
Aloha State Tour & Transportation Company,1105 Puuwai Street,Honolulu,HI,96819,808-847-7884
Ats,2270 Kalakaua Ave Room 1200,Honolulu,HI,96815,808-596-4315
Aloha Trucking,91 634 Makalea St,Ewa Beach,HI,96706,808-220-9801
Hawaii Logistic Services,91 315 Hanua Street,Kapolei,HI,96707,808-682-3837
"American Hauling, Inc.",91-1050 Enterprise Avenue Room 112 & 113,Kapolei,HI,96707,808-682-0697
"American Industrial, Inc.",91 505 Awakumoku St,Kapolei,HI,96707,808-682-5580
Oahu Gas Service,91-290 Hanua Street,Kapolei,HI,96707,808-682-5796
S & J's Hauling,113 Pelemana Place,Hilo,HI,96720,808-959-7902
Any Delivery LLC,3270 Kalihi St,Honolulu,HI,96819-3029,808-218-1628
Any Kine Junk LLC,91-1109 Kaihohonu St,Ewa Beach,HI,96706-6534,808-840-9150
Apollo Enterprise Corp,45-210 Koa Kahiko Pl,Kaneohe,HI,96744,808-225-2510
Ata's Hauling,578 Kalanikoa Street,Hilo,HI,96720,808-938-8005
"Atlantic Pacific International, Inc.",3049 Ualena Street #715,Honolulu,HI,96819,808-831-9100
Augustus Trucking LLC,92-6031 Nemo St,Kapolei,HI,96707-2817,808-729-6189
Auwae Trucking LLC,87-100 Kaukamana St,Waianae,HI,96792,808-330-3444
B & C Trucking Co Ltd,99-1200 Halawa Valley Road,Aiea,HI,96701,808-487-7199
"Bb Trucking & Storage, Inc.",5140 Lower Honoapiilani Road,Lahaina,HI,96761,808-877-3966
"B J Trucking, Inc.",Lauhala St 3rd House On Left,Pahoa,HI,96778,808-982-9707
B&m Crane LLC,811 Piliwale Rd,Kula,HI,96790-8886,808-357-1739
B-haulin LLC,462 Kaiaulu Loop A,Makawao,HI,96768,808-281-7202
"Bacon Universal Company, Inc.",918 Ahua St,Honolulu,HI,96819-4495,808-839-7202
Bandit Trucking,4890 Kahekili Highway,Wailuku,HI,96793,808-244-0217
Be Trucking LLC,91735 Aikanaka Road,Ewa Beach,HI,96706,808-371-5586
"Bears Trucking, Inc.",Lualualei Magazine Rd Cement Plt,Waianae,HI,96792,808-668-9001
Bell Trucking LLC,95223 Kapanoe Place,Mililani,HI,96789,808-306-9649
"Bellissimo Stoneworks And Design, Inc.",10 Hakoi Place,Kihei,HI,96753,808-214-4880
Bern's Trucking LLC,7122 Hawaii Kai Dr Apt 81,Honolulu,HI,96825-3158,808-479-3288
"Bertelmann, Inc.",64-1024 Kekauluohi St,Kamuela,HI,96743,808-885-4297
"Beylik Drilling & Pump Service, Inc.",91-259a Olai St,Kapolei,HI,96707,808-682-5554
Bhl Trucking And Equipment Services LLC,41 849 Kakaina Street,Waimanalo,HI,96795,808-590-4526
Big Island Asphalt Company,794 Kalanianaole Ave,Hilo,HI,96720,N/A
Big Island Courier Service,831 Leilani St,Hilo,HI,96720,808-960-6006
Akana Petruleum,50 Kukila Street,Hilo,HI,96720,808-969-1411
Big Island Metal Recycling LLC,16-275 Mikahala St,Keaau,HI,96749,808-954-9978
"Big Island Parcel Service, Inc.",78-6633 Mamalahoa Hwy,Holualoa,HI,96725,808-322-4102
Big Island Scrap Metal LLC,30 Makaala Street,Hilo,HI,96707,808-961-3535
"Big Isle Moving Draying, Inc.",69 Railroad Ave Ste B12,Hilo,HI,96720,808-935-9353
Big Mountain Trucking Equipment Rentals,87168 Manuaihue Place,Waianae,HI,96792,808-216-8732
Billys Trucking LLC,94979 Kahuamoku Place 304,Waipahu,HI,96797,808-678-9228
Brian Fields,18-1350 Volcano Rd Unit 195,Mountain View,HI,96771-3009,808-895-4437
"Blasting Technology, Inc.",68-1244 Waikoloa Road,Waikaloa,HI,96738,808-887-6511
Blessed Wastewater Solutions LLC,86-4313 Mamalahoa Hwy,Captain Cook,HI,96704-8604,808-895-1556
"Blue Wave Tour, Inc.",1850 Ala Moana Blvd Room 601,Honolulu,HI,96815,808-351-7073
"Bluestar Pacific, Inc.orporated",90-1078 Yorktown St 326,Kapolei,HI,96707,808-754-4015
Bobby Boy's Trucking LLC,87167 Kaleiwohi Street,Waianae,HI,96792,808-478-2303
Trucking - General Hauling,87-111 Kulakumu Pl,Waianae,HI,96792,808-457-6157
"Boyd Trucking Service, Inc.orporated",Sand Island Access R,Honolulu,HI,96819,N/A
"Bragado Trucking, Inc.",61-3290 Maluokalani St,Kawaihae,HI,96743,808-882-7722
"Browns Trucking, Inc.",3-4251 Kuhio Highway,Hanamalu,HI,96715,808-246-6796
Bryanka Hauling,154 W Waiko Rd,Wailuku,HI,96793-9322,303-862-3020
"Bug Man Termite And Pest Control, Inc.",296 Alamaha St Ste E,Kahului,HI,96732,808-871-1283
"Bully's Trucking, Inc.",85-1521 Kapaekahi Street,Waianae,HI,96792,808-479-3500
C & K Services LLC,92-1890 Kona Dr,Ocean View,HI,96737,808-936-2400
C A Hauling LLC,87 Moolu Cir,Wailuku,HI,96793,808-757-5362
C&f Trucking,16-179 Mikahala Place,Keaau,HI,96734,808-966-4843
C&j Development And Services LLC,3301 Wauke St,Honolulu,HI,96815-4451,808-387-5297
Ca Trucking LLC,45-524 Kamehameha Hwy,Kaneohe,HI,96744,808-497-6450
Cabral's Excavation,3385 Hana Hwy,Hana,HI,96713,808-870-3937
Calasa Trucking LLC,1552 Kaupakalua Road,Haiku,HI,96708,808-357-1643
"California & Hawaii Foliage Growers, Inc.",27 - 495 Old Mamalahoa Hwy,Papaikou,HI,96781,808-964-5533
Cameron Chemical Corp,94-110 Leokane Street,Waipahu,HI,96797,808-695-2999
Candid Trucking LLC,1652 Hoohalia St,Pearl City,HI,96782,808-673-5630
"Cane & Cab Trucking, Inc.",94531 Ana Aina Place,Waipahu,HI,96797,808-375-5073
"Cantor Bros Transport Services, Inc.",74-5600 Alapa Street,Kailua-kona,HI,96740,808-334-1729
The Delivery People,99-1056 Iwaena Street,Honolulu,HI,96701,808-484-2188
"Cargo Saints, Inc.",111 Keehi Place Suite 200,Honolulu,HI,96819,808-837-2959
Acr Water Hauling,15-1757 Poha Street,Keaau,HI,96749,808-966-7693
Chester And Keiki's Trucking,91-1079 Paaoloulu Way,Kapolei,HI,96707,808-348-6743
Chosen Courier Services LLC,553 Haleakala Hwy,Kahului,HI,96732,808-445-9090
Chungs Farm LLC,937 A Rd Apt D,Pearl City,HI,96782-6305,808-455-8486
Department Of Environmental Services,1000 Uluohia Street Suite 308,Kapolei,HI,96707,808-692-5206
"City Express, Inc.orporated",2838 Kilihau St,Honolulu,HI,96819,808-839-4502
"Cj Peterson Services, Inc.",94-121 Leokane St,Waipahu,HI,96797,808-678-9527
Cleaning And Pumping Services LLC,264 Kalihi St #102,Honolulu,HI,96819,808-842-3459
Cmac Excavation LLC,1103c Malu Pl,Makawao,HI,96768,808-298-6876
"Cmz Of Hawaii, Inc.",91551 Nukuawa Street,Kapolei,HI,96707,808-682-4127
Cnb Logistics LLC,583 Kamoku St #405,Honolulu,HI,96826,808-292-2121
Cnk Trucking Co,85-138 C Waianae Valley Rd,Wainanae,HI,96792,808-696-5773
Coconut Coast Property Services,3492 Maona Road,Lihue,HI,96766,808-245-3109
Cody Express LLC,25 Apuhihi Lane 16b,Kihei,HI,96753,808-870-9248
"Coleman Hawaii Movers, Inc.",91-120 Hanua Street,Kapolei,HI,96707,808-682-6055
"Conen's Freight Transport, Inc.",60 Kuhio St,Hilo,HI,96720,808-969-9341
Contractors Equipment & Service Corp,94-460 Ukee Street,Waipahu,HI,96797,808-676-7566
Coran Hauling & Excavation LLC,19 Kuhina Pl,Makawao,HI,96768,808-870-1485
Correa Hauling LLC,2534 Hoolea Place,Haiku,HI,96708,808-572-9425
Cross Trucking LLC,86-135 Puhawai Rd,Waianae,HI,96792,808-864-5497
Cunningham Cabinets Ltd,1911 Kalani St,Honolulu,HI,96819-3217,808-842-4733
"D & K Petroleum, Inc.",46 145 Malina Pl,Kaneohe,HI,96744,808-235-0215
D D Haole Delivery Service,2219 Alahoa Place #2,Honolulu,HI,96816,N/A
"D Otani Produce, Inc.",320 D Waiakamilo Road,Honolulu,HI,96817,808-832-9600
D S Allen Services,73-4548 Old Government Road,Kailua Kona,HI,96740,808-989-6531
Darbs Trucking LLC,99604 Alia Place,Aiea,HI,96701,808-590-9009
Rolling Stones,81-6248 Piko Rd,Captain Cook,HI,96704-8103,808-323-9025
Twin Trucking,45-408 Loli'i Street,Kaneohe,HI,96744,808-235-5247
Davis Equipment Hauling LLC,2421 Ala Wai Blvd Apt 505,Honolulu,HI,96815,808-304-1661
"Dc Asphalt Services, Inc.",91-315b Kaiholo Street,Kapolei,HI,96707,808-682-4414
Honolulu Ship Supply Co,628 Laumaka Street,Honolulu,HI,96819,808-845-4600
"De Coite Trucking, Inc.",61 Amala Place,Kahului,HI,96732,808-871-7496
De Rego's Service,44-3023 Kkula Kahiko Road,Honokaa,HI,96727,808-776-1625
Debra Vincent LLC,99669 Hulumanu Street,Aica,HI,96701,808-620-3528
Deliver-ease Services LLC,6928 Kalanianaole Hwy,Honolulu,HI,96825-2010,808-366-6930
Delivery Kings LLC,91-3095 Makalea Loop,Ewa Beach,HI,96706,808-385-4422
Dependable Hawaiian Express Big Isl,73 4253 Hulikoa Drive,Kailua Kona,HI,96740,808-327-3489
Dhx,703 N Nimitz Hwy,Honolulu,HI,96817,808-841-7311
Roadmaster Services,41-1656 Humupaa St,Waimanalo,HI,96795,808-528-7374
Dfs Logistics LLC,76-6217 Papala St,Kailua Kona,HI,96740-3014,808-329-1954
Diamond B Ranch Trucking LLC,103 Maha Road,Makawao,HI,96768,808-572-8102
"Diamond Head Seafood Wholesale, Inc.",966 Robello Lane,Honolulu,HI,96817,808-832-9500
Dickson Trucking LLC,936 Upalu St,Wailuku,HI,96793-9437,808-357-7153
"Diesel Trucking 808, Inc.",118 S Papa Avenue,Kahului,HI,96732,808-877-3568
Dsr,91 240 Kalaeloa Boulevard,Kapolei,HI,96707-1820,808-682-2965
Serv Pro Of Kailua And Central Honolulu,45-564 Kamehameha Hwy,Kaneohe,HI,96744,808-235-5015
Diversified Crane Corporation,200 Mokulele Hwy,Kahului,HI,96732,202-521-1493
Don's Makiki Service,1406 S Beretania St,Honolulu,HI,96814,808-949-3787
Don's Trucking LLC,771 Kekaulike Ave,Kula,HI,96790-8966,808-870-3983
"Donaldson Enterprises, Inc.",94 1388 Moaniani Street Unit 319,Honolulu,HI,96797,808-235-2662
"Double Jk, Inc.",94-069 Aaahi Pl,Mililani,HI,96789,808-623-2137
Dpi Hawaiian Distributor Ltd,98-746 Kuahao Place,Pearl City,HI,96782,808-488-8408
Dream Team Transportation LLC,123 Baldwin Rd,Wahiawa,HI,96786,770-467-7353
"E & A Produce, Inc.",14-3449 Forest Road,Pahoa,HI,96778,808-936-8418
"E & A Produce, Inc.",14-3449 Forest Road,Pahoa,HI,96778,808-965-7881
Simply Said Trucking,2209 Ainakahele Street,Hilo,HI,96720,808-640-5406
E R Ranch And Services LLC,2385 A Kokomo Road,Haiku,HI,96708,808-572-4958
Watanabe Pumping,16-2153 Plumeria Dr,Pahoa,HI,96778,808-464-9887
E-h International LLC,50 Pokaka'a Loop #111,Puunene,HI,96784,808-868-4362
"E-opala, Inc.",1708 Mary St,Honolulu,HI,96819-3103,808-232-2000
"Eagle Distributors, Inc.orporated",99-877 Iwaena St,Aiea,HI,96701,808-487-0055
"Eagle Wings Trucking, Inc.",520 Pililoko Street,Paia,HI,96779,808-385-8118
Eastside Express Delivery Service LLC,Hc 2 Box 5770,Keaau,HI,96749-9411,808-315-5433
Ec Trucking LLC,87-216 Pualeilani Street,Waianae,HI,96792,808-668-7888
"Eddies Transfer, Inc.orporated",Po Box 403,Naalehu,HI,96772,N/A
Ed's Hauling And Rental,304 Punahele Street,Hilo,HI,96720,808-935-7988
Edward Vegas Trucking LLC,64 Ka Drive,Kula,HI,96790,808-878-8122
Edwin De Luz Trucking & Gravel LLC,68-1560 Mamalahoa Hwy,Kamuel,HI,96743,808-885-9346
"Eggs Hawaii, Inc.",1590 Hau St,Honolulu,HI,96817-4913,808-841-7521
Ehiku Trucking LLC,89-233 Waiea Place,Waianae,HI,96792,808-690-3662
"Eight Point Distributors, Inc.",3100 Ualena Street Ste 201,Honolulu,HI,96819,808-839-4492
Ekela Trucking LLC,7538 Onini Place,Honolulu,HI,96825,808-216-4857
"Electrical Contractors Hawaii, Inc.",91-522 Nukuawa Street,Kapolei,HI,96707,808-380-9900
"Elite Air, Inc.",6101a Waipouli Rd,Kapaa,HI,96746-8827,808-652-7349
Elite Hauling LLC,64-1032 Kauikeaouli St,Kamuela,HI,96743-8469,808-778-5887
Elite Trucking & Services LLC,91220 Hanua Street,Kapolei,HI,96707,808-620-4999
"Elj Construction, Inc.",45503 Lolii St,Kaneohe,HI,96744,808-265-3354
Elwir Electrical Services LLC,2612 Kinai St,Hilo,HI,96720-5660,808-567-1416
Environmental Transport Group LLC,96-1272 Waihona Street #7,Pearl City,HI,96782,808-456-7663
Enviroservices & Training Center LLC,2850 Paa Street Suite 150,Honolulu,HI,96819,808-839-7222
"Epic Trucking, Inc.",45 109 B Waikapoki Rd,Kaneohe,HI,96744,808-630-6312
Erwin Decoite & Son's Trucking,800 Lauie Drive,Kula,HI,96790,808-870-3427
Es Trucking,1585 Piikea Street,Honolulu,HI,96818,808-422-1949
Honolulu Hauling LLC,3318 Ala Akulikuli St,Honolulu,HI,96818,808-833-7319
Exclusive Hauling & Services LLC,2505 Aeo Pl,Pearl City,HI,96782-1007,808-208-9299
Explore Kauai Tours LLC,3154 Uluhui Street,Lihue,HI,96766,808-652-1125
Ez Delivery Solutions LLC,89-318 Lepeka Ave,Waianae,HI,96792-4114,808-741-4233
"Ez Trucking Honolulu, Inc.",7235 Pulehu St,Honolulu,HI,96825,808-220-5849
Ez Trucking LLC,2109 Tantalus Drive,Honolulu,HI,96823,808-478-8723
"Fcs, Inc.",91-1039 Midway Street,Kapolei,HI,96707,808-853-4267
Feed Trough Llp,67-292 Goodale Ave Ste A1,Waialua,HI,96791-8104,808-637-5600
"Fiberglass Hawaii, Inc.",1377 Colburn St,Honolulu,HI,96817,808-847-3951
First Class Trucking LLC,94-341 Hokuahiahi Street # 112,Mililani,HI,96789,808-625-9113
Five Star Transportation,1930 Auiki St,Honolulu,HI,96819,808-838-7827
Oahu Party Bus,2065 S King Street 205,Honolulu,HI,96826,808-450-5979
Fosters Trucking LLC,2203 Pakeke Street,Waianae,HI,96792,808-216-5284
"Four Seasons Tour, Inc.",377 Keahole Street Suite E208,Honolulu,HI,96825,808-396-9944
Foxx Trucking LLC,98-554 Kaonohi St #2,Aiea,HI,96701,808-852-8644
C & F Trucking,16-179 Mikahala Place,Keaau,HI,96749,808-966-4843
Frankies Rubbish Service LLC,16-507 Ainaloa Blvd,Pahoa,HI,96778-7724,808-938-5319
Fte Services LLC,84-664 Ala Mahiku Street,Waianae,HI,96792,808-852-8886
Marine Petroleum Corp,770 Mapunapuna Street,Honolulu,HI,96819,808-842-3835
"Garden & Valley Isle Seafood, Inc.",225 N Nimitz Hwy #3,Honolulu,HI,96817,808-524-4847
"Garden Isle Disposal, Inc.",2666 Niumalu Rd,Lihue,HI,96766,808-245-2372
"Garden Isle Tile & Masonry, Inc.",5 7283 Kuhio Hwy,Hanalei,HI,96714,808-639-0043
"Gay & Robinson, Inc.",1 Kaumakani Ave,Kaumakani,HI,96747,808-335-3133
Genesis Trucking LLC,84-807 Lahaina Street,Waianae,HI,96792,808-695-9066
Pugees Trucking Company,1240 West Kuiaha Road,Haiku,HI,96708,808-575-2363
Gerdyn Enterprises LLC,95211 Melekai Place,Mililani,HI,96789,808-368-8787
Glenn J A Costa Sr,332 Kuualoha Street,Kahului,HI,96732,808-870-7667
Glenn Lindsey Trucking,64-1013 Mamalahoa Hwy,Kamuela,HI,96743,808-885-2751
Golden Equipment Transport LLC,94-924 Kahiki Pl,Waipahu,HI,96797,808-383-2386
"Gomes Truck Rentals, Inc.",47 114 Wailehua Rd,Kaneohe,HI,96744,N/A
"Good Hawaii, Inc.",140 Liliuokalani Avenue 100,Honolulu,HI,96815,808-922-9704
Continental Transport Service,941074 Paawalu Street P7,Waipahu,HI,96797,808-864-7362
G P Service,59-610 Maulukua Place,Haleiwa,HI,96712,808-330-5240
Grace Pacific,949 Kamokilo Suite 100,Kapolei,HI,96707,808-674-8383
"Green Thumb, Inc.orporated",1060 Makepono Street,Honolulu,HI,96819,808-843-2868
"Gsi Pacific, Inc.",181 S Kukui Street,Honululu,HI,96813,808-834-4631
"Guava Express, Inc.",91-361 Kaiholo St,Kapolei,HI,96707,808-682-6100
Island Wide Trucking,135 Malia Street,Hilo,HI,96720,808-959-4914
Hawaiian Isles Water Company,2839 Mokumoa Street,Honolulu,HI,96819-4402,808-833-2244
Hitco Moving And Storage Service,144 Makaala St,Hilo,HI,96720,808-935-0010
H30 Trucking LLC,92-804 Opalipali Pl,Kapolei,HI,96707-3768,808-524-4617
"Hac Trucking,, Inc..","2938 Ualena Street, Suite 1 ",Honolulu,HI,96819,808-837-7806
"Halawa Truck And Auto Repair, Inc.",991112 Iwaena St,Aiea,HI,96701,808-478-8493
Hamaj Trucking LLC,91-642 Kilaha St Apt E,Ewa Beach,HI,96706-2647,808-320-2505
Hammah Down Trucking LLC,92-1236 Palahia Street Bb105,Kapolei,HI,96707,808-250-4254
"Hang's Trucking, Inc.",802 Cedar St,Honolulu,HI,96814,202-521-1493
"Hankook Hawaii, Inc.",140 Liluokalani Avenue 100,Honolulu,HI,96815,808-922-9704
Hankys Express,Po Box 146,Kaunakakai,HI,96748,N/A
"Harris Rebar South Pacific, Inc.",91- 178 Kalaeloa Blvd,Kapolei,HI,96707,808-682-4766
Hawaii Cdl Academy LLC,15-2070 17th St,Keaau,HI,96749,808-699-0610
Hawaii Express Moving & Storage LLC,762 Lower Main Street,Wailuku,HI,96793,808-243-7447
Hawaii Foodservice Alliance,3077 Koapaka St Suite 203,Honolulu,HI,96819,808-839-2004
"Hawaii Global Holiday, Inc.",2032 South Beretania Street,Honolulu,HI,96826,808-921-0999
"Hawaii International Movers, Inc.",91-120 Hanua St,Kapolei,HI,96707,808-682-2425
Hawaii Island Waste LLC,1033 Ulana Pl,Hilo,HI,96720-3261,808-300-9766
"Hawaii Mega-cor, Inc.",99-940 Iwaena Street,Aiea,HI,96701-3248,808-487-7711
Pods - Portable On Demand Storage,91291 Kalaeloa Blvd E9,Kapolei,HI,96707,808-682-7637
Hawaiian Pacific Freight,2635 Waiwai Loop,Honolulu,HI,96819,808-260-4337
"Hawaii Petroleum, Inc.",16 Railroad Ave Ste 202,Hilo,HI,96720,808-961-2661
Hawaii Piano & Household Moving,441 Lewers St 501,Honolulu,HI,96815,808-922-8825
Hawaii Special Effects Ltd,83-5315 Painted Church Road,Kona,HI,96704,808-227-5596
"Hawaii Stevedores, Inc.",1601 Sand Island Parkway,Honolulu,HI,96819,808-527-3400
"Hawaii Test Borings, Inc.",96-1416 Waihona Place,Pearl City,HI,96782,808-456-7059
Hawaii Transfer Company Ltd,94-1420 Moaniani Street,Waipahu,HI,96797,808-677-3111
Hawaii Trucking & Transportation LLC,16-2073 Hapuu Dr,Pahoa,HI,96778,808-217-0909
"Hawaiian Agents, Inc.",91-314 Komohana St,Kapolei,HI,96707-1714,808-380-4839
Lehua Linen,393 Lehuakona Street,Kahului,HI,96708,808-866-5515
Hawaiian Cement,99 1300 Halawa Valley Street,Aiea,HI,96701-3111,808-532-3400
"Hawaiian Commercial Sugar Co Div Of A B, Inc.",1 Hansen Rd,Puunene,HI,96784,808-877-6905
"Hawaiian Cowboy Trucking, Inc.",1366 Ala Napunani St,Honolulu,HI,96818,808-833-9884
Hawaiian Freight Forwarders Limited,P O Box 266,Waipahu,HI,96797,N/A
Hawaiian Hauling Service Ltd,P O Box 3644,Honolulu,HI,96811,N/A
Hawaiian Hmc LLC,68-1820 Waikoloa Rd,Waikoloa,HI,96738,808-883-1064
Hawaiian Island Trucking,5 Sand Island Access Road,Honolulu,HI,96819,N/A
Hawaiian Pumping Specialists LLC,99-1042 Lauole St,Aiea,HI,96701,808-848-6511
Hawii Metal Recovery Corp,990 Ala-nanala St Apt 38a,Honolulu,HI,96818,808-834-5498
"Hayashi Express Enterprises, Inc.",494 Kalanikoa St Ste B,Hilo,HI,96720-4569,808-961-6011
Haztech Environmental Services,94-110a Leokane Street,Waipahu,HI,96797,808-671-1985
Hc&d LLC,2344 Pahounui Drive,Honolulu,HI,96819-2220,808-832-9424
Hd Hauling Service LLC,86-913 Pahano Loop,Waianae,HI,96792,808-330-2213
"Healy Tibbitts Builders, Inc.",99-994 Iwaena St,Aiea,HI,96701,908-272-4010
S & W Trucking And Equipment,747 Amana St Ste 101,Honolulu,HI,96814,808-946-6606
Heleuma Industrial Services LLC,837 Manalo St,Honolulu,HI,96826-2536,401-525-0885
Help-u-move Hawaii LLC,1288 Kapiolani Blvd Apt 3202,Honolulu,HI,96814,808-780-2165
Hi Demand Transport Services Llp,53-216 Kamehameha Hwy Apt K,Hauula,HI,96717-9725,808-216-3030
High Performance Hauling,92-961 Hunekai Pl,Kapolei,HI,96707-1581,808-291-4446
Hirayama Bros Electric,510 Kalanikoa Street,Hilo,HI,96720,808-935-0933
Hiroshima Trucking LLC,1217 Kina St,Kailua,HI,96734,808-864-3767
Hk Trucking,2989 Ualena St,Honolulu,HI,96819,808-837-7806
Ho'omau Trucking LLC,992 Hanau St,Wahiawa,HI,96786,808-745-6460
"Hoku Express, Inc.",3207 N Nimitz Highway Bay 5,Honolulu,HI,96819,808-834-4692
Hokulani Hauling Hi LLC,47-320 E Hui Iwa St,Kaneohe,HI,96744,808-239-1011
Professional Commercial Services,650 Kakoi St Unit 250,Honolulu,HI,96819,808-691-9576
Holoholo Trucking LLC,1631 Saint Louis Dr,Honolulu,HI,96816-1922,808-773-6543
"Honolulu Disposal Service, Inc.",1169 Mikole Street,Honolulu,HI,96819,808-845-7581
Honolulu Express LLC,550 Paiea Street Suite 226,Honolulu,HI,96819,808-838-7878
Honolulu Freight Service,933a N Nimitz Hwy,Honolulu,HI,96817,808-531-0258
Honolulu Trucking,1424 Uila Street,Honolulu,HI,96818,808-753-0972
Hookipa Transportation Services LLC,900 Fort Street Mall,Honolulu,HI,96789,808-734-7559
Hpc Foods Ltd,288 Libby Street,Honolulu,HI,96819-3950,808-848-2431
Aloha Products,2829 A Mokumoa Street,Honolulu,HI,96819,808-836-8811
I Alone Services Of Hawaii LLC,85-076 Farrington Hwy Apt B301,Waianae,HI,96792-2109,808-590-7849
Ideal Innovation LLC,45-435 Hiipoi St,Kaneohe,HI,96744,808-554-1460
Ilae's Trucking LLC,41-650 Inoaole Street,Waimanalo,HI,96795,808-295-2366
"Imperial Trucking, Inc.",105 Puuhale Road,Honolulu,HI,96819,808-845-4217
Iniki Demolition & Abatement Service,94150 Leoleo St 2b,Waipahu,HI,96797,808-676-9959
"International Express, Inc.",5 Sand Island Access Rd T-915,Honolulu,HI,96819,808-841-6005
None,1321 Moku Pl,Honolulu,HI,96822-3010,808-554-7112
Iron Rod Services LLC,208 Hoomalu St,Hilo,HI,96720-3312,808-345-7678
Daily Trucking,716 Umi Street,Honolulu,HI,96819,808-847-7377
Island Cold Storage LLC,16 172 Wiliama Street Building C,Keaau,HI,96749,808-933-2700
"Island Demo, Inc.",2769 Kilihau Street,Honolulu,HI,96819,808-839-5522
"Island Freight Services, Inc.",875 Alua Street,Wailuku,HI,96793,808-242-6593
"Island Hauling, Inc.",95-202 Hoao Place,Mililani,HI,96789,808-479-7714
Island Lowboy And Trucking LLC,2585 Kahekili Highway,Wailuku,HI,96793,808-757-1521
Propane Man,94-171 Leonui Street,Waipahu,HI,96797,808-676-3033
"Island Movers, Inc.",Pier 42,Honolulu,HI,96817,808-832-4000
"Island Recycling, Inc.",91-140 Kaomi Loop,Kapolei,HI,96707,808-682-9200
Island Transport Systems,3180 D Ualena Street,Honolulu,HI,96819,808-834-7617
Island Wide Furnishings LLC,95-1019 Aelike St,Mililani,HI,96789-5305,650-477-0464
"Islandwide Courier, Inc.",330 Hoohana St #17,Kahului,HI,96732,808-877-7755
Ito En Hawaii LLC,125 Puuhale Road,Honolulu,HI,96819-2270,808-847-4477
J & S Express LLC,91-3095 Makalea Loop,Ewa Beach,HI,96706,808-306-0307
J & S Trucking LLC,270 Lalo Street Unit 25,Kahului,HI,96732,808-873-5005
"J Jeremiah Trucking Co, Inc.",91-103 Hanua Street,Kapolei,HI,96707,808-685-3334
Snap-on Tools,98-452 Kilinoe St Apt 807,Aiea,HI,96701,808-300-4491
J Salgado Trucking LLC,124 Ohukai Road,Kihei,HI,96753-8901,808-250-5069
J&g Trucking LLC,64-5073 Mana Rd,Kamuela,HI,96743,808-937-1847
J&n Hauling LLC,91-501 Kuhioloko St,Ewa Beach,HI,96706,808-683-1058
J&n Hauling LLC,87-1526 Laia St,Waianae,HI,96792,808-216-9584
J's Islandwide Services,15-1492 Olena Street,Keaau,HI,96749,808-966-4631
Jasba LLC,3991 Hoku Ave,Honolulu,HI,96816-4203,808-398-9639
Jay Lo Trucking LLC,19 Pilipaa Place,Makawao,HI,96768,808-757-2429
Jc Trucking LLC,32-937 Mamalahoa Hwy,Ninole,HI,96773,808-963-5169
"Jimmys Razorback Pumping Services, Inc.",84-1131 Kaulaili Rd,Waianae,HI,96792,808-306-8922
Jm Trucking LLC ,1846 Kilohi Street,Honolulu,HI,96819,808-469-9977
"Jn Transport, Inc.",5050 Kahekili Highway,Wailuku,HI,96793,808-757-2610
Jnr Moves Hi,1477 Saint Louis Dr # 1,Honolulu,HI,96816-1734,808-773-0035
Joel Trucking LLC,91-1039 Midway Road,Kapolei,HI,96707,808-723-2744
Nice Tour And Limo Service,3380 Maunaloa Ave,Honolulu,HI,96819,808-282-5252
No Limit Trucking LLC,3349 Kii Place,Pukalani,HI,96768,808-572-9241
"Johnson Brothers Of Hawaii, Inc.",1011 Munu Street,Kapolei,HI,96707,808-487-5355
"Jokis Tour And Limousine Services, Inc.",155 Paoakalani Ave 301,Honolulu,HI,96815,808-922-9662
Jordan & Son's Trucking,94-144 Leoole St Ste B,Waipahu,HI,96797-2260,808-979-1629
J Aguiar Trucking LLC,17-4557 Huina Road,Kurtistown,HI,96760,808-982-5694
Kona Hauling And Delivery Service,68-3483 Kupunakane Pl,Waikoloa,HI,96738-5351,208-362-7017
Blue Bull Trucking,1305 Manu Aloha St,Kailua,HI,96734,808-261-0364
K And J Wholesale Co Ltd,1950 Homerule St,Honolulu,HI,96819-2243,808-381-2495
K-dubs LLC,2850 Kaihikapu St,Honolulu,HI,96819-2010,808-833-3093
Abraham Rivera Jr Kahanu Tucking Service Dba,4186 Waiahi St Waiahi St ,Lihue,HI,96766-9266,808-320-0193
Kahikinas Trucking LLC,74-197 Ililoa St,Kailua Kona,HI,96740,808-315-1089
"Kahili Trucking, Inc.",85 1003 Hoolokahi Street,Waianae,HI,96792,808-398-3572
Kahu Trucking LLC,2374 Aumakua Street,Pearl City,HI,96782,808-497-9533
Kahua Ranch Ltd,91-2002 Fort Weaver Rd,Ewa Beach,HI,96706-1910,N/A
Kahului Fast Transfers LLC,155 Kealohilani St,Kahului,HI,96732,808-870-3487
"Kahului Trucking Storage, Inc.",140 Hobron Ave,Kahului,HI,96732,808-877-5001
Kalama Ohana Services,55-421 Naniloa Loop,Laie,HI,96762-1126,808-312-7639
Kali Corp,84-579 Kepue St,Waianae,HI,96792,808-696-9800
Kama'aina Termite & Pest Control,940b Queen Street,Honolulu,HI,96814,808-591-9997
Kamalii Trucking & Rentals Corp,98-704 Keikialii St,Aiea,HI,96701,808-485-0306
Kahua Beef,3131 Koapaka Street,Honolulu,HI,96819,808-836-2731
Kamuela Roll Offs LLC,64-5321 Puanuanu Pl,Kamuela,HI,96743-8227,808-896-6817
Kamuela Services LLC,86-926 Pokaihene Pl,Waianae,HI,96792-2983,808-388-6010
"Kamuela Trucking, Inc.",91-1191 Kauiki St,Ewa Beach,HI,96706,808-689-0541
Kana'i Trucking LLC,91-1015 Kaana St,Kapolei,HI,96707,808-397-1422
Kaneakua Trucking,2009 Skyline Dr ,Honolulu,HI,96817-2010,808-227-6237
"Kani, Inc.",86-070 Leihoku Street ,Waianae,HI,96792-2218,808-783-4358
"Kapaa Trucking, Inc.",91-723 Kilipoe Street,Ewa Beach,HI,96706,808-330-6625
"Kau Express, Inc.",96-3171 Maile St,Pahala,HI,96777,808-928-8520
Kauai Acquisitions LLC,3419 Iwipoo Rd,Lawai,HI,96765,808-332-7376
"Kauai Freight Service, Inc.",2956 Aukele Street Unit 103,Lihue,HI,96766,808-245-1919
Kauai Veterans Express Co Ltd,3-1480 Kaumualii Hwy,Lihue,HI,96766,808-245-3553
Kawano Trucking,1315 Haawi Way,Pearl City,HI,96782,808-538-6623
Kawao Trucking LLC,92-7045 Kahea St,Kapolei,HI,96707,808-206-0455
Honolulu Crane Service,98-055 Kamehameha Hwy,Aiea,HI,96701,808-650-3099
Ke Ola Hou Trucking LLC,751 Kaiwiula St Apt 13c,Honolulu,HI,96817-4203,860-815-0728
"Keaau Service Station, Inc.",4809 Hwy 11,Kurtistown,HI,96760,808-966-9373
"Kealoha Transfer, Inc.",4937 Nonou Road,Kapaa,HI,96746,808-645-1213
"Kekai Logistics, Inc.",51-498 Kamehameha Hwy,Kaaawa,HI,96730,808-797-0422
Kekai's Pumping,380 Waiehu Beach Rd,Wailuku,HI,96793-1458,808-870-0962
Kelii Trucking LLC,91-1038 Kai Kala Street,Ewa Beach,HI,96706,808-864-8566
"Keohohou Brothers, Inc.",91-250 Komohana Street,Kapolei,HI,96707,808-478-8586
Hfm Foodservice,716 Umi Street,Honolulu,HI,96819,808-843-3222
Malama Junk Removal,32 Waiolu Pl,Wailuku,HI,96793-9317,808-707-9978
Kgml Back Hoe Services LLC,935 East Onaha Place,Wailuku,HI,96793,808-242-1125
Structure Movers Hawaii,9250 Kaumualii Highway,Waimea,HI,96796,808-338-0021
Kili Trucking LLC,7246 Kauhako St,Honolulu,HI,96825-2221,808-330-4077
"King Food Service, Inc.",94-272 Pupuole Street,Waipahu,HI,96797,808-671-5464
Kni Trucking And Services LLC,64-659 Puu Olu Place,Kamuela,HI,96743,808-238-0288
Knight Transport,99-818 Meaala St,Aiea,HI,96701,808-485-0966
"Koa Trading Company, Inc.",2975 Aukele St,Lihue,HI,96766-1463,808-245-6961
"Kobayashi Trucking And Equipment, Inc.",5-5435 Kuhio Highway,Hanalei,HI,96714,808-826-6284
K & K Distributors,94-153 Leonui St,Waipahu,HI,96797,808-677-0046
Kona Trans,74 5039 A Queen Kaahumanu Hwy,Kailua Kona,HI,96740,808-329-4111
Krc Services LLC,3213 Hiraoka St,Lihue,HI,96766,808-634-3626
Kristo Trucking LLC,5 Kaulana Na Pua Cir,Wailuku,HI,96793,808-870-2277
Maui Tow And Transport Co,221 Lalo St,Kahului,HI,96732,808-871-9184
"Ktm Services, Inc.",2111 Wilcox Lane Unit A,Honolulu,HI,96819,808-845-8089
"Ku Trucking, Inc.",89-156 Nanaikala Place,Waianae,HI,96792,808-784-0981
"Kuaana Trucking, Inc.",94 1179 Lumipolu Street,Waipahu,HI,96797,808-479-2259
Kukonu Trucking LLC,45-523 Pahia Road,Kaneohe,HI,96744,808-330-3237
Kula Produce Co Ltd,217 Ho'ohana St,Kahului,HI,96732,808-538-7051
"Kuwaye Trucking, Inc.",456-a Kalanianaole Ave,Hilo,HI,96720,808-935-2845
K Yamada Distributors,2949 Koapaka St,Honolulu,HI,96819,808-836-3221
L Jo Crew Trucking LLC,95-737 Makaunulau Street,Mililani,HI,96789,808-852-8323
L Pontanilla Trucking LLC,16 Anamuli St,Kahului,HI,96732,808-870-2097
Laie Trucking And Ready Mix Co Ltd,55 320 Kamehameha Highway,Laie,HI,96762,808-293-8710
"Lanai Oil Company, Inc.",Kaumalapau Harbor,Lanai City,HI,96763,808-565-6802
Laulea Trucking LLC,1169 Mokuhano St Dio5,Honolulu,HI,96825,808-398-9990
Lbc Mabuhay Hawaii Corporation,2146 Kamehameha Hwy,Honolulu,HI,96819,808-841-1535
"Leeward Auto Wreckers, Inc.",91-209 Kuhela,Kapolei,HI,96707,808-682-4060
Leongs Trucking Services LLC,1519 Ala Aolani St,Honolulu,HI,96819,808-387-4468
"Lion's Limousine & Transportation, Inc.",2010 Kalani Street,Honolulu,HI,96819,N/A
Live Green Recycling Hawaii LLC,96-1422 Waihona Pl,Pearl City,HI,96782-1973,808-479-8090
"Loaa Enterprises, Inc.",79-7327 Mamalahoa Hwy,Kealakekua,HI,96750,808-987-2760
London Logistics LLC,16-1891 37th Ave,Keaau,HI,96778,503-894-4395
Lopez Trucking & Sons LLC,9877 Nima Place,Waimea,HI,96796,808-645-7060
Lrt Trucking & Services LLC,41-1389 Laukalo St,Waimanalo,HI,96795-1227,808-375-7283
Ltr Services LLC,74-227 Ililoa St,Kailua Kona,HI,96740,808-756-1297
M And M Tow LLC,54-179 Kawaeku St,Hauula,HI,96717-9505,808-772-6795
"M Dyer & Sons, Inc.",98-054 Kuleana Rd,Pearl City,HI,96782,808-456-4200
M Funes Trucking LLC,Camp 10 Firebreak Road,Puunene,HI,96784,808-757-0456
M4 Services LLC,5 Sand Island Access Rd Bldg 919,Honolulu,HI,96819,808-841-6011
Mahana Trucking LLC,3237 Esther St,Honolulu,HI,96815,808-690-3869
"Maile Trucking, Inc.",87-128 Kaukamana St,Waianae,HI,96792,808-478-8275
Maka Pueo LLC,1088 Bishop St #3403,Honolulu,HI,96813,808-342-4369
Maluhia Trucking LLC,1075 Kehau Pl,Makawao,HI,96768-9318,808-870-5072
"Manaba Enterprises, Inc.",40 Hio Place,Kaunakakai,HI,96748,808-553-5682
"Manson Products Company, Inc.",1618 Kalani St,Honolulu,HI,96817-4924,808-847-3338
Marcz Transport LLC,99-015 Kalaloa St Apt 301,Aiea,HI,96701-3830,808-227-8265
Marjorie Scoville Dba 808 Hauling Services,2069 California Ave Apt 15d,Wahiawa,HI,96786-2779,808-429-7938
Mark Whinery,30 Ehu Rd,Makawao,HI,96768,951-312-8244
Masa Trucking LLC,91-1080 Puahala Street #22t,Ewa Beach,HI,96706,808-384-1836
Masem's Da Truck LLC,92577 Awawa St,Kapole,HI,96707,808-383-8300
"Kone, Inc.",550 Paiea St,Honolulu,HI,96819,808-833-3299
Swain's Trucking,95-1138 Ahoka St,Mililani,HI,96789,808-386-3513
Matsumoto Trucking LLC,92-745 Paakai St,Kapolei,HI,96707-1634,808-351-9989
Maui Electric Company Ltd,210 W Kamehameha Ave,Kahului,HI,96732-2253,808-871-8461
Maui Logistics LLC,32 Nilu Place,Haiku,HI,96708,808-757-0151
"Maui Oil Company, Inc.",16 Hobron Ave,Kahului,HI,96732,808-871-6220
Maui Roll Off Dumpsters LLC,15 Pahaa Pl,Makawao,HI,96768-8719,808-283-9342
Maui Soda & Ice Works Ltd,918 A Lower Main Street,Wailuku,HI,96793,808-244-7951
"Maui Waste Systems, Inc.",1043 Makawao Ave Ste 104,Makawao,HI,96768,808-633-7579
"Maunalei Trucking, Inc.",91 055 Kaomi Loop,Kapolei,HI,96707,808-422-1794
Martin Transportation Services,349 Hookela Place,Honolulu,HI,96819,808-842-6161
Armanis Trucking,15-645 Puni Mauka Loop N,Pahoa,HI,96778,808-229-6837
Mercantile Freight Service,2280 Alahao Pl,Honolulu,HI,96819,808-847-3015
Mercantile Trucking Service Limited,2280 Alahao Place,Honolulu,HI,96819,808-847-3241
Alliance Trucking,91-229 Kuhela St,Kapolei,HI,96707,808-682-3030
Mid Pac Petroleum LLC,1100 Alakea 8th Floor,Honolulu,HI,96813,808-535-5999
"Mihara Transfer, Inc.orporated",41 Keaa St,Hilo,HI,96720,808-935-1597
Mikaele Trucking LLC,94-990 Pakela St,Waipahu,HI,96797-5263,808-216-3716
Mikey's Trucking LLC,86-402 Kawili St,Waianae,HI,96792-2944,808-478-9916
"Mkl Trucking, Inc.",74 4930 Palani Rd,Kailua-kona,HI,96740,808-331-1614
Modern Macaroni Co Ltd,1708 Mary St,Honolulu,HI,96819-3103,808-845-6841
Moku Boyz Trucking LLC,86-913 Pukui Pl,Waianae,HI,96792-2951,808-779-7306
Moniz Trucking LLC,86 138 Kuwale Rd 2,Waianae,HI,96792,808-590-1041
"Movers, Inc.",424 Hunter Way,Honolulu,HI,96819,808-847-6800
"Mpd, Inc.",91-1046 Kaiohee Street,Ewa Beach,HI,96706,808-689-4268
N And C Trucking And Services LLC,64 5221 Ironwood Lane,Kamuela,HI,96743,808-885-0362
N D S - Nations Delivery Services LLC,98-1798 Kaahumanu St Apt B,Pearl City,HI,96782-1879,808-321-9132
N Fukunagas Trucking LLC,1722 Makiki Street Apt 502,Honolulu,HI,96822,808-690-4682
"Na Kane Trucking, Inc.",91 1052 Lipo Street,Kapolei,HI,96707,808-478-3908
Narvaez Ranch Service LLC,18-4230 N Glenwood Road,Mt View,HI,96771,808-968-1037
Makoa Trucking & Services,70 Kaunakakai Pl,Kaunakakai,HI,96748,808-553-5319
Nicks Hauling Services LLC,32-964 Mamalahoa Hwy,Ninole,HI,96773,808-963-6815
Niking Corporation,235 Kellog Street,Wahiawa,HI,96786,808-622-0443
Niles Hauling LLC,5435 Lower Kula Road,Kula,HI,96790,808-878-3332
Njjm Hauling Services LLC,85554 Momona Place,Waianae,HI,96792,808-697-8685
Noa's Trucking LLC,92-1268 Makakilo Dr Apt 105,Kapolei,HI,96707-1593,808-829-8811
Nobbyland LLC,1778 Ala Moana Blvd Apt 2007,Honolulu,HI,96815-1616,808-779-7270
Nohili Trucking LLC,Po Box 26271,Honolulu,HI,96825,808-520-4448
"Nokaoi Trucking, Inc.",66-081 Alapii Street,Haleiwa,HI,96712,808-637-2610
North America Transport Systems LLC,77-6462 Pualani Street,Kailua-kona,HI,96740,866-378-6713
North Star Trucking LLC,2281 Olu Olu Road,Koloa,HI,96756,770-205-0218
Oahu Express Ltd,91-489 Unit B Komohana St,Kapolei,HI,96707,808-682-8080
Oasis Environmental Group LLC,96-1333 Waihona St Unit C,Pearl City,HI,96782,808-529-1300
Og Trucking,7235 Pulehu St,Honolulu,HI,96825-2536,808-688-4368
Ohana Express Shuttle & Tour Service LLC,4324 Piikea Place,Honolulu,HI,96818,808-330-9563
Ohana Freight LLC,5051 Moi Rd ,Hanapepe,HI,96716,808-631-4946
Ohana Trucking LLC,61-4050 Honouli Street,Kawaihae,HI,96743,808-880-1539
Okada Trucking Company Limited,2065 S King St Ste 105,Honolulu,HI,96826,808-946-4894
Onipaa Transportation Corp,1005 Ala Lilkoi St #10205,Honolulu,HI,96818,808-864-1192
Orchid Isle Excavation LLC,Rd9 Lot 505 Lehuanani Street,Mountain View,HI,96771,808-430-2774
"Oriental Food Distributor, Inc.",815 Gulick Avenue,Honolulu,HI,96819,808-848-0300
"Pacific Agricultural Sales Services, Inc.",91-262 Ola'i Street,Kapolei,HI,96707,808-682-5113
Pacific Biodiesel Logistics LLC,40 Hobron Avenue,Kahului,HI,96732,808-877-3144
Pacific Boats & Yachts LLC,74-425 Kealakehe Pkwy Unit 3b,Kailua Kona,HI,96740,808-329-4066
Hawaii Moving & Delivery Service,3029 Lowrey Av #c1205,Honolulu,HI,96822,808-922-5151
"Pacific Coast Trucking, Inc.",107 Makaala St,Hilo,HI,96720,808-969-3060
Pacific Commercial Services LLC,5 Sand Island Access Road Bldg 931 Unit 115,Honolulu,HI,96819,808-545-4599
"Pacific Express, Inc.orporated",1150 Sand Island Parkway,Honolulu,HI,96819,808-847-1358
Pacific Industrial Equipment,94-465 Koaki St Ste F,Waipahu,HI,96797,808-671-8200
Pacific Island Movers LLC,1043 Opule Street Suite 1,Kapolei,HI,96707,808-682-9900
"Pacific Isle Delivery, Inc.",99-984 Iwaena St,Aiea,HI,96701,808-486-7654
"Pacific Isles Equipment Rentals, Inc.",91-1041 Midway Rd 191,Kapolei,HI,96707,808-520-2615
Pacific Transfer,664 Kakoi St,Honolulu,HI,96819,808-836-3871
"Pacific Transportation Services, Inc.",73-4392 Punawele Street,Kailua Kona,HI,96740,808-325-7500
"Pacific Trucking, Inc.",92-212 Opuakii Place,Kapolei,HI,96707,808-672-7298
Pacific Waste Systems,74-5610 Alapa St,Kailua Kona,HI,96740-1606,808-326-4911
"Pacis Trucking, Inc.",86031 Hoaha Place,Waianae,HI,96792,808-696-8460
"Pacis Trucking, Inc.orporated",87-2042 Farrington Hwy # 11,Waianae,HI,96792-3750,808-861-9112
Paling & Sons Trucking & Equipment Rentals LLC,89-130 Mano Avenue,Nanakuli,HI,96792,808-668-8791
Pangan Hauling,631 Kuliouou Rd,Honolulu,HI,96821-2435,808-673-0384
Paradise Host Services LLC,1092 Makepono St,Honolulu,HI,96819-4337,718-213-3361
"Paradise Trucking Service, Inc.",304 Puuhale Rd,Honolulu,HI,96819,808-842-5589
"Parker Ranch, Inc.",66-1304 Mamalahoa Highway,Kamuela,HI,96743,808-885-7311
Hawaii Super Transit,1148 Gulick Avenue,Honolulu,HI,96819,808-306-3294
Kia Truck Rental,92702 Mehani St,Kapolei,HI,96707,808-330-4947
Ais,91-1590 Wahane St,Kapolei,HI,96707-3107,808-777-8507
"Patterson Construction Trucking, Inc.",#10 Manawainui Bridge,Hoolehua,HI,96729,808-553-3840
Peter De Luz Ranch,43-1603 Pohakealani Road,Paauilo,HI,96776,808-960-6513
Bei Hawaii,311 Pacific Street,Honolulu,HI,96817,808-532-7400
Honolulu Transfer & Storage,1051 Mikole Street,Honolulu,HI,96819,808-848-8884
Pinky Tows Pacific,96-1268 Waihona St,Pearl City,HI,96782-1968,808-682-8697
Pinpoint Marketing LLC,2250 Kalakaua Ave #404-3,Honolulu,HI,96815,808-922-2343
Dc Express,99-1287 Waiua Place,Aiea,HI,96701,808-487-0030
Pk Trucking Services LLC,95059 Kahoea Street,Mililani,HI,96789,808-630-0044
"Pns Ii Trucking, Inc.",89-130 Mano Avenue,Waianae,HI,96792,808-479-0445
Pohaku Equipment Services LLC,Po Box 8735,Honolulu,HI,96830,808-690-7908
Ptsi,99 139 Chester Way,Aiea,HI,96701,808-485-4962
Porky's Trucking LLC,91-110 Hanua St Ste 202,Kapolei,HI,96709,808-676-1760
"Precision Moving And Storage, Inc.",91-544 Awakumoku Street,Kapolei,HI,96707,808-485-2291
"Preferred Transportation Services, Inc.",2920 Ala Ilima St Apt 702,Honolulu,HI,96818-2506,808-729-7221
Premier Hauling Services LLC,41-733 Ala Koa St ,Waimanalo,HI,96795-1702,202-521-1493
Prime DeliveriesLLC,75-5863 Kuakini Hwy Apt 225,Kailua Kona,HI,96740,808-300-7206
"Primo Distributing Company, Inc.orporated",651 Ilalo Street,Honolulu,HI,96813,808-524-5840
"Professional Commercial Services, Inc.",650 Kakoi St,Honolulu,HI,96820,808-678-3878
Gibson Services,45 Huaalani Dr,Hilo,HI,96720,808-557-4385
"Puaa Trucking, Inc.",46 Halekauai Street,Kihei,HI,96753,808-879-6167
Pule Trucking LLC,625 Middle Street,Honolulu,HI,96819,808-266-0681
"Puna Certified Nursery, Inc.",17-4373 South Road,Kurtistown,HI,96760,808-966-8300
Puu Waa Waa Cattle Company LLC,46-3888 Old Mamalahoa Hwy,Honokaa,HI,96727,808-936-4507
"Quick Move, Inc.",155 Sand Island Acess Road,Honolulu,HI,96819,808-486-7223
Quicktow LLC,2000 Mokulele Hwy,Puunene,HI,96784,808-877-5553
"R & C Trucking, Inc.orporated",1241 Lunalilo Home Road,Honolulu,HI,96825,808-864-8457
R & J Yard & Maintenance Services LLC,1691 Mahani Loop,Honolulu,HI,96819-2831,808-721-1409
R & Ka Equipment,Enterprise St,Kalaeloa,HI,96707,808-677-1107
R Panui Trucking LLC,91-876 Haiamu St 91-876 Haiamu St ,Ewa Beach,HI,96706-2840,808-478-9845
R R Express Trucking Service Corporation,348 Puuhale Road Suite 211,Honolulu,HI,96819,808-836-4033
R&e Trucking Express LLC,91-680 Wehelani St,Ewa Beach,HI,96706-4855,808-781-9844
"Rainbow Auto Repair, Inc.",2010 Kalani Street,Honolulu,HI,96819,808-848-5515
Royal Star Hawaii Motorcoach Tours&destination Services,1540 South King St,Honolulu,HI,96826,808-841-7827
Rds Transport Services,46-145 Malina Pl,Kaneohe,HI,96744-3804,808-234-2349
Redline Automotive,918 Waiakamilo Road,Honolulu,HI,96817,808-848-1491
"Redo Express, Inc.",Box 216,Hana,HI,96713,808-248-8410
Rrr Recycling Services,91-165 Kalaeloa Boulevard,Kapolei,HI,96707,808-682-5600
Reliance Couriers LLC,212 Merchant St Ste 300,Honolulu,HI,96813-2925,808-526-0517
"Reliant Trucking, Inc.orporated",7197 Koamano Street,Honolulu,HI,96825,808-395-9124
Rnr Transport Services LLC,94-395 Hokuahiahi St,Mililani,HI,96789,808-476-8683
Roadrunner Engery LLC,47 680 Hui Villi St,Kaneohe,HI,96744,808-201-1443
Robellos Enterprise LLC,91-1200 Mikohu Street #44/s,Ewa Beach,HI,96706,808-620-2489
Town & Country Hauling,111 Silva Street,Hilo,HI,96720,808-969-1911
Ameritone Maui,140 Alamaha Street,Kahului,HI,96732,808-871-7734
Wick Rice Cabinetry,73-5583 Kauhola St Bldg 1,Kailua Kona,HI,96740-2679,808-326-2246
Roberto Lamug,94-1000 Puia Street,Waipahu,HI,96797,808-680-0424
Roberts Hawaii,680 Iwilei Road Ste 700,Honolulu,HI,96817,808-523-7750
"Rojac Trucking, Inc.",150 Pakana Street,Wailuku,HI,96793,808-986-1100
"Rolloffs Hawaii, Inc.",1020 Ulupono Street,Honolulu,HI,96819,808-845-9313
Royal Hawaiian Trucking & Warehousing,3017 Ualena St,Honolulu,HI,96819,808-833-1611
Royz Trucking LLC,Box 700234,Kapolei,HI,96709,808-690-2645
"Rpm Transportation Hawaii, Inc.",96-1379 Waihona Street,Pearl City,HI,96782,808-454-8600
Rtl Services LLC,41-1389 Laukalo St,Waimanalo,HI,96795-1227,808-478-5809
Running P Trucking LLC,44-1695 Kamaka Church Road,Honokaa,HI,96727,808-775-7750
S & C Trucking LLC,87-1859 Holomalia St,Waianae,HI,96792,808-691-0464
"S Funes Equipment, Inc.",150 Hana Highway,Kahului,HI,96732,808-249-8737
S&r Trucking LLC,64 822 Uikeoni St,Kamuela,HI,96743,808-885-7628
"Safety Systems And Signs Hawaii, Inc.",815c Waiakamilo St,Honolulu,HI,96817,808-847-4017
Saia & Sons LLC,86-042 Alta St,Waianae,HI,96792-3031,808-282-9993
"Samson Trucking, Inc.",87-161 Manuoioi Place,Waianae,HI,96792,808-864-1666
Sansui Transportation LLC,193 Anapalau Street,Honolulu,HI,96825,808-396-5101
Rma Sales,99-134 Waiua Way,Aiea,HI,96701,808-487-9041
Declutter Hawaii,1056 Makaiwa Street,Honolulu,HI,96816,808-779-6224
"Ser Trucking, Inc.",85 1383c Waianae Valley Road,Waianae,HI,96792,808-696-8492
Toyota Hawaii Carriers Services,2101 Auiki St Ste A,Honolulu,HI,96819,808-564-1600
Daehan Tongwoon Express In Hawaii,1133 Waimanu St 610,Honolulu,HI,96814,808-551-2424
Island Pool & Spa Supply,1169 Kona Street,Honolulu,HI,96814,808-593-8448
Wassie's Trucking,25-3310 Pakelekia Street,Hilo,HI,96720,808-934-0820
Shimaya Shoten Limited,710 Kohou St,Honolulu,HI,96817,808-845-6691
Shoki Trucking LLC,16-720 Keaau Rd,Keaau,HI,96749,808-960-9300
Akamai Trucking,73-997 Ahikawa St,Kailua Kona,HI,96740,808-430-5355
Sobel Westex,99-807 Iwaena Street,Aiea,HI,96701,808-488-2133
Souphap Thonavong,3027 Waipuna Rise,Honolulu,HI,96822-1464,808-489-6083
Spartan Hauling LLC,117 Lower Kimo Dr,Kula,HI,96790-8233,808-870-2722
Splendor Tours LLC,1314 S King Street Rm 612,Honolulu,HI,96814,808-597-8801
Expediters Hawaii,930 C Mapunapuna St,Honolulu,HI,96819,808-831-0222
Star Ice & Soda Works,1162 Lower Main Street,Wailuku,HI,96793,808-244-3777
Pron-tow Service,47-025 Hui Iwa Pl Apt B,Kaneohe,HI,96744-4413,808-239-4164
Sun Fresh Hawaii LLC,250 Alamaha Street S10,Kahului,HI,96732,808-873-8480
All American Taxi Truck,99-984 Iwaena St,Aiea,HI,96701,808-487-7494
Super Express Company Limited,1060 Young St Ste 325,Honolulu,HI,96814,808-845-9771
Eds Super Tow Super Tow LLC,1 Geiger Rd,Ewa Beach,HI,96706,808-478-2177
Support Services Group LLC,91 559 Nukuawa Street,Kapolei,HI,96707,808-690-4399
Surecan LLC,84-694 Lahaina St Apt A,Waianae,HI,96792,808-690-0882
"T F Tours & Transportation, Inc.",3484 Waialae Ave,Honolulu,HI,96816,808-735-6674
T Hara And Company LLC,57-b Hoaka Road,Hilo,HI,96720-5106,808-935-5424
"T J Gomes Trucking Co, Inc.",500 B Waiale Road,Wailuku,HI,96793,808-244-0036
T J Trucking & Equipment,197 Sand Island Access Rd 201 G,Honolulu,HI,96819,808-342-0701
T&k Trucking And Services LLC,43-1349 Hawaii Belt Rd,Paauilo,HI,96776,808-640-4829
"Tac Leasing, Inc.",1150 Sand Island Parkway,Honolulu,HI,96819,808-845-9595
Tagavilla Enterprises LLC,78-6633 B Mamalahoa Hwy,Holualoa,HI,96725,808-339-5813
"Tai Polythene Of Hawaii, Inc.",218 Mohonua Pl,Honolulu,HI,96819,808-848-5591
Tai-son Services LLC,91-319 Olai St,Kapolei,HI,96707-1721,808-861-2284
Tajiri Demolition And Disposal LLC,1005 Puuwai,Honolulu,HI,96819,202-521-1493
"Takahashi Brothers Trucking Service, Inc.",16 166 Wiliama Street,Keaau,HI,96749,808-966-9939
"Takes Transportation, Inc.",73-5583 Maiau St,Kailua Kona,HI,96740,808-329-3740
"Tampos Trucking, Inc.",91-1765 Puhiko Street,Ewa Beach,HI,96706,808-368-8138
Tanner Whitman Services LLC,73-4327 Ohikapua Pl,Kailua Kona,HI,96740,808-938-7937
"Tavares Trucking, Inc.",12 Nana Pona Pl,Kula,HI,96790,808-878-2133
Tc Logistics LLC,Pier 42,Honolulu,HI,96817,808-832-4804
The Cherry Company Ltd,4461 Malaai Street,Honolulu,HI,96818,808-422-6555
The Trash Man LLC,96-1422 Waihona Place,Pearl City,HI,96782,808-455-4500
Unishippers Of Hawaii,95-1202 Wikao St,Mililani,HI,96789,808-834-1373
Kano Trucking Service Ltd,224 Mokauea Street,Honolulu,HI,96819,808-848-8844
Thomas Transport Service,1511 Nuuanu Ave #230,Honolulu,HI,96817,808-721-1667
Tibbitts Trucking LLC,311 Mananai Pl #45c,Honolulu,HI,96818,808-222-6494
T Sapphire,1939 Coyne St,Honolulu,HI,96826-1332,808-721-3173
Tonys Tow LLC,98-438 Kaamilo St,Aiea,HI,96701-4312,209-319-3195
Top Notch Trucking LLC,95215 Hainole Pl,Mililani,HI,96789,808-626-2485
"Touchdown Trucking, Inc.",4321 Lawehana Street,Honolulu,HI,96818,808-423-8777
Tow 4 Sho And Recovery LLC,91-222 Olai St,Kapolei,HI,96707,808-478-6909
Tradewind Deliveries LLC,415 Dairy Rd Ste E113,Kahului,HI,96732-2348,541-801-0321
Tradewinds Transport Hawaii LLC,95-2027 Waikalani Pl Apt A304,Mililani,HI,96789-3433,808-861-1918
"Trans Quality, Inc.",685 Ahua Street,Honolulu,HI,96819,808-834-0884
Crown Relocations,600 Kahelu Ave,Mililani,HI,96789,808-625-4520
"Transportation Service Of The Pacific, Inc.orporated",1362 Kapiolani Blvd,Honolulu,HI,96814,N/A
Tptransportation,818 Pine St,Honolulu,HI,96817,808-534-3300
Haleakala Transportation & Warehousing,860 Eha Street,Wailuku,HI,96793,808-244-1800
Triple B Forwarders,803 Mapunapuna St,Honolulu,HI,96819,808-834-7154
Tropical Fish Emporium LLC,47-641 Ahuimanu Rd ,Kaneohe,HI,96744,808-754-7100
"Tropical Fruites Distributors Of Hawaii, Inc.",429 Waiakamilo Rd,Honolulu,HI,96817,803-847-3234
Truss Systems,235 Nakii St Central Maui Baseyard,Puunene,HI,96784,808-877-0036
Tua Hawaii LLC,475 Kinoole St Ste 102 Pmb 246,Hilo,HI,96720,808-430-8720
Turtle Dove Enterprise,515 Pualani St,Wailuku,HI,96793,808-357-2883
Tw Trucking LLC,201 Merchant St Ste 2050,Honolulu,HI,96813,808-226-1386
"U&m Produce, Inc.",150 N King Street 101,Honolulu,HI,96817,808-531-8228
Uhane Pa'a General Services LLC,2366 Akalakala St,Pearl City,HI,96782-1014,808-364-7852
"United Auto Parts, Inc.",90 E Wakea Avenue,Kahului,HI,96732,N/A
"United Environmental Services, Inc.",91-517 Awakumoku Street,Kapolei,HI,96707,808-682-1001
"United Rim Transport, Inc.",2298 Alahao Place Unit A,Honolulu,HI,96819,808-845-0555
Unitek,91-125 Kaomi Loop,Kapolei,HI,96707,808-673-3229
Unitek Supply LLC,2676 Waiwai Loop,Honolulu,HI,96819,808-831-3076
"Universal Delivery Service, Inc.",1794 Haleukana St,Lihue,HI,96766,808-245-9974
Upward & Forward Inspirations LLC,91-020 Hailipo Street,Ewa Beach,HI,96706,808-319-3829
Vip Foodservice,74 Hobron Av,Kahului,HI,96732,808-877-5055
Hapu Trucking Service,171 J Maha Rd,Makawao,HI,96768,808-357-0129
Veazy's Trucking Company LLC,1147 Lehua Rd,Wahiawa,HI,96786-6017,843-813-2208
Verceluz Trucking LLC,655 Halula Place,Wailuku,HI,96793,808-244-1519
Cheap Vip Tour,307 Lewers Street Room 500,Honolulu,HI,96815,808-922-5678
Vip Trans,443 Kalewa Street,Honolulu,HI,96819,808-836-0317
Vp Boyz Trucking LLC,94-1106 Huakai Street,Waipahu,HI,96797,808-754-8033
Vp Trucking Equipment Rental,91-222 Olai Street,Kapolei,HI,96707,808-677-0612
W Hoohuli Trucking LLC,91-1226 Hanaloa Street,Ewa Beach,HI,96706,808-689-7632
Waalani Enterprises LLC,3984 Kiani Street,Lawai,HI,96765,808-332-8850
"Wasa Electrical Services, Inc.",2908 Kaihikapu Street,Honolulu,HI,96819,808-839-2741
Webco,2840 Mokumoa Street,Honolulu,HI,96819,808-839-4551
W Duarte Trucking,45 124c Waikalua Rd,Kaneohe,HI,96744,808-429-3632
West Hawaii Freight Service,Kona Intl Airport,Kailua-kona,HI,96740,808-326-1889
"West Maui Land Company, Inc.",33 Lono Avenue Suite 450,Kahului,HI,96732,808-877-4202
"West Point Relocation, Inc.",1730 Kitty Hawk/nas,Barbers Point,HI,96707,N/A
"Westbrook Trucking, Inc.",86-078 Farrington Hwy Ste 204,Waianae,HI,96792,808-696-2211
Westcoast Cdl Drving School And Hauling,86 178 Moelima Pl,Waianae,HI,96792,808-520-3706
Western Haulin LLC,851330 E1 Waianae Valley,Waianae,HI,96792,808-696-6724
"Westpac International, Inc.",1220 Mikole St,Honolulu,HI,96819,808-845-9711
"Westside Trucking, Inc.",74 5079 Kealapua Street,Kailua Kona,HI,96740,808-329-2178
Wikiwiki Express Delivery,856 Ilaniwai St Ste 202,Honolulu,HI,96813,855-945-4945
"Wongs Produce, Inc.",690 Halekauwila Street,Honolulu,HI,96813,808-536-6617
"Worldwide Moving & Storage, Inc.",93-313 Kauhi St,Kapolei,HI,96707,808-682-3722
"Wpr Hawaii, Inc.",94 1355 Waipio Uka Street,Waipahu,HI,96797,888-659-2766
"Xpress Distribution, Inc.",2887 Koapuka St,Honolulu,HI,96819,808-833-9999
"Xpress Trucking, Inc.",2887 Koapaka Street,Honolulu,HI,96819,808-833-9999
"Xtreme Trucking, Inc.",911760 Pepper Row,Ewa Beach,HI,96706,808-479-8220
Y Fukunaga Products Limited,651 Ilalo St Bldg A,Honolulu,HI,96813,N/A
Y Hata & Company Ltd,285 Sand Island Access Road,Honolulu,HI,96819,808-845-3347
"Y N Express, Inc.",741 Ilalo St,Honolulu,HI,96812,808-537-5265
"Yama Distribution, Inc.",5080 Likini St Apt 314,Honolulu,HI,96818-2381,808-371-4564
"Ybj, Inc.",2908 Kaihikapu St,Honolulu,HI,96819,808-564-3741
Young Guns Trucking LLC,43-1621 Pohakealani Rd,Paauilo,HI,96776,808-937-4548
Help-u-move Hawaii,1050 Queen St Ste 100,Honolulu,HI,96814-4130,808-780-2165
