Company Name,Street Address,Address Locality,Address Region,Postal Code,Telephone
S F Trucking,5375 Sw 7th St Ste 500,Topeka,KS,66606,785-969-1735
Ky Trucking,2701 W Mary,Garden City,KS,67846,620-271-0233
Jess Trucking,406 N 4th St,Garden City,KS,67846,620-640-5834
Tec Trucking,1817 S 94th Street,Kansas City,KS,66111,913-745-4245
Ashley's Trucking,1026 E 635 Ave,Mulberry,KS,66756,620-764-3917
Jc Trucking,510 Colorado Street,Manhattan,KS,66502,785-477-1350
Baileys Transportation,2208 Cherokee,Garden City,KS,67846,620-521-3615
Ramon Gomez Trucking,1221 Charles Street,Liberal,KS,67901,620-655-8467
Quality Livestock Services,11505 Roberts Run Rd,Westmoreland,KS,66549,785-457-0191
Star Services Property Maintenance LLC,1500 Se 43 Ter,Topeka,KS,66609,785-267-3770
A & B Trucking,624 Leland,Topeka,KS,66607,785-357-1940
Csmr Trucking,453 Eisenhower Rd,Mcpherson,KS,67460,620-834-2434
R&k Distributing,1909 23rd St,Great Bend,KS,67554,620-793-8038
P & A Trucking,16853 Hwy 54,Liberal,KS,67901,620-391-1101
Klaus Distributing,3411 Country Lane,Hays,KS,67601,785-625-5900
Clements Trucking,2405 Yy Road,Emporia,KS,66801,620-279-4485
Hauk Express Lines,704 Park Street,Atchison,KS,66002,913-367-1661
Cunningham And Son Trucking,2265 21 Rd,Plainville,KS,67663,785-434-4548
Richardson Trucking,1148 Rd 200,Emporia,KS,66801,620-342-0514
A & A Trucking,734 Carl,Salina,KS,67401,785-643-9511
A & G Trucking,1010 N Washington,Liberal,KS,67901,620-629-1322
Integrity Transport,219 Main,Burden,KS,67019,620-438-2113
"J Wise Trucking, Inc.",33080 W 167th Street,Gardner,KS,66030,913-963-2228
Woelk Trucking,1362 Rd 12,Tribune,KS,67879,620-376-4100
R & D Transports,1007 Kendell Ave,Lakin,KS,67860,620-355-4266
Payless Auto,12423 223rd Lane,Holton,KS,66436,888-899-0907
Saldana Transport,521 Colony St,Garden City,KS,67846,620-805-6003
Roney Trucking,811 S Main,La Harp,KS,66751,620-228-3417
Ace Trucking,708 N Pennsylvania,Liberal,KS,67901,620-626-9774
S & B Transports,401 W Thompson St,Garden City,KS,67846,620-640-8997
B & S Transport LLC,206 West Ave A,Cimarron,KS,67835,620-708-5246
Mayeske Transport,905 Elm St,Deerfield,KS,67838,620-426-7696
Chris Reeves Trucking,115 East 8th St,Onago,KS,66521,785-313-0748
Transport Innovations,420 3rd Street,Claflin,KS,67525,620-587-3597
Terry Bush Trucking,1207 College Ave,Larned,KS,67550,620-285-5481
Sand Creek Transport,1000 Smith Ave,Lakin,KS,67860,620-355-6524
Cf Midway Trucking,1815 Ontario Drive,Sublette,KS,67877,620-675-8060
Rmf Trucking,103 S Rondelli Rd,Pittsburg,KS,66762,620-232-2738
A& T Trucking,1125 N Roosevelt Ave,Liberal,KS,67901,620-482-2065
Mst,9315 S Kenton Ave,Lenexa,KS,66227,913-952-7070
Mcclendon Trucking,401 E Short Street,Alma,KS,66712,620-347-8233
Clark Express Transportation,5427 Johnson Drive,Mission,KS,66205,913-284-2693
Hardscape Innovations,13200 E 53rd Street N,Wichita,KS,67228,316-308-5770
Jazmin Transport,409 Driftwood Lane,Liberal,KS,67901,620-624-6209
R&r Chimney Service,415 W 8th St,Concordia,KS,66901,785-243-7020
Don's Truck Service,601 S Tiger Ave,Morland,KS,67650,785-627-4161
Jc Trucking,510 Olive,Deerfield,KS,67838,620-426-2800
Circle B Trucking,303 25th Ave,Moundridge,KS,67107,620-747-2201
G&e Services,640 Oakland Ave,Kansas City,KS,66101,816-507-8347
Cw Transport,406 W 9th,Lacrosse,KS,67548,316-218-7784
M T Transport,311 Chippewa St,Kechi,KS,67067,316-744-2906
S & I Trucking,509 Campbell Apt A,Garden City,KS,67846,620-640-8997
Ruiz Trucking,1802 Greenwood,Wichita,KS,67211,316-519-7469
Tumbleweed Trucking Company,2539 E Hampton Road,Ulysses,KS,67880,620-424-1692
C Lara C Trucking,140 W Walnut,Liberal,KS,67901,620-655-8249
Premier Property Services,7570 W 21st N Bldg 1038 Suite A,Wichita,KS,67205,316-928-4040
C A R S,10388 S Rd,Hoyt,KS,66440,785-986-6567
Colborn Electrical Services,308 North Adams,Medicine Lodge,KS,67104,620-213-0506
Wheeler Home Services,15714 W 89th St,Lenexa,KS,66219,913-788-2042
Cr Amezcua Trucking,216 W Road 75,Scott City,KS,67871,620-872-5656
Keim Fleet Service,2406 State Hwy 63,Seneca,KS,66538,785-817-3449
Tumbleweed Acres Trucking,15503 11 Rd,Ingalls,KS,67853,620-335-5708
Jb Distribution,12419 Cambridge Circle,Leawood,KS,66209,913-269-9928
Jorge Auto Service,1037 S 26th St,Kansas,KS,66106,913-713-5420
Henley Welding Service,508 Garfield,Quinter,KS,67752,785-754-3408
Kj Trucking,1316 N 10th St,Manhattan,KS,66502,785-617-0005
Rons Auto Sales,2337 Us 24,Colby,KS,67701,785-462-3567
4 T Trucking,209 E 13th St,Concodia,KS,66901,785-275-2032
W B Trucking,12776 Kettle Rd,Spearville,KS,67876,620-385-2510
Grace's Loving Residential Services,10486 Pflumm Road Unit 118,Lenexa,KS,66215,816-785-3343
Underwood Farms,38845 Cable City Road,Alta Vista,KS,66834,620-767-2644
Gregg's Trucking,227 Sweezy St,Halstead,KS,67056,316-835-2445
Harris Engine And Compressor Service,1703 West Ninth Street,Liberal,KS,67901,620-624-5188
Urban Trucking,95 1500th Rd,Selden,KS,67757,785-386-8148
Silk Lines International,4142 Sw 6th Ave #211,Topeka,KS,66606,316-305-9546
Dorzweiler Trucking,1683 St Catherine Street,Catharine,KS,67627,785-650-4398
Rhone Trucking,201 South Pursley,Sublette,KS,67877,620-290-1832
Pro Shield Services,385 W Highway 24,Downs,KS,67437,785-545-5134
4-j Setup Service,6499 County Road Cc,Quinter,KS,67752,785-754-3877
Heller Trucking,1875 Old Hwy 40,Chapman,KS,67431,785-556-0571
R & M Services,8125 Sw 163rd St,Augusta,KS,67010,316-300-1933
Brratz Transport,1140 S Richmond,Wichita,KS,67213,316-260-9769
"Engels Sales And Service Center, Inc.",209 W Lincoln,Norton,KS,67654,785-877-3391
Lewis Transport Service,1034 Dalton,Wichita,KS,67207,316-807-0743
S & S Trucking,220 N Court,Ulysses,KS,67880,620-353-9128
Tetrick Trucking,1084 Sw 20th St,Kingman,KS,67068,620-532-1536
Rrgf Trucking,1431 South Clay,Liberal,KS,67901,620-482-0281
Chris Noonan Trucking,721 Elm,Emporia,KS,66801,620-794-4145
Lisa's,20260 Parallel Road,Tonganoxie,KS,66086,913-927-8010
Widener Livestock,502 4th St,Alton,KS,67623,785-346-4424
Rc Transport,3015 Crane Rd #16,Garden City,KS,67846,719-688-8688
Jms Jerry Martin Services,618 Ne Bluestem Rd #6,Eldorado,KS,67042,316-761-4671
D Hutchinson Distributing Co,403 Grant St,Circleville,KS,66416,785-924-3700
Wilkinson Transport,7901 Nw Rochester Rd,Topeka,KS,66617,N/A
Silver Sage Transport,986 Rd T,Lakin,KS,67860,620-428-2050
Delivery Pros,801 E Kaskasia,Paola,KS,66071,913-206-3770
Meier Transport,2113 Knox Circle,Manhattan,KS,66502,785-313-0620
Mr Auto Transport,100 W Daniel,Haysville,KS,67060,316-524-1760
Western Plains Transport,10022 East Road 8,Ulysses,KS,67880,620-356-3170
Hobart Sales & Service,131 W 8th St,Hays,KS,67601,785-625-9028
J & J Development,11178 Se Lostine Rd,Galena,KS,66739,417-529-7184
Cedar Creek Trucking,1062 190 Rd,Kensington,KS,66951,785-476-3291
American Trucking Of Dodge City,1211 Ave C,Dodge City,KS,67801,620-339-1308
Mustang Fluid Services,301 S Washington Ave,Protection,KS,67127,620-635-6022
Luckys Auto And Tow,15482 S Dice Ln,Olathe,KS,66062,913-390-8414
Schurter Farms,2951 Coyote Rd,Morrill,KS,66515,785-285-0762
Pestmaster Services,13323 Sw Butler Road,Rosehill,KS,67133,316-733-0694
5-s Distributors,2507 Lamplighter Lane,Garden City,KS,67846,620-275-7860
Mckinley's Mowing Service,12078se 80th Ave,Spivey,KS,67142,316-304-1034
Brb Trucking,780 S Towns Blvd,Garden City,KS,67846,620-521-1374
Snodgrass Trucking,408 Fanning St,Morril,KS,66515,785-285-2131
Perales Trucking,410 Scotty Ln,Holcomb,KS,67851,620-805-4464
Kanza Lines,500 Craig St,Ellinwood,KS,67526,405-283-0698
Lcm Transit,6430 E Parkview,Park City,KS,67219,316-761-1792
Chase Tank Service,1255 Tyrell Rd,Chase,KS,67524,620-938-2401
Del Valle Transportation,1023 N Western Ave # D,Liberal,KS,67901,620-417-4044
J & G Trucking,1613 Powers Street,Lawrence,KS,66044,785-766-6039
Dave's Trucking,102 Mcleod,Moscow,KS,67952,620-598-2500
Classic Limousine Transportation,8007 West 131st Terr,Overland Park,KS,66213,913-685-3332
Jenkins Trucking,1099 Deertrail Rd,Marysville,KS,66508,785-562-6523
Double M Trucking,14000 County Road 1077,Centerville,KS,66014,913-558-4046
All Around Automotive,700 Northeast,Coffeyville,KS,67337,620-251-6677
R & K Transports,1218 W 5th St,Coffeyville,KS,67337,918-698-2410
J & A Trucking,307 S Main St,Syracuse,KS,67878,620-384-3297
Anvil Trucking,439 S Reno Street,Partridge,KS,67566,620-694-0340
Border To Border Coast To Coast Transport,1925 S Palisade,Wichita,KS,67213,316-210-8155
Ali Trans,3035 Puckett Rd Apt 30,Kansas City,KS,66103,913-687-8776
Lewis Hauling,18823 E 1350 Rd,Pleasanton,KS,66075,913-352-6309
Hamilton Trucking,120 N Ferlin,Sharon Springs,KS,67758,785-821-0871
Wichita Roadside Truck Repair,6001 N Richmond,Wichita,KS,67204,316-734-9743
Itsi,565 South 11th Street,Kansas City,KS,66105,913-432-3349
Mobile Sharpening Services,460 Sunflower Hill Road,Fall River,KS,67047,620-288-0708
Rodriquez Trucking,413 Ave A,Deerfield,KS,67838,620-260-6807
Kc Metro Transportation,8600 West 95th Street Ste 104,Overland Park,KS,66212,913-642-4200
E & C Ag Services,285 Road 3,Rolla,KS,67954,620-593-4815
A Ray Trucking,7110 E 40th Circle N,Wichita,KS,67226,316-300-5788
Drew's Dirt Service,2802 West 59th North Circle,Wichita,KS,67204,316-755-3362
Busy Basement Technologies,3825 Sw Dukeries Road,Topeka,KS,66610,785-478-0500
Biftu Transportation,7602 Halsey Street Apt 204,Lenexa,KS,66216,913-709-3168
Reba's Trucking Dba,600 S Harrison St Apt 5,Olathe,KS,66061,913-489-1961
Jls Trucking,212 Ne 40th Ave,Stafford,KS,67578,620-234-5508
L & A Transport,474 County Rd 37,Oakley,KS,67748,785-953-7186
Ll Transportation,16211 South Locust,Olathe,KS,66062,913-271-6923
Dan's Trucking,3132 Waverly Avenue,Kansas City,KS,66104,913-321-3209
Dons Transport,6700 Pflumm Road,Shawnee,KS,66216,573-216-3598
Great B Transport,14315 W 61 St,Shawnee,KS,66216,913-962-4121
La Raza Trucking,40 S Sherman Ave,Liberal,KS,67901,512-940-2877
Tommy Boy Trucking Company,1518 College Ave Apt E5,Manhattan,KS,66502,785-323-7122
Affordable Moving,3956 Sweet Bay Ct,Wichita,KS,67226,316-518-1622
R & S Trucking,Po Box 173,Paola,KS,66071,913-244-2083
Land Deliveries,1213 14th St,Wamego,KS,66547,785-456-8431
Amp Trucking LLC,8340 Everett Ave,Kansas City,KS,66112,913-669-3749
Sumpter Trucking,358 W 45th Dr,Downs,KS,67437,785-454-3553
Kch Trucking,135 East B Street,Pomona,KS,66076,785-840-5592
Double J Trucking,562 County Road W,Brewster,KS,67732,785-694-2858
El-meno Trucking,316 S Clay Ave Apt B,Liberal,KS,67901,620-417-0349
S Wright Trucking,24278 Old K C Road,Paola,KS,66071,913-271-0691
Dykman Transport,22127 Parallel Road,Tonganoxie,KS,66086,913-369-5433
Ace Pro Transport,1823 N Honeysuckle Circle,Andover,KS,67002,903-521-2234
Hensley Hauling,106 W 3rd Ave,Caney,KS,67333,620-779-1959
Lopez Trucking,704 S Webster Ave,Liberal,KS,67901,316-655-3083
Bulldog Trucking,15363 North Ark Lane,Liberal,KS,67901,620-624-5548
Loyalty Transport,1155 Rolling Hills Rd,Garden City,KS,67846,620-521-0283
Lopez Trucking,811 Avenue L,Dodge,KS,67801,620-255-9479
Auto Haulers,603 East 4th,Scammon,KS,66773,417-438-6506
Peterson Trucking,513 Main,Tampa,KS,67483,785-965-2613
United Way Transport,3035 Puckett Rd # 30,Kansas City,KS,66103,913-602-9034
Angel Express,1651 W Rd 14,Ulysses,KS,67880,620-424-4484
E Hernandez Trucking,6082 E Weldon Rd,Garden City,KS,67846,620-271-0960
Ljs Express,3827 Front St,Grantville,KS,66429,785-783-5433
Rohrs Trucking,807 4th Street,Summerfield,KS,66541,785-244-6260
D Wil-son Trucking,138 Jayhawk Road,Bremen,KS,66412,785-337-2607
K & L Livestock Express,214 West Whittier,St Francis,KS,67756,785-332-3472
Reiswig Farms,1005 Se 50th,El Dorado,KS,67042,316-321-1776
Talgrass Transport,28251 South Adams Road,Lyndon,KS,66451,785-828-2512
J & R Trucking,318 S Hickok St,Ulysses,KS,67880,620-424-2314
Feaster Trucking,105 North Elizabeth Street,Syracuse,KS,67878,620-384-5951
Cdr Trucking,12386 142nd Road,Mayetta,KS,66509,785-966-2776
Hansen Trucking,107 E 2nd St,Chapman,KS,67431,785-922-6991
Rockin Z Towin & Transport,405 Santa Fe,Hays,KS,67601,620-397-6572
Geyer Trucking,4253 Marshall Rd,Rantoul,KS,66079,785-727-0708
Ball Trucking Agri Service,1705 Janice Ln,Garden City,KS,67846,620-272-4975
Rrd Trucking,1807 Litchsield,Wichita,KS,67203,316-641-4243
Direct Line Freight,3328 K-244 Hwy,Junction City,KS,66441,785-762-3783
Mark Rose Trucking,2215 Seabrook Ave,Topeka,KS,66614,864-363-8961
Valley Auto Sales,102 South 20th Street,Fredonia,KS,66736,620-378-4470
Fimco Well Service,102 E Lincoln,Norton,KS,67654,785-874-4827
Tri-cross Hay Co,103 Buffalo,Cimarron,KS,67835,620-855-2279
Tlc Lawn Care Services,710 Nw Sanford Ln,Topeka,KS,66617,785-246-3588
Currie Trucking,4557 South 33rd St,Manhattan,KS,66502,785-313-5027
Stacc Transportation,204 Utah St,Hiawatha,KS,66434,785-741-1335
Mdb Transport,2655 N Broadway,Wichita,KS,67219,623-242-7789
College Blvd Livery,11439 Floyd #1706,Overland Park,KS,66210,913-645-2219
Ellenz Trucking,2401 B Henry,Hays,KS,67601,806-683-5263
A & A Trucking,11814 W 132nd Terrace,Overland Park,KS,66213,913-851-2251
Flying High Transportation,406 Main,Leroy,KS,66857,620-964-2797
Elk County Transportation,134 E Washington B,Howard,KS,67349,620-374-2403
Carpenter Trucking,112 W Webster St,St Francis,KS,67756,307-262-6403
Loredo Express,1103 St Francis,Wichita,KS,67211,661-487-8010
Richard's Trucking,11039 Sw 180th,Rose Hill,KS,67133,316-747-2623
Dba Clayton Trucking,210 Palmberg,Meriden,KS,66512,785-484-9776
Jk Farm Trucking,735 Kings Court,Colby,KS,67701,785-465-3757
K F F Trucking,703 N Jones St,Norton,KS,67654,785-871-0353
Cottrell Transport,847 G Rd,Centraila,KS,66415,785-857-3892
Calderon Brothers,223 Shadyside Apt # 3,Bonner Springs,KS,66012,913-660-6968
Kc Binding & Mailing,12601 Kaw Drive - Suite B,Bonner Springs,KS,66012,913-621-0500
"Wes Rezactrucking, Inc.",903 Liberty,Oskaloosa,KS,66066,785-691-8470
Gooch's Transport,14957 X 4 Rd,Denison,KS,66419,785-935-2457
Wilder Trucking,945 Sandplum Ct,Garden City,KS,67846,620-275-2159
Tornado Alley Services,1390 West Us Hwy 56,Lyons,KS,67554,620-257-1120
Rosebud Trucking,R R 2 Box 6,Grainfield,KS,67737,785-673-4839
Villegas Trucking,1202 Pincrest,Garden City,KS,67846,620-640-8997
G & L Trucking,1730 220 Rd,Glen Elder,KS,67446,785-545-3411
C & C Transport,1912 C St,Garden City,KS,67846,785-230-9161
Nikkel Transport,645 11th Avenue,Inman,KS,67546,620-585-6528
Junior's Trucking,308 N Sumner,Syracuse,KS,67878,620-384-5328
Paul Sternberg Trucking,1008 West 60th St South,Wichita,KS,67217,909-917-7036
Big T Transportation,223 N Ll&g,Anthony,KS,67003,620-842-3700
3k Livestock & Trucking,1855 Quail Rd,Clay Center,KS,67432,785-307-0837
Copeland Trucking,7610 Sw 19th,Topeka,KS,66615,785-478-1610
Don Transportation,131 W Pine St,Liberal,KS,67901,317-372-9927
"Professional Lawn Care Services, Inc.",1006 Clairborne,Olathe,KS,66062,913-768-1096
Jalisco Trucking,2340 N Sherlock,Garden City,KS,67846,620-277-0216
J Kratzer,808 N 3rd,Dwight,KS,66849,785-482-3356
Rolco Trailers,3800 Ross Lane,Chanute,KS,66720,620-431-1310
Fuller Septic Tank Service,827 North 13th Street,Salina,KS,67401,785-823-5295
G I Transport,418 Rd 15,Moscow,KS,67952,620-353-8508
"Best Choice Delivery, Inc.",11422 Reeder St,Overland Park,KS,66210,913-206-0424
Acf Trucking,1844 Manitoba Dr,Sublette,KS,67877,620-675-8764
Ed Simmons Trucking,703 N Birch,Cimarron,KS,67835,620-855-2434
Greve Farms,14375 240th Road,Erie,KS,66733,620-431-2327
"Smart Used Trucks And Parts, Inc.",1028 S Ferree St,Kansas City,KS,66105,913-321-6609
Wolfe Hay Co LLC,214 Main St,Ada,KS,67467,785-392-2732
Jedangy Transportation Services,7677 E 21 St North Apt 1507,Wichita,KS,67207,682-597-4690
"Anderson Consulting And Training Service, Inc.",1616 Longhorn,Garden City,KS,67846,620-272-0002
Jnr Transport,1582 North Highway 25,Lakin,KS,67860,620-770-9447
General Service Corp,524 Commercial,Oswego,KS,67356,620-759-4436
Marble Trucking,4302 Vesta Dr,Wichita,KS,67208,316-312-8808
County Line Auto Sales,198 B 5000 Rd,Coffeyville,KS,67337,620-251-0970
Fritschi Trucking,207 N Church St,Hanover,KS,66945,785-799-4108
Bravos Trucking,516 N Grant,Liberal,KS,67901,620-391-3633
Ecton & Sons Trucking,212 Valleyview,Derby,KS,67037,316-788-5351
Mc Gee Trucking,1835 Koster,Garden City,KS,67846,620-271-1062
Josh & Prizs Trucking,11308 11 Rd,Ingalls,KS,67853,620-335-5850
Walkthom Transport,631 S 4th Street,Osage City,KS,66523,785-528-2782
Twc Trucking,2007 West 7th Street,Liberal,KS,67901,620-624-5060
Food Service,3904 Sw 26th,Topeka,KS,66614,785-272-2390
Schmidt Trucking,1330 280th Avenue,Hays,KS,67601,785-259-5075
H & H Trucking,205 N Edwards St,Lewis,KS,67552,620-324-5589
Aa Trucking,510 Stoeckley Place,Garden City,KS,67846,620-290-1548
Knopp Outdoor Services,218 N West,Buhler,KS,67522,620-200-1600
Redneck Trucking,Industrial Park Circle Dr Lot 8,Hill City,KS,67642,785-421-2012
Tk Tomson Transportation,14333 West 89th Street,Lenexa,KS,66215,913-638-5035
D B Trucking,35182 K4 Hwy,Alta Vista,KS,66834,785-565-4173
Weber Auto,212 South Main,Sawyer,KS,67134,620-594-2410
Tony Watkins Trucking,524 W Main Street,Osborne,KS,67473,785-822-2058
Elk Creek Trucking,4935 Lee Road,Mound City,KS,66056,913-795-2123
4th Street Auto & Collision,2010 W 4th Street,Oswego,KS,67356,620-795-2519
S & R Transports,7302 Cc Rd,Montezuma,KS,67867,620-846-0716
Ntv Auto,2114 Se 6th Avenue,Topeka,KS,66607,785-817-6832
"Commercial Mobile Services, Inc.",6234 Merriam Drive,Merriam,KS,66203,913-208-0448
Mc Auto Transport,1453 N Lucy Montgomery,Olathe,KS,66061,913-709-5895
Double K Trucking,2595 - Goldfinch Rd,Hiawatha,KS,66434,785-742-3004
Los Cowboys Trucking,3980 E Lamonte Place,Garden City,KS,67846,620-640-8997
D&m Technical Services,347 Illinois,Ogallah,KS,67656,785-743-6758
Flanagan Transports,102 W Jewell Ave,Salina,KS,67401,785-827-6668
Calvert Trucking,602 North B Street,Ramona,KS,67475,785-965-7241
Tour Topeka Charter Bus Service,2018 Nw Winter,Topeka,KS,66608,785-232-3160
Isi,1 P Regency Place,Lawrence,KS,66049,913-766-6040
On Time Auto Repair,335a E Park St,Gardner,KS,66030,913-219-1418
Db Trucking,523 Hedgewood Ct,Andover,KS,67002,913-207-2064
Classic Transport,22102 13 Rd,Montezuma,KS,67867,620-339-9710
Ortega Transport,6120 Weldon Rd,Garden City,KS,67846,620-290-1834
Gary Barranca Trucking,204 S 4th,Cimarron,KS,67835,620-253-8738
Jeff Bogner Farms,10906 23 Rd,Cimarron,KS,67835,620-339-0538
Facilities Service Corporation,12205 Haskins,Overland Park,KS,66213,816-471-2525
Cossman Trucking,12409 Sw Hwy 156,Jetmore,KS,67854,620-357-6259
Dt Pritchard Transport Services,1516 Taylor Plaza,Garden City,KS,67846,760-247-2980
Rp & S Trucking,207 N Glenn,Ulysses,KS,67880,620-353-1222
Rick Enochs Trucking,1224 South 40th Street,Kansas City,KS,66106,913-432-1551
Bens Auto Sales,526 Garden St,Garden City,KS,67846,620-287-6942
Ozzy's Trucking,2316 Dee Ave,Garden City,KS,67846,620-640-8997
Mo Betta Doonan Trucker,10188 S Hwy 14,Kingman,KS,67068,620-532-2927
Rpl Express,604 E Edwards,Garden City,KS,67846,620-640-8997
Public Shuttle Service,313 N Shay Rd,Andover,KS,67002,316-516-7537
Jess Welch Trucking,432 North Granr,Erie,KS,66733,620-244-5788
Salvage Recovery Company LLC,3130 Iowa Street,Leavenworth,KS,66048,913-250-6508
D S F Lines,5816 S Minnie St,Wichita,KS,67211,951-634-6201
Eclipse Ior Services,2901 310th Ave,Plainville,KS,67663,785-885-8173
D & G Trucking,1520 Cr 2400,Havana,KS,67347,620-643-4177
H R & Sons Trucking,921 N Grant Ave,Liberal,KS,67901,505-453-4838
Buhrle Trucking,7801 Swcr 31,Syracuse,KS,67878,620-384-9624
Bl Trucking,102 S Second,Colwich,KS,67030,316-796-1648
Karaoke Keepsakes Express,3427 Tudor Dr,Leavenworth,KS,66048,913-772-0825
All -n- Logistics,103 Pacific Ave,Osawatomie,KS,66064,913-755-2945
F & J Hauling,12408 W 120th Ct Apt1912,Overland Park,KS,66213,913-558-1098
M & T Trucking,2645 170th Ave,Penokee,KS,67659,785-627-3053
Nfl Transport,1441n Lucymontgomery Way,Olathe,KS,66061,317-363-1500
C M Trucking,515 Tampa Street,Lakin,KS,67860,620-260-5015
Cobalt Trucking,337 Victoria Ct,Newton,KS,67114,316-283-6197
R & I Trucking,1014 Smokey Hill,Garden City,KS,67846,620-640-8997
Cjr Distributors,13311 W 116th Terr,Overland Park,KS,66210,913-322-1261
Faught Delivery,8352 Elizabeth Ave,Kansas City,KS,66112,913-287-2277
C C Nickelson & Sons,145 S Emporia,Valley Center,KS,67147,316-304-6305
Rusty Eck Truck Center,3901 North Broadway,Wichita,KS,67219,316-838-3800
Parks Trucking,304 Nw 10th,Abilene,KS,67410,785-263-4057
Black Diamond Luxury Transportation,2318 W Johnston Ave,Olathe,KS,66061,913-393-0991
American Lenders Service Co Wichita Ks,135 North Elizabeth,Wichita,KS,67203,316-263-4370
Wolford Trucking,1091 7th Road Sw,Burlington,KS,66839,620-364-2190
Marrs Lp Gas Service,24281 31st Road,Arkansas City,KS,67005,620-442-0125
Auto Transport,2515 E 44th,Hutchinson,KS,67501,620-727-7992
Snodgrass Transfer LLC,2848 O Rd,Rozel,KS,67574,620-527-4469
Mead Lumber D0-it-center,2000 N Kansas Ave,Liberal,KS,67901,620-624-3885
"Sunflower Automotive, Inc.",15500 W 117th Street,Olathe,KS,66062,913-780-3700
Martinez Trucking,2108 A St,Garden City,KS,67846,620-276-6365
Wayne Wright Trucking,12505 Wallace Rd,St Paul,KS,66771,620-449-8997
J & G Transportation,1112 Argentine Blvd,Kansas City,KS,66105,913-244-4562
A--j Trucking,411 W Fulton,Garden City,KS,67846,620-275-0150
Gerald Deaver's Trucking,2929 N 30th St,Kansas City,KS,66104,913-544-7741
Steve's Trucking,2011 Hwy 18,Chapman,KS,67431,785-238-2766
Sonnys Pallet Service,5620 Wolcott Drive,Kansas City,KS,66109,913-299-9872
Topeka Harley-davidson,2047 Sw Topeka Blvd,Topeka,KS,66612,785-234-6174
J & S Distributing,14314 Brookline Ct,Wichita,KS,67230,316-619-1011
Corner Stop,700 Main,Kiowa,KS,67070,620-825-4223
Skyline Tree Movers,Rr 2 Box 79,St John,KS,67576,620-458-4925
Chet Brown Trucking,19480 Rooks Road,Erie,KS,66733,620-754-3286
Yoxall Trucking & Supply,759 N 170th Road,Bennington,KS,67422,785-488-3592
Heinen Trucking,5451 Butler Rd,Meriden,KS,66512,785-484-2385
Zinn's Dump Truck Service,608 E Harold,Olathe,KS,66061,913-319-9200
Lyon Lime Products,214 S Main,Smith Center,KS,66967,785-282-3534
Wcs,516 Graves Blvd,Salina,KS,67401,785-826-8265
Coons Farms,3450 Se 10th Street,Columbus,KS,66725,620-674-3163
Jdc Trucking,505 N Caldwell Rd,Conway Springs,KS,67031,620-456-2254
Carstrucksetc,23249 Nw Mitchell Rd,Garnett,KS,66032,913-709-6652
Dlw Express,6199 4 Rd,Plains,KS,67869,620-563-7679
City Line,10801 W 71st,Shawnee Mission,KS,66203,913-207-4357
Tanners Truck Accessories,5105 Longview,Shawnee,KS,66218,913-422-7821
Brad Eisenhour Hay Service,Rt 3 Box 50,Stafford,KS,67578,620-546-4057
Akers Trucking,1530 20th Ave,Pawnee Rock,KS,67567,620-982-4530
Montanez Auto Service,1941 S Mead,Wichita,KS,67211,316-269-5837
Steven Kent Simone,1200 W Carey Ln #102b,Wichita,KS,67217,316-524-8378
Gld Trucking,Rt 1 Box 55,Menlo,KS,67753,785-855-2351
Double A Trucking,1815 Old Highway 50,Ottawa,KS,66067,785-242-2256
Atchison Express Lube,2605 Hwy 73 West,Atchison,KS,66002,913-367-3722
Bell Trucking,1368 N 260th Rd,Lincoln,KS,67455,785-488-8402
M & E Trucking,110 Larson Lane,Holcomb,KS,67851,620-290-2349
Larry Hill Transportation,16640 Old Polly Rd,Eskridge,KS,66423,785-449-2435
E & I Trucking,134 South 65th St,Kansas City,KS,66111,785-841-2336
Alexander Trucking,204 Jackson,Hanston,KS,67849,620-623-2104
Jbs Trucking,406 N 750th Rd,Overbrook,KS,66524,785-691-8823
D & S Hauling,5901 Oak Grove Road,Kansas City,KS,66106,913-226-0398
Wilson Trucking,Hc 1 Box 95,Richfield,KS,67953,620-592-2071
Vanderveen Farms,205 Kansas St,Prairie View,KS,67664,785-973-2717
Triangle M Trucking,405 Central,Denison,KS,66419,785-935-2269
P B Arkeketa Trucking,209 Barbieri St,Arma,KS,66712,620-249-0966
Tiger Trucking,1200 W Robroyce,Lakin,KS,67860,620-355-1919
Abt,1994 Chmelka Road,Garden City,KS,67846,620-277-2406
J E T Trucking,1420 Lawndale,El Dorado,KS,67042,316-320-9290
L Varela Trucking,2104 Dennison St,Garden City,KS,67846,620-290-4503
8 Ball Xpress,1919 N 1500th Rd,Eudora,KS,66025,785-331-5380
Dp Trucking,752 N 75th Terrace,Kansas City,KS,66112,913-634-0653
Cox Hauling,7604 Webster Ave,Kansas City,KS,66109,913-788-7013
Doc Holliday Back-hoe Service,110 N 86th,Kansas City,KS,66111,913-788-7805
Johnson Agri-trucking,433 N Ohio,Columbus,KS,66725,620-429-2264
Joe Yaussi Trucking,1636 Hazelnut Road,Powhattan,KS,66527,785-474-3490
Ledbetter Trucking,114 W 4th Box 224,Buhler,KS,67522,620-543-2773
Buergin Hay & Grain,9848 Nw 50th St,Mc Cune,KS,66753,620-824-6444
Fagan Express,1324 Federal,Hays,KS,67601,785-623-7472
Stroud Transport,217 Sedgwick,Garden Plain,KS,67050,316-641-2138
Fa Wise Trucking,35 E 2300,Wellsville,KS,66092,913-238-0200
Ag-air,912 W 10th,Goodland,KS,67735,785-890-5240
C And S Trucking,1703 Old Manor Road,Garden City,KS,67846,620-272-9019
C & J Express,320 Cathey,Maize,KS,67101,316-253-3432
Arrow P Trucking,228 S Colorado,Kanopolis,KS,67454,785-472-4764
Roadrunner Transportation,15629 E 63rd S,Derby,KS,67037,316-409-5615
Lil D's Trucking,501 Ne 20th Street,Columbus,KS,66725,417-439-9928
Mac's Grain Transport,2252 Q Road,Lewis,KS,67552,620-792-9768
Harp Trash Service,19515 W 53rd St N,Colwich,KS,67030,316-796-0067
H E Schneider Trucking Co,9908 Glenwood St,Overland Park,KS,66212,913-710-7424
Mathis Trucking,700 North Street,Marysville,KS,66508,785-562-2056
Overnight Express,105 S Fifth,St Paul,KS,66771,620-235-3665
All American Delivery Service,2435 S 63rd St,Kansas City,KS,66106,913-375-1557
J Marquez Trucking,13909 M Road,Ingalls,KS,67853,620-335-5872
Fisher Trucking,979 Talmo Lane,Belleville,KS,66935,785-527-5000
Kimmi Trucking,11994 Elk Rd,Everest,KS,66424,785-548-7435
Mrdean Trucking,10621 Sw Burlingame,Wakarusa,KS,66546,785-836-2520
Orcutt Auto Sales,2232 Hwy 36,Wathena,KS,66090,816-261-2129
Bill's Trucking,7058 S Volutsia,Wichita,KS,67216,316-554-1119
Gus Jones Cable Tool Service,149 Road 25,Elk City,KS,67344,620-642-6315
Jordan's Bakery & Deli Service,8840 Lowell Ave,Kansas City,KS,66111,913-321-8570
Danny's Trucking Service,2827 Westview,Ulysses,KS,67880,620-356-2635
Trent's Limo World,109 Se 29th St,Topeka,KS,66605,785-266-5200
Wellsville Tow & Auto,319 E 8th St,Wellsville,KS,66092,785-883-2744
Fireball Trucking,710 S Main,Wellsville,KS,66092,913-238-3166
Wci Precast,2500 E 9th St,Hays,KS,67601,785-625-3486
Navis Pack And Ship Center,9900 Pflumm Road Unit 58,Lenexa,KS,66215,913-541-1041
Sauzameda Trucking,411 W Ave A,Cimarron,KS,67835,620-855-4649
Holzmeister Trucking,Rr 1 Box 62,Grinnell,KS,67738,785-824-3791
John Collins Trucking,645 Elm Labette City Road,Oswego,KS,67356,620-795-3003
C & H Trucking,409 E Washington,Gardner,KS,66030,913-219-2333
Santa Cruz Trucking,Rt 2 Box 313 A,Liberal,KS,67901,620-391-1125
Mike Fortune Trucking,8405 W Central Apt 208,Wichita,KS,67212,316-209-9226
Jakes Trucking,400 Gray St,Copeland,KS,67837,620-668-5875
Leadfoot Express Transport,220 N Main,Cheney,KS,67025,316-540-3999
Alvarez Trucking,1418 Sw 2nd,Abilene,KS,67410,785-263-7712
Galen Critchfield Trucking,29025 W 335th St,Osawatomie,KS,66064,913-755-4935
Ortiz Trucking,210 W Emerson Street,Garden City,KS,67846,620-290-2994
Jp's Mobile Service,15605 Snodgrass Rd,Wamego,KS,66547,785-456-5780
Dustin Ronnebaum Trucking,965 112th Road,Seneca,KS,66538,785-336-2830
Transporte Los Mexicanos,125 N Mt Carmel St,Wichita,KS,67203,316-650-3493
Criqui Trucking,29815 S California,Melvern,KS,66510,785-230-4558
Rc Trucking,5901 N Broadway St,Park City,KS,67204,316-686-0731
Bergen Trucking,Lot 16 Manswell Addition,Sublette,KS,67877,620-675-8758
Emmot Trucking,502 Washington,Tonganoxie,KS,66086,816-737-8174
Flatland Tank Service,880 Highway 18,Zurich,KS,67663,785-662-3248
I M Transport,468 S Rd I,Ulysses,KS,67880,620-356-1452
M R Taylor Trucking,11130 S 231st St West,Viola,KS,67149,316-305-7963
Mcmillan Farms Trucking,101 1st Street,Randall,KS,66963,785-739-2202
Eddy Trucking,537 Court,Ulysses,KS,67880,620-353-9064
Cornelison Hay & Cattle,11528 Sherman Rd,Meriden,KS,66512,785-554-9853
Marshall Auto Sales And Salvage,West Highway 96,Bazine,KS,67516,785-398-2430
Jim's Auto Sales & Salvage,223 West Bolinger Road,Bucklin,KS,67834,620-826-3396
1-call Construction Clean-up Service,22685 W 267th St,Paola,KS,66071,913-927-9906
D & R Trucking,202 Freeman,Oakley,KS,67748,785-672-2506
Mkb Trucking,3603 Cedar Crest,Oakley,KS,67748,785-672-4146
J & J Steam Cleaning,701 N Stever,Ulysses,KS,67880,620-575-4751
"Progreso Trucking, Inc.",1612 East Spruce St,Garden City,KS,67846,620-275-7245
Wheelers,792 N 2nd,Lawrence,KS,66044,785-423-0450
Double W,22509 W 231 Terrace,Spring Hill,KS,66083,913-592-3075
Barber Trucking,1379 S 2100 Rd,White City,KS,66872,785-497-2852
Shelden & Sons Trucking,210 W Kingman,Lakin,KS,67860,620-355-7403
Don Macfee Trucking,From Us 36 83 11e 8n,Norcatur,KS,67653,785-896-2451
Randy Fetters Trucking,219 W Best,Jetmore,KS,67854,620-357-6154
Pete & Marys' Trucking,1230 Line Street,Belle Plaine,KS,67013,620-488-3273
Rangel Distributing,14715 S Kaw Drive,Olathe,KS,66062,913-768-4729
Russ Smith Trucking,Box 397,Johnson,KS,67855,620-624-5789
Dock High Delivery,5915 Reeds #1a,Shawnee Mission,KS,66202,913-219-5120
Tyler Trucking,2710 N 2rth St,Kansas City,KS,66104,913-621-2615
Roy Trucking,870 - 2 Road,Stockton,KS,67669,785-839-4398
St James Trucking,621 Max,Salina,KS,67401,785-826-9373
Hunter Trucking,222 East Main,Kirwin,KS,67644,785-543-3197
"Patriot Logistics, Inc.",8616 Greentree Dr,Lenexa,KS,66227,913-522-3440
Tom Ellsworth Trucking,P O Box 3,Wathena,KS,66090,913-365-5615
Hoss Livestock,421 W 2nd,Sharon Springs,KS,67758,785-852-4304
Landrum Rollback Service,6544 State Ave,Kansas City,KS,66102,816-863-7919
Darrell Howard,372 230 St,Garland,KS,66741,620-223-6495
Jeff Rawlings Trucking,2521 W 89th St,Leawood,KS,66206,913-294-5837
Flint Hills Bull Ride,1551 Wolf Rd,Woodbine,KS,67492,785-366-0962
Swinney Trucking,100 S Monroe,Huguton,KS,67951,620-544-2372
Happy Trails Trucking,701 S Baughman,Ulysses,KS,67880,620-356-3476
A-j Hauling,844 29th Ave,Canton,KS,67428,620-367-2681
Rudebeck Trucking,617 West Jefferson Ave,Sterling,KS,67579,620-278-3656
Jordan's Oven Service,8840 Lowell,Kansas City,KS,66111,913-321-8570
D & F Trucking Co,317 E Garfield,Argonia,KS,67004,316-772-3761
"R & R Wood, Inc.",4082 122nd St,Meriden,KS,66512,785-484-3798
Montgomery Transportation,2482 200th Rd,Sabetha,KS,66534,785-284-0008
Marland Palmer Trucking,830 Ponderosa Court,Garden City,KS,67846,620-624-5489
B & R Trucking,3811 South West Street,Wichita,KS,67217,316-522-7187
Cropland Ag,5681 N Hwy 75,Independence,KS,67301,620-331-6005
Lakeside Truck & Auto,2100 B W Hwy 24,Glen Elder,KS,67446,785-545-3244
Mcnee Ranch,2171 State Hwy 99,Moline,KS,67353,620-647-3634
Lhg Trucking,505 Harrison,Hugoton,KS,67951,620-544-7647
Premier Transportation LLC,4200 W 55th St,Shawnee Mission,KS,66205,816-507-9300
Marez Trucking,2105 Commanche,Garden City,KS,67846,620-275-5586
Knight Deliveries,18409 S Spruce,Gardner,KS,66030,913-856-7751
Oz Trucking,2151 County Road 25,Gem,KS,67734,785-462-6081
Melvin Trucking,307 E Becknel St,Sublette,KS,67877,316-675-2772
Charlies Auto & Wrecker Service,15 South Malcolm,Chanute,KS,66720,620-431-7343
Twister Trucking,29472 W 399th,Fontana,KS,66026,913-256-2809
P & M G Enterprise,3905 N 47th Terr,Kansas City,KS,66104,913-287-6213
Covert's 24-hour Wrecker Service,2521 Se Indiana,Topeka,KS,66605,785-234-4477
Garcia Trucking Co,221 South 9th,Salina,KS,67401,785-822-4427
Re Parks And Sons,1014 S Polk,Hygoton,KS,67951,620-544-7730
Kyle Trucking,502 N Graves,Norton,KS,67651,785-877-3637
Straight Shot Express,1401 Fairfax Traffic Way,Kansas City,KS,66115,913-342-9700
Marsh Insulation Service,1706 E 800th Rd,Lawrence,KS,66049,785-842-0341
Bateman Transport,3624 South Street,Grantville,KS,66429,785-246-3304
Tom Waters Trucking,218 W 3rd St,Tonganoxie,KS,66086,913-406-3897
Rex Riggs Trucking,403 N 2nd St,Arkansas City,KS,67005,620-442-9597
D & N Roberson Trucking,7227 Park Hill Dr,Ozawkie,KS,66070,785-876-2745
Johnnies Service & Repair,Hwy South,Schoenchen,KS,67667,785-625-5143
Normans Armored Car Service,1371 Armory Rd,Salina,KS,67401,785-823-2415
B & B Wrecker Service,820 W 1st,Newton,KS,67114,316-282-8834
Williams Heating & Air Conditioning,404 E Fulton Street,Garden City,KS,67846,316-276-7979
Daves Tool Service,1944 West Radio Lane,Arkansas City,KS,67005,316-442-1005
Longs Wrecker Service,22401 Nw 1750 Road,Garnett,KS,66032,785-448-5830
J Clark Trucking,22141 Kansas Avenue #20,Tonganoxie,KS,66086,913-369-3620
Auto Castings Recovery Co,401 W 1st Street,Newton,KS,67114,316-283-6305
Kan Do Tank Service,Rr 1 Box 1b2,Moline,KS,67353,316-647-3601
S & C Trucking,1702 12th Street,Dodge City,KS,67801,620-225-4648
Wayne D Parks Trucking,2804 Fleming,Garden City,KS,67846,620-276-3830
M & V Auto & Truck Sales & Leasing,624 S E Swygart Street,Topeka,KS,66607,785-234-5596
R & N Trucking,879 22nd Rd,Haddam,KS,66944,785-527-5050
Peters Trucking,Ontario Dr 1817,Sublette,KS,67877,N/A
Gentle Touch Moving,19945 W 162nd St Ste B,Olathe,KS,66062,913-764-0004
Subelka Trucking,5001 Saratoga Dr,Mclouth,KS,66054,913-449-0307
"Dart Trucking, Inc.",870 Ponderosa Ct,Garden City,KS,67846,620-275-8929
Larry's Service,139 S 18th St,Kansas City,KS,66102,913-342-4081
Jims Trucking,617 Campbell,Clyde,KS,66938,785-446-3317
S & J Services,609 Harris,Frontenac,KS,66763,620-231-7694
C S J Trucking,21395 W 181st St,Olathe,KS,66062,913-645-4717
Garrison Transport,314 W Front,Minneola,KS,67865,620-885-4719
Transwest Express,212 S Wabash Ave,Norton,KS,67654,785-871-7649
Bernies Stanard Service,2165 Hwy 36,Wathena,KS,66090,785-989-4612
Harrington's Transporting,314 S 102nd St,Edwardsville,KS,66111,913-441-5600
R R And B Transportation,2060 Hidden Valley Ct,Tonganoxie,KS,66086,913-845-2713
Anderson Hay Service,425 Ohio St,Burr Oak,KS,66936,785-647-6321
France Trucking,3452 Road Y,Osage City,KS,66523,785-528-4543
Sand Springs Trucking,575 Old 40 Highway,Abilene,KS,67410,785-263-3334
Olsen Trucking,603 Country Lane Dr,Augusta,KS,67010,316-775-7565
Z Trucking,1110 Mikes Drive,Deerfield,KS,67838,620-426-6245
Taylor Trucking,1860 Sw Sunnyhill Rd,El Dorado,KS,67042,316-323-4600
Cottonwood Farms Trucking,22076 E Road,Fowler,KS,67844,620-646-5574
B & K Trucking,1414 N Calhoun,Liberal,KS,67901,620-391-2361
R & R Trucking,15450 Sw 77 Hwy,Augusta,KS,67010,316-775-0866
Wade Ricker Trucking,108 Ohio,Collyer,KS,67631,785-769-5217
Carlile Trucking,225 W Pine,Liberal,KS,67901,620-626-5095
J And H Trucking,648 Plum Ave,Inman,KS,67546,620-489-6677
Ed's Standard Service,300 Miami,Hiawatha,KS,66434,785-741-3800
Iroc Trucking,502 Albert St,Emporia,KS,66801,620-340-3763
Gh Trucking,1430 Hickory Rd,Bellevile,KS,66935,785-243-5808
Holderman Trucking,1180 Nighthawk Rd,Yates Center,KS,66783,620-625-3564
Noland Trucking,9640 E Rd 12,Ulysses,KS,67880,620-424-3928
H & K Hauling,5420 S Broadway L14,Wichita,KS,67216,316-390-0370
J R Smith Hauling,3510 Gabrial Apt 212,Parsons,KS,67357,N/A
Trash Service,496 264th Str,Garland,KS,66741,620-223-0650
Paul Fikan Trucking,Box 82,Loncton,KS,67352,316-642-3721
Mid Kansas Mobile Home Service & Transport,3776 Powers Ln Lot 12,Manhattan,KS,66502,785-313-3721
Velasquez Transportation,1411 W Olive St,Garden City,KS,67846,620-275-4144
J Bond Trucking,15748 Rd8,Liberal,KS,67901,620-624-6406
H & S Trucking,11727 126 Rd,Ford,KS,67842,620-369-2439
Crockers Auto Service,3021 Sw 10th,Topeka,KS,66604,785-233-6330
Justin Spielman Trucking,33869 Tower Road,Arkansas City Ks 67005,KS,67005,620-442-1039
Ev Cathodic Protection Service,110 East Dean,Burrton,KS,67020,620-463-4522
Newcome Trucking,6396 Ks Hwy 31,Blue Mound,KS,66010,N/A
Tinker Toy Trucking,215 Main Mingo St,Colby,KS,67701,785-462-2015
Dunbar Trucking,404 W Prairie Avenue,Girard,KS,66743,620-724-4982
Patterson Logistics,78 Sierra Circle,Olathe,KS,66061,816-506-6850
Ring Trucking,6023 Southern,Wichita,KS,67217,316-524-0500
S & S Trucking,104 W South St,Arma,KS,66712,620-347-4265
Able Express,1890 B S 32 St,Kansas City,KS,66106,N/A
Sos Metals Midwest,9800 W York,Wichita,KS,67215,316-522-0101
Hounddog Express,118 Hillview,Burlington,KS,66839,620-364-8893
Holle Harvesting & Trucking,107 South Center,Hkimerer,KS,66508,785-629-0165
R K Trucking,Road Ii,Satanta,KS,67870,620-649-5046
Quality Wrecker Service,124 N 25th Street,Independence,KS,67301,620-331-2454
Kansas Auto Sales,6813 E Harry,Wichita,KS,67207,316-612-4545
Varela Trucking,1730 Jennie Barker Road,Garden City,KS,67846,620-272-9411
Automated Business Systems,11374 Strang Line Rd,Lenexa,KS,66215,913-345-0289
Macias Trucking,Po Box 749,Sublette,KS,67877,620-675-2845
Liberty Mobile Service,8603 Stearnas St,Overland Park,KS,66214,913-371-6900
S & R Trucking,6800 Inland Drive,Kansas City,KS,66106,913-375-1600
Pierce Transport,1407 10th Rd,Linn,KS,66953,785-348-5650
Branch Trucking,1327 N 2nd,Arkansas City,KS,67005,620-442-0575
Lee Allen Escort Service,15821 East 71st So,Derby,KS,67037,316-209-6180
Roger Mayhugh Trucking,1826 E 950 Rd,Lawrence,KS,66049,785-843-4848
Danny's Wrecker Service,4210 S E Boston Mills Road,Columbus,KS,66725,620-848-3310
Western Express,407 West A,Plains,KS,67869,620-563-9464
Jackpot Trucking,5205 S Clifton #742,Wichita,KS,67216,316-522-2956
B E E Line,8049 Bond,Lenexa,KS,66214,913-495-9900
Myers Dirt Hauling,8714 Se Mink Dr,Galena,KS,66739,620-783-2410
Urtons Farrier Service,3849 Eisenhower Road,Ottawa,KS,66067,785-242-7469
I R Trucking,2700 Nw County Line Road,Benton,KS,67017,316-799-2928
B N G Trucking,9 Ware Rd,Mapleton,KS,66754,620-743-4160
K & T Trucking,824 S 57th Street,Kansas City,KS,66102,913-287-5374
R & O Trucking,1509 3325 Ave,Abilene,KS,67410,785-461-0166
Hutchinson Oil Service,17862 Fairview Road,Paradise,KS,67658,785-483-0569
Stover Trucking,13220 10th Rd,Parsons,KS,67357,620-421-1962
Aaron's Airport Service,5037 Cleveland,Kansas City,KS,66104,816-564-8524
Adelhardt,200 South Main Apartment#206,El Dorado,KS,67042,316-323-4130
Don - Don Trucking,2226 Edgehill Road,Salina,KS,67401,505-903-9698
Meridian Transport,6574 Goodman Drive,Merriam,KS,66202,913-362-7977
S & D Trucking,4900 E Hillcrest Rd,Garden City,KS,67846,620-271-9218
Tangas Trucking,1411 South 38th Street,Kansas City,KS,66106,913-432-4314
Highline Services,410 S High,Dighton,KS,67839,620-397-5001
Brown Trucking,9201 Kansas Avenue,Kansas City,KS,66111,913-788-9398
Art Sweet Trucking,31248 W 223 Street,Springhill,KS,66083,913-884-5515
Eagle Trucking,26981 S Indian Hills Road,Osage City,KS,66523,785-528-3341
Steve Mcmahan Trucking,1130 Argentine Blvd,Kansas City,KS,66105,913-233-2138
Ad Trucking,1707 Prairie Park Lane,Garden City,KS,67846,620-805-2433
Warehouse Distribution Management,2903 Military Ave,Baxter Springs,KS,66713,620-856-5252
Cantrell Building Services,719 E 5th St,Galena,KS,66739,620-783-5950
Len's Auto Service,1440 S Main,Kingman,KS,67068,620-532-2434
Russ Meinert Trucking,1608 Lincoln Rd,Garden City,KS,67846,620-275-7601
Afc,1935 Air Cargo Road Ste 600,Wichita,KS,67209,316-943-0238
Cbc Express,1827 East 1450 Road,Lawrence,KS,66044,785-832-8270
Winslow Trailer Hauling,1225 Zodiac Road,Blue Rapids,KS,66411,785-363-7550
Eagle Trucking,1015 Z Road,Zurich,KS,67663,785-662-3382
Chapman Trucking,420 N Sycamore,Ottawa,KS,66067,785-242-8061
Bill Hall Trucking,2520 Broadway,Parsons,KS,67357,620-421-6847
Trummel Trucking,604 S Bay St,Greensburg,KS,67054,620-324-5589
L S Transit,Hco 1 Box 2bbb,Hugoton,KS,67951,620-544-2260
R G Stoway Trucking,12612 222nd St,Linwood,KS,66052,913-723-3547
A-plus Trucking,3134 S West Street,Wichita,KS,67217,316-945-8950
Jeff Barnes Trucking,403 West Hwy,Clifton,KS,66937,785-455-2253
Smith Trucking,517 E Hellar,Clearwater,KS,67026,620-584-5104
Executive Auto Sales,3300 W Main Po Box 707,Parsons,KS,67357,620-421-1114
Cmt Trucking,1742 N Elm St,Russell,KS,67665,785-483-6679
J & D Trucking,207 East Coffey,Ulysses,KS,67880,620-356-2912
B & Z Trucking,810 Main,Stockton,KS,67669,785-425-6211
A Moving Experience,1715 N Rodgeview Rd #307,Olathe,KS,66061,913-768-6364
D & D Custom Hauling,887 Centennial,Goodland,KS,67735,785-890-5763
Gates Trucking,14184 182nd St,Linwood,KS,66052,913-723-3588
Bryan Collins Trucking,3108 W Kathryn Drive,Garden City,KS,67846,620-521-0030
Michael's Express,9170 W 122nd St Apt 311,Overland Park,KS,66213,913-663-3423
Stoops Trucking,Rt 1 Box 79,Hugoton,KS,67951,620-544-8446
Psi Armored,2901 Sw Burlingame Rd,Topeka,KS,66611,785-267-4060
Kinser Shop,1019 Lyon Road Lot B,Edna,KS,67342,620-922-3500
Jordan Trucking,3085 N 31st,Kansas City,KS,66104,913-342-0195
D & D Trucking,16520 Nw 60th St,Burrton,KS,67020,620-345-8132
Williams Trucking,7102 N Ridge Rd,Valley Center,KS,67147,316-755-1021
Jcl Trucking Co,1010 S Kansas,Liberal,KS,67901,620-624-5789
R C Spotting Service,6500 Inland Drive Box 6473,Kansas City,KS,66106,913-375-9441
C Broken Bar Ag Trucking,129 Walnut Grove,St George,KS,66535,785-494-2996
D & K Trucking,Rt 3 Box 6,Oberlin,KS,67749,785-475-2454
Rus Of Wichita,2213 S Mead,Wichita,KS,67211,316-262-6141
Goddard Wrecker-quality Tow,3108 S Broadway St,Wichita,KS,67216,316-524-8108
Direct Delivery,4630 Se 2nd Street,Tecumseh,KS,66542,785-379-9333
Lewis Trucking,1082 Dd Rd,Lebanon,KS,66952,785-745-2602
Express Distribution Systems,304 Whispering Pines,Wichita,KS,67212,316-641-7501
Pork Chop Transport,Rt 2 Box 93,Atwood,KS,67730,316-259-3232
Meronda Trucking,1520 Cheney Road,Cheney,KS,67025,N/A
R Brant Trucking,1401 S Grant,Liberal,KS,67901,620-624-6022
Debenham Trucking,608 Nw 2nd St,Abilene,KS,67410,785-263-1006
Newton Relocation Services,735 Main Street,Wellsville,KS,66092,785-883-4207
Barnes Trucking,839 E 510 Ave,Pittsburg,KS,66762,620-231-4550
Brummett Enterprises,Hci Box 47,Rolla,KS,67954,620-593-4657
O K Trucking,1608 E 27 St,Hays,KS,67601,785-625-6448
Baw Trucking,Rr 1 Box 62,Mayfield,KS,67103,620-863-2442
Sas Delivery,5628 Crest Drive,Kansas City,KS,66106,913-375-9519
Siemens Trucking,2645 Ne 10th,Kingman,KS,67068,620-532-2879
Ron Lutes Trucking,Box 302,Basehor,KS,66007,913-441-0746
Flatland Express,1 1/2 Mi E Us83 And K144 Hwy,Sublette,KS,67877,620-675-8103
Hrabe Trucking,1323 S Twyman St,Ottawa,KS,66067,785-882-4533
Roberts Trucking,407 W Lockwood,Wichita,KS,67217,316-529-3179
T-j Trucking,2112 N 3rd,Garden City,KS,67846,620-275-2102
G & W Trucking,222 N Main,Offerle,KS,67563,620-324-5589
Bethard Trucking,24400 Pflumm Road,Louisburg,KS,66053,913-533-2486
Kevin Parks Trucking,2207 Pawnee,Garden City,KS,67846,620-275-0766
Dave's Hauling,5314 Russell,Mission,KS,66202,913-631-6949
Ells Distributing,950 S Holly,Liberal,KS,67901,620-624-4050
R & D Mobile Home Movers,Rt 1 Box 9,Galena,KS,66739,620-783-2563
Jordan Trucking,3085 N 31st,Kansas City,KS,66104,913-342-0195
B & P Trucking,1150 S Franklin #28,Colby,KS,67701,785-462-3025
Virgil Hughes Trucking,408 Se Rice Rd,Topeka,KS,66607,785-233-2697
3 H Trucking,11560 E Yucca,Garden City,KS,67846,620-272-7012
"East, Inc.",100 South First Street,Kansas City,KS,66118,913-321-0055
B J Hauling,23439 W 255th Terr,Paola,KS,66071,913-783-4438
Alfaro Trucking,2016 E Elizabeth St,Wichita,KS,67213,316-265-4628
Scott-n-slice Trucking,421 Oak,Cottonwood Falls,KS,66845,620-273-6945
T J's Trucking,2707 Donedda Street,Dodge City,KS,67801,620-225-0119
Long's Transport Company,106 N Lincoln,Russell,KS,67665,785-483-6719
Elk Trucking,1803 Rd 130,Lakin,KS,67860,620-355-7936
Donja Farms,Rr1 Box 12,Park,KS,67751,785-673-9239
Irvine Trucking,1007 N Olive,Abilene,KS,67410,785-263-3220
S & K Trucking,350 W 680th Ave,Farlington,KS,66734,620-238-0682
Tibbetts Family Enterprises,311 E Waverly,Norton,KS,67654,758-871-0708
M & M Transportation,8202 Limerick,Wichita,KS,67206,316-683-3802
Flying H Hotshot,2511 W 8th St,Coffeyville,KS,67337,620-251-0357
Olin Wyland Trucking,1051 E 650th Ave,Mulberry,KS,66756,620-764-3691
Pando Trucking,407 Van Buren,Rolla,KS,67954,620-593-4625
L & L Trucking,Rr 1 Box 29,Lincoln,KS,67455,785-526-7135
Corey Holmes Trucking,202 N Madison,Anthony,KS,67003,620-842-5420
Champion Tow Service,2426 S 11th St,Kansas City,KS,66103,913-262-6058
Waters Hay Service,606 Richter,Byers,KS,67021,620-546-2474
Kilkenny Backhoe Service,5485 Sheridan Rd,Atchison,KS,66002,913-367-7474
Mcrill Trucking,205 E 7th Street Box 594,Tonganoxie,KS,66086,913-845-3290
D & K Trucking,8801 Sw Greenlawn Rd,Columbus,KS,66725,620-597-2726
Krehbiel Hauling,1620 Buckskin Road,Moundridge,KS,67107,620-345-2274
Slaughter N Sons Trucking,805 Market Po Box 651,Lacygne,KS,66040,913-757-2311
Phantom Trucking,17 Mi S On Us 281,Smith Center,KS,66967,785-346-5929
Angels Transportation,320 E 170th Street S,South Haven,KS,67140,620-892-5170
Springfield Pittsburg Express,635 A S Vermont,Columbus,KS,66725,180-070-4448
Thompson Bulk Distribution,16811 Kreider,Bonner Springs,KS,66012,913-723-3722
"Automotive Performance Wholesalers, Inc.",30 Osage,Kansas City,KS,66105,913-371-3249
Missouri West Express,605 Nelson,Arcadia,KS,66711,620-638-4261
M & A Trucking,305 W Grant,Johnson,KS,67885,620-492-1430
Overall Delivery,1523 N 25th St,Kansas City,KS,66102,913-321-5879
C&s Express,1532 W Cedar Lane,Olathe,KS,66051,913-509-7241
Newcome Trucking,22504 Old Kc Rd,Springhill,KS,66083,913-915-4970
J & K Trucking,124 W Ruth,Moundridge,KS,67107,620-345-8348
Boyd Trucking,482-21st Rd,Beattie,KS,66406,785-353-2367
Orleans Trucking Co,606 Dora,Cedar Vale,KS,67024,620-758-2899
Cutshaw Garage & Tow,602 N Mulberry,Louisburg,KS,66053,913-837-4141
Howard Trucking,2273 Fair Road,Abilene,KS,67410,785-263-7897
Cummins Trucking,305 E 4th,Seward,KS,67576,620-797-3911
Merlin Carpenter Trucking,300 Lincoln,Westphalia,KS,66093,785-489-2562
Russell D Sammons Trucking,1399 Park St,Phillipsburg,KS,67661,308-991-0471
Jam Trucking,1323 Hubbard St,Great Bend,KS,67530,620-793-3139
Roberts Trucking,310 North Elizabeth,Syracuse,KS,67878,620-384-6943
Vowell Transportation,14650 South Topeka,Carbondale,KS,66414,785-817-8484
M & J Trucking,6507 Bluejacket,Shawnee,KS,66203,913-631-0973
Ivy Transportation Co,Rr 1 Box 91,Gridley,KS,66852,620-836-5071
Craig A Callihan Trucking,502 N High Street,Clyde,KS,66938,785-446-3619
J C Trucking,8505 Rooks Rd,Saint Paul,KS,66771,620-431-8871
Allen Trucking,900 Wanamaka,Emporia,KS,66801,620-343-7155
B L B Trucking,1230 Scott Street,Fort Scott,KS,66701,620-223-3046
Antrim Auto Wholesale,811 N Jefferson,Plainville,KS,67663,785-434-4586
Larry Lea Trucking,6333 Oak Grove Rd,Kansas City,KS,66106,913-321-6609
Richter Trucking,1260 W 149th St,Olathe,KS,66061,913-406-4050
Dale Robinson Trucking,320 W 3rd,Larned,KS,67550,620-285-6887
Carpenter Memorial Truck Line,4000 Sw 61st,Topeka,KS,66619,785-862-1976
E & L Trucking,455 Perry St,Lawrence,KS,66044,785-887-6671
L & P Trucking,1015 N Doreen,Wichita,KS,67206,316-634-0929
Howard Trucking,315 W South St,Arma,KS,66712,620-235-2113
"R L Butler Trucking, Inc.",619 Whitfield Lot 2c Po Box 16,Lecompton,KS,66050,785-887-6694
Ingland Trucking,11932 Rd 6,Liberal,KS,67901,620-624-3137
Koepsel Trucking,1531 Us Highway 56,Wilsey,KS,66873,785-497-2953
Central Xpress Carriers,7937 Hasekll Ave,Kansas City,KS,66109,913-226-2327
3-m Farms,920 11th St,Bluff City,KS,67018,620-967-4617
Lawrence Trucking,3470 Old Hwy 40,Solomon,KS,67480,785-263-6313
Bryan Auto Sales,2005 Nw Hwy 281,Medicine Lodge,KS,67104,620-886-3263
T F Brenet Trucking,1213 Limestone Rd,Marysville,KS,66508,888-812-9009
R W Trucking,418 S Illinois,Kanopolis,KS,67454,785-472-8623
Loyd Trucking,2140 Rd I,St Francis,KS,67756,785-332-2438
Trans World,400 Kindleberger Road,Kansas City,KS,66115,913-371-5151
T & J Trucking,303 N Missouri Ave,Selden,KS,67757,785-386-4390
Bain Trucking,2802 W Road 10,Ulysses,KS,67880,620-356-1758
James Mott Trucking,430 W Chestnut,Troy,KS,66087,913-360-3510
Brightbill Trucking,804 N Halstead Road,Salina,KS,67401,785-823-8657
Fertilizer Chemical,E Hwy 36,Atwood,KS,67730,785-626-9609
T & R Trucking,2228 Military,Baxter Springs,KS,66713,620-856-3900
Brewer Trucking,325 Main,Burden,KS,67019,620-438-2924
Leslie Trucking,730 E 6th Street,Concordia,KS,66901,785-243-6063
Hoffman Trucking,2273 Fair Rd,Abilene,KS,67410,785-479-6516
Hill Enterprises,1209 3300 Ave,Abilene,KS,67410,785-598-2291
E-z Trucking,112 East Broadway,Leoti,KS,67861,620-375-4226
B & G Trucking,505 Jay Street,Sublette,KS,67877,620-675-2126
J & K Transport,Po Box 364,Syracuse,KS,67878,620-384-6748
Bill Lee Trucking,Rt 1 Box 145,Glen Elder,KS,67446,785-545-3640
D & K Trucking,1158 Smoky Valley Road,Lindsborg,KS,67456,785-227-4185
Ambassador Moving Co,11559 Kaw Dr,Kansas City,KS,66111,913-422-1305
Ranger Trucking,1728 N W Polk,Topeka,KS,66608,800-687-5684
Ede Trucking Co,825 South Mo,Ulysses,KS,67880,719-523-6923
John O Chaffin Transport,North Highway 83,Sublette,KS,67877,620-675-8759
G M Trucking,18025 W 182nd St,Olathe,KS,66062,913-592-4275
Beck Trucking,11210 West Lyons Creed Road,Junction City,KS,66441,785-238-6048
Tucker Harvesting,616 S Washington,Smith Center,KS,66967,785-282-6167
J&w Transportation,1351 S Fawnwood Ct,Wichita,KS,67235,508-726-5069
Westlake,14000 Marshall Drive,Lenexa,KS,66215,913-888-0808
Bultman Lpg Delivery Service,1101 Muncy Avenue,Elkhart,KS,67950,620-697-2178
Culligan Soft Water Service,904 Main Street,Goodland,KS,67735,785-899-2352
Jim James Trucking,908 E 7th Street,Concordia,KS,66901,785-243-7102
W W Jones Trucking,2406 Brookwood Ln,Salina,KS,67401,785-243-0562
Colletti Trucking,200 W Greeley Ave,Tribune,KS,67879,620-376-4825
Livingston Trucking,1323 Highway 18,Abilene,KS,67410,785-598-2273
Munger Truck Line,P O Box 155 502 Main,Beattie,KS,66406,785-353-2224
C & R Truck Line,1812 General Jim Road,Salina,KS,67401,785-825-1345
Farmway,204 E Court,Beloit,KS,67420,785-738-2241
Olathe Tow Service,520 N Chesnut St,Olathe,KS,66061,913-764-2814
Bob Cason Trucking,320 North Taylor,Gas,KS,66742,620-365-3685
K & T Trucking,103 Mccaustland Road #2,Dodge City,KS,67801,620-227-7414
Ed's Reclosure Service,101 East 5th,Solomon,KS,67480,785-655-4591
Holton Livestock Express,725 Washington St,Holton,KS,66436,785-364-4111
Clark Produce,208 E 2nd St,Galena,KS,66739,316-783-2401
Cargill Food Distribution Company,151 N Main St,Wichita,KS,67202,316-462-7279
Auto Air Conditioning Mfg & Sales,79 N 10th St,Kansas City,KS,66102,913-371-5373
G & G Trucking Company,429 Meadowlark Dr,Minneapolis,KS,67467,785-523-4228
Kubick Trucking,Hc 64 Box 156,Ellsworth,KS,67439,785-472-4540
Krj Trailer Service,1948 Bayard St,Kansas City,KS,66105,913-321-1560
Sammons & Sons,22255 170th Road,Walnut,KS,66780,620-354-6583
Charley Deweese Trucking,9580 Dorn Rd,Thayer,KS,66776,316-839-5894
Sutterlin Trucking Co,980 Dawn Ave,Manhattan,KS,66502,785-565-9458
Peels Salon Services,1125 E 4th,Hutchinson,KS,67501,620-662-3374
C & M Truck Line,425 S Randale Po Box 603,Moundridge,KS,67107,620-345-2359
Silver Fox Truck Line,713 Pine St,Pratt,KS,67124,620-672-6817
Hunzeker Trucking,4549 Cr 4000,Independence,KS,67301,316-331-8020
J K Trucking Co,P O Box 56,Jetmore,KS,67854,620-357-8702
Koelsch Trucking,119 Nw 40th Ave,Saint John,KS,67576,620-549-6666
Leonard Trucking,32296 Highway K18,Manhattan,KS,66502,785-456-7814
L & J Trucking,Rr 1 Box 17,Saint John,KS,67576,620-549-6342
Ronald Burns Trucking,East Highway 50,Cimarron,KS,67835,620-855-3833
Shelton Trucking,649-240 Rd,Randall,KS,66963,785-739-2388
Westhoff Trucking,Rt 4 Hwy 57,Girard,KS,66743,620-724-8732
Westhaven Mobile Home Transporting,3015 Crane Road,Garden City,KS,67846,620-275-4023
Spears Trucking,Rr 2 Box 70,Osborne,KS,67473,785-346-5578
Bud Uearout Trucking,1913 So Hoover Rd,South Haven,KS,67140,620-892-5260
Reed Trucking,4370 Se 60th,Galena,KS,66739,620-848-3457
Thunder Trucks,2011 Hwy 28,Jewell,KS,66949,785-428-3679
Lambert Trucking,4746 Vermont Road,Wellsville,KS,66092,913-568-4961
R S Wilkinson Trucking,13397 110th Street,Oskaloosa,KS,66066,913-863-2798
J P Express,P O Box 1922,Pittsburg,KS,66762,620-232-1444
"Rams Ready Mix And Trucking Co, Inc.",17650 Metcalf,Stilwell,KS,66085,913-782-0383
Austin Trucking,588 Ne Cole Creek Road,El Dorado,KS,67042,316-321-7700
Si Funeral Services - Si Precast - Si Memorials,10965 Granada Lane Suite 300,Overland Park,KS,66211,913-345-2120
Henson Transport,34605 Johns Brown Hwy,Osawatomie,KS,66064,913-256-3546
Shawnee Transportation Company,1028 Cheyene,Kansas City,KS,66105,913-371-5600
Cmc Truck Line,307 4th Street,Centralia,KS,66415,785-857-3266
"Midwest Waste Disposal, Inc.",801 S 1st,Arkansas City,KS,67005,620-442-6430
Allied Waste Services Of Liberty,3150 N 7th Street Trafficway,Kansas City,KS,66115,913-281-4343
Brown Trucking,216 North Elm,Johnson,KS,67855,620-492-1350
"G-c Trucking, Inc.",2008 11th Rd,Clay Center,KS,67432,785-485-2318
Mike Degraeve Trucking,18942 Green Road,Tonganoxie,KS,66086,913-845-3918
Water Improvement Services,P O Box 12084,Kansas City,KS,66112,913-334-5504
G & I Trucking,1920 Munjor Rd,Hays,KS,67601,785-625-6485
Wiers Trucking,Rr 1,Bern,KS,66408,785-336-3349
Keyes Trucking,Main St,Elmdale,KS,66850,N/A
Via Express,12912 Canterbury Street,Shawnee Mission,KS,66209,913-341-8101
Perret Livestock Express,1720 Key Rd,Concordia,KS,66901,785-464-3009
Norlan W Thoden,38177 Plum Creek Rd,Osawatomie,KS,66064,913-256-4831
Lynn's Truck & Trailer Services,1100 W Grand Bldg H,Salina,KS,67401,785-823-3001
Rudzik Trucking,22664 Ne 219 Rd,Jetmore,KS,67854,620-357-6218
Carmack Trucking,16213 State Avenue,Basehor,KS,66007,913-724-4517
Cornejo Construction,2060 Tulsa Street,Wichita,KS,67216,316-522-5100
Don Schubert Trucking,303 Cook Street,Moscow,KS,67952,620-598-2348
G & Z Trucking,3162 Jackrabbit Rd,Hiawatha,KS,66434,785-742-3396
Bunce Trucking Co,4701 Goddard,Shawnee Mission,KS,66203,N/A
J W Trucking,100 Arkansas St Lot #17,Lawrence,KS,66044,785-749-1944
Mowery Backhoe And Trencher Service,25374 Tonganoxie Rd,Leavenworth,KS,66048,913-351-6053
Cranor Trucking,1816 N 10 Th,Independence,KS,67301,620-330-0999
Curtis Maupin Trucking,444 S 59th Lane,Kansas City,KS,66111,913-287-8381
Romero Trucking,104 S Baughman,Ulysses,KS,67880,620-424-4518
Larcom Trucking,220 W A Ave,Penokee,KS,67659,785-421-2883
Charlotte Stockman Trucking,20256 Tonganoxie Road,Tonganoxie,KS,66086,913-369-9862
Sundance Trucking,728 S 80th Street,Mccune,KS,66753,620-632-4939
"Truck-a-way Driveway, Inc.",7434 Riggs,Overland Park,KS,66204,800-552-6582
M W York,2127 Road 20,Wilmore,KS,67155,620-738-4377
Jack Rabbit Express,4912 Rosehill,Shawnee Mission,KS,66216,913-268-3753
Shayandmay Transport,1104 Summer Sun,Colby,KS,67701,785-462-6192
James Houk Trucking,669 K 31,Lyndon,KS,66451,913-294-9409
H E P Trucking,407 N Mcpherson Rd #31,Burrton,KS,67020,620-463-2418
C J 's Delivery,3712 W 48th St,Roeland Park,KS,66205,913-384-6759
Kb Trucking,P O Box 281,Osawatomie,KS,66064,N/A
John Mcdonald Trucking,2120 Volunteer Rd,Miltonvale,KS,67466,785-427-2292
"Whistle Movers & Delivery, Inc.",14312 W 90th Court,Lenexa,KS,66215,913-307-0242
B & A Const,2024 E Highway 160,Columbus,KS,66725,620-674-8418
White Trucking,Rt 2 Box 306,Liberal,KS,67901,620-624-1045
Matheson Trucking,201 East Railroad Avenue,Holcomb,KS,67851,620-277-0339
Mary's Trucking,725 Cheyenne Ave,Kansas City,KS,66105,913-371-2008
G & L Trucking,P O Box 1061,Dighton,KS,67839,620-397-2630
Brammell Truck Lines,202 Hackberry,Americus,KS,66835,620-443-5685
Howland Trucking,933 N 1st,Osborne,KS,67473,785-346-5413
S & J Trucking,842 Pearl Ave,Salina,KS,67401,785-825-2029
C R Wrecker Service And Trucking,7903 S E Hwy 166,Baxter Springs,KS,66713,620-856-3368
K & D Trucking,14671 S Greentree Dr,Olathe,KS,66061,913-856-2142
P M S Truckin,511 S Court,Ulysses,KS,67880,620-356-2871
B & K Trucking,206 Spruce,Jamestown,KS,66948,785-549-6257
S & L Trucking,Route 1 Bx 129b,Great Bend,KS,67530,620-793-9128
Sandy Acres Trucking,3980 W Parallel Rd,Garden City,KS,67846,620-272-7914
Russ Moyer,Pobox 261,Wellsville,KS,66092,785-418-6039
"Visions Group, Inc.",1001 Se 45th,Topeka,KS,66609,785-862-9911
"Wayne Wulf Trucking, Inc.",Po Box 462,Cimarron,KS,67835,620-855-3752
David Watts,503 S Fawn,Caney,KS,67333,620-779-3336
Keith A. Zielke,801 Russell,Scott City,KS,67871,620-874-1825
Schrag Brothers Freight,18006 South Partridge Road,Pretty Prairie,KS,67570,620-899-4034
Gary M Hawley,P O Box 36,Satanta,KS,67870,620-649-3413
Sunflower Farms,P. O. Box 26,Lane,KS,66042,785-869-3100
Jrs Transport,7505 W Frontier Rd,Salina,KS,67401,785-823-2102
Pmt Enterprises,Po Box 1103,Mission,KS,66222,913-722-3049
Cedric Moore,Po Box 2428,Kansas City,KS,66110,913-205-7162
Porta Navas Trucking,714 Susan St,Garden City,KS,67846,620-640-8997
Mike Ebert,8155 Flush Road,St George,KS,66535,785-643-1637
Big Sky Water Service LLC,17820 N Mennonite Rd,Garden City,KS,67846,620-276-6518
Global Propane,Po Box 651,Andover,KS,67002,316-733-2472
Deon Van Bell,422 W 5th St Apt 6,Junction City,KS,66441,678-878-5759
"Caney Valley Iron & Supply, Inc.",1870 Cr 1900,Caney,KS,67333,620-879-2052
Nickel Trucking LLC,1339 N 3rd Street,Salina,KS,67401,785-819-3991
Holly-nass Truckin,913 N 9th,Garden City,KS,67846,620-275-5499
Crazy Like A Fox Express,7888 Blue Mound Dr,Valley Falls,KS,66088,785-207-0493
"Schrader Trucking, Inc.",1120 N 9th,Osage City,KS,66523,785-528-3805
Emig Trucking,241 2700 Ave,Solomon,KS,67480,785-200-4646
Hancock & Co,1953 Jackson St,Lewis,KS,67552,785-378-3882
Benjamin D Haydock,Po Box 365,Ashland,KS,67831,620-635-2113
Adams Enterprises,2008 Danbury Ct,Manhattan,KS,66503,785-410-3176
Bandas Trucking,1705 Benton St,Garden City,KS,67846,620-290-3538
Calderon Trucking,2928 Loraine Pl,Garden City,KS,67846,620-290-6796
Hardcorps Trucking Llp,2115 South 5th Street,Leavenworth,KS,66048,785-215-3491
Pertl Ranch & Hay Company,5087 Hwy 232,Lucas,KS,67648,785-483-1638
Shibler''s Lawn Care,6026 Nw Boyd Rd,Rossville,KS,66533,785-207-0012
Recycle For Youth Sports,1725 E Wassall,Wichita,KS,67216,316-209-3951
Tim And Katy Trucking,420 Strong St,Rock,KS,67131,620-986-5511
Great Plains Recovery,801 North Derby,Derby,KS,67037,316-993-6450
Oswald Dairy Farm,7747 Graham Road,Effingham,KS,66023,913-833-4401
Dba Seiler Farms,13940 W 93rd St N,Sedgwick,KS,67135,316-796-0606
Ohana Limousine,616 N Main St,Maple Hill,KS,66507,785-640-1092
Channing''s Tree Service,139 N Gorin Ave,Clearwater,KS,67026,316-250-4316
Nielsen Trucking,2272 S 100 Rd,Council Grove,KS,66846,620-767-3158
Helton Construction,1000 Nw Clay Street,Topeka,KS,66608,785-217-3941
El Marro Welding Service,202 W 2nd Street,Liberal,KS,67901,620-391-1719
Tony''s Services,736 N Santa Fe Ave,Salina,KS,67401,785-827-3494
Dcm Transport,5310 Ne Indian Creek Rd,Topeka,KS,66617,785-286-1897
Dominguez Roofing,444 New York Ct,Wichita,KS,67214,316-640-6210
Dean Simmons Farms,1408 Eisenhower,Hugoton,KS,67951,620-544-2029
Wetto's Taco Carry-out LLC,301 Alabama,Williamsburg,KS,66095,785-733-2401
Domelogistics,3424 S Crest Ln,Salina,KS,67401,314-249-5118
Bryant Construction,207 N Florence,Wichita,KS,67212,316-641-9080
Hutch Construction,1737 S Fern,Wichita,KS,67213,316-305-6815
Faithful Landscapes,2404 Se Cedarwood Dr,Topeka,KS,66605,785-969-7739
Hitch Up Towing,2300 Emmett,Haysville,KS,67060,316-522-1666
T&s Total Tree Care,1152 N Terrace Dr,Wichita,KS,67208,316-300-8927
D Ortiz Trucking,411 W Fulton,Garden City,KS,67846,620-640-4121
Laskeys Transportation,7906 Hauser,Lenexa,KS,66215,913-602-6668
Cunningham Transport,2518 Woodson Road,Baldwin City,KS,66006,913-837-4604
Ed Mcclintock Horseshoeing,2885 206th Rd,Soldier,KS,66540,785-924-3839
Gilliland Tire & Engine,809 Barnes Avenue,Ottawa,KS,66067,785-255-4415
First Class Transportation,601 North Iowa,Lawrence,KS,66044,785-841-7333
Comer Seed Solutions,931 County Rd 22,Colby,KS,67701,785-443-3336
"Mike Moore Electric, Inc.",3456 Cr 3900,Independence,KS,67301,620-331-8906
Lindberg Farms,245 Us Hwy 36,Courtland,KS,66939,785-374-4595
Burgell Farms Trucking,10256 161st Road,Burden,KS,67019,620-222-4845
Boyds Furniture,1730 S Ash,Ottawa,KS,66067,785-242-0403
C & C Construction,201 N 12,Louisburg,KS,66053,913-787-2032
Barn Owl Express LLC,7568 S Kipp Rd,Gypsum,KS,67449,785-536-4406
R & S Moving,23985 W 115th Terrace,Olathe,KS,66061,913-461-1129
Bet Trucking,6013 Se 36th Street,Newton,KS,67114,316-990-4782
Action Roofing,12016 Long St Apt#1316,Overland Park,KS,66213,913-238-9910
Thendering Wings Pheasant Farm,12856 Nw 1600 Rd,Westphalia Ks,KS,66093,785-489-2411
Trojan Specialty Products,10860 Us Hwy 50,Dodge City,KS,67801,620-225-1770
Victors Siding And Gutters,1148 Countyline Rd,Kansas City,KS,66103,417-763-0180
Jim Palmer Co,1567 East 60th Ave North,Belle Plaine,KS,67013,620-488-3875
Lutz Lawn Service,8425 Se California,Berryton,KS,66409,785-862-8399
Three Men Tree,1700 Wildcat Creek Rd,Manhattan,KS,66503,785-770-2915
Rodriguez Trucking,413 Ave A,Lakin,KS,67860,316-737-5699
Warman Concrete & Construction,929 North 7th St,Atchison,KS,66002,913-360-0480
Lb Simmental,125 Osage Road,Waterville,KS,66548,785-363-2645
Athaly Transport,920 Walker,Dodge City,KS,67801,620-255-9286
Terrace Event Rental LLC,9531 Alden,Lenexa,KS,66215,913-438-4600
Fisher Meat Co,11204 Riley,Overland Park,KS,66210,913-451-1440
Westkan Stone,1825 North Rock Road,Mulvane,KS,67110,316-777-9674
D&m Farm,3150 295th Terrace,Hill City,KS,67642,785-216-0467
Cow Town Nutrition LLC,914 Cedar St,Abilene,KS,67410,785-479-3333
Expedited Cartage,39572 New Lancaster Rd,La Cygne,KS,66040,913-731-2203
Line32 Dump Trucks,1208 W Lincoln Ave,Lakin,KS,67860,620-640-9027
Southwest Steaming,712 N Glenn,Ulysses,KS,67880,620-453-1356
Master Metals,8405 Se Highway 400,Leon,KS,67074,316-251-2033
Cw Trucking,229 S Main,Hesston,KS,67062,316-305-4686
Leach Well Pulling,2394 Utah Road,Rantoul,KS,66079,785-878-3410
All City Carpet,1036 South 49th Drive,Kansas City,KS,66106,913-980-9512
Bricks By Rick,13848 S Shannan St,Olathe,KS,66062,913-205-7710
Rbc,906 N Pershing,Liberal,KS,67901,620-624-5053
Adams Trucking,5162 Cr 1420,Coffeyville,KS,67337,620-515-5010
Elite Construction,14325 West 143rd Street,Olathe,KS,66062,913-634-3841
Your Lawn Service,32754 N Mcfarland Road,Alma,KS,66401,785-844-0035
Rock Star Party Buses,13813 Hauser St,Overland Park,KS,66221,913-402-8708
Nelson And Nelson Outdoor LLC,1530 N Graystone,Wichita,KS,67230,316-641-8585
Double H Farms,656 E 110th Ave North,Peck,KS,67120,316-644-2753
Goode Acres,980 Tioga Rd,Wathena,KS,66090,785-989-4466
"Heartland Jerseys, Inc.",1892 M Rd,Seneca,KS,66538,785-336-2581
Sandhill Angus,1030 S E 10th Street,Stafford,KS,67578,620-546-4019
Sexton Trucking,12593 Thomas Rd,Chanute,KS,66720,620-433-2481
Hauling Scrap Iron & Metal,Thunderbird,Elkhart,KS,67950,620-697-1217
Dms,17460 47th Road,Parsons,KS,67357,620-820-4201
J & M Rollback Services,6435 Noble St,Shawnee,KS,66218,913-271-6034
Roscoe Hauling,2859 Four Wheel Dr #12,Lawrence,KS,66047,785-393-4246
Gumbles Home Furnishings,300 E 2nd,Hutchinson,KS,67501,620-669-0766
Kansas Foam Insulation LLC,786 1st Ave,Windom,KS,67491,620-489-6429
Sievers Trucking,33841 Pottawatomie Rd,Paxico,KS,66526,785-636-5338
Big Bob's Outlet,10001 W 75th St,Overland Park,KS,66204,913-362-2627
Games2u Entertainment,302 W 26th Lane,Eudora,KS,66025,785-218-5486
Hot Rubber Materials,400 Edgemore,Nickerson,KS,67561,620-664-0049
Koons Monuments,211 North Main Street,Goodland,KS,67735,785-890-3900
Dj Trucking,26709 Nw Louisiana Rd,Garnett,KS,66032,785-248-1397
Car-mar,5748 Prairie Meadow,Derby,KS,67037,316-210-3832
Paradise Jersey,14282 200 Rd,Neodesha,KS,66757,620-330-6961
Ict Transport,1259 S Sagebrush,Wichita,KS,67230,316-733-4912
Borjas Co,3059 Ruby Ave,Kansas City,KS,66106,913-526-4375
Rockers Farm,27744 Ne 2350 Rd,Greeley,KS,66033,785-835-6228
Watrous Construction,34020 Rockville Rd,Louisburg,KS,66053,913-244-4795
John Langley Cabinets,1705 N 600 Road,Baldwin City,KS,66006,785-534-3699
Swisher Roofing,715 Plum,Wamego,KS,66547,785-410-5582
Lakin Bbq Co LLC,507 Soderberg St,Lakin,KS,67860,620-640-8725
Sek Leaf And Lawn,614 S Park Blvd,Independence,KS,67301,620-926-2389
Wichman Automotive,28386 Holy Cross Road,Saint Marys,KS,66536,785-437-2986
Owner,4528 Cleveland Ave,Kansas City,KS,66104,913-653-4709
Mcq Transport,8311 W 122st,Overland Park,KS,66213,913-957-8196
J S Trucking,280 N Mission,Colby,KS,67701,785-443-3215
Bad Company Recovery,1083 E 1200 Rd,Lawrence,KS,66047,785-766-3542
Bell Trucking LLC,109 Liniger Street,Moscow,KS,67952,620-655-7057
Bb Custom Spreading,111 Broiler Ln,Moscow,KS,67952,785-466-1035
"Building Systems & Suppl, Inc.",15369 Sw Indianola Rd,Augusta,KS,67010,131-625-3305
Charter Flatwork,Box313,Edgerton,KS,66021,913-893-6535
Gutters,2037 Tauromee Avenue,Kansas City,KS,66102,913-406-4838
Beneke Trucking,375 8th Rd,Bushton,KS,67427,620-562-3530
Volcano Auto Sales,1317 Kansas Ave,Kansas City,KS,66105,913-371-6996
B K Trucking,7451 County Road Z,Quinter,KS,67752,785-754-8248
Myers Trucking,284 Road 18,Tribune,KS,67879,620-339-9547
3 Q Steel,510 E Burnside Dr # 18,Garden City,KS,67846,620-271-7362
Robert Herlocker & Ryan Herlocker,124 E 670 Ave,Farlington,KS,66734,620-362-3188
Imagefirst,12649 West 80th Street,Lenexa,KS,66215,913-888-0862
Innovative Compliance Services,4751 Hayes,Merriam,KS,66203,913-262-5897
Paradise Lawnscape,670 Greeley Rd,Nortonville,KS,66060,913-426-5814
Solomon Trucking,16920 W 127th St Apt A,Olathe,KS,66062,832-677-7770
K&p Distributing,5613 Eisenhower,Great Bend,KS,67530,620-792-3077
D Newcome Towing,26890 Crescent Hill Rd,Paola,KS,66071,913-294-9336
Calvert's Express Auto Service & Tire,1112 Rogers Rd,Olathe,KS,66062,913-393-9992
Y&b Consulting & Trucking LLC,3458 S Hoover,Wichita,KS,67215,316-832-8074
James Steeley,4504 W 161 Pl,Overland Park,KS,66085,913-232-8796
The Boogie Bus,4110 Charleston Avenue,Hutchinson,KS,67502,620-200-3060
D & L Trucking,401 N Webster St,Spring Hill,KS,66083,913-686-3315
Mex Market Warehouse,1029 N Wichita St,Wichita,KS,67203,316-262-2373
Awalt Trucking,1460 Highway 148,Scandia,KS,66966,785-955-0671
Stillwell Sales,2339 Commercial Ave,Scottsville,KS,67420,785-738-0340
Ukx,1435 W3rd,Colby,KS,67701,785-462-5589
Nt Trucking,603 S Inman,Sublette,KS,67877,620-655-2068
Angel Express,506 W Grant,Johnson,KS,67855,620-417-5215
Arrow Trucking,612 S St John St,Lyons,KS,67554,620-562-0119
Tech Mobile Wash,507 Southeast Drive,Clearwater,KS,67026,620-584-6238
H & S Transport,1335 16th Rd,Home,KS,66438,785-713-2158
Air Capital Transit LLC,820 West 7th,Wellington,KS,67152,316-706-4885
Triple Eight Trucking,105 E Hillcrest,Cimarron,KS,67835,620-855-0888
Double K Trucking,12568 Se 160 Ave,Norwich,KS,67118,620-931-0633
Er Trucking,404 N Oak Street,Johnson,KS,67855,620-492-1876
Cobra Trucking,3980 E Lamonte Pl,Garden City,KS,67846,620-640-8997
Lp Floors & More,222 N Minnesota,Wichita,KS,67214,913-231-9406
Aarons Welding And Repair,23918 W Clark Rd,Plevna,KS,67568,620-727-4579
Quail Road Trucking,443 W Quail Rd,Phillipsburg,KS,67661,785-533-1969
"Mlt Trucking, Inc.",2431 East 43rd,Hutchinson,KS,67502,620-662-5417
The Ranch Trailer Sales,4145 Swede Rd,Olsburg,KS,66520,785-770-2052
Stevns Farms,1630 N St,Atchison,KS,66002,913-370-3962
South Worx Contracting,3204 East Navajo Lane,Wichtia,KS,67216,316-618-0848
A & M Trucking,2538 S Denene St,Wichita,KS,67215,316-990-1574
Urban Vibrations,14435 35th Street,Perry,KS,66073,785-840-8558
Jw Trucking,31800 2 Rd,Copeland,KS,67837,620-640-8997
Jj Trucking,1330 Mission Blvd,Liberal,KS,67901,620-655-0461
Mama's Boy Transportation,704 N 62nd St,Kansas City,KS,66102,913-219-2263
Grandview Automotive,124 W Flinthills Blvd,Junction City,KS,66441,785-238-2987
Orozcos Trucking,625 Fleming St,Garden City,KS,67846,620-640-6201
Riley Contracting Service LLC,15450 Robinson St,Overland Park,KS,66223,913-681-2954
Mck Trucking,1647 208th Road,Bern,KS,66408,785-336-0272
Sowers Trucking,13780 246th Rd,Holton,KS,66436,785-305-0364
Bnt Siding & Windows,703 East Santa Fe,Garden City,KS,67846,620-521-3640
All Dec'd Out,820 W 120th,Andover,KS,67002,316-733-5741
Total Solution,615 Ne 43rd Street,Topeka,KS,66617,785-221-2742
"Thane Enterprises, Inc.",6506 North Lorraine Street,Hutchinson,KS,67502,620-669-8362
Monument Exterior Designs,7508 Leavenworth Road,Kansas City,KS,66109,913-220-2321
Dry Creek Equestrian Center,3841 W 69th Ave,Manhattan,KS,66503,785-587-8180
Aquatic Builders,15630 S Lindenwood Dr,Olathe,KS,66062,913-839-8322
"LLC 1 Touch Palet, Inc.",3082 North 17th Street,Kansas City,KS,66104,816-365-3379
Jamie's And Wardrobe Cleaners,801 N Second Ave,Dodge City,KS,67801,620-225-5611
Per Reyd Welding,1119 South Kansas,Liberal,KS,67901,620-770-6438
P C Express,2095 Rainbow Road,Galva,KS,67443,620-645-2869
White Line Transport,7670 Butler Road,Meriden,KS,66512,785-484-2739
Mello Towing,206 Scheidt Ln,Bonner Springs,KS,66012,913-422-1566
M & M Specialty Services LLC,26317 147th Street,Leavenworth,KS,66048,913-705-0690
Ken Ratliff,313 W Cedar,Kensington,KS,66951,785-476-2646
Hooked,15314 W 156th St,Olathe,KS,66062,913-915-7800
Odds And Ends,6009 Johnson Drive,Mission,KS,66202,913-831-3808
Respecht Dist,1518 Willow Rd,Piqua,KS,66761,620-272-4215
Dj Transports,1620 Jan St,Garden City,KS,67846,620-640-8997
Rob Williams Trucking,2635 N 158th St,Basehor,KS,66007,913-927-8960
Riley's Rescue,2412 W 1st,Wichita,KS,67203,316-200-1158
C & A Seed Services LLC,600 Walnut St,Wamego,KS,66547,785-289-7088
Lopez Lawn Service,2154 N Parkdale Ct,Wichita,KS,67212,316-409-7223
Asphalt Maitenance,2920 East 33rd Street,Wichita,KS,67219,512-705-6572
Vkt,1203 19th Ave,Mcpherson,KS,67460,316-573-8528
Yucca Enterprise,702 N Wabash Ave,Norton,KS,67654,785-377-3762
Ross Trucking,29290 Oxford Road,Louisburg,KS,66053,913-378-3440
Aaa Kansas,5500 Sw Randolph,Topeka,KS,66609,785-233-0222
Tornado Xpress,11429 Hwy 7,Atchison,KS,66002,913-908-8010
Triple U Enterprises,1001b N Wennibago Street,Satanta,KS,67870,620-391-8222
Barry Isaac Trucking,320 Scott Ave,Fort Scott,KS,66701,620-223-9551
I-70 Towing & Recovery,2421 W Hwy 40,Russell,KS,67665,785-445-4123
G B & K Transportation,2010 E 54th St South,Wichita,KS,67216,316-567-5600
A And R,10866 W Dora Ct,Wichita,KS,67209,316-729-2773
Toms Towing & Wrecker Service,1264 Kestrel Road,Horton,KS,66439,785-547-8291
Darren Youngs Custom Flooring,10413 E 7th St S,Derby,KS,67037,316-788-0102
Holsch Farm,1120 Quivira Rd,Washington,KS,66968,785-348-5377
Garden City Telegram,310 N 7th,Garden City,KS,67846,620-275-8500
Stagestop Towing,1802 Sandy Rd,Goodland,KS,67735,785-821-0329
Rohrer's Towing,995 Kafir Lane,Burlington,KS,66839,620-203-0041
S & S Auto Body,22933 Grapevine Road,Paxico,KS,66526,785-636-7560
Womack Sunshine Ford,1510 E 6th,Concordia,KS,66901,785-243-1220
Mid America Recovery & Tow LLC,200 1/2 S Broadway,Leavenworth,KS,66048,913-651-3999
Dans Dirt Works,408 9th Street,Bogue,KS,67625,785-421-2449
Lund Enterprises,9207 Somerset Drive,Overland Park,KS,66207,816-682-4835
Ricochet Ag Lines,Rt 1 Box 111 A,Tribune,KS,67879,620-376-8381
Ace Roadside & Towing,112 E High,Leon,KS,67074,316-305-8603
Berman's Specialty Car,7419 W 140th Terrace Apt# 2407,Overland Park,KS,66223,913-238-8586
S And R Trucking,26496 W 321st St,Paola,KS,66071,913-731-5028
Sanchez Amazing Towing Services,1407 E Spruce St,Olathe,KS,66061,913-375-2171
Chrome Scorpion Transport,4853 Cheyenne Ln,Mc Lough,KS,66054,816-506-3085
"Ferguson Enterprises, Inc.",638 West 1st,Hutchinson,KS,67501,620-662-1256
Daves Mobile Service,192 Palm St,Pleasanton,KS,66075,620-768-9040
Ditch Witch Of Kansas Ditch Witch Of Nebraska,11402 North Broadway,Valley Center,KS,67147,316-755-1911
Nitehawk Trucking,28014 M Rd,Fowler,KS,67844,620-646-6036
Rick Williamson,1107 Brad Street,Oswego,KS,67356,620-795-4854
Artful Duster Complete Chimney Service,7700 Juniper,Prairie Village,KS,66208,913-649-5744
K&j Harvesting,3030 Mustang St,Tampa,KS,67483,620-382-5470
Ldjtransportationinc,814 S Erie,Wichita,KS,67211,316-706-7789
Mc Drilling LLC,1950 Walnut,Hoxie,KS,67740,785-657-7196
Frutas Y Productos Mexicanos Aa,4170 E Hwy 50 Lot 433,Garden City,KS,67846,620-290-9197
Tk Ranch,429 South Iowa,Kanopolis,KS,67454,785-472-1253
Robert W Ochsner,1150 Rd V,St Francis,KS,67756,785-332-2808
All Season's Grounds Keeping,8339 Nw First,Topeka,KS,66618,785-925-3419
Amazing Grace Farm,21781 Cedar Niles Road,Spring Hill,KS,66083,913-592-3384
Rj's Rollin' Rack Shack,1020 Lincoln St,Osage City,KS,66523,785-221-9460
B & C Seamless Guttering,4164 Kingman,Grantville,KS,66429,785-286-0319
Creative Visions,34361 W 363rd St,Osawatomie,KS,66064,913-636-8969
Midwest Land Management,1221 Wagon Wheel Road,Lawrence,KS,66049,785-218-9601
Mr Fix It,1204 Mojave St,Satanta,KS,67870,620-649-2583
Big Berthas Discount Fireworks LLC,310 8th Avenue,Inman,KS,67546,620-245-7483
Feedstox,125 N Market St Suite 1735,Wichita,KS,67202,316-201-3200
Christopher Transport,1901 W Driftwood,Wichita,KS,67204,316-650-9918
Fort Nichols Courier Service,204 W First Street,Ingalls,KS,67853,224-223-4713
Dewayne Moore Services,1159 E Pancake Blvd,Liberal,KS,67901,620-391-3529
Regarding Kitchens,1736 E Harold St,Olathe,KS,66061,913-642-6184
Frank Chavez,3423 Wyandotte Ave,Kansas City,KS,66106,913-200-6090
R B Trucking,109 W Central St,Maize,KS,67101,316-516-8008
"J&f Bad Boys Towing & Repos, Inc.",1830 W Harry,Wichita,KS,67214,316-440-8380
Rmacs Truck & Equipment,300 East Santa Fe,Ellinwood,KS,67526,620-564-2643
Jcast Farms,416 Cherry Oaks,Cheney,KS,67025,316-524-0315
Corbin Trucking,428 Friend St,Soldier,KS,66540,785-851-7437
J & N Farm,9680 130th Street,Valley Falls,KS,66088,785-865-8310
Spears Transportation & Logistics,607 South 200th Street,Pittsburg,KS,66762,913-954-1429
Jd's Hotshot Service,612 N Tulane,Liberal,KS,67901,620-655-9885
Kama Transporters,7616 W 95th St # D,Overland Park,KS,66212,913-850-0351
I-haul,58 S 17th St,Kansas City,KS,66102,913-713-5808
Orth Masonry,2205 E 84th St So,Haysville,KS,67060,316-789-9597
Cervantes Trucking,832 S Sycamore,Liberal,KS,67901,620-391-0833
Raul Transportations LLC,9932 Antioch Rd,Overland Park,KS,66212,913-633-7223
Heartland Perma-column,713 Jersey,Baldwin City,KS,66006,785-594-5696
Callicrate Trucking,1950 Us Highway 36,Wheeler,KS,67756-5902,785-332-0217
American Mudjacking,14626 S Kaw,Olathe,KS,66062,913-238-1472
A & J Trucking,404 Sherman Dr,Newton,KS,67114,913-788-0784
Lovesbbq,2438 S Capri,Wichita,KS,67210,316-807-1062
Nick Zorn,316 W 7th Street,Augusta,KS,67010,316-775-6361
Josephine And Company,606 Industrial Road,Winfield,KS,67156,620-221-4001
Sunflower Sanitation,26363 Doyle Creek Rd,Saint Marys,KS,66536,785-437-2805
Duanes Trucking,301 East 17th St,Hays,KS,67601,785-625-7760
2k3m Trucking,421 E 17th,Goodland,KS,67735,785-899-7375
Kings Of Green,418 Walnut St,Silver Lake,KS,66539,785-582-4366
Atlas Glass,4725 Booth St,Westwood,KS,66205,913-735-6116
Mdt Trucking,3422 Woods Drive,Manhattan,KS,66503,785-320-2389
M & M Excavating,301 E 5th Ave,Manter,KS,67862,620-492-5519
Georgias Dirt Rock & Brush,13800 Front St,Cummings,KS,66016,913-886-2690
Carlos Auto,901 Cheyenne Ave,Kansas City,KS,66105,913-281-1222
Fleming Pulling Team,211 W Olive,Protection,KS,67127,785-554-2573
Brown Enterprises,15919 E 111th South,Mulvane,KS,67110,316-214-4021
Thunder Road Trucking,813 Fairview Ave,Newton,KS,67114,316-617-3558
Custom Craftmasters,105 High,Lancaster,KS,66041,913-360-3427
Dan Stewart,933 Rd 23,Sedan,KS,67361,620-423-4978
Rocking LLC,4340 South -343rd St West,Cheney,KS,67025,316-239-4478
Cooks Exteriors,39025 A Rd,Palco,KS,67657,785-737-3550
Sonship Trucking,204 13th Street,Ogden,KS,66517,785-410-1990
Dannys Service,201 W Parallel St,Clifton,KS,66937,785-455-2200
Mcqueen Transportation,310 E 11th Ave,Hutchinson,KS,67501,620-960-6772
9135935121,1941 Troup Ave,Kansas City,KS,66104,913-593-5121
Flying Buffalo Transport,3503 Sw Eveningside Dr,Topeka,KS,66614,785-431-5454
Mid-kansas Ag& Industrial,402 S Washington Street,Hutchinson,KS,67501,620-200-9107
Rollin' J Ranch,259 East Quail Road,Phillipsburg,KS,67661,785-543-8475
Olingers Tool Supply,2909 North Parkdale Court,Wichita,KS,67205,316-722-2098
Reids Transportion,1932 Ute Rd,Miltonvale,KS,67466,785-787-0369
Serious Trucking,1606 Center,Goodland,KS,67735,785-890-0042
West Farms,4672 W 700 Rd,Blue Mound,KS,66010,620-223-9439
One Man And A Shovel,329 S Valley Rd,Olathe,KS,66061,913-302-2531
Eagle Transportation,435 N Florence,Wichita,KS,67212,786-985-3652
Williams Trucking,3124 E Waterwell Rd,Salina,KS,67401,405-283-0698
Armstrong Cattle Co,265554 C Road,Soldier,KS,66540,784-305-1324
Benson Farms,8223 E North St,Solomon,KS,67480,785-825-7329
24 Hr Recovery & Tow,620 Nw Paramore,Topeka,KS,66608-1444,785-501-3133
Whitco,16836 Melrose St,Overland Park,KS,66062,573-356-9771
Godfrey's Party Bus,9170 Clarks Creek,Junction City,KS,66441,785-307-0901
Garces Delivery Service,3122 Loring Dr,Bonner Springs,KS,66012,816-668-0297
J & T Service,321 E 8th,Lyndon,KS,66451,785-817-5343
Admobile Kansas City,26311 West Cedar Niles Circle,Olathe,KS,66061,816-392-7260
Lawrence Wind & Solar,820 Broadway St,Larned,KS,67550,620-804-0777
Roy Taylor Trucking,6721 Sw Rockpost Road,Topeka,KS,66619,785-862-8250
Renegade Express,1007 Kendall Ave,Lakin,KS,67860,620-640-8997
Scuba Ventures & Safety Servces,1155 E Pancake,Liberal,KS,67901,620-626-8265
Chieu Trucking,2328 Haversham Drive,Lawrence,KS,66049,785-832-1040
L7 Carriers ,Pop Box 226,Tribune,KS,67879,620-376-8562
N Farm,738 Ohio Ave,Kansas City,KS,66101,913-787-3557
Fokay Transport,158 S Chautauqua St,Wichita,KS,67211,316-209-3453
Adams Transportation Solutions,624 E Hawthorn St,Gardner,KS,66030,913-208-0502
Becker Farms,2136 Hwy 14,Mankato,KS,66956,785-378-3262
R & D American Trucking,1502 Mulberry Ct Apt D,Dodge City,KS,67801,620-640-8997
Farm,11250 210 Road,Chanute,KS,66720,620-305-8350
Earl W Lillard And Son Trucking,302 N Main,Delphos,KS,67436-4000,785-488-6585
T D F T Trucking,2141 County Road 58,Park,KS,67751,785-673-3394
Doug Zimmerman Repair,4821 County Road B B,Grainfield,KS,67737,785-673-3273
Esquipulas Towing,956 Scott Ave,Kansas City,KS,66105,913-223-4338
Pryamid Stone LLC,1420 C Of E Drive,Emporia,KS,66801,620-343-7930
M And M Post Haulers,3095 85th Road,Thayer,KS,66776,620-212-0016
Herndon Hauling,14944 Rhodes Cir,Lenexa,KS,66215,913-687-2482
Crooked Creek Ranch,5744 K-15,Udall,KS,67146,620-782-9618
Zerr Trucking,107 S Elm,Park,KS,67751,785-673-3104
Acosta,219 Seward,Elkhart,KS,67950,580-461-9960
"Fisher Masonry, Inc.",28900 219th St,Easton,KS,66020,913-238-8501
Cumulus Radio,5800 Foxridge Drive Suite 600,Mission,KS,66202,913-514-3127
Gb Logistics,1907 E 54th St South,Wichita,KS,67216,316-737-1724
"Prologic Tools, Inc.",16524 W 80th St,Lenexa,KS,66219,913-492-5281
Wilkinson Crane And Drilling,5730 Rd 10,Goodland,KS,67735,785-821-3817
B&b Trucking,4180 Nancy Ave Apt 1002,Garden City,KS,67846,620-805-9990
Andes Farms,17603 131st Road,Winfield,KS,67156,620-221-4454
T-3 Troy's Tool Truck,3216 Sw Chelsea Drive,Topeka,KS,66614,785-221-3617
Quint Transportation,310 North First Street,Cimarron,KS,67835-9262,620-255-9181
Koehn Farms,6529 Gove Rd,Fredonia,KS,66736,620-636-0016
L And H Trucking,4101 E Hwy 50 # 241,Garden City,KS,67846,620-277-5580
Cass Excavating,1362 E Hwy 24,Hoxie,KS,67740,785-675-3476
3s Towing,211 S First Ave,Mulvane,KS,67110,316-259-5144
Phillip Watson,112 South Central,Chanute,KS,66720,620-212-1007
Carter Trucks,3852 York St,Beloit,KS,67420,785-738-0034
Murray Transport,209 W Hall St,Oberlin,KS,67749,785-475-4463
Umc Trust Org,925 W 29th St S Apt 704,Wichita,KS,67217,808-349-6344
J & M Transport,16122 Road 3,Plains,KS,67869,620-564-7579
Destinations Unlimited,1523 South Main,Ottawa,KS,66067,785-248-6062
Ta Vickery Remodeling,1238 Se Lime,Topeka,KS,66607-1561,785-213-0820
Wright Career College Or Wright Business School,10720 Metcalf Ave,Overland Park,KS,66210-1616,913-381-2577
Kj&g Sales,1072 Us Hwy 40,Hays,KS,67601,785-623-0050
Bp Golf Sales,21023 W 98th Street,Lenexa,KS,66220,913-322-6065
Mohr Mowing LLC,2727 S Glacier Ct,Wichita,KS,67215,316-204-9031
Bha Non Emergency Medical Transportation,940 N Pine St,Olathe,KS,66061,913-244-9857
Mcgee Andrew,934 Pearl Ave,Salina,KS,67401,785-643-5498
Will-power Performance,5535 Se 61st Street,Berryton,KS,66409-9665,785-806-8738
Shepherd Team Auto Plaza,1819 S Main St,Fort Scott,KS,66701,620-223-0900
Livin' Loud Party Bus,5983 W 311th,Louisburg,KS,66053,913-212-8308
Johnson Cattle Company,1654 C Ave,Dwight,KS,66849,620-767-2669
Buds Delivery Service,2702 N Shamus St,Garden City,KS,67846,620-641-0408
Scholz Hauling,1698 Road G,Hugoton,KS,67951,620-482-0405
Home Works,11705 S Pine St,Olathe,KS,66061,913-780-4905
A To B Auto Logistix,1717 S Cypress 1324,Wichita,KS,67207,316-573-8739
Double D Roustabout,27588 O Road,Ransom,KS,67572,785-731-5715
Yardley Distribution,101 E Shadyside,Wichita,KS,67216,316-806-7068
Chas Ball Sunfresh,241 South 18th Street,Kansas City,KS,66102,913-342-2366
New Line Trucking,520 N Pershing Ave Apt 2b,Liberal,KS,67901,620-952-1097
Heritage Acres Farm,2425 Wagon Road,Fort Scott,KS,66701,620-857-4275
C & E Depot,16759 Nw 50th St,Benton,KS,67017,316-806-5691
Allen Kurth Trucking,115 W 2nd St,Colby,KS,67701,785-443-3618
Kc Concrete Care,3357 Harvester Rd,Kansas City,KS,66115,913-634-7788
Sunrise Mass-nry,5733 Monrovia,Shawnee,KS,66216,913-593-6510
Granados Welding,511 Griffith Ave,Liberal,KS,67901,620-391-1658
Foremost Foods,13725 Horton Dr,Overland Park,KS,66223,913-909-2106
Home Team Trucking,416 Clark,Udall,KS,67146,620-222-2431
Stoughton Welding,2302 Us Hwy 40,Russell,KS,67665,785-483-0690
Sher Transport,33015 W 271st St,Paola,KS,66071,913-594-1461
Wright Way Sedan Service LLC,801 W Douglas Street,Wichita,KS,67202,316-253-9639
Kcmo Transpost,15633 Foster St,Overland Park,KS,66223,816-914-7070
Bci Propane,719 East 11th,Hugoton,KS,67951,620-544-8004
Kansas Karthee,115 N Caldwell,Fort Scott,KS,66701,417-549-9843
Private,15545 W 169 Highway,Olathe,KS,66061,913-238-1116
The Little Black Bus LLC,11810 Craig St,Overland Park,KS,66210,913-661-9470
Crazy Cuts,351 N Mt Carmel,Wichita,KS,67203,316-312-3120
Wilkins Family Farms,1932 North 150th Road,Delphos,KS,67436,785-427-6005
Bj Trucking,426 Se 10 Ave,Anthony,KS,67003,316-640-2795
Viking Corporation,731 S Industrial Ct,Rose Hill,KS,67133,316-634-6699
Lollar Trucking,1500 W 22st,Hutchinson,KS,67502-2621,620-662-2252
Sonic Equipment Company,900 West Miller Road,Iola,KS,66749,620-365-5701
D & D Cattle,95 1500th Rd,Selden,KS,67757,405-283-0698
It Source,8351 East 35th North,Wichita,KS,67226,316-264-2329
A & C Lawn Service,111 North 295th West,Garden Plain,KS,67050,316-535-8531
A-lopez Consttuction,1029 E Lula,Olathe,KS,66061,863-205-8132
Dirks Trucking,1385 190th,Hillsboro,KS,67063,620-654-6748
Moreno's Trucking,109 S Main St,Lakin,KS,67860,620-355-6351
Better Quality Lawn Care,6114 S Kansas St,Wichita,KS,67216,316-650-1383
Haresnape Farms Partnership,13092 Z Road,Lebanon,KS,66952,785-389-1005
Clc Services,7005 West 152nd Terrace,Overland Park,KS,66223,913-488-4997
Lance Walck Trucking,402 Elbert Ct,Holcomb,KS,67851-9033,620-271-3547
Blue Stem Stone Works,11390 98th Street,Oskaloosa,KS,66066,785-749-4347
A Plus Towing,127 S Kasnas,Salina,KS,67401,785-820-9066
F&r Services,920 South Spring Valley Rd,Junction City,KS,66441,785-238-3359
Masters Trucking,2507 Sw Ashworth Place,Topeka,KS,66614-2505,785-214-2779
Sanchez Towing Services,1643 E 120 Th St,Olathe,KS,66061,913-538-0001
Red Bone Trucking,1156 N Cleveland Ave,Wichita,KS,67214-3032,316-519-6232
Leed Trucking,1990 Fredrickson Circle,Olathe,KS,66061-3875,620-672-9226
Eby Ranch,1668 Road 235,Emporia,KS,66801,620-343-6534
E&j Specialty LLC,15621 W 87th Street,Lenexa,KS,66219,816-918-1646
Hamm Ranch,1226 N 203rd Rd,Minneapolis,KS,67468,785-630-0245
Running W Ranch,13606 222rd,Holton,KS,66436-8533,785-364-0499
"Sunflower Applicators, Inc.",1065 S Olive,Cherryvale,KS,67335,620-336-2066
Miller Mowing,4910 Se 4th Terrace,Tecumseh,KS,66542,785-379-5012
Self,8515 North Medora Road,Hutchinson,KS,67502,620-664-1477
Shutter & Blind Superstore,8616 Cleveland Ave,Kansas City,KS,66109,913-709-9258
R1r6 Express,7312 West 89 Ter,Overland Park,KS,66212,517-507-0612
Sbt,812 S 131st St,Bonner Springs,KS,66012,913-217-8768
Slg Trucking,1400 1st West,Newton,KS,67114,562-522-8875
Wilson Building Maintenance,624 E 1st St N,Wichita,KS,67202,316-264-0699
Kcmow Landworks,2807 W 71st Terr,Prairie Village,KS,66062,913-908-4108
James E Vincent Jr,15523 Elm Street,Basehor,KS,66007,816-214-2125
Burton Logistics,4042 Coleman Ct,Kansas City,KS,66102,913-871-0670
The Water Heater Man,106 W Amity St Suite C,Louisburg,KS,66053,913-837-5315
Cavco Sales,901 West Main Street,Council Grove,KS,66846,620-767-7273
Corner Stucco,2149 N 33 St,Kansas City,KS,66104,913-230-5727
American Bikes 4 You,12345 E Kellogg Dr,Wichita,KS,67207,316-558-5450
Tdk Trucking,1016 N 7th St,Garden City,KS,67846,620-309-8107
Maloney's Heating And Cooling,14525 W 67th St,Shawnee,KS,66216,913-530-9135
Jeffrey L Woodson,2131 W 29 N,Wichita,KS,67204,316-832-0691
"Lone Star Properties Kc, Inc.",3305 Richmond Ave,Kansas City,KS,66104,913-709-9940
Jerry's Welding Service,351 South Mesquite Road,Scott City,KS,67871,620-872-7248
Papas Fix It Shop,901 S 35th,Parsons,KS,67357-3810,620-423-4550
Esd Trucking,1030 N Marie Ave,Garden City,KS,67846,620-640-8997
American Dream Trucking,311 Kirk St,Dodge City,KS,67801-5749,620-255-2601
Matt Charles,960 Road 25,Sharon Springs,KS,67758,785-891-3500
Flat Tail Ranch,4571 W 223rd St,Bucyrus,KS,66013,816-590-1660
Energy Cneter - Manhattan Pool,528 Pillsbury Dr,Manhattan,KS,66502,785-776-5118
Tim Sanner Trucking,1457 Kingfisher Rd,Hiawatha,KS,66434-8530,785-547-3570
Spencer Electric,1259 220th St,Hiawatha,KS,66434,785-742-3956
Salazar Slytherin,210 Meadowbrook Circle,Gardner,KS,66030,913-856-8756
The Sunflower Group,14001 Marshall Drive,Lenexa,KS,66215,913-890-0900
Elite Tow,165 E 2300 Rd,Wellsville,KS,66092,913-645-8800
Noble Enterprises,1723 Fair Lane,Manhattan,KS,66502,785-539-8604
Jay's Welding And Repair,22334 Ne Vermont Rd,Garnett,KS,66032-9628,785-760-2374
Autoxclusives,1002 N Kansas Ave,Liberal,KS,67901,620-624-2466
Super Structures,1001 John St,Atchison,KS,66002,913-367-2103
Limon Trucking,500 Duni St,Satanta,KS,67870,202-521-1493
Naber'hood' Electric,510 E 4th St,Kinsley,KS,67547,620-338-7255
Harder Handyman,4640 Nw 160th St,Burns,KS,66840,316-251-0870
"Prairie Ag & Auto, Inc.",605 Nw 3rd St,Plainville,KS,67663,785-434-7166
Midwest Computer Sales,321 N 6th St,Fredonia,KS,66736,620-378-2912
El Gallo Trucking,1502 Mulberry Court Apt B,Dodge City,KS,67801-7105,702-701-6641
Hupps Custom Cabinets,32750 190 Th St,Leavenworth,KS,66048,913-651-4850
Flint Hills Windmill And Pump Service,121 S Main,Benton,KS,67017,316-778-1191
Will Haul More,1075 19000 Road,Parsons,KS,67357,620-423-1701
Kammalop Specialties,1199 Hawk Road,Abilene,KS,67410,785-479-5813
The Regent,2050 N Webb Rd,Wichita,KS,67206,316-631-3900
Esc Electric,619 E 3rd,Russell,KS,67665,785-483-1456
Wooge Enterprises And Wooge Electric,1096 Hwy 68,Pomona,KS,66076,785-248-1143
Rockin Lazy H,22485 K16 Highway,Holton,KS,66436-8210,785-364-4696
Bar-c Trucking LLC,1427 17th Street,Great Bend,KS,67530,620-324-5589
Thomas Stafford,1571 220th Ave,Hays,KS,67601,785-625-6220
Don's Firewood,218 N Charles,Wichita,KS,67203,316-435-3866
Fry Equipment Company,1761 Road B,Emporia,KS,66801-7648,620-342-9106
Hugoton Welding,102 S Jefferson St,Hugoton,KS,67951,620-544-4416
Pioneer Ranch Welding And Repair,3941 189th St,Russell,KS,67665,785-483-2914
Gearjammer Enterprise,708 W Hall St,Oberlin,KS,67749,785-470-7664
Eclipse Group,937 N Bennett Road,Ottawa,KS,66067,785-242-6800
Cache Creek Veterinary Service,201 Columbia St,Lacrosse,KS,67548,402-340-5288
"J D Dreiling Oil, Inc.",215 6th Street,Calflin,KS,67525,620-587-3658
Cole Taylor,433 S 100th Ave,Osborne,KS,67473,785-738-0419
Gameros Welding,736 N Roosevelt,Liberal,KS,67901,620-655-2770
Megwes International Trucking,2055 N Broadway,Wichita,KS,67214-1126,316-992-8866
Tlt Trucking,504 Plumwood,Rose Hill,KS,67133,316-776-9422
Befort Fencing,28052 140 Rd,Lebanon,KS,66952,785-282-1180
Graybill Trucking,710 Rd 180,Satanta,KS,67870,620-290-1924
Lotus,2430 S Bedford,Wichita,KS,67210-1804,316-789-2300
Leegistics,11890 S Cherry Ln,Olathe,KS,66061,913-732-2108
Barb Harris Design,617 Iowa Ave,Pratt,KS,67124,620-672-1491
C W Welding LLC,1154 Rr Road,Sublette,KS,67877,620-668-5448
Dales Repair,507 Railroad St,Agenda,KS,66930,202-521-1493
Mavs Services,4321 E Bellaire,Wichita,KS,67218,316-652-0991
Wesley Property Management,823 Miami St,Leavenworth,KS,66048,913-682-6844
Jd's Welding Service,1525 Susank Road,Hoisington,KS,67544,202-521-1493
Erickson,410 Cedar St,Concordia,KS,66901,785-243-6768
Pappy's Tool Crib,221 N Prairie Creek Ct,Kechi,KS,67067,316-371-6247
"A & F Enterprises, Inc.",170 W Broadway,Hoisington,KS,67544,620-653-4687
Mjb Heating And Cooling,201 S Baltimore,Derby,KS,67037,202-521-1493
Top Quality Painting,2163 W Ferrel Dr,Olathe,KS,66061,202-521-1493
Santa Fe Motors,210 West State Highway 99,Olpe,KS,66865,620-341-1543
4- A's Siding,203 Mccoy,Sublette,KS,67877,620-675-8165
Security Self Storage,1717 N Waterfront Parkway,Wichita,KS,67206,316-634-1115
Goode Leasing,3955 Eagle Ridge,Manhattan,KS,66503,785-341-5070
9132300062,18320 Prairie View Dr,Tonganoxie,KS,66086,913-230-0062
Mcmanigal Electric,16026 206th Rd,Holton,KS,66436-8502,785-935-2555
Crazy A Diamond Hauling Co,855 S Garfield,Colby,KS,67701,316-841-5517
Double J Services,309 Cox St,Sublette,KS,67877,620-668-0244
Roto-rooter,464 S 260th Street,Pittsburg,KS,66762,620-231-5630
El Sol,4300 Lloyd St,Kansas City,KS,66103,913-384-2964
Tfm Services,118 N Martinson,Wichita,KS,67203,316-265-5331
Harry Street Carpet,211 West Harry St,Wichita,KS,67213,316-262-7715
"Ka-comm, Inc.",326 S Clark St,Salina,KS,67401,785-827-8555
Klinks Welding & Repair LLC,2462 Pawnee Rd,Canton,KS,67428,620-654-4075
Ron Piersee Specialties,7834 Sandusky Ave,Kansas City,KS,66112,913-299-0388
Ricks Food Store,518 Main St,La Crosse,KS,67548,785-222-2736
Tanganyika Wildlife Park,1037 S 183 St W,Goddard,KS,67052,202-521-1493
Halbleib Const,16036 250 Ave,Wakeewey,KS,67672,785-743-2749
Keen Line Masionry,204 Old Highway 50 Nw,Lebo,KS,66856,620-256-6530
M &m Sheet Metal,17501 L Road,Cimarron,KS,67835,620-855-3153
Odle Welding,1345 S Emporia,El Dorado,KS,67042,316-213-3099
Larson Trucking,1404 S 10th St,Salina,KS,67401,785-342-1947
Mason's Custom Carpentry,500 Hwy 212,Quinter,KS,67752,785-299-0513
Walker Sand & Gravel,913 South 2nd,Stockton,KS,67669,785-425-6258
Stupka Electric,106 W 17th St,Concordia,KS,66901,785-243-5263
Ray Event & Tent Rental,2033 E Northern,Wichita,KS,67216,316-263-3931
C B Welding,445 2200th Street,Humboldt,KS,66748,620-212-1236
Private,308 Oklahoma Avenue,Brewster,KS,67732,785-694-2898
Dickman Memorial,601 South First Street,Grinnell,KS,67738,785-824-3755
Speth Trucking,101 E Church St,Logan,KS,67646,785-689-8088
Owner,8321 S Tyler Rd,Clearwater,KS,67026,316-641-4067
Heartland Lawnscape,5300 Broadway,Great Bend,KS,67530,620-617-6300
Jacobs Welding,98 Clifford St,Gorham,KS,67640,785-637-5495
Smaltz Seeds,309 Prairie Ln,Holcomb,KS,67851,620-277-2278
Woodbenders LLC,1520 Montana Ave,Goodland,KS,67735,785-899-7069
R D Blanchat,847ne90th,Danville,KS,67036,620-962-5426
All About Ingrounds,2013 West 4th Street,Pittsburg,KS,66762,620-687-1663
Lagroon Racing,305 Scott,Salina,KS,67401,785-577-4553
Baumans Custom Sawmill,31225 Nw Geary Rd,Garnett,KS,66032,785-448-0009
R Livestock & Feed,804 Main,Yates Center,KS,66783,620-205-6180
Zach Brown,2012 East Spruce Circle,Olathe,KS,66062,913-747-8232
1x Racing,1478 N 270th Road,Lincoln,KS,67455,784-436-2382
Maxwell Ranch,16942 238th Rd,Holton,KS,66436,785-364-7084
Keith Waugh,602 E Sixth,Oakley,KS,67748,620-272-4270
Rod Butts Welding,115 N Main St,Goodland,KS,67735,785-899-5917
Williams Associate,1401 Zeandale Rd,Manhattan,KS,66502-9213,570-660-8226
Stice Auto Sales,1247 S 220th St,Pittsburg,KS,66762,620-605-8886
Kline Installation,210 E Park Place Ct,Derby,KS,67037,316-617-0088
Brown Farm & Cattle Ranch,11923 252nd Road,Winfield,KS,67156-7234,620-442-8363
1st Affordable Trucking,3214 N 157th Terr,Basehor,KS,66007,913-461-3866
Brannan's Transportation,6001 S Osage,Wichita,KS,67217,316-806-3058
Olathe Sheet Metal,24450 Old Kansas City Road,Paola,KS,66071,913-764-0725
Nusser Racing,115 W 16th,Larned,KS,67550-1718,620-474-6828
Paradise Valley K-lawn,707 South 1st Street,Natoma,KS,67651,785-623-8168
Medallion Healthy Homes,808 E Osage,Paola,KS,66061-2037,913-620-1779
"Lobmeyer Enterprises, Inc.",1108 West County Road G,Leoti,KS,67861,620-375-4863
Mccray's Enterprises,2450 N Belmont,Wichita,KS,67220,316-641-4170
Mid-west Painting,4601 Palisade,Wichita,KS,67212,316-524-2500
All Seasons Power Equipment,107 N Sheridan,Minneapolis,KS,67467,785-392-3232
Pats,1126 El Paso,Derby,KS,67037,316-788-3422
John's Fencing Service,1774 Antonino Rd,Hays,KS,67601-9556,785-625-2584
Coker Tractor Works,741 E 200th Rd,Overbrook,KS,66524,785-836-3577
D & B Body Shop,201 Madison,Ellis,KS,67637,785-726-4244
Intense Pipe Testing,380 North Van Houten,Russell,KS,67665,785-445-2313
Elliott Trucking,220 Ne Baker,Great Bend,KS,67530,620-793-8682
Steve Pilger,770 Rd 26,Sharon Springs,KS,67758,785-891-3767
Rogers Flooring,16083 Sw 130th Rd,Rosehill,KS,67133,316-640-7055
Peltier Brothers,905 Washington,Concordia,KS,66901,785-243-1958
Resurfacing Solutions LLC,1463 Toulon Ave,Hays,KS,67601-9409,785-623-1978
Legends Auto Sales,426 East 6th,Holton,KS,66436,785-364-3856
Tres Hermanos,1315 Stevens,Liberal,KS,67901,620-655-5369
Riverside Automotive Repair,310 Congress St,Emporia,KS,66801,620-341-9621
Turf Technicians,1725 Nw 24th,Newton,KS,67114,316-282-5589
Jtv Transportation,1816 S Smithmoor,Wichita,KS,67207-7735,316-518-0777
Ron Wagner Welding,915 S 9th,Arkansas City,KS,67005-4202,620-442-1551
Colston Family Racing,527 N Evergreen,Chanute,KS,66720,620-202-1544
D Yost,2324 Cheyenne Rd,Moundridge,KS,67107-4728,620-345-2537
Ziegler Electric,123 E Prairie,Girard,KS,66743,620-724-4893
Hammerhead Supply,220 Clark Street,Wallace,KS,67761-9694,785-891-3718
Tim The Toolman,210 W Jackson St,St Francis,KS,67756,785-332-2608
Paola Audio Systems,33603 Metcalf,Louisburg,KS,66053,913-709-4617
Northend Auto Service,725 W 61st Street N,Wichita,KS,67204,316-744-8282
Justins Appliance LLC,1207 E Douglas,Wichita,KS,67211,316-260-2650
Junction Service & Mfg,50 Ne Sr 61 Hwy,Pratt,KS,67124,620-672-7676
Air Capital Building Maintenance Co - Turbo Carpet Cleaning,2822 E 31st S,Wichita,KS,67216,316-393-0102
W L Trucking,338 North Main St,Lorraine,KS,67459,785-531-0161
Crdn Of Central & Western Kansas,3831 N Cypress,Wichita,KS,67226,316-634-0080
Wilson Racing,611 S Grant,Chanute,KS,66720,620-212-4861
J D Hershberger,601 Se 36th #138,Newton,KS,67114,316-283-1167
Car Country,6535 Tuttlecreek Blvd,Manhattan,KS,66503,785-539-8003
Deboer Landcare Company,909 Lincoln St,Blue Rapids,KS,66411,785-562-6519
Martinez Party Rentals,9800 S Hoover Rd,Peck,KS,67120,620-584-9888
Advanced Lighting,423 S 6th St,Colwich,KS,67030,316-796-1514
Sandhill Ranch,13990 South Sandhill Road,Garden City,KS,67846,620-275-1550
Herrick Siding & Windows,2620 Se Illinois Ave,Topeka,KS,66605-1423,785-554-6041
Wiebe Farms,3577 Falcon Rd,Tampa,KS,67483,620-382-4471
Brunk's Machine & Service,204 E Business W Hwy 36,Saint Francis,KS,67756,785-332-3241
Adrian's Service LLC,507 Gambrinus,Tipton,KS,67485,785-373-5685
Land Beaver LLC,2717 Harrison Pl,Lawrence,KS,66047,745-448-8777
Aden,115 N First Street,Iola,KS,66749,620-228-0535
Kelly Shaffer,310 W Bell,Yates Center,KS,66783-1205,620-625-5190
Rolling Hills Nursery,2451 216th Road,Sabetha,KS,66534,785-284-3950
Fox Recovery,2962 N 35th St,Kansas City,KS,66104,913-207-2898
Louderback Ranch,1409 Road W,Liberal,KS,67901,620-624-1401
D A Millwright,9 Horseshoe Lane,Pretty Prairie,KS,67570,620-200-3421
Bbsales,1111 S Rutter Ave,Chanute,KS,66720,620-212-5746
El Padrino Soccer,848 Central Ave,Kansas City,KS,66101,913-208-8661
Dry Creek Farm,1333 Co 671,Osborne,KS,67473,785-346-0189
The Defining Edge,1826 14th Avenue,Mcpherson,KS,67460,620-245-5369
Diamond J Ranch,357 Virginia Rd,Greeley,KS,66033,785-418-4704
The Maxwell Ranch,26074 V Rd,Whiting,KS,66552,785-873-3580
Jimmy's Dustless Blasting,12788 Sw 98th St,Andover,KS,67002,316-617-7752
Flinthills Windmill And Pump Service,121 S Main,Benton,KS,67017,316-778-1191
Chris Gorman,3355 North 70th Court,Kansas City,KS,66109,913-634-3307
Ziegler Transport,10741 284th Drive,Arkansas City,KS,67005,763-688-1365
Becerra Masonry,140191 West 56,Shawnee,KS,66216,913-677-2434
Calhoon Automotive,601 Asherville Rd,Beloit,KS,67420,785-738-5058
James R Decker,2661 150 Road,Burr Oak,KS,66936-1648,785-647-8851
Sam's Trucking,16006 W 123rd St,Olathe,KS,66062,913-406-7448
Boss Mud Jacking,3975 Tennessee Rd,Ottawa,KS,66067,202-521-1493
St Mary's Electric,506 N 6th Street,Saint Marys,KS,66536,785-437-2256
D's Septic Service,201 Kansas,Stuttgart,KS,67661,785-543-3010
Jay's Constuction,19912 Mitchell Rd,Tonganoxie,KS,66086,610-780-1025
A1 Services,303 S Jefferson,Frontenac,KS,66763,620-875-6494
Sedona Motorsports,1107 N 4th St,Leoti,KS,67861,620-874-0609
Stapleton Exhibit Services,744 Allcutt,Bonner Springs,KS,66012,202-521-1493
Sek Transport,11036 Wallace Rd,Oswego,KS,67356,620-331-9478
Bruce Plumisto,715 N Martin,Colby,KS,67701,785-443-3372
Gk Smith & Sons,1700 Industrial Park Drive,Paola,KS,66071,913-294-5379
Loffer Services,3306 W 4th St,Coffeyville,KS,67337,620-251-6038
Brother Tammen,2766 Ave W,Rush Center,KS,67575,785-372-1600
Rogers Honey,1521 1st Ave E,Horton,KS,66439,706-835-9640
H & H Distributing,19109 Westridge Curve,Tonganoxie,KS,66086,913-909-6534
Gameroom Concepts,10440 Metcalf Ave,Overland Park,KS,66212,913-322-4263
Veterinarian,11802 Dd Road,Monyezuma,KS,67867,620-846-2940
Frog Hauling,817 Dearborn St,Augusta,KS,67010,316-251-5260
Jacob Liquor Exchange,3049 N Rock Road,Wichita,KS,67226,316-636-4566
Enlow Electric,10498 112th Road,Dodge City,KS,67801,202-521-1493
Prairie Winds Woodworking,23402 Nw Arkansas Rd,Westphalia,KS,66093,785-893-2148
Replica Wrestling Belts,2020 W Maple,Independence,KS,67301,620-331-0129
Superfleet Logistics,1876 N 32nd St,Kansas City,KS,66104,913-940-1025
Sunshine Express,5700 E Mainsgate Rd # 806,Wichita,KS,67220,402-301-5256
Farm,2490 Ash Road,Webber,KS,66970,402-460-7757
Graham Services,9214 Kessler St,Overland Park,KS,66212-3945,913-341-2084
S And S Hauling,10870 W 311 Th,Louisburg,KS,66053,913-837-2775
A C F I,6625 E Pepperwood,Wichita,KS,67226,251-422-9977
Set Utility Poles,10419 East 1st Street,Newton,KS,67114,316-288-7777
Panther Express Deliveries LLC,14124 S Sycamore Dr,Olthe,KS,66062,913-488-0069
Paris Harvesting LLC,176 S Oliver Rd,Wellngton,KS,67152,316-680-9864
Outlaw Haulin',611 N 4th,Leoti,KS,67861,620-874-1011
Sprinkle Repair & Service,10022 E Rd 8,Ulysses,KS,67880,620-640-4218
Nelson Family Show Lambs And Southdowns,1653 County Road 18,Tribune,KS,67879,620-376-1044
Tanduexoticsheep,21733 S 4 Road,Holton,KS,66436,785-851-0143
Dollars For U,3623 W 76 Street,Prairie Village,KS,66208,913-648-8500
Home Images,15120 Monrovia St,Overland Park,KS,66221,913-402-4734
Cjv Transportation,3940 E Ross Pkwy,Wichita,KS,67210,316-303-2192
Schroeder Trucking,601 Russell St,Scott City,KS,67871,620-872-7328
Isp Technologies,302 Commerce Street,Walton,KS,67151,785-760-1572
Ecowater Of Nck,123 West 5th,Concordia,KS,66901,785-243-1602
Anettes Little Angels Daycare,600 East 9th St,Hutchinson,KS,67501,620-665-7138
Atsi,2540 S 88th St,Kansas City,KS,66111,913-422-1111
All Star Escort,404 W 15th Street Apt B,Hays,KS,67601,785-656-1167
Schultz Trucking,307 E 4th St,St Francis,KS,67756,785-332-8343
"Blattner Built, Inc.",209 S Mill St,Logan,KS,67646,785-689-8899
Hughes Trucking,601 South Scenic Drive,Manhattan,KS,66503,785-539-8819
Roenne Trucking,801 Spruce St,Woodston,KS,67675,785-994-3003
J Phelps Remodeling,2141 Deer Rd,Abilene,KS,67410-6932,785-479-6529
Sbs Transport,2234 Lathrop Ave,Kansas City,KS,66104,913-530-4876
D & D Mowing Service,604 Central St,Humboldt,KS,66748,202-521-1493
A Truck,151 Beech,Gardner,KS,66030,913-475-6915
Olathe Striping LLC,12236 S Crest,Olathe,KS,66061,913-390-4988
M & J Carrier Express,1860 Nw Cardinal Ln,Scammon,KS,66773,918-320-9405
Restoring Perfection,243 N Paw Paw Street,Howard,KS,67349,620-647-7777
Actkd LLC,1027 N Andover Rd,Andover,KS,67002,316-733-2298
Villagrana Trucking,3339 S Gow St,Wichita,KS,67217,316-712-3760
Alstrom,718 West Hall,Oberlin,KS,67749,785-475-3388
Wagon Wheel Concessions,205 Sw 9th St,Plainville,KS,67663,785-737-6089
Alberts Custom Door Co,939 N Battershell,Belle Plaine,KS,67013,316-516-1000
Yucca Flats Services,431 S Road 10,Leoti,KS,67861,620-214-0317
Waldeck Fertilizer,700 South 9th Street,Arkansas City,KS,67005,620-442-5170
Smith And Sons Hauling,9513 W 62nd Street,Merriam,KS,66203,913-206-9944
Bluestem Quarry And Stone Works,5010 Hwy 232,Lucas,KS,67648-9506,785-525-6494
Smalley Heating & Cooling,6849 Nw Rochester Rd,Topkea,KS,66617,202-521-1493
Bonner Springs Animal Care,104 Forest,Bonner Sprins,KS,66012,913-422-2055
Abney-n-abney Trucklines,215 Cypress St,Minneola,KS,67865,620-885-5479
Page Interstate Trucking,11713 S Penrose St,Olathe,KS,66061,913-710-4587
LLC,207 N Thorpe St,Kansas,KS,66102,913-205-0908
Affordable Auto Glass,1925 W 6th Ave,Emporia,KS,66801,620-340-0440
Vivanco Trucking,110 W 11th St,Liberal,KS,67901,580-461-1819
Lopez-acosta Trucking,1200 Krause Ct,Liberal,KS,67901,620-655-7557
Brothers Transport,20 S Lincoln Ave,Liberal,KS,67901,620-417-0357
Carmona & Sons Trucking,1029 N Lincoln Ave,Liberal,KS,67901,620-309-8449
Tarahumara Trucking,932 S Main St,Ulysses,KS,67880,620-640-8997
Leyetzy Carriers,430 N Comanche St,Ulysses,KS,67880,620-640-8997
Mccoy Sales Company,3130 Brinkerhoff Rd,Kansas City,KS,66115,913-342-4904
Travalong,451 Highway 9,Waterville,KS,66548,785-363-2552
Essary Services,6238 Merriam Drive,Merriam,KS,66203,913-522-6222
Gorman Seed,404 Lees Cirlce Drive,Fort Scott,KS,66701,620-223-5588
Gmd Trucking,14929 W 124th Terr,Olathe,KS,66062,913-269-9164
Carrasco Hotshot,202 S Pennsylvania,Liberal,KS,67901,620-417-4366
Farmer,3006 N Rd,Bern,KS,66408,785-336-1956
51w Racing,1125 Flint Ave,Colby,KS,67701,785-443-1469
Ochoa Transport,932 S Main St,Ulysses,KS,67880-2700,620-640-8997
William Cooper Walton LLC,12547 Homestead Lane,Olathe,KS,66061,816-223-3469
Russell Cattle Co,21113 Bison Road,Paxico,KS,66526,785-636-8902
Bne Vending Services Llp,10807 W 56th Terr,Shawnee,KS,66203,913-660-8733
Rey & K Services,2492 Long Avenue,Liberal,KS,67901,620-655-6692
Iv Trucking,1606 Conard Ave,Garden City,KS,67846,620-765-2009
Lambert Transportation,345 1100 Ave,Abilene,KS,67410,785-280-9727
Bailey Electric LLC,209 W Opelik,Norcatur,KS,67653,785-871-1967
Long Hauling & Transport,110 South Main,Leon,KS,67074,316-250-6404
Ranbir Gosal,8923 West 113,Overland Park,KS,66210,913-469-5579
"Jones Electric, Inc.",903 Industrial Street,Herington,KS,67449,785-258-2912
Maclean Trucking,1006 Church St,Scott City,KS,67871,785-447-0647
Contruccion,9409 Bluejaketst,Overland Park,KS,66214,913-302-5358
Owner,1320 East Kellogg Ave North,Wichita,KS,67211-2662,316-262-8267
Cajun Country Transport,9010 S Stearns Street,Haysville,KS,67060,620-440-2577
Roadside Assistance,404 West 9th Street,Concordia,KS,66901,785-614-0002
Gerald Zimmer Auction And Real Estate,3127 Us 24 Hwy,Beloit,KS,67420,785-738-2010
T&b Delivery LLC,6416 Sloan Ave,Kansas City,KS,66104-1359,913-223-6162
Bud Rupp Trucking,426 E 4th St,Russell,KS,67665-2104,303-834-5102
Herrs Lime Spreading,122 N Pennsylvania St,Palmer,KS,66962-8701,785-747-7325
D N L Transport,300 Burlingame Ave,Scranton,KS,66537-9255,785-845-8393
"Pleasant Springs Farm, Inc.",308 S Center,Mankato,KS,66956,785-476-5220
Abedabsy Delivery Express,9543 E Mount Vernon Court,Wichita,KS,67207-6600,316-648-5402
Falco Trucking,524 S Main,Caldwell,KS,67022,620-517-0702
Ks Transports,32251 Nw Harper Rd,Garnett,KS,66032,866-663-7766
Jc Welding,950 Jennie Barker #46,Garden City,KS,67846,620-290-7421
Aaron's Custom Dozer Service,840 St Hwy 99,Sedan,KS,67361-8567,620-330-7079
Kj Welding,2505 A St,Garden City,KS,67846,620-290-7421
Dba Dns Trucking,711 Ash St,Deerfield,KS,67838,620-805-1508
"Whispers Acres, Inc.",13502 Sw 150th St,Rose Hill,KS,67133-8453,316-776-7628
Lmh Homes,733 E Pancake Blvd,Liberal,KS,67901-4320,620-624-1981
Dale Hebbert,Rr 1 Box 276,Moscow,KS,67952-0276,580-652-3271
Reiff Sales & Services,29550 Us Hwy 75,Netawaka,KS,66516-9215,785-933-2892
Hammer's,8821 Lowell Ave,Kansas City,KS,66111-1415,913-299-2813
Don Barker Enterprises,727 South 110th Street,Edwardsville,KS,66111-1049,816-286-9664
Allen Livestock Hay & Grain,2474 90th Rd,Humbolt,KS,66749-1214,620-473-3594
Ark City Transfer,1213 N 13th St,Arkansas City,KS,67005-1915,316-706-5592
Jtl,982 120th Rd,Seneca,KS,66538-2585,785-336-6437
K & M Trucking,1119 Prairie St,Emporia,KS,66801,620-803-8682
Mark Dill Harvesting,1488 Rd X,Neosho Rapids,KS,66864,620-340-2569
Remington Trucking,203 S Maple,Frontenac,KS,66763,620-704-5423
Mid States Fitness Equipment,235 S Topeka,Wichita,KS,67202,316-681-3611
C & K Grain,200 Maggie,Barnard,KS,67418,785-792-6299
Lt Transport,1593 Rd Ff,Satanta,KS,67870,620-649-1859
Neil's Trucking,12302 Dd Rd,Montezuma,KS,67867,620-846-2819
Johnny On The Spot,1900 Burr Parkway,Dodge City,KS,67801-2324,620-227-3127
Homer L Wood & Sons,813 Fairview Ave,Newton,KS,67114-1640,316-617-3558
Canfield Service And Trucking,124 S Kelly Lot A8,Mcpherson,KS,67460,620-204-0123
Needmore Land & Cattle Company,14184 V4 Road,Hoyt,KS,66440-9088,785-986-6840
J & K Hog Farm,1548 South Oxford Rd.,Geuda Springs,KS,67051,620-446-1612
Pelkey Trucking,1537 W 4th,Hutchinson,KS,67501,620-727-4106
Swaim Trucking,9617 Nw 86th St,Silver Lake,KS,66539-9434,785-582-4530
Hammor Logistics,1635 East 37th Street North Suite 4,Wichita,KS,67219-3557,316-493-1336
Flt,14501 Knox St,Overland Park,KS,66221,816-217-9393
Property Prep,254 N Emporia,Wichita,KS,67202,316-788-1773
A Plus Insulation,10947 Kaw Dr Ste 2,Edwardsville,KS,66111-1134,913-281-2250
"Guetterman Outdoor, Inc.",15900 W 239th St,Springhill,KS,66083,913-980-3764
Ruiz Trucking,1431 Forrest Ave,Liberal,KS,67901,620-391-0314
Jim's Tow,530 E Macarthur Road,Wichita,KS,67216,316-308-4500
Artistic Recovery,1709 S Leanne,Wichita,KS,67207,316-409-8688
Direct Buy Of Johnson County,11309 Strang Line Road,Lenexa,KS,66215,913-661-2500
Brian Smith Trucking,110 E 2nd Street,Muscotah,KS,66058,785-294-1411
J&j Hauling,4148 S Hydraulic Lot 50,Wichita,KS,67216,316-312-4520
G And A Transport,3920 W Angel Ct,Wichita,KS,67217,316-609-9705
Taylors Logistic Service,2623 Se 33rd Terrace,Topeka,KS,66605,785-845-2766
Broken C Trucking,2545 13 Road,Plainville,KS,67663,316-377-0103
Double M Trucking,809 Glenstone Cir,Manhattan,KS,66502-6422,620-285-1177
R Murray Trucking,31501 Metcalf Road,Louisburg,KS,66053,913-850-0641
Sierra Meadows,5891 Ne 58th Ter,El Dorado,KS,67042,316-252-6534
Disciple Trucking,3450 Se 29th St,Topeka,KS,66605,918-214-5806
Papaws Trucking,209 N Spruce St,Coolidge,KS,67836,620-640-8997
Commodity Hauling,308 E Pennsylvania St,Greensburg,KS,67054,620-388-1059
Lighthouse Trucking,211 W Bellevue Ave,Garden City,KS,67846,620-271-7731
Pnh Hauling,205 N Edwards St,Lewis,KS,67552-5204,620-324-5702
D & S Trucking,775 54th Ave,Hill City,KS,67642,405-576-3188
M & E Transport,1503 N Webster Ave,Liberal,KS,67901-2140,620-309-1853
Wichita Junk,1414 N Saint Paul St Apt 303,Wichita,KS,67203-1721,316-393-1885
Rj Trucking,87 Front Street,Galesburg,KS,66740,256-490-5780
Chatmon & Son Transport,1942 N Bethany St,Kansas City,KS,66104,816-309-6087
Topeka Courier And Transport,2651 Se Waters Edge Ln,Topeka,KS,66605,800-358-8558
Scott Vogel,500 Cherry St Lot 20,Dodge City,KS,67801-5655,620-253-8890
C & L Trucking Company,13310 New Jersey Ave,Kansas City,KS,66109,913-593-8919
Isaac's Trucking,203 W Longview Rd,Hutchinson,KS,67501-8785,432-788-4582
Jhch Trucking,4101 E Us Highway 50 Lot 94,Garden City,KS,67846-8305,620-640-8997
Culligan Water Conditioning,155 E 5th,Colby,KS,67701,785-462-2822
Better Built By Barnes,2453 Us Highway 400,Mccune,KS,66753,620-632-5239
Freeman Brothers Racing,940 Twin Oaks Dr,Salina,KS,67401,785-823-9707
All States Windows & Siding LLC,2605 W Esthner,Wichita,KS,67213,316-945-4389
Flint Hills Feed & Supply,100 N Main,Eureka,KS,67045,620-583-6322
Professional Cleaning Company,1105 14th St,Coffeyville,KS,67337,620-688-6096
Lamunyon Cleaning And Restoration,329 W 5th,Hutchinson,KS,67501-4846,620-669-0055
Complete Septic Systems,605 North First,Mulvane,KS,67110,316-777-2106
"Progressive Medical, Inc.",16270 Foster,Overland Park,KS,66085,913-685-5861
Prewit Septic Fluid Systems,708 N Taylor,El Dorado,KS,67042-3911,316-321-3887
Salem's Mower S&s,1380 Highway 36,Oberlin,KS,67749,785-475-2741
Noll's Wood Shed,513 Main Street,Nortonville,KS,66060-4111,913-886-8351
Aarons Sales And Leasing,1507 N Foliage Ct,Wichita,KS,67206-3330,316-239-6767
Koelzer Bee Farm,1057 24th Rd,Corning,KS,66417,785-868-2014
Fisher Harvesting,706 S Hamilton,Pratt,KS,67124-2539,620-770-0030
J & S Ranch,2235 Ave W,Sterling,KS,67579,620-921-5903
Dba Mcpherson Drilling Co,15256 112th Road,Winfield,KS,67156,620-221-3560
Honey Doo's & Fox Seamless Guttering & Exteriors,113 E 7th St,Holton,KS,66436-1814,785-364-3590
Reimer Refrigeration,16100 Sw 36th St,Halstead,KS,67056,316-835-2876
Hicks Farm And Ranch,1195 Road Bb,Satanta,KS,67870,620-657-2612
Dj's Rousabout,1849 Munjor Rd,Hays,KS,67601-9523,785-625-6454
Blaser Excavating,25476 187st,Leavenworth,KS,66048,913-727-1989
Fox Vending Machine,2620 S Oliver #101,Wichita,KS,67210,620-986-5409
Convenience Xpress,8826 Santa Fe Dr Ste 302,Overland Park,KS,66212,913-648-4700
Jj Distribution,12439 S Ortega Dr,Olathe,KS,66062,913-271-3640
Central Kansas Recycling,6211 Driftwood,Wichita,KS,67205,785-324-2324
Thomsen Bros,635 Lynx Rd Sw,Gridley,KS,66852-9258,620-437-6170
Ifg,125 S Washington Suite 200,Wichita,KS,67202,316-262-1417
Garrett's Fireworks,120 Barclay,Osage City,KS,66523,785-528-2755
Gerald Goin,1248 Saint Columbus Road,Wathena,KS,66090-4038,785-840-5116
Kiowa,104 South Main,Mullinville,KS,67109,620-548-2325
Changeair Usa LLC,10048 Industrial Blvd,Lenexa,KS,66215,191-375-2600
Erns Gardens,33365 Somerset Road,Paola,KS,66071-8295,913-259-0674
Sealmaxx,6155 Lockton Lane,Fairway,KS,66025-3606,913-638-6953
Tupper Harvesting,3627 Ave O,Bison,KS,67520-2004,620-923-7577
First Element Energy,9972 Lakeview Ave,Lenexa,KS,66219,913-888-3835
Castle Rock,5816 County Line Rd,Kansas City,KS,66106-3108,913-915-4964
Alefs Harley-davidson,5427 N Chuzy Dr,Wichita,KS,67219,316-440-5711
Williams Monuments,11 West Broadway,Iola,KS,66749-3211,620-365-3741
Matcor Metal Fabrication,2400 West Laurel,Independence,KS,67301,620-331-8737
Svobodatree,2009hstreet,Belleville,KS,66935,785-527-2661
Emi,1802 Industrial Park Drive,Washington,KS,66968-2337,785-325-2000
King Lawn,6631 W 150 Street,Overland Park,KS,66223-2545,913-909-9183
Pump N Petes,1712 Broadway,Parsons,KS,67357-0876,620-423-8132
Al Jr Trucking,2406 Caseys Dr,Garden City,KS,67846-3312,319-217-2556
Max Performance Ag,461 Colorado Rd,Williamsburg,KS,66095,785-229-2730
Prairie Hawk Ranch Stable,27703 187th Street,Leavenworth,KS,66048,913-704-9406
R & C Express,1003 7th Ave,Dodge City,KS,67801-4217,620-430-1477
Taqueria Mexico Food Truck,2827 S 9th St,Kansas City,KS,66103,816-663-2426
