Company Name,Street Address,Address Locality,Address Region,Postal Code,Telephone
Northeast Auto Haul,190 Hardscrabble Road,Calais,ME,04619,207-454-7401
Van Houten Trucking,8 Depot Rd,Lebanon,ME,04027,207-608-5081
Db Bell & Son Trucking,81 East Ridge Rd,Mars Hill,ME,04758,207-429-8210
R S Bourgoin Trucking,400 Kelley's Park,Millinocket,ME,04462,207-723-8027
Brew's Transport,607 Farmington Falls Road,New Sharon,ME,04955,207-649-2430
J & J Trucking,1019 North Perley Brook Rd,Fort Kent,ME,04743,207-834-8400
G & L Malone Trucking,8 Lincoln St,Houlton,ME,04730,207-694-1689
Scotty's Trucking,124 Spring Drive,Bowdoin,ME,04287,207-522-7932
Dabu Trucking,393 Center Street,Auburn,ME,04210,207-577-1042
M C Moore Trucking,43 Greenwood Avenue,Skowhegan,ME,04976,207-474-5949
K & C Transportation,Hc 86 Box 69 Grindstone Road,Medway,ME,04460,207-746-3818
Antique Express Delivery,7 Merithew Road,Searsport,ME,04974,207-469-5363
A & J Auto Sales,1558 Hallowell Road,Litchfield,ME,04350,207-268-3936
P & C Automotive,128 Main St,Windham,ME,04062,207-892-2222
R & B Trucking,57 Porter Settlement Road,Houlton,ME,04730,207-532-7452
Rc Theriault Trucking,53 Pattagumpus Road,Medway,ME,04460,207-746-0089
Mitch Carr Mc Trucking,30 Worcester Way,Lincoln,ME,04457,360-880-2036
Freeman Transport,11 Spring Dr,Farmingdale,ME,04344,207-313-6998
Al & Di's Auto,31 Augusta Road,Washington,ME,04574,207-845-3214
Wiplash Express,217 Bradman Street,Auburn,ME,04210,207-408-9158
R Grass & Son,261 Littleton Station Rd,Littleton,ME,04730,207-538-9451
Big Dogs Trucking,777 Industry Road,New Sharon,ME,04955,207-240-0557
Maranacook Trucking,214 Old Kents Hill Road,Readfield,ME,04355,207-685-1021
Black Dog Transportation,246 Prescott Hill Road,Monmouth,ME,04259,207-289-0369
Caron Valley Trucking,936 Caribou Road,Fort Kent,ME,04743,207-316-6338
Mccann And Murray Trucking Company,674 Dutchneck Rd,Waldoboro,ME,04572,207-837-9389
Mccabe Trucking,136 North Street,Kennebunkport,ME,04046,207-641-8332
Still Crazy Trucking,15 Gerry Ave Apt2,South Portland,ME,04106,207-321-1255
Rli Transport,18 Basin Point Road,Harpswell,ME,04079,207-833-2936
Executive Limousine Transportation,51 Main St,Stratton,ME,04982,207-246-2076
Lagasse & Sons Freight Locateing Services,173 New Gloucester Road,North Yarmouth,ME,04097,207-330-0292
Bob's Trucking,520 Ossipee Hill Road,Waterboro,ME,04030,207-590-2690
F & L Trucking,39 Hyde Rd,Gray,ME,04039,207-657-6321
Jrc Transportation,76 Purple Heart Lane,Carmel,ME,04419,207-949-2208
J&e Trucking,244 Strickland Road,Fort Fairfield,ME,04742,207-768-1530
Ozzy & Sons Trucking,26 Granite Hill Dr,Gray,ME,04039,207-450-7593
Triple Rrr Fence & Outdoor Services,120 Trapp Road,Auburn,ME,04210,207-240-1835
My Friends Movers,37 Sharlenes Way,Manchester,ME,04351,207-512-8278
J & L Trucking,1671 Hammond Road,Hermon,ME,04401,207-848-2888
Trucking Unlimited,215 Main Street,Vassalboro,ME,04989,207-382-3124
Able Transport,346 Main Street,Rockport,ME,04856,207-236-2621
Milner Trucking,197 Town Farm Road,Lincoln,ME,04457,207-794-6061
K J R & Son Trucking,184 Houlton Street,Patten,ME,04765,207-949-9908
M&m Transportation,1768 N Berwick Rd,Wells,ME,03906,207-646-9117
Els Transport,13 Poplar Drive,Newport,ME,04953,207-368-4725
C Robinson Trucking,51 Ridge Top Lane,Wells,ME,04090,207-337-3468
Southern Distributors,14 Laase Ave,Lewiston,ME,04240,207-385-9280
Triple J Transport,8 Waterville Commons Dr Ste 303,Waterville,ME,04901,207-416-2792
Safe Dog Express,7 Spring Road,Saco,ME,04072,207-282-2819
Ddt Trucking,192 Pinkham Brook Road,Durham,ME,04222,207-353-6448
B M Trucking,17 Denmark Road,Fryeburg,ME,04037,207-935-3817
G E Transport,553 Madawaska Road,Caribou,ME,04736,207-493-4629
Savoy Trucking,87 Park Street,Madison,ME,04950,207-696-5197
K C Trucking & Welding,30 Evergreen Lane,Lebanon,ME,04027,603-833-1243
Ftr Trucking,613 Hosmer Lane,Rumford,ME,04276,207-364-3539
Dominion Transport,83 Chicopee Road,Standish,ME,04084,207-642-5056
U B Mountain Transportation Services,155 Second St,Auburn,ME,04210,207-577-1607
Lonnie Guiggey,411 Gallison Road,Sherman,ME,04776,207-521-1722
Kj Secotte Transport,425 Cushing Road,Cushing,ME,04563,207-542-0036
"Seabreeze Property Services, Inc.",121 Bishop Street,Portland,ME,04102,207-775-3454
Profiles Stateline Superstore,1545 Carl Broggi Highway,Lebanon,ME,04027,207-339-0032
Meredith Trucking,13 Franks Place,Parsonsfield,ME,04047,207-793-9327
Gli,3 Hidden Falls Ln,West Paris,ME,04289,207-890-5615
Coldbrook Transportation Co,1118 Bellesqueeze Road,Clinton,ME,04927,207-426-8115
G & J Trucking,158 Spear Mill Rd,Cushing,ME,04563,207-354-0047
Jet Trucking,61 Plains Rd,Oxford,ME,04270,207-890-4437
Custom Transportation,45 Eames Road,Winslow,ME,04901,207-872-5868
Toad Enterprises,74 South Pleasant St,Bowdoinham,ME,04008,207-737-4943
Will'n Transport,195 North St,Saco,ME,04072,207-283-0396
Murray & Son Transport,5 Littlefield Lane,Scarborough,ME,04074,207-883-6554
K P Trucking,295 Merrill Hill Road,Hebron,ME,04238,207-966-2219
R J D Transport,180 Coffin Rd,Washburn,ME,04786,207-455-4980
Mosher's Bus Service,384 Village Rd,Smithfield,ME,04978,207-634-4297
T & D Trucking,48 Otis Road,Otis,ME,04605,207-537-2540
Austin Trucking,756 Us Rt 1,Monticello,ME,04760,207-538-9734
Liberty Island Express,260 Roberts Shore Road,Liberty,ME,04949,207-233-3589
Portland Halal And Food Service,33 Riverton Drve,Portland,ME,04103,207-797-9044
Hatt's Transportation,42 Cutler Road,East Machias,ME,04630,207-255-0623
N N F Transport,341 Bangor Road,Unity,ME,04988,207-948-5072
Lacourse Boyz Contracting,7 Kings Court,North Waterboro,ME,04061,207-247-2295
J A B Transport,99 Albion Rd,Windham,ME,04062,207-892-7146
T N Z Transport,939 River Road,So Gardiner,ME,04359,207-809-0812
Coachman Carriers,87 Country Club Rd,Mars Hill,ME,04758,207-425-4234
Jalbert Transport,1537 Chapman Road,Chapman,ME,04757,207-762-8731
Wmc,526 Hope Rd,Lincolnville,ME,04849,207-763-4419
Robert Scott & Sons Trucking,109 Ridge Road,Peru,ME,04290,207-562-8781
N Toppi And Sons Trucking,1171 Methodist Road,Westbrook,ME,04092,207-318-8348
Wyld Rose Transport,49 Durgin Road,South Paris,ME,04281,207-890-9194
"S K R Distributors, Inc.",195 Thatcher St,Bangor,ME,04401,207-945-9550
Klp Auto Transport,281 Alfred Street # 3,Biddeford,ME,04005,978-609-3036
Withee & Sons Trucking,29 Pung Hill Rd,Fairfield,ME,04937,207-453-4490
Hardy Transport,563 Route 212,Merrill,ME,04780,207-757-7467
Adams Trucking,406 Windsor Neck Rd,Windsor,ME,04363,207-445-2273
Pods,26 Morin Street,Biddeford,ME,04005,207-282-2955
Rick's Excavation,6 E Houghton St,Madison,ME,04950,207-696-8078
Its A Bella Transport Co,118 Bog Road,York,ME,03909,207-363-0850
Bills Towing & Recovery,95 Lakes Lane,Ellsworth,ME,04605,207-667-9698
Suazo's Trucking,300 Court Street,Auburn,ME,04210,207-689-3450
B & C Whitten Transport,132 Davis Street,Brownville,ME,04414,207-965-7888
C J Foster Trucking,983 Us Hwy 1,Littleton,ME,04730,207-538-9504
Patriot Auto & Boat Transport,55 Rideout Ave,Lewiston,ME,04240,207-577-9302
Ncs Logistics,3 Southgate Road # 3,Scarborough,ME,04074,207-883-6278
A And C Trucking,55 Petite Drive,Burlington,ME,04417,207-731-4056
Keven R Jacobs Trucking,14 Diamond Match Rd,Milo,ME,04463,207-943-5616
Streets Of Gold Transport,44 Shaw Road,New Gloucester,ME,04260,207-926-4217
C Jandreau Trucking,54 Iron Bridge Rd,Millinocket,ME,04462,207-723-6960
Tb Ward,5 Partridge Road,Searsport,ME,04974,207-930-5151
Lag Transport,627 Us Rt 2 West,Wilton,ME,04294,207-645-3501
Skijin Trucking,18 Raven Road,Princeton,ME,04668,207-796-2052
R H Brown - Mccabe Trucking,136 North Street,Kennebunkport,ME,04046,207-985-9345
D M L Transport,25 Patrick St,Skowhegan,ME,04976,207-474-1210
Ellis Transport,616 Common Road,Dixfield,ME,04224,207-240-2499
Tim Cowett Transportation,75 Davis St,Presque Isle,ME,04769,207-762-3048
Seger & Sons Transport,23 Gamage Dr,Litchfield,ME,04350,207-268-2411
Burlock Transport,1055 Woodman Hioll Road,Minot,ME,04258,N/A
Howard Miller Auto Transport,1273 Ferry Rd,Sandy Point,ME,04972,207-567-3987
Leclair Trucking,479 Tenney Hill Road,Monson,ME,04464,207-997-3578
Salvo Transport,90 Dover Rd,Boothbay,ME,04537,207-633-6868
Kh Trucking,68 Rochester St,Berwick,ME,03901,207-698-7171
T Casey Trucking,164 River Road,Oakfield,ME,04763,207-757-7242
Hoofmans Transport,297 Court St,Houlton,ME,04730,207-532-6590
Great Scott Trucking,320 New Portland Rd,Gorham,ME,04038,207-478-0547
Kingsbury Transportation,836 Us Route 1,Bridgewater,ME,04735,207-429-9484
A&t Auto Transport,1135 Rt 202,Greene,ME,04236,207-512-2368
Chase Trucking,5 Webber Lane,Stetson,ME,04488,207-296-3661
Hood Transportation,1977 Route 106,Leeds,ME,04263,207-485-2484
Bouchard & Son Transportation,90 Maine Avenue,Rumford,ME,04276,207-357-0107
Intakt Trans,39 Smithwheel Rd #54,Old Orchard Beach,ME,04064,207-730-1735
D A Morrill Trucking,23 Morrill Lane,W Newfield,ME,04095,207-636-1879
Lada Auto Repair,567 Alfred Rd,Biddeford,ME,04005,207-286-1731
Randy Keach Auto,138 Mercer Rd,New Sharon,ME,04955,207-778-2007
E Z Goin Express,70 Kinney Lane,Danforth,ME,04424,207-448-2879
Iron Horse Trucking,826 Park St,South Paris,ME,04281,207-743-8635
R & C Transport,630 State Rd,Mapleton,ME,04757,207-764-5946
T & K Transport,42 Bowers Rd,Easton,ME,04740,207-488-9649
R Wellman Trucking,782 Moosehead Trail,Jackson,ME,04921,207-722-3889
R J N Trucking,11 James Street,Saint Agatha,ME,04772,207-543-7372
J W B Trucking,81 Guinea Rd,Berwick,ME,03901,207-698-5248
Coastal Tower Services,60 Sebago Rd ,East Baldwin,ME,04024,207-939-2341
J P Transport,14 Cumberland Road,N Yarmouth,ME,04097,207-557-4920
Magic's Auto & Marine,292 Port Clyde Road,Tenants Harbor,ME,04860,207-372-6902
Rlf Transport,160 Presumpscot St,Portland,ME,04103,207-253-5131
O T R Transport & Pallet Service,253 Warren Ave,Portland,ME,04103,207-797-7772
S & H Transportation,144 Bridgton Rd,Westbrook,ME,04092,816-224-5170
B & A Smith,242 Simpson Road,Westfield,ME,04787,207-551-9096
Weber Auto,90 Dorothy St,Portland,ME,04103,207-523-9227
Codys Trucking,5785 Bennoch Rd,Lagrange,ME,04453,207-943-7757
Ltw,77 Mitchell Pond Rd,Dedham,ME,04429,207-460-8877
Durepo Transport,110 Presque Isle St Ste 100,Fort Fairfield,ME,04742,N/A
Rep & Son Trucking,36 Slybrook Rd,Wallagrass,ME,04781,207-834-6172
Ta's Automotive Services Sales,314 Albion Rd,Unity,ME,04988,207-948-3400
Wiley Cove Seafood,111 Hathorne Road,Cushing,ME,04563,207-354-0995
Tmr Transport,4 Rice Rd,Birch Harbor,ME,04613,207-963-2915
Ryan's Autobody,352 Bangor Rd,Unity,ME,04988,207-948-2601
T R C Transport,166 Gerard Drive,Van Buren,ME,04785,207-868-2891
Navis Logistics,Delta Drive Business Park Bldg #4,Westbrook,ME,04092,207-854-8088
M B T,142 Railroad St,Clinton,ME,04927,207-431-1043
Atlantic Horse Carriers,200 Bean Road,Mount Vernon,ME,04352,207-293-4948
A M Express,133 Eben Hill Dr,Portland,ME,04103,207-772-8225
D&c Trucking,732 Jackson Road,Monroe,ME,04951,207-525-3212
C & R Trucking,68 Upper Barley Rd,Lebanon,ME,04027,207-252-2928
Gilchrest Bait,20 Wadsworth Point Rd,Friendship,ME,04547,207-542-5855
Daigneau Trucking,1740 Acton Ridge Rd,Acton,ME,04073,207-432-9272
Grc Trucking,835 North Perley Brook Rd,Fort Kent,ME,04743,207-834-2684
Dirt Poor Trucking,227 Oldfield Road,South Berwick,ME,03908,207-748-1734
Bluewing,21 Newton St,Andover,ME,04216,207-392-3822
John B Porter Trucking,170 Pine Bluff,Lee,ME,04455,207-738-3094
Northern Lights Trucking,761 Us Route 1,Weston,ME,04424,207-448-7220
M H Elliot Transport,89 Roxbury Pond Rd,Andover,ME,04216,207-392-1489
Fox Transport,60 Fox Lane,Eddington,ME,04428,207-843-0516
T & M Trucking,161 Lower Dedham Rd,Holden,ME,04429,207-843-7286
C M G Transport,11 Elm Hill Road,South Paris,ME,04281,207-743-6363
Mr Scott Trucking,81 Pleasant St,Houlton,ME,04730,207-694-1636
D & D Trucking,505 Durham Rd,Brunswick,ME,04011,207-725-8409
Ace Trucking,266 Kenney Rd,Leeds,ME,04263,207-933-3224
Golden Shadows Express,35 Cold Brook Road,Sherman Mills,ME,04776,207-985-0396
Southbound Express,120 Reynolds Rd,Thorndike,ME,04986,207-948-2044
Paul's Mobile Transport,40 Main Street,Limerick,ME,04048,207-793-8471
Toothaker Trucking Co,53 Sparrow Drive,Augusta,ME,04330,207-621-1973
Roberts Transfer,28 Windemere,Brunswick,ME,04011,207-798-4556
Drost Transport,287 Fort Rd,Presque Isle,ME,04769,207-760-9144
J T L Trucking,35 School St,Brewer,ME,04412,207-989-8095
"Flippie's Express, Inc.",78 Depot Rd,Falmouth,ME,04105,207-781-3974
Classic Trucking,292 Mountview Road,Thorndike,ME,04332,207-735-7219
Fubar Transport,Hrc 78 Box 7a,Bucksport,ME,04416,207-469-6321
K & A Trucking,127 Winkumpaugh Road,Orland,ME,04640,207-469-2903
Nichols Trucking,970 Gardiner Rd Lot # 7,Wiscasset,ME,04578,207-882-9769
Sigler Drilling & Blasting,839 Bristol Rd,Bristol,ME,04539,207-563-1614
Panther Transport,1003 Royalsborough Rd,Durham,ME,04222,207-353-8405
Butler Transport,236 Willey District Road,Cherryfield,ME,04622,207-483-2409
Hanson Transportation,1330 Lewiston Rd,New Gloucester,ME,04260,207-688-5394
John's Auto & Marine,61 Bailey Ave,Portland,ME,04103,207-780-8557
Hf Trucking,China Rd Rt 137,China,ME,04926,207-968-2962
Mrc Transport,164 Wardtown Rd,Freeport,ME,04032,207-751-3934
Triple Jjj Trucking,11 Washburn Rd,Presque Isle,ME,04769,207-764-5693
Troll Trucking,Rr 1 Box 302a,Machias,ME,04654,207-255-3880
Jeff Haslam Trucking,517 Sugar Hill Rd,Eastbrook,ME,04634,207-902-3646
Et Express,1452 State Street,Caribou,ME,04736,917-783-1947
L & M Logistics LLC,299 Ryerson Hill Road,South Paris,ME,04281,207-739-2871
G M Trucking,6 Sheltra Avenue,Biddeford,ME,04005,207-294-6415
Meehan Transport,17 Hadley Lake Road,Machiias,ME,04654,845-269-7724
"Northeastern Logistics, Inc.",19 Kevin St,Lewiston,ME,04240,207-795-6491
D&r Transport,226 New Boston Road,Hermon,ME,04401,207-848-7142
J T Beal Trucking,509 Black Duck Cove Rd,Beals,ME,04611,207-497-2854
B & D Trucking,Rte 7,Newport,ME,04419,207-368-2597
Laralee Distributors,200 Elm Street,W Newfield,ME,04095,207-793-3708
Brb Express Co,106 Green Rd Lot 9,Fairfield,ME,04937,207-453-4463
Bulleys Trucking,113 Upper Minot Rd,Pownal,ME,04069,207-688-4120
Lincoln Stone Trucking,17 Stone Road,Dixfield,ME,04224,207-562-4424
J & L Transport,925 Houlton Rd,Westfield,ME,04787,207-429-8540
East Coast Relocation Services,4 Barnard Ln,Eliot,ME,03903,207-475-6653
B M K Transport,9 Sunset View,Gray,ME,04039,207-657-6930
V Thorpe Transportation,39 Raymond Hill Rd,Raymond,ME,04071,207-655-6620
Dunns Transport,40 Haskell Street,Westbrook,ME,04092,207-615-8857
Kdl Trucking,288 Caribou Lake Rd,Caribou,ME,04736,207-498-0924
Gosselin Transportation,305 Annis Road,Hermon,ME,04401,207-848-9816
Triple J Trucking,Box 5785 Bennoch Rd,Lagrange,ME,04453,207-943-2664
Barnes Trucking,146 Loggin Rd,Frankfort,ME,04438,207-223-5949
T Carville Trucking,4 Moody Rd,Lisbon,ME,04250,207-240-6756
R&c Transport,Pritham Ave,Greenville Jct,ME,04442,207-695-4397
R&l Transport,15 Mill Road ,Barleyville,ME,04694,207-427-6320
D'ocean Shore Express,1494 Castine Rd,Penobscot,ME,04476,207-326-8310
R E L Trucking,614 Ledge Hill Rd,Corinth,ME,04427,207-285-3882
Jackson Trucking,194 Main Street,St Francis,ME,04774,207-398-4486
Patriot Transportation,860 Atlantic Hwy Apt B,Northport,ME,04849,207-338-0806
R H Kaelin Trucking,46 Aroostook Scenic Hwy,Hersey,ME,04780,207-528-2625
Lanes Trucking,Rt 25,Limington,ME,04049,207-642-3312
Preble Trucking,159 Pleasant River Rd,Milo,ME,04463,207-943-2227
R M Tate Distributors,33 Centre St,Bath,ME,04530,207-443-8837
Sani Clean Distributors,585 Riverside St,Portland,ME,04103,207-797-8240
Mason's Transportation,Plains Rd,Readfield,ME,04355,207-462-6262
Fitz-sea Transport,South Lubec Rd,Lubec,ME,04652,207-233-8831
Steve Clark Trucking,Rr1 Box 5720,Belfast,ME,04915,207-338-6939
Chelsea Transport,87 Mayfield Rd,Bingham,ME,04920,207-672-4370
J P Fox Movers,43 Tufton St,Brunswick,ME,04011,207-443-4306
C D Trucking,123 State St,Eliot,ME,03903,207-439-0544
J & D Carriers,31 Androscoggin Bluffs,Livermore Falls,ME,04254,207-897-2312
C R Mchenan Trucking,2324 Kennebec Rd,Newburgh,ME,04444,207-234-7230
Trombley Trucking,1676 Chapman Rd,Chapman,ME,04757,207-762-4141
L H Soucy Trucking,Franklin Rd,Hancock,ME,04640,207-422-3587
Mel's Transport,388 Dyer Brook Rd,Dyer Brook,ME,04747,207-757-8331
Presidential Trucking,9 Cider Hill Dr,Springvale,ME,04083,207-324-7723
A Dumais & Sons,328 11th Ave,Madawaska,ME,04756,207-728-4112
Mountain View Transport,415 11th Ave,Madawaska,ME,04756,207-728-6717
Lyn Dayn Express,24 Closson St,Randolph,ME,04346,800-325-6072
Graham Brothers,40 Cary Street,Houlton,ME,04730,207-532-9487
Shern's Transport,Rt 108,Canton,ME,04221,207-597-2157
E L Hollis Trucking,5 Snows Court,N Berwick,ME,03906,207-676-9966
T A Gross Trucking Co,Hcr 69 Box 1440,Cutler,ME,04626,207-259-3392
Smith Carriers,61 Main Street,Mars Hill,ME,04758,207-425-3851
Leiter Transportation,672 Park St,Livermore Falls,ME,04254,207-897-5001
Beaupre Transport,19 Glendale Road,Caribou,ME,04736,207-498-4049
Brian L Kelsey Trucking,68 Center Rd,Gray,ME,04039,207-657-2452
Jct Trucking,2159 Essex St,Bangor,ME,04401,207-990-4406
Mel's Light Trucking,153 Ocean Ave,Portland,ME,04103,207-773-1528
Tuckers Trucking & Moving,366 West Commercial St,Portland,ME,04112,207-761-0193
Hutton Transport,262 Maple Drive,Gorham,ME,04038,207-839-0424
K V French And Sons Trucking,156 Goodwins Mills Rd,Lyman,ME,04002,207-499-0193
Last Chance Trucking,5 Highland Cliff Road,Windham,ME,04062,000-892-3739
"Lighthouse Logistics, Inc.",216 Skowhegan Rd,Fairfield,ME,04937,207-453-6600
Donna Littlefield Trucking,10 State Highway 150 South,Parkman,ME,04443,207-876-3347
S G Homstead Trans,303 Kennebec Rd,Hampden,ME,04444,207-862-2256
P M Express,4 Mt View Drive,Winterport,ME,04496,207-223-5239
Furlongs J & L Transport,334 Lewiston Rd,New Gloucester,ME,04062,207-776-9129
Joel Woodward & Son Trucking,1 Clay Brook Dr Apt 1,Dayton,ME,04005,207-499-7511
"Snowdeal Trucking, Inc.",333 Herrick Valley Rd,Poland,ME,04274,207-988-4983
North Haven Transport,Main St,North Haven,ME,04853,207-867-4649
Wayne's Mobile Home Transport,1325 Alfred Rd,Lyman,ME,04002,207-499-7561
Chase Transport,23 Kingsbury Ln,Frankfort,ME,04438,207-223-3971
Dave's Trucking,360 Ossipee Trail West,Standish,ME,04084,207-939-7872
Tibb's Trucking,1111 Tasker Rd,Augusta,ME,04330,207-622-9207
Nitemare Express,797 Neck Road,So China,ME,04358,207-660-2538
Macdonald & Duaghter Livestock Transportation,551b Cobbs Bridge Rd,New Gloucester,ME,04260,207-926-5952
Burtchell Truck Brokerage,90 Main St,Mars Hill,ME,04758,207-429-8093
L&s Transport,7 Cross St,Fort Fairfield,ME,04742,207-473-7682
Crawford's Trucking,41 Embden Pond Rd,North Anson,ME,04958,207-635-3203
Schmidt Transport,26 Silver St,Mars Hill,ME,04758,207-429-8381
Asc Trucking,5 Johnson St,Lewiston,ME,04240,207-786-4587
J C Ferland Transportation,20 Sherwood Dr,Auburn,ME,04210,207-784-2525
J A M Express,332 Court St,Houlton,ME,04730,207-532-9377
Chopper & Sons,1979 St John Rd,Fort Kent,ME,04743,207-834-6925
Claude L Couture Transport,297 Webster St,Lewiston,ME,04240,207-782-3709
Da Gardner Trucking,581 Main St,St Francis,ME,04774,207-398-4278
Lattig Trucking,11 South Road,Lee,ME,04555,207-746-5010
Northland Enterprises,447 Silver Ridge Rd,Silver Ridge Twp,ME,04776,207-365-6055
Bishops Trucking,38 Eastern Rd,Frankfort,ME,04438,207-223-4849
Dc Trucking,106 Kirkland Road,Old Town,ME,04468,207-827-2530
David A Josephson Trucking,Slab City Rd,Lovell,ME,04051,207-928-2036
G E Transport,Bush Rd,Canaan,ME,04924,207-474-7467
K&t Transportation,406 Country Club Rd #3,Sanford,ME,04073,207-676-5550
S Carmichael Jr & Son Trucking,805 Bangor Rd,Troy,ME,04987,207-323-1226
Kodiak Transport,P O Box 1523,Presque Isle,ME,04769,207-764-6475
"John Garnett Trucking, Inc.",Route 100 Burnham Rd,Pittsfield,ME,04967,207-487-2802
Wil Max Trans,589 Drews Lake Rd,New Limerick,ME,04761,207-532-7031
John Scesny Trucking,235 Elm St,Bangor,ME,04401,207-992-6566
T E K Transport,28 Hinderliter Rd,Corinth,ME,04427,207-285-7659
Pierpont Trucking,479 Jefferson Rd,Washington,ME,04574,207-845-2158
J D Transport,138 Cheryl Lane,Oxford,ME,04270,207-539-8751
Bolz's Service,55 State Rd,Kittery,ME,03904,207-439-3332
Here & There Auto,456a Garland Rd,Dexter,ME,04930,207-924-3515
Chandler Trucking,36c Island Ave,Fairfield,ME,04937,207-453-8504
Tessier Trucking,41 Pike Rd,Livermore,ME,04253,207-897-8323
Fuzzys Trucking,196 Violet Lane,Waldoboro,ME,04572,207-563-6584
Klc Trucking,176 Lancaster Brook Rd,Glenburn,ME,04402,207-947-0623
Beach Bound Trucking,34 Strout Rd,Kenduskeag,ME,04450,207-884-8677
J T Trucking,4 Heart Break Lane,China Village,ME,04926,207-968-3449
Maddog Express,897 Van Buren Road,Caribou,ME,04736,207-493-1049
Kimball Express,543 Winslow Mills Rd,Waldoboro,ME,04572,000-000-0207
N & S Trucking,1985 New Vineyard Rd,New Vineyard,ME,04956,207-246-5314
J & C Trucking,324 Lewiston Rd,Mechanic Falls,ME,04256,207-345-3581
Dave Archer Trucking,29 Blueberry Lane,Dixmont,ME,04932,207-234-7249
Outlaw Trucking,10 Greenleaf St,Wilton,ME,04294,207-645-5314
Dan Corliss & Son Trucking,56 Worster Rd,Berwick,ME,03901,207-457-6265
Hines Trucking,200 Stevens Rd,Swanville,ME,04915,207-322-4358
W & J Trucking,226 Hathaway Rd,Mattawamkeag,ME,04459,207-736-3253
Raymond Transport,488 New Canada Rd,New Canada,ME,04743,207-834-2832
Bob & Rae Horse Transportation,40 Aa Landing Rd,Glenburn,ME,04401,207-942-0317
Silverfox Trucking,123,Milo,ME,04463,207-696-4246
Dlb Trucking,113 Bragdon Hill Rd,Poland,ME,04274,207-225-5245
Coast 2 Coast Trucking,64 Biscay Road,Damariscotta,ME,04543,207-563-2072
Brackett Trucking,119 Starling St,W Farmington,ME,04992,207-778-4878
Triple D Transport,308 Bagley Hill Rd,Troy,ME,04987,207-948-6184
"Ces, Inc.",115 Beath Rd,Boothby,ME,04537,207-633-5118
Double Diamond Transport,256 Hanscam Rd,Benton,ME,04901,207-453-1352
Dicks Auto & Truck Glass,34 Industrial St,Presque Isle,ME,04769,207-764-0657
M G Shove,221 Peterview Road,Durham,ME,04222,207-353-5281
Steeves Trucking,2595 Mud Mill Road,Augusta,ME,04330,207-582-9015
J P Kist Trucking,19 Town Farm Rd,Harrison,ME,04040,207-890-7067
Asap Moving & Delivery,41 Heikkinen Road,Bryant Pond,ME,04219,207-674-2141
Autoride Vehicle Transport,84 Airport Rd,Wells,ME,04090,207-252-1831
Ii Hawg Trucking,290 Spearin Rd,Alexander,ME,04694,207-454-8901
Backroad Express,1761 County Road,New Limerick,ME,04761,207-532-4446
Eagle Transport,787 Neck Road,South China,ME,04358,207-968-2744
S & J Transport,375 Dover Rd,Sebec,ME,04426,N/A
W M Oxton & Sons Transport,309 Jefferson Rd,Washington,ME,04574,207-691-3987
"Streamside Transport, Inc.",746 Stream Road,Winterport,ME,04496,207-525-0977
Shorthaul Trucks,13 Hattie Pike Rd,Fryeburg,ME,04037,207-935-8990
Rangers East Trucking,11 Reagan Lane,Litchfield,ME,04350,207-268-4128
A Esman Transport,70 Norris Pt Rd,Litchfield,ME,04350,207-268-2485
Doughty's Trucking,36 Elwood Lane,Gorham,ME,04038,207-892-3802
R&v Trans,Box 1044 B Road,Hammond,ME,04730,207-532-9030
R & R Acres Milk Transport,661 Pottle Hill Rd,Minot,ME,04258,207-345-0087
T & M Transportation,211 Walker Hill Rd,Wilton,ME,04294,207-645-4139
Jabez Transport,300 Old Alfred Rd,E Waterboro,ME,04030,207-247-5682
Beaumier Trucking,641 Gray Rd,Gorham,ME,04038,207-892-9781
A C E Express,87 Manley Rd Apt 29,Auburn,ME,04210,207-577-7047
Vacationland Snacks Ltd,26 Evergreen Drive,Portland,ME,04103,207-878-3871
K W Trucking,Garrison Hill Road,Houlton,ME,04730,207-649-0028
Austin's Equipment Service,300 Blanchard Rd,Springvale,ME,04083,207-324-0331
Consolidated Wood Distributors,Hcr 78 Box 7a Central Street,Bucksport,ME,04416,207-469-7135
Kimberly's Mobile Home Moving,Rfd 1 Box 7185,Oakland,ME,04963,N/A
R P G Trucking,330 Delchadbourne Rd,Bridgton,ME,04009,207-647-8989
Cyr Transport Co,626 Main Street,Van Buren,ME,04785,207-868-5058
Baker Trucking,Rt 1 Box 277,Island Falls,ME,04747,N/A
Whitney's Trucking,P O Box 286,East Corinth,ME,04427,207-327-1067
B & S Distributors,13 Orchard Rd,Kezar Falls,ME,04047,207-625-8756
Wings Express Airport Shuttle,305 Commercial Street,Portland,ME,04101,207-828-9464
Pearl Street Trucking,14 Pearl Street,Augusta,ME,04330,207-621-6262
Woodchuck Trucking,Route 201 Main St,Moose River,ME,04945,207-668-4445
Chase Trucking,Box 657a Lambs Mill Road,Naples,ME,04055,207-693-3035
Stephen Morin Trucking,203 Blanchard Rd,Cumberland Center,ME,04021,207-829-3097
Jingles Transport,Rt 1 Box 762,Monmouth,ME,04259,207-946-3005
Autotronics,129 Us Route 1,Frenchville,ME,04745,207-543-6262
Gwf Transport,Rr 2 Box 583 North Rd,Yarmouth,ME,04096,207-846-5041
Gibbs Auto Sales,Back Belmont Road,Belfast,ME,04915,207-338-2641
Jos E Mclaughlin & Son Trucking,3377 Military Road,Haynesville,ME,04497,207-448-7724
J & S Trans,4 Academy Place #7,Saco,ME,04072,207-286-9411
Doug's Tractor Service,Bog Rd,Albion,ME,04910,207-437-2384
Katahdin Trucking,7 River Rd,Orrington,ME,04474,804-687-3144
R & T Auto Transport,29 Ferry Rd Apt #4,Saco,ME,04072,N/A
J & D Transport,38 Joe Ave,Winslow,ME,04963,207-872-0657
Ace Express,119 Warwick St,Portland,ME,04102,207-879-2442
P & M Trucking,Brewer Lake Rd,Orrington,ME,04474,207-825-4058
R W Clark Trucking,324 Phinney Farm Rd,Lincoln,ME,04457,207-765-2681
J & K Trucking,Rr 3 Box 9670 Sidelinger Rd,Union,ME,04862,207-785-2667
R L Knepshield Transportation,149 Ross Corner Rd,No Waterboro,ME,04061,207-247-3028
B Godfrey Transport,Rfd 2 Box 2552 Ridge Road,Newport,ME,04953,207-257-4606
Dipietro Trucking,110a Wardtown Road,Freeport,ME,04032,207-865-9602
Tri-county Service,Rr 1 Box 39a,Ellsworth,ME,04605,207-667-8131
Hawg Trucking,21 Saucier Lane,Fort Kent,ME,04743,207-834-3455
Sea Fox Transport Company,127 So Main St,Rockland,ME,04841,207-596-7058
Lemay's Enterprise,110 Little Field Road,Lisbon,ME,04250,207-650-0683
B A Gray Transportation,758 Old Augusta Rd,Warren,ME,04864,207-542-5501
Barbara J French Trucking,166 Hussey Hill Rd,Oakland,ME,04963,207-948-2307
Rh Alley Trucking,38 Cranberry Lane,Jonesport,ME,04649,207-497-2466
Patterson's Trucking,8 Clark Road,Detroit,ME,04929,207-257-4053
"Jake's Express, Inc.",P O Box 115 Shaw Road,Houlton,ME,04730,207-538-4041
C J B Transport,Rr #1 Box 8049 E Gate Trl Park,Limestone,ME,04750,207-328-4229
"D&l Mitchell Trucking, Inc.",Rr 220 Box 1420,Troy,ME,04987,207-948-5687
Concept Leasing Services,157 Fox St,Portland,ME,04101,207-874-0818
Riverside Trailer Transfer,12 Drum Barker Road,Augusta,ME,04330,N/A
Kennard Trucking,381 Dorsey Rd,Fort Fairfield,ME,04742,207-316-9365
South Paw Transport Co,6 Thomas Rd,York,ME,03909,207-363-3640
Ksf Transport,265 Main Road,Bridgewater,ME,04735,207-425-7149
Scott Menzel Trucking,2000 Us Hwy 1,Cary Plt,ME,04471,207-694-4601
Stephan J Clark Hill Express,71 Cove Road,Winterport,ME,04496,207-223-5509
Rj Berard Trucking,Rfd 1 Box 1965 Pleasent Vw Rd,China,ME,04926,207-968-2900
"Dunlop Transport, Inc.",589 Post Road,Bowdoinham,ME,04008,207-208-7993
Wade's Automotive,Route 202,Lebanon,ME,04027,207-339-2122
Earle E Palmer Trucking,31 Pioneer Street,West Paris,ME,04289,207-743-6923
R P H Transport,19 Hampshire Street,Auburn,ME,04210,207-786-3488
Zands Express,Rr 4 Box 1404,Houldon,ME,04730,207-521-0277
Bouchard Trucking,199 South Perley Brook Rd,Fort Kent,ME,04743,207-834-6055
R B T Trucking,10 Reach Road,Presque Isle,ME,04769,207-764-2612
Rendal Poulin Trucking,101 Howard Hill Rd,Highland Plantation,ME,04961,207-628-6318
Blanchard Trucking,122 Lamoine Beach Rd,Lamoine,ME,04605,207-667-1280
Albert Transport,31 26th Avenue,Madawaska,ME,04756,207-728-7884
Elliot Transport,2 North School St,Skowhegan,ME,04976,207-474-0457
Rg & Son Trucking,10 Ryans Lane,Limington,ME,04049,207-793-2665
Trenoweth & Sons Trucking,484 Paris Hill Rd,Buckfield,ME,04220,207-336-2694
Tm Lambert Trucking,20 Roberta Street,Farmingdale,ME,04344,207-582-4838
Scott Jackson Trucking,2801 Appleton Ridge Rd,Appleton,ME,04862,207-785-2153
M P Preble Trans,34t3 Loop Rd South,Searsport,ME,04974,207-548-6711
C & D Transport,Rt 125 Box 984,Bowdoin,ME,04252,207-353-4578
Wolfe Enterprises,163 N Chesterville Rd,Farmington,ME,04938,207-778-0121
York's Trucking,Rr #1 Box 4280,S China,ME,04358,207-993-2589
Tfi Trucking,R1 Box 3935,Leeds,ME,04263,207-524-2095
Dana Flanders Trucking,Twitchell Road,Plymouth,ME,04969,207-257-4441
Athena's Seafood Transport,#179 Scituate Road,York,ME,03909,207-438-9793
Chase Stream Trucking,Rfd #1 Box 3117,Solon,ME,04979,207-643-2734
M & J Trucking,280 North Maine St Ap 6,Old Town,ME,04468,207-827-9126
Hayley's Express,Middle River Rd,Green Bush,ME,04423,207-827-5969
Paul Mckechnie Trucking,Rr2 Box 280,Stetson,ME,04488,207-296-3525
R Marston Trucking,600 Shaker Road,New Gloucester,ME,04260,207-926-5661
A Murphy Trucking,542 Hammond St Apt 9,Bangor,ME,04401,207-262-9416
Sst Express,182 Church Rd,New Gloucester,ME,04260,207-926-5316
Mcarthur's Trucking,78 S Princeton Rd,Alexander,ME,04694,207-454-7410
J M Bean Trucking,751 Bacon Rd,Charleston,ME,04422,207-285-3333
J L Smith Trucking,518 N Bend Road,Surry,ME,04684,207-667-1142
S J Hamel & Sons Trucking,Rr 1 Box 3692,Weeks Mills,ME,04358,207-445-4480
A & E Transportation,1512 Riverside Drive,Vassalboro,ME,04989,207-623-4741
Auto-tech,581 Prospect Avenue,Rumford,ME,04276,207-364-2654
Bob's Airport Livery & Tour Service,25 Alton Street,Portland,ME,04103,207-773-5135
Ken's Trucking,Rt 120 116 Roxbury Rd,Andover,ME,04216,207-392-2852
J & M Trucking,26 Countryside Mhp,Waterville,ME,04901,207-872-5903
Macdonald Trucking,Bangor Road,Houlton,ME,04730,207-532-4733
S & D Transportation,Rt 11 & 43,Exeter,ME,04435,207-379-3143
Dc Parmenter Trucking,Po Box 144,China,ME,04926,N/A
Landry Wood Enterprises,51 Houlton St Box 679,Patten,ME,04765,207-528-2372
Wolf Auto,97 New Bridge Road,Lebanon,ME,04027,207-658-4243
R J Beaulieu Logging And Trucking,Rr 1 Box 2260,South China,ME,04358,207-445-2785
Collie Express,31 Robinson Hill Rd,Oxford,ME,04270,207-345-3806
Dave Bond Trucking,74 Beech Ridge Rd,Eliot,ME,03903,207-439-3738
D C Express,5 Lake St,Presque Isle,ME,04769,207-764-7851
Bailey Family Trucking,33 Burr,Brewer,ME,04412,207-989-1042
Bob's Used Auto Parts,Rr 2 Rt 17,Chelsea,ME,04330,207-582-3559
Proberts Trucking,Rt 11,Patten,ME,04765,207-528-2052
D & J Transportation,531 S Monmouth Rd,Monmouth,ME,04259,207-933-4872
R Jimmo Trucking,Route 227,Ashland,ME,04732,207-435-6915
C & A Transport,Rr 1,Monticello,ME,04760,207-538-9323
Rh Calder & Son Trucking,Rr # 1 Box 630,Lubec,ME,04652,207-733-9719
L & G Transport,Twin Pines Estates Lot 3,North Waterboro,ME,04061,207-793-4084
Stinson Transport,32 Hudson Road,Corinth,ME,04427,207-285-3565
B&k Recycling,Route 321,E Vassalboro,ME,04935,207-873-4022
Macleod Trucking,69 Violette Avenue,Waterville,ME,04901,207-873-1066
Abc Transport,Rfd #1 Box 1920,Peru,ME,04290,207-562-7233
C H Drew Unlimited,79 Center Drive,Orrington,ME,04474,207-825-3027
Harvey & Son Transportation,94 School Street,Brooks,ME,04921,207-651-0491
J D M Trucking,11 A Littlefield St,Augusta,ME,04330,207-621-4146
K & M Trucking,332 Newellbrook Rd,Durham,ME,04222,207-353-3253
Al's Transport,28 Big Ridge Road,Addison,ME,04606,207-497-5431
Top Notch Trucking,Po Box 34 Rt 171,Wytopitlock,ME,04497,207-456-7884
Hall Trucking,Halls Mills Road,Whiting,ME,04691,207-259-4444
Gw Trucking,120 Milburn St,Skowhegan,ME,04976,207-474-3025
Hats Trucking,Hc 63 Box 582,Greenfield,ME,04423,207-827-5479
G & D Trucking,Po Box 137,West Enfield,ME,04493,207-732-3222
G & T Trucking,Route 1a,Limestone,ME,04750,207-325-4125
R E Jones Trucking,727 Main Street,South Waterboro,ME,04087,207-247-4946
Ketch's Trucking,Po Box 35,Passadumkeag,ME,04475,207-732-4511
W N Reed Trucking,208 Togus Rd Route 226,Chelsea,ME,04330,207-582-5225
J P Transport,58 Blueridge Drive West,Sidney,ME,04330,207-547-7483
B & J Transportation,13 Station Street,Bridgewater,ME,04735,207-429-9663
Lapierre Trucking,352 Mountain Road,Alfred,ME,04002,207-651-0132
Sullivan Trucking,383 Presque Isle Road,Ashland,ME,04732,207-435-7933
Raymond Gagne Jr Trucking,314 Center St,Auburn,ME,04210,207-782-3630
Preferred Auto Transport,14 Mckinley Drive,Lewiston,ME,04240,207-783-8014
Waynes Transport,127 Mckinley Street,Van Buren,ME,04785,207-868-3467
Tri Axle Service,41 Whitney Street,Auburn,ME,04210,207-786-8581
Chris' Trucking,22 Willowdale Drive,Gorham,ME,04038,207-623-4128
A J A Distribution,672 North St,Houlton,ME,04730,207-532-9335
She & I Trucking,32 Gomba Road,Windom,ME,04062,N/A
Mazco Logistics,2 Bradley Hill Rd,Minot,ME,04258,207-966-2465
"J V C Transport, Inc.",22 Page Road #3,Windham,ME,04062,207-892-9142
Munsell Trucking,282 Stickney Hill Rd,Brownville,ME,04414,207-965-8850
R&r Carson Trucking Co,336 Lane Rd,New Sharon,ME,04955,207-778-0734
Robbins Bros Fuel,142 Church Street,Belfast,ME,04915,207-338-2713
Silver Star Transport,Rt 3,Searsmont,ME,04973,207-342-5572
Wm L Moore Trucking,302 West Mills Rd,Anson,ME,04911,207-696-3112
Morrells Septic Tank Service,580 Richville Road,Standish,ME,04084,207-642-3473
Midnight Express,Rt #2 County Rd,Houlton,ME,04763,207-532-9402
Eagle Express,33 Clover Circle,Houlton,ME,04730,207-532-6356
Rideout Transport,58 Canty Lane,Litchfield,ME,04350,207-582-6295
"D A N Trucking, Inc.",28 Main Street,Patten,ME,04765,207-528-2306
Murphy's Trucking,Rr 2 Box 515,Buckfield,ME,04220,207-336-2893
Kinney Transport,1490 State Street Lot 46,Veazie,ME,04401,207-945-9731
J D Enterprises - Northwind Trans,1677 Aroostook Rd,Soldier Pond,ME,04781,207-444-6465
Son-jo Trucking,1217 County Rd,New Limerick,ME,04761,207-532-9103
D Whitley Trucking,3230 Twitchell Road,Plymouth,ME,04969,207-257-2709
Pms Express,25 South Mcintyre Rd,Hodgdon,ME,04730,207-521-2422
Jordan Trucking,23 Jordan Drive,Leeds,ME,04263,207-946-7679
Jim's Mobile Home Service,15 Bergeron Rd,Greene,ME,04236,207-375-4629
L'heureux Trucking,220 Jagger Mill Road,Sanford,ME,04073,207-324-6540
Mainly Automotive,6 Drift Road,Fryeburg,ME,04037,207-935-2878
Cst Transportation,20 Tannery St,Bridgewater,ME,04735,207-425-5041
T S T Produce Transportation,Resevoir Street,Houlton,ME,04730,207-532-6427
Jade Express,701 Main St,Van Buren,ME,04785,207-868-2863
C & C Trucking,1161 Webb Road,Knox,ME,04986,207-568-3247
Johnston Hot Top Service,337 Brown Rd,Woodland,ME,04736,207-492-3121
Longley's Trucking,Po Box 245,N Anson,ME,04958,207-635-2740
Steve R Gobeil Trucking,205 Blueberry Rd,Waterboro,ME,04087,207-247-5352
Cfs Trucking,Moody Pond Road,Windsor,ME,04363,207-549-7477
Goods',444 Irish Road,Carmel,ME,04419,207-848-0953
Daniel A Brown & Sons Trucking,399 Anderson Road,Orneville Twp,ME,04463,207-943-5631
R L C Trucking,138 Mountain Rd,Woolwich,ME,04579,207-442-8600
Glidden Trucking,789 Acadia Highway - Rt 3 Liberty,Montville,ME,04941,207-589-3400
J & L Trucking,Bennoch Rd,Lagrange,ME,04453,207-943-7344
Rmc Trucking,1001 Route 2,Winn,ME,04495,207-736-4403
Norman Voisine & Sons Trucking,66 Pond View Road,Wallagrass,ME,04781,207-834-5292
Gray Transportation,1023 Washington Avenue,Portland,ME,04103,207-774-3150
Dirigo Transport,Lot # 2 Pineland Forest,Winthrop,ME,04364,207-395-2417
James E Henthorn Transport,Box 478 Cross Rd,Washburn,ME,04786,207-493-9022
H J Dyer Trucking,467 Foss Raod,Limerick,ME,04048,207-793-8809
Service Plus Heating,661 Alfred Rd,Arundel,ME,04046,207-985-4140
J P Donaghue Transportation,27 Morrill Road,Norway,ME,04268,207-743-7178
David W Curtis Trucking,124 Durham Rd,Freeport,ME,04032,207-865-9381
Marc Morin Trucking,Cherette Hill Rd,Fort Kent,ME,04743,207-834-2253
Farmer Excavating & De Farmer Trucking,591 Mercer Rd,Norridgewock,ME,04957,207-634-3687
Jag Trucking,469 River Rd,Bowdoinham,ME,04008,207-353-2408
E R Adams Transport,388 High Street,Gardiner,ME,04345,207-582-7191
Moulton Truck Lines,35 Fairfeild Street Apt B,Oakland,ME,04963,207-509-5586
Daigle Trucking,292 West Broadway,Lincoln,ME,04457,207-794-8411
Nichols Express,20 Grove St,Houlton,ME,04730,207-532-1094
Lanes Trucking,Rr1 Box 685 Stage Road,Frankfort,ME,04438,207-223-5594
Mjw Trucking,Rr 1 Box 4274,South China,ME,04358,207-993-2815
Ahearns Express,132 Libby Hill Road,Gardiner,ME,04345,207-582-3091
Traditions Trucking,328 Summer St,Oakland,ME,04963,207-465-2766
Dwight Trucking,234 Paris Hill Rd,Paris,ME,04271,207-743-0813
Anderson Transport,6a Two Rod Road,Gray,ME,04039,207-831-7976
Eastup Transportation,739 Hanson Road,China,ME,04926,207-968-2994
Rc Transport,Box 73,Bridgewater,ME,04735,207-429-9287
P & D Trucking,7 West St,Houlton,ME,04730,207-521-0140
M & S Trucking,12 Kimball Dr,Medway,ME,04460,207-746-9654
Rod Larrabee Trucking,1161 Webb Road,Knox,ME,04986,207-332-6381
Bill Archer Transport,36 Whispering Pines Circle,Wells,ME,04090,207-646-5629
Marc Alan's Auto Sales,921 Sabattus Street,Lewiston,ME,04240,207-782-1465
D C Transport,311 Airport Rd,Norridgewock,ME,04957,207-634-3655
Stewart Trucking,61 Grasshopper Lane,Lyman,ME,04002,207-499-7531
G & R Trucking,161 Glen View Dr,Skowhegan,ME,04976,207-474-6815
Gil Morang Jr Trucking,Rri Box 438,Windsor,ME,04330,207-549-3879
A Thorpe Trucking Transportation,447 Webbs Mill Road,Raymond,ME,04071,207-655-6620
Norumbega Moving & Storage,39 Marshall Brook Road,Southwest Harbor,ME,04679,207-244-7295
Yarmouth Airport Transportation Company,708 Rt 1 Box 4,Yarmouth,ME,04096,207-846-9336
Don's Transport,979 Essex St Lot 135,Bangor,ME,04401,207-942-5794
Bri's Trucking,3 Hilltop Circle,Penobscot,ME,04429,207-989-8026
Fryeburg Auto Repair & Sales,10 Portland Street,Fryeburg,ME,04037,207-935-2392
J&g Transport,317 College Rd,Greene,ME,04236,207-946-4783
Transport Solutions,409 Oxbow Road,Palmyra,ME,04965,207-368-3229
B & S Trucking & Sons,198 Main St Rte 1,Princeton,ME,04668,207-796-2258
"A L R, Inc.",167 Rumery Street #4,South Portland,ME,04106,207-799-1899
Farrar's Trucking,Rt #2,Mattawamkeag,ME,04459,207-736-2445
Piela Oil Company,22 Davis St,Lisbon Falls,ME,04252,207-353-6228
Jeff Lambert Trucking,Burrill Hill Rd,Norridgewock,ME,04957,N/A
M & R Trucking,306 Fuller Corner Rd,Hartland,ME,04943,207-938-3054
T & J Trucking,653 Main St,Vanburen,ME,04785,207-868-5794
Rob Brewer Trucking,22 Collins Mill Rd,West Gardiner,ME,04345,207-724-2680
Sea Breeze Auto,434 Little Field Rd,Wells,ME,04090,207-641-8676
Sparks Trucking,453 Flag Pond Rd,Saco,ME,04072,207-282-1390
S C Denny Trucking,East Side Road,Addison,ME,04606,207-483-4559
Smitty's Trucking,1360 Littlefield Rd,Wells,ME,04090,207-646-0748
A K A Transport,122 Forest Rd,Warren,ME,04864,207-354-0540
Bas Transportation,Rural Route 1 Box 2270,Vassalboro,ME,04989,207-873-4712
Bd Pepper Trans,2 Gilmore Brook Rd,Dresden,ME,04342,207-737-4964
Total Service Trucking,17 Range Rd,Brunswick,ME,04011,207-725-7382
Frederick Botting Trucking,649 B Rd,Houlton,ME,04730,207-532-2034
Lowe's Transport,21 First St Apt 1,Bangor,ME,04401,207-990-0072
William J Wentworth Trucking,Route 102,Bass Harbor,ME,04653,207-244-0957
Hargreaves Trucking,Rr3 Box 3942,Farmington,ME,04938,207-778-9021
Cummings Auto Repair & Sales,177 Plains Road,Harrison,ME,04040,207-743-9256
Huff's Transport,89 Evans Street,South Portland,ME,04106,207-329-2524
R L Rouillard Trucking,Summerhaven Rd,Manchester,ME,04351,207-215-9048
Oak'n Dale Trucking,1570 Dodlin Rd,Enfield,ME,04457,207-732-6098
C & D Trucking,Long Falls Dam Rd,N New Portland,ME,04961,207-628-3071
L&s Reed Trucking,Route 168,Winn,ME,04495,207-736-2403
E & A Trucking,Route 1 Box 37910,Pembroke,ME,04666,207-454-7969
P R Russell,699 Main St,Richmond,ME,04357,207-737-8543
"Kennebec Trk Co, Inc.",120 Payne Rd,South Portland,ME,04106,N/A
Sherwood Express,81 Water Street,Howland,ME,04448,N/A
Cole's Express,444 Perry Rd,Bangor,ME,04401,207-942-7311
Charles P Coffin Trucking,70 Main Street,West Paris,ME,04288,207-583-2262
Ernest York Trucking,136 Main Street,Mars Hill,ME,04758,207-429-9896
Crazy Horse Trucking,Rfd 2,Presque Isle,ME,04769,N/A
L & F Transport,1124 Houlton Road,Westfield,ME,04787,207-429-9029
Bits & Pieces Delivery & Courier Service,226 Anderson St,Portland,ME,04101,207-774-5594
Qft,305 Milo Rd,Sebec,ME,04481,207-564-2245
Brunswick Truck Service,361 Fern Street,Turner,ME,04282,207-225-3188
Lawrence & Co,21 Saratoga St,Lewiston,ME,04241,207-783-1433
Dale Boutilier And Son,Spaulding Lake Rd,Oakfield,ME,04763,207-757-8654
C & G Transport,Box 263,Mars Hill,ME,04758,207-425-4361
E D Trucking,153 Exeter Rd,Corinth,ME,04427,207-285-7969
Mark H Dowling Transportation,75 Evergreen Rd,Calais,ME,04619,207-454-3199
Proglass Distributors,865 Spring Street,Westbrook,ME,04092,207-775-3703
Finestkind Boatyard,Perkins Cove,Ogunquit,ME,03907,207-646-5227
Prestile Transport,4 Military Rd,Blaine,ME,04734,207-429-8611
Richard E Allen Trucking,164 Walker Rd,Hodgdon,ME,04730,207-532-3533
Harold L Rolfe Trucking,24 Maine St,Albany Twp,ME,04217,207-928-2840
G & S Transport,2611 N Palermo Rd,Palermo,ME,04354,207-993-2281
R & W Trucking,Rfd 2 Box 442,Hollis Center,ME,04042,207-499-7424
Ramjet Trucking Co,112 Elm Street,Newport,ME,04953,207-368-5034
D & D Transport,238 Damascus Rd,Carmel,ME,04419,207-848-5164
Donre Pierre Farms,233 Portland Street,South Berwick,ME,03908,603-781-6568
Aarrow Transportation,12 Washington St,Biddeford,ME,04005,N/A
Mnm Transportation,326 Littleton Station,Littleton,ME,04730,207-538-1208
Walts Trucking & Maple View Transport,61 Tuttle Rd,Corinna,ME,04928,207-278-3621
D&e Trucking,45 Old South Rd,South Berwick,ME,03908,207-384-2196
T E Duran & Sons,242 Main Street,Corinth,ME,04427,207-285-3650
Shelby Transportation,93 East Ridge Road,Mars Hill,ME,04758,207-429-9183
Productive Sales Agency,Rr 1 Box 2026,Kennebunk,ME,04043,207-967-4683
Vaillancourt Transport,110 Church Street,Van Buren,ME,04785,207-868-5065
Philip Services North Atlantic,22 Alden Rd,Bangor,ME,04401,207-945-9800
Cotton Wrecker Service,180 Evans Street,South Portland,ME,04106,207-799-2060
Mccoy Transport,Old Alfred Rd 3380,East Waterboro,ME,04030,207-247-5587
Steven's Trucking,428 Howe Road,Whitefield,ME,04353,207-549-5776
Brooks Transfer Co,14 Pond View Drive,Scarborough,ME,04074,207-883-3044
Richwood Farms,79 Hatchet Mtn Road,Hope,ME,04847,207-763-3308
Billy Lorom Trucking,268 Thompson Settlement Rd,Oakfield,ME,04763,207-757-7141
Charles E Harkins Iii Trucking,481 Phillips Rd Route 142,Weld,ME,04285,207-585-2464
Farwell Trucking,110 River Road,Lewiston,ME,04240,207-782-5750
D & N Transportation,Rr 1 Box 6675,Kenduskeag,ME,04450,207-884-8629
N B Transport,Rt 1 Box 307,Princeton,ME,04668,N/A
Ricki L Reed,Rr 1 Box 4400,Etna,ME,04434,N/A
Co-pilot Express,10 St John Street,Old Orchard Beach,ME,04064,207-934-2988
Triple D Trucking,P O Box 835,Caribou,ME,04736,000-000-0207
Rc Roy Transport,Us 51 Route 1 Apt #2,Frenchville,ME,04745,207-728-7684
Brady Express,Box 217,Monticello,ME,04760,207-538-9829
Breslin Specialized Transportation,1703 Pequawket Trail,Hiram,ME,04041,207-623-4128
Mj Lynds Trucking,276 Fletcher Rd,Monticello,ME,04760,207-551-8504
"Hjjk Ventures, Inc.",405 Western Ave #324,South Portland,ME,04106,207-773-2375
Al Henriksen Transportation,694 Grant Road,Corinth,ME,04427,207-884-3049
Glenn B Goodwin Trucking,Rr 1 Box 536a,Kennebunkport,ME,04046,207-985-6551
L G Moody Trucking,Rr 1 Box 261 Old Fort Road,Easton,ME,04740,207-448-6977
J&n Trucking,Maple Terrace Drive,East Wilton,ME,04234,207-645-4127
Total Waste Transportation Service,Fligo Road,Yarmouth,ME,04096,207-846-5669
D & K Trucking,Route 136,Lisbon Falls,ME,04032,207-865-6285
Thompson Trucking,114 North Rd,Fayette,ME,04349,207-897-6344
R Bruce Ellis Trucking,656 Main Street,Moose River,ME,04945,207-668-2361
Webber Trucking & Construction,642 Reeds Mill Rd,Madrid Twp,ME,04966,207-639-2143
Joe Maile Transport,621 Van Buren Rd,Caribou,ME,04736,207-493-1542
Thibeault Energy,190 Pleasant Street,Brunswick,ME,04011,207-729-3337
In Country Transport,387 Ridge Road,Plymouth,ME,04969,207-257-3452
S E Tarr Trucking,Rr 1 Box 388,Oakfield,ME,04763,207-757-8814
Jeminard Trucking,Clark Road,Smyrna Mills,ME,04780,207-757-8414
"Pleasant Mountain Trucking, Inc.",Lake Road Firelane 83,Denmark,ME,04022,207-935-4300
Ingraham Trucking,350 Belfast Road,Knox,ME,04986,207-568-3499
Charrier's Carriers,24 West Street,Newport,ME,04953,207-368-2002
Dayton Used Cars & Trucks,Route 35,Dayton,ME,04005,207-929-3607
Drl Transport Co,298 H Densmore Road,Sidney,ME,04330,207-547-3259
Dubois Trucking,P O Box 205,Frenchville,ME,04745,207-543-6473
Norsk Auto Transport,19 Brookhaven Dr,Windham,ME,04062,N/A
Morrissey Industrial Services,145 River Road,Lewiston,ME,04240,207-783-4260
Roger Tabor Trucking,3 Pleasant Street,Eastport,ME,04631,207-853-2318
Southern Maine Auto Recyclers,416 C Beaver Hill Road,Springvale,ME,04083,207-324-5523
Art Transport Services,90 Harold Street,Lewiston,ME,04240,207-786-3558
J R Trucking,Cannan Street Apts #5,Fort Kent,ME,04743,207-834-5398
P & J Enterprises,Fire Lane M-11,Casco,ME,04015,207-627-7348
J D Landry,9 Church Street,Patten,ME,04765,207-731-3906
C & W Transfer,24 Skyline Street,Scarborough,ME,04074,207-883-6896
C & L Trucking,247 Fourteenth Street,Bangor,ME,04401,207-834-5937
Brad's Wrecker Service,2 Birch Hill Road,York,ME,03909,207-363-2210
Steve Nadeau & Son Trucking,Rfd #3 Box 1386,Fort Kent,ME,04743,207-834-6742
Smr Trucking,153 Fieldstone Estates,York,ME,03909,207-363-5923
Yvon Poulin Trucking,Donigan Road,Bingham,ME,04920,207-672-4102
Springdell Transport,12 Glenwood Ave,Portland,ME,04103,207-772-8010
T Fernald Trucking,21 Spruce Lane,Eliot,ME,03903,207-439-0266
East Coast Express,North Road Rt #1,Houlton,ME,04730,207-532-7377
V & T Transportation,18 Latimer Road,Gray,ME,04039,207-428-3621
Augusta Road Service,6 West Street,Hallowell,ME,04347,207-623-8987
Lbf Trucking,Bangor Road,Houlton,ME,04730,207-532-7366
Rays Trucking,Upper Round Pond Rd,Round Pond,ME,04564,207-529-5135
Can Do Trucking,146 Saco St,Westbrook,ME,04092,207-854-5481
Don Johnsons Automotive,1200 Sokokis Trail,North Waterboro,ME,04061,207-793-4765
Uniship Courier Services,78 Freedom Park,Hermon,ME,04401,207-848-7546
Hartford's Fuel & Service,Rr 1 Box 288 Hampshire Street,Hiram,ME,04041,207-625-4380
Greogory Flagg Millwright Services,West Freeman Rd,Strong,ME,04983,207-684-5811
B C & K Transport,10 Earle St,Lisbon Falls,ME,04252,207-353-4184
Kv Trucking,Champlain St,Van Buren,ME,04785,207-868-5301
G B L Trucking,Rr 7 Box 1229,Augusta,ME,04330,N/A
Tim Boone & Sons Trucking,Box 277 Rfd #1,Guilford,ME,04443,207-876-3943
Tom Chamberland,208 Patterson Road,Hampden,ME,04444,207-862-5071
T & T Transport,11 Pleasant Street,Houlton,ME,04730,207-532-4402
Hakala Trucking,80 Manley Rd,Auburn,ME,04210,207-782-6038
J & S Trucking,144 Miller St,Belfast,ME,04915,207-664-8235
A C Frost Trucking,463 Old Eastport Road,Perry,ME,04667,207-853-4192
C G & R Trucking,Rr #1 Box 2009,Winterport,ME,04496,207-223-4254
Doyon Trucking,Rfd 2 Box 50,Lisbon,ME,04250,207-353-2563
Spectrum T L C,47 Pier St,Bangor,ME,04401,N/A
Danielson,531 Main Street,Van Buren,ME,04785,207-868-5483
K & K Transportation,23 Burrill Hill Rd,Norridgewock,ME,04957,207-474-3068
Gurschich's Trucking,Rfd 3 Box 372,Auburn,ME,04210,207-786-0258
John's Truck,199 Calais Rd,Hodgdon,ME,04730,207-532-4322
Plummer Transportation,Tyler Corner Rd,Weeks Mills,ME,04361,N/A
Katahdin Trucking,11 Hathaway Hill Rd,Livermore,ME,04253,207-929-5229
Cc&company Transport,Rr 1 Box 2525,Leeds,ME,04263,N/A
Spyder Trucking,P O Box 8193,Bangor,ME,04402,207-947-2777
Tony Silver Trucking,Rfd #2 Box 2770,Bryant Pond,ME,04219,207-665-2763
Portland Livery Service Ltd,1 Cumberland Street,Yarmouth,ME,04104,N/A
C E Sutherland Transportation Co,1310 West Hill Road,Frankfort,ME,04438,207-223-5624
G-y-m I Trucking,No Belfast Ave,Augusta,ME,04330,207-622-5109
Richardson's Transport,Rt#6 Rr1 Box 78-a,Lee,ME,04455,207-738-2907
Harley Express,67 Harts Mill Rd,South Hope,ME,04847,207-785-4309
E G I,18 Ridgeway Drive,Farmingdale,ME,04344,207-838-3414
J L Auto Sales,1496 Sabattus St,Lewiston,ME,04240,207-784-2682
Greeley's Garage,741 Washington St North,Auburn,ME,04210,207-782-6461
T And G Transport,41 Mary Ln,Oakland,ME,04963,207-465-9890
Robert W Pendexter & Sons Trucking,65 Pendexter Rd,Porter,ME,04068,207-625-8631
Heavy Haulers Transport,163 Back Nippin Road,Buxton,ME,04093,207-929-3008
Gil Masse Trucking,Rr 04 Box 480 Van Buren Road,Caribou,ME,04736,N/A
Chammings Trucking,304 Pigeon Hill Rd,Mechanic Falls,ME,04256,207-998-6062
Mossey Industrial Mowing & Trucking,Rr2 Box 334,North Berwick,ME,03906,207-646-0992
J E I Express,19 Berry Avenue,Lisbon Falls,ME,04252,207-353-6050
J K Trucking,24 Papermill Road,Hampden,ME,04444,207-862-3016
Don Dyer Jr Trucking,Clarks Bridge Rd,Limerick,ME,04048,207-793-4081
"Mds, Inc.",250 Minot Ave,Auburn,ME,04210,N/A
D & K Transport,Main St,Winterport,ME,04496,207-257-3667
Thorpe Trucking,754 Route 85,Raymond,ME,04077,207-892-4523
H&h Trucking,Po Box 11,Richmond,ME,04342,207-737-8826
Christopher Transport,6 Blueberry Bluff Circle,Gray,ME,04039,207-657-2546
Rocky Ridge Farms Or Sayer Brothers,42 Keene Rd,Canton,ME,04221,207-597-2521
Spencer For Hire Transport,Po Box 672,Lewiston,ME,04243,207-576-4706
Angelo's Lead Sled Trucking LLC,19 Angel Ave,York,ME,03909,207-361-4075
Perro Welding Services,8 Stokewood Drive,Lebanon,ME,04027,207-457-1022
Darrell Wentworth Trucking,1233 China Road,Winslow,ME,04901,207-877-5414
Bright Trucking,257 Main Street,Jay,ME,04239,207-320-1233
S & S Enterprises,45 Central Park Ave,Old Orchard Beach,ME,04064,506-819-0107
Can Man,94 Boardman St,Calais,ME,04619,207-454-2013
Cloud Hollow Farm,559 Friendship Road,Waldoboro,ME,04572,207-832-4975
Cumberland County Choppers & Cycles,314 Warren Avenue,Portland,ME,04103,207-210-6701
Norton Farms,142 East Side Rd,Addison,ME,04606,207-483-2129
Bst Trucking,2127 St John Road,St John Plt,ME,04743,207-834-6483
George Family Piano Co,54 Reservoir Road,South Paris,ME,04281,207-743-8174
Bay Square At Yarmouth,27 Forest Falls Dr,Yarmouth,ME,04096,207-846-0044
Phil Harrington Bait,43 Wlaker Street,Woolwich,ME,04579,207-443-3834
Leonard's Masonry & Concrete Services,447 Dover Road,Charleston,ME,04422,207-285-7568
Bells Transportation,52 Kennebec St,Shawmut,ME,04975,207-660-5658
Bells Transportation,52 Kennebec St,Shawmut,ME,04975,207-660-5658
Mark Flint Logging,162 Main Street,Ashland,ME,04732,207-435-6917
Indeoendent Repair Services,47 Imperial Dr,Eliot,ME,03903,603-966-6116
H-n-r Property Services,47 Pine St,Fryeburg,ME,04037,207-462-2524
Rtb Trucking,222 Covell Rd,Fairfield,ME,04937,207-453-2201
Triple D Trucking,343 Damascus Road,Carmel,ME,04419,770-205-0218
New Dawn,35 Birchwood Lane,Bowdoinham,ME,04008,207-406-0635
Archer Angus,209 Archer Rd,Chesterville,ME,04938,207-491-6354
Pease Transport,462 Arnold Lane,Palermo,ME,04354,207-993-2028
Cmd Trucking LLC,882 Grendell Rd,Chapman,ME,04757,207-760-8453
Bad Company Express,35 Maple Road Road,Columbia,ME,04623,207-483-2150
Noor Grocery Store,683 Forest Ave,Portland,ME,04103,207-776-7706
Gowells Patriot Cash Fuels,473 Richmond Rd,Litchfield,ME,04350,207-268-4328
Now Transportation,233 River Road,Orrington,ME,04474,207-825-1125
In And Out Computers,16 White Birch Lane,York,ME,03909,207-361-3073
Msad 42,35 Pleasant Street,Mars Hill,ME,04758,207-425-3771
Marshall Trucking,2b Joffre Street,Sanford,ME,04073,207-651-7113
A Team Logging,11 Despres Street,Sheridan,ME,04775,207-435-7011
Abs Fuel,22 Maple St,Augusta,ME,04330,207-622-3733
Leavitt Transport,214 Callaghan Rd,Houlton,ME,04730,207-532-9694
Auction Chasers Of New England,5 Mechanic St,Dover Foxcroft,ME,04426,207-965-5729
J Hardwood Trucking,325 Martin Street,Fairfield,ME,04937,207-634-5035
Herrick Trucking,144 Harrison Rd,Edmunds Twp,ME,04628,207-214-9020
Poorboy Trucking,7 South Grove St,Augusta,ME,04330,207-313-4415
Wallace Tent,36 Commerce Park,Ellsworth,ME,04605,207-667-6000
R&d Pellets,116 Settlersway,Orrington,ME,04474,297-825-8767
Beech Street Trucking,24 Beech Street,East Millinocket,ME,04430,732-558-1837
Carrabassett Spring Water,153 Greenwoods Road,Peru,ME,04290,207-562-7200
Carons Transport,6 Carons Way,Richmond,ME,04357,207-522-8572
Illusion Farm,174 Cornshop Rd,Fryeburg,ME,04037,207-935-3197
Snyder Services,243 High Meadow Rd,Perham,ME,04766,207-455-4474
Ben Thomas Trucking,17 Monroe Rd,Searsport,ME,04974,951-436-8749
Gilcrustacean,20 Wadsworth Point Rd,Friendship,ME,04547,207-975-2444
"Buckco, Inc.",48 Buck Rd,Milton Twp,ME,04219,207-364-4956
Bean & Conquest Chevrolet Geo,40 Summer Street,Bangor,ME,04401,207-945-0901
Feyler's Fishtails,391 Pleasant Point Rd,Cushing,ME,04563,207-354-8294
L & B Melvin,20 Fort Rd,Presque Isle,ME,04769,207-764-6017
Aj's Towing,359 Sanford Road,Alfred,ME,04002,207-490-5565
Cloutier Construction,160 Roderick Rd,Winslow,ME,04901,207-314-7565
Blue Hill Pyrotechnics,182 Ammo Park,Hampden,ME,04444,207-942-6682
D J A Transport,200 Milton Mills Road,Lebanon,ME,04027,207-450-9998
Midnight Manhattan,162 Pine Ridge Loop,Livermore Falls,ME,04254,207-897-4024
Dirty Deeds,144 Swamp Rd,Bridgton,ME,04009,207-329-7424
Kelley Express,9 Timber Oak Drive,Durham,ME,04222,207-522-5829
Bob's Trucking,124 Union Street,Calais,ME,04619,207-454-7075
Catmndo,318 Menotomy Rd,Fryeburg,ME,04037,207-890-6907
Dumas Welding,199 Harold L Dow Highway,So Berwick,ME,03908,207-384-8844
River Side Hardware & Lumber,516 Main St,Madawaska,ME,04756,207-728-7745
Sound Lobster Co,91 Waterside Rd,Steuben,ME,04680,207-546-3646
Paul Finley,33 Finley Lane,Litchfield,ME,04350,N/A
Westgate & Son Transport,949 Main Street,Pittsfield,ME,04967,207-487-1395
D & H Construction,98 Pond Road,Wales,ME,04280,207-754-9121
Freedom Trucking,28 Walker Hill Rd,Turner,ME,04282,207-225-3957
Mad Moose Trucking,303 Unity Road,Benton,ME,04901,207-238-6316
Maine Lakes Charters And Tours,139 So Monmouth Rd,Monmouth,ME,04259,207-933-6494
Ryan J Greenlaw,295 Lane Road,Greene,ME,04236,207-212-8813
D E Mead Transport,453 Jim Grant Rd,Lebanon,ME,04027,978-479-0460
Novy,1228 High Street,West Gardiner,ME,04345,207-215-4572
Back Cove Yachts,23 Merrill Drive,Rockland,ME,04841,207-594-8821
Adc Trucking,324 Lewiston St,Mechanic Falls,ME,04256,207-346-4820
Eagle Trucking,47 Green Street,Saco,ME,04072,207-590-7735
R&s Sand And Gravel,1283 Bailey Rd,Knox,ME,04986,207-568-3490
"Salleys Auto Repair, Inc.",Pobox86 60 High St,Milo,ME,04463,207-943-2100
Dame Transportation,36 Pleasant Street,Houlton,ME,04730,207-694-0215
Porter Panel & Truss Porter Drywall,299 Presumpscot St,Portland,ME,04103,207-878-2024
Downeast Wilderness Experience,19 Tucker Lane,Cherryfield,ME,04622,207-664-3198
Mobile Metals,41 Capital Ave,Lisbon Falls,ME,04252,207-353-5865
Axe Women Loggers Of Maine,958 Crooked Road,Bar Harbor,ME,04609,207-288-1080
Ibs Of Greater Maine,1013 Minot Ave,Auburn,ME,04210,207-784-9675
Jp Brydon Transport,493 Colby Siding Road,Woodland,ME,04736,207-493-1104
Got Trucks,1089 Dodlin Rd,West Enfield,ME,04493,251-751-2835
Glenn Enterprises,46 Frost Hill Road,Eliot,ME,03903,207-439-6677
Donahues Auto & Truck,517 Johnson Flat Road,Clinton,ME,04927,207-426-6011
Cox Machine,39 Belfast Augusta Road West,Searsmont,ME,04973,207-342-2267
"Jim's Used Cars & Auto Repair, Inc.",4 Jims Way,Ellsworth,ME,04605,207-667-7479
Party Plus,6 Commercial St,Biddeford,ME,04005,207-283-8009
Peter Ferland,695 Empire Rd,Poland,ME,04274,207-998-9001
Rt 41 Sales LLC,222 Rt 41,Winthrop,ME,04364,207-557-9872
More Acres Farm,141 More Acres Rd,East Dixfield,ME,04227,207-645-2468
Specialized Freight,4 Ridge Rd,Marshfield,ME,04654,731-438-4888
Gilley's Transportation,106 State Road,Bath,ME,04530,207-522-2049
Hanson Bay Properties,25 Reed Road,Woolwich,ME,04579,207-730-3870
Mnaa Used Cars,21 Waterman Drive,Waterboro,ME,04087,207-247-5180
A Cut Above Carpentry,710 Great Moose Drive,Hartland,ME,04965,207-416-8885
2072901492,12 Ayer Street,Lincoln,ME,04457,207-290-1492
Ctl Transportation,797 Forest Ave,Portland,ME,04103,207-838-5017
Mooselanding Marina,32 Moose Landing Trl,Naples,ME,04055,207-693-6264
Twilight Trucking LLC,38 Fisher Ave,Lewiston,ME,04240,207-212-2419
B & R Automotive Repair,276 School St,Berwick,ME,03901,603-767-7107
Mist Transport,278 Jackins Settlement Rd,Hodgdon,ME,04730,207-538-6873
Pinnacle Window Solutions,82 Litchfield Road,Hallowell,ME,04347,207-588-6590
Three G Transport,11 Pea Ridge Rd,Columbia,ME,04623,207-483-2869
Lilli John Transport,20 Sawmill Lane,Dyer Brook,ME,04747,207-757-7421
Cws Trucking,14 Plum Lane,Gray,ME,04039,207-831-3334
Mccoubrey Transport,182 Bald Hill Rd-lot G5,New Gloucester,ME,04260,207-926-3612
Ambience Event Service,342 R Warren Ave,Portland,ME,04103,207-469-5399
Maples Organics,881 Us Route 1,Yarmouth,ME,04096,207-846-1000
Guimond Trucking,566 Old Lewiston Road,Winthrop,ME,04364,207-485-6492
Seigars Enterprize,344 Cross Road,Alna,ME,04535,207-882-7162
Northside Auto,629 Main Street,Jay,ME,04239,207-897-5449
S&j Limoisines,76 Sabattus St,Lewiston,ME,04240,207-795-6778
Greystone Stables,85 Little River Rd,Berwick,ME,03901,207-698-9700
Jonaitis Trucking,4 Burnham St,So Portland,ME,04106,207-329-6696
"Reflections Window Cleaning, Inc.",27 Katana Drive,South Portland,ME,04106,207-874-8004
Four Daughters Redemption &recycle,71 High St,Ft Fairfield,ME,04742,120-747-2086
Cp's Shellfish,14 Ficketts Point,Milbridge,ME,04658,207-546-3696
M-tee Pockets,29 Cove Rd,Winterport,ME,04496,207-659-8977
Black Bear Trucking,57 Loop Road Mount Chase,Patten,ME,04765,207-299-3738
Full Gospel Assembly Of Mars Hill,9 Maple Street,Mars Hill,ME,04758,207-429-9000
Boynton Trucking,621 Enfield Rd,Lincoln,ME,04457,207-484-8118
M&m Kennel,1555 Bangor Road,Clinton,ME,04927,207-426-2039
Mbm Transport,949 Main Street,Pittsfield,ME,04967,207-487-5072
Js Trucking,90 6th St,Old Town,ME,04468,207-487-6328
Affordable Limo Of Maine,1625 Auburn Road,Turner,ME,04282,207-225-2078
Yogi's Trucking,221 Mogador Road,Steuben,ME,04680,207-546-7776
Central Maine Tanning Supply,225 Togus Rd,Chelsea,ME,04330,207-582-6030
Moulton Motors,999 River Road,Windham,ME,04062,207-892-1620
Schlep Trucking,22 Gray Shore Lane,Orrington,ME,04474,207-249-5406
Bataran's Home Improvement,105 Guinea Road,Berwick,ME,03901,603-781-7989
Hillegass Trucking,128 Beaulieu Road,Saint David,ME,04773,207-728-3447
Mccormick Transportation,197 Hymie Norton Rd,Industry,ME,04938,631-255-7354
Camp Northstar Of Maine,200 Verrill Rd,Poland,ME,04274,207-998-4777
Maine Teen Camp,481 Brownfield Rd,Porter,ME,04068,207-625-8581
Camp Kippewa,1 Kippewa Drive,Monmouth,ME,04259,207-933-2993
King's Farm Market,44 County Road,Gorham,ME,04038,207-839-5844
Dnk Used Cars,530 Maine Ave,Farmingdale,ME,04344,207-582-4531
Moodys Transport,292 Main St,Lincoln,ME,04457,207-290-3773
Bobby L Tart Boat Works,5 Lady Slipper Lane,Kennebunk,ME,04043-6249,207-985-0968
Frank Campbell Transport,677 Main St,Meddybemps,ME,04657,207-454-0030
Kip's Seafood Company,117 River Rd,Cushing,ME,04563,207-354-6265
J&m Transport,945 County Rd,New Limerick,ME,04761,207-267-0547
K A T Transport,2 Stuart Street,Winslow,ME,04901,207-649-0962
Kgb Transport,32 Augusta Road,Washington,ME,04574,207-845-2048
"Dubs Distribution, Inc.orperated",244 Little River Rd,Lebanon,ME,04027,207-752-3093
Ray Crockett Trucking,11 Mountain View Circle,Bethel,ME,04217,207-357-7082
"Rcc, Inc. Custom Homes & Timber Frames",397 Lovell Rd,Fryeburg,ME,04037,207-925-3193
J A Wing Transport,10 Independence Drive,Freeport,ME,04032,207-245-0483
Casco Bay Diesel,429 Warren Ave Ste 5,Portland,ME,04103,207-878-9377
Jimmo's Auto,828 Presque Isle Road,Ashland,ME,04732,207-227-9145
The Island Market,113 Main Rd,Islesboro,ME,04848,207-734-6672
Night Moves,1208 Collinstown Rd,Appleton,ME,04862,860-815-0728
Jp Spreads,422 Route 41,Winthrop,ME,04364,207-377-3484
"Curran Company, Inc.",86 Industrial Park Rd,Saco,ME,04072,207-282-7723
Lee's Transportation,212 Lake Road,Monticello,ME,04760,207-538-9190
Stan Farmer Brown,59 Bolt Hill Rd,Eliot,ME,03903,207-439-5595
Pallet Recycling Solutions,77 Atkinson Road,Buxton,ME,04093,207-929-3626
Monson Company South Portland,1 Runway Road,South Portland,ME,04106,207-885-5572
A W Woodruff Trucking,88 Lincoln Street,Dover Foxcroft,ME,04426,207-270-0625
Lnl Trucking,369 Sweden Street,Caribou,ME,04736,207-227-1289
Worthings Waste Systems,164 Prescott Rd,Manchester,ME,04351,207-622-1412
Fred French Trucking,1512 Riverside Dr,Vassalboro,ME,04989,207-431-4023
Jacob Pike Express,8 Rice Road,Birch Harbor,ME,04613,207-598-7553
Guerrette Sales,3 Watson Memorial Drive,Caribou,ME,04736-1135,207-498-8108
Mooselion Transport,131 Sam Allen Road,Sanford,ME,04073,207-432-7131
Dirty Girl Lobster,672 Highland Road,Warren,ME,04864,207-632-4107
J & M Transport,945 County Road,New Limerick,ME,04761,207-267-0547
Cofferen And Son Trucking,21 High Pine Loop Rd,Wells,ME,04090,207-651-8963
Thibodeau And Son Trucking,1448 Van Buren Rd,Caswell,ME,04750,207-332-5100
A S Reynolds Trucking,17 Rogers Road,Troy,ME,04987,207-948-1225
Ipw,28 Elmwood Ave,Westbrook,ME,04092,207-749-0668
North Star Asphalt,146 Rocky Dundee Rd,Buxton,ME,04093,207-423-3045
Brochu Trucking,4 Brochu Drive,Windsor,ME,04363,207-458-5923
Olson Marine,83 High Street,Belfast,ME,04915,207-323-4652
Bichrest Bros,417 Harris Hill Rd,Poland,ME,04274,207-837-4838
Lg Moore,335 Russell Road,Madison,ME,04950-3104,207-474-7927
K J Hebert Trucking,74 Main St,Skowhegan,ME,04976,207-660-5161
Soaring Eagle Express,447 Unity Road,Albion,ME,04910,207-314-5905
White Knight Trucking,1 Old Hollis Rd,Limington,ME,04049,207-252-5057
Safina Logistic,42 Anderson Street,Portland,ME,04101,800-315-1444
P & B Trucking,99 School St,Brooks,ME,04921,207-322-4680
Muzzey's Services & Charles Auto Transport,67 Newton Street,Portland,ME,04103,207-373-0539
J Craig Truckin,1251 Garfield Rd,Masardis,ME,04732,207-435-6750
Pelkey Transport,454 North Street,Houlton,ME,04730,207-532-6500
Lakewood Motor Transport,787 Gardiner Rd,Wales,ME,04280,207-375-8562
Badspell Trucking,459 Pattagumpus Rd,Medway,ME,04460,207-447-2353
Night Moves Express,493 Bangor Rd,Ellsworth,ME,04605,207-801-1255
"Destination Unknown, Inc.",89 Madison Ave,Madison,ME,04950,207-649-9013
Carmichael & Sons Truckin',166 Huff Hill Rd,Harland,ME,04943,207-592-8528
Tes Transport,148 Stetson Rd,Newport,ME,04953,207-341-1771
Martin Enterprises,20 Sewall Street,Wilton,ME,04294,207-491-3955
M K & Sons Trucking,1119 Ludlow Road,Ludlow,ME,04730,207-694-0661
Phils Transportation,32 King St,Westbrook,ME,04092,207-450-8032
K J S Transport,17 Nutmeg Ln,Thomaston,ME,04861,207-227-9265
T Hammer Trucking,733 W Neck Rd,Nobleboro,ME,04555,207-350-0010
Blin Rollins Jr,7 Brook St,Solon,ME,04979-3000,207-643-2505
M & T Trucking,81 West Franklin Road,Franklin,ME,04634,207-565-2969
Keenan Transportation,211 Walker Hill Rd,Wilton,ME,04294,207-577-0135
A & S Transport,31 Roxbury St Apt 2,Thomaston,ME,04861,207-669-2237
Penobscot Developers,510 W Broadway,Lincoln,ME,04457-4112,207-794-2212
Cer Wallace Transport,266 Lincoln St,Pittsfield,ME,04967,207-858-5826
New-dawn Fuel,35 Martin Rd,Portland,ME,04103,207-799-6358
Sunkhaze Blueberry Farm,7072 Horseback Road,Township 32md Hancock Cty,ME,04468,207-745-7583
J&t Firewood,1 Collins Lane,Brownfield,ME,04010,207-935-1266
Pb Enterprises,74 Duck Puddle Rd,Nobleboro,ME,04555,207-563-5611
A&s Transport,1224 State Rd,Mapleton,ME,04757,207-760-8114
American Cash Fuel,189 Main Rd,Eddington,ME,04428,207-991-2177
Randy's Mobile Homes,4 Ring Street,Howland,ME,04448,207-283-9988
Gr And Son Propane,19 Kinsman Rd,Cornville,ME,04976,207-474-3815
Glens Lobsters,12 Abner Point Road,Bailey Island,ME,04003,207-833-6138
D Reynolds,7 Doyle St,Litchfield,ME,04350,207-689-1131
Bb Bussiere Fence,321 Cobbossee Rd,Monmouth,ME,04259,207-933-9615
Mandeville Metals,1838 Rossevelt Trail,Naples,ME,04055,207-205-0368
Gay's Wreaths,78 Ridge Road,Machias,ME,04654,207-255-3301
Misty Brook Farm,156 Bog Road,Albion,ME,04910,207-437-4719
Double T Fence,136 School House Rd ,Oxford,ME,04270,207-539-4300
Jmc Trucking,354 Duck Pond Rd ,Westbrook,ME,04092-3700,207-837-7011
Royal Oil & Propane Co,2066 W Broadway,South Portland,ME,04106-3223,207-775-1254
R&d Racing &fabrication,8 Elm St,Limerick,ME,04048,207-793-2530
Lynox Welding Supply,46 Industrial St,Presque Isle,ME,04769,207-764-6511
Corinna Fuel & Service Center,3 Dexter Rd,Corinna,ME,04928,207-278-2132
Log Cabin Fuel Co,2 Mechanic St,Gardiner,ME,04345,207-582-7447
Fraser Fuels,24 Fraser Lane,Harrington,ME,04643,207-483-4774
Steamboat Petroleum,Main St,Winterport,ME,04496,207-223-4004
Jamie Paquet General Contractor,1192 Litchfield Rd,Bowdoin,ME,04287,207-650-5289
Firewood Time,92 Lizotte Rd,Sanford,ME,04073,207-324-3550
"Arnold Oil Company, Inc.",94 Broadturn Rd,Scarborough,ME,04074,207-885-0704
Levesque Farm & Pallets,182 Marquis Rd,Van Buren,ME,04785,207-868-3905
"Abl Golf Cars, Inc.",1110 Main Street,Waterboro,ME,04087,207-247-5300
Quirk Oil Co,4 Hillside Ave,Scarborough,ME,04074,207-883-8096
Running Hard Trucking,25 Riverside Park Dr,Mexico,ME,04257,817-938-8341
Asphalt Maintenance,9 Railroad St ,East Wilton,ME,04234,207-578-2762
Triple B Transportation,998 Medway Rd,Medway,ME,04460,207-731-3675
116 Industries LLC,17 Lakeview Drive,Readfield,ME,04355,207-441-8838
18th Green Express LLC,325 Timoney Lake Road,Smyrna,ME,04780,207-999-9888
207 Lobster,410 Hawthorne Pt Rd,Cushing,ME,04563,207-542-6263
207 Transport LLC,235 Camden Street Suite 32-189,Rockland,ME,04841,207-295-3600
208 Main Street LLC,208 Main Steet,Andover,ME,04216,207-364-5827
26 A Street Lodging LLC,26 A Street,Portland,ME,04102,207-253-5507
2e Trucking LLC,716 Bear Hill Rd,Dover Foxcroft,ME,04426,207-478-2085
3 D Farm Products LLC,9 Old County Rd,Knox,ME,04986,207-400-9674
3 D Logging,Rte 25,Cornish,ME,04020-9998,207-625-1263
3-d Trucking LLC,207 Brown Rd,Woodland,ME,04736,207-498-2295
3rd Time Charm Trucking LLC,133 Veazie Street,Old Town,ME,04461,207-857-8111
4 Cats Trucking LLC,7 Louwine Way,Westbrook,ME,04092,202-521-1493
4 J Farm LLC,155 Violette Settlement Rd,Fort Kent,ME,04743,207-834-3143
"4 Seasons Automotive, Inc.",734 Boothbay Rd,Edgecomb,ME,04556,207-882-9167
5 Star Yacht Services LLC,12 Industrial Way,Trenton,ME,04605-6029,207-664-2184
"A & A Excavating, Inc.",154 Gray Rd,Falmouth,ME,04105,207-878-2201
A & A Transport,768 Brewer Lake Rd,Orrington,ME,04474,805-468-9929
A & B Trucking,2 East Ct,Carmel,ME,04419,207-460-4791
A & M Sand & Gravel LLC,172 Coles Corner Rd,Winterport,ME,04496,207-223-4189
A & R Trans LLC,11 Lloyd Ln,Holden,ME,04429,207-217-4679
A & S Transport LLC,11 Blueberry Avenue,Saco,ME,04072,207-284-4607
"A & S Trucking, Inc.",646 St George Rd,St George,ME,04860,207-372-8487
A A Electric Service,116 Freedom Park,Hermon,ME,04401,207-942-9228
A A Wyndham,824 Roosevelt Tr #171,Windham,ME,04062,207-800-6763
A Auto Transport LLC,34 Webster St,Lewiston,ME,04240,860-308-0093
"A B C Rubbish, Inc.",715 Waterford Rd,Norway,ME,04268,207-743-5417
A B Trucking,Rt 3 Box 430 A,Caribou,ME,04736,207-498-6402
A C Electric Corp,120 Merrow Rd,Auburn,ME,04210,207-784-7341
Ac Frost Trucking,463 Old Eastport Road,Perry,ME,04667,207-853-4192
A Curtis Trucking,451 Belyea Rd,Edmunds Township,ME,04628,207-726-5220
"A D Electric, Inc.",6 Sabattus Street,Sabattus,ME,04280,207-375-8012
A D Pottle Trucking,20 Bamar Rd,Perry,ME,04667,207-853-6658
"A D Zemla, Inc.",5 Provost Dr Unit 1,Windham,ME,04062,207-671-6155
"A Dhuux Transportation, Inc.",804 Washington Ave,Po Rtland,ME,04103,207-482-9479
"A E Robinson Oil Co, Inc.",1020 West Main Street,Dover Foxcroft,ME,04426,207-564-8131
"A G Transport, Inc.",100 Pine Valley Dr,Canaan,ME,04924,207-474-2559
A H Harper Trucking,Box 308,Brownville Junction,ME,04414,N/A
A H Marine,368 Harriman Point Rd,Brooklin,ME,04614,207-359-5574
Splash,41 Hood Drive,Turner,ME,04282,207-225-2157
A J Heavy Hauling,52 Riverview St,Portland,ME,04102,207-772-4491
"A J Kennedy's Fruit & Produce, Inc.",110 Pleasant Hill Road,Scarborough,ME,04074,207-883-8946
"A J Murphy Co, Inc.",379 Hudson Rd,Glenburn,ME,04401,207-990-0583
"A L Doggett, Inc.",9 West Gray Road,Gray,ME,04039,207-657-4569
A L S Trucking,988 Pattagumpus Rd,Medway,ME,04460,207-731-7823
Canton Sand & Gravel,Bixby Rd,Canton,ME,04221,207-597-2672
"A Lepage And Sons Masonry, Inc.",852 Garland Rd,Winslow,ME,04901,207-872-9061
"A M G Transport, Inc.",31 Roxbury St Apt 3,Thomaston,ME,04861,207-691-1095
"A M P Transport, Inc.",16 Edgewood Road,Buxton,ME,04072,207-929-6756
A M Trucking LLC,438 Jim Grant Rd,Lebanon,ME,04027,207-658-7292
"A Marcuri & Son, Inc.",30 Fernold Ave,York,ME,03909,207-363-2869
A Perfect Move,240 Us Route One,Kittery,ME,03904,866-630-6740
"A Plus Septic Service, Inc.",190 Pinkham Brook Rd,Durham,ME,04222,207-353-2628
"A R Trucking, Inc.",646 Webber Pond Road,Vassalboro,ME,04989,207-213-4059
A S Francis & Sons,1 Francis Rd,Steuben,ME,04680,207-546-2487
"A S, Inc.",164 Belgrade Road,Oakland,ME,04963,207-465-3234
"A S Madden Logging, Inc.",398 Cardville Road,Greenbush,ME,04418,207-827-3338
"A Team Distribution, Inc.",35 Old North Road,West Gardiner,ME,04345,207-522-6743
"A To Z Enterprises, Inc.",4 Lord Jason Drive,Biddeford,ME,04005,207-282-2971
Andy's Agway,13 Cole Farm Rrd,Dayton,ME,04005,207-282-2998
"A Z Transportation, Inc.",1390 Forest Ave Apt 1k,Portland,ME,04103,207-409-0282
A&a Auto Repair,1372 Main St,Clinton,ME,04927,207-615-3282
A&e Harvesting LLC,171 Putnam Drive,Harrington,ME,04643,207-217-1103
A&j Company,35 Wildwood Dr,Saco,ME,04072,207-391-3393
A&t Transport,2105 Chapman Rd,Chapman,ME,04757,207-551-5586
"A-1 Environmental Service, Inc.",107 Crediford Rd,Wells,ME,04090,207-646-2180
"A-1 Seamlessless Gutters, Inc.",1150 Center Street,Auburn,ME,04210,207-782-9999
A-plus Party Rental,10 Washington Ave,Scarborough,ME,04074,207-883-4472
"A1 La Used Appliance, Inc.",170 Turner Street,Auburn,ME,04210,207-241-0270
"Aa Air Freight, Inc.",10 Ginn Rd,Scarborough,ME,04074,207-883-9129
"Aaa Interstate Septic Services, Inc.",147 Lane Rd,New Sharon,ME,04955,207-778-2467
Aaa Northern New England,68 Marginal Way,Portland,ME,04101,207-780-6800
Aaron A Adamec,1085 Webber Pond Rd,Vassalboro,ME,04989,860-982-7424
Twin Brook Dairy LLC,102 East Oxford Road,Minot,ME,04258,207-966-3064
Bachelder Auto Transport,153 Hunton Loop,Livermore Falls,ME,04254,207-897-9290
Sel,Hinkley Hill Rd,Carmel,ME,04419,207-848-5786
Aaron G Sorenson,45 Running Hill Rd,Scarborough,ME,04074,207-839-8103
Worumbo Estates,3 Arundel Dr,Lisbon,ME,04250,207-353-5087
Ltl Trucking,Route 140 280 Sumner Road,Hartford,ME,04220,207-336-2828
Aj's Timber,75 Mill St,Peru,ME,04290,207-491-9004
Aaron Kerr,268 Salisbury,Canaan,ME,04924,207-341-6300
Aaron Meader,241 New Vineyard Rd,Farmington,ME,04938,207-779-9036
Stiman Steel Company,760 West River Road,Augusta,ME,04330,207-622-3945
Aaron Trial,38 Kincaid Lane,Smithfield,ME,04978,207-431-2677
"Ab Child Transport, Inc.",Rt 202,East Winthrop,ME,04343,207-395-2397
"Abbilli Trucking, Inc.",651 Shin Pond Rd,Patten,ME,04765,207-528-2297
"Abbott Brothers, Inc.",1123 Us Route #1,Cape Neddick,ME,03902-9801,207-363-3762
Ja Abbott Const,996 Carl Broggi Hwy,Lebanon,ME,04027,207-457-1191
Abbott Trucking Logging LLC,514 Augusta Rd,Jefferson,ME,04348,207-242-3579
Abbys Oil And Fuel Lcc,27 Blackberry Lane,Lyman,ME,04002,207-499-4090
How Trucking,193 Warren Avenue,Portland,ME,04103,207-878-7587
Abdow Trucking LLC,1344 Washington Ave Apt 2,Portland,ME,04103,207-239-7609
Safa Express,42 Anderson Street,Portland,ME,04101,207-409-2720
"Ability Equipment Sales, Inc.",378 Main Street,Biddeford,ME,04005,207-283-8008
"Abjr Hodgkins, Inc.",18 Pleasant St,Bar Harbor,ME,04609,207-288-3422
Above & Beyond Delivery Services LLC,120 1st Rangeway,Waterville,ME,04901,207-649-2930
Hah Trucking,200 Old Brunswick Rd,Durham,ME,04222,207-577-2206
Abram D Chase,152 Vigue Road,Whitefield,ME,04353,207-485-1650
"Absolut Services, Inc.",4 Wildcat Trail,Coplin Plt,ME,04982,207-246-5709
Abv Distributors,267 Crane Pond Drive,Lincoln,ME,04457,207-631-5123
"Ac Provo's, Inc.",216 Carl Broggi Highway,Lebanon,ME,04027,207-324-0007
"Acadia Express Company, Inc.",Main Street,Southwest Harbor,ME,04679,N/A
Acadia Fuel LLC,77 Seal Cove Rd,Southwest Harbor,ME,04679,207-244-9664
Acadia Fuel Transport,77 Seal Cove Rd,Southwest Harbor,ME,04679,207-244-9664
"Acadia Recovery, Inc.",8 Murray Rd,Carmel,ME,04419,207-848-2011
Grand Rental Station,350 Bar Harbor Road,Trenton,ME,04605,207-667-1700
Acadia Roll-offs LLC,28 Main St,Southwest Hbr,ME,04679,207-244-4599
Acautoinc,1221roosevelt Trail,Raymond,ME,04071,207-749-5268
"Acc Trucking, Inc.",115 Greenfield Rd,Greenbush,ME,04418,207-827-0436
"Accidental Erections, Inc.",14 Strawberry Ave,Turner,ME,04282,207-966-2107
Ace Trucking Hauling & Shipping LLC,75 Fosterville Rd,Bridgton,ME,04009,207-233-5155
"Ace Well Service, Inc.",857 Back River Rd,Boothbay,ME,04537,207-633-2777
Aclm Trucking LLC,67 Rocky Dundee Rd,Buxton,ME,04093-3800,207-590-3190
Acme Scale Company,482 River Rd,Windham,ME,04062,207-892-9915
Action Septic Service,726 Bar Harbor Rd,Trenton,ME,04605,207-667-3429
"Sloat Transport, Inc.",440 Calais Road,Hodgdon,ME,04730,207-532-7562
"Ada Fence Co, Inc.",1110 Main St,Palmyra,ME,04965,207-938-2530
Adam Carrier Trucking,42 Keene Rd,Canton,ME,04221,207-357-1904
Ac Snacks,1055 Turner Ridge Road,Palermo,ME,04354,207-242-0975
Brewer Fence Co,268 Main Rd,Holden,ME,04429,207-989-2077
A&d Excavating,12 Beths Lane,Wells,ME,04090,207-337-5095
Doliber & Son Trucking,124 Buzzell Rd,Acton,ME,04001,207-569-4829
Adam Dube,124 Us Rt 1,Frenchville,ME,04745,207-316-8685
Adam L Hinkley,26 Bridge Street,Richmond,ME,04357,207-522-8483
Meader Trucking,559 Town House Rd,Vienna,ME,04360,207-491-6082
Adam R Penney,125 Abbott Road,Albion,ME,04910,207-314-2012
Adam R Walton,322 Washburn Rd,Presque Isle,ME,04769,207-768-1020
Graves Logging,7 Ball Hill Road,Etna,ME,04434,207-341-2405
C A M M Construction Adams Boat Hauling,252 Cape Split Rd,Addison,ME,04606,207-483-4446
A Vogel General Contractors,315 Back Brooks Road,Monroe,ME,04951,207-525-3579
Riverdale Refuse,273 Beech Ridge Rd,Scarborough,ME,04074,207-839-2255
"Adams Bakery, Inc.",3 Mill Pond Circle,Sebago,ME,04029,207-787-2488
Adc Trucking,32 Middle Branch Dr ,Alfred,ME,04002-3102,207-608-9036
Adept Transport LLC,898 Gardiner Road,Wiscasset,ME,04578,207-882-7333
Adept Transport LLC,124 Old Bath Rd,Brunswick,ME,04011-3513,207-380-3502
"Adkins Transportation, Inc.",10 Hillside Way,Dresden,ME,04342,207-737-8951
"Adley Auto Sales & Service, Inc.",486 Prospect Ave,Rumford,ME,04276,207-364-3700
Jones Stables LLC,727 Main Road North,Hamden,ME,04444,207-356-7413
"Advance 1 Cleaning Services, Inc.",57 Water Street,Waterville,ME,04901,207-873-1241
Advanced Energy Products LLC,616 North Rd,Sebec,ME,04481,207-564-2351
"Advanced Industrial Solutions, Inc.",36 Anthony Ave,Augusta,ME,04330,202-521-1493
Arc Enterprises,27 Commercial Road,Kingfield,ME,04947,207-265-2646
"Advantage Trucking, Inc.",34 Caincrest Road,York,ME,03909,866-374-3761
Adventure Tours,"Upper Main Street, R.f.d. #2",Lisbon Falls,ME,04252,N/A
"Aero Heating & Ventilating, Inc.",378 Presumpscot St,Portland,ME,04103,207-761-2092
Affiliated Materiel Services,70 Bennett Street,Bangor,ME,04402,207-973-6730
Affordable Events,21 Plains Road,Harrison,ME,04040,207-514-7672
Affordable Office Solutions LLC,67 Minot Avenue,Auburn,ME,04210,207-783-4820
"Affordable Tree Service, Inc.",151 Ossippee Trail,Limington,ME,04049,207-415-5852
"Affordable Well Drilling, Inc.",28 Bowdoinham Rd,Sabattus,ME,04280,207-375-7204
"Ag Engineers, Inc.",29 Walnut Crest Rd,Gorham,ME,04038,207-854-2481
Deep Blue Transport,89 Johnson Road,Gray,ME,04039,207-712-6936
"Agri-cal, Inc.",92 Bangor St,Houlton,ME,04730,207-532-0104
Agri-cycle Energy,226 Fogler Road,Exeter,ME,04435,207-347-0483
Agway Truck Brokerage,Box 749,Presque Isle,ME,04769,207-764-6167
Ayer European Auto Service,514 Brunswick Ave,Gardiner,ME,04345,207-582-2302
Ahearn Farm,867 New County Rd,Dayton,ME,04005,207-499-8090
Roll Off Services,Suite 1 1986 Western Road,Warren,ME,04864,207-273-3695
White Oak Farms,1986 Western Rd,Warren,ME,04864,207-975-3695
"Aidash Distribution, Inc.",92 Oak Hill Road,Auburn,ME,04210,207-357-3778
General Courier,385 Main St,South Portland,ME,04106,800-698-5035
Aiken Automotive LLC,1523 Acton Ridge Rd,Acton,ME,04001-8008,207-432-6885
Aim Recycling Usa LLC,2630 Broadway,Bangor,ME,04401,514-494-2000
"Aj&k, Inc.",166 Water Street,Augusta,ME,04330,347-651-8080
Aj's Home Services,1269 Bangor Road,Ellsworth,ME,04605,207-460-5554
Aja Logistics LLC,361 Cumberland Ave Apt 7,Portland,ME,04101,978-335-2065
Ak Property Services LLC,20 Caddie Lane,Portland,ME,04103,207-232-0366
Al J Smith Sr,R #113,E Baldwin,ME,04024,207-625-4135
"Al Lappin Co, Inc.",14 Silver Brook Circle,Scarborough,ME,04074,207-839-7700
"Al Transportation, Inc.",1457 Dyer Brook Rd,Oakfield,ME,04763,207-757-8592
Alan B Rich,Orchard Rd,Madison,ME,04950,207-696-3680
Alan B Withee,498 Madawaska Rd,Palmyra,ME,04965,207-487-5653
Al's Auto,994 Main Street,St David,ME,04773,207-728-6811
Alan Foster Trucking,278 Cape Road,Standish,ME,04084,207-642-2155
Chase Auto Repair,430 Main St,Pittsfield,ME,04967,207-341-3273
Sunset Terrace Associates,280 Park St Lot 129,Rockland,ME,04841,207-594-5380
Alan E Bardo,413 River Road,Madison,ME,04950,207-696-5903
Timberwolf Trucking,4 Armstrong St,Jackman,ME,04945,207-668-4033
Alan Gibson,137 Hgih St,Belfast,ME,04915,207-338-1566
A T Greene,723 Bridgton Rd,Sebago,ME,04029,207-787-3391
"Alan J Macphee Enterprises, Inc.",912 Bristol Road,Bristol,ME,04539,207-563-7151
A & A Trucking,27 West Beech Ridge Road,Scarborough,ME,04074,207-883-5622
Alan L Benner,242 Seal Harbor Road,Spruce Head,ME,04859,207-594-8867
Alan Peterson Services,9 Fides Dr,Saco,ME,04072,207-286-9177
Tractor Services,79 Florence Ave,Ashland,ME,04732,207-435-6835
Run With The Pack Trucking,1193 Methodist Rd,Westbrook,ME,04092,207-854-5189
Alan R Dorr Contractor,398 Clark Road,Hermon,ME,04401,207-848-5143
Alan R Gould,1003 Peabody Rd,Appleton,ME,04862,207-785-4322
A Pinkham & Sons,672 New Portland Road,Embden,ME,04958,207-635-2822
Alan Roberts,9 Lookout Bluf,Greenville,ME,04441-0108,207-695-2774
Alan S Wilson,171 Station Rd,Hebron,ME,04238,207-966-2953
Allie Bonds Autobody,102 Campground Road,Livermore Falls,ME,04254,207-897-5207
Alan W Linkletter,314 Athens Rd,Harmony,ME,04942,207-431-3859
Winner Brokerage And Logistics,108 Riverton Dr. P O Box 956,Portland,ME,04103,207-221-5690
Albano Waste Services,612 Riverside Street,Portland,ME,04103,207-761-8301
L A Trucking,138 Webber Ave,Lewiston,ME,04240,207-754-7115
Albert A Lounder,893 Bucksport Rd,Ellsworth,ME,04605,207-667-2141
Albert C Nickerson,34 Cross Road,Troy,ME,04982,207-948-5847
Alby's Sanitation,1260 Main St,St Francis,ME,04774,207-398-4233
E C Barry & Son,315 Northern Ave,Farmingdale,ME,04344,207-582-6088
"Albert Farms, Inc.",696 Main St,Madawaska,ME,04756,207-728-4318
Guimond Farms & Trucking,865 Aroostook Road,Fort Kent,ME,04743,207-834-5149
Silver Excavation & Logging,1206 Patch Mtn Rd,Greenwood,ME,04255,207-527-2318
Albert J Fitzpatrick,3 Sugarloaf St,Houlton,ME,04730,207-532-6714
Albert J Ludden Iii,22 W Chase Rd,Jackson,ME,04921,207-722-3195
Albert J Ludden Iv,14 Ricker Hill Rd,Jackson,ME,04921,207-722-3142
A J Martin & Son Trucking,147 N Perley Brook Road,Fort Kent,ME,04743,207-834-3286
Bard Industries,6 Washington Avenue,Scarborough,ME,04074,207-775-2210
Scott's Disposal Services,131 Falmouth Rd,Windham,ME,04062,207-892-6087
Albert Leemans Trucking,11 Red Bridge Rd,Ellsworth,ME,04605,N/A
Johnston Logging,527 Fuller Rd,Hermon,ME,04401,207-848-2561
Albe Quick Trucking,214 Spencer Rd,Anson,ME,04911,310-429-2628
Albert R Berry,195 River Rd,Avon,ME,04966,207-639-2451
North East Transport,1640 Kingman Road,Kingman,ME,04451,207-765-2023
A & A Property Services,105 Plummer Rd,Gorham,ME,04038,207-893-0534
Albert's Produce LLC,324 Sinclair Road,Sinclair,ME,04779,207-543-6939
Alberts Lane LLC,1025 Naples Rd,Harrison,ME,04040-4401,207-939-4955
D B Energy Products,57 Jennings Rd,Leeds,ME,04263,207-524-2237
Alcom LLC,6 Millennium Drive,Winslow,ME,04901,207-861-9800
Alcorn Property Services LLC,492 Boom Rd,Saco,ME,04072,207-282-1820
Somerset Excavating,271 Route 201,Fairfield,ME,04937,207-453-9451
Alden M Astbury,810 Sedgwick Ridge Road,Sedgwick,ME,04676,207-359-4459
"Alden W Tash, Inc.",15 Kurts Rd,Chester,ME,04457,207-794-2356
Aldermere Farms,70 Russell Ave,Rockport,ME,04856,207-236-2739
Alec Stevens,26 Lakeside Drive,Falmouth,ME,04105,207-939-8764
Alt Carrier,408 Northeast Rd,Standish,ME,04084,978-484-0532
Alex D Cyr,32 Middle Branch Drive,Alfred,ME,04002,207-608-9036
Honey Bees Apiary,119 Chute Rd ,Windham,ME,04062-4150,207-650-0530
3 Sisters Sanitation,3434 Aroostook Rd,Eagle Lake,ME,04739,207-444-6656
Roy Boy's Truck Works,63 River Rd,Caribou,ME,04736-3675,208-362-7017
Four Of A Kind Transport,175 Summer St,Oakland,ME,04963-4516,207-416-9291
Alexander J Thompson,232 East Side Rd,Addison,ME,04606,207-598-6169
Creighton Transportation,85 Mill St,Lagrange,ME,04453,207-943-2044
Strother Snacks,51 Furbush Rd,Sabattus,ME,04280,207-440-1485
Crafts Transport,113 Thorne Road,Sullivan,ME,04664,207-353-6435
"Alford Lake Camp, Inc.",5 Salt Marsh Way,Cape Elizabeth,ME,04107,207-799-3005
Mountain Side Used Trucks,94 Crystal Lake Rd,Washington,ME,04574-0214,207-845-2983
Alfred Cochran,222 Waterville Hill Rd,Norridgewock,ME,04957,207-634-4116
Alfred Grubb,43 Harlow Hill Rd,Mexico,ME,04257-1538,207-418-4877
A L Nadeau Trucking,200 Long Pond Road,Jackman,ME,04945,207-668-4494
Alfred M Wren,451 Files Hill Rd,Thorndike,ME,04986,207-568-3447
Fred's Trucking,140 Monteith Rd,Bridgewater,ME,04735,207-429-8307
Parks Towing,138 Main St,Winthrop,ME,04364,207-377-7963
Leighton & Sons,30 Depot St,Gilead,ME,04217,207-836-3604
Ali Express LLC,91 Day Rd,Lagrange,ME,04453,860-849-3288
Scott's Disposal,23 Vista Drive,Windham,ME,04062,207-894-5069
"Alien Transpdort, Inc.",52 Church St,South Portland,ME,04106,207-799-4157
Aliya Express LLC,210 Blake St Suite 1a,Lewiston,ME,04240,614-818-8866
"All Directions Transport, Inc.",174 Main Street,Hope,ME,04847,207-542-8796
"All In Wood, Inc.",60 Moody Rd,Limington,ME,04049,207-793-4179
"All Points Travel, Inc.",Gray Plaza,Gray,ME,04039,N/A
All Season Home Improvement Co,823 Church Hill Road,Augusta,ME,04330,207-626-3039
All Sports Events,141 Martin Road,Rumford,ME,04276,207-319-7316
All Trucking LLC,203 Anderson St Suit 1a,Portland,ME,04101,207-772-0200
"All-tech Weighing Systems, Inc.",44 Manuel Drive,Portland,ME,04103,207-772-3451
Allagash Brewing Company,50 Industrial Way,Portland,ME,04103,207-878-5385
Allan J Hanscom,551 Main St,Wytopitlock,ME,04497,207-456-7534
Allan M Shute Sr,486,Myrick Rd,ME,04987,207-498-2555
Al's Transport,74 Wyman Rd,Milbridge,ME,04658,207-598-5188
Allan Renfrew,231 Leach Hill Rd,Casco,ME,04015,207-627-4399
Allan S Frederick,126 Temple Rd,Weld,ME,04285,207-585-2003
Allan W Gardner,46 Dickey Rd,Allagash,ME,04774,207-398-3163
Allan Walls,17 Gilbert Farm Rd,Bar Harbor,ME,04609,207-288-2967
Allen A Bickford Const,192 Ridge Rd,Fairfield,ME,04937,207-453-2917
Allen Bianco Family Ii LLC,45 Naples Marina Lane,Naples,ME,04055,207-939-9722
Allen Clarence Doll,72 Emerald Rd,Holden,ME,04429,207-989-7220
Allen Clark,115 Boardman St,Calais,ME,04619,207-214-4898
A Chartier Trucking,15 Whitman Street,Mexico,ME,04257,207-364-7643
Noyes Excavation,198 Bryant Dr,Hartford,ME,04220,207-597-2466
Hewett Farm,506 Gorden Road,Readfield,ME,04355,207-685-3731
Allen R White,42 Grant Rd,Shapleigh,ME,04076,207-636-1771
Allen Rocky Burns,61 Tarybelu Lane,China,ME,04358,207-649-7522
Schaeffer,701 Orffs Corner Road,Waldoboro,ME,04572,207-542-4521
Marston Logging,611 Church St,Hartford,ME,04220,207-597-2203
"Allen's Blueberry Freezer, Inc.",244 Main St,Ellsworth,ME,04605-1612,207-667-5561
Allen's Commercial Services,360 Civic Center Dr,Augusta,ME,04330,207-623-3877
Allen's Drain Cleaning,27 Washburn Rd,Presque Isle,ME,04769,207-764-9336
Allen's Transfer & Storage,360 Civic Center Drive,Augusta,ME,04330,207-623-3875
Alley Excavating LLC,157 Butler Road,Boothbay,ME,04537,207-633-6799
Alliance Press,3 Business Parkway,Brunswick,ME,04011,207-504-8200
Allied Auto Transport LLC,201 Us Rt 1 #127,Scarborough,ME,04074,800-270-9173
Allstate Environmental Services,70 Ossipee Trail,Gorham,ME,04038,207-885-0503
"Almighty Recycling, Inc.",145 River Road,Lewiston,ME,04240,207-786-4300
Almighty Trucking LLC,51 Fieldview Dr,Buxton,ME,04093-6214,207-329-6154
"Almighty Waste, Inc.",712 Washington St,Auburn,ME,04210,207-782-4000
Haskell Electric,681 Ellsworth Rd,Blue Hill,ME,04614,207-374-9962
A C Spencer Logging,34 Scott Point Rd,Clifton,ME,04428,207-745-4497
Provider's Farm,408 E Waldo Rd,Waldo,ME,04915,207-722-3702
"Alpine Earthworks, Inc.",27 Commercial Road,Kingfield,ME,04947,207-491-0901
"Alpine Transportation, Inc.",190 Us Rt 1 # 349,Falmouth,ME,04105,207-776-1717
Alpine Trucking Company LLC,51 Lorelie Dr,Sabattus,ME,04280,207-713-4830
"Alsi Logistics, Inc.",118 Washington Ave,Portland,ME,04101,207-772-4334
Alta Gama Express LLC,63 Federal St Ste 15a,Portland,ME,04101,720-885-5339
Alternative Services,86 Arsenal St,Augusta,ME,04330,N/A
Alton A Seavey Jr,660 Houlton Rd,Baileyville,ME,04694,207-427-6229
Bohanon's,815 Houlton Road,Baileyville,ME,04694,207-427-3830
Al Winslow & Son,314 Waldo Station Rd,Waldo,ME,04915,207-342-5773
Alvin Lothridge,78 Bolton Hill Rd,Augusta,ME,04330,207-622-5717
Als Auto & Truck Garage,744 Washington St,Auburn,ME,04210,207-782-8923
94 Stevens Rd,94 Stevens Rd,Bethel,ME,04217,207-824-2338
Am,135 Eben Hill Dr,Portland,ME,04103,207-274-1901
M F T,27 Sunflower Dr,Prentiss,ME,04487,207-290-4667
Amani Transport Services,184 Pearl St Apt 301,Portland,ME,04101,207-807-3286
Hines Farm,823 Main Rd,Bradford,ME,04410,207-327-2808
"Ambidextrous, Inc.",319 Old Post Rd,Arundel,ME,04046,207-967-4508
Mccarthy Enterprises,228 North Ave,Skowhegan,ME,04976,207-474-7981
America Freight Operating LLC,326 Auburn St Apt 5,Portland,ME,04103,207-766-8595
"American Aerial Services, Inc.",203 Anderson Street,Portland,ME,04101,207-797-8987
"American Container Corporation, Inc.",665 So Clary Rd,Jefferson,ME,04348,207-549-9009
"American Propulsion Systems, Inc.",138 Burnt Mill Rd,Wells,ME,04090,207-646-2156
American Tissue Mills Of Me LLC,Maple St,Augusta,ME,04332,207-622-9900
Americas Best Hod LLC,112 West Gray Rd,Gray,ME,04039,207-252-4236
"Americas' Wood Company, Inc.",598 Augusta Road,Washington,ME,04574,207-845-2364
Flotation Technologies LLC,20 Morin Street,Biddeford,ME,04005,207-282-7749
"Ameritech Environmental Services, Inc.",393 Harold L Dow Highway,Eliot,ME,03903,207-438-9149
Ames Home Center,131 Hinckley Road,Canaan,ME,04924,207-474-2336
Amey Transportation,997 Forest Ave Apt #1,Portland,ME,04101,207-518-0551
County Truss,504 Station Rd,Easton,ME,04740-4016,207-488-7740
Ak's Excavation,1727 Intervale Rd,Bethel,ME,04217,207-824-3674
Amos Development Co LLC,226 Allen Pond Rd,Greene,ME,04236,207-946-5320
"Ampco Electrical Services, Inc.",13 Dowdy Lane,Edgecomb,ME,04556,207-882-8375
Amy Glidden,243 Pond Rd,St Albans,ME,04971,207-938-5327
Bridges Trucking,143 Old Ochard Rd,Buxton,ME,04093,207-458-1713
Amy Verville Or Neil Swain,512 Waterville Rd,Skowhegan,ME,04976,207-858-4200
Anderson Property Management,499 Bakerstown Rd,Poland,ME,04274-6713,207-939-3425
"Anderson Swett, Inc.",Varney Road,North Berwick,ME,03906,207-676-2759
Anderson Trucking Corporation,58 Bartlett Road,Littleton,ME,04730,207-538-0230
Carrier And Daughter Trucking,223 Swift River Rd,Mexico,ME,04257,207-364-2789
Andy Cummings Trucking,156 Seboeis Stream Ln,Howland,ME,04448,207-732-3512
A & A Trucking,73 Rose Rd,Greene,ME,04236,207-946-7305
Andre's Barrels,113 Dill Rd,Starks,ME,04911,207-696-0870
Andrea Black,760 Congress St Apt 3,Portland,ME,04102,401-261-3477
Andreas Transportation,245 Caterpillar Hill Road,Sargentville,ME,04673,207-359-8053
National Asphalt Services,59 West Street,Biddeford,ME,04005,207-252-6005
"Andrew Bowie, Inc.",58 Lunts Hill Rd,Litchfield,ME,04350,207-582-7646
Andy Crockett Logging,1847 Intervale Road,Bethel,ME,04217,207-357-5947
A R Cross Trucking,91 Cross Rd,Morrill,ME,04952-5206,207-323-8995
A D Smith Trucking,545 Corinna Court Rd,Corinna,ME,04928,207-270-2424
Aka Enterprise,423 Prescott Rd,Washington,ME,04574-4243,207-975-2826
Andy's Transport,101 North Bend Rd,Ellsworth,ME,04605,207-667-7013
Tri-town Sanitation,6 North Wade Road,Wade,ME,04786,207-768-0374
Old School Trucking,34 Fitzhenry Ln,Cutler,ME,04626,860-815-0728
A C E Trucking,915 Redd Bridge Rd,Ellsworth,ME,04605,207-667-0602
Andrew J Bryant,18 Bryant Ln,Knox,ME,04986,207-505-5994
Andrew J Keblinsky,848 Eagle Lake Road,Bar Harbor,ME,04609,207-288-2216
Smart Trucking,93 Milo Rd,Sebec,ME,04481,207-943-3252
Kerr Trucking,245 Wellington Rd,Harmony,ME,04942,207-356-0195
Michaud's Pool Service,16 Old Greene Rd,Greene,ME,04236,207-375-4611
Andrew L Webb,2912 Us Route 201,West Forks,ME,04985,207-663-4475
Andy Dupuis Towing & Salvage,438 River Road,Mexico,ME,04257,207-364-7273
A & V Ellis Trucking,683 Knowlton Corner Road,Farmington,ME,04938,207-778-3135
Olmstead Foundation,37 Wiley Rd,Normay,ME,04268,207-743-7019
Outback Towing & Deliveries,588 Acadia Highway,Orland,ME,04472,207-469-3700
Andy Gray Foundations,18 Mill Stream Drive,Sedgewick,ME,04676,207-837-0713
J & H Transport,439 Garland Road,Winslow,ME,04901,207-314-0013
Andrew Rossignol,759 Woodland Center Road,Woodland,ME,04736,207-551-5464
Andrew T Wickson,48 Railroad Dr,Sumner,ME,04292,207-388-2378
Andrew W Hurd Jr Trucking,57 Poors Mills Road,Morrill,ME,04952,207-342-4301
Andrews Trucking LLC,40 Main St,Stockton Springs,ME,04981,207-567-3085
"Androscoggin Land And Cattle Company, Inc.",69 River Rd,Turner,ME,04282,207-635-2429
Andy Chicoine Trucking,50 Moose Hill Rd,Livermore Falls,ME,04254,207-897-4689
"Andy Picard Excavating, Inc.",43 Berry Road,Saco,ME,04072-9744,207-282-6640
"Andy Valley Refuse Service, Inc.",429 Bishop Hill Rd,Leeds,ME,04263,207-933-4664
Angela Adams Holdings LLC,273 Congress Street,Portland,ME,04101,207-774-3523
R&h Trucking,175 Houlton Rd,Danforth,ME,04424,207-448-7239
A M Trucking,552 Ft Knox Rd,Prospect,ME,04981,207-469-6317
Angelico Concrete Services,1007 Alexander Reed Rd,Richmond,ME,04357,207-737-4226
Angels Express LLC,17 Wilder Way,Bowdoin,ME,04287,207-666-3318
"Angies Express, Inc.",87 King St,Oxford,ME,04270,207-539-8333
"Angry Beaver Farm Products, Inc.",454 Brighton Rd,Athens,ME,04912,207-654-2250
Crawford Trucking,1740 Main Rd,West Enfield,ME,04493,207-794-5436
Anita M Smith|benjamin H Smith,194 Bartlett Rd,Belgrade,ME,04917-3922,207-400-6152
Auburn Sanitary Service,63 Lake Shore Drive,Auburn,ME,04210,207-782-4265
Anne Mcbreairty,537 Water St,Guilford,ME,04443,207-564-8231
Anne Noel Noel Farm And Trucking,Route 1 Box 222,Bradford,ME,04410,N/A
Anthony Annunziata Aaron Adamec,1087 Webber Pond Road,Vassalboro,ME,04989,207-649-7032
Anthony Automotive,Rt 201 Brunswick Road,Gardiner,ME,04345,207-582-7105
Bakers Rototilling,356 Winthrop St,Hallowell,ME,04347,207-622-0485
Acb Enterprises,154 Upper Dedham Rd,Holden,ME,04429,207-843-5529
Anthonys Disposal Service,435 Blaine Avenue,Guilford,ME,04443,207-343-3133
Tony Lash Excavation,979 Washington Road,Waldoboro,ME,04572,207-832-4116
Anthony D Moon,24 Buttercup Lane,Hancock,ME,04640,207-461-8107
A Swackey Trucking,20 Albert Drive,Limington,ME,04049,207-637-2341
Uncle Ant Distributors LLC,3 Old State Rd,Charleston,ME,04422,207-299-5658
Anthony M Ferrar,74 Smith St,Portland,ME,04101,207-774-5107
"Anthony Mancini, Inc.",179 Sheridan Street,Portland,ME,04101,207-774-5829
Anthony P Baldwin,29 Starter Drive,Nobleboro,ME,04555,207-975-3803
"Antique & Collectible Tools, Inc.",27 Fickett Road,Pownal,ME,04069,207-688-4962
"Antique & Collectible Tools, Inc.",27 Fickett Road,Pownal,ME,04069,207-688-4962
Antique Delivery LLC,9 Merithew Road,Searsport,ME,04974,207-469-5363
Anna-bell Tours,706 Washington Avenue,Portland,ME,04103,N/A
Tony Marchelletta Trucking,616 West Etna Road,Etna,ME,04434,207-269-3302
Anytime Wrecker Service LLC,15 Roades Lane,Topsham,ME,04086,207-729-5804
Aoa Trucking LLC,286 Long Hill Rd,Sebago,ME,04029,207-632-3906
"Apex Transportation Systems, Inc.",75 Pinetree Industrial Pkwy,Portland,ME,04102,207-775-6683
"Apm Transport, Inc.",371 Maquoit Rd,Brunswick,ME,04011,207-798-3344
Apocalypse Transport LLC,412 Clark Road,Kenduskeag,ME,04450,207-356-0456
Apogee Adventures,56 Maine St,Brunswick,ME,04011,207-725-7025
Apollo Distributors,26 Hansen Way,Gorham,ME,04038,207-839-6469
Appleberry Acres LLC,9 Center Rd,Livermore,ME,04253,207-897-6068
Appliance Advantage,39 Old Alewive Rd,Kennebunk,ME,04043-6805,207-641-2722
"Applicators Sales Service, Inc.",400 Warren Ave,Portland,ME,04104,207-797-7950
Aquaflo Systems,132 Oak Ridge Road,Kennebunkport,ME,04046,207-283-4656
"Ar Kennedy Customs, Inc.",917 Us Rt 1,Steuben,ME,04680,207-546-7139
Ar Transport LLC,57 Smalls Point Rd,Machiasport,ME,04655,207-255-4546
Arbor Tech,1228 Moody Rd,Searsmont,ME,04973,207-691-2873
Intown Road Service Sr Towing,33 Rigby Road,South Portland,ME,04106,207-799-9031
Intownroadsvcsrtowing,Pobox3905,Portland,ME,04104,207-799-9031
Sawyer's Trucking,50 Elm St Ext,Poland,ME,04274,207-998-5333
Black Bear Express,880 Benton Avenue,Winslow,ME,04901,207-649-5377
"Archies, Inc.",360 River Rd,Mexico,ME,04257,207-364-2425
A D & W,865 Spring St,Westbrook,ME,04092,207-879-7800
"Arctic Energy, Inc.",535 Main St,Corinth,ME,04427,207-285-3321
"Arey Marine & Wood Products, Inc.",180 Vaughn Neck Rd,Warren,ME,04864,207-273-2621
A J O'connor Transport,Harfords Pt,Greenville,ME,04441,207-695-3831
"Arkie Rogers Septic Services, Inc.",19 Country Lane,Windham,ME,04062,207-892-9126
Arlen Lewis,322 Grove Street,Bangor,ME,04401,207-745-5680
A B Backhoe Service,327 Waugan Road,North Monmouth,ME,04265,207-416-3611
Armand Guerrette,26 Main St,St Agatha,ME,04772,207-543-7745
Armando Arnoldo Mesa Aguilar,147 Lebanon Rd,Winterport,ME,04496,207-745-5525
The Snowman Group,1 Printers Drive,Hermon,ME,04401,207-848-7300
Chandler's Septic Service,3 Chandler Rd,Lebanon,ME,04027,207-457-1447
Arnold Miller,Rr3 Box 2860,Houlton,ME,04730,207-538-9067
Winns Logging,116 Wakefield Road,West Newfield,ME,04095,207-793-2933
"Aroostook Ashphalt Applicators, Inc.",35 Fowler Road,Woodland,ME,04736,207-764-8085
Aroostook Beverage Co,52 Rice Street,Presque Isle,ME,04769,207-769-2081
Aroostook County Electric Supply,408 Main Street,Caribou,ME,04736,207-493-3386
"Aroostook Regional Transportation System, Inc.",24 Houlton Road,Presque Isle,ME,04769,207-764-1290
"Aroostook Roads, Inc.",West Cottage Rd,Portage Lake,ME,04768-0283,207-435-2105
"Aroostook Towing & Recovery, Inc.",69 Smith Road,Houlton,ME,04730,207-532-3952
Aroostook Valley Electric Co,Chaney Grove Rd,Fort Fairfield,ME,04742,207-473-7592
"Aroostook Water Care, Inc.",424 North St,Houlton,ME,04730,207-532-3005
"Arrowhead Trucking, Inc.",346 Arab Rd,Lee,ME,04455-4521,207-242-9121
Art Of Stone,25 Cottage Road,Gray,ME,04039-9503,207-657-4444
"Art's Marine Service, Inc.",232 North Shore Drive,Owls Head,ME,04854,207-594-7246
Arthur & Janet Libby,447 Main Street,Corinth,ME,04427,207-285-3329
Barry Crowell Plumbing & Heating,89 Peck Farm Rd,Winthrop,ME,04364,207-377-2541
Arthur Boyce Son Trucking,Box 37-e,Oakfield,ME,04763,N/A
Henry Crane Service,34 Newman Lane,Thomaston,ME,04861,207-354-6273
Arthur E Beach,361 Houlton Rd,Waite,ME,04492-2104,207-949-5426
A&d Lawns & Excavation,521 Deerwander Rd,Hollis,ME,04042,207-590-4152
Pristine Property Improvement,14 Chickadee Lane,Steuben,ME,04680,207-546-9704
Koch Farm Trucking,498 Mount Ephraim Rd,Searsport,ME,04974,207-907-2059
Keene Trucking,607 Boothby Rd,Livermore,ME,04253,207-897-6771
Arthur P Gooldrup Iii,175 Summer St,Oakland,ME,04963,207-465-3517
Arthur P Ogden,120 Dawes Rd,Dover Foxcroft,ME,04426,207-564-3963
Arthur R Rogers,1292 River Rd,Solon,ME,04979,207-858-5666
Art's Lawn Care,169 Windsor St,Randolph,ME,04346,207-582-7147
Art Tibbetts Marine Contractor,33 Pleasant Ridge,Camden,ME,04843,207-236-3981
Artisan Boatworks,416 Main St,Rockport,ME,04856,207-236-4231
"Arundel Auto Service, Inc.",642 Elm St,Biddeford,ME,04005,207-282-1504
Arvid Laskey,14 Marston Rd,Rockwood,ME,04478,207-534-9703
"Arwo Tranportations, Inc.",1390 Forest Ave Apt 1k,Portland,ME,04103,207-317-7501
"As & Cb Gould & Sons, Inc.",9 Walton Mills Road,Cornville,ME,04976,207-474-3930
Taylor And Son,24 Rowell Street,Madison,ME,04950,207-431-6146
Asal Logistics,615 Forest Ave #1,Portland,ME,04101,207-232-5845
"Asal Logistics, Inc.",615 Forest Ave #1,Portland,ME,04103,207-409-4811
Asap Freight Services LLC,905 Augusta Road,Jefferson,ME,04348,207-549-7712
Andy Santerre Transport,3 Carriage Hl,N Yarmouth,ME,04097,704-400-5062
"Ascent Telecom Services, Inc.",46 Ferndale Rd,Gardiner,ME,04345,803-746-4733
"Asg & Sons, Inc.",Rr 1 Box 5031,Sedgwick,ME,04676,207-326-9640
"Ash Express, Inc.",280 Lisbon St,Lewiston,ME,04240,207-344-7889
"Ashley & Harmon Logging, Inc.",325 Chases Mill Rd,E Machias,ME,04630,207-259-3918
Ashley C Dumont,43 Lambert Rd,Brewer,ME,04412,207-989-2480
Western Maine Propane,70 Bartlett Pond Road,Livermore,ME,04253,207-897-6790
Sumtymes Trucking,97 Safford Road,New Portland,ME,04961,207-265-6039
Ashman Transport LLC,62 Ashman Drive,Chelsea,ME,04330,207-626-0939
Aspen Transport L L C,711 St John Road,Fort Kent,ME,04743,207-834-6111
Asphalt Services And Maintenance,Rfd #4 Box 3000 Haywood Road,Waterville,ME,04901,207-872-2650
Assajog Trucking LLC,240 Spring St,Portland,ME,04102,207-409-8333
"Associated Grocers Of Maine, Inc.",47 Ag Drive,Gardiner,ME,04345,207-588-3190
"Associated Septic Services, Inc.",10 Filmike Way,South Portland,ME,04106,207-799-1980
Astro Waste Services,Rallee Lane,Old Orchard Beach,ME,04064,207-934-5888
Aswan Express LLC,553 Cumberland Ave # B7,Portland,ME,04104,404-543-9394
Athanase Couture,1312 Canton Point Road,Dixfield,ME,04224,207-491-7279
Athenian Entrrprises LLC,256 Lisbon Street,Lewiston,ME,04240,207-740-1623
Atherton Transportation LLC,412 Jim Grant Rd,Lebanon,ME,04027,207-658-7930
"Atkinson Trucking And Logging, Inc.",635 River Road,South Windham,ME,04082,207-892-6060
Atlantic Drywall,72 Route 236,Kittery,ME,03904,207-439-9676
"Atlantic Great Dane, Inc.",1 Hemco Rd,South Portland,ME,04055,207-799-4700
"Atlantic Hardwoods, Inc.",1004 Congress St,Portland,ME,04102,207-773-9663
"Atlantic Home Solutions, Inc.",1049 Washington Street,Auburn,ME,04210,207-786-4016
"Atlantic Laboratories, Inc.",41 Cross St,Waldoboro,ME,04572,207-832-5376
"Atlantic Land Services Group, Inc.",6 Spring Oak Lane,Surry,ME,04684,207-667-5377
"Atlantic Mechanical, Inc.",Woolwich Industrial Park Road B Box 28,Woolwich,ME,04579,207-386-0556
Atlantic Shellfish LLC,1681 Indian River Rd,Jonesport,ME,04649,207-497-2552
Atlantic Telcom Services,Rr 1 Box 5300-rt 113,Sebago Lake,ME,04075,207-642-5678
"Atlas Auto Body, Inc.",632 Roosevelt Trail,Windham,ME,04062,207-892-8834
"Atwood Lobster Co, Inc.",286 Island Road,Spruce Head,ME,04859,207-596-6691
"Auburn Transport, Inc.",82 Goldthwaite Road,Auburn,ME,04210,207-777-7100
Darge Excavating,182 Hartland Road,Canaan,ME,04924,207-474-1212
Augusta Fuel Company,4 Northern Avenue,Augusta,ME,04330,207-623-3851
Augusta Tool Rental,103 Leighton Road,Augusta,ME,04330,207-623-5200
"Aulenback, Inc.",360 River Rd,Mexico,ME,04257,207-364-8948
Aurele Cote,Rr 1 Box 93,St David,ME,04773,207-895-3579
Austin N Sylvester Sr,157 Station Ln,Warren,ME,04864,207-273-3537
"Austin Trucking, Inc.",365 Ward Hill Rd,Norridgewock,ME,04957,207-634-2912
Authorized Dealer Of Matco Tools,45 Garden St ,Old Orchd Bch,ME,04064-1167,207-229-6057
"Auto Buff, Inc.",78 Thorsen Road,Hancock,ME,04640,207-667-3542
Auto Mill Transport LLC,1261 Roosevelt Trl,Raymond,ME,04071,603-260-0495
Auto Xpress LLC,863 Methodist Rd,Westbrook,ME,04092,207-854-5962
Automaster Collision Center,15 Dennison Road,Spruce Head,ME,04859,207-594-0945
Autometrics,121 Bath Road,Brunswick,ME,04011,207-729-0842
Malco Products Of Maine,53 Liberty Drive,Hermon,ME,04401,207-848-2233
Automotive Garage Tools LLC,55 Bradley Drive,Westbrook,ME,04092,207-856-7467
Autotronics LLC,129 Us Route 1,Frenchville,ME,04745,207-543-6262
Swamp Donkey Metals,32 Realty Rd,Ashland,ME,04732,207-435-6928
Avita Of Brunswick,89 Admiral Fitch Ave ,Brunswick,ME,04011,207-729-6222
A Stanley & Son Trucking,5936 Benoch Road,Lagrange,ME,04453,207-943-2793
Aw Sales,712 Washington Street,Auburn,ME,04210,207-212-6334
Ayer European Auto Restoration,514 Brunswick Rd,Gardiner,ME,04345,207-582-3618
Ayuh Trucking LLC,10 Lady Slipper Lane,North Yarmouth,ME,04097,207-899-6271
Erskine Trucking,1156 South Solon Rd,Solon,ME,04979,207-643-2306
B & B Tree Service,145 Vannah Road,Nobleboro,ME,04555,207-563-5998
B & C Custom Transport LLC,32 Kimballs Pass,Hiram,ME,04041,207-890-7042
"B & C Oil Company, Inc.",88 Bethel Road,West Paris,ME,04289,207-890-6674
"B & C Sand And Gravel, Inc.",250 Lower Detroit Road,Plymouth,ME,04969,207-257-3802
B & C Trucking LLC,1925 Chapman,Chapman,ME,04757,207-768-6505
B & D Trucking LLC,60 Beldan Dr,Cornish,ME,04020,207-793-3706
"B & H Trucking, Inc.",94 Park,Milo,ME,04463,207-943-5506
"B & L Homes, Inc.",122 Mechanic Falls Rd,Poland,ME,04274,207-783-9612
"B & R Bartlett Enterprises, Inc.",592 Us Route 1,Amity,ME,04471,207-532-2214
"B & R Trucking, Inc.",531 A Penney Road,New Gloucester,ME,04260,207-926-3533
"B & S Transport, Inc.",1056 North St,Harrington,ME,04643,207-483-2279
B & Sons Transport,6 Danforth Dr,Glenburn,ME,04401,207-852-6960
"B & T Pallet Recycling, Inc.",14 Fireslate Place,Lewiston,ME,04240,207-784-9048
B 2 B Transports LLC,18 Middle St Apt 3,Augusta,ME,04330,207-620-2886
"B A Trucking, Inc.",Rt 3 12 Morin Ave,Fort Kent,ME,04743,207-834-5565
B-at Your Disposal,20 Pierce Ave,Sanford,ME,04073,207-891-6012
"B D S Waste Disposal, Inc.",552 Moosehead Trail,Newport,ME,04953,207-278-3833
B D Transport,120 Bangor St,Houlton,ME,04730,N/A
"B D Trucking, Inc.",Coldbrook Road,Bangor,ME,04401,207-848-3128
Paula Hebert,366 Hill Street,Biddeford,ME,04005,207-282-0718
B F Morrill Trucking,Rr 1 Box 1420,Brooks,ME,04921,207-793-8122
"B H Transport, Inc.",312 Main St,Sanford,ME,04073,N/A
B K Trucking,Po Box 129,Smyrna,ME,04780,207-757-8896
B L Express,Po Box 314,Oakfield,ME,04763,207-757-8091
B L Grant & Son,176 West Corinth Rd,Corinth,ME,04427-9623,207-285-7713
"B L Hollis Trucking, Inc.",43 Bateman St,Sanford,ME,04073,207-490-5611
"B N Milliken, Inc.",175 Anderson Street,Portland,ME,04101,207-879-1877
"B P Xxpress, Inc.",2433 Rt #2,Hermon,ME,04401,207-848-8255
"B Pelletier Logging, Inc.",562 Main Street,Saint Frands,ME,04774,207-398-4457
"B R Martin Trucking, Inc.",380 Lancaster Brook Rd,Glenburn,ME,04401,207-942-3054
"B S Trucking, Inc.",395 Church St,Hartford,ME,04220,207-860-9557
"B T B Transportation, Inc.",Thompson's Point Rd.,Portland,ME,04102,207-874-2821
"B T N Express, Inc.",Po Box 267,Livermore Falls,ME,04254,N/A
B W Services LLC,236 Sandbar Road,Windham,ME,04062,207-272-9682
B&b Septic Service,160 Plummer Rd,Palermo,ME,04354,207-445-4629
B&l Road Company,75 Pleasant St,Fort Kent,ME,04743,207-834-6711
"Babineau Trucking, Inc.",925 Main Rd,West Enfield,ME,04493,207-732-4434
Back Meadow Farm,165 Standpipe Road,Damariscotta,ME,04543,207-563-5659
Back Nine Enterprises,107 Stillwater Avenue,Old Town,ME,04468,207-735-8251
Backman Trucking,Coles Corner Rd,Winterport,ME,04496,207-223-5754
"Backwoods, Inc.",2097 Us Hyw 1,Cary Plantation,ME,04471,207-532-4170
"Bad Boy Cove Lobster, Inc.",373 Bayview Street,Yarmouth,ME,04096,207-232-4061
"Badlands Trucking, Inc.",437 Lakeview Dr,South China,ME,04358,339-337-6900
Jeanie Marshal Foods,61 Florida Ave,Bangor,ME,04401,207-942-5226
Bah Farms,256 Pond Road,Benedicta,ME,04733,207-267-0363
"Bailey Signs, Inc.",9 Thomas Dr,Westbrook,ME,04092,207-774-2843
"Baitboy, Inc.",41 Haskell Point Road,Tenants Harbor,ME,04860,207-701-9552
Baker Bickford Transportation Associates LLC,340 Swanville Road,Frankfort,ME,04438,207-223-5585
"Baker Connections, Inc.",173 Falmouth Rd,Falmouth,ME,04105,207-781-7513
Woodstock Oil Company,7 Lower Main St,Bryant Pond,ME,04219,207-665-2602
Baldwin Steere LLC,1063 Meetinghouse Rd,Wells,ME,04090,207-985-3474
"Balfour Motor Express, Inc.",204 Lewiston Road,Gray,ME,04039,207-657-3665
"Balfour's, Inc.",204 Lewiston Road,Gray,ME,04039,207-657-3665
Bamboo Bike Studio LLC,6 Grove St,Camden,ME,04843,207-415-2398
Bamford Foundation,482 Millay Road,Bowdoinham,ME,04008,207-666-5920
Banadir Transportation LLC,240 Harvard St Apt 1008,Portland,ME,04103,207-409-3930
Banana Peel Express,309 N Gorham Road,Gorham,ME,04038,207-893-9020
Bandit Trucking LLC,298 Foster Point Road,West Bath,ME,04530,207-443-6244
Bangor Cpl LLC,90 Hildreth St,Bangor,ME,04401,207-990-0957
Bangor Wholesale Laminates,355 Target Industrial Circle,Bangor,ME,04401,207-947-6019
Bangor Natural Gas Company,498 Maine Ave,Bangor,ME,04401,207-941-9595
Bangor Neon Signs,1567 Hammond St,Bangor,ME,04401,207-947-2766
Bangor Savings Bank,19 Maine Ave,Bangor,ME,04401,207-942-5211
"Bangor Steel Service, Inc.",123 Dowd Road,Bangor,ME,04401,207-947-2773
"Bangor Tire Company, Inc.",514 Coldbrook Rd,Hermon,ME,04401,207-945-6431
Bangor Truck & Trailer,2245 Odlin Road,Hermon,ME,04401,207-947-0778
Bangor Trucking LLC,268 Kittredge Road,Bangor,ME,04401,207-356-1650
Bangor Winlectric Co,149 Target Circle,Bango,ME,04401,866-306-6745
"Bangor Winsupply, Inc.",12 Stevens Rd Suite D,Brewer,ME,04412,207-989-8901
Bar Harbor Lrg Properties LLC,48 Cottage Street,Bar Harbor,ME,04609,207-288-9605
Cyrbo Trucking,97 Middle Rd,Sabattus,ME,04280,207-375-4220
Barber Services,4 Cooper's Way,York,ME,03909,207-363-2852
"Bard Excavation, Inc.",402 Main St,Lisbon Falls,ME,04252,207-353-4941
Barefoot Express LLC,1292 Industry Rd,Industry,ME,04938,207-778-0356
Bargain Fuel,31 Stilphens Way ,Arundel,ME,04046-7761,207-252-1481
Bark Bros,143 Lisbon Road,Lisbon,ME,04250,207-353-7800
"Barnett Forest Products, Inc.",18 Spring Street,Brownville,ME,04414,207-965-7911
"Barnicle Transportation Service, Inc.",7 York Street,York,ME,03904,207-363-7007
Barrett & Sons Trucking,948 Silvers Mills Rd,Sangerville,ME,04479,207-924-5401
Barrett J Westerdahl,23 Station Road,Littleton,ME,04730,207-538-9594
Barriault Trucking & Son,328 Wolfboro Rd,Stetson,ME,04488,207-296-2825
Given & Given Transport,682 Town Farm Rd,Farmington,ME,04938,207-320-1178
Tweedie Trucking,184 Brooks Rd,Thorndike,ME,04986,207-568-3178
Barry Billings,1031 Pinkham Brook Rd,Durham,ME,04222,207-353-7209
Spencer Logging & Trucking,Madison St,No Anson,ME,04958,207-431-0361
Barry Grindle,Route 15,Blue Hill,ME,04614,207-374-2744
Barry H Crafts,206 Porter-nadeau Rd,Eustis,ME,04936,207-246-2205
Bracketts Pumping & Portable Toilet Service,163 Orris Lamb Rd,Rangeley,ME,04970,207-864-3779
B L Davenport,177 West Kingfield Rd,Kingfield,ME,04947,207-265-5099
Brl Truck Brokerage,7 Ridgway St.,Houlton,ME,04730,207-532-9303
Barry Lorom Trucking,715 Ludlow Rd,Houlton,ME,04730,207-694-0018
Barry Platt,373 Vienna Rd,Chesterville,ME,04938-3033,207-491-9317
Donovan & Sons,560 Main Road South,Hampden,ME,04444,207-862-2142
Estabrook Logging,14 Buker Rd,Litchfield,ME,04350,207-268-2212
Old School Services,131 Cape Road,Hollis,ME,04042,207-929-6700
Bart Twitchell Firewood,293 East Hebson Rd,Turner,ME,04282,207-713-5150
"Bartlett's Bench And Wire, Inc.",574 Cushing Road,Friendship,ME,04547,202-521-1493
"Aaron & Melissa, Inc.",83 Chase Hill Dr,Westbrook,ME,04092,207-797-4341
"Batchelder Sales, Inc.",1511 Carl Broggi Highway,Lebanon,ME,04027-9754,207-339-2147
Battle Creek Logging,10 Mountain Rd,Washington,ME,04574,207-691-8412
Baxter Brewing Co LLC,130 Mill St,Lewiston,ME,04240,207-333-6769
Haul-rite Movers,439 E Main St,Searsport,ME,04974,207-548-2994
Bay City Motors,324 Warren Avenue,Portland,ME,04103,207-899-1111
"Bay Haven Lobster, Inc.",3 Gertrude Lane,York,ME,03909,207-363-5265
Bay Trucking,61 Union St,Blue Hill,ME,04614,207-266-4323
"Bayley's Campground, Inc.",27 Ross Road,Scarborough,ME,04074,207-883-6043
Bayleys Quality Seafood,1 Snow Canning Road,Scarborough,ME,04074,207-883-4581
Bayne Excavating,57 Marcy Lane,Wilton,ME,04294,207-645-2087
"Bayside Transport, Inc.",1602 Bayside Road,Trenton,ME,04605,207-667-6909
"Bb Mclaughlin Distribution, Inc.",20 Miller Dr,Dedham,ME,04429,207-991-2631
"Bc Holding Company, Inc.",27 Fowler Road,Cape Elizabeth,ME,04107,207-799-2702
"Bd Crocker & Sons, Inc.",708 Winn Rd,Lee,ME,04455,207-290-4443
"Bdh Trucking, Inc.",65 Foxcroft Court,Houlton,ME,04730,207-532-6303
Beac Corp,8 Newtown Rd,Biddeford,ME,04005,207-229-0825
"Beal's Lobster Co, Inc.",1903 Mason Bay Road,Jonesport,ME,04649,207-497-2666
"Bean Maine Lobster, Inc.",29 Gordon Drive,Rockland,ME,04841,207-593-7699
"Beans Dairy Farm, Inc.",36 Bean Farm Rd,Vienna,ME,04360,207-293-2536
Beans Septic Service LLC,2458 Middle Rd,Sidney,ME,04330-2838,207-441-5300
Bear Hill Electric LLC,63 Main Street,Buxton,ME,04093,207-894-7000
Bin There Dump That,250 Bear Pond Rd,Turner,ME,04282-3510,207-224-0192
"Bearings Specialty Co, Inc.",79 Bradley Drive,Westbrook,ME,04092,207-854-3333
"Beaton Enterprises, Inc.",14 Weeks Street,Houlton,ME,04730,207-532-5940
Jackson Brook Carriers,315 Mayfield Rd,Moscow,ME,04920,207-692-3680
Bogo Trucking,1713 Bristol Road,Bristol,ME,04539,207-677-3033
"Beaulieu & Son Trucking, Inc.",2127 St John Rd,St John Pltn,ME,04743,207-834-6483
Beaulieu Logging LLC,594 Alfred St,Biddeford,ME,04005,207-284-4833
Beaulieu Trucking LLC,68 Soules Hill Rd,Jay,ME,04239,207-645-3878
Beaulieu's Garage & Body Shop,490 Main St,Caribou,ME,04736,207-492-2471
Beaupre Fuels,10 Commercial St,Biddeford,ME,04005,207-282-9022
Beaver Brook LLC,15 Bushrow Rd ,Denmark,ME,04022-5600,207-452-2394
"Beaver Enterprises, Inc.",35 New County Road,Rockland,ME,04841,207-354-8754
Beaverbrook Tennis LLC,610 Rocky Knoll Road,Denmark,ME,04022,207-452-2279
Becker Transport LLC,125 Moody Rd,Lisbon,ME,04250,207-440-3392
Beckwith Farms Transport LLC,8 Hidden Pines Drive,Windham,ME,04062,207-899-1468
Haslam Firewood,517 Sugar Hill Rd,Eastbrook,ME,04634,207-565-3557
"Bedderrest, Inc.",35 Foden Road,South Portland,ME,04106,207-774-1714
"Bedrock Power Drilling, Inc.",6 Jones Road,Windsor,ME,04363,207-515-2111
Bee's Green Thumb LLC,356 South Shore Dr,Rangeley Plantation,ME,04970,207-864-2786
"Belfast Boatyard, Inc.",41 Front St,Belfast,ME,04915,207-338-5098
Bells Calais Iga,2oo North St,Calais,ME,04619,207-454-3892
"Bell Transport, Inc.",181 Country Club Road,Mars Hill,ME,04758,207-429-8210
Belle Vue Farm LLC,368 Main Street,Readfield,ME,04355,207-458-5238
Belmont Boatworks,163 Augusta Rd,Belfast,ME,04952,207-505-1620
"Belmont Logging, Inc.",5 Belmont Rd,Greenville,ME,04441,207-695-3060
Welldone Water Systems,125 Callahan Road,Buxton,ME,04093,207-318-5781
"Ben Fiske & Sons, Inc.",128 Medway Rd,Medway,ME,04460,207-746-3790
"Ben Jordan Logging, Inc.",21 Granite St,Millinocket,ME,04462,207-723-2049
Butler Cedar Products,301 Coboro Rd,Stetson,ME,04488,207-285-7848
B Fabiano Trucking,208 Mc Kay Road,Edgecomb,ME,04556,207-882-6910
Nova Rubbish Removal,283 Cross Rd,Cushing,ME,04563,207-542-9355
Ben Towne,8 Clark Rd,York,ME,03909,207-451-0015
Tar Ridge Trucking,715 Tar Ridge Rd,Prentiss Twp,ME,04487,207-731-4113
Goodridge Trucking,592 Main Street,Canaan,ME,04924,207-399-6955
Benjamin R Erskine,8 Josie Street,Skowhegan,ME,04976,207-643-2306
A&b Mobile Home Transport,32 Jesse Robbins Rd,Belfast,ME,04915-7510,207-930-9382
Tarr's Transport,49 Ridge Rd,Lisbon Falls,ME,04252,207-504-3657
"Benjamin Tibbetts, Inc.",100 West Broadway,Lincoln,ME,04457,207-794-2748
Wilson Transport,95 Turkey Lane Road,Livermore,ME,04253,207-897-2097
Benner Transportation,62 Deer Meadow Lane,Jefferson,ME,04348,207-563-6320
"Benner's Marine Transport, Inc.",234 Waldoboro Rd,Friendship,ME,04547,207-832-2222
Benner's Trucking LLC,950 Swanlake Avenue,Swanville,ME,04915,207-338-2028
Bennett Transportation,46 Union Hill Rd,Fryeburg,ME,04037,207-925-2190
Kay-ben Holsteins,64 Plummer Rd,Gorham,ME,04038,207-892-6446
Benthic Fishing Corp,53 Log Cabin Road,Westport Island,ME,04578,508-951-4632
Bentley's Trips LLC,345 Old Post Road,Arundel,ME,04046,978-356-5000
"Benton Plastics, Inc.",780 Benton Avenue,Benton,ME,04901,207-453-7956
Berlin City Of Portland,191 Riverside Street,Portland,ME,04103,207-321-3477
Bernaiche Property Maintenance,255 Main St,Caribou,ME,04736,207-498-3189
Bernard A Davis,816 Holley Road,Farmington,ME,04938,207-778-4203
Maple Street Trailer Court,Newport Road Route 7,Corinna,ME,04928,207-278-7742
Yeaton's Excavating,103 Sanborn Rd,Acton,ME,04001,207-636-1522
Bernard Douglas Stevens,166 Upper Sumner Hill Rd,Sumner,ME,04292,207-388-2933
Bernard F Jordan,1397 Waltham Rd,Waltham,ME,04605,207-479-0703
Bernard L Williams Trucking,257 Dutch Gap Road,Chesterville,ME,04938,207-778-4714
B R Thomas & Son Transport,1277 Main Street,St Francis,ME,04774,207-398-3527
Bernard Newell Trucking,89 River Rd Rt 146,New Portland,ME,04954,207-628-3481
"Bernier & Sons Repair, Inc.",1115 Mapleton Road,Mapleton,ME,04757,207-769-1521
Bernier Excavating LLC,103 Goodwin Lane,Bowdoin,ME,04287,207-666-3111
"Bernies Express, Inc.",Rr2 Box 4140,Fairfield,ME,04937,N/A
Berns Trucking,33 Gero Ln,West Gardiner,ME,04345-3144,207-458-7868
B E Dow Trucking,18 Dow Lane,Windsor,ME,04363,207-445-2181
Berry Excavation,14 Birch Way,Hebron,ME,04238,207-966-2792
Audrey Trucking,Garland Rd,Dixmont,ME,04932,207-234-2411
Bert Albert & Son,317 Main St,Frenchville,ME,04745,207-543-7468
Clark's Transport,404 Hinckley Rd,Canaan,ME,04924-3319,207-431-5685
C & J Trucking,170 Mechanic Falls Road,Poland,ME,04274,207-229-5972
Nickerson Septic Service,13 Joslyn Street,Newport,ME,04953,207-368-4424
Bertrand Gagnon,727 Charette Hill Road,Fort Kent,ME,04743,207-834-6526
Roys Logging,224 E Waterman Rd,Auburn,ME,04210,207-784-3189
Bath Bus Service,82 Leeman Highway,Bath,ME,04530,207-443-2212
"Berwick Iron & Metal Recycling, Inc.",106 Rte 236,Berwick,ME,03901,207-698-9933
"Best Price Fuel, Inc.",Rr7 Box 1760,Augusta,ME,04330,207-621-1135
"Best Rates Towing And Plowing, Inc.",10 Montgomery Lane,Owls Head,ME,04854,207-594-2442
"Bestway Wood Heat, Inc.",162 Old Stage Rd,Readfield,ME,04355,207-685-3900
Hidden Brook Farm,67 Bill Howe Rd,Norway,ME,04268,207-743-6546
Bethel Solar,377 Songo Pond Road ,Bethel,ME,04217-1111,207-418-7905
Whiting Trucking,127 South Main St,Athens,ME,04912,207-654-2084
Mcneal's Trucking,855 Sweden St,Caribou,ME,04736,207-493-4433
Bh Trans LLC,4 Herrick Ave,Mechanic Fls,ME,04256,207-754-4180
Blue Hill Disposal,319 Ellsworth Road,Blue Hill,ME,04614,207-374-5234
Bi Thach,27 Jennies Ct,S Portland,ME,04106,204-828-1114
"Bickford Oil Co, Inc.",6 Beacheric Ave,Old Orchard Beach,ME,04064,207-283-6590
"Bickford Transportation, Inc.",48 Railroad Square,Yarmouth,ME,04096,207-846-4882
Big A Auto Parts,191 Marginal Way,Portland,ME,04101,207-775-4131
"Big Bear Transport, Inc.",23 South St,Augusta,ME,04330,207-623-8273
Big Bear Trucking,8 Puritan Dr,Scarborough,ME,04074,207-883-3626
Big Dogs Express LLC,15 Freedom Way,New Sharon,ME,04955,207-355-1299
"Big Moon Farm, Inc.",100 West Front St,Skowhegan,ME,04976,207-431-4567
"Big Rig Shop, Inc.",502 Main Street,Oxford,ME,04270,207-539-8235
"Bigfoot Transportation, Inc.",919 Augusta Road,Bowdoin,ME,04287,207-666-3122
"Bigfoot Trucking, Inc.",137 Kennebunk Pond Road,Lyman,ME,04002,207-499-2468
"Bill Dittmer Trucking, Inc.",7 Hazel Street,Madison,ME,04950,207-576-0419
Bill Dodge Auto Group,2 Saunders Way,Westbrook,ME,04092,207-854-3200
Sim-han Group North,1004 River Rd,Windham,ME,04062,207-892-5473
"Bill Taylor Logging, Inc.",194 North Raymond Road,Gray,ME,04039,207-657-3935
"Bill's Auto Transport, Inc.",624 Route 202,Greene,ME,04236,800-420-9569
"Billings Diesel And Marine Service, Inc.",72 Moose Island Causeway,Stonington,ME,04681,207-367-2328
Bills Auto Brokerage,624 Route 202,Greene,ME,04236,207-946-7262
Bills Carpet Service,252 Prescott Road,Manchester,ME,04351,207-622-7939
"Bills Transport, Inc.",624 Route 202,Greene,ME,04236,207-946-7262
B & D Transport,82 Misty Way,Glenburn,ME,04401,207-990-3989
Billy Gray & Girls Trucking,126 Hunton Loop,Livermore Falls,ME,04254,207-897-5502
Bilodeau Transportation LLC,19 Maranacook Rd,Winthrop,ME,04364,207-521-6454
Bio Guys,295 Shiloh Road,Durham,ME,04222,207-841-9134
"Bio Remediation Services, Inc.",20 Sandy Point Drive,St Albans,ME,04971,207-938-2847
"Bio-mass, Inc.",22 Joes Rd,Ludlow,ME,04730,207-532-8236
"Birch Hill Estates, LLC",181 Birch Hill Est ,Bangor,ME,04401-2540,207-942-6724
"Birch Point, Inc.",33 Birch Point Lane,Island Falls,ME,04747,207-463-2515
Birch Rock Camp,293 Mcwain Hill Road,Waterford,ME,04088,207-583-4478
"Birchwood Interiors, Inc.",9000 Main Street 26,Carrabassett Valley,ME,04947,207-237-7000
Birds Eye View Woodworking,28 Evergreen Cir,Limington,ME,04049,207-637-3298
Bires Trucking,33 Mckinnon Rd,Bucksport,ME,04416,207-570-7644
Bisson Last Mile Services LLC,85 Eisenhower Dr,Westbrook,ME,04092,207-514-1060
Bisson Moving & Storage,55 Logistics Drive,Auburn,ME,04210,207-514-1066
Bk Express,586 Westbrook St Unit 501,S Portland,ME,04106,207-535-7498
Black Acres Farm,123 Black Rd,Wilton,ME,04294,207-491-5443
"Black Bear Couriers, Inc.",Po Box 8446,Bangor,ME,04401,207-942-7916
Black Bear Hydro Partners LLC,44 Davenport Street,Milford,ME,04461,207-827-2247
"Black Bear Industrial, Inc.",16 Andover Road,Rumford,ME,04276,207-364-9903
"Black Bear Ladder, Inc.",515 Pleasant St,Lewiston,ME,04240,207-782-2322
Black Cloud Enterprises LLC,24 Madison Drive,South Paris,ME,04281,207-743-4706
"Black Feather Woodworks, Inc.",244 Chases Mill Rd,East Machias,ME,04630,207-255-4681
Black Logistics LLC,996 Gardiner Road,Wales,ME,04280,207-212-3826
"Black Raider Express, Inc.",61 Garland Road,Winslow,ME,04901,207-873-3039
"Black Rose Trucking, Inc.",137 B Old Lewiston Rd,Topsham,ME,04086,207-725-8759
"Blackbear Signworks, Inc.",19 Industrial Park Road,Saco,ME,04072,207-286-8004
"Blackcat Trucking, Inc.",141c Deerwander Rd,Hollis,ME,04042,207-727-5780
Blackfly Firewood Company,982 Alna Rd,Alna,ME,04535,207-882-8298
Blackstone Growers,296 Fort Fairfield Road,Caribou,ME,04736,207-551-6118
Blaine Batchelder Jr And Sons Trucking,153 Long Ridge Road,Burlington,ME,04417,207-794-2058
Blaine F Winchester,185 Jacob Buck Pond Rd,Bucksport,ME,04416,207-469-6814
Blaine T Jordan Trucking,36 Woodland Rd,Mechanic Falls,ME,04256,207-345-3492
"Entasis, Inc.",136 Waldo Ave,Belfast Maine,ME,04915,207-338-1912
Blair Colby,308 Cranberry Rd,Cranberry Isles,ME,04625,207-244-7761
Blair D Colyer,2104 Harpswell Islands Rd,Bailey Island,ME,04003,207-833-6289
Solarwinds Northernlights,3391 Washington Rd,Waldoboro,ME,04572,207-832-7574
Steffen Hauling,168 Beech Ridge Road,Scarborough,ME,04074,207-956-0814
Blanchards LLC,935 Main St,Clinton,ME,04927,207-817-0105
Blast Party Rentals LLC,100 York Woods Road,South Berwick,ME,03908,603-300-8604
Blevins Logistics,61 Main Street,Mars Hill,ME,04758,207-227-2902
Rollins Excavation,7 Brook St,Solon,ME,04979,207-643-2505
Maine-iac Movers,16 Hunts Ln,Readfield,ME,04355,207-409-2954
A & L Energy,79 Waterville Rd,Belfast,ME,04915,207-338-5001
Blood Line Excavation,65 Old Pike Rd,Cornish,ME,04020,207-418-0831
"Blue Bird Ranch, Inc.",10 Blue Bird Drive,Jonesboro,ME,04648,207-434-5223
"Blue Cold Distributors, Inc.",10 Snow Canning Rd,Scarborough,ME,04074,207-885-5576
Blue Hill Bay Mussels LLC,460 Us Hwy 1,Hancock,ME,04640,207-479-4600
Blue Hill Disposal LLC,392 Harriman Point Road,Brooklin,ME,04616,207-359-2090
"Blue Rock Earth Works, Inc.",225 Cemetery Rd,Monmouth,ME,04259,207-933-9030
Blue Rock Industries,737 Spring St,Westbrook,ME,04092-4782,207-772-6770
"Bluebird Air Freight, Inc.",Rr 2 Box 421 Rte 35,West Buxton,ME,04093,N/A
Blynn F Thurston,67 Norway Center Road,Norway,ME,04268,207-527-2144
Bm Wilson Trucking LLC,8 Hi View Lane,Corinth,ME,04427,207-852-0700
Bma Holding Co,16 Depot St,Livermore Falls,ME,04254,207-897-5367
Bmh Enterprises LLC,125 Elderberry Dr,S Portland,ME,04106-6889,207-233-2234
Bmk Logistics Corporation,9 Sunset View,Gray,ME,04039,207-657-6930
"Bo-mar Transportation, Inc.",7 Birch Ridge Ave,Topsham,ME,04086,207-725-7189
Bob's Auto,172 Alexander Reed Rd,Richmond,ME,04357,207-737-8034
Bob Paquin,58 Saco Road,Alfred,ME,04002,207-604-6238
Bob Rideout Construction,39 Hickory Lane,Whitefield,ME,04353,207-462-3026
Bob Temple Welldrilling,2055 Augusta Road,Bowdoin,ME,04287,207-666-3224
"Bob's Garage, Inc.",4 Proctor Rd,Biddeford,ME,04005,207-282-0036
B&r Doyon Transport,865 N River Rd,Greene,ME,04236,207-713-5153
"Bobs Overhead Door Service Company, Inc.",1 Deschaine Dr,Sabattus,ME,04280,207-375-8511
"Boggs Homes, Inc.",715 Camden Road,Warren,ME,04864,207-273-2610
"Bogo Trucking, Inc.",40 Harrington Road,So Bristol,ME,04568,207-677-3033
Boisvert Logging And Excavating LLC,60 Old Farm Hill Hi,Auburn,ME,04210,207-240-8797
"Boivin, Inc.",10 Number Six Road,Phillips,ME,04966,207-639-2361
Bojames Spaulding,13 Spaulding Ln,Montville,ME,04941,207-568-3312
Bolduc Bros,397 Ridge Rd,Lisbon Falls,ME,04252,207-353-5990
"Boom Technology, Inc.",44 Sanford Drive,Gorham,ME,04038,207-887-7111
Boothbay Craft Brewery,301 Adams Pond Road,Boothbay,ME,04537,207-633-3411
Boothby Trucking LLC,234 Lower Guinea Road,Lebanon,ME,04027,207-457-6339
"Border Electric, Inc.",337 North Street,Calais,ME,04619,207-454-8619
Borderview Trucking Corp,407 Robinson Road,Blaine,ME,04734,207-429-9106
Boreas Transport,150 Dunbar Hill Rd,Embden,ME,04958-3208,207-431-6260
Bosal Foam & Fiber,171 Washington St,Limerick,ME,04048,207-793-2245
Boston Co Golf & Athletic Fields,100 Boston Rd,South Berwick,ME,03908,207-384-5622
Bouchard Transport,300 Tyler Rd,Windsor,ME,04363,207-441-7740
Bouchard Transportation Services LLC,Edmund Ouelette Road,Van Buren,ME,04785,207-868-5446
Boudy's Express LLC,351 Corinth Rd,Garland,ME,04939,207-270-0162
"Boulet Freight Management, Inc.",223 Route 201,Fairfield,ME,04937,207-453-4558
Boulet Int'l,223 Slowhegan Road,Fairfield,ME,04937,207-453-4558
Boulet's Truck Service,223 Skowhegan Rd,Fairfield,ME,04937,207-453-9048
"Bourgoin Trucking, Inc.",Box 97 - 382 Us Rte 1,Upper Frenchville,ME,04784,207-543-7335
Bowden & Son Disposal LLC,1255 Castine Road,Penobscot,ME,04476,207-326-9003
Bowden & Son LLC,1804 Castine Road,Penobscot,ME,04476,207-326-4943
Bowdoin Transport,P O Box 15,West Baldwin,ME,04091,N/A
R & M Trucking,Mill River Rd,Harrington,ME,04643,207-598-7100
"Bowers Logging, Inc.",Trans Alpine Road,Burlington,ME,04417,207-732-4221
