Company Name,Street Address,Address Locality,Address Region,Postal Code,Telephone
Controls For Automation,55 Commerce Way,Dedham,MA,02026,781-251-9228
E Kammann Transportation,1257 Worcester Rd,Framingham,MA,01701,774-279-4027
A T S,495 Columbia Street,Somerville,MA,02143,617-623-9522
Borges Transportation,257 Anawan St,Rehoboth,MA,02769,508-294-2829
Squeaks Sewer Service,12 Charlton Street,Southbridge,MA,01550,508-764-6094
Full House Transport,32 Rydberg Ter,Auburn,MA,01501,508-459-1434
Mastej Excavating And Trucking,187 East St,South Hadley,MA,01075,413-221-6485
Fgm Trucking,5 Cataline Street,Worcester,MA,01605,508-523-9152
Merzoian Distributor,8 Athens St,Auburn,MA,01501,508-832-2093
John Dicalogero,38 Montvale Avenue - Stuie 110,Stoneham,MA,02180,781-850-3440
Us General Services,28 Hurley Circle,Marlborough,MA,01752,508-308-3835
Bobs Tire Co,35 County Rd,West Wareham,MA,02576,508-295-4300
Jefferson Gray Trucking,108 Harrington Way,Worcester,MA,01604,508-459-2339
Jdc Transport,32 Cashman Street Apartment L,Marlboro,MA,01752,978-479-1192
Tds Trucking 3 Logistics,160a James Street,Worcester,MA,01610,774-262-0280
Leduc N Son Trucking,7 Hudson Road,Oxford,MA,01540,508-731-0073
Esp Trucking Company,19 Beauchamp St,Springfield,MA,01104,516-472-1014
Intercontinental Services,172 Ridgewood Dr,Leominster,MA,01453,978-537-6505
Williams Motor Transport Of Boston,231 Blue Ledge Dr,Boston,MA,02131,617-293-6740
"Brown Industries, Inc.",2 Megunko Rd,Ashland,MA,01721,508-881-8450
Brewster Coach,365 Washington St,Quincy,MA,02169,617-769-9800
Boston Korea Express,2 Shaker Road,Shirley,MA,01464,978-425-4448
Martino Trucking Contractors,55 Bailey Rd,Dracut,MA,01826,978-490-0531
J And K Trucking,4 Cote Blvd,South Hadley,MA,01075,413-210-8838
Pelis Auto Sales,391 Damon Rd,Northampton,MA,01060,413-586-7222
Tieson Trucking,67 Frank #172,Worcester,MA,01604,508-410-1419
E A F Trucking,20 Upsala Street #2,Worcester,MA,01610,508-615-5919
Life Time Trucking,74 Providence Street,Worcester,MA,01604,508-755-4942
Paul L Shapleigh,578 Torrey Street,Brockton,MA,02301,508-584-2011
Ja Trucking,164 Sherman St,Springfield,MA,01109,413-218-8665
Quality Moving & Storage,181 N Mountain Rd,Dalton,MA,01226,413-822-1766
A G R Transportation,410 Cross Road,North Dartmouth,MA,02747,508-992-3779
Kwadere Distributors,49 Chelmsford Street 2nd Floor,Lawrence,MA,01841,800-205-9956
Marcos Trucking,22 Harvard Street,Pittsfield,MA,01201,413-443-7461
Nickerson Service Center,4515 Route 6,North Eastham,MA,02651,508-255-2844
Edna Transport,66 A Ashton Street,Everett,MA,02149,781-956-5418
Moriarty Transport,342 Bedford Street,Lexington,MA,02420,781-760-4928
Jay & Marni,13 George St,Boston,MA,02302,202-521-1493
K & M Auto Repair,274 Winthrop St,Taunton,MA,02780,508-824-6866
Mls Trucking,47 Nightingale St,Fall River,MA,02721,774-451-2992
Js Transportation,246 Providence Street,Worcester,MA,01607,850-665-3392
Tebo Services,407 North St,Walpole,MA,02081,508-734-5602
Neenav Food Distributors,22 Prospect Street Unit 5,Woburn,MA,01801,339-223-0913
Tlc Custom Tours & Charter Service,39 Harding Avenue,Adams,MA,01220,413-743-7984
Lugo Trucking Company,24 Hudson Street,Worcester,MA,01609,774-253-2838
Lawsons Road Service,11 Newton St,Mansfield,MA,02048,774-284-4933
The Wisemen Transport Company,140 Wilmington Avenue #1,Boston,MA,02124,857-891-4631
Giles Trucking,56 Eighth St,Tewksbury,MA,01876,978-502-9673
Atlas Automotive,21 Florence Avenue,Holyoke,MA,01040,413-388-1680
Deductible Autobody & Sales,169 Franklin Street,Hanson,MA,02341,781-293-2255
Amaral Trucking Services,42 Middle Street,Gloucester,MA,01930,978-335-4602
J Lynn Transportation,15 Old Spencer Rd,Charlton,MA,01507,774-289-9221
Hunt Transportation Services,884 Auburn St,Bridgewater,MA,02324,617-816-5467
Psgi,87 Crescent Rd,Needham,MA,02421,888-520-3111
Faith & Hope Transportation Ministries,848 Main Street,Brockton,MA,02303,508-584-9199
Bly Trucking,15 Mosgrove Ave,Roslindale,MA,02131,617-571-2777
Tom Lam Livestock Hauling,46 Hinckley Rd,Barre,MA,01005,978-355-2549
Haul-gone Container Service,6 Pauls Way,Newbury,MA,01951,978-457-1087
Cabrera Transportation,159 Commercial St,Lynn,MA,01905,781-599-8009
Dpf Trucking,116 Old Boston Rd,Tewksbury,MA,01876,978-265-7232
Khanchana Transport,78 Lincoln St,Fitchburg,MA,01420,978-790-3560
Fidan Express,95 Sumner Ave Apt 3r,Springfield,MA,01108,413-747-1572
William Fowler Outdoor Services,82 Bunce Road,Ashley Falls,MA,01222,413-229-6682
Netco Express,187 Florence Street,Brockton,MA,02301,857-919-6560
Anafelix Transportation,20 Harvard St Ap 02,Pittsfield,MA,01201,N/A
A R Garant Trucking,153 Gulf Rd Cottage 16,South Dartmouth,MA,02748,508-997-3484
Cdp Transportation,433 North Avenue,Rockland,MA,02370,508-380-6794
D & L Transport,2 Cobble Mountain Rd,Blandford,MA,01008,413-848-2218
Francois Family Express Delivery,4 Sardella Circle,East Walpole,MA,02032,617-784-6684
Ef Delivery Service,20 Williamsburg Ct #3,Shrewsbury,MA,01545,508-925-5113
Leslie's Transportation And Limo Services,2-4 Washington Street,Dorchester,MA,02121,617-606-3533
Lao Trucking,8 Carter Street #1,Leominster,MA,01453,978-537-7084
R & R Trucking,421 Turners Falls Rd,Montague,MA,01351,413-367-2869
Kathyrii Trucking,68 Eddy St,North Attleboro,MA,02760,508-463-5234
Guimel Transportation,12 Pope Street Suite B 408,Salem,MA,01970,978-590-0452
Lj Transportation,85 Commons Drive Apt 401,Shrewsbury,MA,01545,978-340-1952
G Marroquin Transportation,44 Sumner Street #1,Marlborough,MA,01752,774-285-6727
Bnb Waste Services,127 Williams Street,Northampton,MA,01060,413-586-2800
Nzou Transportation,18 Meadowcroft Street,Lowell,MA,01852,978-323-9958
Brooks Delivery Service,100a Elliott Street,Danvers,MA,01923,617-212-5552
Fortuna Express,291 Elm Street Apt 2b,Holyoke,MA,01040,413-328-8698
Sbn Transportation,31 Orne Street,Worcester,MA,01605,508-926-8227
Servicemaster Assured Restoration,283 Southwest Cutoff,Worcester,MA,01604,508-757-0700
Darlings Energy Service,151 Vining Hill Rd,Southwick,MA,01077,413-998-3229
Coffee Express Dist,12 Dacques St,Worcester,MA,01603,508-754-3433
Dallalis Logistics,183 Marion Road,Wareham,MA,02571,508-291-2201
Southern New England Limousine,188 Main Street,Blackstone,MA,01504,401-808-4188
Almira Trucking,20 Fairfax Street,Worcester,MA,01610,508-304-5520
K & E Transport,37 Wave Ave,Revere,MA,02151,617-293-7487
Lifeline Limousine,6a Gill Street,Woburn,MA,01801,781-935-2220
General Aspalt Services,12 Perry Ave,Seekonk,MA,02771,508-336-2234
M&s Transport,2 Hillside Road,Hudson,MA,01749,508-930-7427
Starship Logistics,4526 Scotts Mill Court,Saugus,MA,01906,781-558-2096
Craters And Freighters,577 B Hartford Turnpike,Shrewsbury,MA,01545,508-925-4533
Two Guys Moving,16 Brookfield St,Lawrence,MA,01843,978-430-9781
Dcl Logistics,117 Keayne Street,Revere,MA,02151,781-284-1100
Transportation,1655 Main St,Springfield,MA,01103,267-318-4602
Hispaniola Service,165 Market St 18,Everett,MA,02149,617-381-9179
Boston Quality Movers,10 Penniman Road,Allston,MA,02134,617-787-9139
J & K Transportation,18 Lincoln Street,Merrimac,MA,01860,978-384-8094
Finishline Trucking,43 School St,Springfield,MA,01105,413-204-9244
Kgb Transportation,487 Lunn's Way,Plymouth,MA,02360,774-259-5147
Adamson Trucking & Excavating,21 Green Street,Revere,MA,02151,781-284-8458
Jsb Distributors,93 Winchester Street,Baldwinville,MA,01436,978-319-2243
Bees Moving,4 Benson St,Brighton,MA,02135,857-540-9283
Honey Do Services,137 Lumbert Cross Rd,Southfield,MA,02159,413-229-8629
C & G Distributor,26 Ames St,Lawrence,MA,01841,978-390-2783
Dc Cook Freight Services,26 Towns Court,Lynn,MA,01904,781-599-3731
Baldwin Motor Company,44 Great Barrington Rd,West Stockbridge,MA,01266,413-232-4455
Vargas Trucking Services,88 B Loxwood Street,Worcester,MA,01604,508-498-2386
Ampl Transport,71 Donizetti St,Wellesley,MA,02482,781-237-4663
Express Auto Transport,6 Second Street,Framingham,MA,01702,508-308-1820
Mad Tracks Trucking,9 West St,Westborough,MA,01581,508-614-5387
Dwaine's Sign Service,82 Southbridge Road,Dudley,MA,01571,508-294-4880
Raviele Limousine,74 Metropolitian Ave,Seekonk,MA,02771,401-952-0077
Mat Morton Septic Service,85 Gay Road,Groton,MA,01450,978-448-1187
Squad Home Deliveries,10 Bourne St #1,Worcester,MA,01606,508-713-7115
Jardan Movers,7 Sheep Pasture Rd,Southwick,MA,01077,413-569-5235
Marcs Handymanservice,336 Main Street,Blackstone,MA,01504,508-928-1344
Jms Trucking,23 Gee Avenue,Gloucester,MA,01930,978-360-5798
Mike Joyce Backhoe Service,51 Shirley Street,Pepperell,MA,01463,978-433-6827
Rogers & Son Trucking,191 North Street,Weymouth,MA,02191,178-133-5894
B & B Trucking,416 Winthrop Street,Taunton,MA,02780,508-802-0086
Lm Trucking,249 Marion Street #3,Boston,MA,02128,617-938-1785
Milton Trucking,14 Ferdinand St,Worcester,MA,01603,508-757-2705
Vince Transporters,155 Chestnut Farm Way,Raynham,MA,02767,617-320-9979
Mcgee Trucking,135 Martin St,Rehoboth,MA,02769,508-252-5319
Bhh Truck Services,19 Kingman Ave,Brockton,MA,02302,508-345-8723
Haul All Transport,65 Irish Ln,Rutland,MA,01543,508-886-6809
Brian Schofields Truck And Trailer Repair,144 Palmer Rd,Monsom,MA,01057,413-893-9272
G N C Delivery Srvcs Co,14 Woodward Park St #1,Dorchester,MA,02125,866-347-5506
Jan Poh Distributing,75 Worcester St,Bridgewater,MA,02324,508-697-1059
D Morissette Trucking,344 W Royalston Road,Athol,MA,01331,508-414-5174
Competitive Parking Lot Services,36 Rodney Street,Brockton,MA,02302,508-587-3015
Gerry's Auto Wholesale,1720 Gar Hwy,Swansea,MA,02777,508-379-0199
Freeline Entertainment,176 Maple Avenue #3-32,Rutland,MA,01543,508-796-3899
Scheer Trucking,16 Cornell Drive,Milford,MA,01757,508-381-1145
Padilla Trucking Company,141 King Phillip Rd,Worcester,MA,01606,508-926-8387
White Brothers Trucking,12 Shannon St,Worcester,MA,01604,508-770-1921
Sal's Trucking,12 Princeton Drive,Milford,MA,01757,774-244-0989
Dba Colrain Service Center,113 Main Road,Colrain,MA,01340,413-624-9600
Tops Electronics,105 Ward Hill Avenue,Haverhill,MA,01835,978-374-9877
Rb Roll Off Services,586 Bedford Street,Fall River,MA,02720,508-678-4777
Varsity Facility Services LLC,4 Tower Farm Road,Billerica,MA,01821,978-262-1312
Ram Auto Carrier,35 Mcgee Ave,Marlboro,MA,01752,774-317-8761
Tmd Transportation,51a Pleasant Street,Granby,MA,01033,413-883-4056
Tmb Transport,46 Euclid Ave,Quincy,MA,02169,617-590-3408
D T Clark Trucking,5 Spenser Dr,Halifax,MA,02338,781-294-7550
R A Gill Trucking,607 Turnpike,South Easton,MA,02375,508-400-1569
Sanewaters,40 Papoose Lake Dr,Heath,MA,01346,857-776-7866
Soucy Crane Service,31 Varnum Rd,Dracut,MA,01826,978-957-2202
Jay's Trucking,600 Turnpike Rd,Rowley,MA,01969,978-420-2521
W Carrera Trucking,44 Jones Road,Revere,MA,02151,781-289-0946
Cm Transport,109 Amber Dr,East Bridgewater,MA,02333,508-631-4464
Rivera Trucking,25 Upland Garden Dr Apt 12,Worcester,MA,01607,508-688-9063
Jim Troupes Land Surveying,31 Walcott Street,Hopkinton,MA,01748,508-435-5060
Norfolk Utility Truck Service,57 B Mendon St,Bellingham,MA,02019,508-966-4100
Mp Trucking,31 Irving St,Everett,MA,02149,617-387-6927
Eleccomm Power Services,785 Woburn St,Wilmington,MA,01887,978-657-0091
J Imbrescia Trucking,24 Whitin Ave,Revere,MA,02151,781-284-5260
Atlantic Air Cargo International,420 Main St Suite 8a,Walpole,MA,02081,508-660-0900
Slovan Metellus Delivery,50 Versey Street,Brockton,MA,02301,774-274-4256
Lds - Delivery Service,203 Prospect Street,Brockton,MA,02301,561-239-6701
S & L Distribution,186 Tosca Drive,Stoughton,MA,02072,718-341-0054
G Gravel Transportation,9 Meadowbrook Lane,Taunton,MA,02780,150-882-3103
Helwig Construction And Trucking,66 New Boston Rd,Dudley,MA,01571,508-944-0116
Aa Transport,4 A Fletcher Street,Plainville,MA,02762,774-270-1093
Majestic Movers,65 Campbell St,Fall River,MA,02723,508-677-4777
Wr Mulvey Fire Services,17 Merrimack St,Lawrence,MA,01841,978-685-5770
Marc's Trucking LLC,810 Moore St,Ludlow,MA,01056,413-219-7302
Seaport Livery Service,58 Lynn Ave,Hull,MA,02045,781-925-5466
New England Express Transport,44 Bemis Road,Fitsburg,MA,01420,N/A
G R Transport,27 Camden St Apt 1,Lawrence,MA,01841,978-590-8077
Auction Express,5 Lincoln Street,Millville,MA,01529,508-213-4151
Salvadora Garcia,190 Haverhill St Num# 327,Methuen,MA,01844,978-655-3673
S M Trucking,52 Folsom St,Revere,MA,02151,857-453-9402
Shuttle Express,29 High Street,Plainville,MA,02762,508-316-0153
Atom Moving,10 Penniman Rd,Allston,MA,02134,617-202-6047
Dave Auto Transport,989 Pleasant Street,Worcester,MA,01602,508-752-5159
Dan Hurbe Express Delivery,437 River St #202,Mattapan,MA,02126,617-642-1391
New England Flooring Service,484 Main St Suite 28,Fitchburg,MA,01420,617-953-2534
Notso Distributors,55 Prospect St,Amesbury,MA,01913,978-270-2026
Green Cedars Trucking Campany,227 Chestnut Farm Way,Raynham,MA,02767,774-259-7786
Boston Express Movers,450 Cambridge Street,Allston,MA,02134,800-226-3696
Carlos Professional Services,47 Clyde Street,Springfield,MA,01107,413-328-3079
Morrison Trucking,307 Alger Street,Winchendon,MA,01475,978-502-2229
Szynal Property Services,24 Logan Street Apt 504,New Bedford,MA,02740,508-985-9799
Yanes Transport,226 A Washington St 2nd Fl,E Wolpole,MA,02032,508-660-3965
Full-tilt Transport,232 Lancaster Street,West Boylston,MA,01583,508-852-8878
Rcn Trucking,30 Edgemont Rd,Shrewsbury,MA,01545,508-962-3782
J K Trucking,15 Georgetown Dr #7,Framingham,MA,01702,617-792-3895
P J Trucking,18 Wilcock St,Dorchester,MA,02124,617-435-5467
"B & E Trucking, Inc.",673 Brock Ave Apt 1,New Bedford,MA,02744,508-509-1148
Arruda's Trucking,71 Sagamore St #1,New Bedford,MA,02740,508-922-1035
All Aspects Timber Transport,236 Sandisfield Rd,Sandisfield,MA,01255,413-258-0210
K M Tuluka Enterprises,6 Lorraine Rd,Worcester,MA,01604,508-752-3857
Jnp Services,466 Boston Rd,Sutton,MA,01590,508-865-0941
Advanced Seamless Gutters,44 Blanche St,Chicopee,MA,01013,413-348-2667
Desert Trucking Services,540 East Merrimack St #5,Lowell,MA,01852,978-454-9808
Erika Express,1 Garfield Ave,Woburn,MA,01801,781-240-1415
Rgd Trucking,17 Mullen Way,Edgartown,MA,02539,781-844-0311
J O B Trucking,70 Miscoe Rd,Worcester,MA,01604,508-890-7994
Joe Legg Truck Services,7 Cleveland St,Medford,MA,02155,617-899-4666
Jec Trans Trucking,10 Spooner Street,Plymouth,MA,02360,508-746-6681
Jcr Construction,48-1 Midland St,Worcester,MA,01602,508-752-5600
L & M Transport,133 Sergeant Street,Holyoke,MA,01040,413-536-6421
Robert Johnson Trucking,126 Johnson Rd,Winchester,MA,01890,978-790-0088
Bobby C S Trucking,33 Cross Road,North Darmouth,MA,02747,508-294-8666
Todesco Trucking,67 Doran Dr,East Falmouth,MA,02536,508-566-5888
Correa Transport,17 Indian Head Hts,Framingham,MA,01701,508-202-9141
Wayne's Trucking,103 Friend,Amesbury,MA,01913,978-388-3425
Anderson Transport,3 Midland Ave,Saugus,MA,01906,781-233-4686
Tree & Stump Removal Services,80 Blair Lane,Sheffield,MA,01257,413-441-1596
Rc Ullo Trucking,51 Decarolis Dr,Tewksbury,MA,01876,978-657-6135
Morin's Trucking,13 Maple St #2fl,Brookfield,MA,01506,508-637-1233
B And F Transport,89 Navajo Rd,Springfield,MA,01109,413-230-2089
R And B Delivery Service,193 Salem Road,Billerica,MA,01821,978-362-2233
Benner Express Services,294 West Street,Randolph,MA,02368,781-986-5007
Enzo Trucking,66 Massasoit Street,Fall River,MA,02723,917-531-6060
Ilson's Trucking,45 Common Drive Bl 45 Apt-412,Shrewsbury,MA,01545,508-596-1058
Kuba Transport And Logistics Service,384 Sunderland Rd # 20b,Worcester,MA,01604,508-793-2975
Hentschke's Trucking,152 Turner Road Unit 20,Holliston,MA,01746,508-740-3567
Toro's Trucking,41 Foundry Street Apt 1114,South Easton,MA,02375,774-826-5522
D&l Auto Transport,11 Jones St,Everett,MA,02149,617-387-3234
Cross Roads Trucking,355 Park Ave,Revere,MA,02151,714-730-1019
Sun Tech,31 Garage Road,Sunderland,MA,01375,413-665-9300
Lr Express,197 Stevens Street,Marlborough,MA,01752,774-285-9730
L A B Transport,16 South St Apt 2,Marlborough,MA,01752,508-494-0712
Tammy B Express,118 Colton St,Springfield,MA,01109,413-732-6522
T E Tinker Outdoor Services,21 Second St,North Egremont,MA,01252,413-528-8430
Beaudry Construction,63 Willowdale Rd,Tyngsboro,MA,01879,978-957-6559
Brookline Moving Co,995 Old Post Rd,Walpole,MA,02081,617-489-8090
S And S Auto,140 Egremont Plain Rd,North Egremont,MA,01252,413-528-0416
C&c Transport,121 Swan St,Methuen,MA,01844,978-328-9728
Family Auto Sales,283 Lincoln Street,Marlborough,MA,01752,508-485-0066
Sanchez Trucking,53 Broadway St,Methuen,MA,01844,978-569-3779
White Cross Carriers,267 Linden St,Pittsfield,MA,01201,413-841-9249
Bennys Transport Services,269 Haverhill St,Lawrence,MA,01840,508-982-5549
Intra America Motor Carriers,14 Smith Road,Sutton,MA,01590,508-459-0488
Skylite Transportation,3 Rosemary Drive,Randolph,MA,02368,781-963-6500
Ttd Express,18 Cedar St,New Bedford,MA,02740,508-496-3788
Rodriguez Trucking,74 Massachusetts Ave,Springfield,MA,01109,413-246-3486
Proffesional Trucking Services,130 Central Ave,Hyde Park,MA,02136,617-368-0485
Simoes Transports,215 Prospect St,Ashiland,MA,01721,508-881-4731
Gary Willard Trucking,55 Park Ave,Ware,MA,01082,413-967-7181
Jb Transportation,26 Barnum Street,Taunton,MA,02780,781-241-3841
Mosso Carrier,93 Bellevue Street,Dorchester,MA,02125,617-436-8151
Quality Industrial Gases,99 Jackson St,Canton,MA,02021,781-828-7466
Kd Trucking Co,424 Winter Street,Holliston,MA,01746,508-429-3489
Special Forces Moving,11 Pinkert Street,Medford,MA,02155,617-990-2600
Mra Trucking,14 Benett Street #3,Beverly,MA,01915,978-852-4151
Village Auto,593 Mass Avenue,Boxborough,MA,01719,978-580-6420
Samwac Delivery Services,135 Grove St #131,Rockland,MA,02370,781-878-9202
East Coast Auto Transport,60 Beeching Street,Worcester,MA,01602,508-797-3165
Kyros Transport,1640 Worcester Rd Unit# 613d,Framingham,MA,01702,508-733-3048
Toggy's Service,297 Bunker Hill Street,Charlestown,MA,02129,617-699-4304
Chris' Trucking,19 Oregon Rd,Ashland,MA,01721,774-244-0268
Olympic,515 Lowell St,Peabody,MA,01960,978-535-0943
N&j Transportation,106 Springfield St,Lawrence,MA,01843,978-946-9247
Julios Delivery Services,34 Curtis Ave Q06,Marlboro,MA,01752,508-485-8277
M & M Trucking,9 Trudy Circle,East Dennis,MA,02641,508-385-7669
Eigans Transportation,24 Oakview Street,Worcester,MA,01605,508-595-9987
Emanuel Transportation,16 Montanari Dr #8b,Marlborough,MA,01752,781-389-2152
Penneys,18 Pinehurst Street,Blackstone,MA,01504,508-928-1254
Bob Hamilton Trucking,19 Wigwam Drive,Heath,MA,01346,413-337-4915
Walsh Trucking,21 Fairmont Rd,Peabody,MA,01960,786-457-7770
Mayimbes Auto Repair & Detailing,55 Exposition Terrace,West Springfield,MA,01089,413-214-7665
Mohawk Auto Sales,1519 Curran Highway,North Adams,MA,01247,413-663-6835
E And B Trucking,45 Mountain View Terrace,Dalton,MA,01226,413-822-2224
Marathon Transporters,615 South Main St,Randolph,MA,02368,508-410-1190
Vitrak Transporters,16 Holden St,Lowell,MA,01851,978-328-2151
Yuri Transportation,30 Laviolette St,Marlborough,MA,01752,508-395-7986
Cmr Transportation,14 Roberts Road,Billerica,MA,01821,781-948-8556
Michelles Professional Transport,136 Dalton Street,Lowell,MA,01850,617-515-5425
Madijay Trucking,31 Bayberry Rd,Danvers,MA,01923,603-401-5080
Johnson George Delivery,151 Wheeler Circle Unit 244,Stoughton,MA,02072,508-400-3636
Kdk Enterprise,11 Daniel Road,Wareham,MA,02571,508-295-5840
Pit Bull Trucking,17 Bradstreet Lane,Topsfield,MA,01983,978-290-8692
Dennis Trucking Co,3 Leahaven Rd,Mattapan,MA,02126,617-698-6337
Towle Trucking,20 Coyne St,Clinton,MA,01510,978-733-1599
C R Dahlberg Trucking,15 Wing Lane,Acushnet,MA,02743,508-998-2986
Lenny Auto And Transport,100 Ledgecrest Dr,Worcester,MA,01603,508-831-4255
Pml - Trucks Service,10 Stratfield Street,Worcester,MA,01604,774-245-7220
Quick Cargo Services,44 Bissell Ave,Springfield,MA,01119,413-209-9461
Ledgeland Transportation,357 Worcester Street #2,Southbridge,MA,01550,508-450-0139
C Woodcock Trucking,35 Elm Street,Monson,MA,01057,413-267-0522
Kevins Trucking,33 Montague City Rd,Greenfield,MA,01301,413-774-6897
Freedom Delivery,37 Elmer Ave,Pembroke,MA,02359,781-294-0490
Holden Motor Carrier,5 Towle Dr,Holden,MA,01520,508-829-5162
Alvarez & Sons Trucking,384 Lovell St,Worcester,MA,01602,774-262-7541
Ferri Oil Service,4 Loomis Street,North Attleboro,MA,02760,508-668-6180
Rodriguez Auto Transport,490 Sumner Street,East Boston,MA,02128,617-901-0748
Rosie Dot Transportation,20 Water St,Danvers,MA,01923,774-451-2994
Kic Carriers,366 High Street,Randolph,MA,02368,617-458-9198
"E R Trucking, Inc.",1443 Main St,Worcester,MA,01603,508-373-2176
Chicoca Express,27 Walnut St,West Bridgewater,MA,02379,508-580-1266
Rwg Transport,15 Heath Rd,Peabody,MA,01960,978-535-7080
Next Generation Vending,5 Campanelli Circle Suite 200,Canton,MA,02021,781-828-2345
R Long,439 Stevens Street,Lowell,MA,01851,978-453-4698
Ridgeway Company,18 Boston Street,Middleton,MA,01949,978-774-4885
Bebetu Delivery Experts,744 Princeton Blvd Apt 9,Lowell,MA,01851,781-413-7857
D N S K Trucking,7 Reservoir Rd,Southwick,MA,01077,413-348-0072
"Bonsai Trucking, Inc.",1190 Central,Stoughton,MA,02072,978-333-9361
Hathaway & Son Trucking,11 Olin Ave,Chester,MA,01011,413-354-0274
E E S Transportation,49 Tampa Street #1,Worcester,MA,01604,508-304-5795
Jmack Distributor,133 Purchase St,South Easton,MA,02375,508-238-2939
Tasi Transportation,28 Assabet Lane,Worcester,MA,01602,774-239-0103
Stans Auto Parts,94 A Cross Rd,Templeton,MA,01468,978-939-2082
Dba Anything Automotive,153 Bedford St,East Bridgewater,MA,02333,508-844-3142
Neptune Trucking,69 Fay Rd,Dedham,MA,02026,857-891-6056
Elik Transportation,85 George Street,West Springfield,MA,01089,413-328-3252
Esat Logistics,5 Ives Street,Blackstone,MA,01504,508-883-8295
Sun Ride Transit,176 Howard St,Brockton,MA,02302,617-291-8782
A&k Trucking,1 High Tail Lane,Newbury,MA,01951,978-697-1357
Pma Transportation,55 Great Pond Road,South Weymouth,MA,02190,781-335-1872
Celikovic Trucking,180 Newbury Street Apt#5104,Danvers,MA,01923,781-632-5100
Metro East Seaboard Transporters,34 Lisle Street,Braintree,MA,02184,781-858-9282
Haul On Call,551 Electric Ave,Fitchburg,MA,01420,978-345-4695
Jvb Transportation,3 Raymond Ct Apt 18,Hudson,MA,01749,774-244-6277
Rft Trucking,36 Clantoy St,Springfield,MA,01104,413-363-5426
Uptown Transportation,494 Wood Street,New Bedford,MA,02740,508-997-9012
Diversified Developments,383 Hixville Road,Dartmouth,MA,02747,508-997-3910
B & B Trucking,501 East Harbor Road,Cheshire,MA,01225,413-743-7257
M&m Carrier,174 Highland St,Roxbury,MA,02119,857-654-6158
William Rose,87 James St,Greenfield,MA,01301,413-464-3749
First Line Express,45 Mattapoisett Rd,Acushnet,MA,02743,508-294-5426
Midnight Auto,112 So Shelburne Rd,Greenfield,MA,01301,413-773-3505
Mws Trucking Co,121 Sycamore Street,New Bedford,MA,02740,508-991-2982
Abs Auto Glass,654 Essex Street,Lawrence,MA,01841,978-681-6040
Latin Moving,94 Dolphin Avenue,Revere,MA,02150,617-429-5612
D A Sevene Transport,4 Plantation Circle,Greenfield,MA,01301,413-772-2549
"Bocash Trucking, Inc.",397 Johnny Appleseed Lane,Leominster,MA,01453,978-534-1073
R R Trucking,60 Watts St,Chelsea,MA,02150,617-889-1826
Godinez Trucking,24 Carter St #4,Everett,MA,02149,617-733-3184
Northeast Equipment Distributors,299 Main Street,North Reading,MA,01864,978-664-3501
"White Glove Furniture Delivery, Inc.",845 Sandwich Road,Sagamore,MA,02561,508-833-6661
J E Spinney & Son Trucking,112 Salisbury Street,Dracut,MA,01826,978-454-0811
Granite Metal Services,21 Beaufield Street,Dorchester,MA,02124,617-282-1057
Fidelity Trucking,10 Metcalf Court,Jamaica Plain,MA,02130,617-592-2008
Dave Porowski Trucking,181 West Street Apt#f4,Ware,MA,01082,413-967-5031
Thompson Express,205 Santo Sct,Monponsett,MA,02350,508-345-7727
R & A Transportation,957 Stratford Street,New Bedford,MA,02745,508-995-6945
Berube's Carrier Service,508 Haverhill Street,Lawrence,MA,01841,978-681-9625
Kashulines Trucking,174 Pleasant Street,Dunstable,MA,01827,978-649-1157
Rafi Express Shipping,300 Canal St 5th Flr,Lawrence,MA,01841,978-557-8131
Classic Furniture Services,90 Hayward St,Franklin,MA,02038,508-528-6747
Collin Transport,18 Noyes Rd,Georgetown,MA,01833,978-352-2276
G Trucking,24 Dubois Street,Westfield,MA,01085,413-568-0610
D Burns Trucking Co,27 Rockefeller St,Randolph,MA,02368,781-961-4276
Mm Transport,153 Connemara,Hyannis,MA,02601,508-790-9783
Kidz Express,1029 R Pearl St,Brockton,MA,02301,580-897-0002
Dba Main Street Auto Sales,Route 146,Sutton,MA,01590,508-865-4814
Craters And Freighters Of Boston,254 Bodwell St Unit B,Avon,MA,02322,508-894-0123
R V S Trucking,3 Blackburn St,Fairhaven,MA,02719,508-996-8667
Nbk Moving Systems,8 Cleveland Street,Leominster,MA,01453,978-537-0004
Chase Automotive,1422 Granby Rd,Chicopee,MA,01020,413-593-3535
Johnson Trucking,One Wilson Ln,Plymouth,MA,02360,508-320-3950
Ernest Trombly Trucking,68 Prospect Street,Winchendon,MA,01475,978-297-9898
Murphys Transport,65 Ashtead Road,Bridgewater,MA,02324,508-697-4027
R E Delivery,284 Apache Way,Tewksbury,MA,01876,617-331-9058
Carl Proia,21 Charles Street,Woburn,MA,01801,781-935-1310
Deadline Trk,477 Circuit Street,Hanover,MA,02339,781-878-0886
Candiani Transportation,264 Ferry St,Everett,MA,02149,617-438-3684
Young Trucking Company,229 Highland Street,South Hamilton,MA,01982,978-468-0076
Legacy Auto Transportation & Equip,50 Wadsworth St,Danvers,MA,01923,978-479-4419
Simonton Transport,100 New State Hwy #112,Raynham,MA,02767,617-719-1966
G&v Auto Repair,14-16 Gardner Street,Worcester,MA,01610,508-795-0735
Pods,675 Canton Street,Norwood,MA,02062,781-255-0464
M Dulmaine & Son Trucking,77 Westwood Dr,Sturbridge,MA,01566,508-347-2931
C & G Tropical Distribution,43 Merrill St,Lowell,MA,01852,978-758-9457
G Silva Trucking,9 Barros Drive,Marion,MA,02738,508-748-0639
Danco Trucking,535 Smith Neck Rd,Dartmouth,MA,02748,508-989-5746
Lou Giampietro Trucking,62 Baker St,Foxborough,MA,02035,508-543-8016
Cunha Transport,10 Flint Avenue,Somerville,MA,02145,617-623-7403
Garys Auto Sales,125 Broadway,Chicopee,MA,01020,413-594-5565
1st Call Auto Haul,34 Adams Place,South Weymouth,MA,02190,888-607-1999
Gentle Movers,100 Business Street,Hyde Park,MA,02136,617-333-3400
American Soil Trucking,Five East St,North Attleboro,MA,02760,508-699-0909
Outlet Express,17 Cranes Avenue,Lowell,MA,01854,978-453-4089
J & D Transportation,19 Casey Dr,Chicopee,MA,01020,413-331-0940
Waterman Transportation,5 Marc Ave,Centerville,MA,02632,508-725-2610
Alpha Transport,12 Franklin Avenue,Somerville,MA,02145,617-764-2427
Holmes Express,28 Brookway Drive,Shrewsbury,MA,01545,508-842-7585
Riteways Express,26 Sidney St,Lowell,MA,01852,978-459-6674
S & R Trucking,22 Carrington St Apt 2,Blackstone,MA,01504,508-883-1251
King's Trucking,10 Tracy Road,Chelmsford,MA,01824,978-538-9000
Duffy's Auto Service,38 Marion Road,Rochester,MA,02770,508-763-4374
Mtc Trucking,476 Barbour St,North Adams,MA,01247,413-652-9284
Taylor Transport,61r Camelot Drive,Plymouth,MA,02360,508-944-6437
Randys Automotive & Sales,189 Westminster Street,Fitchburg,MA,01420,978-343-7031
Gape Transport,142 Dracut Street,Lawrence,MA,01843,978-420-7934
Vic & Sons Auto Transport,34 Conway Street,Worcester,MA,01607,508-757-9383
Karp Transportation,6 Stonybrook Dr Apt 9,Millis,MA,02054,508-740-3017
Rck Transportation,592 State Road,Dartmouth,MA,02747,508-994-4889
J R Transport,11 Village Hill Lane Unit # 4,Natick,MA,01760,508-308-1898
Jose Dearaujo,59 Hill St,Malden,MA,02148,781-726-2547
"Director Express Services, Inc.",25 Cross St,Everett,MA,02149,617-389-1692
Lapine Trucking,0 Upper Linden St,Adams,MA,01220,413-822-5238
Interstate Truck & Trainer Repair,1615 Shawsheen St Unit 2,Tewksbury,MA,01876,978-373-0559
Fast Freds Deliveries,20 Seymour St,Berkley,MA,02779,774-406-0796
Cc&l Transportation,35 Hosmer St Number 8,Marlborough,MA,01752,508-481-4225
New England Trucking,2 Chapel Place # 3,Pepperell,MA,01463,978-821-0969
White Trucking,39 Rollins Street,Groveland,MA,01834,978-836-2265
Aviator,Po 3152,Plymouth,MA,02360,508-503-2100
All States Trailer Transport,2585 Maple Swamp Road,North Dighton,MA,02764,774-565-0078
J A R & Sons Trucking,322 Bardwell Street,Belchertown,MA,01007,413-323-9656
Statewide Moving Co,127 West Central Street,Natick,MA,01760,508-620-6411
Melanson Transport,299 West Shore Drive,Marblehead,MA,01945,781-858-1273
Ds Hauling,16 Dracut St,Lawrence,MA,01843,978-687-6723
Tribal Trucking,7 Colgan Road,Merrimac,MA,01860,978-346-8207
"Johnsons Auto Literature, Inc.",92 Blandin Ave,Framingham,MA,01702,508-872-9173
A&m Transport,657 Old Stage Road,Centerville,MA,02632,508-326-1622
Djm Trucking,316 Cedar Avenue,Swansea,MA,02777,508-673-4359
Trust Express,21 Kenmar Dr #27,Billerica,MA,01821,978-670-5530
Tolic Transport,340 Main Street,Oxford,MA,01540,508-987-1026
Chris Auto South,207 Main St,Agawam,MA,01001,413-789-4710
A Class Moving,64 Main Street,Southbridge,MA,01550,508-765-3806
Kilbride Trucking,12 Salem Ave,Woburn,MA,01801,617-835-0464
King Trucking,Kenneth King ,152 Warren Ave 35,MA,02301,774-274-8882
A P Moving,7 Ash Lane,Dudley,MA,01571,774-696-8527
C&l Trucking,27 Se Main Street,Douglas,MA,01516,508-476-1195
Reyes Auto Sales,10 Robert Dr,Holyoke,MA,01040,413-534-9144
Dohertys Auto Transport,33 Venice Ave,Saugus,MA,01906,781-233-2566
Moussalem Distribution,103 Anderson Dr,Methuen,MA,01844,978-609-0665
Direct Auto Market,211 Broadway,Raynham,MA,02767,508-821-3666
R & D Trucking,82 Pamela Drive,Swansea,MA,02777,508-837-0375
Tcb Trucking Co,49 Baltic Street,Methuen,MA,01844,978-687-7133
Frankies Auto Transportation,59 Court Street,New Bedford,MA,02740,508-326-3141
Wsexpress,536 Waverly Street,Framingham,MA,01701,508-620-8789
Mccullah Trucking,40 Bradley Lane,Stow,MA,01775,401-230-0912
Michael's Wholesale Furniture Distributors,4 Mary B Lane,Plymouth,MA,02362,508-747-1156
The Boat Haulers,48 George Washington Blvd,Hull,MA,02045,781-925-1770
Lincoln Auto And Truck,590 Lincoln Street,Worcester,MA,01605,508-853-3304
M Ladue Trucking,291 A Gates St,Palmer,MA,01069,413-222-9236
Leonesio's Manufatured Housing Services,151 Liberty St,North Adams,MA,01247,413-662-4003
Blazing Saddles Transportation,180 Breckeridge Street,Palmer,MA,01069,413-530-0256
Ramon Autos Sales,58 E Haverhill St,Lawrence,MA,01841,978-509-3226
Williams Auto Transport,26 Roosevelt Ave,Peabody,MA,01960,978-767-5596
Monster Movers,120 Shrewsbury Street,Worcester,MA,01604,508-751-6769
White Eagle Express,28 Morrill St,Dorchester,MA,02125,617-504-8967
Shingle Island Express & Trucking,569 Old Fall River Rd,Dartmouth,MA,02747,508-998-2953
V&m Transportation Co,32 Tardie Terrace,East Bridgewater,MA,02333,781-589-7083
Davco Transport,27 Rawson Drive,Leicester,MA,01524,508-892-4869
Cambridge Auto Sales,75 Park St,Somerville,MA,02143,617-591-1444
Schultz Transportation LLC,220 E County Rd,Rutland,MA,01543,508-887-6815
V-trans,57 Bayberry Road,Hanson,MA,02341,781-293-3040
Mayflower Services,141 White Street,South Weymouth,MA,02190,781-983-4823
El Morro Movers,21-69 Main Street,Cherry Valley,MA,01611,508-892-8900
Dan Mahoney Transportation,18 Fleming Street,Lowell,MA,01851,978-590-8806
Dtc Hauling & Removal,16 Old Elm Street,Salisbury,MA,01952,978-463-9026
Mckiernan Trucking,83 Hood Rd,Tewksbury,MA,01876,978-888-5000
American Auto Transport,586 Quaker Highway,Uxbridge,MA,01569,508-278-4210
"The Van-man Moving And Delivery Services, Inc.",114 Mccarthy Ave,Cherry Valley,MA,01611,508-892-0826
Boston Quality Movers,10 Penniman Rd,Allston,MA,02134,866-845-4276
T & T Courier Service,95 Tilton Ave,Brockton,MA,02301,617-593-1240
Cabral & Son Trucking,388 Reed Street,New Bedford,MA,02740,508-328-2262
Russos Marine,291 Mystic Avenue,Medford,MA,02155,781-395-0050
Czar Distributing,50 Buckley Blvd,Chicopee,MA,01020,413-536-7171
"J L Transportation, Inc.",37 Meola Ve,Worcester,MA,01606,508-856-0627
Moving Company,5 Short St,Melrose,MA,02176,888-398-6683
Js Asap Courier & Handyman Service,89 Oak Street,Springfield,MA,01109,413-364-7844
R P Trucking,13 Roadway B,Attleboro,MA,02703,508-326-4426
Interstate Transportation Services,73 Vandermint Lane,Hyannis,MA,02601,508-889-0040
Dachser Usa,580 Chelsea St,East Boston,MA,02128,617-567-1145
Stockwell Excavating & Trucking,87 South Main St,Berkley,MA,02779,508-824-8048
Ctb,1582 Dorchester Avenue,Dorchester,MA,02122,617-529-8049
J C Sawyer Enterprises,19 Story Street,Westford,MA,01886,978-935-6476
Pinnock Transport,1662 South Branch Parkway,Springfield,MA,01129,413-783-8860
Breadmore & Son,415 Riverside Drive,Lawrence,MA,01842,978-682-0705
J S R Transportation,767 Chapin Street,Ludlow,MA,01056,413-583-5767
K P Bennett Trucking,100 Wheeler Avenue,Springfield,MA,01118,413-315-0505
Jds Transportation,212 Beacham St,Everett,MA,02149,617-381-9970
Blas Distribution,87 Margin St,Lawrence,MA,01841,978-975-3126
Danny's Transport,39 Menton Street,New Bedford,MA,02745,508-995-3323
G J P Trucking,82 Providence St,Rehoboth,MA,02769,508-336-5563
Dbw Trucking & Transport,56 Country Club Drive,Randolph,MA,02368,617-719-7162
J & E Repair Service,74 Naomi St,Chicopee,MA,01020,413-221-0535
Cannon's Trucking,77 Whitley Trail,Plymouth,MA,02360,508-743-0627
Demar Transportation,17 Prospect St,Balwinville,MA,01436,616-285-8063
On The Go Delivery Systems,896 Lincoln St,Franklin,MA,02038,508-533-2500
Eagle Movers,110 Westwood Dr,Whitman,MA,02382,781-857-0900
Finnco Trucking,12 Olney St,Gardner,MA,01440,978-410-5037
Lil D Trucking,26 Seagirt Ave Apt 4,Saugus,MA,01906,781-231-1447
"Reddy Trucking, Inc.",60 Saint John Street,Hyannis,MA,02601,508-776-8769
Hardingjack,Ten Wheeling Avenue,Woburn,MA,01801,800-933-8966
Pfs,99 York Ind Park,Randolph,MA,02368,781-986-8100
Sanchez Transportation,269 Haverhill Street,Lawrence,MA,01840,978-683-0044
"Mdc Excavating, Inc.",149 Chestnut St,Seekonk,MA,02771,508-336-4099
Black Diamond Transport,230 Gilbert Ave,Springfield,MA,01119,413-782-2890
Crane Service,2113 County St,Attleboro,MA,02703,508-725-3834
James A Hicks Dba,Prospect Hill Rd,Brimfield,MA,01010,413-245-7584
James Pratt Trucking,146 Patriots Road,East Templeton,MA,01438,508-331-9791
Fahey Trucking,459 Broadway B-1,Everett,MA,02149,617-389-8311
Sb Trucking,57 Old South Rd Suite 141,Nantucket,MA,02554,508-228-8479
Andy Bean Transport,740 Liberty Street,Rockland,MA,02370,781-871-6948
Allen Trucking,35 Tileston St,Everett,MA,02149,617-212-9763
Judy A Mcadoo,130 Neptune Blvd,Lynn,MA,01905,781-581-3872
Zack Trucking,26 East Street,Lenox,MA,01240,413-637-2883
K & J Trucking,7 Farm Ave,Peabody,MA,01960,978-977-0986
R B S Transportation,690 School Street,N Dighton,MA,02764,401-294-7940
Bbcp Trucking,70 Fairview Avenue,Russell,MA,01071,413-862-0114
Al's Trucking,134 Sheri Lane,Agawam,MA,01001,413-478-3456
B & B Delivery,19 Blake Street,Northboro,MA,01532,508-393-4070
T R Avery Trucking,30 School St,Shelbourne Falls,MA,01370,413-625-2244
Rob's Auto & Trailer Service,1181 Park Avenue,Palmer,MA,01069,413-289-1135
Airport Car Service,2 Southbridge Drive,Agawam,MA,01001,413-789-1000
Angelica Textile Services,104 Lamartine St,Worcester,MA,01608,508-799-7100
J & L Auto Transportation,150 South Washington St,Norton,MA,02766,508-285-5597
H & W Trucking,139 So Broadway #2r,Lawrence,MA,01843,978-683-5961
Fortune Auto Transport,165 West Boylston Street,West Boylston,MA,01583,508-853-7400
Transport & Delivery Service,943 Morton Ct,Mattapan,MA,02119,N/A
Transportech,15 Jonathan Drive Unit 3,Brockton,MA,02301,508-436-6766
Nissan Village Of N Attleboro,685 South Washington St Rt 1,North Attleboro,MA,02760,508-695-3515
M F Mazza Transport,1438 Washington St,Stoughton,MA,02072,781-344-5888
Andrade Transportation,62 N Leyden St,Brockton,MA,02302,508-586-2362
J P M Trucking,25 Gross Street,Fall River,MA,02723,508-678-4774
Repair And Body,170 Mystic Avenue,Medford,MA,02155,781-391-6200
Eldridge & Son Trucking,64 Common Street,Quincy,MA,02169,617-773-3748
P M Auto Transport,193 Barre Cutoff Rd,New Braintree,MA,01531,508-867-9949
Movers,963 East Washington St,Hanson,MA,02341,781-826-0428
Continental Limousine Company & Chauffeured Transportat,120 Central Street,Hudson,MA,01749,800-666-4252
Aa Trucking,119 Rockland St,Fall River,MA,02724,508-675-8640
Roach Trucking,49 York St,Fall River,MA,02721,N/A
"Little Daddy Airport Service, Inc.",6 Burbank St,Oxford,MA,01540,508-987-0875
Fourstar Trucking,98 Humphrey St,Lowell,MA,01850,978-970-2133
M A Young Trucking,167 Osborne Rd,Ware,MA,01082,413-967-3607
Medfield Towne Taxi,3 Kingsbury Drive,Medfield,MA,02052,508-359-6155
Norm Wagner Toyota Vw,700 Old Union Turnpike,Lancaster,MA,01523,978-342-1330
Cityside Transportation,15 Whiting Avenue,Dedham,MA,02026,781-329-0902
Fritz Trucking,3 Wildwood Rd,Millbury,MA,01527,508-767-0190
J & Mtrucking Services,113 Paul Gore St,Jamaica Plain,MA,02130,617-905-5001
Vic Trucking,308 Smith St #b,New Bedford,MA,02740,N/A
Cosme Distributor,3 Newton St Apt 3,Lawrence,MA,01843,978-738-1099
K Santos Trucking,40 Danielle Dr,Tewksbury,MA,01876,978-851-9254
Churchill Transportation,3227 Cranberry Highway,Buzzards Bay,MA,02532,508-295-8343
Marks Trucking & Excavating,105 Reservoir St,Lowell,MA,01850,978-459-0395
Mlx Trans Div,452 School St,North Dighton,MA,02764,508-977-9827
Ace Property Services,22 Middle St,Leominster,MA,01453,978-534-5013
Lamoureux Transportation,373 Main Street Unit B,Southbridge,MA,01550,774-696-5311
E-z Moving Service,4182 Washington St,Roslindale,MA,02131,617-323-0688
Rick Shaws Equipment Service,177 Stafford St Route 32,Monson,MA,01057,413-267-3823
Duncan All Freight Transportation,45 Merrimac Street #18,Woburn,MA,01801,781-933-9791
Ts,173 Brighton Ave,Boston,MA,02134,617-254-0007
Decas Trucking,8 Fox Road,Plymouth,MA,02360,631-722-8059
Construction Equipment Services,49 Sam West Raod,Southwick,MA,01077,413-290-7132
Zestar Freight Express,297 Turnpike Rd #201,Westboro,MA,01581,508-898-0974
Alicea Transport,82 Greenwood Street,Lawrence,MA,01841,978-689-9572
Angel's Car Service,246 Warren Ave Apt 409,Roxbury,MA,02119,617-427-8109
Affordable Recovery Service,18 Wildmere Avenue,Burlington,MA,01803,781-932-1955
J J Trucking,101 Debra Lane,North Swansea,MA,02777,508-496-2349
Hd Trucking,102 Myrtle St,Brockton,MA,02301,508-584-3889
Rtc Transport Service,100 Mary Lane,Brodgewater,MA,02324,508-697-5780
Irwin Trucking,49 Bancroft Park,Hopedale,MA,01747,508-634-7992
Angelo Trucking,13 Normandy Avenue,Webster,MA,01570,508-943-7761
Environmental Equipment Repair Services,1209 Turkey St,Hardwick,MA,01037,413-477-6223
Mca Delivery Service,102 Hamilton Rd,Wrentham,MA,02093,508-212-3798
"Jlm Trucking, Inc.",34 Hope St,Attleboro,MA,02703,508-222-5337
Funari Trucking,1 Oakland Terrace,Natick,MA,01760,508-655-5652
Phil Griswold Upper County Auto Repair,Rte 28 And Upper Country Rd,Dennisport,MA,02639,508-398-2435
"D M Gaylord Service Co, Inc.",62 Brentwood Road,Tewksbury,MA,01876,978-851-9814
Panel Connection,15 Union Street,Lawrence,MA,01843,978-686-3720
J G White Transportation,3 Dowd Ave,Wareham,MA,02571,508-954-1469
S R M Transport,9 Brick Kiln Rd,N Billerica,MA,01862,978-667-6097
E & M Express,888 Rockdale Ave,New Bedford,MA,02740,508-996-3234
Sylvester Trucking,45 Simpson Lane,Falmouth,MA,02540,508-548-5004
John Barnes Trucking,336 North Main St,Cohasset,MA,02025,781-383-8280
Dimension Auto,934 Temple St,Whitman,MA,02382,781-857-3009
Ron Allen Trucking,18 Los Angeles St,S Hadley,MA,01075,413-533-6505
Fram's Used Auto Parts,5 Walton Ave,Methuen,MA,01844,978-683-9544
Rajah's Charter Services,46 Dudley St,Roxbury,MA,02119,617-989-3836
Tonys Trucking,246 New Boston St,Fairhaven,MA,02719,508-992-0520
Red Carpet Service,177 Springfield Street,Wilbraham,MA,01095,413-599-1801
Snelders Trucking,6 Homestead Ave,Marshfield,MA,02050,781-837-2972
Maggio & Son Trucking Co,4350 Washington St,Roslindale,MA,02131,617-323-2921
Murphy Transportation,5 Long Lake Road,Littleton,MA,01460,978-486-4260
"Russo Development Group, Inc.",3 Pitt Clarke Rd,Norton,MA,02766,617-594-5091
J Ofori Trucking,46 Edgeworth Street #316,Worcester,MA,01605,508-755-7864
J D Trucking,33 Silver Street,Auburn,MA,01501,508-832-4944
D & D Distributing,57 Willaim St,Fall River,MA,02721,N/A
John Michaels Trucking,536 Division Rd,South Dartmouth,MA,02748,508-636-5402
Marsh Transportation,11 Vine Street,Oxford,MA,01540,508-987-3968
Az Trucking Ii,165 Chace Rd,East Freetown,MA,02717,508-763-3163
Nelson & Sons Trucking,29 Redbrook Road,Buzzards Bay,MA,02532,508-743-9455
Central Auto Sales,1323 Main Street,Leicester,MA,01524,508-892-9500
Aat,10 Bridge St,Watertown,MA,02472,617-926-7171
Dmc Leasing,140 Ball Hill Road,Princeton,MA,01541,508-769-9382
P A Trucking,40 Bradley Ln,Stow,MA,01775,978-897-2330
Summit Whidden Industrial Supplies,56 Pulaski St,Peabody,MA,01960,978-532-7052
Starship Transportation,34 Franklin Street,Wakefield,MA,01880,781-246-7945
D&a Trucking,405 Whiting Avenue,Dedham,MA,02026,617-592-4875
Vincent Palalzzolo Trucking,28r Easton Point Rd,Gloucester,MA,01930,978-281-4116
M&s Transportation,Two Learned Rd,Ashland,MA,01721,508-429-1820
C & C Distributing Vending Service,62 Perley Avenue,Peabody,MA,01960,978-535-3989
C & D Fernandes Trucking,5 Quaker Ln,Swansea,MA,02777,508-400-6735
Patriote Autobus,94 Fawndale Rd #2,Roslindale,MA,02131,617-462-4248
Pronto Express,31 Springhill Ave,Marlborough,MA,01752,508-229-2186
S & L Trucking,24 Proctor St,Dracut,MA,01826,978-957-7238
Moore Hydroseeding,96 Meadow St,Carver,MA,02330,508-866-7800
Robert J Wright Trucking,448 Newburyport Turnpike,Rowley,MA,01969,978-948-8639
A M B Trucking,218 Freda Lane,Lowell,MA,01854,978-479-4754
Vilao Trucking,245 Hornbine Road,Rehoboth,MA,02769,508-509-5024
Ramos Trucking,59 Benefit St,Worcester,MA,01610,508-579-9960
Waynes Express,633 Trapelo Rd,Waltham,MA,02454,781-209-0719
Rainbow Marine Transportation,343 Hayward St,Bridgewater,MA,02324,508-697-3946
Trc Trucking,476 Purchase St,New Bedford,MA,02740,508-996-8056
F F B Transportation,218 Beaver St Unit #2,Framinghan,MA,01702,508-560-3832
Jm Distributing,21 Kilburn St,Fall River,MA,02724,508-324-1675
R & J Trucking,452 North St,Georgetown,MA,01833,978-352-7936
Sergeys Auto Service,1284 Dwight St,Springfield,MA,01107,413-746-1727
Charles Garrity Trucking,1700 Cape Street,Lee,MA,01238,413-441-9557
Cheyenne Transportation,5 Silver Shell Beach Dr,Fairhaven,MA,02719,508-813-2407
Brian K Dane Trucking,14 Cushman St Apt One,Monson,MA,01057,N/A
3z Express,245 Stevens St,Lowell,MA,01851,978-658-4690
Duni Trucking,8 Caller St,Peabody,MA,01960,N/A
"C&c Trucking, Inc.",17 Bryant St,Taunton,MA,02780,508-823-1239
Hatch Transportation,26 Ccc Rd,Salisbury,MA,01952,978-499-7812
Ss Transportation,1284 Osgood St,North Andover,MA,01845,978-683-3177
Villalobos Transport,257 Highland Ave,Malden,MA,02148,N/A
Mckenna Trucking,272 Oak St,Halifax,MA,02338,781-293-1570
Lrm Trucking,306 Davis Road,Westport,MA,02790,508-675-0516
A J Reyes Trucking,125 Court Street,New Bedford,MA,02740,508-726-2420
T J Bertelli Trucking,54 Miller St,Middleboro,MA,02346,508-947-5718
C A M Trucking,2576 Riverside Ave,Somerset,MA,02726,508-672-5690
D & L Trucking,27 Artisan Way,Forestdale,MA,02644,508-539-2151
Njp Transport,70 Baltic St,Methuen,MA,01844,978-985-1542
G Kershaw Transport,26 Beechwood Dr,Mashpee,MA,02649,774-836-0608
J&s Enterprises Transport,120 Hickory Rd,Wrentham,MA,02093,508-384-0451
Expressit Delivery,529 Main St Suite 123,Charletown,MA,02129,617-242-8181
Sarkisian Distributors,2 Brookside Rd,Medway,MA,02053,508-533-6264
Amichi Trans,356 A Broadway #3,Somerville,MA,02145,617-628-7098
Boston Metro Express,51 Melcher St,Boston,MA,02210,617-350-7170
M J Viger Trucking,84 Newport Street,Methuen,MA,01844,978-681-1148
Uncle Pees Transport,6 Sylvan St,Worcester,MA,01613,N/A
Move On America,404 Middlesex Road,Tyngsboro,MA,01879,978-649-8570
Autokraft Sales,119 Walnut St,Agawam,MA,01001,413-786-7256
Melo & Sons Trucking,60 Charme Road,Billerica,MA,01821,978-667-5516
Bodytalk Auto,246 Pine Street,Seekonk,MA,02771,508-399-7070
Arlene Express,10 Kendali Ave Apt 3,Framingham,MA,01702,508-875-8504
Joel Transport,95 B Bass Ave,Gloucester,MA,01930,978-828-0590
Morin Trucking,10 Sherburn Place,Wilmington,MA,01887,978-265-2220
E & M Shamrock K-9 Transport,20 Kingsley Ave,Melrose,MA,02176,781-665-8033
Julia's Trucking,998 Pleasant St,Framingham,MA,01701,508-877-9903
Kevin Moura Distributor,39 Oak St,Middleboro,MA,02346,508-946-6059
Baker Trucking,One Lawrence St,Wilmington,MA,01887,978-265-3142
J F Winn,Ten Gov Saltonstall Rd,Billerica,MA,01821,978-670-7235
"C R Trucking, Inc.",25 Childs Ln,Foxboro,MA,02035,508-543-3793
Start To Finish Services,3 Sampson St,South Grafton,MA,01560,508-799-2292
Nesterville Transport,134 Union St #5,Westfield,MA,01085,413-562-9783
Chheng Auto Sales,21 Payne St,Lowell,MA,01852,978-454-0937
Allenby Tree Movers,891 Waqouit Hwy,East Falmouth,MA,02536,508-564-7608
Ltl Express Co,25 S Walker Street,Lowell,MA,01851,978-454-5760
Pantages Transportation,7 Linden Avenue,Gloucester,MA,01930,978-525-2101
C&i Trucking Express,1186 Worcester Road #1011,Framingham,MA,01702,508-405-1202
Sl & K Transportation,44 Aucoot Road,Mattapoisett,MA,02739,508-758-9369
Bobs Truck,210 Reed St,Rockland,MA,02370,781-982-1411
A Ace American Super Shuttle,565 Walnut St,Lynnfield,MA,01940,800-517-2281
Victor & Naty Trucking,45 Arnold St,Methuen,MA,01844,978-725-4908
Boston Pack And Ship,144 Lundquist Dr,Braintree,MA,02184,781-849-8696
B & M Transportation,1 Colby St # 3,Lawrence,MA,01841,978-687-4020
Chris Horton,306 E New Lenox Rd,Pittsfield,MA,01201,413-447-7095
G & G Transport,63 Spring St,West Warren,MA,01092,413-436-5210
Jeannelle Transportation,19 Amesbury St,Lawrence,MA,01841,978-687-1871
B O Trucking,30 Heard St,Chelsea,MA,02150,617-884-1905
Ocean Grove Trucking,36 Bluff Ave,Swansea,MA,02777,508-678-4144
J A Transport,106 Cabral Circle,Stougton,MA,02072,508-962-1134
Mccue Transport,44 West Main Street,Merrimac,MA,01860,978-346-9980
W R Freitag Trucking,13 Joyce St,West Townsend,MA,01474,978-597-8960
Aat Co,32 Downs Rd,Douglas,MA,01516,508-476-8971
Dipasquale Trucking,50 Bancroft Street,Pepperell,MA,01463,978-433-8082
Lima Trucking,15a Farwell St,Waltham,MA,02453,781-894-6605
D & M Davis Trucking,345 Partridge St,Gardner,MA,01440,978-423-0532
Paul Young Trucking,148 School St,Acton,MA,01720,978-375-6373
Mikes Automobilia,256 Main St,Townsend,MA,01469,978-597-3006
Korea Express,165-p New Boston Street #271,Woburn,MA,01801,781-933-9377
Highbrass Transport,21 Endicott St,Worcester,MA,01610,774-262-4782
Krh Transportation,343 Chicopee St # 3,Chicopee,MA,01013,413-592-2667
Mallard Trucking,26 Thetford Avenue,Dorchester,MA,02124,617-474-0049
S B Trans,54 Stewart St,Fall River,MA,02720,508-954-2598
"Jade Transportation, Inc.",2 Alcove Road,Southwick,MA,01077,N/A
Scs Transport,53 Old East Brookfield Rd,North Brookfield,MA,01535,508-268-6042
Andys Trucking,223 Cordaville Rd,Ashland,MA,01721,508-881-1141
Rk Distribution Services,53 Gifford Avenue,Worcester,MA,01606,508-853-5660
Newton Transport Service,254 Calvary St,Waltham,MA,02453,781-858-6133
Gonzalez All City Haulers,47 Ashwood St,Indian Orchard,MA,01151,413-543-6974
Jason P Dunham Trucking & Tractor Service LLC,30 Dunham Ave,Ware,MA,01082,413-537-5834
M & M Trucking,21 Pine Street,Brockton,MA,02302,508-586-3833
Big Gorilla Express,1 Padre Rd,New Braintree,MA,01531,508-479-9794
Package Delivery Service,357 Bedford St,New Bedford,MA,02740,508-997-8525
Olde Colonial Trucking Co,253 Sudbury Rd,Concord,MA,01742,978-371-2987
Drw Trucking Co,46 Congamond Rd,Southwick,MA,01077,413-569-6216
"Craigco Transport, Inc.",1111 Sassaquin Ave,New Bedford,MA,02745,508-922-2182
Ice Services,126 A North Marshall St,Revere,MA,02151,781-397-2472
Jackson Trucking,31 Talcott Ave,Gardner,MA,01440,978-630-2411
Kamm Trucking,23 Repose Ln,East Wareham,MA,02538,508-295-0184
Carl's Auto Sales,1016 Cross Rd To Canaan Vly Rd,New Marlborough,MA,01244,413-229-8597
Joe Const Services,153 Mt Vernon Rd,Chicopee,MA,01013,413-532-9687
Ate,274 Merrimack Street,Lawrence,MA,01843,978-687-6464
Dons Delivery,815 Mckinstry Ave,Chicopee,MA,01020,413-695-3022
Mariner Bus Lines,96 Washington Street,Gloucester,MA,01930,978-281-3001
Four Corners Transport,181 Allston Street #2,Allston,MA,02134,617-734-7544
Kayvan Trucking,178-b Falcon Dr,Westfield,MA,01085,413-562-0737
Gtg Trucking,43 Bowers Ave,Tyngsboro,MA,01879,978-957-3737
Kj's Trucking,66 Cold Brook Ln,Dartmouth,MA,02747,508-995-7861
Capielo Trucking Express,131 Old Worcester Rd,Charlton,MA,01507,508-410-4193
Landmark Trucking Co,54 Childs St,Monson,MA,01057,413-267-3399
R & I Trucking,17 Wentworth Pl,Lynn,MA,01904,781-598-3665
Jb Logistics,317 North St,Randolph,MA,02143,617-834-7238
R Chausse Trucking,3 Chestnut Hill Dr,Webster,MA,01570,508-943-3037
Demirjian Trucking,369 Hillside Avenue,Needham,MA,02494,781-444-1564
Angel Trucking,11 Lux Ave,Easthampton,MA,01027,413-527-1922
Wb Transport,573 Tremont St,Taunton,MA,02780,508-880-8900
Double J Transport,Ten Spruce Rd,Wrentham,MA,02093,508-384-3337
Affordable Waste Services,15 King St,Cohasset,MA,02025,781-383-6681
Sabrina Distributor,351 Lawrence St,Lawrence,MA,01841,978-688-5697
Cosme Distributor,249 Broadway,Lawrence,MA,01841,978-974-0999
Steele Trucking,70 Conant St,Revere,MA,02151,781-589-7879
Mjk Sales Distributors,Ten Meadow St,Norwood,MA,02062,781-762-9149
Bombard Heavy Haul,25 Bateman St,Haverhill,MA,01832,978-373-0063
Gentiles Haulin Express,3 Great Cedar Crossing,Lakeville,MA,02347,N/A
Trans Am Transport,10 Menotomy Road,Plymouth,MA,02360,508-888-9529
Brandon Kelly Trucking LLC,35 Rocky Hill Road,Hadley,MA,01035,413-387-0114
Webster Trucking,64 Hill Street,West Springfield,MA,01089,413-747-9223
J & J Enterprises,19 Rockdale St,Mattapan,MA,02126,617-298-6797
Brockton Parcel Service,64a Cheney St,Boston,MA,02121,617-442-0396
C & G Tropical Distributor,180 Spruce St First Floor,Lawrence,MA,01841,978-590-0748
David Nye Trucking,130 Bedford St,Middleboro,MA,02346,508-265-2023
Ferrick Transport LLC,1 Brian Drive,Westford,MA,01886,978-392-0025
Am - Pm Moving Service,12 Patricia Dr,Tyngsboro,MA,01879,978-649-0785
Primo & Sons Trucking,209 Wilmarth Street,Attleboro,MA,02703,508-222-2187
Kjd Trucking,49 York St,Fall River,MA,02724,N/A
Ken Browning Trucking,212 Chapman St,Greenfield,MA,01301,413-774-5991
Garcia Transport,19 Second St,Worcester,MA,01602,N/A
Mr Transporting,276 North Beacon St #34,Brighton,MA,02135,N/A
Vieira's Trucking,27 Bruce St,Lawrence,MA,01841,N/A
Jmc Trucking,303 Daniels St,Fitchburg,MA,01420,N/A
Katt Transport,25 Allen St,West Springfield,MA,01089,413-737-7398
Noble Trans,350 Main St Apt 22,Spencer,MA,01562,508-885-2565
Denaro Trucking,72 Rte 15,Sturbridge,MA,01566,508-347-2422
C & B Trucking,Six Cedar Ln,Westport,MA,02790,508-324-4953
Skillman Services,20 South Main Street,Ipswich,MA,01938,978-356-2494
J Carter Veal Co,133 Newmarket Square,Boston,MA,02118,617-442-1775
East Coast Trucking,65 Freeman St,Haverhill,MA,01831,N/A
Spc Installation Service,52 Smth St,New Bedford,MA,02740,508-994-3822
Sjc Transport,245 Western Ave,Essex,MA,01929,N/A
Richards Cargo Transportation,Six Liberty Ln,Dedham,MA,02026,N/A
Nesbitt And Sons Trucking,40 Dudley St,Roxbury,MA,02119,N/A
Robert's Auto,119 Carmelina's Circle,Ludlow,MA,01056,413-589-0822
Hilda's Trucking,224 Grinnell St,New Bedford,MA,02740,508-996-4467
Antar Distributing,3 Walker Rd Apt Six,North Andover,MA,01845,978-682-8362
K Butler Trucking,354 Cummins Highway,Roslindale,MA,02131,617-327-3678
M N R Trucking,50 Collins St,South Attleboro,MA,02703,N/A
Barraza Transportation,43 Johnny Rd,Revere,MA,02151,781-284-5973
Tihic Trucking,139 Brooks St,Boston,MA,02128,N/A
Fireplace Mantels Etc,112 Maple Street,Douglas,MA,01516,508-865-6116
Joseph P Tremblay Trucking,119 State Line Road,West Stockbridge,MA,01266,413-232-4301
Lion's Moving & Storage,20 Bailey Road,Lanesboro,MA,01237,413-243-9300
M And G Transportation,2101 County Street,Attleboro,MA,02703,508-472-4343
Konkapot Proprty Services,14 Brewer Hill Road,Mill River,MA,01244,413-229-3140
J & S Trucking,1102 Main St,Wakefield,MA,01880,781-224-0861
M J Dacri & Sons Trucking Co,94 Old Worcester Road,Charlton,MA,01507,508-248-9969
Ac & Sons Trucking,346 Jon Dr,Brockton,MA,02302,508-580-5350
Newbury Stable Services,100 Newbury Turnpike,Newbury,MA,01951,978-360-0804
Office Professionals,65 Fort Hill Street,Hingham,MA,02043,781-740-0358
Premiere Movers,34 Archer Circle,Taunton,MA,02780,508-889-4106
Mfm Moving,11 Andrew Court,Malden,MA,02148,617-828-6544
T & K Express,34 Kent Road,Westminster,MA,01473,978-874-0757
Fpd Distributors,21 Unicorn Circle,Amesbury,MA,01913,603-474-1842
Tc Deliveries,84 Fitchburg Road ,Townsend,MA,01469,978-251-1066
Cross Roads Trolley Trans,26 Poland Street,Webster,MA,01570,508-949-6743
Rlm Trucking,88 Providence St,Uxbridge,MA,01569,401-639-4963
Harris Transport Services,206 Sugar Hill Road,Chesterfield,MA,01012,413-296-4704
Db Trucking,86 Cubles Drive,Brimfield,MA,01010,413-478-6103
Phoenix Transportation,20 Commerce Way Unit 12 Suite 302,Seekonk,MA,02771,508-336-5700
Saturn Of Raynham,1305 New State Hwy,Raynham,MA,02767,508-802-9320
"Mnb Services Co, Inc.",59 Leonard Street,Foxboro,MA,02035,508-698-3300
Mountain Trucking,13 School Street,Gloucester,MA,01930,508-283-8487
Active Truck Service,605r Hartford Pike,Shrewsbury,MA,01545,508-845-2527
Nhd Transport,365 Washington St,Stoughton,MA,02072,N/A
G & R Refrigerated Transport,67 County St,Berkley,MA,02779,508-821-9311
Gendron Backhoe Services,23 Hathaway Road,Acushnet,MA,02743,508-995-9682
Bill - Gail Trucking,20 Green Street,Gloucester,MA,01930,508-283-9429
Carriage House Coaches,155 South Street Ste 105,Wrentham,MA,02093,508-384-7230
R L D Trucking,63 Autran Ave,North Andover,MA,01845,508-685-5740
"Armstrong & Sons, Inc.orporated",4 Mostika Road,Woburn,MA,01801,617-935-0897
S C P Trucking,50 Cambridge St Apt 210,Woburn,MA,01801,617-935-6860
D & H Trucking,150 Page St,Avon,MA,02322,508-880-6086
Warzecka Trucking,260 West St,Ludlow,MA,01056,413-583-8141
A P A Courier Services,27 Duffy Dr,Taunton,MA,02780,N/A
The Baker,62 Blossom Lane,Groton,MA,01450,508-448-9397
Robert's Auto Parts,379 Kenoza St,Haverhill,MA,01830,508-373-8886
"A & A Trucking, Inc.",726 Old Warren Rd,Swansea,MA,02777,508-674-3151
North And South Auto Transport,311 Plymouth Street,Halifax,MA,02338,N/A
Wizzard Trucking,13 Eliot Rd,Bedford,MA,01730,617-275-7376
Powell Taxi & Limousine Luxury Service,25 Union St,Pittsfield,MA,01201,N/A
David Uracius Trucking,1728 Barre Rd,New Braintree,MA,01531,508-867-6053
Saint Elizabeth's Express,427 Lowell Street,Peabody,MA,01960,508-531-2015
Franklin Auto Transport,21 Spencer St,Stoneham,MA,02180,781-438-6227
B O T B E Trucking,75 B Main Street,Otter River,MA,01436,508-939-5686
Dario's Trucking,3 Norwood Street,Worcester,MA,01610-1411,508-353-1313
Northeast Limo Service,Cemetery Road,Hadley,MA,01035,N/A
Have Truck Will Work,41 Felicia Street,Springfield,MA,01104,413-734-7572
Djs Automotive,317 Central Street,Acton,MA,01720,508-264-9444
Autohaus,1134 Broadway,Saugus,MA,01906,617-231-2600
American Lenders Service Co Boston,20 Mill Lane,Braintree,MA,02184,617-356-1600
Partners Transportation,24 Laurel Ave,Wilmington,MA,01887,508-657-8951
Hatch Septic Service,17 Denver St,Springfield,MA,01109,413-783-2263
Richie's Trucking,344 Elm St,East Longmeadow,MA,01028,413-525-3178
Isaac's Trucking,185 Ware Rd,Palmer,MA,01069,413-283-4079
Mw Trucking,19 Repose Lane East,Wareham,MA,02538,260-312-6024
Moniz Trucking,118 Rt 2 A,Shirley,MA,01464,508-425-9811
A & E Trucking,444 B Broadway #331,Sagus,MA,01906,N/A
Customized Contract Carriers,163 Hillside Rd,Watertown,MA,02172,617-926-5464
Nrw Trucking,72a Stillwater Rd,South Deerfield,MA,01373,413-665-2006
E J Cabral Mechanical Services,103 B Drive,Westport,MA,02790,508-679-1144
General Trucking Co,184 Forest Street,Rockland,MA,02370,617-464-4446
Gem Transportation,146 George Hill Rd,Grafton,MA,01519,N/A
David Cormier Trucking,100 Ryan Rd,Washington,MA,01235,413-623-6098
Heller Contract Hauling,24 Lomar Park Drive,Pepperill,MA,01463,978-580-9694
Lisa Brandano Trucking,409 Fellsway East,Malden,MA,02148,617-321-6583
In Town Trucking,110 William St,Uxbridge,MA,01538,508-234-9422
The Trailer Shop,87 High St.,Danvers,MA,01923,978-750-6799
Trainor Transportation,291 Union Street,South Weymouth,MA,02190,617-335-0519
Larz Anderson Auto Museum,15 Newton St,Brookline,MA,02445,617-522-6547
B Judd Trucking,16 Coolidge Ave,Turners Falls,MA,01376,413-863-2485
Toms Trucking,28 Moffatt Rd,Salem,MA,01970,508-745-3426
Glendale Transportation,14 Pleasent Green West,Easthampton,MA,01027,413-529-2105
Southpaw Transportation Co,Bolton Rd,Lancaster,MA,01523,978-342-0941
"B & H Services, Inc.",147 Hudson St,Sommerville,MA,02144,617-623-8360
Canino Trucking,2232 Central St,Stoughton,MA,02072,781-341-0785
L & R Trucking,172 Summer Street,Rehoboth,MA,02769,508-252-5313
Andreis Trucking,4 College Park Ln,Westfield,MA,01085,413-562-3755
Roadside Services,44 Harrison Ave,Tauton,MA,02780,508-880-5037
Folan Transport,129 West Street,Braintree,MA,02184,617-843-3451
Camber Trucking Co,70 Elm St,W Townsend,MA,01474,508-591-5410
D N Trucking,54 Florence Rd,Easthampton,MA,01027,413-527-4967
Fox Transportation,12 Mozzone Blvd,Taunton,MA,02764,508-822-7710
Mark D Distributors,36 Sheridan St,S Dartmouth,MA,02748,508-996-2218
Bay State Transport,133 Summer Street,Somerville,MA,02143,617-666-1195
Contract Services,102 Glenn St,Lawrence,MA,01843,978-685-2151
Ren Quin's Auto,1844 County St Rear,Attleboro,MA,02703,508-222-1964
Btc Bill's Trucking Company,Po Box 446,Natick,MA,01760,N/A
Lyubasha Express,93 Grochmal Ave Lot 45,Indian Orchard,MA,01151,413-737-6762
New England Trucking Express,25 Belcher Street,Sharon,MA,02067,617-784-6844
Central New England Transport,54 Ridge Rd,Southbridge,MA,01550,508-765-8484
Goulart Trucking,8 Hodgson St,Tewksbury,MA,01876,978-851-6316
Top Notch Distributors,386 Kilburn St,Fall River,MA,02724,508-679-5986
495 Express,48 Taunton St,Bellingham,MA,02019,508-966-7607
Jim Patterson Trucking,33 Skyview Lane,Webster,MA,01570,508-943-0042
Elite Express,74 Orange Street,Westfield,MA,01085,413-568-2548
Blue Express,30 Zenith Dr,Worcester,MA,01602,N/A
Carmel Movers,65 Sprague St,Hyde Park,MA,02136,617-783-0344
Hermes Transport,110 Sears Rd,Goshen,MA,01032,413-268-7262
On Time Trucking,2 Elm Street,Braintree,MA,02184,617-848-8782
Route Two Auto Parts,Palmer Road,Fitchburg,MA,01420,508-534-3329
Thompson Transport Company,59 Salem Street,Wilmington,MA,01887,508-657-5656
City Side Auto,6 Roland St C,Charlestown,MA,02129,617-776-6111
T Design Moving,156 Amory St,Brookline,MA,02146,617-739-2776
Hawk Hill Transportation,538 Great Road,Littleton,MA,01460,N/A
Winslow Services,345 Washington St Rt 53,Pembroke,MA,02359,617-826-0325
All-way Service Corp,1182 Main St,South Weymouth,MA,02190,781-335-4533
Aaa Discount Movers,252 Tosca Dr,Stoughton,MA,02072,781-341-8026
Trans-pak Forwarding,24 Biltmore St,Springfield,MA,01101,413-733-1329
G & G Auto Sales,818 Main St T Rt 38,Tewksbury,MA,01876,508-851-6200
James Panechelli Trucking,116 Summer Street,Medway,MA,02053,508-473-2719
Saxon Moving & Storage,50 Terminal Street,Charlestown,MA,02129,617-734-1320
"Tufts Transportation, Inc.",151 Mystic Avenue,Medford,MA,02155,781-844-9535
Hauling Service,1198 Whitman St,Hanson,MA,02341,N/A
J R Express Co,81 Woodard Ave,Brockton,MA,02401,508-580-3355
Auto Sales,56 Iron Stone St,Uxbridge,MA,01569,508-278-2992
Ace Transport Services,116 R Washington St,Plainville,MA,02762,508-695-3593
Desjardins Trucking,52 Pratt St,Lunenburg,MA,01462,978-345-1297
"M T Daboul Trucking & Heavy Equip Co, Inc.",159 Coburn Ave,Worcester,MA,01604,508-754-7812
New England Bread Service,6 Meadow Drive,Middleton,MA,01949,508-762-0324
Door To Door Van Service,32 Gilbert Rd,South Hampton,MA,01073,413-529-0139
Harvard Auto Company,267-a Western Ave,Boston,MA,02134,617-254-3220
Sid Transport,147 Hudson Street,Somerville,MA,02144,617-623-2736
Petroleum Service Of Worcester,633 Grafton Street Route 122,Worcester,MA,01604,508-755-9512
Lamarche Distributors,7 Wilmot St #1a,Lawrence,MA,01841,508-689-9748
Casey Trucking,6 Gardner Rd,Hubbardston,MA,01452,978-928-3365
Waskiewicz Truck & Equipment Repair,116 East Street,Hadley,MA,01035,413-584-7358
Curry's Carrier Service,51 Oak St,Ludlow,MA,01056,413-735-4345
Best Distributors,922 Pleasant Street,Norwood,MA,02062,N/A
Jack's Auto Repair,65 Acton St,Maynard,MA,01754,508-897-9295
South St Auto Parts,412 South St,Marlboro,MA,01752,508-485-0251
Mask Trucking,1251 Gar Highway,Swansea,MA,02777,508-676-2961
Dominico Deliveries,73 Broadreach,Weymouth,MA,02191,617-335-3840
R2k Trucking,77 Maple St,Holliston,MA,01746,508-429-3397
Dupont Transport,882 Old Plainville Rd #10,New Bedford,MA,02745,508-998-6203
Uniform Express,246 Washington Street,Weymouth,MA,02188,617-335-3903
Mion Trucking Company,26 Summer St,Marshfield,MA,02050,617-834-8001
Transport St Gabrielle,5 Norton Street,Westfield,MA,01085,N/A
Davis Wrecker Service,475 Belmont Street,Belmont,MA,02178,617-484-6617
Ever Ready Trucking,One Everready Circle,Billerica,MA,01821,978-667-0443
Paul Lariviere Trucking,43 Asinof Ave,Chicopee,MA,01013,413-598-0549
Gilmore & Gilmore Trucking,88 Stimson St,Palmer,MA,01069,N/A
A T S,296 Broadway,Lawrence,MA,01841,508-725-6086
M J Pasakinskas Trucking,271 Green Wood St,Gardner,MA,01440,508-632-2460
Creative Playthings,33 Loring Dr,Framingham,MA,01701,508-620-0900
St Pierre Trucking,98 Coleman Street,Seekonk,MA,02771,508-399-7928
Allen Trucking,2160 South Main Street,Fall River,MA,02724,508-675-0325
John J Burns Trucking,80 Jerome Drive,Williamstown,MA,01267,413-458-0173
Carl-lin Trucking,121 Cherry St,Gloucester,MA,01930,508-283-9502
E Kelley Trucking,89 E Hartford Ave,Uxbridge,MA,01569,508-278-7513
Weekend Warriors,29 Torrey St # 2,Dorchester,MA,02124,617-288-8834
Caruso Transfer,21 School Street,Methuen,MA,01844,508-686-2594
T Longtin Trucking,114 West St,Methuen,MA,01844,508-686-2753
J & J Trucking Co,30 Waite St,Revere,MA,02151,617-286-3774
J & Son Furniture Services,10 Corporation Rd,Yarmouthport,MA,02675,508-790-0328
Jackson Express ,44 Greenacre Sq ,Springfield,MA,01105,413-735-3106
Brian's Auto,99 Worc-prov Turnpike,Sutton,MA,01590,508-865-1959
J E & J L Onofrey Trucking,12 Dubois Street,Westfield,MA,01085,413-568-6280
Mer's Auto Repair,338 A Lawrence St,Lawrence,MA,01841,912-688-1617
Cinelli Trucking,32 Shaw Street,West Roxbury,MA,02132,617-325-1377
M S Savitkas Trucking,2 Dennett Dr,Newburyport,MA,01950,508-462-8270
J Reifel Trucking,137 Perunins Row,Topsfield,MA,01983,508-887-3779
Taylor Freight Service,100 Breckenridge Street,Palmer,MA,01069,413-289-1259
Richs Trucking,25 Van Ness Road,Weymouth,MA,02191,N/A
Columbia Metal Service Co,171 Mattakeesett Street,Pembroke,MA,02359,617-293-5650
High Meadow Trucking,70 Aspen St,Ware,MA,01082,413-967-3615
W & J Produce Delivery,35 Sunset Ave,Methuen,MA,01844,508-685-7891
A J H Trucking Co,987 W Central St,Franklin,MA,02038,508-520-3391
Ckc Freight Services,11 Cooledge St,Revere,MA,02151,617-286-6933
Royal Express,54 Linden Street #fl1,Whitman,MA,02382,617-337-3348
Golden Bear Transportation,77 Seymour Street,Pittsfield,MA,01201,413-499-3232
Astin's Auto Service,236 S Main St,Hopedale,MA,01747,508-473-1229
A And A Transport,11 Beverly St,Oxford,MA,01540,508-987-2490
Turbo Transport,Po Box 863,Barnstable,MA,02630,N/A
American Trucking,46 Gibbs St Apt 3a,Worcester,MA,01607,508-756-5578
Prince And Son Transportation,738 River St Apt 3l,Hyde Park,MA,02136,617-233-3330
Unicorn Trucking,22 Elvir St,Lynn,MA,01902,781-599-2302
Txm Trucking,17 Crooked Lane,Lakeville,MA,02347,508-946-6124
E J Searah Services,75 Washington Rd,Brimfield,MA,01010,413-283-3611
British Bulldog,379 Kilburn St,Fall River,MA,02724,508-674-4500
Howes Transportation,70 N Street,Bellingham,MA,02079,508-883-3953
Lopez Trucking,25 Beacon Place,Chelsea,MA,02150,617-887-0441
Dryden Machine,103 Huntoon Memorial Highway,Leicester,MA,01524,508-892-9293
Kevin Smith Trucking,219 West Street,New Salem,MA,01355,978-544-3773
Rick's Truck & Tire Service,314 A Mattakeesett St,Bryantville,MA,02327,617-293-9232
Aam Trucking Co,174 Westminster Hill Rd,Fitchburg,MA,01420,508-348-1249
Holland Remodeling,64 Friend St,Adams,MA,01220,413-743-7510
Al's Service Station,Route 8a,Charlemont,MA,01339,413-339-4440
Riley James Trucking,8 Surrey Lane,Peabody,MA,01960,508-536-3147
Caribe Express Transportation,103 Jackson Street,Lawrence,MA,01840,978-681-6264
"Methuen Dsiagnostic Services, Inc.",1016 Riverside Dr,Methuen,MA,01844,508-975-7377
G & N Express,31 Middleby Road,Lexington,MA,02173,N/A
Gg Trucking,398 Warren Street,Chelsea,MA,02150,713-594-5223
Rsb Transport,45 George Street,Oxford,MA,01540,N/A
New England Delivery,200 Jefferson Road Suite 204,Wilmington,MA,01887,978-988-7874
Stockel Transportation,201 Sandy Beach Rd,Plymouth,MA,02360,508-295-4496
Freight Traffic Management,70 Airport Road,Hyannis,MA,02601,508-660-6799
J C Trucking,10 Cedar Street,Woburn,MA,01801,978-681-4501
H Rogers Trucking,11 Pleasant Street,Salisbury,MA,01952,508-463-7607
Shine Enterprises,171 East Street-328h,Methuen,MA,01844,617-293-7039
Automotive Cleaning Solutions,19 Tech Circle,Natick,MA,01760,617-431-0068
Cross Country Delivery,142 Capt Ellis Road,Hyannis,MA,02601,508-775-3412
M & N Trucking,6 Timeless Lane,E Wareham,MA,02538,508-273-7748
Mid Town Motors,589 Cottage Street,New Bedford,MA,02740,508-992-1490
Jr Trucking,228 Pleasant St,Barre,MA,01005,508-355-0069
Gleason's Removal Service,11 Boardman St,Amesbury,MA,01913,508-388-4987
Marceline's Trucking,20 Wood Rd,West Harwich,MA,02671,508-771-8994
S & R Leasing,50 Summit Avenue,Hull,MA,02045,401-294-7940
Mike Crevier Trucking,330 Spring Hill Rd,Barre,MA,01005,508-355-6232
J Oneill Trucking,283 Bradstreet Ave,Revere,MA,02151,617-485-0420
Peterson Automotive Transport,1010 Pleasant St,Belmont,MA,02178,617-489-5200
New Horizon Distributor,25 Prouty Boad,Burlington,MA,01803,617-272-5767
Kennedy Trucking,7 Dottie Lane,Methuen,MA,01844,508-682-1940
Cordani Trucking,322 Hanlon,Holliston,MA,01746,508-473-3468
Total Distributing Corp,147 Summit Street 3b U4,Peabody,MA,01960,978-535-2226
"Obie Trucking, Inc.",517 Franklin St,Melrose,MA,02176,617-662-6746
K & G Trucking,355 Park Ave,Revere,MA,02151,714-878-5351
Anyway Express Co,1525 Blue Hill Ave 241 S St,Randolph,MA,02368,617-321-2170
Auto Haul Transport,97 Vining Hill,Southwick,MA,01077,413-246-7422
Gary E Horn Trucking,115 Cook Road,Sheffield,MA,01257,413-229-8676
Star Engines,12-14 Bowers St,Holyoke,MA,01040,413-536-6272
R M J Trucking,189 Boston Avenue,Medford,MA,02155,617-396-5861
Wayne Mossey Truckig,77 Follette Street,Grafton,MA,01519,508-865-0535
Allston Auto Brokers,411 Cambridge St,Allston,MA,02134,617-782-5200
F And R Trucking Co,237 Haverhill St,N Reading,MA,01864,508-657-6431
K M Newell Transport,2016 Ocean St Suite 32,Marshfield,MA,02050,781-837-9969
Perkins Trucking,53 Oakridge Dr,Belchertown,MA,01007,413-323-9737
Abl Transport,P O Box 458t,N Oxford,MA,01537,508-987-2294
M Tavano Trucking,730 Smith Neck Road,South Dartmouth,MA,02748,508-992-7213
J Odell Jr Trucking,31 Talcott Ave,Gardner,MA,01440,508-355-6653
Hill's Auto Recovery,14 Dorchester St,South Boston,MA,02127,617-269-3900
Boj Transportation,2251 Dorchester Ave,Boston,MA,02124,508-747-5447
New England Truck Line,200 Goodwin Sreet,Springfiled,MA,01151,413-543-1109
Tomco Delivery Service,68 Cypress St,Norwood,MA,02062,617-762-0024
Chalmers Auto Transport,30 Hitchcock Street,Holyoke,MA,01040,413-538-8379
Wentworth Truck & Trailer Repair,Ten Avco Road,Haverhill,MA,01835,508-373-1721
Kenway Trucking,31 Hazel St Apt 1,Salem,MA,01970,508-745-0928
A & C Moving,490 Foundry St,Easton,MA,02334,508-230-0005
Jerry Bourgeois Transportation,28 Sarah Lane,Raynham,MA,02767,508-880-0285
W S Trucking,254 Mt Pleasant St,New Bedford,MA,02746,508-993-8744
Pacheco Trucking,194 Robeson Street,New Bedford,MA,02740,508-993-5251
Expedited Trucking,31 Forest Street,Bondsville,MA,01009,413-283-6646
Robarge Trucking,24a Parker St,Wilmington,MA,01887,508-657-5287
S & W Trucking,2 Garfield Street,Acushnet,MA,02743,508-998-9251
Sandor Transfer,53 Simmons Brook Drive,Westfield,MA,01085,413-568-5420
R C Martin Bucket Truck Service,625 Norfolk Street,Holliston,MA,01746,508-893-9800
Teddy Bear Transport,110 Quincy Street,Springfield,MA,01109,N/A
Mclaughlin Transport,71 Messeng St Quincy House 754,Plainville,MA,02762,508-699-5674
Economy Bus Services,2b Falls Street,Rehoboth,MA,02769,508-336-9869
Vision Enterprises,23 Hancock St,Westfield,MA,01085,413-562-1808
Global Transport,699 Washington Street,South Attleboro,MA,02703,508-399-8270
Mercer & Sons Movers,13 Handel Road,Billerica,MA,01821,978-670-4900
Ljd Petroleum Co,10 Srybny Avenue,Haverhill,MA,01832,978-373-8387
Heffron Transportation,8 Jefferson Rd,Methuen,MA,01844,978-689-3997
Franklin Express,29 Beacon,Amesbury,MA,01913,978-804-9649
Prime Tide Boat Transport,15 Perkins Way,Dennis,MA,02638,561-540-1446
3 C's Home Delivery,20 Larned Road,Oxford,MA,01540,508-949-3289
Stanley's Auto Annex,9 Risley St,Gardner,MA,01440,508-632-5800
Pires Trucking,651 High Hill Road,North Dartmouth,MA,02747,508-995-8786
Little Rays Trucking,12 Bell Rd,Tewsbury,MA,01876,978-657-6434
Robert G Randall,174 Acushnet Rd,Mattapoisett,MA,02739,508-758-2690
"Mcandrews Trucking Co, Inc.",27 Shawmut Ave,Weymouth,MA,02189,617-337-3290
Hodgdon Trucking,9 Oakcrest Drive,Lynn,MA,01904,617-595-9075
J D Auto Transport,62 Lakeside Avenue,North Dartmouth,MA,02747,508-992-2971
Automotive N More,34 Casey Way,Attleboro,MA,02703,508-431-7002
Gibbs Transportation Co,193 Stone Street,Clinton,MA,01510,508-368-8586
Steel Wagon Transport,3 Amanda Way,Peabody,MA,01960,978-531-4457
Gibson Trucking,45 Church Road,Mill River,MA,01244,413-229-2271
K More Transport,1529 West Street,South Attleboro,MA,02703,508-761-4962
K B Hamilton Transport,1408 Granville Rd,Westfield,MA,01085,413-568-8327
3 Brothers Freight,120 Pine St,Waltham,MA,02453,781-308-9121
Kelly Trucking,39 Brown Road,Oxford,MA,01540,508-987-0970
Todd's Auto Sales,71 May Street,Worcester,MA,01610,508-756-0662
River Star Express,15 River Dr,So Attleboro,MA,02703,508-761-4596
Viking Transportation,55 Azalea Rd,Waltham,MA,02452,781-893-2018
Jp Trucking,21 Blaiswood Ave,Marlboro,MA,01752,508-485-7285
Ken Duval Trucking LLC,232 Bedford Street,Abington,MA,02351,781-878-8005
C M Trucking,115 Wood Street,Middleboro,MA,02346,508-947-3903
Paul H Weir Trucking Co,203 Elm Street,Dedham,MA,02026,781-381-8287
Arms Express,53 East Glen Drive,Taunton,MA,02780,508-880-0622
Coburn's Motor Express,275 Centre Street,Holbrook,MA,02343,781-767-5566
Totally Trucking,17 Wellman Street,Beverly,MA,01915,978-921-6444
Pete Kuzmeskus Trucking,248 North County Road,Leyden,MA,01337,413-774-3541
John Hebert Trucking,35 Highland St,Middleboro,MA,02346,508-947-9159
Doms Transportation& Recovery,172 Spencer Avenue,Chelsea,MA,02150,617-568-9800
Roger Desreuisseau And Sons Trucking,2b Bradford Dr,Greenfield,MA,01301,413-774-9916
K P Trucking,822 Cronin Rd,West Brookfield,MA,01585,413-436-0108
J B Auto,605 N King St,Northampton,MA,01060,413-586-9777
Cbnt Sons Transport,149 E Buckland Rd,Shelburne Falls,MA,01370,413-625-8695
Mask Trucking Co,40 Northwood Circle,Ludlow,MA,01056,413-589-9740
Sippican Auto Sails,8 Park Street,Marion,MA,02738,508-748-2886
Glenn Dion Trucking,16 Kilton Place,Taunton,MA,02780,508-824-5192
"M & C Trucking, Inc.",90 Middle Rd,Amesbury,MA,01913,978-388-1684
O'donnell Trucking,3r Echo Avenue,Gloucester,MA,01930,978-281-0567
New England Medical Services,960 Turnpike St,Canton,MA,02021,781-821-3939
C V Movers Van Lines,52 Springfield Street #3,Somerville,MA,02143,617-628-9444
Jrm Cinema Construction Services,44 Dartmouth Street,New Bedford,MA,02740,508-999-1261
Hunt Freight Delivery,371 Chandler St,Tewksbury,MA,01876,978-640-6888
Elton Transport,385 North Loomis Street,Southwick,MA,01077,413-569-5934
Mc Carthy Trucking Co,8 Sheffield Road,Danvers,MA,01923,508-777-4033
Carlson Brothers,116 Route 130,Mashpee,MA,02649,507-477-7514
M K Young Trucking,222 Old State Rd,Erving,MA,01344,413-423-3183
Rrr Transportation,260 Acrebrook Drive,Florence,MA,01060,413-586-9021
"Lecompte Auto & Truck Repair, Inc.",56 Allen Street,Clinton,MA,01510,978-368-1659
Repossessions,41 Walton St,Attleboro,MA,02703,508-695-2275
Devlin Furniture Delivery,219 Lowell Street,Waltham,MA,02154,781-893-0221
Adams Trucking,470 Pond St,East Bridgewater,MA,02333,508-378-2336
Fiore Trucking,611 Boston,Billerica,MA,01821,978-663-4366
All Wright's Trucking,100 John Fitch Highway,Fitchburg,MA,01420,978-345-9000
Steve's Trucking,14 Pingree Street,Salem,MA,01970,978-745-5409
Bay State Auto Trim & Auto Sales,720 Berkshire Ave,Springfield,MA,01109,413-739-6624
Parnell Trucking,189 Orchard St,Byfield,MA,01922,978-465-5321
John Cleveland Trucking,175 Washington Mt Road,Dalton,MA,01226,N/A
Ama Refrigerated Services,512 Southbridge St,Worcester,MA,01610,508-754-4426
United Carrier Service,176 Billings Rd,Quincy,MA,02171,617-279-3889
Dryver Construction,35 Highland Street,Amesbury,MA,01913,978-388-5722
A & A Transportation,1 Littles Brook Ct # 28,Burlington,MA,01803,978-834-0633
K C And G Trucking,41 Ruggle Street,Three Rivers,MA,01080,413-289-1472
Turner Transport,74 Main St,N Reading,MA,01864,N/A
Praxair Healthcare Services,103 4th Ave,Waltham,MA,02451,781-902-1800
George's Transport,65 Bird St,Dorchester,MA,02125,617-265-0767
Silvas Trucking & Excavating,36 New Castor Drive,Lowell,MA,01854,978-454-9632
Ortenzi Trucking,65 Hemlock Lane,Halifax,MA,02338,781-294-7086
S K D Trucking,31 4th Ave Apt 2,Haverhill,MA,01830,978-373-8611
Raymond Transport,114 Turkey Hill Rd,Belchertown,MA,01007,413-323-8259
Mdn Trasportation,47 North St Apt C,Worcester,MA,01604,954-849-8632
Campus Shipping And Storage,One General Way,Reading,MA,01867,781-938-8342
M A Moschetti Trucking,104 Rice Road,Templeton,MA,01468,978-939-8645
T L Courier Service,403 Dipping Hole Rd,Wilbraham,MA,01095,413-596-3297
J B Transportation,31 Grove Ave,Dracut,MA,01826,978-957-1149
R Caplette Trucking,30 Batter St,Webster,MA,01570,508-943-5948
K & M Trucking Co,342 Pearl Street,Cambridge,MA,02139,617-354-9229
M S Services,92 Valley Street,Seekonk,MA,02771,508-336-4626
New England Escort & Transport,2 Chuby St,Monson,MA,01057,413-575-9530
Cdm Transportation,186 Main Street,Westfield,MA,01085,617-394-0961
Rafferty Distributors,14 Pleasant Street,Merrimac,MA,01860,978-346-9557
J R Rosa Distributor,10 Morrison Ct,Methuen,MA,01844,978-682-6885
Millis Trans,122 Norfolk Road,Millis,MA,02054,508-376-9574
Mclaughlin Trucking,105 Winter St,Saugus,MA,01906,781-941-2334
Bill's Auto Transport,23 Milford St,So Plymouth,MA,02360,800-292-8464
S P Transportation,35 Crescent St,Lawrence,MA,01841,978-687-1529
Derco Truck & Equipment,26 Stearns Rd,West Roxbury,MA,02132,617-323-6161
Pavement Maintenance Service,15 Nashua Rd,Hadley,MA,01035,413-587-0144
J & P Truck Repair LLC,188 Putnam Hill Rd,Sutton,MA,01590,508-865-2626
Staybright Sign Service,18 Elmhurst Road,Arlington,MA,02474,781-643-9878
Cathleen E Tompkins,4 Grove St,Westford,MA,01886,N/A
Rogers Septic Service,High Point Lane,Vineyard Haven,MA,02568,508-693-1135
Jrcarriers,57 North Bridge St,Holyoke,MA,01041,413-575-3217
Elvin Trucking Co,173 Battles Street,Brockton,MA,02301,508-894-6734
K & R Transport,22 Meadow Ln Apt 3,Bridgewater,MA,02324,508-944-7043
Thomas E Lovejoy Transportation,35 Atlantic Road,North Attleboro,MA,02760,508-695-1997
Beigert Trucking,42 Hampden Street,Indian Orchard,MA,01151,413-543-2741
U Save Auto Rental,504 St James Avenue,Springfield,MA,01109,413-731-6900
Bryleyzac Express,51 Lawn Street,S Attleboro,MA,02703,508-399-7453
Locke Express Company,42 Marshview Drive,Marshfield,MA,02050,781-834-9734
Cape Cod Auto Transport,7 Joaquim Rd,Hyannis,MA,02601,608-834-8500
Jim's Auto Services,60 John Dietsch Blvd,Attleboro Falls,MA,02763,508-699-0709
Mra Transport,1063 S Main St,Athol,MA,01331,978-249-4986
D T Rice Enterprises,85 Ford Hill Road,Rowe,MA,01367,413-339-6625
Fast Trac Transportation,419 Revere St,Winthrop,MA,02152,888-403-3334
Morning Star Transport,Two Berkeley St,Easthampton,MA,01027,413-585-8012
All-pro Piano Movers,47 Belvidere Avenue,Framingham,MA,01702,508-872-3174
Solomon Transportation Logistics,73 Main St,Kingston,MA,02364,781-585-0190
Rod's Express,25 Beach St,Fair Haven,MA,02719,508-979-8463
Asap Delivery Sys,23 Oakley Road,Watertown,MA,02172,617-924-1117
Jeffrey Santos Trucking,345 Wilbraham St,Palmer,MA,01069,413-283-3183
C J K Trucking,114 Miller Street,Middleboro,MA,02346,508-946-4635
North Middlesex Moving Systems,23 Oakland Rd,Pepperell,MA,01463,978-433-2515
Transfair Transgroup,331 Northern Ave,Boston,MA,02210,617-737-9000
Craters & Freighters Of Se New England,1875 Bedford St Unit 1,Bridgewater,MA,02324,508-697-0033
"Bayview Boat Haulers, Inc.",19 Monument Rd,Orleans,MA,02653,508-432-2952
Matt Lincoln,278 East Harbor Road,Cheshire,MA,01225,413-743-2215
J & L Delivery,16 Summer Street,Medford,MA,02155,781-396-1165
G D C Trucking,1119 Main St,Leominster,MA,01453,978-537-4465
D & R Trucking,4 Ed Clark Road,Hubbardston,MA,01452,978-928-1214
Bob Skaare Trucking,20 Arlington St,Melrose,MA,02176,781-662-8719
Night Wing Express,131 Essex St # 21,Salem,MA,01970,978-740-0783
T-hart Enterprises,61 Warwick Road,Royalston,MA,01368,978-248-2040
Stephen Araujo Trucking,191 Midland Ave,Vineyard Haven,MA,02568,508-653-8398
Universal Office Services,120 Tremont St,Everett,MA,02149,617-389-1998
D & T Distributing,128 Brookside Road,Somerset,MA,02726,508-677-9308
Security Products And Services,104 Colony Drive,Hampden,MA,01036,413-566-3914
R Robinson Heavy Haul,571 Great Rd,Littleton,MA,01460,978-486-1099
October Mountain Transport,Rte 8,Becket,MA,01223,413-623-5510
J & T Auto Sales,77 Main Street,North Andover,MA,01845,978-687-0908
Mk L L C,13 Hugo Terrace,Webster,MA,01570,508-943-5648
Mailloux Trucking,39 Old Douglas Rd,Webster,MA,01570,508-943-1955
M J Trucking,15 Schumann Drive,Westfield,MA,01085,413-534-1653
Retzel Transport,41 Roberts St,Lee,MA,01238,413-243-1680
Moving Unlimited Homeland Transport,48 White Birch Plz,Chicopee,MA,01020,413-592-2129
Barry Relocation Services,277 Palmer Road,Ware,MA,01082,413-967-9220
Baystate Cargo,13 Herrick Drive,Milton,MA,02186,617-698-0598
Custom Service,32 R West Main,Norton,MA,02766,508-285-6644
Southwick Trucking,20 Williamsville Rd,Hubbardston,MA,01452,978-928-4868
Almeida & Son Trucking,136 Barney Avenue,Rehoboth,MA,02769,508-336-4596
Geoffrey's Delivery Services,23 Emery St,Lowell,MA,01851,978-454-3174
A K B A Trucking,7 Dell Avenue,Hyde Park,MA,02136,N/A
Access Excavation Services,Po Box 494,Blackstone,MA,01504,401-766-6962
Red Dot Services,696 Linden St,Boylston,MA,01505,508-869-2306
Pete's Trucking,584 Mammoth Rd,Dracut,MA,01826,978-957-2977
Mac Trucking,130 Fuller Street Apartment 2,Brookline,MA,02446,617-739-3849
Phil's Auto Express,1 Western View Drive,Wilbraham,MA,01056,413-348-2445
Bulldog Delivery,25 Walpole Park South,Walpole,MA,02081,508-668-9500
Tek Automotive,28 Osgood St,Methuen,MA,01844,978-686-0881
Oconnor Trucking Co,15 Mason St,Salem,MA,01970,978-745-0526
Upright Signs & Service,102 Depot Rd,Oxford,MA,01540,508-987-2478
State Street Auto,42 East Main St,Westboro,MA,01581,508-366-4018
Colonial Service Co,231 Norfolk Street,Walpole,MA,02081,508-660-1040
K & K Trucking Co,44 Forest Avenue,Westfield,MA,01085,413-562-0369
Lsc Trucking,Box 803,Northboro,MA,01532,508-366-8123
New England Distribution,3 Nemco Way,Ayer,MA,01432,978-772-1192
P R Transportation,1 Trotter Court Apt 59,Roxbury,MA,02118,617-263-0830
Greenleaf Transport Services,6 Worcester Street,Haverhill,MA,01832,975-521-4303
Wehsco,146 Campanelli Pkwy,Stoughton,MA,02072,781-344-8676
"C Walsh, Inc.",393 D Street,Boston,MA,02210,617-269-7900
Watson's Express,96 Woodside Ave,Wellesley,MA,02181,N/A
Cliquott Club Distributing Co,33 Island Heights,Somerset,MA,02726,N/A
"Falk & White, Inc.",16 Karlton Cir,Andover,MA,01810,508-441-2900
A P E Transportation Company,26 Kenwood Place,Lawrence,MA,01841,N/A
We-haul Express,304 Lincoln St,Marlborough,MA,01752,978-333-1219
Lds Transportation,7 Union Street,Montague,MA,01351,413-367-2618
"U S Express Bus Lines, Inc.",99 Arnold Ave,Springfield,MA,01119,413-796-9700
Wilga's Express,348 Southampton Road,Westhampton,MA,01027,413-527-2291
Retail Home Heating Deliveries Heating & Plumb,25 Montcalm Ave,Blackstone,MA,01504,508-883-6010
Exchange Transportation Co,140 Canal St,Malden,MA,02148,617-322-1411
Webster Fleet Services,58 Pulaski St,Peabody,MA,01960,978-753-2200
Delgado's Trucking,15 Joyce Ave,Whitman,MA,02382,N/A
P I B Trucking,14 Longview Dr,Beverly,MA,01915,N/A
"Deering, Inc.",158 Essex St,Melrose,MA,02176,781-665-7171
Seven Brothers Trucking Co,1055 Highland Ave,Needham,MA,02192,617-449-1060
R Express,112 Long Pond Dr,South Yarmouth,MA,02664,617-398-3489
Blue Rhino Of New England,140 South Main Street,Middleton,MA,01949,978-774-2760
C & D Cartage,5 Merchant St,Sharon,MA,02067,781-784-8121
"C J K, Inc.",Rr 3 Box 88 H,Vineyard Haven,MA,02568,617-693-2030
Keeley's Overland Express,345 Tremont St,Rehoboth,MA,02769,508-226-0530
Martha's Vineyard Moving And Storage,300 State Road,Vineyard Haven,MA,02568,508-693-1937
Greatneck Trucking,107 Greatneck Trking,Wareham,MA,02571,N/A
"Ggl Transportation, Inc.",24 Linden St,West Boylston,MA,01583,508-799-6692
"Rmj Transportation, Inc.",3 Nemco Way,Ayer,MA,01432,508-534-5742
"Atlantic Door Fabrication Service, Inc.",19 Craig Road,Acton,MA,01720,978-635-3700
Spud Trucking,637 Morgan Road,West Springfield,MA,01089,413-734-6027
T A K Trucking,1029 Wilson St,Palmer,MA,01069,413-283-9589
Sulco,649 Cottage Street,Springfield,MA,01104,413-739-4785
Bill's Trucking,43 Stafford St,Quincy,MA,02170,617-773-8170
A R O Trucking,265 Hailes Hill Rd,Swansea,MA,02777,508-676-1879
Chelmsford Fuel & Trans Co,120 Gershom Avenue #2,Lowell,MA,01854,508-453-4384
Fox Auto Supply,250 Canal St,Lawrence,MA,01840,617-685-5064
"Wakefield Distribution Systems, Inc.",4 First Avenue,Peabody,MA,01960,888-869-2767
Mac`s Transportation,Quaker Highway,Uxbridge,MA,01569,N/A
Skip Hatstat Trucking,Davis St,Rutland,MA,01543,N/A
Bea & Don Trucking,6 Anderson Ave,East Sandwich,MA,02537,N/A
James L Queene Trucking,43 Birch Meadow Rd,Merrimac,MA,01860,617-346-8682
W S Farms,29 Mort Vining Rd,Southwick,MA,01077,413-569-6348
Tatro Trucking,2069-71 Route 2,Shelburne Falls,MA,01370,413-625-2235
Doucette Moving & Storage,39-41 Lincoln St,Reading,MA,01867,617-944-1857
Leo P Soares,437 Stafford St,Fall River,MA,02721,N/A
H & M Broker Service,6 Adam St,Milton,MA,02186,N/A
C & R Trucking,12 Irene Street,Webster,MA,01570,508-943-6877
Special Delivery Service,76 Pine St,Tewksbury,MA,01876,N/A
Letendre Transport,231 Drexel St,Springfield,MA,01104,413-736-7999
S & R Transport,11 Davis St,Woburn,MA,01801,N/A
"Salter Transportation, Inc.",196 Scotland Road,Newbury,MA,01951,978-462-6233
Bell Transportation System,173 Kennebec Street,Mattapan,MA,02126,617-296-8520
Expedited Transport Svc,248 Prospect Street,Norwood,MA,02062,N/A
Boston Baltimore Trucking,Longhill Road,Holland,MA,01521,413-245-6636
Physon Distribution,Chace Hill Road,Sterling,MA,01564,508-365-6575
"Css Deliveries, Inc.orporated",104 Oakland St Po Box 488,Malden,MA,02148,N/A
Gauvin Trucking Co,3 Negus St,Webster,MA,01570,N/A
Defelice Trucking Service,12 Simone Street,Methuen,MA,01844,617-382-9956
Dawicki Trucking,65 Fiske Mill Rd,Shelburne Fls,MA,01370,N/A
Ralph Koen Trucking,156 Rhode Island Ave,Lakeville,MA,02346,N/A
Donald Hartwell Trucking,434 Northfield Road,Bernardston,MA,01337,413-774-2284
Legz Trucking Co,6 Wye Street,Berkley,MA,02779,508-822-5553
Florida Atlantic State Trans,17 1-2 Bennett St,Revere,MA,02151,N/A
Armstrong Trucking Co,5 Sherwood Avenue,Danvers,MA,01923,N/A
B & G Service Co,81 Damon Avenue,Melrose,MA,02176,781-665-0782
"Cook Carriers, Inc.",129 Brook Rd,Quincy,MA,02163,617-340-1649
Tewksbury Metals,860 East St,Tewksbury,MA,01876,508-851-5946
H B Trucking,Po Box 365195,Hyde Park,MA,02136,800-558-5011
M&r Transportation,620 E Main St,Orange,MA,01364,508-544-8241
Sampson Plymouth Express,Coles Lane,Plymouth,MA,02360,508-746-3032
Select Stone Sales & Service,3305 Greenwich Rd,Hardwick,MA,01037,413-967-7763
G&g Traffic Service,Po Box 794,West Springfield,MA,01089,413-733-8779
John Gilbert Transportation,10 Linwood St,Saugus,MA,01906,617-231-0487
Lenox Trucking,Willow Creek Road,Lenox,MA,01247,413-637-0133
G & H Trucking,29 Feeding Hills Road,Southwick,MA,01077,N/A
Southern Star Trucking,483 Boston Road,Weston,MA,02193,N/A
Maple Acres Forest Products,33 Ireland St Ext,W Chesterfield,MA,01084,413-296-4059
Special Transport Service,69 Will Palmer Rd,Southwick,MA,01077,203-627-6779
"Bojac, Inc.",170 Main St,Maynard,MA,01754,508-897-8844
Roto Rooter Services Co,175 Maple St,Stoughton,MA,02072,781-297-7049
Northeast Express Trucking,141 Main St,Shelburne Falls,MA,01370,413-625-9884
"Bbm Delivery & Services, Inc.",343 Bluefield Rd,Ashburnham,MA,01440,410-551-2603
John Tripp & Sons Trucking,61 Osborn St,Westport,MA,02790,508-676-1484
K A J Trucking,143 No Main St,West Boylston,MA,01583,508-839-9268
"A Ober & Sons, Inc.",14 Howarth Ave,South Attleboro,MA,02703,508-399-6869
Rule Transportation,Five Everett St,Easthampton,MA,01027,413-527-2156
Ace Movers,110 Loon Hil Roadial Park,Reading,MA,01867,978-446-9997
"Everson Trucking, Inc.",280 New Ludlow Rd,Chicopee,MA,01020,413-533-9261
Munters Moisture Control Services,79 Monroe Street,Amesbury,MA,01913,978-388-4900
R & S Trucking,107 Eastern Ave,Essex,MA,01929,978-768-7229
Dumaines Oil Service,111 Rte 6a,Sagamore,MA,02561,508-888-2720
Standard Electric And Electric Wholesales,100 Campanelli Pkwy,Stoughton,MA,02072,781-297-5666
Macleans Seafood,10 N Front St,New Bedford,MA,02740,508-999-1502
J P K Transportation,112 Richmond Rd,Assonet,MA,02702,N/A
Mike's Trucking,19 Green St,Auburn,MA,01501,508-832-6336
M A C Transport Co,39 Sam West Road,Southwick,MA,01077,413-531-3945
Wolde Trucking,405 Blackbrook Dr,Lowell,MA,01851,508-452-3712
Sharred Transportation,527 Shawsheen St,Tewksbury,MA,01876,508-851-8002
G K Allen Trucking,109 Oakland St,Springfield,MA,01108,413-774-3801
Londy's Trucking,38 Pleasant St,Granby,MA,01033,N/A
Hannon Auto Service,849 Boston Rd,Billerica,MA,01821,508-667-1900
Merrimack Valley Health Services,6 New England Exec Park,Burlington,MA,01803,617-270-9560
Western Mass Mri Services,6 New England Exec Park,Burlington,MA,01803,617-270-9560
Stohlman Trucking Company,124 Worcester St,Watertown,MA,02472,617-924-9035
Kelly Trucking LLC,4 Crosby Street,Northampton,MA,01060,413-584-6300
Tmt Transportation,1311 Broadway,Haverhill,MA,01832,508-372-7459
Nel's Trucking,142 Brightman Street,Fall River,MA,02720,508-678-7248
Swiftway Transportation,112 Railroad Ave,Revere,MA,02151,617-289-6400
Richard E Anderson,24 East Side Lake Pearl,Wrentham,MA,02093,508-384-2850
Northeast Environmental Services Co,5 Brook St,Westwood,MA,02090,617-769-1234
Simms Trucking,183 Old Central Street,Avon,MA,02322,508-586-0889
"Lynn Transportation, Inc.",61 South St,Easthampton,MA,01027,413-527-1840
T P M Trucking,52 Forest Park Rd #1,Woburn,MA,01801,617-231-1313
M&m Trucking,7-a South Cedar St,Milford,MA,01757,508-478-5815
C O P Transportation Company,4 Rose Street,Springfield,MA,01104,413-746-8572
D J Babcuck & Sons Trucking,54 Glenside Ave,Billerica,MA,01821,978-375-4946
Giza,307 East St,Ludlow,MA,01056,413-583-3176
Eugene P Costa & Son,665 Middle Street,North Dighton,MA,02764,508-669-5093
Jla Trucking,244 Plain Street,Rehoboth,MA,02769,508-252-1012
Ray's Trucking,16 Dehon Road,Great Barrington,MA,01230,413-528-2382
P T Trucking,96 Robins St,East Bridgewater,MA,02333,508-631-4061
Jhl Distributors,11 Boxcar Boulevard,Tewksbury,MA,01876,978-851-3084
Union Courier Service,11 Hurd Ave,Saugus,MA,01906,781-233-4430
Desiata Transport,33 2nd Brook St,Kingston,MA,02364,781-585-9509
Kathii Lee Trucking Co,57 Dunstable Road,Westford,MA,01886,508-692-7544
Camillieri Trucking,6-107 King George Dr,Boxford,MA,01921,508-352-6507
Malden Moving & Storage,108 Ferry St,Malden,MA,02148,781-321-7414
Robert M Brandolini,8 Golden St,Haverhill,MA,01830,508-372-0679
Ladue Trucking,62 N Liberty St,Belchertown,MA,01007,413-323-9316
Bmd Transportation,23 Fifth Ave,Haverhill,MA,01830,N/A
Metro Investigation & Recovery Systems,65 Gilbert St,Quincy,MA,02169,617-773-4641
Jhm Transport,45 Bennett St #10,Stoughton,MA,02072,617-344-8050
Sourceone,82 South St,Hopkinton,MA,01748,508-435-0001
U S A,60 Elm St,Seekonk,MA,02771,508-336-7226
Caron Transportation,Rr2 Box 148a,East Brookfield,MA,01515,N/A
L & R Transport,94 Cross Road,Westport,MA,02790,508-636-6341
Johnson Trucking,17 East Road,Westminster,MA,01473,978-668-5204
Lakeside Leasing,222 Worthington Rd,Huntington,MA,01050,413-667-3268
Hingham Bay Express Ltd,115 North St,Hingham,MA,02043,617-837-4466
U S Heating Supply Corp,128 Water St,Danvers,MA,01923,508-774-2110
Mass Disposal Service Corp,109 Shade St,Lexington,MA,02173,617-862-7198
"Konan Trucking, Inc.",6 Farnum St,Grafton,MA,01560,508-400-7501
Jim's Trucking,Stoddard Road,Winchendon,MA,01475,508-297-1639
C E Crout,129 Federal St,Belchertown,MA,01007,413-323-6206
P Cherella Trucking,7 Gladiola Terrace,Mansfield,MA,02048,781-858-9985
P & L Distributors,490 Kirchner Rd,Dalton,MA,01226,413-684-2396
Salvadore Contracting,Main Street,South Barre,MA,01074,508-366-2203
Nes Communication Services,786 Hartford Turnpike,Shrewsbury,MA,01545,508-842-4328
"Solomon Bros, Inc.",Rte 129 & Chelmsford Rd,Billerica,MA,01862,508-667-6444
Kap Leasing,991 East New Lenox Rd,Lenox,MA,01240,413-637-1982
Southern Transport,14 Norris St,Feeding Hills,MA,01030,413-789-3550
Berselli Trucking,5 Acorn St,East Longmeadow,MA,01028,413-736-6847
Allis Trucking,323 W Leyden Rd,Leyden,MA,01337,413-624-5582
Cathy's Loadhauler,P O Box 6271,Haverhill,MA,01830,508-374-6267
R H Goodman Bakery Distributors,1640 Worcester Road 3307d,Framingham,MA,01702,508-270-8442
M S Rosofsky Trucking,115 Chace Rd,East Freetown,MA,02717,508-763-8861
C T Trucking,75 Woodrow Ave,Dorchester,MA,02124,N/A
Hinckley Lumber,61 Beach Rd,Vineyard Haven,MA,02568,508-693-0075
New England Services,681 Bark St,Swansea,MA,02777,508-674-7848
Handy-man General Carrier,646 Cooper St,Agawam,MA,01001,413-789-0043
D & D Trucking,84 Train St,Dorchester,MA,02122,617-436-6850
"Brown S Trucking Co, Inc.",3 Amherst St,North Grafton,MA,01536,203-935-9273
G A Fields & Son Trucking,114 Purgatory Rd,Sutton,MA,01590,508-865-9886
Richie's General Service,Huntington Rd,Chester,MA,01011,413-354-6543
Joes Auto Transport,102 Mosher St,New Bedford,MA,02744,508-997-6269
Jot Services,5 Hudson Rd,Gloucester,MA,01930,508-283-8324
Mike's Line Service,32 Alston St,Somerville,MA,02143,617-625-9393
"Transportation By B&m, Inc.",26 Strong St,Springfield,MA,01104,413-733-8729
Lagerstedt Trucking,30 12th Ave,Brockton,MA,02302,508-587-1657
General Cleaning Service,976 Winfield Lane,North Dighton,MA,02764,508-252-6873
Franks Auto Sales,Rte 146,Millbury,MA,01527,508-865-6638
S & K Trucking,23 Intervale St,Lynn,MA,01905,617-592-8322
George Gaudet Trucking,314 Crescent St,Waltham,MA,02154,617-893-7187
Dano Transport,122 Se Main St,Douglas,MA,01516,508-425-9762
Capeline Marine Services,49 North Precint Rd,Centerville,MA,02632,508-428-0429
"Jmh Transportation, Inc.",44 Bittersweet Rd,East Falmouth,MA,02536,508-495-0461
Arlington Moving Co,15 Park St,Arlington,MA,02174,617-648-8037
Dependable Dairy Distributors,25 Himoor Cir,Randolph,MA,02368,617-445-1837
Dussault Trucking,417 George Hannum Road,Belchertown,MA,01007,413-323-7642
Ted Bowes Trucking,1 Rainbow Court,Scituate,MA,02066,617-545-2728
Sweet Tooth Distributors,970 Summer St,Marshfield Hills,MA,02051,617-827-9181
Joe's Service Center,90 Main St,North Reading,MA,01864,508-664-8553
R A Gillette Trucking,14 Yuill Circle,Boston,MA,02136,617-361-4335
Anchor Used Auto Parts,140 West St,Lawrence,MA,01841,978-687-2328
Pioneer Valley Recovery Service,325 Carew St,Chicopee,MA,01020,413-594-7533
Searles Transportation,29 Taft Ave,Brockton,MA,02401,508-587-7227
Greco's Auto,83 Dickens St,South Attleboro,MA,02703,401-723-0278
L M Trucking Co,Griffin Rd,Charlton,MA,01508,508-248-2094
Automotive Transport Service,51 A New Salem Street,Wakefield,MA,01880,617-876-4400
Arsenault Trucking Co,43 Pilgrim Rd,Reading,MA,01867,617-944-3351
Champagne Trucking,64 Cherry St,Easthampton,MA,01027,413-527-5370
M L & Sons Haulin,925 Shoemaker Ln,Feeding Hills,MA,01030,413-786-0269
Palmer Distributing Co,249 Cedar Hill St,Marlboro,MA,01752,508-485-8966
Riley Distributors,125 Pine St,Danvers,MA,01923,508-777-1899
Lawrence C Wales Trucking,155 Underpass Rd,Brewster,MA,02631,508-896-7300
On-line Couriers,322 Bark St,Swansea,MA,02777,N/A
Clayton Truck Sales,350 Thatcher St,East Bridgewater,MA,02333,508-588-8783
Community Auto Sales,117 Main St,Pepperell,MA,01463,978-433-2155
"Cars Transport, Inc.",3 Marilyn Dr,Canton,MA,02021,617-294-7989
Micris Trucking,44 Reynard St,Gloucester,MA,01930,508-283-0533
Special-t Trucking,259 Wood St,Middleboro,MA,02346,508-947-7411
J Kellogg Trucking,391 S Washington St,Belchertown,MA,01007,413-283-7289
Northeast Crane & Rigging Service,28 Pelham Ave,Methuen,MA,01844,978-868-2222
Parent Transport,130 Chipaway Road,East Freetown,MA,02717,508-763-8093
Demo Trucking,408 Bedford Street,Lakeville,MA,02347,508-947-9120
H Grice Trucking,28 Hallowell Street,Mattapan,MA,02126,617-298-8462
"Atlantic Coast Environmental, Inc.",7 Railroad Ave #f,Bedford,MA,01730,617-275-6464
The Sofa Shop,87 Andover St,Danvers,MA,01923,978-777-4380
Gallant Moving & Storage Co,612 Montello St,Brockton,MA,02401,N/A
Mccabe Transportation,115 Wood Street,Middleboro,MA,02346,508-947-2668
D E Poskitt & Sons,187 Lincoln Street,Norton,MA,02766,508-238-6548
N E W S Distributors,34 Parker St,Everett,MA,02149,617-884-1160
Jem Trucking Co,24 Calumet Ave,Worcester,MA,01606,508-852-6173
New Day Distribution,16 Plum St,Worcester,MA,01604,N/A
Metro Transport Co,13 Gates Road,Shrewsbury,MA,01545,508-842-0521
Triple H Transport,388 Boston Post Road,Marlboro,MA,01752,508-481-0217
Moving & Storage,250 Appleton St,Holyoke,MA,01040,413-532-6558
U E S Transport,799 State Road,North Dartmouth,MA,02747,508-997-6105
Santiago's Transportation Services,270 Park Street,Lawrence,MA,01841,508-682-6836
Sunny-side Truck Brokers,127 Sodom St,Granville,MA,01034,N/A
Malibu Transport,196 Western Avenue,Essex,MA,01929,508-768-6614
"Northampton Airport, Inc.",Old Fairy Road,Northampton,MA,01060,413-584-7980
J & C Express,265 New Ludlow Road #5f,Chicopee,MA,01020,413-356-2331
Bennett Excavating And Trucking,95 Rice Corner Rd,Brookfield,MA,01506,508-867-6059
Champion Nationwide Contractor,139 Campanelli Road,Middleborough,MA,02346,508-946-8500
O'brien Electric Service,67 Maplewood Circle,Brockton,MA,02302,508-586-0630
City Line Auto Sales,70 Fitchburg State Road,Ashby,MA,01431,603-878-4907
Mass Transit,75 Stedman St,Boston,MA,02130,N/A
Scotty's Service,Corner W Main & Central St,Georgetown,MA,01833,508-352-6558
Bob's Trucking,,Chicopee,MA,01013,413-592-6278
John's Auto Transport,5 Franklin Ave,Andover,MA,01810,N/A
"Corporate Printing Services, Inc.",1020 Turnpike Street,Canton,MA,02021,617-821-5928
Main St Home & Automotive Mobile Repair Service,68 Main Street,Westfield,MA,01085,413-568-4393
Ferreira's Transportation Service,251 Oakdale St,New Bedford,MA,02740,N/A
T D Transportation,1357 Main St,Acushnet,MA,02743,508-763-4322
Moore Horse Transport,44 Pine Swamp Road,Ipswich,MA,01938,978-356-2483
Icm,63 Stanhope Road,Waquoit,MA,02536,508-540-1643
Air Carrier Transport,128 Endicott Ave,Revere,MA,02151,N/A
Taylor Auto Transport,215 Aldrich St,Uxbridge,MA,01569,N/A
Burlington Auto Parts,127 Hazen Road,Shirley,MA,01464,508-425-9132
Aardvark Movers,99 Hammond St,Cambridge,MA,02138,N/A
Jas Transfer,1361 Main Street,Acushnet,MA,02743,508-763-0903
W E B & Sons Trucking,43 Daniels Road,Rowley,MA,01969,781-844-7284
Central New England Trucking,400 S Athol Road,Athol,MA,01331,508-249-8000
Compass Transportation,226 South St,Rockport,MA,01966,508-546-2939
"J Cox & Son Caskets, Inc.",95 D Main Line Drive,Westfield,MA,01086,413-572-4566
Butman & Gantt Trucking Co,109 East Main Street,Gloucester,MA,01930,508-768-6653
T&m Concrete,134 South Washington Street,Belchertown,MA,01007,413-284-0435
Park Drive Transportation,1420 North Shore Road,Revere,MA,02151,617-284-8680
"Eastern Floor Services, Inc.",118 Cedar St,Middleboro,MA,02346,508-947-1781
Moody Truck Center,47 Lyons Street,Springfield,MA,01151,413-543-0008
A-unique Transportation,21 Lucia Drive,Pittsfield,MA,01201,413-447-9224
G Joslyn Trucking,44 Canterwood Road,Ipswich,MA,01938,508-356-1624
Walls Auto Sales,33 Parker Street,Rochdale,MA,01542,508-892-1811
R & R Trucking,66 N Broadway,Haverhill,MA,01832,508-373-1201
Daniel Rossi,104 Chapel Street,Newton,MA,02495,617-926-0311
Al Desantis & Sons,70 Greenwich Plains Road,Ware,MA,01082,413-967-3698
Larson's Service,90 Island Pond Road,Springfield,MA,01038,N/A
Brian Dimetres Auto Transportation,225 Batchelor St,Granby,MA,01033,413-467-7016
"Patio Vending Services, Inc.",225 Stedman Street # 15,Lowell,MA,01851,978-452-5163
Stephen Gray Trucking,143 Robert Street,Braintree,MA,02184,N/A
"Automotive Services, Inc.",1134 American Legion Highway,Westport,MA,02790,508-636-3606
"Garrity Transportation, Inc.",895 Massachusetts Avenue,Roxbury,MA,02118,617-445-3546
Northeast Transport Group,65 S Tally Ho Dr,Springfield,MA,01118,N/A
George M Mugnier Jr & Son Trucking,79 Harris St,Granby,MA,01033,413-467-7000
"Nationwide Equine, Inc.",603 Neponset St,Canton,MA,02021,N/A
General Mattress Express,75 Ferry St,Fall River,MA,02721,508-673-0801
Jw Enterprises,90 Main Street,North Reading,MA,01864,978-204-3333
Allied Auto,621 Lancaster Street,Leominster,MA,01453,508-537-8957
Berry Transportation,274 Granville Rd,Southwick,MA,01077,413-569-6351
Office Services Unlimited,22 Primrose Lane,Agawam,MA,01001,413-786-9033
Mc Dermott Trucking,193 Chamberlain Hill Rd,Barre,MA,01005,508-882-3300
P M Transportation,9 Upland Rd,Weymouth,MA,02188,N/A
Movers Unlimited,7-9 Thomas Park,South Boston,MA,02127,617-268-5522
Sutton Transportation,12 Ray Lane,Sutton,MA,01590,508-865-3410
G & H Transportation,51 Edwards Rd,Westhampton,MA,01027,413-529-0394
Cardwell Trucking,24 Baker St,Worcester,MA,01603,508-799-5618
R G Labonte Trucking,4 Walnut Street,Adams,MA,01220,413-743-9869
Bonci Trucking,13 Highland Ave,West Boylston,MA,01583,508-835-4853
James Trans,33 Rainbow Ter,Salem,MA,01970,508-740-9216
Airport Car Service,# 2 Southbridge Dr,Agawam,MA,01001,N/A
D D Charter Service,255 North Road,Chelmsford,MA,01824,N/A
Sea To Air Express,93 Wimbledon Dr,West Yarmouth,MA,02673,508-971-4835
Bcd,19 School Street,Dracut,MA,01826,800-766-8771
B R M Transport,95 Boston Road,Springfield,MA,01109,413-783-9387
The Distributing Center,14 Depot Street,Uxbridge,MA,01569,N/A
Andover Moving And Storage,566 Broadway Bldg 25,Lawrence,MA,01842,N/A
Frazer Trucking,17 Bass River Road,Beverly,MA,01915,978-922-1455
Mastera Trucking,61 High St,North Carver,MA,02330,508-866-4057
D J Kaitbenski Construction And Trucking,Old Hamilton Rd,Sturbridge,MA,01566,508-347-7127
Robert Befford Trucking,43 Belanger St,Three Rivers,MA,01080,N/A
Walpole Auto & Truck,1171 R Main St - Bay 12,Walpole,MA,02081,508-668-9822
Rick Newcomb Trucking,55 County Rd,Dracut,MA,01826,508-957-7530
M R Gregoire Trucking,39 High St,Monson,MA,01057,413-267-9008
Castle Auto Exchange,425 American Legion Highway,Revere,MA,02151,617-324-8018
S Talkowsky Trucking,7 Fairmount Rd,Peabody,MA,01960,978-375-9923
A R Delivery,101 Shawsheen Rd #11,Lawrence,MA,01843,508-794-9573
495 Toyota,235 East Main Street,Milford,MA,01757,508-634-7979
Minute Man Transit,1506 Providence Highway - Suite 30,Norwood,MA,02062,N/A
Automotive Reconditioning,121 Myrtle Street,Lawrence,MA,01842,508-975-0500
J & W Trans,30 Patten Rd,Norton,MA,02766,508-285-7212
Freda Motor Transit,1 Brook St,Ludlow,MA,01056,413-734-2011
Advanced Auto Transport,129 Broadway,Wakefield,MA,01880,617-246-5831
Mariner Medical Services,753 Forest St,Marlborough,MA,01752,617-739-3707
Amts Airfreight Trucking,30-32 Railroad St,Revere,MA,02151,781-485-1121
Al's Auto,93 Milton St,Dedham,MA,02026,781-326-2860
Dold's Express,93 E Haynes Dr,Townsend,MA,01469,978-597-6461
Coastal Automotive Rebuildables Sales,230 Ferry Road,Salisbury,MA,01952,504-465-4764
Pulmonary Services Co,55 Flynt St,Palmer,MA,01069,413-583-6343
Concord Wrecker Service,236 Central Street,Acton,MA,01720,508-369-8767
Wally's R V Travel Trailer Trans,39 Sam West Road,Southwick,MA,01077,413-569-9044
American Bus Express,55 East Worcester Street,Worcester,MA,01604,508-753-1592
J Q Rv Transport,54 Anthony Road,Leominster,MA,01453,508-534-8242
Eagle Transport And Recovery,65 State Street,Lawrence,MA,01843,508-685-8040
Ebeling's Auto Sales & Service,625 E Washington Street,North Attleboro,MA,02760,508-695-7081
Gem Transportation,7 Coed Drive,Easthampton,MA,01027,413-529-0776
Newtowne Trucking,414 Oakland Road,Hyannis,MA,02601,508-771-9418
M H Fox Transport,23 Pimlico Road,Forestdale,MA,02644,N/A
K Botelho Trucking & Rigging,26 Alden Ave,North Dartmouth,MA,02747,508-992-7902
Emerdakg Transfer Service,3 Bowker St,Boston,MA,02114,617-788-1017
Toms Trucking,6 Herget Dr,Pepperell,MA,01463,508-433-5241
Eaco Transportation,153 Cranberry Highway,West Wareham,MA,02576,508-291-2122
Family Transport,172 Falcon Dr,Westfield,MA,01085,413-530-8560
Mikes Mobil,156 Endicott St,Danvers,MA,01923,508-777-3652
Condor Express,A2 Colonial Dr #6,Andover,MA,01810,508-687-7817
Cme Trucking,138 Hutchinson Lane,Cheshire,MA,01225,413-743-5522
T & D Transportation,12 Sibley Street,Auburn,MA,01501,N/A
A M Clough Trucking Co,120 Broadsound Ave,Revere,MA,02151,617-289-5825
Ground Control,80 Eastern Ave,Chelsea,MA,02150,617-889-0200
Non Stop Sales And Service,17 Rita Ln,Bellingham,MA,02019,508-966-2207
R & R Trucking,4 Wampanoag Drive,Fairhaven,MA,02719,508-677-0735
A P S Distributors,240 Pleasant Street,Dracut,MA,01826,508-957-3129
B T Transport,97 Brookfield Rd,Fiskdale,MA,01518,508-347-3326
J Wood Trucking,345 Main St,Norfolk,MA,02056,508-958-8877
Graziano Trucking,24 Main Street,Spencer,MA,01562,508-885-3537
M & J Auto Transport LLC,61 Waverly Road 2,North Andover,MA,01845,781-854-1936
Edison LLC,3 Center St,Peabody,MA,01960,978-335-2769
"Road Runner Of Boston, Inc.",155 M New Boston St Suite 133,Woburn,MA,01801,617-671-6332
"E Z Rider Limo Service, Inc.",877 Tucker Road,N Dartmouth,MA,02747,508-992-3785
"Organ Clearing House, Inc.",Post Office Box 290786,Charlestown,MA,02129,617-688-9290
"Royal Coachman Transportation Service, Inc.",35 Slocum St,Acushnet,MA,02743,508-995-7552
Hanson Trans,13 Lakeridge Drive,Holland,MA,01521,413-245-3666
Ev Transport,175 Seven Star Rd,Groveland,MA,01834,978-521-4834
"Flatout Motorsports, Inc.",57c Mendon Street,Bellingham,MA,02019,508-966-0447
"Lopes Trucking, Inc.",52 Howe St,Framingham,MA,01702,508-572-4232
Santos E Antunez,75 Chatham St Apt 1,Lynn,MA,01902,617-970-4608
A&e Transport,5 Windsor Street,Haverhill,MA,01830,978-914-7015
Talaria,89 Brookfield St,Lawrence,MA,01843,978-457-8253
Burgers Home Improvement,119 High Street,Agawam,MA,01001,413-222-6324
Leatherneck Landscaping,6 Woodman Way 109,Newburyport,MA,01950,978-375-2189
Kenoa Trucking,71 Edgeworth St #18,Worcester,MA,01605,508-410-5521
Big Sam Deliveries,161 W Mountain St,Worcester,MA,01606,774-253-3194
Adam Auto Transport,69 Norman St,Everett,MA,02149,888-831-7547
Nauset Septic Pumping Co,15 Daniels Drive,Wellfleet,MA,02667,508-237-3294
Dion Trucking,45 Hearthstone Terrace,Chicopee,MA,01020,413-331-0097
Exotic Foods,345-c Boston Poast Road,Sudbury,MA,01776,781-221-0010
J F Gray Jr Transport,232 Lancaster Street,West Boylston,MA,01583,508-958-1312
Dba Foley Landscaping,53 Fairfield Circle,Norwood,MA,02062,781-844-8592
Summit Time,195 Liberty Street,Brockton,MA,02301,508-580-8473
Blackstac,11 Smith Street,Middleboro,MA,02346,508-249-4134
Duffy Transport,7 Carlton St,Peabody,MA,01960,781-983-7763
Almu Transporters,3 Agawam St Apt 2,Worcester,MA,01603,508-783-4485
Shane''s Paving,27 Garland St,Fitchburg,MA,01420,978-860-5068
Ch Transportation Services,6 Hardy St,Framinhham,MA,01701,781-652-1555
Luxmoves,93 Mass Ave # 300,Boston,MA,02115,617-848-0882
Bristol Transportation,21 Craven Ct,Tauton,MA,02780,508-386-1968
Revolution Transportation,346,Shrewsbury,MA,01545,508-925-5348
Iexpress Transport,106 Glenwood Rd #3,Somerville,MA,02145,781-308-6386
Dbs Trucks,104 Arthur St,Worcester,MA,01604,774-641-5697
Conley Sport Horses,130 Paige Hill Rd,Brimfield,MA,01010,508-414-2120
Zhenkee Produce,140 Newmarket Sq,Boston,MA,02118,617-989-3988
Rc Transport,47 Forest Street,Oxford,MA,01540,774-200-9865
Kelley Building Group,129 Palmer Road,Monson,MA,01057,413-267-9119
Cr Express,137 Phillips St,Fitchburg,MA,01420,781-241-7172
Ra Trucking,201 Holding St,Worcester,MA,01606,508-963-3180
Pinnacle Landscaping And Construction,1 New Boston Rd,Dracut,MA,01826,978-957-0959
Private Carrier,630 Douglas Street,Uxbridge,MA,01569,508-278-9100
Adam Morse Trucking,8 Deerfield Lane,Pembroke,MA,02359,781-293-1276
Lambert Plastering,103 Hemlock St,Leicester,MA,01524,508-579-8466
Vitaliys Auto Transportation,108 Meadow St,Chicopee,MA,01013,413-534-4200
Elms College,291 Springfield St,Chicopee,MA,01013,202-521-1493
Spring Garden Motor Freight,60 Donna Road,Framingham,MA,01701,508-980-9955
The Atrium At Veronica Drive,1 Veronica Drive,Danvers,MA,01923,978-762-7625
Sti Trans,202 Willow St,Lawrence,MA,01841,978-208-0756
Heidi's Trucking,128 Spring St,Everett,MA,02149,617-548-6987
K & S Trucking,138 Broad St Apt 1a,Marlborough,MA,01752,508-481-0972
Mcleans Transport,43 Elmwood Street,North Attleboro,MA,02760,781-983-0687
Bjr Enterprises,676 Harwich Rd,Brewster,MA,02631,508-292-6315
Josiana Enterprise,16 Otis Street,Somerville,MA,02145,617-955-3556
Em&m Distributors,10 Primrose Way Unit 4302,Haverhill,MA,01830,781-504-6320
Fritz Trucking,65 Grandview,Worcester,MA,01603,508-844-8973
Amp Agency,77 North Washington St 8th Floor,Boston,MA,02114,617-723-8929
Road Runner Transportation Company,9 Sammet St,Everett,MA,02149,617-771-5348
Lpc Removal Service,162 North,Norfolk,MA,02056,888-586-5742
Express Flooring,580 Dickinson Street,Springfield,MA,01108,413-734-9844
Shell-fin Trans,21 Lenox Rd,Peabody,MA,01960,978-977-5302
M&p Flooring,142 Bridlepath Road,Springfield,MA,01118,413-351-5049
Labrakes Trucking,87 Eagleville Rd,Orange,MA,01364,978-724-4436
Boston Foodmart,30 Tower Road,Newton,MA,02464,617-986-8510
Baez Cleaning Service,828 Lakeview Ave,Lowell,MA,01850,978-453-9997
P&p Floor Covering,107 Waite Corner Road,North Brookfield,MA,01535,508-867-6907
Transportation Engineers,20 Strafello Drive,Avon,MA,02322,508-212-5700
Safe Delivery Trucking 2,87 Wheatland Ave,Boston,MA,02124,617-549-7895
Antranig Minasian Freedom Auto,14 Waverly Street,Framingham,MA,01702,508-620-7672
La Granja,138 Hatch St,New Bedford,MA,02745,401-481-8806
F I Countie Co,8 Birney Street,Peabody,MA,01960,978-531-1955
Rock Solid Stoneworks,63 Dickinson Dr,Granville,MA,01034,413-537-1044
American Laundry Systems,800 Broadway,Haverhill,MA,01832,978-373-1883
Tranzit,505 Paradise Rd #277,Swampscott,MA,01907,857-236-0468
Lenny's Home Improvement,7 Kimberly Drive,Southwick,MA,01077,413-569-0356
All Star Landscaping,35 Beeching Ave,Wilmington,MA,01887,978-658-6777
Dba Arbest Limo Services,12 Arnold St,Quincy,MA,02169,617-288-8884
Got Gutters,105 River Street,West Springfield,MA,01089,413-478-4316
Toolynne Trucking,13 Oak Street,Monson,MA,01057,413-544-4216
Ws Distributor,822 Meridian St,Fall River,MA,02720,508-676-0504
Safe & Save Movers,64 Bakersfield Street,Boston,MA,02125,617-388-5102
Reina Transportation,7 Pinewood Court,East Freetown,MA,02717,508-763-1952
Central Mass Landscaping,7 Redding Lndg,Douglas,MA,01516,508-476-2536
Nickerson Rd Auto Repair,92 Nickerson Road,Ashland,MA,01721,508-881-4404
Emerick Trucking LLC,159 Linwood St,Uxbridge,MA,01569,508-922-1502
Fontaine Masonry Restoration,10 Hartwell Street,Southbridge,MA,01550,508-523-7418
R J M Properties,2 Hacker Court,Worcester,MA,01603,508-754-7439
Brothers Landscaping,323 Merrimack Street,Methuen,MA,01844,978-697-7011
Allstar Coach Company,17 Sterling Street,Malden,MA,02148,617-964-1818
New Design Masonry,238 Pleasant Str Apt 1,Lowell,MA,01852,978-259-3829
D And R Auto Transport,"261 E. Boston Post Rd., Apt 7",Marlborough,MA,01752,508-988-5831
Murray Site Solutions,420 South Rd,Ashby,MA,01431,978-386-7139
Bns Home Improvements,97 Pheasant Rd,Billerica,MA,01821,978-408-1837
Hnm Auto Transport,409 Lindsey Street,Fall River,MA,02720,508-718-7440
Denoncourt Property Service,49 Hastings Rd,Southwick,MA,01077,413-569-0339
Sma,191 Beal Street Unit C,Hingham,MA,02043,781-336-9016
Morel's Auto Repair & Service,174 Winter St,Haverhill,MA,01830,978-372-0845
Lc Trucking,194 Callender Street,Dorchester,MA,02124,617-838-9665
Jy Office Solution,50 Kinsman Street,Lowell,MA,01852,978-265-3911
Lb Trucking,11 Sumner Terr,Springfield,MA,01108,413-732-1342
Eamco,51 Federal Hill Rd,Webster,MA,01540,N/A
Metcalf And Sons Transport,261 Tom Swamp Rd,Petersham,MA,01366,978-514-5297
Affordable Auto Recycling,53 Elm Street,Pittsfield,MA,01201,717-994-5348
Civil Delivery,51 Tripp Ave,Brockton,MA,02301,774-826-5002
Scs Swift Contraction Services,83 Ash Street,West Newbury,MA,01985,978-265-9670
The Gold Group,70 Washington St Suite 214,Salem,MA,01970,978-745-4456
Junior Auto Body,151 Pine St,Springfield,MA,01105,413-315-0105
Erick Express,17 Wellingston Ave,Everett,MA,02149,617-733-3184
"North Shore Logistics, Inc.",4 Lighthouse Way,Gloucester,MA,01930,508-284-2030
Syndi Moul Distributor,11 Ada St #2,Fall River,MA,02721,508-617-8552
Castillo Freight Lines,108 Franklin St Apt 12,Lynn,MA,01902,978-767-1415
Xtreme Auto Accessories,49 Arcadia Ave,Dedham,MA,02026,857-234-3874
Scott's Auto Repair,23 Almont St #2,Winthrop,MA,02152,617-539-4456
Snay Boat Transport & Specialized Hauling,558 Elmwood Ave,Uxbridge,MA,01569,774-275-9537
Passport Car And Coach,109 Barlows Landing Road,Pocasset,MA,02559,508-563-2688
Nexride Transportaion,1706 Irving Rd,Randolph,MA,02368,178-188-5714
Lima Transport,157 Pleasant St 406,Malden,MA,02148,718-608-8941
Shamrock Oak Products,31 Congreve Street,Boston,MA,02131,617-325-3624
The Plumber The Gas Co,271 Wales St,Abington,MA,02351,781-678-5160
Checker Transportation,17 Capn Carletons Rd,Cotuit,MA,02635,508-771-8294
Jl Transport,5 Foxwood Lane,Uxbridge,MA,01569,774-287-7079
Alprilla Farm Csa,94 John Wise Ave,Essex,MA,01929,978-273-9339
Db Distributors,78 Padelford St,Berkley,MA,02779,508-878-2604
Huntersbrook,390 Circuit,Norwell,MA,02061,781-659-5878
Dura Built Fence Co,6 Burning Bush Drive,Boxford,MA,01921,978-887-8040
J & A Trucking,65 Maple St,Lawrence,MA,01841,860-857-7999
Amherst Ventures,34 Pine Hollow Rd,Amherst,MA,01002,413-548-0786
Aet Home Repair,67 Martin Street,Rehoboth,MA,02769,508-252-9790
Elite Worldwide Transportation,88d Maple Street,Waltham,MA,02453,781-609-2573
Superdaves Towing,501 Dalton Ave,Pittsfield,MA,01201,413-770-7930
Moduline,20 Holland Street,Brockton,MA,02301,508-580-4445
Transportation,29 Olive Ave,Lawrence,MA,01841,978-420-7857
Nursecare Transportation,75 Swan St,Methuen,MA,01844,781-983-5472
Jancon Exteriors,17 Lockewood Drive,Franklin,MA,02038,508-889-6177
Mj Trucking,9 Orchard St,Malden,MA,02148,617-202-8895
Priceless Automotive,9 Walker Drive Unit B,Upton,MA,01568,617-331-3367
Northeast Airlines,72 Liberty St,Rockland,MA,02370,617-716-4311
Highland Autobody,30 Charles St,Malden,MA,02148,781-324-1515
Gg Transport,5 Rosslare Rd,Framingham,MA,01701,508-596-1487
Bd Auto Transport,122 Slater Ave,Springfield,MA,01119,413-356-0546
Candi Transportation,40kings Way Unit 302a,Waltham,MA,02451,617-866-0466
J & Bf Towing,18-20 Reed Street #17,Randolph,MA,02368,857-207-7203
Commonwealth Express Transport Group,12 Mear Road,Holbrook,MA,02343,781-556-1568
Safeway Transportation,85 High St,Malden,MA,02148,781-652-1177
Mapleline Farm,57 Comins Road,Hadley,MA,01035,413-549-6486
The Pallet Co,100 Pine St,Holyoke,MA,01040,413-534-1423
Rm Transport,1235 Main Street,Dighton,MA,02715,774-281-3158
Olivier Auto Transport,56 Hart St,Taunton,MA,02780,678-135-0786
Rpm,20 Falvey St,West Springfield,MA,01089,413-433-5732
Dats Transportation,57 Fieldstone Cir,Middleboro,MA,02346,770-678-9201
Clay King,7 C Littleton Rd,Westford,MA,01886,978-392-1895
Silverlining,368 Hillside Avenue,Needham Heights,MA,02494,855-733-4205
Svd,28 Wave Street,Lowell,MA,01851,508-844-7718
Owner,12 Exeter Street,Lawrence,MA,01843,978-590-1102
Bcr Transport,93 Greenwood St,Gardner,MA,01440,978-799-5577
Dba Young And Sons Paving,391 Fall River Ave,Seekonk,MA,02771,401-413-7187
Western Mass Off Road Recovery,43 College Highway,Southwick,MA,01077,413-563-7178
Walker's Beds & More,3065 Cranberry Hwy #11,E Wareham,MA,02538,774-678-0636
Trips Logistics Copr,6 Morgan Dr,Methuen,MA,01844,978-794-0575
Landry & Sons,86 Summer St,Blackstone,MA,01504,508-883-8396
Monegro Distributor,225 Broadway St,Methuen,MA,01844,978-687-1351
Major Home Improvements LLC,19 Hunters Slope,Westfield,MA,01085,413-636-6046
Tru Shine Detailing,355 Jackson St,Lawrence,MA,01841,978-655-3345
Micheak Delivery Systems,349 Hildreth Street,Lowell,MA,01850,978-885-6971
One Call Facility Services,4 Tower Farm Road,Billerica,MA,01821,978-262-1312
Gabin Auto Transport,447 Essex St,Lawrence,MA,01840,978-590-2581
Officeland,125 High Street,Mansfield,MA,02048,508-339-0880
"J And M Tropical Distributor, Inc.",576 Haverhill Street,Lawrence,MA,01841,978-390-2783
Marroco's,47 Jefferson Avenue #1,Chelsea,MA,02150,617-828-2030
A And J Produce,1 Water St,Lawrence,MA,01841,404-808-0988
Garys Lawn Mowing Service,23 Spruce St,Haverhill,MA,01830,978-374-0130
New America Distributors,903 Albany St,Boston,MA,02119,617-541-2222
Class General Contracting,425 Union St,West Springfield,MA,01089,413-736-2766
Beaus Transportation,756 South Main St,Orange,MA,01364,978-544-8886
Carway Auto Center,50 Perry St,Lowell,MA,01852,978-748-4113
Latifa,1 Cross St,Saugus,MA,01906,781-233-1348
Mojica Trucking,102 Pleasant St,Lunenburg,MA,01462,978-424-3109
Diamond Heating,4 Carol Lane,Blackstone,MA,01504,508-883-2444
R M Silva & Sons Enterprises,26 Popes Point Rd,Carver,MA,02330,508-866-6787
Folgar Export,76 Nashua St,Leominster,MA,01453,978-808-0374
"Pj Bergeron, Inc.",26 Forge Rd,Assonet,MA,02702,508-644-7126
Trucking & Hauling,45 Baker St,Gardner,MA,01440,210-302-5174
Transervices Varrios,150 Chestnut St Apt 2,Chelsea,MA,02150,857-236-5611
Wylie Remodeling,185 Salem St,Bradford,MA,01835,978-702-9526
Jm Trucking,1104 Waverly Street,Framingham,MA,01702,508-736-4154
Mary Wilkinson And Sheila Smith,654 Campbell Falls Rd,Southfield,MA,01259,413-229-2042
Cornwell Tools,9 Hawthorne Rd,Newburyport,MA,01950,978-465-1013
Hts Limo,7 Dowd Ave,Wareham,MA,02571,508-566-4621
Downtown Powerwashing,1769 County St,Attleboro,MA,02703,508-639-5672
Kevin E Drolet Electric,169 Arnold Road,North Attleboro,MA,02760,508-695-1133
Jtr Trucking,43 Summit St,New Bedford,MA,02740,774-473-0079
Dds,37 Denver Street,Springfield,MA,01119,413-796-7033
Friendly Movers,79 Southpoint Dr,Amherst,MA,01002,413-347-7148
Transporters Network,27 Christie Way 60g,Marlborough,MA,01752,508-654-3177
Bass Delivery Service,383 Nottingham Street,Springfield,MA,01109,413-330-1181
Master Auto Transport,145 Pleasant St Apt 302,Marlborough,MA,01752,978-201-6563
Serrano Trucking,39 Gerard Way,Holyoke,MA,01040,413-534-5366
Palma Contracting,314 Sibley Rd,Waltham,MA,02453,781-258-9990
Gac Wholesale,159 Coggeshall Street,New Bedford,MA,02746,508-717-2399
Express Towing And Transport,72 Homestead St,Roxbury,MA,02121,617-719-7400
Jose D Colon,653 Western Ave #8,Lynn,MA,01905,339-226-0730
Burgess Movers,128 York Avenue,Randolph,MA,02368,781-986-7676
D & D Towing,445 Walpole St,Norwood,MA,02062,781-762-5881
Morando Trucking,383r Lowell St,Wakefield,MA,01880,781-246-0284
A D F,17 Fremont Street,Taunton,MA,02780,508-823-4373
Hostar,1 Kendrick Road,Wareham,MA,02571,508-295-2900
Stanley Panek,480 Mt Pleasant Street,New Bedford,MA,02742,617-993-2667
Amok Amok Trucking,5 Blackstone River Road,Worcester,MA,01607,508-981-1178
Kpm Trucking,20 Tudor St,Methuen,MA,01844,617-212-6410
Aquarius Pool Water,25 Carriage Hill Drive,Abington,MA,02351,781-953-1896
Westford Earth Materials,37 Power Rd,Westford,MA,01463,978-692-5373
Roadlink Brokerage,One Kellaway Drive,Randolph,MA,02368,N/A
George's Transport,106 School Street,Rehoboth,MA,02769,508-252-9257
East Coast Limousine,4 Madison Circle,Greenfield,MA,01301,N/A
Logan Furniture,1 Kiddie Drive,Avon,MA,02322,508-232-7595
Cartage America,592 E 3rd St.,Boston,MA,02127,857-417-8528
Harts Towing,25 East Hoyle Rear,Norwood,MA,02062,617-762-3101
J P Fleming Co,87 Laurel Ave,Bradford,MA,01835,508-373-5355
Dj Towing & Transport,1175 Washington St,Norwood,MA,02062,617-762-0805
Little Loads,28 Eagle Drive,East Douglas,MA,01516,508-476-7171
Lakis Towing LLC,46 Newmarket Square,Boston,MA,02118,617-442-5566
West End Towing,429 Allen St,New Bedford,MA,02740,508-992-7274
Eagle Van Lines,70 Birmingham Pkwy,Brighton,MA,02135,617-254-0452
Atra Van Lines,647 Summer Street,Boston,MA,02210,617-268-4100
S Bentas Enterprises,172 Concord Rd,Chelmsford,MA,01824,978-256-4800
Cruisin Classics,632 Winthrop St,Taunton,MA,02780,508-822-1655
Al-international Ne,78 Pine Street,Attleboro,MA,02703,401-461-9158
Worcester Coach,124 Burncoat Street,Worcester,MA,01605,508-853-7100
Cotes Collision & Customs,278 North Main St,Uxbridge,MA,01569,508-278-2473
Marks Towing,166 Lowe St,Tewksbury,MA,01876,978-851-3623
Metro Van Lines,31 Union Ave,Sudbury,MA,01776,978-440-9988
Runex,77 New Park St,Lynn,MA,01905,617-212-2253
Rkl Construction,40 Parker Ave,Westfield,MA,01085,413-564-0364
Lord & Sons,26 Pelham St,Springfield,MA,01109,413-348-0135
J & A Auto Repair & Towing,35 Kirk St,Methuen,MA,01844,978-686-4695
Tobyne Towing,32 Cummings Ave,South Hamilton,MA,01982,978-265-3194
Jamies Trash Removal,37 Stevens Street,Haverhill,MA,01835,978-373-6797
Scott Transport Services,65 Pittroff Avenue,South Hadley,MA,01075,413-246-7024
Bayside Towing,381 Straightway,Hyannis,MA,02601,508-360-3900
Montero Shipping,375 S Main St #1,Andover,MA,01810,781-581-7707
David F Dore,18 Lincoln Point Road,Charlton,MA,01507,508-248-5742
Joes Seafood,33 Old Plymouth Rd,Sagamore Beach,MA,02576,774-313-9242
Ad Towing,16 Naples Rd,Revere,MA,02151,781-321-5025
Bigelow Marine,206 Plain St,Rehoboth,MA,02769,508-989-7926
Woodys Rv Towing Service,148 Vinnicum Rd,Swansea,MA,02777,508-769-8625
Vecchio's Towing,56 Summit Street,Peabody,MA,01960,978-532-5164
Wachusett Landscape And Construction,98 Glenwood Rd,Rutland,MA,01543,508-886-0275
Mrhd Plumbing And Heating,63 Vine Rock Street,Dedham,MA,02026,781-760-5948
Saulo Assis,55 Georgetown Dr # 1,Framingham,MA,01702,508-802-0069
Miches Towing,75 High Street,Lawrence,MA,01841,978-569-3779
Brandolini Towing,769 Amesbury Rd,Haverhill,MA,01830,978-373-2737
Gms,48 Andover St,Georgetown,MA,01833,978-352-2545
F&r Towing Limited Liability,535 River St,Haverhill,MA,01832,978-764-3341
Antonio Towing,130 Day St Apt #1,Boston,MA,02130,857-452-6239
Anibal Viveiros Trucking,12 Nemasket St,Taunton,MA,02718,724-226-6820
Alsco Of New Bedford,57 Cove Street 2nd Floor,New Bedford,MA,02744,508-995-9508
Wally's Auto Sales,130 East Washington St,North Attleboro,MA,02760,508-809-3520
Jmc Rosa Enterprise,27 Lowell St,Fall River,MA,02721,508-672-2550
Clark's Auto Body,28 Hollis Street,Pepperell,MA,01463,978-433-6740
Kevin Byrne Enterprise,530 Winter Street,Walpole,MA,02081,508-734-5229
A J Trucking,30 Governor Street,Springfield,MA,01104,413-657-6760
Souza Bros Towing,1412 Methuen St,Dracut,MA,01826,978-935-8826
"Gar Trucking, Inc.",30 Riverview West,Pittsfield,MA,01201,413-663-1032
L & S Towing And Recovery,1 Innis Drive,Billerica,MA,01821,978-886-6256
Niyaz Safairovich Afrailov Nsa,57 Russell Street 1st Fl,West Springfield,MA,01089,251-458-5644
Bws Enterprises,3 Cross Street,Erving,MA,01344,413-422-2259
Sargent Farm,82 Bear Hill Rd,Merrimac,MA,01860,978-346-7635
Bala Express,789 Central Street,Lowell,MA,01852,N/A
Rj Obrien Transportation,5 Fortune Way,Salem,MA,01970,617-548-3184
Joel's Towing,502 Union St,West Springfield,MA,01089,413-330-5635
Father&son Towing & Auto Repaier,116 Chestnut St,New Bedford,MA,02740,508-991-4168
Independent Moving Service,16 Brookfield Street,Lawrence,MA,01843,978-905-1498
P & J Transportation,45 Dale Street,Revere,MA,02151,614-768-7363
Edwards Transportation,411 E County Rd,Rutland,MA,01543,508-864-5036
Bernadeau Towing,74a Plain Street,Brockton,MA,02301,617-943-8011
Allstarmovingabcxyz,33 Westgate Rd Apt 1,Chestnut Hill,MA,02467,614-425-1021
Redding Construction Trucking,716 Main St,Haverhill,MA,01830,978-372-4459
Stanikmas Trucking,1050 Whittemore St,Leicester,MA,01524,508-892-9243
Fv Tnt,115 Narrow Ave,Westport,MA,02790,508-636-0191
Naspolini's Express,57 Endicott St # 2,Peabody,MA,01960,339-236-4726
Johnson Builders,28 Old Cart Rd,Auburn,MA,01501,774-272-2876
Senn Excavating,240 Wendell Road,Millers Falls,MA,01349,413-659-3490
Design A Scape,706 Main Street,Agawam,MA,01001,413-786-7145
Harry's Auto Body And Towing,1030 Riverside Dr,Methuen,MA,01844,978-794-0816
Iaconis Hvac,318 Mt Hope St,North Attleboro,MA,02760,508-699-2550
Sammys Trucking Services,87 Lyman Terrace,South Hadley,MA,01075,413-246-1751
Campos Towing,26 Dover Street,Brockton,MA,02301,508-588-7480
Russell Catania Masonry,4 Battcock Rd,Billerica,MA,01821,978-663-0635
Shelby Motors,180 Boston Rd,Springfield,MA,01109,413-356-0546
Connor Sport Court Of New England South,65 Telegraph Hill Rd,West Falmouth,MA,02574,774-521-8167
All Tow,21 High Meadow Drive,West Springfield,MA,01089,413-785-5657
Lt's Truck And Equipment Repair,33 Middlesex Rd Unit 2,Tyngsboro,MA,01879,978-649-7462
W F Obrien Auto Trans,58 East Street Extension,Milford,MA,01757,508-596-3837
Cindy's Towing,803 Commercial Street,Braintree,MA,02184,617-482-0888
No Wories Delivery,25 Bartlett Street 2nd Floor,Springfiled,MA,01107,413-657-1898
