Company Name,Street Address,Address Locality,Address Region,Postal Code,Telephone
Reliable Cartage Services,10 Cades Cove,St Charles,MO,63301,636-947-0884
Tdt Hauling And Leasing,2096 County Hwy 824,Sikeston,MO,63801,573-703-4665
Spirit Miller Canada Ulc,4617 Frederick Ave,St Joseph,MO,64506,816-364-2353
C & C Trucking,720 Sw Lemons Lane,Lees Summit,MO,64082,816-500-6236
Hard Times Trucking,106 E Hayden St,Winona,MO,65588,417-331-4858
Kellie Transport,15404 Industrial Drive,Independence,MO,64058,816-257-1190
T And C Cattle Company,28081 Highway Y,Brunswick,MO,65236,660-548-3377
Sorrell Trucking - Pressure Washing,2914 E Jamestown,Republic,MO,65738,417-894-2491
Ray Hoelscher Hauling And Grading,11 Stone Fields Court,Wentzville,MO,63385,314-220-0806
Cerservices Com,4514 B W Broadway,Columbia,MO,65203,573-446-3303
Iron Horse Trucking,1120 Old Cape Road,Jackson,MO,63755,573-579-1565
Midwest Auto Transport,1877 Osage Drive,Rolla,MO,65401,573-368-3978
Clear Sky Trucking,Rt 4 Box 132,Grant City,MO,64456,660-564-2322
Blacks Trucking,84 Pink Home Rd,Troy,MO,63379,636-465-2606
Dustin Hensley Trucking And Excavating,1259 S Palomino Rd,Carthage,MO,64836,417-793-0803
Mk Express,5004 Nw 62nd St,Kansas City,MO,64151,816-587-4653
Slaights Trucking,583 Se 10th Ln,Lamar,MO,64759,417-214-3726
Adams Trucking,2427 Lake View Street,St Joseph,MO,64504,816-244-0580
Billy Kiser Trucking,3462 North Lone Elm Ave,Joplin,MO,64801,417-206-2257
Quality Truck Sales,2715 N Eastgate Ave,Springfield,MO,65803,417-863-7778
Taney County Damages Freight & Grocery Outlet,184 Industrial Park,Hollister,MO,65672,417-335-4056
Kings Hauling,5022 Lotus,St Louis,MO,63113,314-220-7709
Jrz Trucking,7808 Pleasant Valley Rd,Liberty,MO,64068,816-781-8212
William Parker Trucking,206 Cherry,Lamar,MO,64759,417-682-2534
Double D Trucking,311 Eckler School Road,Wellsville,MO,63384,573-492-6004
Rodgers Rapid Freight,316 W Lakeview,Desoto,MO,63020,636-586-7755
J Goode Environmental Services,416 S 3rd,Cleveland,MO,64734,816-618-3030
Pacific Transport,827 E 420th Rd,Bolivar,MO,65613,417-353-8102
Sawyer Trucking,402 Park St,Galt,MO,64641,660-673-6855
Shobe Farms & Trucking,761 Nw M Highway,Centerview,MO,64019,816-345-5000
Ackland Hauling,606 Crestview,Cuba,MO,65453,573-205-1870
Rjf Trucking,1436 Luce St,Cape Girardeau,MO,63701,573-332-1821
Galaxie Express,4657 Private Road 5123,Willow Springs,MO,65793,417-252-1639
R&r Service,913 County Road 468,Jackson,MO,63755,573-275-1525
Quality Tow,1005 Oakland,Harrisonville,MO,64701,816-380-7267
Fishers Of Men,Rt 2 Box 2345a,Ellsinore,MO,63937,573-322-0177
B & E Trucking,258 Cornflower Dr,Crane,MO,65633,417-723-5563
Djd Trucking,8147 Us Hwy 60,Mountain View,MO,65548,417-934-2978
Thompson Trucking Co,23624 Hwy B,Sedalia,MO,65301,816-726-3300
New Heights Tree Specialists,24100 E Strode Rd,Blue Springs,MO,64015,816-365-0188
Cummins Transporting,320 Old Motel Rd,Rosebud,MO,63091,417-818-6875
Dave Nixon Hauling & Bobcat,31 Chapman Farm Dr,Winfield,MO,63389,636-462-3187
R J Y Ag Transportation,620 Joe Jones Blvd,West Plains,MO,65775,870-421-0529
Roadrunner Logistics,6808 N 26th,Ozark,MO,65721,417-872-9821
Jts,519 S Quincy Ave,Kansas City,MO,64124,816-560-6012
Cd Distributing LLC,804 South 23rd,St Joseph,MO,64507,816-689-5347
Sparrow Trucking,7507 E 109th Terrace,Kansas City,MO,64134,816-308-0301
Dts Freight Movers,4610 E 7th St,Kansas City,MO,64052,816-588-7033
K And T Transport,400 Maple St,Laddonia,MO,63352,573-373-2037
Twin City Auto Sales,1269 East Maple St,Scott City,MO,63780,573-264-4698
Matt Russell Trucking,Cr 580,Winona,MO,65588,417-274-0321
Dadndaughter Trucking,3195 T Hwy,Poplar Bluff,MO,63901,573-421-6132
Kjb Trucking,47632 Highway Aa,Hardin,MO,64035,660-484-3891
Wayne County Transportation,Rt 4 Box 4256,Piedmont,MO,63957,573-856-4261
Williams Transport,1108 Fox Run Trail,Platte City,MO,64079,816-213-7813
M T Ranch Trucking,2904 Quail Spur Rd,Crane,MO,65633,417-369-6157
Ox Family Trucking,500 E Durham Ct,Strafford,MO,65757,417-839-7847
R&r Transport,614 Wabash,Kansas City,MO,64120,816-241-3087
Jim Floyd Trucking,10429 Gardo Ct,St Louis,MO,63137,314-393-9104
J And K Egly Express,310 Dunkin St,Mountain View,MO,65548,417-934-9878
Steves Transporting,3396 Hummingbird Rd,Ozark,MO,65721,417-693-0562
Collins Trucking,305 N Myrtle,Pierce City,MO,65723,417-669-7106
Sapaugh Trucking,97 County Rd 6170,Salem,MO,65560,573-201-4966
Cb Williams Trucking Service,2836 Adie Road,Saint Ann,MO,63074,314-427-8234
Machens Hauling,6146 Powers Rd,Portage Des Sioux,MO,63373,636-899-1156
Larkham Express,30315 Elder Rd,Wentworth,MO,64873,417-548-7372
T & T Trucking,8371 County Rd 59,Savannah,MO,64485,712-574-4013
Vitknas Express,4382 Private Rd 5201,Willow Springs,MO,65793,417-469-3287
Glen's Propane Horizon Energy Transport Red Top Gas-licking Lindsey Propane Tri County Gas Smith Gas Welch Gas Co,121 A West Commercial Street,Lebanon,MO,65536,417-533-3003
Ron Leeper Trucking,410 S Main Apt B,Brookfield,MO,64628,660-734-8980
Blackwell Trucking,203 N Whithers Rd Apt G,Liberty,MO,64068,816-352-6627
1 Source Excavating & Hauling,1671 Pcr 210,Perryville,MO,63775,573-547-2524
K D M Trucking,205 W Taylor,New Hampton,MO,64471,816-646-3489
Rhoads Trucking,1360 Ne Hwy Ww,Windsor,MO,65360,660-647-2879
A & H Trucking,4490 Jarvis,Hillsboro,MO,63050,636-208-4919
Nca Transport,300 Corporate Place Suite J,Branson,MO,65616,479-286-1167
Hk Enterprises,10169 Cardinal Country,Dittmer,MO,63023,636-226-5065
Noble Trucking,25234 Icon Drive,Brookfield,MO,64628,660-258-3089
All Point Trucking,104 East 5th St Suite 202,Kansas City,MO,64106,816-221-2333
Rtjr Auto Transport,804 S Market,Holden,MO,64040,816-850-7899
Am Express,1484 S Service Rd,Wentzville,MO,63385,314-280-6008
Round Trip Trucking,12648 Wildlife Rd,Neosho,MO,64850,417-455-0456
Wiggins Cage Service,905 South Cavalier Dr,Springfield,MO,65802,417-883-1157
Joe Barker,901 E Highland,Nevada,MO,64772,417-667-6503
Moon Transport,507 Sunshine St,Mountain Grove,MO,65711,417-926-4389
West Coast Moving And Delivery,1436 East Crestview Street,Springfield,MO,65804,417-496-2441
Cm Hauling,24164 Buckskin Lane,Lincoln,MO,65338,660-668-9957
Himes Trucking,6576 Lawrence 2170,Pierce City,MO,65723,417-669-3383
Butler Tow,209 North Orange,Butler,MO,64730,660-679-0037
Thunder Horse Express,8743 Mackenzie Rd,St Louis,MO,63123,636-373-0478
Circle V Express,4655 Journey Lane,Reeds,MO,64859,417-629-8008
Big Red Transportation,12 Belleau Ct,O Fallon,MO,63366,314-372-5023
Creason Trucking,6870 Pine Log Rd,Rocky Comfort,MO,64861,417-435-2480
Linac Logistics,1119 Independance Street,Kennett,MO,63857,573-559-8219
Five Star Services,8078 State Hwy 14 W,Billings,MO,65610,417-583-2623
Southeast Auto Repair,17627 S 1700 Rd,Nevada,MO,64772,417-667-5113
Jeffrey G Goben Trucking,422 E 44nd St,Joplin,MO,64804,417-438-6324
Henson Trucking,1115 Belle Air Place,Carthage,MO,64836,417-359-5649
Hastings Trucking,507 E Hwy 162,Clarkton,MO,63837,573-448-5411
Baker & Sons Trucking,3 Se Hillcrest Dr,St Joseph,MO,64507,816-853-9810
Jim Hayes Trucking,30255 Hwy M,Edwards,MO,65326,660-438-2155
Shuyler Transport,339 S Indiana,Kansas City Mo,MO,64124,816-838-1491
Kdk Trucking,939 Redbud,Warsaw,MO,65355,660-221-5751
S & S Tow Service,215 Nw 113th Street,Kansas City,MO,64155,816-734-7700
Broke Down Lineman Trucking,Hc 62 Box 80,Sedgewickville,MO,63781,573-866-3870
Cca Auto Sales LLC,2015 Television Pl,Kansas City,MO,64126,816-833-7244
R & M Trucking,4804 Newport Lane,Diamond,MO,64840,417-437-2270
Mr Dees Trucking Company,1208 Warren Street,Charleston,MO,63834,573-777-2636
Mutt Auto Transporting,3746 Canaan,Bland,MO,65014,314-779-4020
Ron Whitten Trucking,Rr 1 Box 9,Hume,MO,64752,660-643-7143
Junkie's Truck & Tire Service,207 South Mill Street,Festus,MO,63028,636-797-4500
T Burks Western Hay Express,2135 Hedgpeth Road,Rogersville,MO,65742,417-753-7803
Dynamic Tow & Auto Repair,9816 Newton Ave,Kansas City,MO,64134,816-474-3459
Gotta Go Trucking,18324 E 24th Hwy Circle,Independence,MO,64029,816-401-8565
Powell Farms,33905 E 315th St,Garden City,MO,64747,816-738-4869
Cheyenne Transport,11150 State Route E Se,Agency,MO,64401,816-344-4466
Lonnies Transportation,212 W 2nd St,Wellington,MO,64097,816-934-2599
Db Leasing Co,5312 Valley View Drive,Bloomsdale,MO,63627,573-483-9798
Crec Trucking,18942 Business Hwy 13 Ste F323,Branson West,MO,65737,417-230-0477
Vision Quest Transportation,12 Tower Lane Dr,Bloomsdale,MO,63627,573-880-2473
Logan Trucking,Rt 3 Box 115,Ava,MO,65608,417-543-2957
Phase One,2121 Territory Ct Apt 23,St Louis,MO,63136,314-477-0885
Osborn Automotive,10440 Se Baker Road,Osborn,MO,64474,816-675-2276
Dba Show-me Guttering,2824 N Union School Rd,Independence,MO,64058,816-796-8419
After Hours Produce,2331 Business 65,Hollister,MO,65672,417-214-4537
Aldina Cagle,107 Washington St.,Doniphan,MO,63935,573-351-1039
R&j Trucking,1707 South Morley,Moberly,MO,65270,660-263-1222
Junkies Truck & Tire Service,207 South Mill Street,Festus,MO,63019,636-797-4500
Phoenix Medical Waste,4720 Tiemann Ave,Affton,MO,63123,314-565-8997
Hunter Auto Sales,301 South First Street,Edina,MO,63537,660-397-3346
Chavez Family Trucking,421 N 8th St,Hannibal,MO,63401,N/A
Ldm Freight Lines,9204 Big River Dr,Lake Saint Louis,MO,63367,314-359-3550
Bootheel Haulers,107 East 8th St,Portageville,MO,63873,573-379-6265
Hoener Trucking,17180 County Road 1170,St James,MO,65559,573-263-1173
Missouri Expedite Services,288 Woodlane Dr,Bonne Terre,MO,63628,573-760-2595
Bkg Distributing,3316 S Cochise Ave,Independence,MO,64057,816-795-9272
B&l Trucking,33 Richardet St,Perryville,MO,63775,573-517-0604
Go Delivery,6703 N Campbell,Gladstone,MO,64118,816-305-4450
Dsl Distributing LLC,201 Ne 101st Place,Kansas City,MO,64155,816-332-2732
Jms Trucking,905 Wendy Ln,Carthage,MO,64836,417-359-5424
Hummingbird Express,29731 Private Dr 6231,Edgar Springs,MO,65462,573-435-6232
Kirksville Recycling Auto Parts And Salvage,22949 Potter Trial,Kirksville,MO,63501,660-627-7403
Jamz Trucking,219 N Mill,Dover,MO,64022,816-808-3772
Orvis Trucking,10018 Bunker Hill Dr Apt E,St Louis,MO,63123,636-579-1490
Tesson Transport,11117 Marley Dr,St Louis,MO,63123,314-729-1014
Wits,647 E Holly,St Louis,MO,63147,314-382-1650
Dr G's Trucking,10935 Brookling,St Louis,MO,63123,314-623-4497
Miller Feed Service,4428 Highway Ff,Halfway,MO,65663,417-445-2388
Xtreme Movers,1422 Southwest Eagles Pkwy,Grain Valley,MO,64029,816-847-7900
Marx Hauling,2700 Ridge Drive,High Ridge,MO,63049,636-376-0569
Pine Valley Auto Sales,Rt 3 Box 86,Edina,MO,63537,660-397-3675
Express Medical Transporters,2026 Trade Center Drive,St Peters,MO,63376,636-240-4410
Rockstar Transportation,532 Pacific Estates Dr,Pacific,MO,63069,314-852-7772
R And A Delivery,1615 North 36th St Apt 2,St Joseph,MO,64506,816-783-0017
Res Truck Repair,11553 County Road 200,Webb City,MO,64870,417-673-5812
Ee & A Trucking,13765 Saint Charles Rock Road Suite 108,Bridgeton,MO,63044,314-291-6900
Lts America,328 S Adams Court,Raymore,MO,64083,816-564-8462
Corey Loomis Hauling,35 Cotton Ridge Place,Sikeston,MO,63801,573-427-0348
Mule Trucking,Hc 68 Box 106,Caulfield,MO,65626,417-284-1507
Underdal Transport,2501 W Aldrich Rd,Bolivar,MO,65613,417-777-6202
A & R Tire Service,10020 King Rail Rd,Mineral Point,MO,63660,573-315-9354
Hammer Distributing,5742 Highway C,Joplin,MO,64804,417-206-3495
Premier Express,7349 West Summit,Republic,MO,65738,417-833-1504
Rhoden & Son Trucking,109 Branum St,Sikeston,MO,63801,573-472-4749
Er Services,1135 Lakeview,St Louis,MO,63138,314-422-1915
Ram Transportation,1044 King Arthurs Ct,French Village,MO,63036,636-373-2419
Alton Sewer Service,17000 East Truman Road,Independence,MO,64056,816-795-8900
Lamart Transport,8617 E 96th Terr,Kansas City,MO,64134,816-462-5687
Gurman Trucking,25815 North East 140th Street,Excelsior Springs,MO,64024,816-809-0299
Just A Farm Trucking,Hc 73 Box 450,Drury,MO,65638,417-261-1032
R2o Trucking LLC,8001 Prospect Ave,Kansas City,MO,64132,816-935-0054
Roe Distribution,6531 N W Melody Ct,Parkville,MO,64152,816-505-2761
Old School Trucking,81 Woodlake Lane,Troy,MO,63379,636-462-2370
Tk Transportation,Hc 67 Box 1,Fremont,MO,63941,573-996-6348
Nightline Trucking,11800 East 77th Terrace,Raytown,MO,64138,816-914-7866
D & R Trucking,195 Brackleigh Lane,Florissant,MO,63031,314-369-6387
Am Tow Truck Service,8612 Nw 81st Terr,Kc,MO,64152,816-853-8627
Greenlife Turf,1102 E 19th St,Lamar,MO,64759,417-214-0891
Mountain Movers,4001 E 123rd Terrace,Grandview,MO,64030,913-544-5647
Nelson Trucking,20801 Reporter Rd,Waynesville,MO,65583,573-774-3131
Benny Seiler Farm,975 County Road 427,Oak Ridge,MO,63769,573-266-3575
Baker Trucking,1093 High Street,Iberia,MO,65486,573-280-6782
Diamond P Trucking,522 Nw 521st Road,Warrensburg,MO,64093,660-429-6116
Burkhart Trucking,21322 Gateway Drive,Goodman,MO,64843,417-592-6024
Carrier,10044 Bunker Hill Dr,St Louis,MO,63123,314-229-2398
Express Medical Transporters,12203 East 43rd Street South,Independence,MO,64055,816-737-8500
Hbic Trucking,3303 Kmj Road,Columbia,MO,65202,573-445-7151
Justin Wayman,1350 N.lightburne,Liberty,MO,64068,816-288-6240
Fox Services,12804 Meadowdale,Saint,MO,63138,314-497-6243
Fairground Chevrolet Cadillac Buick Gmc,100 Fairgrounds Rd,Rolla,MO,65401,573-364-1002
Living The Dream Distributing LLC,7 Ne 80th Street,Kansas City,MO,64118,816-820-5474
Ag Cats Transport,256 N Jason,Nevada,MO,64772,816-365-6198
Stone Trucking LLC,12430 Pizarro Drive,St Louis,MO,63138,314-814-6480
Belcher Trucking,462 W Dade 192,Lockwood,MO,65682,417-232-4047
Ssi Trucking,3532 Ketha Heights,Festus,MO,63028,636-933-4014
Ozark Wood Haulers,228 County Road 144,Annapolis,MO,63620,573-598-1148
K B Transportation,4526 Cr 4220,West Plains,MO,65775,417-256-4859
Rock Solid Tours,2238 Texas Ave,Joplin,MO,64804,417-438-2484
Summers Transport,3527 Co Hwy 246,Malden,MO,63863,573-276-7723
Froesel Tire,9273 Manchester,St Louis,MO,63144,314-962-2422
Gillingham Trucking,3044 W Lynn St,Springfield,MO,65802,417-862-0397
Kirkwood&steele Express Trucking,1451 Mullanphy,St Louis,MO,63106,314-621-2622
Troja Horse Transport,1111 Cr 1290,Willow Springs,MO,65793,417-469-5614
S&l Trucking,12910 John Emling Road,Bismarck,MO,63624,314-620-0006
West Chestnut Trucking Co,1805 Nw Bypass,Springfield,MO,65803,417-869-2888
K Transfer,24600 E State Rt 58,Pleasant Hill,MO,64080,816-520-2187
Clyde Beavers Trucking,885 Hall Road,Macomb,MO,65702,417-464-1073
J & G Enterprise,13624 Industry Rd,Lebanon,MO,65536,417-588-9604
H & H Auto & Truck,590 Nw Aa Hwy,Kingsville,MO,64061,816-525-6292
R&s Delivery Service,Hc 2 Box 22050,Annapolis,MO,63620,573-598-4337
Buckner Trucking,19293 Hwy V V,Licking,MO,65542,573-674-4105
Siege Transport,735 S Meteor,Springfield,MO,65802,417-496-1733
Victor Cannon Trucking,112 Heritage Rd,Elkland,MO,65644,417-733-2423
F G N Transport,3020 S Sagamont Ave,Springfield,MO,65807,417-849-9307
Vogel Farms,718 State Route C,La Grange,MO,63448,573-655-0056
Heartland Auto Carriers,18780 Lober Road,Weston,MO,64098,816-213-4690
Rollin Hard Trucking,4720 S Rangeline Rd #4,Joplin,MO,64804,417-825-0218
A R Trucking,39 Candy Lane,Urbana,MO,65767,360-359-8150
Ctd Transport,Hcr 68 Box 84,Caulfield,MO,65626,417-255-3236
Moore Transport,Rr 1 Box 1515,Patton,MO,63662,573-866-2153
Milestone Trucking,1302 N Clark,Mexico,MO,65265,573-581-3080
Maja Transport,4802 S 131st Road,Bolivar,MO,65613,417-777-2870
Machinerylink Transport,1600 Genessee Ste 700,Kansas City,MO,64102,866-459-0579
Anderson Freight,2760 Frederitzi Lane,Arnold,MO,63010,314-660-2196
Metcalf Trucking,210 S Main,Jasper,MO,64755,417-394-2831
A & M Truck And Equipment,7600 North Church Road,Kansas City,MO,64158,816-407-9100
Smk Trucking,104 Geneve Ave,Oran,MO,63771,573-262-3102
H & S Trucking,378 Route Ff,Everton,MO,65646,417-751-3147
Boehs Trucking,18981 E 54 Hwy,Nevada,MO,64772,417-684-0419
Cfh Transport,1423 W Commercial,Buffalo,MO,65622,816-210-5228
L & S Trucking,Rt 1 Box 1798-a,Doniphan,MO,63935,573-354-2697
Deluxe Carpet Cleaning,5907 Highgrove Rd,Grandview,MO,64030,816-763-3331
Ironhorse Trucking,17407 Jacjackson Road,Boonville,MO,65233,660-882-7207
Gregs Auto Sales,632 East Broadway,Sedalia,MO,65301,660-827-2332
Randy Small Transportation,2324 Main,Lexington,MO,64067,660-259-3836
Kilgore Enterprises,Route 2 Box 653-b,Ava,MO,65608,417-683-3003
Cantrell Trucking,122 E Anderson,Seymour,MO,65746,417-839-7970
Affordable Mobile Home Movers,4003 Cr 1245,Moberly,MO,65270,660-833-6773
Don Young Dumptruck,Hc1 Box 718,Fairdealing,MO,63939,573-857-2899
Mike Morris Dump Trucking,1094 Hwy U,St James,MO,65559,573-699-4206
El Brake Trucking,4641 S Wall,Birch Tree,MO,65438,N/A
Warner Trucking,22245 State Hwy E,Bloomfield,MO,63825,573-421-2854
Wildfire Express,191 Lindamood Dr,Craig,MO,64437,660-442-3733
Crume Trucking,415 Wolfe Road,Aurora,MO,65605,417-818-9002
I & B Trucking,4205 East 20th Terrace,Kansas City,MO,64127,816-241-2850
Mcglawn Trucking,21525 Tidal St,Devils Elbow,MO,65457,618-567-8759
Rapid Transport,901 College Street,Canton,MO,63435,573-288-5680
S & J Hauling,21164 Oak Rd,Granby,MO,64844,417-638-5390
Arrington Ag Service,1872 Hwy Ee,Neelyville,MO,63954,573-989-3400
R & S Trucking,1801 Treasure Drive,Kennett,MO,63857,573-717-0495
Droege Food Service,85 Cecelia Drive,Washington,MO,63090,636-239-2714
Bulldog Trucking,14511 Highway E,Eldridge,MO,65463,573-216-5850
Sexton Trucking,1841 State Hwy O,Seymour,MO,65746,417-425-8491
Roger Werneke Trucking,514 Ne 23 Hwy,Knob Noster,MO,65336,660-233-2012
William Hardy Trucking,1023 Madison 235,Marquand,MO,63655,573-783-2483
Owen Trucking,12255 Mulberry Rd,Neosho,MO,64850,417-456-2543
Joe Tom's Custom Building Services,2021 Nw 50th Street,Northmoor,MO,64151,816-741-3903
Ttfb Transportation,5127 Abington Rd,Florissant,MO,63033,314-423-6111
Extreme Tow,10703 Nw 59th Street,Kansas City,MO,64152,816-587-1252
R & L Trucking,2132 W Hwy 72,Fredericktown,MO,63645,573-934-6614
Triple E Trucking,9280 Hwy B,Friedheim,MO,63747,573-837-3454
Morehead Transportation,4441 Hwy Dd,Seneca,MO,64865,417-776-2953
Bootheel Haulers,61 Kyle Dr,Portageville,MO,63873,573-379-5810
Poindexter Transport,521 West Hudson,Wellsville,MO,63384,573-684-6162
Go Daddy Go,4110 W Colby,Springfield,MO,65802,417-866-6431
Stafford Trucking,14705 Half Moon Drive,Cole Camp,MO,65325,660-668-9913
Ryan Dover Trucking,1818 Jefferson St,Unionville,MO,63565,660-216-1671
F&j Transport,2266 S Hilton Ave,Springfield,MO,65807,417-881-5360
Jett Trucking,7060 County Road 8240,West Plains,MO,65775,417-255-0550
Km Karriers,3343 S Farm Rd 97,Republic,MO,65738,417-631-6450
Tackett's Trucking,1047 Burrcross Rd,Neosho,MO,64850,417-389-5856
Anbat Trucking,108 N Austin St,Oak Grove,MO,64075,816-877-5630
D T Trucking,32246 Barclay Loop,Warsaw,MO,65355,660-473-3070
Rapens Transportation,11731 S Hwy 19,Salem,MO,65560,573-729-2107
Brian's Trucking,1202 Atchley Drive,Troy,MO,63379,636-734-5651
J & E Transport,6352 Rainbow Ridge,Washington,MO,63090,636-239-5363
American Sunshine Express,1095 S Vansant,Clinton,MO,64735,660-477-0127
Chris Lewis Trucking,2222 N Campbell Ave,Springfield,MO,65803,417-868-8675
Double I Express,25475 Hwy 127,La Monte,MO,65337,660-347-5954
8168851803,12307 E 48th St S,Independence,MO,64055,816-885-1803
Warjan Trucking,1873 Lawrence 2120,Sarcoxie,MO,64862,417-437-2598
J Dale Trucking,601 Madison St,St Joseph,MO,64029,816-233-0016
Aardvark Moving Co,1901 Sw 40 Hwy Ste D,Blue Springs,MO,64015,816-228-6683
Wilkerson Trucking,201 Mill Street,Auxvasse,MO,65231,573-386-5662
Vanbarrett Transportation,279 Keystone Drive,Fenton,MO,63026,636-305-1023
Hat Transport,700 B South Pine St,Dixon,MO,65459,765-418-5277
James S Smith Trucking,213 South Main St,Rock Port,MO,64482,660-744-2575
Boothe Distributing,334 S Washington,Neosho,MO,64850,417-455-0038
Tu Auto Transport,8015 Tennessee Ave,Raytown,MO,64138,816-215-0601
J & L Professional Freight Trucking,238 Se 101 Rd Box 703,Warrensburg,MO,64093,660-747-9002
R & J Trucking,380 Sunfield Pl,Ballwin,MO,63011,314-680-1894
J&t Distributing,209 South Westwood,Poplar Bluff,MO,63901,573-785-8204
Sb Trucking LLC,13086 Oak Leaf Dr,Versailles,MO,65084,573-378-4515
B-cool Transportation,820 W Maple,Nevada,MO,64772,417-684-7662
Chapman Services,142 South Cypress,Kansas City,MO,64123,913-636-6300
Weaver Backhoe Service,11264 Plum Drive,Grovespring,MO,65662,417-589-4349
Randy Knoles And Sons Trucking,1175 Nw 501 Road,Chilhowee,MO,64733,660-678-0109
Tcs Enterprises,15801 E 35th St,Independence,MO,64055,816-350-3460
John Bennett Hauling & Backhoe Service,4205 Cr 6540,West Plains,MO,65775,417-274-1685
Elp Trucking,16603 Legion Hall Rd,Marthasville,MO,63357,636-242-2044
Big Iron Trucking,4048 County Rd 7640,West Plains,MO,65775,417-284-1969
Crutchfield Limo Service,33 Hwy 158,Poplar Bluff,MO,63901,573-785-5573
Houston Express,110 Brianna Dr,Seymour,MO,65746,417-935-4998
Jw Key Express,21162 Williams Landing,Kennett,MO,63857,573-888-8817
Mike Kempker Trucking,9701 Old Highway 54,Eugene,MO,65032,573-498-0169
T & S Trucking,7174 Old Hwy 60,Mountain Grove,MO,65711,417-349-0838
Mullins Trucking,Rt 1 Box 1,Doniphan,MO,63935,573-996-6317
Kyle Stutzman Trucking,28517 South State Route Z,Garden City,MO,64747,816-862-8513
Show Me Trucking,2368 Hempline Ct,St Louis,MO,63129,314-293-2431
Bh&t Transport,467 Cr 267,Neelyville,MO,63954,573-989-4061
Doggon Trucking,5213 Shaw,St Louis,MO,63110,314-650-3699
B & R Trucking,405 N Main,Lamonte,MO,65337,816-651-4555
Jw Simpson Trucking,123 Co Hwy 316,Scott City,MO,63780,573-264-3419
Willis Trucking,4067 Hwy Ff,Fisk,MO,63940,573-967-3324
Burkemper Hauling LLC,4203 N Hwy 79,Elsberry,MO,63343,573-898-2665
"Bemes, Inc.",800 Sun Park Drive,Fenton,MO,63026,636-349-3377
Mccolm Trucking,8842 N Charlotte,Kansas City,MO,64155,816-436-6769
Vice's Trucking,22304 Ponderosa Trail,Unionville,MO,63565,660-342-3380
Murray Trucking,3670 Hwy O,Farmington,MO,63640,573-431-7737
Service Master Disaster Relief,1206 Valley Ridge Dr,Grain Valley,MO,64029,816-229-1012
Logan Daniels Trucking,Rt 1 Box 70,Queen City,MO,63561,660-216-9061
Commodities Trucking,7530 N Wayne Ave,Gladstone,MO,64118,816-468-1266
Miller Farms,919 Curran Ave,Kirkwood,MO,63122,314-821-1215
Us Assembly Company,1166 Saint Theresa Lane,O Fallon,MO,63368,636-978-1262
Johnson Trucking,4340 Howie Lane,Seneca,MO,64865,417-626-8471
T & M Auto Transport,1803 W Farm Rd 102,Springfield,MO,65803,417-833-6929
M Sanders Transportation,341 County Rd 218,Glasgow,MO,65254,660-338-5098
Neal Brownell Trucking,15404 Industrial Drive,Independence,MO,64058,816-454-8804
T & E Trucking,726 N Houston,Adrian,MO,64720,816-297-2938
R & J Trucking,622 Joy Street,Neosho,MO,64850,417-455-2215
Rockin O' Cattle And Hay,9368 Barton County Blvd,Jasper,MO,64755,417-394-2808
S Thompson Moving,515 W Market Stret,Dexter,MO,63841,573-614-7703
R Douglas Bonnett,14403 Liv 210,Chula,MO,64635,660-247-1630
Schnitker Trucking,282 S 3rd Street,Union Star,MO,64494,816-593-2539
Nooter Construction Co Thermal Spray Services,1500 South Second St,St Louis,MO,63104,314-421-7353
Pery Auto Sales,116 North Walnut,Steele,MO,63877,573-695-2914
Fleshman Farms,52762 Hwy 5,Milan,MO,63556,660-265-4286
This And That Services,1001 N Darrell St,Mountain Grove,MO,65711,417-926-6031
Spartan Hauling,1325 W Sunshine Ste 552,Springfield,MO,65807,417-883-7068
Owsley Trucking,2436 S Clay,Springfield,MO,65807,417-883-7068
Buccaneer Transport Services,3704 Talking Rocks Road,Reeds Springs,MO,65737,417-338-6900
Ozark Valley Ranch Trucking LLC,Route 2 Box 220,Mountain Grove,MO,65711,417-948-2468
Marvel Transport,22837 Myers Rd,Lawson,MO,64062,816-580-0038
Robert Gier Transporting,30861 Bent Tree Drive,Warsaw,MO,65355,660-890-4975
Ramsey Hauling,5599 Se Chiefs Rd,Cowgill,MO,64637,660-645-4101
One Moore Trucking,1510 Waldren,Camdenton,MO,65020,573-692-6351
Night Line Trucking And Repair,1252 Nw 355th Rd,Holden,MO,64040,816-353-7300
Hooper Trucking,403 Anita Drive,Carl Junction,MO,64834,417-437-5205
Auto Go Transport,303 Kelsha St,Rogersville,MO,65742,417-753-9047
Cjf Express Delivery,322 Villa Drive,Lake St Louis,MO,63367,636-627-9492
Gannaway Trucking,2237 East 515th Road,Halfway,MO,65663,417-267-2030
Escape Transportation,26101 East Outer Belt Road,Greenwood,MO,64034,816-382-3030
Smilodon Trucking,922 Chestnut Ln,Union,MO,63084,314-520-1986
Collier's Logistics,15 Ann Drive,St Peters,MO,63376,636-387-8339
Campbell Trucking,16511 Rudd Rd,Lawson,MO,64062,816-296-3496
G & M Hauling,1564 State Road Y,Linn Creek,MO,65052,573-692-0353
Morrison Trucking,92 Atlas Ave,Camdenton,MO,65020,573-346-3450
Metro Express,8 Westbury Drive Ste 100,St Charles,MO,63301,636-925-1653
Ld Trucking,6715 Stoney Point,Grain Valley,MO,64029,816-803-7550
Express Transportation Services,13788 Lakefront Drive,Earth City,MO,63045,314-291-6363
Us Motors,43 S Elam Ave,Valley Park,MO,63088,636-293-1033
C A R S,1707 West Outer Road,Moberly,MO,65270,660-269-8083
Four State Services,27685 Lb Corn Rd,Seligman,MO,65745,417-662-0007
U & Me Deliveries,7908 E 48 Ter,Kansas City,MO,64129,816-924-4320
Tommy Bates Trucking,32724 Cr 151,Norborne,MO,64668,660-593-3592
T & K Farms,422 East Prospect Lot 83,Aurora,MO,65605,417-229-2180
Purrfect Timing Transport,479 W Aldergate,Nixa,MO,65714,508-951-3465
Nelson's Transport,9345 S 151 Road,El Dorado Springs,MO,64744,417-296-3346
Sky Ridge Acres,Rr 2 Box 2475,Birch Tree,MO,65438,573-292-3020
Nichols Trucking,Rt 1 Box 108,Knox City,MO,63446,660-434-5380
We Deliver Quality,4106 Nw Riverside St,Riverside,MO,64150,816-461-4040
Tl Auto Transport,2917 Scarsdale Manor Circle,St Charles,MO,63303,636-724-1636
Winners Circle Trucking,210 E 4th St,Eldon,MO,65026,576-746-6070
Killian Auto Sales & Repair,20 Lake Hill Drive,St Peters,MO,63376,636-928-9428
Stable Boys Hay And Straw Farms,45 County Rd 706,Matthews,MO,63867,573-472-4335
Casper Transportation,5112 State Highway Nn,Seymour,MO,65746,417-224-2045
Hrwf Trucking,1020 Yates Main St,Higbee,MO,65257,660-833-5072
Circle T Trucking,35807 Highway M,Mora,MO,65345,660-596-1598
"Semo Ready Mix, Inc.",403 Rambler Dr,Cape Girardeau,MO,63702,573-334-0004
Cheap Movers & Delivery Services,320 Brookes Ste 205,Hazelwood,MO,63042,314-731-3004
Ltl Trucking,10900 Hwy Ww,Columbia,MO,65201,660-909-3732
Drive-line Transportation,6674 Fawn Creek Rd,Odessa,MO,64076,816-633-1605
Jdf Transport,2382 Madison 505,Fredericktown,MO,63645,573-783-4523
Tcl,8605 Gravois Rd,St Louis,MO,63123,314-477-6629
Jh3 Corporation,2445 Goldenrod Road,Ozark,MO,65721,417-297-0027
Nei Industrial Services,8125 E 26th Street,Joplin,MO,64804,417-782-9901
Kasinger Transport,1901 Co Hwy 245,Malden,MO,63863,573-276-7499
Larry Arnold Trucking,17249 Hwy E,Eldridge,MO,65463,417-718-7271
Eastland Tow,1425 Nw 460th Road,Holden,MO,64040,816-697-1955
Echo-l Trucking,4651 State Road Hh,Fulton,MO,65251,573-219-1883
Best Moves Of Columbia,504 Fay St,Columbia,MO,65201,573-874-3330
D & J Farms,420 E South St,Mansfield,MO,65704,417-543-3918
C & E Express,20884 Pike 468,Curryville,MO,63339,573-470-2431
P & P Express,4707 County Rd 172,Rosendale,MO,64483,816-244-2030
Nichols Trucking,903 W Arch,Nevada,MO,64772,417-667-6360
J Grant Trucking,607 Robin Lane,Mountain Grove,MO,65711,417-543-5362
Roger Neal Trucking,421 Hunt Street,Brookfield,MO,64628,660-258-4241
Dw Distributing,304 Mark Street,Hamilton,MO,64644,816-583-7918
Lx Express,917 Hickory,St Louis,MO,63104,314-255-8582
Two Mens Trucking,278 South Hey 37,Monett,MO,65708,417-425-6011
Defreece & Son's Trucking,38386 290th Street,Ravenwood,MO,64479,660-937-2802
Rojae Farms,Rt 3 Box 3541-1,Alton,MO,65606,417-778-1570
Move All Relocation & Logistics,8620 E 29th Terrace,Kansas City,MO,64129,816-461-7356
Tradewinds Express Co,915 N Madison Ave,Republic,MO,65738,417-861-2891
Knight'z Exprezz LLC,1593 E 450th Rd,Bolivar,MO,65613,417-326-6407
Wicker Auto Sales,Route 1 Box 1143,Myrtle,MO,65778,417-264-7110
Jiffy Mobile Home Repair,6201 Carnegie St,St Joseph,MO,64504,816-238-9501
Burr-head Hauling,2439 East Highway 47,Winfield,MO,63389,636-566-6627
Chris Meyer Trucking,37 Perry Rd,Wellsville,MO,63384,573-684-2484
Hughs Transport,815 Nw 30th St,Trenton,MO,64683,660-789-2308
Nathan Alpers Trucking,8243 Hazel Dell School Rd,Prairie Home,MO,65068,660-841-5095
Hundley Family,1808 State Route J,Fayette,MO,65248,660-248-3570
James Trucking,1404 South Prospect,Sedalia,MO,65301,660-829-1076
Rubios Mobile Home Moving,1265 State Route Cc,West Plains,MO,65775,417-257-0889
Fortuna Express LLC,3620 Diamond Head Dr,St Louis,MO,63125,314-359-5960
Combs Livestock Hauling,Rt 1 Box 278 A,Myrtle,MO,65778,417-331-2063
Twkx,515 N Elm Ave,Clever,MO,65631,417-583-2107
Food Distribution Two Nations,18 North Frederick St,Cape Girardeau,MO,63701,573-651-3277
B & B Transportation,30552 Us 71 Hwy,Maryville,MO,64468,816-617-2780
Haw Trucking,15790 Hwy N,Licking,MO,65542,573-578-5769
Abby Auto Carriers,2 Rheims Court,Lake St Louis,MO,63367,636-625-2454
Nu Way Truck Driver Training Centers,4116 North Union Boulevard,St Louis,MO,63115,314-261-0100
Smith Farm,920 Ne 175 Rd,Osceola,MO,64776,417-309-0949
Hold Your Horses Trucking,1635 E Arlington Rd,Springfield,MO,65804,417-885-0134
Rbj Unclaimed Freight,1453 Nw Us Hwy 50,Holden,MO,64040,816-719-7082
Edwards Hauling,35049 Rich Lane,Campbell,MO,63933,573-246-2728
Ryals Transport,103 Lamb Ave,Macon,MO,63552,660-346-9750
Bc Airport Service,7133 Chestnut,Kansas City,MO,64132,816-361-0149
Liberty Freight Lines,4332 E Ambrose Drive,Springfield,MO,65802,417-862-8893
Iron Mountain Construction Services,2320 Creve Coeur Mill Road,Maryland Heights,MO,63043,314-344-0070
L & D Expressway,1920 W Highpoint,Springfield,MO,65810,417-881-1602
Southern Delivery Systems,1884 Hwy B,Poplar Bluff,MO,63901,573-778-9950
Greg's Transport,128 Helen Street,Chaffee,MO,63740,573-887-6857
Endeavor Trucking,2822 Sate Hwy E,Marshfield,MO,65706,417-732-5137
Gaddy Dump Trucking,2616 State Route W,Mountain View,MO,65548,417-934-1181
Country Side Trucking,113 South Wood St,Skidmore,MO,64487,660-928-3675
Destefano Transportation,7341 Bethel Road ,Seneca,MO,64865,417-781-4420
Special Kay Express,10126 Hwy M,Conway,MO,65632,417-664-0886
Wilson & Son's Construction And Hauling,147 Th,Kansas City,MO,64145,816-935-0266
Kelly Trucking,Hc 89 Box 588,Winona,MO,65588,573-325-8789
The Ride Shuttle Service,112 Larinot Lane,Branson West,MO,65737,866-915-7433
Ross Trucking,17250 Us Hwy 63 South,Rolla,MO,65401,573-368-4313
405 Express,5812 North Belton Avenue,Kansas City,MO,64151,913-231-0190
Global Logistics,11474 Hammer Road,Neosho,MO,64850,417-455-1789
8168851803,12307 E 48th St S,Independence,MO,64055,816-885-1803
Coast 2 Coast Hauling,2969 Hwy Uu,Cuba,MO,65453,314-753-6425
Greg Dobrinske Trucking,108 N Oklahoma,Green Castle,MO,63544,660-874-4720
B Trucking,406 W Main,Cole Camp,MO,65325,660-668-3442
Larry Miller Trucking,1108 International St,Poplar Bluff,MO,63901,573-785-5946
R & L Hauling,6807 Sycamore Ave,Kansas City,MO,64133,816-313-6664
Freight Hauling,1177 Dean Road,Protem,MO,65733,417-785-4502
Roll & Thunder Transport,Po Box 572,Mt Vernon,MO,65712,417-466-1227
Moovers,140 Robert Dr,Ferguson,MO,63135,816-447-5381
Ellis Transport,11551 Norgate Dr,St Louis,MO,63138,314-497-5018
Fleet Service 66,7016 Nw 9 Highway ,Kansas City,MO,64152,816-918-9469
Childs & Sons Trucking,6689 Highway Y,Chillicothe,MO,64601,660-646-2786
S J Althoff,1703 Hwy 32,El Dorado Springs,MO,64744,417-876-2591
Dennis Denton Trucking,Hwy Z Cnty Rd Zb,Summersville,MO,65571,417-932-5422
Mat Trucking,202 N 6th Street,Hayti,MO,63851,573-359-0082
Berry Trucking,118 S Atterberry,Atlanta,MO,63530,660-239-4773
C-bar Trucking,218 Donnely Ln,Pineville,MO,64856,417-472-3501
Chicken Express,17896 Hwy 39,Aurora,MO,65605,417-678-7440
Rla & Son Trucking,5301 Chestnut,Kansas City,MO,64130,816-365-9913
Bellevue Valley Transportors,Hwy U 1 John Deere Ln,Belleview,MO,63623,573-697-5783
Henderson Trucking,Hwy 67 South Hilltop Lane,Greenville,MO,63944,573-224-3905
D S Trucking,110 Ra Lot 8,Gravois Mills,MO,65037,573-374-4621
Ds Express,286 Amber Crest Dr,O Fallon,MO,63366,314-341-5372
D & D Specialized Transport,410 Belmont,Raymore,MO,64083,816-200-8542
Chucks Auto Detail Supply,2535 Ne Springbrook,Blue Springs,MO,64014,816-224-0033
Burkhart Trucking,1954 Hwy Z,Fredericktown,MO,63645,573-760-6292
Four Seasons Distributors,5951 Pennbrooke Drive,St Louis,MO,63129,314-892-0024
Ac Transport,2 Commerce Drive,O Fallon,MO,63366,314-540-1040
Hotshot Expedited,25786 Hwy Yy,Lebanon,MO,65536,417-532-6809
Countyline Trucking,1005 Brookside Drive,Joplin,MO,64804,417-626-0567
Norman Farms,16315 Cr 460,Dexter,MO,63841,573-624-3362
Rounds Double R Trucking,5443 Agnes,Kansas City,MO,64130,816-333-2760
Mayeske Hay And Trucking,6304 Stephenson Rd,Norwood,MO,65717,417-746-1171
Flowers Trucking,25668 Swallow Drive,Center,MO,63436,573-267-3569
Charles Mckeirnan Transport,465 St Clair St,St Clair,MO,63077,314-324-6760
Wilson Farms,6771 Oak Rd,Carthage,MO,64836,417-674-2225
Brant,702 Kimble Drive,Stewartsville,MO,64490,816-590-9043
Mlp Trucking,436 North Hwy 59,Noel,MO,64854,417-475-3644
Sst,801 South Alma,Nevada,MO,64772,417-667-3899
R & S Transportation,3536 Nicholson Ave,Kansas City,MO,64120,660-352-6048
Jewell Trucking,2510 County Rd 6540,West Plains,MO,65775,417-256-6618
Black & White Limo Service,6546 Odell St,St Louis,MO,63139,314-280-0123
Flat Creek Ranch,20328 Manila Rd,Ionia,MO,65335,660-287-3304
Mathews Motor Company,1550 N Main Street,Nixa,MO,65714,417-725-5577
Rapid Roy's Road Service,901 N Colleen,Lees Summit,MO,64086,816-554-1222
Hemmerling Enterprises,8811 Nw 81st Terrace,Kansas City,MO,64152,816-741-2278
Draper Trucking,7936 Hambrick Rd,Bonne Terre,MO,63628,573-431-7192
Auto Find 24 Hour Tow And Recovery,7530 Troost St,Kansas City,MO,64131,816-333-2222
Dry Creek Furniture,2830 N Oak Grove,Springfield,MO,65803,417-823-0900
Bogart's Trucking,Westowne #10 Suite 1000,Liberty,MO,64069,816-792-8035
Wisdom Trucking,200 Thomas Creek Rd,Urbana,MO,65767,417-993-5423
Mid America Coffee Service Clearbrook Natural Spring Water,618 South Boyle,St Louis,MO,63110,314-535-1800
Moorings Yacht Service,3855 Hwy 54,Osage Beach,MO,65065,573-302-0500
Johnson Dump Truck,3110 S Hwy Dd,Marshfield,MO,65706,417-859-3627
Enochs Trucking,501 2nd St,Monroe City,MO,63456,573-735-3257
Lomayat Services,411 Ne 46th Street,Kansas City,MO,64116,816-454-6441
R M James Trucking,803 Hormeyer St,Clinton,MO,64735,660-890-1141
C-quin Transportation,19116 Hwy Zz,Aurora,MO,65605,417-678-1830
Casey's Trucking,Rt 2 Box 2803,Birch Tree,MO,65438,N/A
Blue Chip Transportation,301 East K Highway,Nevada,MO,64772,417-667-6633
L&m Moving Legendary & Monumental,9667 Halls Ferry Road,Jennings,MO,63136,314-534-7661
Hls Hauling,3645 Oakmount Avenue,St Louis,MO,63121,314-385-9124
Wilson Freight Lines,7356 Ne Williams St,Hamilton,MO,64644,816-583-7950
Harrison Structural Moving,185 Dallion Ford Lane,Buffalo,MO,65622,417-345-2808
Rdb Transport,821 Sunshine Dr,Aurora,MO,65605,417-678-0653
J N H Farms,650 County Rd 70,Sarcoxie,MO,64862,417-310-0173
Roberds Trucking,31672 Maries Rd 222,Meta,MO,65058,573-229-4851
Tracy Core Trucking,612 W Walker Street,Marceline,MO,64658,660-376-3605
C & K Logistics,21617 Lawrence 2210,Aurora,MO,65605,417-678-2030
W B Hauling,3437 Colorado Ave,Kansas City,MO,64128,816-200-4409
Staffen & Son Hauling & Excavating,14790 Highway 32,Ste Genevieve,MO,63670,573-883-2954
River City Trucking Company,6501 S Spoede Lane,Warrenton,MO,63383,636-456-0539
Hjl Trucking,20831 Pike 136,Louisiana,MO,63353,573-754-5529
Lone Wolf Trucking,27511 Greenbrier Dr,Pierce City,MO,65723,417-476-2270
Ab Trucking,6763 Cherry Lane,Hannibal,MO,63401,573-221-4166
K & K Construction,101 Industrial Drive,Advance,MO,63730,573-722-5777
Jeff And Brenda Trucking,Rr 1 Box 70,Rutledge,MO,63563,660-434-5574
Steinert Trucking,341 W Anderson,Republic,MO,65738,417-732-8038
Roger Lehenbauer Jr Trucking,20100 Monroe Rd 405,Paris,MO,65275,660-327-4674
Moss Trucking,455 Vfw Rd,Bowling Green,MO,63334,573-324-5323
Ralph Wilkes Trucking,Highway B,Reynolds,MO,63666,573-689-2157
Chig Trucking,Rt 1 Box 162-c,Birch Tree,MO,65438,573-292-8423
Charles Jones,7479 Wagon Wheel Ln,Hazelwood,MO,63042,314-837-0877
Howell Trucking,2804 Sweet Briar,Independence,MO,64057,816-795-5373
Rick Mollerus & Sons,20909 Pike 468,Curryville,MO,63339,573-324-6441
Jensen Quality Firewood,1621 Nw 300 Rd,Kingsville,MO,64061,816-807-8259
Bradley Auto Transport,1155 County Road Suite #1223,Moberly,MO,65270,660-651-8381
Pacific Express,52 Tulip,Pacific,MO,63069,636-271-2602
Head Trucking,Rr 1 Box 210,Novelty,MO,63460,660-739-4507
Stillwells Trucking,98 Gott Plantation Rd,Ulman,MO,65083,573-369-2918
Cobra Transport Company,4212 Mckibbon Road,St Louis,MO,63134,314-486-0989
Gallaghers Tow And Recovery,3700 Ne 85th Terr,Kansas City,MO,64156,816-734-7300
Taylor Trucking,8955 Hwy 38,Graff,MO,65660,417-668-5348
Long Trucking,428 S Cedar,Nevada,MO,64772,417-667-9706
Dick Bedwell,Rt 2 Box 238,Butler,MO,64730,660-424-0698
Mcclatchy Trucking,9687 N Farm Rd 33,Ash Grove,MO,65604,417-860-5820
Matrix Express,12 Bayhill Village Ct ,O Fallon,MO,63368,314-397-0797
M & K Lybeck Trucking,13080 Burr Oak Rd,Carthage,MO,64836,417-358-8183
Bxt Trucking,908 Church St,Kennett,MO,63857,573-888-1628
Ct And E Trucking,5599 Hwy 63,Houston,MO,65483,417-967-3159
Knight's Express,113 E Wakefield Ave,Sikeston,MO,63801,573-472-1122
At The Spring Of Living Waters Transportation,442 E 350th Road,Humansville,MO,65674,813-391-3303
"Bootheel Trucking, Inc.",4239 Highway M,Poplar Bluff,MO,63901,573-718-1004
Brent's Hauling,3389 Lusk Drive,Neosho,MO,64850,417-389-2595
Rehbein Farms,33739 Cedar Drive,Browning,MO,64630,660-946-4553
Cl Vaughn Trucking,104 S Rolla,Rolla,MO,65401,314-752-0073
Steele Trucking,39706 Bus Hwy 10,Richmond,MO,64085,816-776-2261
Wildcat Express,1810 South 337th Rd,Charleston,MO,63834,573-649-5762
Hammerlane Trucking,622 W Fairview Ave,Carthage,MO,64836,714-906-9045
K S K Trucking,5633 State Hwy T,Puxico,MO,63960,573-222-3323
Newberg Trucking,2643 N Poplar Avenue,Springfield,MO,65802,417-865-5166
Kustom Tow & Recovery,10601 North Northbrooke Drive,Kansas City,MO,64155,816-734-0869
Leason Trucking,19898 Jones Creek Rd,Barnett,MO,65011,573-392-6337
D Trans,11931 Old 8 E,Mineral Point,MO,63660,573-562-7548
A R K Trucking,122 Pine Tree Manor,Moscow Mills,MO,63362,636-356-1433
Carmack Trucking,3200 S Bird Ave,Independence,MO,64052,816-252-2499
Guardian Medical Logistics,1868 Craigshire,St Louis,MO,63146,913-345-8029
Johnson Transport,Hrc 77 Box 194a,Annapolis,MO,63620,573-598-3816
G & S Trucking,Rt 4 Box 580,Butler,MO,64730,660-679-3222
Grace Trucking,514 W Logan,Moberly,MO,65270,660-263-0826
Russ Jackson Transportation,490 Baker Road,St Clair,MO,63077,636-629-0240
Rapid Response Transport,131 East Jefferson,Clinton,MO,64735,660-885-3290
Price Trucking,19573 190th St,Burlington Junction,MO,64428,660-725-4455
Wrights Trucking,22201 Barstow,Crocker,MO,65452,573-736-5581
Douglas Farms,9501 W Eaton Road,Harrisburg,MO,65256,660-248-1400
Hough Trucking,12597 Hwy 131,Wellington,MO,64097,816-240-8152
David Carter Trucking,306 E 4th Street,Willow Springs,MO,65793,417-469-3720
Bsh Trucking,91 South Clay Morgan Drive,East Prairie,MO,63845,573-649-9595
Jackson Transportation,201 Lombardy Dr,East Prairie,MO,63845,573-649-2878
Elite Carriers,5305 Hwy E,Fredericktown,MO,63645,573-783-8600
Bubbles Xpress,2010 S Roosevelt Suite #1,Joplin,MO,64804,417-206-4700
Derek Mckuin Farms,2927 County Road 480,Poplar Bluff,MO,63901,573-776-3063
Williams Distribution Services,2514 S Locust,Oak Grove,MO,64075,816-625-6927
Copperhead Road Transport,21936 Lawrence 2222,Aurora,MO,65605,417-678-3688
Goodwin Transfer,1301 Cheatham Court,Warrensburg,MO,64093,660-747-6476
Motley Trucking,2271 East Hwy 47,Winfield,MO,63389,636-566-6055
Derrick Leathers Trucking,617 Felix Drive,Malden,MO,63863,573-276-8202
Robert Strong Trucking,324 3rd Street,Gilman City,MO,64642,660-876-5453
Drop And Hook Transportation,10543 County Road # 375 Lot # 22,St Joseph,MO,64505,816-351-1107
Bradford Enterprises,13456 Hwy Aa,Neosho,MO,64850,417-451-6275
Mcfarland Transport,205 E Scott St,Seymour,MO,65746,417-241-0045
Mrs,4315 West Enyart,Battlefield,MO,65619,417-885-1495
D R Trucking,221 South 6th,Lilbourn,MO,63862,573-688-2911
Sexton Trucking,4309 Sw Lakefront Lane,St Joseph,MO,64504,816-238-4686
Easley Trucking,5417 Tracy,Kansas City,MO,64110,816-210-3895
St John & Son Trucking,18010 County Line Rd,Smithville,MO,64089,816-532-4663
S T Express,8860 W Hwy 14,Billings,MO,65610,417-280-5539
J D Transport,1590 Rue Calais,Bonne Terre,MO,63628,573-358-7033
Cts Trucking,150 Oakfield Drive,O Fallon,MO,63368,314-223-8639
Chris Ward Trucking,209 Robin Wood Ln,Sikeston,MO,63801,573-649-5900
Classic Antique Transport,3060 Ne 1425 Road,Quincy,MO,65735,816-584-0563
James Warren Trucking,2376 St Luke Road,Conway,MO,65632,417-859-7306
Century Transport,835 Straight Rd,Conway,MO,65632,909-721-0213
Lamar Transport,16764 Christian Drive,Dexter,MO,63841,573-624-7280
Billie Wyatt Trucking,1212 Sw 23rd Street,Blue Springs,MO,64015,816-229-8742
Star Auto & Boat Sales,20750 A Ostrich Drive,Lebanon,MO,65536,417-588-9491
Courtesy Auto Tow & Transport,803 Ne 81st Terrace,Kansas City,MO,64118,816-436-0025
Lightning Express Trucking,510 N 3rd,Hayti,MO,63851,573-359-1989
Bakho Express,684 Greenearth Dr Apt E,Fenton,MO,63026,917-378-6514
Jrs Trucking,318 Walnut St,Hale,MO,64643,660-542-6555
Byler Hauling,3385 Hwy Vv,Eldorado Springs,MO,64744,417-876-0104
Key X' Press,506 W Ildereen St,Springfield,MO,65807,417-869-2437
Big Horse Trucking,214 East Ashley Rd,Boonville,MO,65233,563-260-3057
Image Technologies Corporation,2540 W Pennway,Kansas City,MO,64108,816-221-7663
Favazzo Trucking,16818 Bus 60,Neosho,MO,64850,417-451-2165
Rom Trucking,2506 North Clifton Avenue,Springfield,MO,65803,417-766-8021
St Louis Transportation,13757 St Charles Rock Road,Bridgeton,MO,63044,314-344-1975
C And C Trucking,17041 East Long Knife Rd,Nevada,MO,64772,417-684-7791
Steve Gabrielson Trucking,14046 Liv 249,Chillicothe,MO,64601,660-646-6707
R & S Replogle Trucking,2139 Northview Road,Marshfield,MO,65706,417-859-6319
Curtis Trucking,15165 Iguana Road,Laplata,MO,63549,660-651-0285
R & C Sisler Trucking,Hcr 67 Box 90 County Road J161,Freemont,MO,63941,301-616-7183
Dustin Pierce Trucking,4488 State Hwy Nn,Gobler,MO,63849,573-757-6740
G M Longoria Trucking,518a Union Ridge Drive,Clever,MO,65631,417-743-2830
Kevin Allen Trucking,4187 Hwy Aa,Broseley,MO,63932,573-686-6031
J & L Farms,109 Ridgeview,Matthews,MO,63867,573-472-0066
S S T,1432 W Mt Vernon,Nixa,MO,65714,417-872-6494
Pappaws Auto Transport,15230 Columbia Rd,Dixon,MO,65459,573-759-7277
Tsaun Trucking,5915 King Hill Ave,St Joseph,MO,64504,816-238-1704
Knox Trucking,1402 S Harris Ave,Independence,MO,64052,816-769-7896
Woods And Sons Trucking,306 N 3rd St,Hopkins,MO,64461,660-778-3263
Jc Trucking,1810 Hwy 61,Festus,MO,63028,314-718-0374
Baker Trucking,246 S E 15th Rd,Lamar,MO,64759,417-682-3716
T D Trucking,20851 7 R 1100,Cassville,MO,65625,417-847-3811
Johnston Trucking,13 Crestview Drive,Cassville,MO,65625,417-846-1701
R & L Express,613 S Lindell,Vandalia,MO,63382,573-594-6605
Turbo Trucking,17916 Campground Road,Phillipsburg,MO,65722,858-829-6738
Platte Valley Trucking Services,10823 Ne Davis Road,Easton,MO,64443,816-341-1475
Randy Barton Trucking,9306 Norway Rd,Neosho,MO,64850,417-451-3231
Mt's,304 S Park,Keytesville,MO,65261,660-651-0443
D&d Dump Trucking,1206 County Road 2410,Mountain View,MO,65548,417-469-0170
Gunner Trucking,7668 Hwy Yy,Washington,MO,63090,636-239-1351
Over The Road For You & Otr 4 U,#1 Avery Court,Pacific,MO,63069,636-475-7367
Loren C Kerksiek Trucking,Rt 1 Box 101,Blackburn,MO,65321,660-335-4115
Wls Trucking,123 E Main,Neosho,MO,64850,417-451-2665
R A W,25694 Poplar Church Rd,Warsaw,MO,65355,660-438-9876
Bms Trucking,11833 Jenner Lane,St Louis,MO,63138,405-283-0698
Atr Express,6555 Hwy 185 South,Beaufort,MO,63013,573-484-4151
Scary Freight,1325 W Sunshine #546,Springfield,MO,65807,417-763-1984
Ghf Trucking,3652 S State Hwy 7,Camdenton,MO,65020,573-286-4795
Sk&d Enterprises,3994 N 20th St ,Ozark,MO,65721,417-848-7978
D&j Trucking,119 Brook St,Lebanon,MO,65536,417-894-0285
Derald Lucht Trucking,431 W Ildereen St,Springfield,MO,65807,417-860-5525
Scorpion Trucking,316 E Libby Dr,Springfield,MO,65803,417-833-1774
Terry Enderle Trucking,25595 Jordon Rd,Dalton,MO,65246,660-288-3380
Lee Taylor Hauling,7529 Woodland,Cedar Hill,MO,63016,636-274-2453
Wendt Trucking,202 Shaw Rd,Olean,MO,65064,573-392-1217
S & S Trucking,3927 W Young,Springfield,MO,65803,417-894-9356
Hoover And Rosemary Hauling And Exvating,5768 Mable,St Louis,MO,63140,314-868-2432
Goldsby Trucking,1460 Slagle Rd,Bolivar,MO,65613,417-770-7010
Wayne Trucking,16508 Mckinley St,Belton,MO,64012,816-331-2080
Mldr Transportation,5115 S 163 Rd,Bolivar,MO,65613,417-326-2930
Benny Aragon Trucking,108 W Maple,Grant City,MO,64456,660-564-4038
Tompkins Trucking,1216 S Ward Pkwy,Blue Springs,MO,64014,816-204-4803
W Supply,1705 Marriott Ln,Barnhart,MO,63012,636-305-9808
Doug's Hauling,665 Eagle Crest Lane,Joplin,MO,64801,417-291-0892
Charles White Transport,4569 State Hwy Nn,Gobler,MO,63849,573-792-3606
Hanna's Mobile Home Sales And Service,1171 East Hwy 50,Union,MO,63084,636-583-2150
Phantom Freightlines,10351 Whippet Road,Mineral Point,MO,63660,573-562-2038
Bogey Hills Limousine & Transportation,906 First Capitol,St Charles,MO,63301,636-947-7717
Tqs,9929 Bunker Hill Dr Apt E,St Louis,MO,63123,314-283-3779
Baker Trucking,12224 Valleyview Rd,Mountain Grove,MO,65711,417-962-5689
Malone Transport,5905 W Hwy 124,Harrisburg,MO,65256,573-875-5557
Triple T Transport,22 Betty Sue Drive,East Prairie,MO,63845,573-649-9600
R & R Transport,Hcr 89 Box 185,Winona,MO,65588,573-325-4434
Paw Trucking,27192 Us Hwy 59,Fairfax,MO,64446,660-686-0205
K 2c Transport,1182 Highway J,Philadelphia,MO,63463,303-570-0230
K & D Middleton Trucking,2641 Lawrence 2137,Stotts City,MO,65756,417-285-3146
R & R Ranch,2615 Hwy D,Philadelphia,MO,63463,573-439-5334
Jobe's Auto Care,822 S Hwy 13,Lexington,MO,64067,660-259-3848
Pacific Inland Express,311 W Pleasant,Aurora,MO,65605,417-466-7801
T & A Trucking,Rt 1 Box 62aa,Elkland,MO,65644,417-933-2053
Blt,1454 County Rd 1210,Willow Springs,MO,65793,417-469-1970
Grindstaff Trucking,4272 Hwy B,Park Hills,MO,63601,573-431-4583
Mccowan & Boys Trucking,4049 Hwy 00,Marshfield,MO,65706,417-859-4374
Coltharp Trucking,8514 E 47th Street,Kansas City,MO,64129,816-924-5469
B & R Farms,Rt 4 Box 4278,Alton,MO,65606,417-778-7730
Crump Trucking,301 N Marion,Lancaster,MO,63548,660-457-3435
Winfrey Trucking,15113 Edison Road,Lebanon,MO,65536,417-532-1754
Cmk Trucking,5163 County Road 43,Hannibal,MO,63401,573-221-3844
Backwoods Trucking,Rr 1 Box 1107,Stella,MO,64867,417-632-4819
Cars On The Move,18403 Dogwood Rd,Carthage,MO,64836,417-206-7449
David Dixon Trucking,26055 Highway N,Clarksville,MO,63336,573-242-3534
D & A Transit,153 East Main Street,Goodman,MO,64843,417-354-8621
L & T Trucking,1205 Taylor St,Bethany,MO,64424,660-425-8843
Lonnie & Carolyn Klinksick Milk Hauling LLC,6880 Nw 1001 Rd,Appleton City,MO,64724,660-476-2594
Vantastic Express,17 Boxwood Crest Court,O Fallon,MO,63366,314-240-9664
Three D Transportation,Rr 1 Box 329,Anderson,MO,64831,417-845-6455
M B Trucking,115 Milldale Rd,Eldon,MO,65026,843-260-3218
Promiseland Motor Express,8218 Pence Road,Pleasant Valley,MO,64068,816-781-8599
Leonard Cummings And Racine Cummings Trucking,State Hwy Vv 120 Well Rd,Powersite,MO,65731,417-334-4827
Oakcreek Village Of Bonne Terre,6967 Stormy Ln,Bonne Terre,MO,63628,573-358-2287
Straight Shot Express,1513 Woods Fort Drive,O Fallon,MO,63366,636-379-8261
Scot Hatch Trucking,102a Dale Lane,California,MO,65018,573-796-4038
Ltc Trucking,2001 North Park,Joplin,MO,64801,417-850-8664
Fears Transport,2397 Elk River Road,Pineville,MO,64856,417-437-8463
J F Express,8800 N W 112th ,Kansas City,MO,64153,816-464-9300
C & E Transfer,30138 L Avenue,Fairfax,MO,64446,660-683-9480
Gci,900 N Jackson Street,Kennett,MO,63857,573-888-0685
"D & M Trucking, Inc.",469 Se 50th Lane,Jasper,MO,64755,417-682-6814
Jette Trucking,8231 Appleton Dr,St Louis,MO,63132,501-568-6263
Doc Auto,1107 Historic 66 West,Waynesville,MO,65583,573-774-2272
Mb Trucking,37579 Hwy N,Brinktown,MO,65443,573-422-6286
Jmh Industries,Rr #3 Box 81,Kahoka,MO,63445,319-838-2271
"A P M, Inc.",4 Hill Drive,Smithville,MO,64089,816-532-0196
Bob Hatfield Trucking,1817 Broadway St,Joplin,MO,64801,417-438-3026
Bonnar Septic Service,1316 Hickory,St Joseph,MO,64503,816-279-0632
Smooth Ride Trucking,1506 North Cannon,Marceline,MO,64658,660-376-3304
8up Freight,1124 W Sleepy Hollow,Nixa,MO,65714,417-725-2943
Scott Farms,27507 S Belle Plain Rd,Harrisonville,MO,64701,816-797-5312
Stw Trucking,656 Coyote Ln,Anderson,MO,64831,417-845-7565
Dixon Trucking,652 Trigger Cove Rd,Kirbyville,MO,65679,417-334-3382
L A Trucking,8526 Hwy D,Bonne Terre,MO,63628,573-358-1906
L & M Transport,506 North Beech Street,Appleton City,MO,64724,660-492-2734
Csi - General Contractors,1311 W 13th,Kansas City,MO,64102,816-931-4545
Big Dog Express,4361 Bingham,St Louis,MO,63116,314-457-0817
Dry Creek Farm,1076 Birch Drive,Lonedell,MO,63060,636-692-8992
R P Brats Transportation,31449 W 153rd Street,Excelsior Springs,MO,64024,816-630-3059
Drennen Transporting,Rt 1 Box 664 Rainbow Spring Rd,Mineral Point,MO,63660,573-438-7209
Fairley Trucking,820 S 27th Street,Unionville,MO,63565,660-947-3996
Jks Lightweight Trucking,4342 Hwy Jj,Bourbon,MO,65441,573-732-5223
Brett Clark Trucking,27108 Hunter Rd,Sibley,MO,64088,816-650-5774
Stockton-osceola Express,1836 N Barnes,Springfield,MO,65803,N/A
Sowards Hauling,419 East Walnut,Pacific,MO,63069,636-257-8531
Rick Parrott Trucking,25320 Hwy Hh,Sedalia,MO,65301,660-827-3117
Dawson Trucking,618 South Williams,Moberly,MO,65270,660-263-4985
A-1 Mobile Home Transport,2551 W Atlantic Lot 26,Springfield,MO,65803,417-863-7471
D W Trucking,22 Palace Ct,Sikeston,MO,63801,573-472-4495
Harris Trucking,109 N Public,Center,MO,63436,573-267-3747
L Bess Trucking,2913 Bess Rd,Bonne Terre,MO,63628,573-358-2916
Mark Bendler Trucking,3878 Hwy 30,Lonedell,MO,63060,636-629-5484
Juergens Trucking,Hcr 60 Box 62a,Vienna,MO,65582,573-422-6166
Truman E Glass Jr Trucking,2535 Ct Rd 654,Broseley,MO,63932,573-328-1001
Dewey Daniel Buckner Jr Hauling,Route 1 Box 175c,Cairo,MO,65239,660-295-4394
Hance Trucking,11277 Hwy 68,St James,MO,65559,573-265-3997
David Haarman Trucking,32501 Haarmon Rd,Tipton,MO,65081,660-458-6566
M And L Trucking,300 West Mulberry St,California,MO,65018,573-796-4144
Bandit Trucking,30085 Sunnyside Dr,Laquey,MO,65534,573-765-4232
Allen Clark Trucking,Route 2 Box 152,Koshkonong,MO,65692,417-867-5697
Jim Medlin Trucking,18314 Hwy K,Aurora,MO,65605,417-678-2807
Douglas Jacob Logan Trucking,278 Durington Road,Buffalo,MO,65622,417-345-2264
Steven & Anthony Kalwei Trucking,1046 South 52 Hwy,Montrose,MO,64770,660-693-4476
Gavan Trucking,Rt 1 Box 1053,Piedmont,MO,63957,573-223-2958
Howrey Mobile Home Transport,1373 Kathy Ave,Moscow Mills,MO,63362,636-356-9002
Hartline Trucking,204 West Walker Avenue,Walker,MO,64790,N/A
Diamond S Trucking,Hc 80 Box 1500,Bakersfield,MO,65609,417-284-9368
All Metro Movers,13903 Century Lane,Grandview,MO,64030,816-767-9000
Hoppers Commercial Transportation,2520 County Road 338,New Bloomfield,MO,65063,573-491-0160
B & T Transfer,19 Tucker Ln,Montgomery City,MO,63361,573-934-5643
Allen L Porter Trucking,102 W 6th St,Stanberry,MO,64489,660-783-2447
Gomez Trucking,1855 S 22nd Ave,Ozark,MO,65721,417-581-7402
T Jennings Trucking,6085 Pasadena Lane,Granby,MO,64844,417-472-6352
D C Trucking,4954 East 7th,Joplin,MO,64801,417-782-8639
Billy Goat Ranch & Trucking,Rt1 Box 384,Ellington,MO,63638,573-924-2290
Hill Top Trucking,Route 1 Box 194-m,Camdenton,MO,65020,573-346-7486
Huesgen Hauling,9533 Co Road 441,New Bloomfield,MO,65063,573-491-3955
Willis Stephens Trucking,19428 County Road 487,Puxico,MO,63960,N/A
Anderson Trucking,R T 1 Box 201,Kirksville,MO,63501,660-332-7479
Byassee Trucking,136 Margaret Dr,East Prairie,MO,63845,573-649-2959
Davis Trucking,10415 Hwy 24,Madison,MO,65263,660-291-5450
J & P Trucking,709 South Tebo,Windsor,MO,65360,660-647-3451
Kenneth David Ripley Trucking,3017 North Hwy 65,Chillicothe,MO,64601,660-646-2872
S & N Trucking & Excavating,2310 E Alfalfa,Columbia,MO,65202,573-474-2802
Vaughn Excavating And Trucking,6551 County Road 353,Fulton,MO,65251,N/A
Gary Dunahoo Trucking,610 Second St,Fisk,MO,63940,573-967-3882
Michael L Stevenson Trucking,Route 1 Box 206,Broseley,MO,63932,573-996-7118
Robert L Helton Trucking,41163 Hwy Dd,Dixon,MO,65459,573-759-6644
Alan C Walker Trucking,Route 1 Box 1970,Doniphan,MO,63935,573-354-2788
Spencer Auto Transport,2445 Lisa Drive,Cape Girardeau,MO,63701,877-332-0228
Sid Leckbee Trucking,S Second 600,Edina,MO,65537,660-397-3667
Lowell Tucker Trucking,17991 Hwy Oo,Milan,MO,63556,660-265-4364
Wolfe Trucking,7336 Dyers Drive,Fulton,MO,65251,573-592-0260
C-bro Trucking,59391 Shalom Dr,Russellville,MO,65074,573-392-6200
S & P Trucking,9025 Sharlee Ln,Dittmer,MO,63023,636-274-5571
Sandner Earth Moving,35031 Lion Ave,Macon,MO,63552,660-385-3650
Schussler Trucking,807 Illinois Ave,Montrose,MO,64770,660-693-2395
J & M Trucking Co,2459 B East Kearney,Springfield,MO,65803,417-831-9766
Nelson Movers,Route 4 Box 496,Poplar Bluff,MO,63901,573-686-0294
Parker Transport,7155 Nw Country Club Ln,Kansas City,MO,64152,816-223-4824
Mobile Movers & More,1450 Rehmert Rd,Bland,MO,65014,573-437-2427
Rambo Trucking,201 Olive St,Seymour,MO,65746,417-767-4032
Brown Brothers Hauling,8311 Cornell Ave,University City,MO,63132,314-569-2664
Tim Wadlow Trucking,Route 1 Box 75,Arcadia,MO,63621,573-546-7051
Woolsey Truck & Loader Service,28853 Hwy 32,Lebanon,MO,65536,417-532-8810
Roscoe Parker Trucking,10684 Co Rd 8070,West Plains,MO,65775,417-256-4241
Tom Russell Trucking,21960 Gabi Ln,Lincoln,MO,65338,660-547-3809
J T D Trucking Company,5338 Osage Ave,Kansas City,MO,64133,816-313-4133
Ez Transit,210 S New Madrid,Sikeston,MO,63801,573-748-9030
John Turner Trucking,1015 Sw Ellis Ct,Lees Summit,MO,64081,816-761-5531
Hallowell Transporting,1669 County Rd 1220,Moberly,MO,65270,660-263-1031
Donner Trucking,13300 N Rte E,Harrisburg,MO,65256,573-442-7998
Jerry Pirtle Trucking,4060 State Hwy P,Chaffee,MO,63740,573-794-2808
V J Keence Excavating & Hauling,1611 Judith Spring Road,Union,MO,63084,N/A
Rusty's Auto Sales,15605 Hwy 92,Platte,MO,64079,816-852-4220
Kennith D Weaver Trucking,2099 Osage,Lebanon,MO,65536,417-532-6818
Gary Lauck Trucking,3029 Pcr 520,Perryville,MO,63775,N/A
B & K Moving,990 West Forest,Bolivar,MO,65613,417-777-3120
Henry And Velma Williams Trucking,17171 Imperial Road,Carthage,MO,64836,417-358-4381
Big Daddys Trucking,10806 Ne State Hwy C,Peculiar,MO,64078,816-779-7243
Regatta Transportation,17684 State Hy 96 W,Carthage,MO,64836,417-358-1779
Peter Holm Trucking,2012 E 532nd Rd,Pleasant Hope,MO,65725,417-467-2693
A M Kinzinger Trucking,302 Oriole,Harrisonville,MO,64701,816-380-6786
J D & C M Trucking,222 W Split Log,Goodman,MO,64843,417-364-8207
Barron Hauling & Construction,10365 Sand Cut Rd,Catawissa,MO,63015,636-274-0922
Glenn Young Trucking,14564 St Hwy Ad,Dexter,MO,63841,573-624-7626
Sanker Trucking,452 Highway Ff,Jonesburg,MO,63351,N/A
Bramell's Trucking,313 N E Highway 52,Clinton,MO,64735,660-885-4748
Gary L Bullock Trucking,17482 Rolling Hills Dr,St James,MO,65559,573-265-0037
L & L Transport,Rt 1 Box 131b,Memphis,MO,63555,563-940-1959
Slavens Trucking,206 W Bates St,Wellsville,MO,63384,573-684-6257
D & R Delivery,82 Plum Tree Drive,St Peters,MO,63376,636-441-1719
Mulloy Trucks,6725 N Oregon,Kansas City,MO,64151,816-587-2102
Patterson Hauling,485 Bardot Dr,Florissant,MO,63031,314-921-5630
Marion Ellis Trucking,117 W Anderson,Seymour,MO,65746,417-935-2387
Charles Kinard Trucking,171653 S Us Hwy 63,Rolla,MO,65401,573-364-2299
Daryl J Pennock Trucking,306 E Oak,Clinton,MO,64735,660-885-6483
Johnson Trucking,301 East Grand,Gallatin,MO,64640,660-663-2319
K & A Trucking,607 Williams Drive,Eureka,MO,63025,636-938-9072
J L Thomas Trucking,2099 County Rd 6300,West Plains,MO,65775,417-587-0242
Glen Duncan Trucking,1160 Clock Tower Plaza 308,Washington,MO,63090,314-304-5160
C & L Mobile Home Transporting,134 West Ln,Wright City,MO,63390,636-745-9076
Boyd T Vandermark Trucking,R #7 Box 158,Poplar Bluff,MO,63901,573-785-7291
"C R & I, Inc.",2405 W Kearney,Springfield,MO,65803,417-831-3500
D & R Mobile Home Transporting,7230 C R 102,Fulton,MO,65251,573-642-9718
Doug Moore Trucking,11564 Co Rd 657,Dexter,MO,63841,573-624-4531
Mer-tran2,19739 Hwy B,Raymondville,MO,65555,417-967-4146
Jeff Hickman Auto Transport,2313 S Meadowview,Springfield,MO,65804,417-619-3409
Vanover Trucking,7899 St Hwy Pp,Puxico,MO,63960,573-382-1735
Ballard Trucking,57 E Cedar St ,Fair Grove,MO,65648,417-759-6172
"S & K Trucking, Inc.",420 Se Main St,Lees Summit,MO,64063,816-740-3989
Bishop Mobile Home Movers,361 Co Rd 467,New Franklin,MO,65274,660-848-2944
Coffey's Transport,408 W Hall,Carterville,MO,64835,417-437-9173
Tom's Septic Service,29568 State Hwy Bb,Winston,MO,64689,660-749-5865
Wilson Auto Sales,839 West Terra,O Fallon,MO,63366,636-978-3600
Beards Auto Transport,1533 Ryan St,Lebanon,MO,65536,417-594-0266
Mitchell Cowan Trucking,2722 Windwood,Poplar Bluff,MO,63901,573-718-9882
K & L Trucking,3480 Bassett Rd,Pacific,MO,63069,636-451-3478
Carl Starbuck Trucking,17538 Lawrence 1232,Marionville,MO,65705,417-880-6519
Mark Bryan Trucking,18200 Hwy 17,Crocker,MO,65452,573-736-5243
Wheat Trucking,108 Porter Rd,Eldon,MO,65026,573-392-4166
Ted Trucking,12303 129 N,Green City,MO,63545,660-626-8841
Skidmore Trucking,7348 Se 69 Hwy,Lawson,MO,64062,816-580-3595
Sj Transport,892 Lake Rd,Shell Knob,MO,65747,417-858-1241
Baker Transport,7419 Nw 82nd St,Kansas City,MO,64152,816-453-0445
Dad's Internet Auto,9910 N Fr 149,Pleasant Hope,MO,65725,417-742-0980
Dmd Transport,416 S E Third Street #9,Lees Summit,MO,64063,816-554-7953
C Propst Trucking,11815 Cr 639,Dexter,MO,63841,573-624-6304
Bam Trucking,1511 N Ohio Avenue,Sedalla,MO,65301,660-827-2718
J & P Mobile Home Movers,1548 Burr Oak Drive,Galena,MO,65656,417-723-8244
Terry Mcafee Trucking,31770 Holt 290 Road,Oregon,MO,64473,660-446-2953
Scenic Valley Mobile Home Service,5149 Co Road 5015,Salem,MO,65560,573-739-1115
John Andrews Trucking,1505 Holloway St,Rolla,MO,65401,573-364-6577
Carter Trucking,35764 Noble Road,Macon,MO,63552,660-385-7139
Bt & B Trucking,139 Wisteria Lane,Troy,MO,63379,636-528-2182
Gibbs Transport,2511 Madison 504,Fredricktown,MO,63645,573-783-7849
Charles Eugene Rose Jr Trucking,09 Middle Street,Middletown,MO,63359,573-549-2022
S & S Trucking,Country Aire Trailer Park #2,Mountain Grove,MO,65711,417-962-5041
Nu-way Logistic,823 Henry Manor Ct,Ballwin,MO,63021,314-881-9483
John Randall Tucker Trucking,Rt 1 Box 10,Milan,MO,63556,660-265-4882
Larry Horton Trucking,8124 Saffel Rd,Bonne Terre,MO,63628,573-358-7829
Gch Transportation,2160 S Celebration,Springfield,MO,65809,417-881-5969
P & P Trucking,3594 South 16th Road,Humansville,MO,65674,417-754-2753
Berrys Hauling & Contracting,2602 Hwy Mm,Labadie,MO,63055,636-451-5894
Danny Deal Trucking,13900 N Hwy C,Licking,MO,65542,573-674-1424
Bob's Wholesale Auto,8642 Farm Rd 1027,Purdy,MO,65734,417-652-3330
S & S Express Corp,2133 E Blaine Street,Springfield,MO,65803,417-865-5138
Jereme Patton Trucking,92 Cr 5180,Salem,MO,65560,573-247-2359
Breaktime Services,4827 Raytown Rd,Kansas City,MO,64133,816-358-1355
Hesterlee Hauling,1310 N East 8th Ave,Ava,MO,65608,417-683-3631
J & L Trucking,Rt 1 Box 4260,Naylor,MO,63953,573-399-2955
Robbin M Hicks Trucking,251 Jeffries Road,Montreal,MO,65591,573-346-6315
Mark Gideon Dump Trucking,690 Gideon Holler Road,Forsyth,MO,65653,417-796-2454
Larry Russell Farms,210 E 5th Street,Mound City,MO,64470,660-442-5805
Strong Trucking,1195 State Hwy 181,Gainesville,MO,65655,417-989-0482
Ehlert Farms Trucking,9120 S Stillhouse Rd,Oak Grove,MO,64075,816-690-6634
T & W Trucking,903 East Pearl,Harrisonville,MO,64701,816-380-2207
Hoeflicker Trucking,1703 Walnut St Apt B,Higginsville,MO,64037,660-909-3966
Tom Pearcy Hauling & Excavation,1104 Lori Drive,Boonville,MO,65233,660-882-5228
Houk Trucking,856 Southwest Hwy F,Deepwater,MO,64740,660-696-2720
Bar -o- Trucking,7156 Junge Blvd,Joplin,MO,64804,417-659-8609
Lee Jones Trucking,3719 Mcdaniel,Blue Springs,MO,64015,816-591-5127
M & M Trucking,12275 East Zaring Road,Columbia,MO,65202,573-488-7462
Bill Ellis Grading Service,6187 Joplin Street,Carl Junction,MO,64834,417-649-7086
Morgan Hauling,2403 Golf Drive,Sedalia,MO,65301,660-826-3643
Doyle's Quick Haul,Route 4 Box 18ab,Moberly,MO,65270,660-269-8913
Dave's Auto Transport,600b North Scott Ave,Belton,MO,64012,816-318-4442
Gallup Trucking,504 North Kentucky,Adrain,MO,64720,816-297-4418
Allison Mobile Home Service,16851 North Crownview Drive,Centralia,MO,65240,573-696-0014
B & B Trucking,3171 State Highway 13,Lampe,MO,65681,417-779-3152
Tipton Trucking,15050 Hornback Rd,Smithville,MO,64089,816-532-3155
Wesley Western Trucking,20530 Elm Road,Joplin,MO,64804,417-673-3193
Gary Maring Trucking,13960 State Hwy E,Powersville,MO,64672,660-216-4501
Joplin Nevada Express,Route 2 Box 185,Nevada,MO,64772,417-667-7787
Garoutte's Trucking,16244 Lawrence 1232,Marionville,MO,65705,417-235-9662
Jubilee Trucking,898 Sw 10th Lane,Jasper,MO,64755,417-394-2228
"D F Trucking, Inc.",504 Pleasant Lane,Seligman,MO,65745,417-341-1031
Justrite Limo Service,4808 Richmond Ave,Kansas City,MO,64129,816-924-7378
Mcclung Hauling,8742 County Road 783,Parma,MO,63870,473-283-5419
Flying M Trucking,1387 Pcr 620,Perryville,MO,63775,573-547-8718
Jonas Patterson & Son,7513 Haywood Dr,St Louis,MO,63133,314-428-6096
Hicks And Son Trucking,1325 E 76 Street,Kansas City,MO,64131,816-215-9353
Allen Morton Trucking,716 North Main Street,Slater,MO,65349,660-529-2718
Adair Freight And Delivery,121 S Prairie Rose,Smithville,MO,64089,N/A
Richard Fair Trucking,407 Park,Farmington,MO,63640,573-760-0348
Acker Trucking,14443 Highway 52,Windsor,MO,65360,660-647-5565
Adair Freight And Delivery,121 South Prairie Rose,Smithville,MO,64089,816-652-1139
Bulldog Transportation,Rt 1 Box 1595,Seligman,MO,65745,417-662-3444
Donald E Pankey Trucking,11658 Pvt 3518,St James,MO,65559,573-265-8995
Michael C Gregory Trucking,10851 Range Line Road,Houstonia,MO,65333,660-568-3400
G C Trucking,9630 East Turner Farm Rd,Columbia,MO,65201,405-354-0473
D & D Transporting,10160 Parkwood Dr,Mineral Point,MO,63660,573-438-7024
Gushwa Trucking,690 Missouri Ave Ste 8,St Riberts,MO,65583,314-422-7195
Todays Winds West Trucking,301 N 1st St,Sheldon,MO,64784,417-884-5318
Leimer Trucking,17205 U S Highway 61,Old Appleton,MO,63770,573-788-2303
Morris Mobile Home Transporting,1765 State Road A,Montreal,MO,65591,573-346-5080
Dominion Transport Service,4915 S James,Springfield,MO,65810,417-883-9527
Terry's Express,2785 State Highway O,Seymour,MO,65746,417-935-2510
Hoss's Trucking,107 South Lee,Leeton,MO,64761,660-653-4327
Villa Blanca Transport,16898 Lawrence 2177,Aurora,MO,65605,417-678-5562
B & B Trucking,7070 S 601 Rd,El Dorado Springs,MO,64744,417-876-4806
Priest Trucking,630 County Road 549,Jackson,MO,63755,573-204-0591
"Expressway Radiatant Auto, Inc.",1905 Truman Road,Kansas City,MO,64127,816-471-1899
J & D Trucking,16325 Weingarten,St Genevieve,MO,63670,N/A
Booher Trucking,5995 County Road 324,Palmyra,MO,63461,573-769-4192
Donald & Darlene Wilkerson Trucking,106 Mcculley,New Franklin,MO,65274,660-848-2708
Stan Dewesplore Truck Service,7105 Jesse Lane,Jefferson City,MO,65101,573-636-4390
Rex Carter Trucking,Route 2 Box 31,Macks Creek,MO,65786,573-346-5852
Taylor Trucking,Rt 1 Box 21,Noble,MO,65715,417-337-0314
Doug Wilson Trucking,19327 Lawrence 1202,Aurora,MO,65605,417-678-7506
Htsi,9610 Smelser Rd,Concordia,MO,64020,660-463-0145
Bandy Sign Service,13630 Cambridge Avenue,Grandview,MO,64030,816-965-6406
Mtm Transportation,5420 Ralston,Raytown,MO,64133,816-215-5844
L Green Trucking,19420 Imhoff Drive,Blackwater,MO,65322,660-846-3551
Underwood Trucking,2557 Wildwood Road,Niangua,MO,65713,417-589-3708
D&l Specialty Hauling,101 17th Avenue South,Greenwood,MO,64034,816-365-0815
Kb Trucking,3265 Blake Road,Farmington,MO,63640,573-431-5277
Janet Carter Trucking,566 State Hwy 73,Macks Creek,MO,65786,573-363-5450
Tullock Trucking,815 Nw 1371,Holden,MO,64040,816-732-5363
Coleman Trucking,313 Coleman Lane,Warrenton,MO,63383,636-456-3982
Barnhart Trucking,10989 Crest Rd,Dixon,MO,65459,573-759-3650
Mike Bobeen Trucking Company,11 Wildoradoe Drive,Troy,MO,63379,636-462-7097
Worrel Transport,10986 Lone Pine Road,Mountain Grove,MO,65711,417-926-6131
Shawns Hauling,238 Ries Rd,Ballwin,MO,63021,636-391-7561
Wiseguys Haulin,Route 3 Box 437,Pierce City,MO,65723,417-236-4429
Larry's Express,5862 Barberry Drive,Imperial,MO,63052,314-412-0721
J & J Trucking,198 Oak Tree Lane,Troy,MO,63379,636-462-5674
Stephens Trucking,Hcr 3 Box 52,Ellsinore,MO,63937,573-593-4272
Double B Trucking,927 Lawrence 1250,Ash Grove,MO,65604,417-838-8730
Meadows Trucking,210 Allen Rd,Campbell,MO,63933,573-246-3447
Triple M Trucking Co,1660 Woodman,Florissant,MO,63031,314-324-1118
Lake 2 Lake Boat Transport,2343 Hickory St,St Louis,MO,63104,314-664-3173
C & M Transport,34671 Pike 210,Annada,MO,63330,573-898-5130
Heafley Trucking,25700 Highway 32,Lebanon,MO,65536,417-532-4339
Tyler Trucking,507 W 31st,Higginsville,MO,64037,660-238-2470
Sho Time Express,1138 Jaguar Rd,Joplin,MO,64803,417-623-4443
Merchant's Mobile Home Transporting Service,Route 1 Box 99,Collins,MO,64738,417-275-4522
Rob Snyder Hauling & Excavating,4885 Highway N,Robertsville,MO,63072,636-257-4402
Dale Hutto Trucking,17510 Rolling Court,St James,MO,65559,573-265-6517
Gossett Transportation,19149 Hwy 39,Aurora,MO,65605,417-678-0646
Mint Spring Trucking,18 Cole Ln,Perryville,MO,63775,573-547-2441
Steve Jarrett Trucking,151 Fairview Road,Iberia,MO,65486,573-793-6859
Carolyn 's Express,91 South Clay Morgan,East Prairie,MO,63845,573-649-9595
R & A Trucking,12255 Business 60,Cabool,MO,65689,417-962-0161
Cws Express,635 Oregon Trail Ct,St Charles,MO,63304,636-928-6222
Jerry Loveall Trucking,10201 Tanner Bridge Road,Henley,MO,65040,573-496-3233
Lobo Express,14495 East Hwy 24,Lexington,MO,64067,660-259-3463
Kirk Vaughan Trucking,8350 Whetstone Road,Mountain Grove,MO,65711,417-926-6821
Don Vanness Excavating & Hauling,1608 E Springfield Lot 2,Sullivan,MO,63077,636-468-2186
Umfleets Mobile Home Transport,101 West St,Brownwood,MO,63738,573-722-3983
J & B Mobile Home Service,9018 County Road 40,Reeds,MO,64859,417-246-5962
J H Enterprises,226 Hawnings Road,St Charles,MO,63301,314-409-9738
D A Logan Trucking,R R 2 Box 47-c,Elkland,MO,65644,417-933-2230
Leathers Trucking,13330 Jenner Lane,Neosho,MO,64850,417-389-3679
K & J Auto Repair,3411 Oklahoma Ave,Trenton,MO,64683,660-359-5222
Wise Trucking,15505 Nw 136th Street,Platte City,MO,64079,816-858-4472
Joyce's Produce,1800 Stokelan Dr,Malden,MO,63863,573-276-6455
Reliable Auto Sales,26550 Griessen Rd,Sedalia,MO,65301,660-221-5724
Merrill's Wrecker Service,2541 North Wood Street,Neosho,MO,64850,417-451-7997
Burge Ice Distributing,16400 E Truman Rd,Independence,MO,64050,816-461-6120
Moving Assistance Center,9539 B Lackland Road,St Louis,MO,63114,314-423-0091
Carevann Transportation,5023 S Benton,Kansas City,MO,64130,816-921-0208
Don Wadlow Excavating And Hauling,614 Westwood Drive,Ironton,MO,63650,573-546-3088
Darrell Geiler Trucking,1235 S Kingshighway,Cape Girardeau,MO,63703,573-339-0147
Recreational Vehicle Salvage & Service,1293b Nw Us 50 Hwy,Holden,MO,64040,816-850-4155
Robertson Trucking,715 North Warren,Warrensburg,MO,64093,660-238-5519
Shannon Foster Trucking,3351 Kay Dr,Bernie,MO,63822,573-293-4287
Northland Trucking,1829 N W 50th,Northmoor,MO,64150,N/A
Timber Furniture & More,9630 Gravois Rd Suite 101,St Louis,MO,63123,314-393-5233
J V F Trucking,2576 S Kenser Rd,Joplin,MO,64801,417-623-0071
"Aromando Bros Trucking, Inc.",1905 Williamstown Rd,St Peters,MO,63376,314-426-0000
C And F Trucking,101 Autom Cr,Cabool,MO,65689,417-962-5715
R & J Trucking,2648 Gum Rd,Seneca,MO,64865,417-825-1079
Alsco Of St Louis,16710 Chesterfield Airport Rd,Chesterfield,MO,63005,636-519-7901
Don Portell Trucking,15289 N State Hwy 21,Cadet,MO,63630,573-438-3065
Jag Trucking,27324 Park Grove Dr,Lebanon,MO,65536,417-532-5982
R & S Trucking,Rt 4 Hwy E House #8725,Morehouse,MO,63868,573-667-9098
J B Trucking,658 Dogwood Tree Rd,Reeds Spring,MO,65737,417-272-3379
Steve Lane Trucking,1116 North Walnut,Stanberry,MO,64489,660-783-2283
Lightning Express,26682 Highway V,Lebanon,MO,65536,417-532-7053
Pierce Trucking,512 East 14th,Carthage,MO,64836,417-358-1215
R L Trucking,291 Woodhollow Dr,Wentzville,MO,63385,314-623-2973
Terry Richards Trucking,Route 1 Box 534-f,Mineral Point,MO,63660,573-562-1219
Jon Hale Trucking,514 North Hillcrest,Nixa,MO,65714,417-725-1463
Jake's Trucks,2622 N Hwy 59,Diamond,MO,64840,417-325-7137
Grgurich Trucking,15041 State Hwy O,Novinger,MO,63559,660-488-6816
Rolling Hills Farms & Trucking,Rt 1 Box 170,Millersville,MO,63766,573-238-4191
Eagle Freight Systems,1320 East Atlantic,Springfield,MO,65803,417-833-0790
Reynolds Trucking,Route 1 Box 144-c,Koshkonong,MO,65692,417-264-2843
Drennon Trucking,Route 2 Box 274,Macks Creek,MO,65786,417-777-0572
Jims Hauling,5530 State Road Dd,Festus,MO,63028,636-937-2912
D C Transport,1453 West Woodie Proctor,Columbia,MO,65203,573-657-4537
S & S Tire Hauling Service,69 Airport Rd,Iberia,MO,65486,573-745-0715
Frankum Trucking Livestock,1201 North Ruby,Carrollton,MO,64633,N/A
Collins Trucking,4738 State Road N,Pomona,MO,65789,417-256-6350
Sully's Trucking,Route 1 Box 1800,Piedmont,MO,63957,573-856-4693
Smooth Movers,1065 Se 475 Rd,Knob Noster,MO,65336,660-563-5286
Kg Trucking,8540 Grant Drive,Raytown,MO,64138,816-353-2600
Banker Trucking,27905 South State Route 7 So,Harrisonville,MO,64701,816-380-3936
Ross Mobile Home Transporting,Route 1 Box 211,Cairo,MO,65239,419-375-0002
Wfo Express,201 Hickory,Elmo,MO,64445,660-742-3291
Dolan Trucking,116 N W 341,Warrensburg,MO,64093,816-377-1563
I B Specialized Service,2105 W 3rd,Sedalia,MO,65301,N/A
Kimbrough Trucking,Rt 1 Box 94-04,Koshkonong,MO,65692,417-764-3754
Ye Trucking,103 S Jackson,Shelbyville,MO,63469,573-633-2665
Ryan Transportation,856 N Prairie Meadow Ln,Oronogo,MO,64855,417-673-5538
Arrowhead Trucking,2910 N Brownelle Avenue,Joplin,MO,64801,417-434-7919
Tnt,964 St Rd 76,Willow Springs,MO,65793,417-469-5672
Smiths Mobile Home Transporting & Service,106 Bass Point Road,Laurie,MO,65037,573-374-6745
Sullivan Farms,Hc 2 Box 585,Squires,MO,65755,417-683-3824
Barker Trucking,140 Se 23 Highway Apt 1,Knob Noster,MO,65336,660-563-6746
Daybreak Trucking,304 N Forest St,Jamesport,MO,64648,660-684-6543
Jeff King Trucking,104 S Jefferson,Diamond,MO,64840,417-439-1538
Pro-team Logistics,2405 E 7th St Suite C,Joplin,MO,64801,417-742-3342
Griggs Trucking,Highway A,Williamsville,MO,63967,573-998-2285
Grover Parks Trucking,229 Second Street,Qulin,MO,63961,573-328-4098
Proctor Trucking,1416 Oo Hwy,Odessa,MO,64076,816-230-4493
Grumpy Trucking,7168 Old Hwy 60,Norwood,MO,65717,417-746-4910
Vestal Trucking,301 Dorsey,Licking,MO,65542,573-674-4295
L & R Trucking,62 East Hwy 60,Charleston,MO,63834,573-683-7053
Branson Crane Service,881 Animal Safari Rd,Branson,MO,65616,417-336-5556
Main Street Transport,1116 N Elliott,Aurora,MO,65605,417-724-3221
Tire Energy Group,6839 Main Street,Odessa,MO,64076,816-230-5475
"Richards Distributing, Inc.",P O Box 920271,Kansas City,MO,64192,816-517-4268
M D Trucking,8189 Se Tobin Valley Dr,Cowgill,MO,64637,660-645-2130
Keller & Sons Trucking,Rt 3 Box 59b,Rich Hill,MO,64779,417-484-3398
James Kelsey Farms,1406 Knights Ct,Kirksville,MO,63501,660-665-1507
H J Green Transport,Rt 9 Box 1195,Gatewood,MO,63942,573-255-3520
Jasper Jay Kelley Jr Trucking,10900 Blair Lane,Crocker,MO,65452,573-736-5010
Casteel Trucking,6728 Vermont Ave,Raytown,MO,64133,816-356-4536
Helmig & Son Trucking,1975 Hwy 50,Owensville,MO,65066,573-437-6768
Z Transport,17523 Hiwy Z,Falcon,MO,65470,417-533-8918
Barnes Trucking,41152 Audrain Rd 516,Vandalia,MO,63382,573-473-7101
Mahmutovic Trucking,5916 South Crest Way,St Louis,MO,63129,314-487-9088
Wb Freight Solutions,3705 Mueller Rd,St Charles,MO,63301,636-896-0041
Clinton Trucking,19647 Amburn Rd,Raymondville,MO,65555,573-674-4141
Cab Hauling,601 North Prairie,Bloomfield,MO,63825,573-568-2232
Carr Transportation Services,3018 E Kearney,Springfield,MO,65803,417-864-4210
Mcculloch Trucking,803 E 15th St,Oak Grove,MO,64075,816-690-6411
3xg,20445 State Hwy 2478,Aurora,MO,65605,417-229-7119
Westover Express,2206 Locust St,St Louis,MO,63103,314-231-2411
Joker Trucking,7322 Wabash Ave,Kansas City,MO,64132,816-365-1716
Tucker Trucking,#10 Oakwood Terrace,Hermitage,MO,65668,417-745-6200
Elliott Trucking,8869 Co Rd 65,Reeds,MO,64859,417-246-5320
Custom Cut Log Homes,1910 Independence St,Cape Girardeau,MO,63701,573-339-8622
Duff's Trucking LLC,607 Hwy D,Hawk Point,MO,63349,636-338-4414
Always Better Service,3885 Hwy 83,Bolivar,MO,65613,417-326-2776
Doug Smith Hauling,8090 Red Oak Road,Gerald,MO,63037,573-764-4551
Priority Express,5900 Paretta,Kansas City,MO,64120,816-721-5574
Nationwide Auto Transport,Hwy 63 North,Moberly,MO,65270,660-263-6928
Brian Cruz Hauling,1744 Highway W,Foristell,MO,63348,636-332-5546
"Jws Trucking, Inc.",1626 State Highway O,Bertrand,MO,63823,573-472-2648
Cooper Trucking,1152 Skyline Road,Seymour,MO,65746,417-935-2516
Rays Engine Machine & Transmission,803 East Main Street,West Plains,MO,65775,417-257-2356
Scheffler Distributing Co,7323 Angus Dr,Seneca,MO,64865,417-624-0219
G&g Auto Sales,302 W South St,Ozark,MO,65721,417-581-6122
Huffman Trucking,127 Central,Buckner,MO,64106,816-650-5180
Reid's Haul & Tow,14620 S Outer Belt Road,Lone Jack,MO,64070,816-213-4760
Harkrider Transportation,5304 North White Avenue,Kansas City,MO,64119,816-454-5069
Owings Trucking,6025 E Truman Rd,Kansas City,MO,64126,816-241-3799
J & C Trucking,3219 Moorehead Dr,Joplin,MO,64804,417-623-0009
Burkhart Trucking,1095 Southeast Hwy 7,Clinton,MO,64735,660-890-1701
Mikes Trucking,205 Southside Ave,Stewartsville,MO,64490,816-669-3595
A-m Delivery,14769 Hardin Road,Bonne Terre,MO,63628,636-586-5404
Jeff Masterson & Son Trucking,14482 St Hwy Ad,Dexter,MO,63841,573-624-8477
Mann Transport,312 Helen,Chaffee,MO,63740,573-887-8981
All Zones Express,606 W Pearl,Savannah,MO,64485,816-324-3307
B & B Trucking,208 Old Salem Road,Licking,MO,65542,573-674-4763
Moots Transport,R R 2 Box 50-m,Kirksville,MO,63501,660-665-4175
Hodges Trucking,367 E Old Mill Rd,Fair Grove,MO,65648,417-759-7386
Brian Box Trucking,959 Cron Rd,Lampe,MO,65681,417-779-4271
Carrier Lawn Care,612 S Mcgregor,Carthage,MO,64836,417-358-8754
Joplin-lamar Express Company,17091 State Highway 37,Golden City,MO,64748,417-246-5744
Willie Harris Trucking,5619 Nw Mayview St,Kansa City,MO,64151,816-741-4348
Cruse Trucking,1630 Hwy O,Seymour,MO,65746,417-935-9030
All Chills Transport,10644 Linnell Drive,St Louis,MO,63136,314-867-0118
The Lone Express Co,2161 Sulphur Ave,St Louis,MO,63139,314-647-5859
Cobb Trucking,1730 Daniel Boone Industrial P,Warrenton,MO,63383,636-456-9483
Kris Lang Trucking,517 E 8th,Washington,MO,63090,636-390-4936
Neil Nelson Mobile Home Transport,2762 St Rt O,Higbee,MO,65257,660-248-3438
Wizard Trucking,Rr 1 Box 61-a,Koshkonong,MO,65692,417-331-0817
Steves Hauling,41 Washington Road,Ulman,MO,65083,573-369-2255
Stephens Trucking,22923 Pike 253,Louisiana,MO,63353,573-754-5113
Valley Xpress Shuttle Service,518 Main Apt B,Grain Valley,MO,64029,816-719-3805
Viper Trucking,1003 N Monroe,Kansas City,MO,64120,816-241-1000
David Dale & Son Trucking,Taylor Subdivision,Alton,MO,65606,583-429-5428
Williams Trucking,43 Green Valley Road,Buffalo,MO,65622,417-839-2194
Copperhead Transport,Rt 1 Box 8-2,Weaubleau,MO,65774,417-428-3458
Soggy Bottom Trucks,17422 County Road 214,Advance,MO,63730,573-722-5165
Wolfe Trucking,83 Hwy J,Linn,MO,65051,573-694-0376
A&t Trucking,620 Demerville Dr,Lemay,MO,63125,314-892-8920
Ice Depot Cand B Services LLC,204 East Lafayette,Monticello,MO,63457,573-767-5428
Wahoo Trucking,21690 Sable Rd,Waynesville,MO,65583,573-774-3997
Ike R Rose Trucking,2030 Jacob Ln,St Francois,MO,63640,573-747-0085
S & E Trucking,29633 Hwy O,Keytesville,MO,65261,660-288-2113
The Box Doctor And Ambassador Moving,5001 E 59th St,Kansas City,MO,64130,816-941-4800
Kirkland Trucking,1041 Cameron Ln,Mansfield,MO,65704,417-924-8494
Meyers Trucking,548 Hickory Ridge Lane,Frohna,MO,63748,573-824-5318
Stemper Trucking,605 Michael Sthil Rd,Mtn View,MO,65548,417-934-1326
Roger Dunham Trucking,Rt 1 Box 312,Lecoma,MO,65540,573-578-0583
France Trucking,R2b70133,Higginsville,MO,64037,660-584-7275
C & L Trucking,210 Roosevelt Street,East Prairie,MO,63845,573-427-9513
Kraft Trucking,12434 Hwy 13,Richmond,MO,64085,816-776-8309
Abby Roads Trucking,2216 Texas Ave,Joplin,MO,64804,417-850-8860
Everette Hicks Trucking,508 Shiloh Rd,Rogersville,MO,65742,417-753-3792
K Woodruff Trucking,144 Main St,Millersville,MO,63766,573-366-6735
Arthur Thornton Trucking,11811 Seven Hills Dr,Florissant,MO,63033,314-852-9035
Stegall Trucking,31 Shangri La Lane,Perryville,MO,63775,573-543-2023
Porter Transportation,10185 County Rd 2020,Rolla,MO,65401,573-341-3016
All American Transport,4378 Hwy 67 North,Poplar Bluff,MO,63901,573-776-1601
South Side Trucking & Excavating,210 Ponderosa Dr,Camdenton,MO,65020,573-374-4758
Omnibus Transport Co,1516 South Glenstone Ave,Springfield,MO,65804,417-890-7151
Osborne Trucking,1481 Rue Riviera,Bonne Terre,MO,63628,573-358-2533
Discount Moving,1901 N Washington,Springfield,MO,65803,417-823-8585
C And C Trucking,#2 South Hickory,Salem,MO,65560,573-729-3752
Simpco Hauling,824 Andrew,Jackson,MO,63755,573-450-5653
Kc Vending Services,5301 East 9th Street,Kansas City,MO,64124,816-421-0123
Hilltop Service & Equipment,Route 2 Box 453,Adrian,MO,64720,816-297-2434
Dft,17879 E Hwy 86,Neosho,MO,64850,417-451-0974
Community Construction Services,248 Se 101,Warrensburg,MO,64093,660-747-1187
Vip Shuttle Service,409 Ne 103rd St #4b,Kansas City,MO,64155,816-916-4267
Mckinney Trucking,1015 Indian Creek Trails,Houston,MO,65483,417-260-5537
Left Lane Trucking,1720 E Kearney St # 7,Springfield,MO,65803,417-833-6398
Branch Trucking,1171 Nolan Road,Fenton,MO,63026,314-541-0558
Lyle E Barnes Trucking,3993 Spring Valley Rd,Summersville,MO,65571,405-283-0521
L & S Trucking,828 W Main,Cabool,MO,65689,417-962-3641
Clay Scott Trucking,Star Rd,Seymour,MO,65746,417-935-4396
Gladbach Trucking,301 S Cedar,Marceline,MO,64658,N/A
George Underwood Trucking,Route 1 Box 471,Adrian,MO,64720,816-297-4473
Furdek Trucking,2726 New Hope Church Rd,Sullivan,MO,63080,636-629-6139
Greg Voss Trucking,445 Michelle Dr,Washington,MO,63090,636-239-5177
Phillips Trucking,26132 Inkwell St,Atlanta,MO,63530,660-239-4825
L J J R Transport,Rr 1 Box 6h,Drexel,MO,64742,816-619-2291
J C Trucking,1707 Concord Court,Independence,MO,64058,816-796-3448
Dwb Trucking,1935 S Kimbrough,Springfield,MO,65807,417-883-3071
Blake Automotive,Dunklin County Rd 120 Rt 3,Malden,MO,63863,573-934-6276
Missouri Transport,187 E Dade 192,S Greenfield,MO,65752,573-645-5705
Pat Tonsor Trucking,36771 Hwy 24,Monroe City,MO,63456,573-735-2180
Macs Transport,300 Sw 4th Street,Lees Summit,MO,64063,816-524-8389
Faulkner & Sons Trucking,14509 St Andrews,Grandview,MO,64030,816-868-5950
Hartsock Trucking,7284 Hwy 135,Florence,MO,65329,660-281-6507
Tim Deshazo Enterprises,1146 C R 1280,West Plains,MO,65775,417-256-6619
Prewett Trucking,21458 Kayt Ln,Goodmand,MO,64843,620-249-2955
R H Trucking,200 S Center,Willow Springs,MO,65793,573-823-0695
Stillwell Trucking,5388 Pvt Rd 5212,Willow Springs,MO,65793,417-469-1610
Jt Express,8576 Lawrence 2010,Miller,MO,65707,417-452-2521
Skye's Unlimited Truck'in,2945 E Pythian,Springfield,MO,65802,800-999-5551
Fastlane Trucking,2945 Fairview Rd,Sparta,MO,65753,417-278-3037
Putnam Trucking,2529 Birch Drive,Joplin,MO,64804,417-850-7792
Cobra Transport,5960 Forsythia Lane,Reeds,MO,64859,509-762-6471
Mills Truck Water Hauling,346 State Road A,Drexel,MO,64742,N/A
D K G Trucking,110 Maple,Tarkio,MO,64491,660-736-4720
Gentry Trucking,7915 Pike 467,Curryville,MO,63339,573-324-9920
Crb Haulers,190 Tindle Lane,Sparta,MO,65753,417-581-7193
Pine Valley Transport LLC,162 Pine Valley Lane,Cuba,MO,65453,573-885-7522
Noftsger Trucking,3004 Ne 280th Street,Lathrop,MO,64465,816-740-3498
Brotherton Distributing,1637 N Hayes,Springfield,MO,65803,417-873-9433
Nu Care Transport,6313 Laura Street,St Louis,MO,63136,217-408-4254
D&s Tow Service,7922 E 66th St,Kansas City,MO,64133,816-737-5534
De Witt Transport,21165 Ladle Lane,Waynesville,MO,65583,417-894-3672
Cowan Trucking,1012 E Mcdaniel St Apt 21,Springfield,MO,65806,417-864-4793
Sierra Trucking,1617 Kentucky Ave,Joplin,MO,64804,417-206-4229
Sikeston Auto Service,320 Baker Lane,Sikeston,MO,63801,573-472-3342
C And R Warehouse,1600 N 291 Hwy Suite 1012,Independence,MO,64058,816-257-7779
Walker Trucking,19565 Otilla Ln,Phillipsburg,MO,65722,417-533-7615
Scott Transportation And Logistics,213 W Harrison Street,Farber,MO,63345,573-249-3902
3h Trucking,6580 S 109th Rd,Pleasant Hope,MO,65725,417-267-7001
Hawaiian Ohana Trucking,504 W Maple,Urbana,MO,65767,417-993-9937
Mcclain Livestock,11012 Fairgrounds Rd,Versailles,MO,65084,573-378-5791
Plaza Respiratory & Oxygen Services,1609 Swift,North Kansas City,MO,64116,816-474-4446
D & M Distributing,2421 Westminister Dr,St Charles,MO,63301,636-949-8089
Amc Excavation,1204 Elmwood Dr,Willow Springs,MO,65793,417-252-7092
Chip Miller Trucking,31 N Hh Hwy,Lamar,MO,64759,417-682-8812
Shaver Trucking,625 Racetrack Hollow Rd,Anderson,MO,64831,417-223-4189
Barry Hauling Co,7130 Ficken Rd,Cedar Hill,MO,63016,636-285-3598
Faler Trucking,609 East Florence St,Windsor,MO,65360,660-647-2970
Run Me Down Trucking,1033 Clark,Jackson,MO,63755,573-243-1396
"Avchem, Inc.",5757 Phantom Drive,Hazelwood,MO,63042,314-880-2700
Willow Creek Transportation,3019 Shelby 203,Clarence,MO,63437,660-699-3582
Adsell Companies,5001 Southwest Ave,St Louis,MO,63110,314-773-0500
Sullivans Dump Truck Service,125 W Harper,Poplar Bluff,MO,63901,573-686-0131
Moores Hauling,410 Creekwood Blvd,Troy,MO,63379,636-462-6505
Jones Trucking And Combining,1640 Ne Ollie Rd,Kingston,MO,64650,816-586-5460
Armstrong Trucking,733 County Rd 540,Parma,MO,63870,573-357-5106
Ozark Mountain Trucking,1075 State Route Dd,Willow Springs,MO,65793,417-252-4099
Csg Utility,4961 Sean Dr,Imperial,MO,63052,636-296-8100
Sadler Hauling,7 Grider Rd,Bismarck,MO,63624,573-734-2087
Norton Davis Trucking,611 E Cherry,Troy,MO,63379,636-528-7067
Ronnie Boyce Trucking,3651 Ketterer Rd,Columbia,MO,65202,573-474-8798
Royce Clement Trucking,18595 Highway 113,Maitland,MO,64466,660-935-2228
Terry Long Trucking,10812 Hwy 137,Licking,MO,65542,417-331-9088
Earls Transport Company,107 Bluegill,Gallatin,MO,64640,660-663-3671
Jimmie Burns Trucking,Rt 1 Box 194m,Camdenton,MO,65020,573-346-7486
Holmes Transport,3021 South Trailridge Ave,Independence,MO,64055,816-373-5747
Lonnie Stites Trucking,9184 Nettle Drive,Neosho,MO,64850,417-825-0359
Spencers Transport,30043 Bluebird Hollow Road,Sedalia,MO,65301,660-829-1269
Williams Transportation,35305 County Road 225,Campbell,MO,63933,573-246-3520
Wilson Trucking Co,5652 Hwy J,Albany,MO,64402,660-726-4376
Ll Cook Trucking,540 A E Parklane,Columbia,MO,65201,573-474-5820
Odie's Trucking,5511 Nw Raintree Dr,Parkville,MO,64152,816-587-3447
Ait Worldwide Logistics,460 Nw Parkway,Riverside,MO,64150,816-474-8020
Smith Bros Trucking,110 W 8th,Portageville,MO,63873,314-379-5502
Wyatt & Sons,15509 Kay Ave,Belton,MO,64012,816-331-2207
Junior's Trucking,5631 East 102nd Street,Kansas City,MO,64137,816-765-7624
"Pendulum Trucking, Inc.",Rt 3 Box 1010,Poplar Bluff,MO,63901,314-686-8908
Hines Trucking,Rt 1 Box 67,Arbela,MO,63432,816-866-2488
H E Smith Trucking,Rt 2 Box 2395,Mineral Point,MO,63660,314-438-3922
Tom's Welding & Equip Service,711 S E Miller,Lees Summit,MO,64063,816-525-3276
R J's Trucking,609 N Bradley,Harrisonville,MO,64701,816-887-3855
S & H Auto Sales,27203 Hwy 32,Lebanon,MO,65536,417-532-4746
J T Trucking,109 N 7th St,Charleston,MO,63834,314-683-3000
J J Welding Service,2440 Cassens Drive,Fenton,MO,63026,636-343-0550
Action Moving,4301 Sergeant,Joplin,MO,64804,N/A
Kings Trucking,2430 Brooklyn,Kansas City,MO,64127,816-225-8932
Megan Transport,527 Kimberly Lane,St Peters,MO,63376,314-397-6179
Gilpin's Auto Parts,Rt 4 Box 108a,Marshall,MO,65340,660-886-2217
Vic's Local Moving,1113 E 13th,Kansas City,MO,64106,816-224-4678
R & M Transport,2522 N Ramsey,Springfield,MO,65803,417-866-6977
Randy Mickelberry Trucking,1201 Butler Dr,Harrisonville,MO,64701,816-884-3320
J & S Trucking,7522 Maple Lane,Raytown,MO,64138,816-356-2349
Riley's Mobile Homes,10110 Jackson Lane,Neosho,MO,64850,417-850-3459
Davis Carriers,1320 South Engineer,Sedalia,MO,63501,N/A
Duffy's X-press Trucking,133 Church St,Bonne Terre,MO,63628,314-358-0547
Cook Transportation,2021 North National,Springfield,MO,65803,417-862-8944
B C Trucking,P O Box 886,Dextter,MO,63841,314-888-9730
Ozark Contract Carriers,314 Main,Noel,MO,64854,417-475-5942
Road Tested Auto Parts,2521 El Paulo Ct Apt C,St Louis,MO,63129,314-351-1900
Dave's Hauling,Rt 4 Box 74,Chillicothe,MO,64601,816-646-4802
Tiger Tow & 40 Highway Tow,605 E Oldham Parkway,Lees Summit,MO,64081,816-524-6121
Lair Distributing,Route #1 Box 62,Asbury,MO,64832,417-642-5850
Kimnet Express,P O Box 26,Desoto,MO,63020,N/A
James Low Trucking,Rt 1 Box 188k,Holcomb,MO,63852,573-792-3410
F L K Trucking,1213 Thatcher,Ferguson,MO,63135,314-521-2009
R & M Express,Rt 4 Box 60,Perryville,MO,63775,314-547-7422
Barnes Transportation,7310 North Olive,Gladstone,MO,64118,816-436-3155
Holmes Livestock Transportation,Rt 6,St Joseph,MO,64504,816-238-5514
Smith Trucking,Rt 1 Bx 229,Buffalo,MO,65622,417-345-6799
Doug Watt Trucking,P O Box 305,Queen City,MO,63561,816-766-2419
"K Y Trucking, Inc.",Rt 2 Box 55,Powersville,MO,64672,660-947-3876
Cr Transportation,530 S Cavalier,Springfield,MO,65802,417-865-9656
Aca Transport,8888 Hall St,St Louis,MO,63147,314-895-1777
Fenton Auto Sales,8455 Highway Bb,Cedar Hill,MO,63016,314-274-4777
"1st Choice Courier And Distribution, Inc.",4500a Goodfellow Blvd,St Louis,MO,63120,314-895-8852
K B Hauling,54 Aspen,Belton,MO,64012,816-331-5176
J & M Distributors,3500 Lemp Avenue,St Louis,MO,63118,314-772-8184
J L Ahrens Material Hauling,Po Box 542,House Springs,MO,63051,314-671-1261
Mezo's Trucking Co,Rt 2 Box 887-j,Salem,MO,65560,314-729-8557
Korac Trucking,2368 Hempline Ct,St Louis,MO,63129,314-471-1602
Lindley Transportation Co,4521 Dakota Trail,St Charles,MO,63304,314-939-3036
Hammack's Trucking,Po Box 415,Seymour,MO,65746,417-935-2481
Mason Trucking,12949 Oxbow Lane,St Louis,MO,63138,314-653-2487
Jimmy Keith Porter Trucking,Rt 3 Box 3604,Seymour,MO,65746,417-935-2816
Thomas Excavating,106 Johnson St,Middletown,MO,63359,314-549-2806
Diamond Dump Truck Service,4326 Service Ave,Kansas City,MO,64130,913-281-5185
Carr Trucking,1357 Cr 3770,Mountain View,MO,65548,417-934-2095
Stagecoach Express,Rural Route 1,Diamond,MO,64840,N/A
Iron Horse Transport,51 Cardinal Ln,Elsberry,MO,63343,573-898-2183
Krueger Trucking,916 Oak St,Blythedale,MO,64426,660-867-3150
Cline Trucking,Rr 1 Box 68,Luray,MO,63453,N/A
Shankle Bros Trucking Co,201 E Ella Street,Charleston,MO,63834,573-683-6885
Rourk Farms & Services,1726 E Waldo Rd,Bronaugh,MO,64728,417-228-1011
Cmg Trucking,Rt 3 Box 208,Mayesville,MO,64469,816-232-1708
Rick Newman Trucking,Route 3 Box 305,Carthage,MO,64836,417-358-6251
Postal World Mailing Services,316 Axminister Drive,Fenton,MO,63026,314-343-1615
D L Carson Trucking,22345 Hwy Y,St Roberts,MO,65584,573-291-8733
Action Delivery Service,114 Sheffield Lane,Fenton,MO,63026,314-349-8364
James Vogler Trucking,1107 Ne 1251 Rd,Windsor,MO,65360,660-647-5989
Grant Equipment Moving,2917 Mockingbird Dr,St Charles,MO,63301,636-925-2322
Dirks Trucking,Rt 3 Box 116,Rich Hill,MO,64779,417-395-4314
Crc Auto Sales,Route 1 Box 80c,Eldon,MO,65026,314-392-3110
Van Sittert Trucking,2720 Westport Rd,Independence,MO,64052,816-252-8699
Imperial Truck Line,955 Radio Tower Rd,Union,MO,63084,636-583-9730
Rock Of Ages,15300 Texas Road,Saint Robert,MO,65583,314-336-5624
Ec York Trucking,12500 Hwy 28,Dixon,MO,65459,314-759-6023
Don Krausz Equipment Service,5013 Dover Lane,House Springs,MO,63051,636-274-2901
Shelton Trucking,312 W Harrison Apt 3,Butler,MO,64730,816-679-4667
J B T Transportation,214 Baker St,Villa Ridge,MO,63089,314-451-5502
Rushco Hauling,2005 E 81st Street,Kansas City,MO,64132,816-361-8659
Action Courier Service,5005 Milentz,St Louis,MO,63109,314-351-1496
Frank Powell Trucking Co,4200 N 22 Nd St,St Louis,MO,63107,314-534-0549
B & B Auto Transporters,32 Anawood Dr,Arnold,MO,63010,314-296-2842
Tim Weems Trucking,Rt 1 Box 1035,Neosho,MO,64850,417-451-7250
Honey Creek Transportation,12949 Kneeland Lane,Neosho,MO,64850,417-455-0203
K&l Trucking,6013 Private Road 1410,Pomona,MO,65789,417-469-4165
Economy Trucking,2694 Sw Rt Drive,Kingston,MO,64650,816-254-3309
Red Hot Express,106 West Locust,Centralia,MO,65240,573-682-5334
Green Hills Delivery,Rt 1 Box 66,Ludlow,MO,64656,816-738-4332
All Phase Hauling,Rt 7 Box 429,Joplin,MO,64801,417-624-9770
Richard L Bess Trucking,7936 Hambrick Rd,Bonne Terre,MO,63628,314-358-2517
Schrock Trucking,196 Mockingbird Ln,Cape Girardeau,MO,63701,573-339-7038
Chris Derousse Trucking,3437 Papin Rd,Desoto,MO,63020,636-586-0872
Shubert Truck Line,607 South Walnut,Steele,MO,63877,314-695-4473
J & J Distributors,17076 State Route F,St James,MO,65559,573-265-8675
Kurt Wingerter Trucking,Route 3 Box 285-2,Perryville,MO,63775,314-547-2081
Bungart Auto Service & Sales,7414 Tanner Bridge Road,Jefferson City,MO,65101,573-635-6831
Howerton Trucking,13003 Kalmia Dr,Neosho,MO,64850,417-592-2994
Grand Mariner Yacht Service,Rt 3 Box 95a,Stockton,MO,65785,N/A
American Distributing Co,7226 N Lindbergh,Hazelwood,MO,63042,314-731-1042
Clark's Midtown Auto & Tow,2611 E 39th St,Kansas City,MO,64130,816-861-9438
Riteway Products,10800 Midwest Industrial Blvd,St Louis,MO,63132,314-427-5400
Joplin Auto Park,2209 Rangeline,Joplin,MO,64804,417-781-1234
"L H Jordan Transportation, Inc.",Unknown,Kansas City,MO,64126,816-471-6895
Bremer Trucking,2801 State Hwy B,Stanberry,MO,64489,660-448-2485
Ozark Hills Express,1016 South Lafayette Street,Neosho,MO,64850,417-451-1761
Kool Ray's Transportation,1309 N Warren,Springfield,MO,65801,417-861-9344
Jerry's Super Shuttle,155 Industrial Park Drive,Hollister,MO,65672,417-334-5463
Diamond T Hauling,10021 E 96th St,Kansas City,MO,64134,816-761-8819
Aaa Jet Trucking,4216 Hwy 248,Branson,MO,65616,417-337-7454
L J K Trucking,906 S Clay St,Nevada,MO,64772,417-671-0641
James Burkett Trucking,3312 Bristol,Kansas City,MO,64129,816-921-3674
Blakley Trucking,407 1st Street,Rushville,MO,64484,816-752-1605
Middle American Express,Route 3,Excelsior Springs,MO,64024,816-630-6746
O Z's Trucking & Excavating,7917 E 58th St,Kansas City,MO,64129,816-737-1847
Eagle Trucking,Hcr 61 Box 222 Off Hwy E,Latham,MO,65050,816-458-6510
Anderson Moving,79 Castle Keep Dr,Wentzville,MO,63385,314-639-6719
Johnson Transportation,102 S Interstate Dr,Miner,MO,63801,314-471-6996
American Piano Transport,1803 Sw Market Ste 5,Lees Summit,MO,64082,816-246-7071
Midwest Automagic,2701-a E Sunshine,Springfield,MO,65804,417-881-2292
Hood Trucking,16315 Hwy 14,Marionville,MO,65705,417-258-7398
S & S Express,Rt 5 Box 1184,Ava,MO,65608,417-683-4669
Alexander's Cylinder Head Service,3631 State Road J,Fulton,MO,65251,314-642-1235
D & S Trucking,201 Thomas,Madison,MO,65263,816-829-1146
Wolf Distributing,4072 N 20th Street,Ozark,MO,65712,417-581-5488
Domby Trucking,Rt 4 Box 5350,Marshfield,MO,65706,417-468-3847
Bonaparte Distributors,116 W Grandriver,Clinton,MO,64735,816-885-8162
Tuskgee Transport,20 W 36th Street #510,Kansas City,MO,64111,N/A
Sanders Farms,33975 Hwy T,Salisbury,MO,65281,660-481-2242
Edwards Trucking,Rr 2 Box 625,Ava,MO,65608,417-683-3707
Larry W Burnett Trucking,Route 2 Box 338 D,Pomona,MO,65789,417-257-7154
Elliott Trucking,410 Church St,Holcomb,MO,63582,314-792-3320
Another Deliver Co,901 - A - East 13th Ave,North Kansas City,MO,64116,816-221-8878
Deluxe Auto Transport,1755 Harlow Rd,Summerville,MO,65571,417-932-4549
Gaylon Romine Trucking,2218 Willoughby St,Kennett,MO,63857,N/A
Macagno's Transportation,217 W Osage Ave,Rockville,MO,64780,816-598-4195
Laning's Rock Hauling,Rt 1 Box 292,Rich Hill,MO,64779,417-395-2259
Mecey Trucking,701 E Chestnut St,Desloge,MO,63609,N/A
Bammer Family Trucking,711 Chesnut,Tarkio,MO,64491,N/A
Lloyd Miller Trucking,4579 Kk Hwy,Fair Grove,MO,65648,417-860-6280
Holly Hill Express,527 W 3rd,Eldon,MO,65026,N/A
Lewis Mtr Automotive Wholesale Cntr,1555 B N Hwy 67,Florissant,MO,63301,314-831-1600
Lake Side Auto,23287 St Hwy V,Brashear,MO,63533,816-323-5391
Lantz Transport Services,1721 Pearl Ave,Joplin,MO,64804,417-659-9096
Rsi,164 Northwest Industrial Ct,Bridgeton,MO,63044,636-225-4114
Hicks Trucking,Rr 3 Box 580-10,Joplin,MO,64801,N/A
Bad Dog Trucking,3119 W 27th St,Joplin,MO,64804,417-781-1789
Golden Beach Trucking,Route 2 Box 154,Barnett,MO,65011,573-372-1406
Carlton Trucking,1617 Westview,Jefferson City,MO,65109,N/A
Triple B Trucking,304 Morning Glory Road,Rockway Beach,MO,65740,316-583-7242
Tell Trucking,Rr 2 Box 91,Seymour,MO,65746,417-935-2285
Henry's Tow Service,3715 Troost Ave,Kansas City,MO,64109,816-561-5577
Pippin Trucking,Hcr 60 Box 128 Sugar Creek Rd,Pineville,MO,64856,917-223-4604
Steve Wagner Trucking,10523 Farm Ln,Carthage,MO,64836,417-208-7351
Shepard Trucking,3620 Nw 70th Terr,Kansas City,MO,64151,816-741-9553
Hyland Trucking,Rt 1 F 13,Drexel,MO,64742,816-657-2831
P & K Express,19352 Farm Road 2015,Aurora,MO,65605,417-678-6567
Dean's Water Hauling,254 Salem Road,Reeds Spring,MO,65737,417-334-0739
Dawson Trucking,127 Valvero Dr,St Charles,MO,63304,314-803-4896
Flyn Z Transport,22299 Sacajawea Rd,Sedalia,MO,65301,816-826-8274
P&l Service,Rt 2 Box 747,Galena,MO,65656,417-357-8325
L B Trucking,2218 Willoughby St,Kennett,MO,63857,314-888-6828
Henry Trucking,9012 Longlake Rd,Richmond,MO,64085,816-776-3160
Ltd Trucking,3776 No State Route A,Maysville,MO,64469,816-449-5852
Dunn Express,3825 S Campbell #129,Springfield,MO,65807,417-725-5491
Clay Trucking,30017 Jefferies Road,Richland,MO,65556,417-286-3901
Heirigs Trucking,Rt 1 Box 1389,Cross Timbers,MO,65634,417-998-6381
Jon Kat Direct Hauling,Highway J,Granby,MO,64844,417-325-6345
K&m Distributing Co,9567 Page Ave,St Louis,MO,63132,314-426-6328
Jerry White Trucking,1495 E 77 Street,Kansas City,MO,64131,816-260-1445
Clements Trucking,Rr 2 Box 96,Bernard,MO,64423,N/A
Papa's Hauling,5501 Neosho Street,St Louis,MO,63109,314-352-7272
S & T Trucking,602 East Park Avenue,Savannah,MO,64485,816-324-3953
Shewmaker Trucking,8402 E 99 St,Kansas City,MO,64134,816-761-9261
Dan Brown Trucking Co,2812 N W Hunter Dr,Blue Springs,MO,64015,816-220-2228
Us Transporting,8458 N State Hwy H,Fair Grove,MO,65648,417-833-8456
Commercial Service,8301 Nw 101st Terr Unit 13,Kansas City,MO,64153,913-831-3422
Afmac,Hwy 65,Mercer,MO,64661,816-382-5900
Martin Trucking,8860 Hwy 14 West,Billings,MO,65610,417-744-2574
Bailey's Mobilehome Movers,3147 Dorman Rd,Festus,MO,63028,314-334-0269
David J Flanary Backhoe & Dump Truck Service,1155 Hungry Hollow Rd,Anderson,MO,64831,417-223-7101
J & W Trucking Services,25615 E 31st Terrace South,Blue Springs,MO,64015,816-228-8448
Tdbs Trucking,306 Frisco,Arbyrd,MO,63821,573-654-2053
"American Auto Sales, Inc.",706 S Scenic,Springield,MO,65802,417-831-3525
Griggs Transportation,1507 Laurel,Kearney,MO,64060,816-229-5791
Hilbilly Hauler,8150 East 1400 Road,Stockton,MO,65785,417-276-3684
Dannie D Mahurin Trucking,Rt 1 Box 52,Drexel,MO,64742,816-267-3462
Chambers Transportation,207 West 11th Street,Portageville,MO,63873,N/A
Show Me Posi-track Equipment Sales & Service,Rt 1 South Highway 65,Sedalia,MO,65301,816-827-2781
Plumlee Trucking,16 Deerfield Dr,Niangua,MO,65713,417-473-6029
Schreiner Trucking,19720 Farm Road 1065,Exeter,MO,65647,417-835-2002
Ricochet Express,Rt 2 Box 2167c,Anderson,MO,64831,417-436-2268
J D Townsend Trucking,116 Glenn Oaks Drive,Labadie,MO,63055,636-451-3483
Red Line Express Freight,Rr #2 Box 176,Bland,MO,65014,573-646-3191
Miller Trucking,303 S Forrest #9,Liberty,MO,64068,816-781-0656
Super Same Day Service,1206 Old Smelter Road,Union,MO,63084,314-583-2300
Jcd Delivery,#70 Cross Keys Shopping Center,Florissant,MO,63033,314-921-1419
Allen Trucking,28995 Holiday Trail,Maryville,MO,64468,660-582-2916
Rawhide Express,Railroad & Hortel,Delta,MO,63744,573-794-2843
Dills Sons Trucking,Rt 1 P O Box 436,Stover,MO,65078,573-377-4266
Westhues Trucking,250 County Road 209,Fayette,MO,65248,573-673-3400
Taylor Trucking,16181 Co Rd 6300,Licking,MO,65542,573-435-9253
Bfh,1810 Craig Rd Ste #113,St Louis,MO,63146,314-878-3916
A & M Trucking,23379 Horizon Road,Lebanon,MO,65536,417-588-4253
Perryman's Tow And Recovery Service,2628 Lister,Kansas City,MO,64127,816-921-9619
Gateway Delivery Service,9201 Kathlyn Dr,St Louis,MO,63134,314-428-8272
K & P Transport,Rt 1 Box 1883,Perryville,MO,63775,573-547-6350
M R Hicks Trucking,Route 5 Box 1043,Poplar Bluff,MO,63901,573-989-6531
Henson Trucking,Route 2 Box 117,Qulin,MO,63961,573-328-1452
Aa Roadrunner,6200 Bermuda,St Louis,MO,63135,314-522-1411
Nothing But Trucks Transport,600 Paseo,Kansas City,MO,64106,816-471-5544
Costley Trucking,905 E 6th Ter,Lamar,MO,64759,417-884-2407
We Transportation,3433 Bryant Botton Rd,Blackwater,MO,65322,816-846-2115
Rhoads Trucking,301 Indiana,Windsor,MO,65360,816-647-2000
Buhler Trucking,319 Grandview Dr,Farmington,MO,63640,573-944-1104
Earl's Drain Oil Service,1900 Walton Road,St Louis,MO,63114,314-427-2662
John Gorrell Trucking,Rr 1 Box 229,Canton,MO,63435,573-288-5901
O'ne-all Services,702a West Street,Harrisonville,MO,64701,816-884-6118
Hogan Trucking,Rt 1 Box 1382,Sarcoxie,MO,64862,417-548-6919
R & J Express,10589 Highway 32,Plato,MO,65552,417-458-4680
James Brown Trucking,257 Oak Rd,Asbury,MO,64832,417-439-6724
Becklenberg Trucking,Hcr 2 Box 54 E,Belle,MO,65013,537-859-3454
L & K Trucking,2338 N Roosevelt,Springfield,MO,65803,417-862-8663
G T Trucking,626 State Highway Ee,Ozark,MO,65721,417-443-2160
Olson Piano Hauling,115 Duquette Ln,Florissant,MO,63033,800-949-6782
Schultz Trucking,212 E 215 Hwy Apt B,Pleasant Hope,MO,65725,417-267-6120
Mac's Service & Tow,1501 N Scott Trailer #11,Belton,MO,64012,816-853-4985
"Available Trucking Company, Inc.",1359 Belrue,St Louis,MO,63133,314-862-4160
John L Cook Trucking,5156 Jessica Lane,Seneca,MO,64865,417-776-8833
L & B Transport,P O Box 693,Advance,MO,63730,573-722-8929
Cbc Trucking,305 W Highway 116,Braymer,MO,64624,N/A
Dykman Trucking,423 South Olive,Butler,MO,64730,660-679-4815
3 Car Carrier,415 Se 850 Rd,Leeton,MO,64761,660-287-0227
D & D Transportation,606 E Main St,Jackson,MO,63755,573-243-6954
T & T Auto Recovery,9513 E 33rd Street,Independence,MO,64052,816-260-3317
D & E Trucking,Rt 1 Box 1823,Shell Knob,MO,65747,417-833-3355
J R Epperson Trucking,Rt 2 Box 2433,Center,MO,63436,573-267-3717
Automan-auto Plaza,10 W 42nd Street,Kansas City,MO,64111,816-561-0033
G And D Express,308 W St Louis,Bland,MO,65014,573-646-5181
T & S Enterprises,200 Hwy 75 South,Anniston,MO,63820,573-649-2881
M & E Trucking,210 East Patterson,Rogersville,MO,65742,417-753-7078
P J's Anytime Tow Service,10134 E Truman Rd,Independence,MO,64052,816-252-4433
First Class Express,6800 Prescher Rd Se,Agency,MO,64401,816-253-9188
J & L Truck Sales,Highway 65 & Rt P,Cole Camp,MO,65325,816-668-2455
Giger Hauling,802 No Elm St,Slater,MO,65349,660-529-9879
Ray E Martin Trucks,4475 County Road 200,Joplin,MO,64801,417-624-9931
Copeland Trucking,2104 N Whitney,Independence,MO,64058,816-257-4950
Hoppy's Appliance Sales,2723 Ivanhoe Avenue,St Louis,MO,63139,314-645-1100
Quik Trucking,219 E Montclair St Apt 3b,Springfield,MO,65807,417-864-5646
All-around Tow Service,509 Nw Us 50 Hwy,Centerview,MO,64019,816-747-2442
Sw Trucking,2125 Campus Drive,St Charles,MO,63301,314-940-0740
A Byers Trucking,4140 Se Paddock Drive,Lees Summit,MO,64082,816-537-4954
T & W Enterprises,10840 Landseer Dr,St Louis,MO,63136,314-869-9603
Glens Texaco Service,10743 Watson Rd,Sunset Hills,MO,63127,314-821-1058
Affordable Moving,1836 S Oronogo Apt 10-b,Webb City,MO,64870,417-782-5690
Wsi,Po Box 34408,North Kansas City,MO,64116,N/A
Lewis Trucking,1139 E Commercial,Springfield,MO,65803,888-835-0442
Mid Am Truck Center,104 West 40 Highway,Bates City,MO,64011,816-690-8643
Metro Tow & Service,3740 East Gregory Blvd,Kansas City,MO,64132,816-523-1575
Classic Finish Auto Sales,9479 Gateway Dr,Neosho,MO,64850,417-451-6129
S Smith & Sons Trucking,311 R D Mize Rd,Grain Valley,MO,64029,816-229-5791
Owens Trucking,4294 Highway Aa,Halfway,MO,65663,417-859-7981
Wilson Trucking,Route 2 Box 6761,Doniphan,MO,63935,573-996-3905
C K C Trucking,443 N W 130th Lane,Liberal,MO,64762,620-724-4763
Yount Trucking,Rt 1 Box 26b,Patterson,MO,63956,573-856-4110
M L T,212 N Nebraska,Rock Port,MO,64482,816-744-2176
Rick Phillips Trucking,Hwy 73-15,Tunas,MO,65764,417-993-5844
Kaci L Trucking,11852 Norway Rd,Neosho,MO,64850,707-342-3542
M Smith & Son Trucking,8103 E 92 Terr,Kansas City,MO,64138,816-763-9506
Blackfoot Transportation,1219 Bismark Street,Concordia,MO,64020,660-463-7396
Tidbros Express,107 Knott St,Jasper,MO,64755,417-394-2812
Wilson Trucking,700 Hastings Dr,Kennett,MO,63857,573-888-0601
Blackfoot Trucking,Rr 1 Box 195,Lexington,MO,64067,816-229-5791
G & L Freight Lines,2880 Hwy 67 South,Farmington,MO,63640,573-756-3090
Lohman Wrecker Service & Undertow,414 Old Sugar Crk Rd,Fenton,MO,63026,636-343-6460
Danny Wallman Custom Hauling,2105 Ridge Road,Jackson,MO,63755,573-204-0472
Charlie Slaughter Livestock Hauling,Rr 1 Box 196,Princeton,MO,64673,660-748-4160
Lucy D Trucking,507 S Martin,East Prairie,MO,63845,573-649-2908
Countryside Trucks,Hwy 13 South Stoneridge,Reeds Spring,MO,65737,417-739-1630
B&b Express Trucking,1814 Partridge Drive,Imperial,MO,63052,314-464-9838
R & S Trucking,5209 Newton Rd,Mansfield,MO,65704,417-859-7981
L D Harris & Son Trucking Co,2922 Bales Avenue,Kansas City,MO,64128,816-896-1579
Dean & Nancy Vaughn Livestock Trans,Rr 1,Paris,MO,65275,816-327-5773
Lombard Trucking,Po Box 297,Wheaton,MO,64874,417-236-4664
Dean And Nancy Vaughn Livestock Transportaion,52878 Hwy A,New London,MO,63459,573-985-3296
Kelly Wirths Trucking,2571 Doc Ridgeway Drive,Macks Creek,MO,65786,573-363-0062
Edwards Trucking,2404 El Tivoli Drive,St Joseph,MO,64507,816-671-1705
Spfld Scale Service,447 W Mill St,Republic,MO,65738,417-732-8861
Total Freight Services,4793 Pelican Road,Diamond,MO,64840,417-438-7114
Scott City Wide Delivery,511 Stacey Drive,Belton,MO,64012,816-322-3010
Kim Kho Delivery,3405 Sw Park Lane,Blue Springs,MO,64015,816-220-1573
Michael & Sons Trucking,Route 1 Box 855,Portageville,MO,63873,573-643-2943
Will's Wheels Zipp Express,1106 Mackay Place,St Louis,MO,63104,314-460-8714
Ed Drillon Trucking,Rr1 Box 26aa,Luray,MO,63453,660-866-2293
Stewart Trucking,4313 E 20th St,Joplin,MO,64801,417-624-8711
West Central Delivery,7 East Black,Marshall,MO,65340,660-886-2815
Edwards' Mobile Home Transporting,15305 Hwy 28,Dixon,MO,65459,573-759-2346
Special Products Transportation LLC,#3 Santa Anita,St Peters,MO,63376,314-278-1758
One Hour Delivery Service,1100 Main St #205,Kansas City,MO,64105,816-460-5000
Harlan Transport,1419 Forest St,Carthage,MO,64836,417-358-7040
Binney Trucking,737 Limestone,Carthage,MO,64836,417-358-6224
Allright Trucking,16000 E Kentucky,Independence,MO,64050,816-254-4488
Hamp's Hauling,Rt 3 Box 224,Lockwood,MO,65682,417-232-5153
Rockhill Tractor Service,1617 Norwood,Independence,MO,64052,816-456-2491
Bloom's Transport,Hcr 1 Box 16-11,Aurora,MO,65605,417-574-6949
Jerry Smith Trucking,7235 N W Lingley Rd,Parkville,MO,64152,479-466-9216
J M Auto,404 Walnut St,Eagleville,MO,64442,660-867-5182
Tsp Trucking,215 South Main,Kennett,MO,63857,573-888-5554
Earls Mobile Home Service,Rt 1 Box 39,Peace Valley,MO,65788,417-277-5451
Jaws Vending Service,414 Oak Hill Dr,Lake Saint Louis,MO,63367,314-561-6805
Three D Trucking,5513 Fox Hollow,Norwood,MO,65717,417-926-2361
Winders Trucking,1603 Chapel Lane,Harrisonville,MO,64701,816-380-2895
Kodiak Trucking Company,Route 7 Box 440,Joplin,MO,64801,417-624-1953
Trinity Transfer,17298 Hideaway Rd,Carthage,MO,64836,417-358-9447
Vandiver Agri Services,25585 State Hwy 153,Holcomb,MO,63852,573-792-3507
Cramer's Trucking Co,R #3 134 M,Cole Camp,MO,65325,N/A
Pickup Delivery Express,1207 Aspen Drive,Smithville,MO,64089,816-532-8841
Cobb's Mobile Home Service,2225 Empire Avenue,Joplin,MO,64804,417-781-3031
Doc & Max Edwards Trucking,Rr2 Box 870,Campbell,MO,63933,573-246-2114
Flanagan Trucking LLC,705 Rock Street,Weston,MO,64098,816-640-2235
Hinkle Trucking,1 Humes Rd,Weston,MO,64098,816-640-3221
Maddox Auto Transport,517 Ne Fernwood Cir,Lees Summit,MO,64063,816-554-8462
J S S Trucking,24803 Farm Road 1005,Washburn,MO,65772,417-826-1061
Midwest Auto Relocation Specialists,20905 East 15th,Independence,MO,64057,816-796-0567
Rgw Auto,205 West Ivy,Oronogo,MO,64855,417-673-5996
Martin's Transport,6224 N Mercier,Kansas City,MO,64118,816-587-1512
Lou's Mobile Home Moving,Hcr Box 161 Cc,Sullivan,MO,63080,314-274-1674
Global,818 Grand Floor 9s Suite 20,Kansas City,MO,64106,816-474-7777
Poor Boy Dump Trucking,Hcr 2 B0x 479 A,Squires,MO,65755,417-265-3769
Denny Livingston Trucking,22221 River Ridge,Peculiar,MO,64078,816-779-4030
Jay T Taylor Trucking,320 W Main Street,Bowling Green,MO,63334,573-324-6045
J And H Sons Trucking,2930 Abrolat Rd,Wright City,MO,63390,473-356-1288
K & L Transport,Rr 1 Box 110 B,Richards,MO,64778,417-667-9400
J D Transportation,4338 Indiana,Kansas City,MO,64130,816-808-6461
Sassi Express,103 W Commerical,Pierce City,MO,65723,417-736-2238
Stanley P Holder Trucking,Route 6 Box 6050,Poplar Bluff,MO,63901,573-778-6965
Union Express Delivery,125 Oak Grove School Rd,Union,MO,63084,636-583-6970
Rod W Jackson Trucking,30069 East State Hwy Cc,Ridgeway,MO,64481,660-824-4133
Brush Reduction Services,11000 E 49th Street,Kansas City,MO,64133,816-358-5837
Duncan Transportation,Hc3 Box 3778,Wappapello,MO,63966,573-222-7916
Shockey Trucking,513 S Orchard,Clinton,MO,64735,660-924-3608
B & T Farms,7764 Co Rd 2770,West Plains,MO,65775,417-257-0007
T & R Trucking,Davis Street,Braggadocio,MO,63826,573-757-6938
Craters & Freighters,613 Nw Business Park Lane,Riverside,MO,64150,816-505-2223
D & D Deliveries,2709 Yaeger Rd,St Louis,MO,63129,314-416-7020
Bill Poppe Farms,1215 Hwy J,Philadelphia,MO,63463,660-439-5429
I-55 Service,4553 S Broadway,St Louis,MO,63111,314-352-0404
M & M Trucking,750 County Rd 7740,Bakersfield,MO,65609,820-258-3450
Wm Morgan Trucking,Rt 2 Box 2430,Sedgewickville,MO,63781,573-334-8752
Martin Transportation,2117 Seven Oaks Dr,St Charles,MO,63303,636-447-4452
Jimmy Frederick Trucking,5500 Briarwood Court,St Joseph,MO,64503,N/A
Apex Automotive Core Supply,#4 Woodchase #48,Farmington,MO,63640,573-760-9005
Bo Mitchell Trucking,219 Mccollum St,Steele,MO,63877,573-695-2548
Ivey Transport,2391 Forest Lane,Arnold,MO,63010,636-282-1760
The Produce Pro's,3914 Meramec,St Louis,MO,63116,314-481-8481
Dunnigan Truck Line,7180 Calvery Creek Rd,Dittmer,MO,63023,636-285-1945
Chris G Harmon Auto & Equipment,12467 State Hwy Y,Potosi,MO,63664,573-244-3300
A & D Trucking,3635 Blackfoot Hollow Rd,Anderson,MO,64831,417-845-2682
Jlc Trucking,1111 Washington St Apt 11,Weston,MO,64098,816-640-2376
Jd's Transport,R 2 Box 884 P,Marshfield,MO,65706,417-859-2295
Stafford & Co,10417 South Thompson Road,Lees Summit,MO,64086,816-578-4325
Double G Trucking,8 Miles N Of 49 On Hwy A,Williamsville,MO,63967,573-998-2118
Thurman Trucking,513 Hwy 162 East,Clarkton,MO,63837,573-281-0523
Smith Trucking,880 County Rd 404,Fayette,MO,65248,816-248-2416
We Haul It,7401 E 117th Terrace,Kansas City,MO,64134,816-966-8552
Allen Trucking,Rt 2 Box 170a,Lincoln,MO,65338,660-668-4403
Keep It Clean Trash Service,299 Iowa,St Joseph,MO,64503,816-233-4147
Stephens Transport,Rt #1 Box 690,Bismarck,MO,63624,573-734-6518
Shaw's Custom Hauling,R #1 Box 147,Myrtle,MO,65778,417-938-4120
Thompson Trucking,Hwy Ww Cr 234,Sedgewickville,MO,63781,573-866-2306
Gary Osborn Trucking,19627 C R 221,Union Star,MO,64494,816-593-2524
Busick's Truckin,1409 Westminister,Blue Springs,MO,64014,816-224-6151
B H Trucking,Route 1,Portageville,MO,63873,573-391-0221
B & D Trucking,22473 State Hwy E,Bloomfield,MO,63825,573-568-2640
Double Tt Trucking,9799 East Bannister,Kansas City,MO,64134,816-761-1751
Courier Express Company,3002 B E Division Street,Springfield,MO,65802,417-864-4031
J Winfrey Trucking,15120 Edison Road,Lebanon,MO,65536,417-532-4247
S B & J Hot Shots And Transport,2749 Cape Town Drive,High Ridge,MO,63049,417-453-6358
Barrett's Delivery,3319 Aitch Rd,Union,MO,63084,314-629-1641
Automobile Dealer,2505 East Malone,Sikeston,MO,63801,573-471-4515
B & P Transport,1204 Brookside Drive,Joplin,MO,64804,N/A
Mule Train Express,4006 Rust Road,Grain Valley,MO,64029,816-224-3768
S D & K Trucking,18719 Garden Aveune,Belton,MO,64012,816-322-5937
A-1 Courier Service,707 Sw 37th St,Blue Springs,MO,64015,816-228-4283
T C Services,3498 Ludlow,Bridgeton,MO,63044,314-298-1443
Scheller Trucking,Route 2 Box 261,Crane,MO,65633,417-723-8454
Mcdowell Trucking,407 Dell Street,Strafford,MO,65757,417-736-2407
Robert Rother Trucking,524 Elm St,Maitland,MO,64466,660-935-2288
Delta Transport,127b Kate,Sikeston,MO,63801,573-471-4258
Miller Trucking,136 Main St,Allendale,MO,64420,660-786-2268
Sims Tow Service,7207 Tracy,Kansas City,MO,64131,816-841-0300
Ryoss Communication Services,1201 North Main St,Higginsville,MO,64037,660-584-6265
K N Trucking,403 E Nodaway,Skidmore,MO,64487,660-928-3411
Gt Express,1012 Cottonwood Court,Troy,MO,63379,314-528-2730
Bockerstette Overhead Door Service,9890 Township Lane,Dittmer,MO,63023,314-984-9441
T & G Transportation,3040 Manchester Trafficway,Kansas City,MO,64129,816-924-0188
Larry's Auto Service,1435 W Ashley,Boonville,MO,65233,660-882-7771
Hatfield Transportation Intermediaries,Rr 1 Box 38,Hatfield,MO,64458,606-845-2442
Miller Transit,105 East Main Street,Warrenton,MO,63383,314-456-1997
Mid-lakes Express,3240 S Dayton Ave,Springfield,MO,65807,417-883-7068
S & D Farms,7168 Old Hwy 60,Norwood,MO,65717,417-746-4910
Mt Vernon Transportation,Rt 3 Box 160c,Mt Vernon,MO,65712,N/A
Elite Auto Recovery,8109 East 92nd Terrace,Kansas City,MO,64133,816-765-0211
Lynn Trucking,1623 Seneca Ave,Seneca,MO,64865,417-776-8476
Buckwalter Trucking,18424 St Hwy 156,Ewing,MO,63440,573-494-3545
Jim King Trucking,402 High Street,Westboro,MO,64498,660-984-5514
Pardner Trucking,8053 North Farm Road 193,Fair Grove,MO,65648,417-833-0430
Charles M Smith Trucking,Rr 1 Box 1236a,Pineville,MO,64856,417-435-2632
D D E T & F Trucking,Rt 1 Box 56,Holliday,MO,65258,660-266-3239
Hagen Trucking,32051 County Rd 6310,Edgar Springs,MO,65462,573-435-9471
Asap Hauling,117 Kevin,Excelsior Springs,MO,64024,816-630-5688
The Auto Shoppe,14460 Bethel Road,Platte City,MO,64079,816-464-2011
B & A Transport,7926 Local Hillsboro Road,Cedar Hill,MO,63016,314-274-1953
Ruddock Trucking,211 S Sycamore,Carrollton,MO,64633,660-542-1787
Midland Auto And Tire,1660 Pattern,St Louis,MO,63138,314-890-9260
Cspi,805 Stadium Blvd West,Jefferson City,MO,65109,573-635-1281
Stds Trucking,10372 State Hwy W,Elkland,MO,65644,417-859-4721
Huffman Transport,608 N Main,Braymer,MO,64624,660-645-2145
Scott Coe Mobile Home Movers,11074 Iris Rd,Neosho,MO,64850,417-451-7498
Goodwin Transportation,Route 2 Box 2414h,Pineville,MO,64856,N/A
Guthrie Trucking,2 Hwy Hc3 3881,Wappappello,MO,63966,573-222-9761
Redmond Trucking,578 Co Rd 537,Poplar Bluff,MO,63901,573-785-2106
Shady Oaks Transportation,1011 N Fulbright Ave,Springfield,MO,65802,417-868-8881
M & M Trucking,715 E Highland,Nevada,MO,64772,417-667-8193
Tom Ice Transport,807 East 13th Street,Mountain Grove,MO,65711,417-926-9496
Pawlak Dirt Service,900 E Durward Hall Drive,Carthage,MO,64836,417-358-9771
Mts,Rr 3 Box 157,Moberly,MO,65270,660-269-8620
Wooten Trucking,610 Green Street,Fairfax,MO,64446,660-686-2558
R W Trucking,601 Illinois Ave,St Joseph,MO,64504,816-239-3038
Wilson Transportation Service,1461 N E Gould Farm Rd,Cowgill,MO,64637,816-583-2397
Monroe Trucking Co,2020 Victory Way,St Louis,MO,63138,314-355-2598
Ray & Ray Trucking,8650 I-70 Dr Se,Columbia,MO,65201,573-814-2500
B&m Stage Productions,5900 North Tower Drive Ste G,Columbia,MO,65202,573-443-0664
Interstate Brands Corporation,12 East Armour Boulevard,Kansas City,MO,64111,816-502-4000
M & D Trucking,7412 E 160th Terrace,Belton,MO,64012,816-322-4083
Ntc,12256 Wildlife Rd,Neosho,MO,64850,417-451-4628
Bahr Trucking,17 Lake Superior Drive,St Peters,MO,63376,636-926-3613
Jadwin Classic Transportation,Hwy 32-72 6 Miles West Salem,Salem,MO,65560,573-729-5077
Scott Trucking,19915 Lakeview Drive,Advance,MO,63730,573-722-5128
Wilkerson Transportation,1818 N Highway B,Bertrand,MO,63823,573-683-4808
Two Men And A Truck,1204 Nw Woods Chapel Road,Blue Springs,MO,64015,816-228-4747
Thornburg Transportation,3610 South Holiday Avenue,Springfield,MO,65807,417-860-0408
David Sissum Trucking,Hwy T,Wappapello,MO,63966,573-222-3796
Chm Transport,9096 Gum Road,Carthage,MO,64836,417-237-0702
Tcb Transport,617 W Walter Lane,St Joseph,MO,64504,816-238-1384
E W Trucking,368 Huntley Lane,Noel,MO,64854,417-475-6996
Buford Express,1117 Harold St,Cassville,MO,65625,417-847-5381
Elite Trucking,3524 Norton,Kansas City,MO,64128,816-224-5170
Zach Sims Trucking,108 E Broadway,Brunswick,MO,65236,660-548-3116
Show Me Transporters,1312 State Hwy H,Sikeston,MO,63801,573-471-8029
"Jsg, Inc. Wholesale Grocery Distributors",905 Forest Avenue,St Louis,MO,63088,314-225-9110
Onshore Transportation,401 Nw Essex Drive,Lees Summit,MO,64081,816-525-8503
Hall's Auto Sales,100 S 3rd,Hayti,MO,63851,573-359-1957
Dj Trucking,24570 Seattle Rd,Waynesville,MO,65583,573-774-5778
Zimmerman Hauling & Repair,3183 S Laura,Maryville,MO,64468,660-582-5218
B-c Haulers,9019 Beach Road,French Village,MO,63036,573-358-5453
Lakeside Marine Transport,378 Highline Rd,Lake Ozark,MO,65049,573-365-5023
Complete Mobile Office Services,588 Nantucket Pointe Drive,Grover,MO,63040,314-458-6015
Stone Trucking,657 S W Vv Hwy,Deepwater,MO,64740,816-696-2570
Allegheny Transportation,24212 Raleigh Road,Waynesville,MO,65583,573-774-6501
Pencook Trucking,2107 Wood Oak Road,Richmond,MO,64085,816-470-5711
Paxton Trucking,Rr 2 Box 366,Adrian,MO,64720,660-679-5417
United Earthmovers,143108 East 42nd Street,Independence,MO,64055,334-433-4111
Leslie Thrasher Trucking,Route 1 Box 83,Clarence,MO,63437,N/A
M & S Trucking,135 Cochise Lane,Jackson,MO,63755,573-243-9232
Ranco Trucking,Mo Hwy 86 W & 39,Car Lane,MO,65747,417-739-2224
Central Services,5006 N W Waukomis Drive,Northmoore,MO,64151,816-455-4022
Thompson Service Co,12903 Southeast Highway A,Faucett,MO,64448,816-238-8535
Katlee Trucking,222 Broadmoor Drive,Raymore,MO,64083,816-322-4341
Shafers Trucking And Excavating,210 South Baker Street,Orongo,MO,64855,417-673-5709
Lee Dan Trucking,Rt 2 Box 146,Sweet Springs,MO,65351,660-335-6626
Hafer's Oazark Transport,118 N Commercial St,Branson,MO,65616,417-337-8999
Warren Trucking,100 W Market Street Apt 1,Dexter,MO,63841,573-624-4345
Triple C Trucking,111 East Loyal Lane,Clever,MO,65631,417-743-0454
Prn Trucking Co,19500 Ne 128th,Kearney,MO,64060,816-628-3684
L G W Trucking,1070 S Market,Springfield,MO,65807,417-863-6729
Clayton Trucking,13690 Private Drive 8114,Rolla,MO,65401,573-308-1797
Doc's Hauling & Clean Up,2432 S Glenwood,Independence,MO,64052,816-254-8988
S & S Trucking,307 E Union St,Cardwell,MO,63829,573-888-4461
David L Guffey Jr Trucking,14838 County Road 79770,Bakersfield,MO,65609,N/A
Home On The Move,26445 Kenworth Lane,Carl Junction,MO,64834,417-649-4663
Dave Foley Trucking,4525 Se 550 Rd,Collins,MO,64738,417-275-4867
Sam R Boston Trucking,13210 S 71 Hwy,Grandview,MO,64030,816-765-0588
A-plus Services,8930 N Brostrom,Parkville,MO,64152,816-741-6070
Morrow Trucking,Rt 1 Box 124a,Nevada,MO,64772,417-667-5248
Big M Hauling,2579 Rock Hill Ind Ct,St Louis,MO,63144,314-962-5100
B Line Trucking,807 S Windsor,Windsor,MO,65360,660-647-2959
Joe S Bowen T & T,19790 Hwy 59,Neosho,MO,64850,417-592-5715
Campbell Trucking,214 Highway J,Montgomery City,MO,63361,573-220-4807
Ruby Express,108 Highway Cc,Elsberry,MO,63343,573-898-5566
Flash Gordon Express,1901 Dodier,St Louis,MO,63107,314-241-9132
Farmer Bob's Farm Service,2649 State Road Aa,Holts Summit,MO,65043,573-896-5616
Southwest Express,2642 W Elm,Springfield,MO,65806,417-832-7255
Gibson Trucking,2023 Mariner Road,Trenton,MO,63683,660-359-3441
Ray Richardson Trucking,C R 517,Hardenville,MO,65666,417-679-4710
Bob Carroll & Son Trucking,5101 E 42nd Street,Kansas City,MO,64130,816-924-3489
The Auto Chase,10926 State Hwy 25,Dexter,MO,63841,573-624-7839
Cannon Trucking Co,8328 Harris,Raytown,MO,64138,816-356-4814
Robert J Fulson Trucking,1012 W 96th Terr,Kansas City,MO,64114,816-444-0945
Frasier Trucking,1704 Roberta Drive,Raymore,MO,64083,816-322-5207
Samples Trucking,16177 State Hwy J,Campbell,MO,63933,573-276-6691
Glidewell Trucking,1110 Swanlake Dr,Hayti,MO,63851,573-359-0514
Mince Trucking,Po Box 3,East Prairie,MO,63845,573-649-3936
Jones Trucking,411 North Water,Butler,MO,64730,660-679-4514
Brookman Trucking,1895 Industrial Drive,Neosho,MO,64850,417-451-4182
Jan Richards Trucking,1235 S Kingshighway,Cape Girardeau,MO,63703,573-339-0147
Three Strike's Trucking,51044 Hwy C,Center,MO,63436,573-267-3004
D & C Trucking,1758 Hwy 17,Iberia,MO,65486,573-793-6843
Lakewood Carriers,14 W Hadley St,Aurora,MO,65605,417-393-9114
"Robo Trucking Co, Inc.",P O Box 270675,Kansas City,MO,64127,913-621-6088
"Advanced Transport, Inc.",1187 S Hwy 79,Winfield,MO,63389,636-668-6331
Flying K Express,5837 Westcliffe Dr,St Louis,MO,63129,314-578-3550
Big D's Trucking,3410 Wayne Avenue,Kansas City,MO,64109,816-924-5188
Millsap Backhoe Service,26017 S Stark Rd,Peculiar,MO,64078,816-380-2468
Going Your Way Custom Transportation Services,25716 E 31st Terr,Blue Springs,MO,64015,800-903-3361
Chestnut Transportation,5001 Hwy P,Flinthill,MO,63346,314-332-5233
Hensley Transport,4103 State Hwy 77,Benton,MO,63736,573-545-9170
J & W Trucking,Rt 2 Box 329c,Aurora,MO,65605,417-678-5017
Bill Bemis Trucking,3 B Pinecrest Dr,Booneville,MO,65233,660-351-6628
Papers Unlimited,1402 Westbrooke Meadows Lane,St Louis,MO,63021,636-861-9607
Rooster Trucking,6925 Hwy Zz,Bucyrus,MO,65444,417-967-3937
Zykan Waste Services,13539 Northwest Industrial Dr,Bridgeton,MO,63044,314-298-9999
Sumler Moving,13124 5th Street,Grandview,MO,64030,816-765-1389
Amburgy Trucking,2475 Hwy Ah,Union,MO,63084,636-629-4461
Hot Shot Trucking,Rt 1 Box 417,Goodman,MO,64843,417-775-2304
A R S Trucking,2806 Monroe,Kansas City,MO,64128,816-923-2477
Box L Auto Transport,Rt 3 Box 67-1,Ava,MO,65608,417-683-1983
Mikel Tague Trucking,Corner Of State & Jackson,Gorin,MO,63543,660-341-9840
Midwest Mulch Mfg,3000 Pioneer Street,Kansas City,MO,64146,816-943-9990
Aa Trucking & Transport,30801 Clement Rd,Harrisonville,MO,64701,816-738-1964
Great American Flatbed Service,513 S Lincoln,Strafford,MO,65663,417-736-9508
"Elliott Contracting, Inc.",6419 E 35th Street,Kansas City,MO,64129,816-921-7800
B & B Trucking,321 N Farm Rd 193,Springfield,MO,65802,417-865-5395
Show Time Tow Service LLC,3800 N W Hidden Pointe Drive,Blue Springs,MO,64015,816-228-6100
Mcgarrity Trucking,Hcr 3 Box 10,Ellsinore,MO,63937,573-322-9515
Steelman Trucking,7888 Hwy O,Odessa,MO,64076,816-230-8335
P Ridge Hauler,14500 Hwy O,Dixon,MO,65459,573-759-3801
Adair Express,121 S Prairie Rose,Smithville,MO,64089,816-532-3828
Archer Trucking,310 E Springfield,St Clair,MO,63077,636-274-2793
Charlie B's Auto Repair,120 W 31st,Independence,MO,64055,816-254-7170
Lipscomb Trucking,14795 Oak Grove School Rd,Harrisburg,MO,65256,573-875-5897
Ellis Transport,2345 1/2 West Kearney,Springfield,MO,65803,417-866-6622
Schieni Truck Service,33628 Brummal Rd,Salisbury,MO,65281,660-388-5585
Vencill Trucking,South Street At Corner Of Elm,Galt,MO,64641,816-673-6740
Ward's Truck Service,7208 I-70 Drive Southeast,Columbia,MO,65201,314-474-4114
Relo Moving Systems,10899 Indian Head Industrial Blvd,St Louis,MO,63132,314-426-6700
John W Henderson Trucking,91 South Clay Morgan Drive,East Prairie,MO,63845,573-649-9595
Baggs Truck Line,Rr 1 Box 99a,Bogard,MO,64622,816-731-5312
Junior Depriest Trucking Co,Hc 3 Box 25,Birch Tree,MO,65438,573-292-3549
Taylor Trucking,30284 U S Highway 71,Maryville,MO,64468,660-582-8806
Dameron Trucking,25582 Hwy 161,New Hartford,MO,63359,573-669-5696
Produce Carriers Service,526 Impala Dr,Hazelwood,MO,63042,N/A
Conner's Express,1350 Springfield Road,Lebanon,MO,65536,417-532-9773
Teeple Trucking,603 Jefferson,Versailles,MO,65084,573-314-4552
"Chaffee Leasing Co, Inc.",101 East Main,Scott City,MO,63780,314-334-6124
Jim Henderson Trkg,2973 S Hwy 105,East Prarie,MO,63845,573-649-2216
"F & F, Inc.",100 Whitney,Gower,MO,64454,816-424-3636
Coatney Trucking Co,20406 Hwy Vv,Wentworth,MO,64873,918-786-9894
Jeff & Vicky Ummel,Rd 5 2/10 E Of Hwy 37,Reeds,MO,64859,417-358-9764
Clifford Cossey Trucking,Hwy D South,Oak Ridge,MO,63769,314-266-3507
Wilson Auto Crushing,Highway 0 North Of 50 Highway,Sedalia,MO,65301,816-827-6010
F & H Express,4645-47 Lebourget,Berkeley,MO,63051,N/A
Whalen Truck Service,6675 State Rd T,Auxvasse,MO,65231,573-386-2621
Mike Waltemath Trucking,4964 450th St,King City,MO,64463,660-535-6197
E D Ruff Trucking,1529 S 14th St,Bethany,MO,64424,816-425-8139
G B L Freight,2880 Us Highway 67,Farmington,MO,63640,314-756-1985
