Company Name,Street Address,Address Locality,Address Region,Postal Code,Telephone
Greenes Distribution,111 Cemetary Road,Haverhill,NH,03765,603-989-5940
La Valley Northern Services,13 Jackson St,Hillsboro,NH,03244,603-660-2700
Bs Unlimited,261 Dartmouth College Highway,Lebanon,NH,03766,603-448-9798
Stiles Fuel Company,308 Riverside Drive,Littleton,NH,03561,603-444-8839
Dotter And Son Transportation,147 Scruton Pond Rd,Barrington,NH,03825,603-664-5383
Kmg Gutter Service,381 Whitehall Road,Hooksett,NH,03106,603-396-6246
Melzer Mountain Transport,94 Driscoll Road,Deering,NH,03244,603-361-1860
Midnight Express,97 Old Francestown Rd,Weare,NH,03281,603-529-1158
R&k Trucking,1980 Rt 175,Thornton,NH,03223,603-520-7016
Hudon Transportation,10 Bartley Hill Rd,Londonderry,NH,03053,603-289-9894
C N D Car Carrier,3mcilvin Street Unit D,Manchester,NH,03103,603-623-5271
Arbies Team Transport,307 A Commerce Way Unit 13,Pembroke,NH,03275,603-724-1943
Alturk Freight Transportation LLC,82 Karatzas Ave,Manchester,NH,03104,603-858-5895
Hp Hood Home Delivery,275 Walton Rd,Seabrook,NH,03874,603-474-9888
Ken Bean Distributors LLC,121 Lafayette Rd Box 5,North Hampton,NH,03862,603-379-1084
Malone Trucking,44 Bethlehem Road,Whitefield,NH,03598,603-837-3353
Seacoast Propane Services LLC,2 Winchester St,Portsmouth,NH,03801,603-817-3624
H J P Trucking,8 North Pembroke Rd Apt2,Pembroke,NH,03275,603-210-1015
DiLLCo Transprotation LLC,11 Duquette St,Rochester,NH,03867,603-767-8488
Reprise Limousine,67b Route 27,Brentwood,NH,03833,603-770-9091
Travis C Alex,221 Central Avenue,Dover,NH,03820,603-742-9707
Mannys Trucking,23 Lincoln Ave,Nashua,NH,03060,603-889-8900
I'm The Cheapest Move4rs,261 Main Street,Somersworth,NH,03878,603-692-5544
Deer Bed Acres Trucking,176 Eastern Corner Rd.,Campton,NH,03223,603-536-3567
Jcm Auto Repair,10 Dunn Ave,Campton,NH,03223,603-726-5111
Seal Tight Trucking,26 Brook St,Manchester,NH,03104,603-203-0778
M S B Transport,70 Brook Road,Orford,NH,03777,603-353-9335
Lbp Trucking LLC,244 Pinkham Rd,Middleton,NH,03887,603-839-0024
Ouellette Excavation & Trucking LLC,16 Corliss Dr,Weare,NH,03281,603-714-4582
Have Trailer Will Travel,54 Lyndeborough Rd,Amherst,NH,03031,603-249-9559
Vlc Trucking,107 Palm St #1,Nashua,NH,03060,603-966-5221
Do It Wright Construction & Trucking,117 Harriman Road,Dalton,NH,03598,603-444-2331
Pennock Appliance,97 Main Street,Littleton,NH,03561,603-444-5833
Draper Trucking,1200 Rt 12a,Plainfield,NH,03781,617-212-4263
Miller Auto Group,13 Labombard Rd,Lebanon,NH,03766,603-448-3770
Great American Food Service,14 Longwood Ave,Londonderry,NH,03053,603-231-8250
Harolds Automotive,182 Old Turnpike Road,Nottingham,NH,03290,603-942-5064
Eagles Lair Hauling,24 Farmer Dr,Gilford,NH,03249,603-528-2105
R Bonnell Trucking,133 Mount Delight Rd,Deerfield,NH,03037,603-463-7266
Double G Trucking,43 Old Chesterfield Road,Hinsdale,NH,03451,603-336-5845
New England Bread Service,3 Greentrees Drive,Hudson,NH,03051,603-886-3507
Dnt Trucking,496 Calef Highway,Lee,NH,03824,603-396-5528
James Larson Trucking,31 Hillside Avenue,Derry,NH,03038,603-432-7510
East Coast Drill & Equipment Repair,231 Troy Road,Marlborough,NH,03455,802-236-5401
Advanced Environmental Services LLC,18 Poor Richards Drive,Bow,NH,03304,603-228-1977
Lockehaven Farm,348 Lockehaven Road,Enfield,NH,03748,603-632-7089
Barrington Septic Service And Northeast Party Potties,188 Wakefield Road,Union,NH,03887,800-462-6272
Residential Door Services,4 Little Falls Rd,Rochester,NH,03866,603-332-2548
Dt Xpress Trucking,62 Walker Road,Center Barnstead,NH,03225,603-608-5038
Profile Appliance Service,119 Turner St,Bethlehem,NH,03574,603-444-0404
Kenney Automotive,9 Highland St,East Rochester,NH,03868,603-330-3016
Nightingale Hauling,165 Savageville Rd,Lisbon,NH,03585,603-838-6155
Thomas Fitzgerald Transport & Recovery,2 Brown Rd,Deerfield,NH,03037,603-490-9982
S & F Transport,460 Main St Apt A,Sandown,NH,03873,978-375-5442
L & M Automotive,768 Us Rt 10,Lempster,NH,03280,603-863-3100
Dwight Youngs Trucking,145 Indian Pond Road,Piermont,NH,03779,603-272-4302
Steves Septic Service,161 Timber Swamp Road,Hampton,NH,03842,603-231-4359
M&k Trucking LLC,143 Rt 10,Piermont,NH,03779,603-272-4973
A M G Transport,125 English Village Road,Manchester,NH,03102,603-264-7813
Forever Auto,47 Victoria St,Keene,NH,03431,603-499-5539
Nws Transportation,4 Woodhill Village,Henniker,NH,03242,603-660-2757
Greenfield Express,47 Sawmill Rd,Greenfield,NH,03047,603-547-2209
Precision Heat Natures Way,20 Main Street,Ashuelot,NH,03441,603-239-7007
Lewis Oil Company,5 Hill Avenue,Colebrook,NH,03576,603-237-8311
Maguire Home Services,36 Haverhill Road,East Kingston,NH,03827,603-347-1288
Jmr Enterprises,Lot 1 Hancock Road,Canterbury,NH,03224,603-520-8030
Kenney's Garage & Autobody,107 High Street,Boscawen,NH,03303,603-796-2484
Soil Away Cleaning Service,5 Eastpoint Drive Suite 11,Hooksett,NH,03106,603-641-6555
Vehicle Management Remarketing,4 Hemlock Street,Hillsborough,NH,03244,603-464-6575
Paul Cleveland Trucking,45 Hutchinson Rd,Colebrook,NH,03576,603-237-8349
"Grimards Auto Sales & Service, Inc.",4 Londonderry Turnpike,Hooksett,NH,03106,603-622-5961
Mobile Hydraulic Services,40 Reservoir Road,Plymouth,NH,03264,603-536-6381
Toyota Of Nashua,10 Marmon Dr,Nashua,NH,03060,603-888-3555
Moody's Trucking,2 Skylark Drive,Derry,NH,03038,978-230-3024
One Stop Home Repairs And Services LLC,67 Lannan Dr,Pelham,NH,03076,603-479-2607
Racing Limos Of Nh West,27 Strawberry Ln,Raymond,NH,03077,603-505-7245
Crows Flight Transportation,235 Agnes St Apt 306,Manchester,NH,03102,617-686-3191
Nelson Sterling Transport,18 Highland Avenue,Sandown,NH,03873,603-489-3140
Mountain Ram Express,586 Hundred Acre Wood,Bristol,NH,03222,603-254-6807
Professional Moving Services,128 South Main Street,West Lebanon,NH,03784,603-448-0015
Jared Hamel Trucking,62 Reservoir Road,Weare,NH,03281,603-765-9647
Affordbale Moving,277 Old Walpole Road,Keene,NH,03431,603-357-1926
Gould Crane Service,1031 River Road,Weare,NH,03281,603-647-8709
Ponchak Trucking LLC,7 Harrison Ave,Rochester,NH,03867,603-817-8938
Ajc Enterprises,67 Milliken Road,Jaffrey,NH,03452,603-966-7672
Spankys Trucking,52 Garland Rd,Nottingham,NH,03290,603-670-5265
Triple H Hauling,348 Maplewood Avenue,Portsmouth,NH,03801,603-431-1218
Truck & Parts Of New England LLC,7 Dolly Lane,Rindge,NH,03461,603-899-2000
Ja Be International LLC,119 Bypass 28,Derry,NH,03038,603-300-8104
"Moriarty Motor Transport, Inc.",9 Michael Circle,Sandown,NH,03873,603-974-0090
T A Trucking,Salt Shed Road,Charlestown,NH,03603,603-543-1466
Ironhorse Log Trucking,382 Rte 120,Cornish Flat,NH,03746,603-469-3227
Rocky's Dairy Products,24 Rollins Road,Alton,NH,03810,603-293-4433
Roto-rooter,214 Mountain Rd,West Chesterfield,NH,03466,603-256-3023
Aamco Transmissions,792 Gold St,Manchester,NH,03103,603-836-5330
Jvh Trucking LLC,565 Second Crown Point Road,Strafford,NH,03884,603-817-5652
Jeffrey Remillard Heavy Hauling,11 Jennifer Lane,Weare,NH,03281,603-529-0234
Conway Property Maintenance,42 Woodland Acres Rd,Eaton Ctr,NH,03832,603-447-2007
Michael Mondou Building Services LLC,69 Sampson Road,Rochester,NH,03867,603-332-2310
C Hill Trucking,238 Goose Pond Rd,Canaan,NH,03741,603-632-4773
Cricket's Trucking,156 Bullock Road,Richmond,NH,03470,603-239-7586
T K Auto Sales,29 N Main Street,Boscawen,NH,03303,603-753-8785
The 8 J's Enterprise,11 Oakdale Avenue,Nashua,NH,03062,603-891-2764
Vernay Moving & Storage Vernay Van Lines,15 A Interstate Dr,Somersworth,NH,03878,603-749-2333
Snell's Trucking,621 Stockbridge Corner Rd,Alton,NH,03809,603-875-0288
Nardi Trucking,63 Spruce Cove Road,Northwood,NH,03261,603-942-7557
5 Karat Transportation,26 B Sunapee St,Newport,NH,03773,603-863-6698
Hdg Crane Service,124 Main St,Plaistow,NH,03865,603-608-6703
Don Landry Masonry,230 Maplewold Rd,Weare,NH,03281,603-529-6060
Sharp Trucking,204 North Rd,Lancaster,NH,03584,603-254-4443
Lafleche Trucking,299 Middle Road,Brentwood,NH,03833,603-502-0888
1800 Got Junk,9 Merrit Parkway,Nashua,NH,03062,603-821-7276
Ld Gauthier Trucking,86 A Main Street,West Chesterfield,NH,03466,802-380-2708
Jm Transport,35 Naticook Rd,Merrimack,NH,03054,978-387-7987
Dunkin Donuts,199 Constitution Ave,Portmouth,NH,03801,603-430-9409
Grey Goose Logistics,15 Rockingham Road,Londonderry,NH,03053,603-571-4150
Bfo Trucking,145 Jericho Rd,Berlin,NH,03570,603-752-6045
Holland Trucking,180 Juniper Hill Rd,Stoddard,NH,03464,603-313-4894
Dock Equipment Service And Installation,191 Suncook Valley Highway,Epsom,NH,03234,603-490-7075
Aero-transit,67 Milikin Road,Jaffrey,NH,03452,603-966-7744
Sma Trucking,50 Ne Village Rd,Concord,NH,03301,603-224-8095
Webber Transport,66 Depot St,Somersworth,NH,03878,603-682-9419
Dussault Mechanical Services,1 Security Drive,Hudson,NH,03051,603-889-5595
Mountainman Trucking,178 Champion Circle,Pittsburg,NH,03592,978-957-6018
"Action Trucking Riverside, Inc.",395 Fernwood Farms Road,Canaan,NH,03741,603-523-7026
Durfee Crane And Equipment Service,64 North Road,Deerfield,NH,03037,603-463-5400
Walden Overland West Express,84 Wildwood Dr,Pittsfield,NH,03263,603-435-8131
Bret O'connor Trucking,118 Littlefield Rd,Danbury,NH,03230,603-768-3602
Bigelow Trucking,2597 Dartmouth College Highway,North Haverhill,NH,03774,603-787-6748
Nh Coach And Camper,1120 Route 25,Rumney,NH,03266,603-786-2501
Sk Services,18 Gerry Drive,Danville,NH,03819,603-382-9015
Moon Light Airport Limo Taxi Service,1311 Hanover Street Apt 28,Manchester,NH,03104,603-623-1554
Luxury Chauffeured Services Of New Hampshire LLC,160 Cass Street,Portsmouth,NH,03801,603-512-0384
Paul J Cavanaugh Motor Sales And Transportation,161 Goffstown Back Road,Goffstown,NH,03045,603-668-8900
Hughes Trucking,512 Us 202,Barrington,NH,03825,603-664-9247
Stanford Trucking,572 Mammouth Rd,Londonderry,NH,03053,781-702-0068
G S & Sons Logistics,210 A Center Rd,Pembroke,NH,03275,603-268-0397
D-n-s Distributors,10 River Road,Piermont,NH,03779,603-272-9907
Lavalleetransport,24 Bigwood Drive,Merrimack,NH,03054,603-423-1166
A B C Waste Services,74 Lafayette Road,North Hampton,NH,03862,603-964-8001
Fortin's Food Distributors,207 Ocean Blvd,Seabrook,NH,03874,603-828-9803
Gates Trucking,21 Riverside Dr,Merrimack,NH,03054,603-785-1212
Cpm Stables,34 South Main Street,Newton,NH,03858,603-382-5544
Dlb Trucking,171 Pond Road,Surry,NH,03431,603-209-1991
Solomon Trucking,53 Mtn View Rd,W Swanzey,NH,03469,603-357-0876
Principe Transportation,261 Mount Delight Road,Epsom,NH,03234,603-986-8298
D&r Boudreau Transport,5 Mulberry Rd,Salem,NH,03079,603-552-5476
Wolfman Trucking,375 Rand Hill Rd,Alton Bay,NH,03810,603-875-5853
"Nashua Container Service Co, Inc.",17 Long Avenue,Nashua,NH,03064,603-552-7199
Rmk Transportation,California Street,West Swanzey,NH,03469,603-352-1827
F & J Trucking,90 Coffeetown Rd,Deerfield,NH,03037,603-463-9755
Ed Walsh Trucking,11 Lewis Ln Apt 7,East Hampstsead,NH,03826,603-382-6013
R & M Woods Carriers,148 South Rd,Brentwood,NH,03833,603-642-5030
Airfreight Trucking,8 Garvin Rd,Derry,NH,03038,603-437-4104
Collins & Sons Trucking LLC,348 North Rd,Deerfield,NH,03037,603-463-7336
Boone Creek Transport,1551 Franklin Pierce Hwy Apt#2,Spofford,NH,03462,603-363-2718
Joe's Auto Repair,W Claremont Rd,Claremont,NH,03743,603-542-2656
Hoods Trucking,17 Castle Dr,Milan,NH,03588,603-449-2415
Cotton Trucking,386 Durrell Rd,West Ossipee,NH,03890,603-323-8952
Justin Tyme Transport,758 Nh Route 145,Clarksville,NH,03592,603-538-6873
Collins Trucking,40 Back Road,Danville,NH,03819,603-642-3751
George Bonney's Trucking,621 Portland St,Rochester,NH,03867,603-335-2081
R C Hinz Trucking,201 Deering Ctr Rd,Deering,NH,03244,603-464-2958
Morningside Trucking,16 Morningside Drive,Newport,NH,03773,603-863-1286
Bob Anctil Trucking,428 Lowell St,Manchester,NH,03104,603-620-4797
Mount Washington Valley Courier Service,17 White Mtn Hwy,Center Conway,NH,03813,603-447-4449
Michael Beck Transport,20 Lacourse Street,Plymouth,NH,03264,603-536-3867
White Trucking,10 Pine River Road,Center Ossipee,NH,03814,603-539-7776
Mike's Septic Service,9 North Main St,Mont Vernon,NH,03057,603-672-6826
G C B Transport,30 Wallock Acres,Winchester,NH,03470,603-239-4776
L & M Trucking,R R 2 Box 201-a,Pike,NH,03780,603-989-5552
Pappalardo Services,21 Gulliver Avenue,Salem,NH,03079,978-479-1590
North American Driveline,678 Mast Road,Manchester,NH,03102,603-669-1295
Bennett Trucking,20 True Road #53,Meredith,NH,03253,603-279-1170
Sailer Trucking,99 Mason Hill Road,Warner,NH,03278,603-456-3040
Ray's Repair Service,12 Gowing Rd,Hudson,NH,03051,603-889-9584
Huckins Welding & Fabrication Service,5 Dalton Rd,Tilton,NH,03276,603-524-5525
Dana Rice Trucking,45 Perry Road,Canaan,NH,03741,603-632-7657
Sinful Gypsy Trucking,36 New York St,Dover,NH,03820,207-671-4974
C N Trucking,9 Unit D Island Path,Hampton,NH,03842,603-380-4055
Adi Services,10-12 Delaware Drive Unit 8,Salem,NH,03079,N/A
East Coast Marine & Auto Transportation,17 Grove Ave,Salem,NH,03079,978-682-2712
Jolly Express Transportation,287 New Boston Rd,Candia,NH,03034,603-483-0769
Northstar Maintenance Services,Rt 103,Warner,NH,03278,603-456-2371
Bill Daniels Trucking,55 Greenwoods Rd,Richmond,NH,03470,603-239-7269
"Vlahos Trucking, Inc.",41 Rimmon St,Manchester,NH,03102,603-645-6649
P A W Trucking,12 Lucy Avenue,Pelham,NH,03076,603-635-7898
Colby Transport,1695 Brook Road,Goshen,NH,03752,603-863-6298
Carlos Fuel,1261 Hooksett Road,Hooksett,NH,03106,781-395-9510
Granite State Safety Security Services,174 Washington St,Claremont,NH,03743,603-543-1826
M G Taylor Transport LLC,5 Homestead Ln,Hudson,NH,03051,603-883-9068
Mike & Angus,15a Caldwell Dr,Amherst,NH,03031,603-566-2332
Card & Son Trucking,4126 East Washington Road,Washington,NH,03280,603-495-6178
John J Merrill Jr,8 Summit Drive,Atkinson,NH,03811,603-362-5848
Sun Moon Freight,222 Bicentennial Dr,Manchester,NH,03106,603-493-5337
Advanced Recovery Service,87 Plaistow Rd,Plaistow,NH,03865,603-382-4111
Fat Bob's Trucking,40 Arlington St,Manchester,NH,03104,603-626-7443
David Pack Trucking,60 Chase Road,Londonderry,NH,03053,603-396-5229
Ken's Truck,18 Dixon Avenue,Newfields,NH,03856,603-778-2742
North Atlantic Trailer & Truck Service,6 Northwood Drive,Merrimack,NH,03054,603-424-8948
Everybody's Truck Courier,8 Lakeside Drive,Sandown,NH,03873,603-887-0198
Mac's Express,15 Pettingale Rd,Amherst,NH,03031,603-672-8708
Little Joes Seafood Express,56 Gary Rd,Sanbornville,NH,03872,603-522-9123
M Holt & Daughters Transportation Co,202 Rines Road,Sanbornville,NH,03872,603-522-8930
Denoncour Trans,20 Friend St,West Epping,NH,03042,603-734-2301
Twin River Ind,2 Frances Drive,Seabrook,NH,03874,603-926-0534
Kc Services,255 Hogg Hill Rd,Springfield,NH,03284,603-763-4648
Jackson & Sons,12 Jackson Drive,Hinsdale,NH,03451,781-864-0240
H D Trucking,28 Summer Street,Exeter,NH,03833,603-548-0934
Dump Truck,155 South Road,East Swanzey,NH,03446,603-352-2283
G P Borak Copyright,160 Plaistow Rd Unit 22,Plaistow,NH,03865,603-382-1611
Tilton Trucking Div,Industrial Park Rd # 277,Littleton,NH,03561,603-381-1215
Senna Trucking,3 Woodridge Drive,Hudson,NH,03051,603-598-8771
Moving Odd Jobs Unlimited,5c Milford St,Brookline,NH,03033,603-673-4841
J R Swan Trucking,46 Myrtle S,Newport,NH,03773,603-863-9963
Wells Trucking,78 Allison Street,Concord,NH,03301,866-999-7400
Nelson's Transport,27 Ernest Ave # 12,Exeter,NH,03833,603-772-1283
M N K Trucking,152 Potter Rd,Gilmanton Iron Works,NH,03837,603-435-2492
Draco Trucking,21 Upham Place,Claremont,NH,03743,603-558-3835
D W Truck Service,2 Folsom Drive,Newmarket,NH,03857,603-659-1261
Scottie Owen Trucking,23 Dalton Rd,Pittsburg,NH,03592,603-538-7097
Jpl Trucking,290 Glen Ledge Road,Glen,NH,03838,603-383-8974
G & J Trucking,24 Lisbon Rd Rt 302,Bath,NH,03740,603-747-3048
Aea Trucking & Excavation,106 Brill Hill Road,Woodsville,NH,03785,603-747-3785
Affordable Moving,24 Knoll Ave,Keene,NH,03431,N/A
Riley's On-site Service,470 Banfield Rd,Portsmouth,NH,03801,603-436-9439
"Brady Flooring Services, Inc.",47 Wheelwright Road,Hampstead,NH,03841,603-489-1600
Mello Transportation,179 New Road,Center Barnstead,NH,03225,508-962-3699
Apex Car Services LLC,365 Choate Rd,Canaan,NH,03741,603-632-1052
A Notch Above Automobile Company,454 West Main St,Littleton,NH,03561,603-444-7755
P & M Heating Burner Service,5 Devonshire Rd,Atkinson,NH,03811,603-382-5607
Martel Transport,3 Elijah Beede Rd,Sandwich,NH,03883,603-284-6362
Cbs Transportation,827 Route 106 North,Loudon,NH,03307,603-783-0229
Low Budget Auto,11c Ashuelot Street,Winchester,NH,03470,603-239-8642
Beauchene Waste Service,15 Elm St West,West Lebanon,NH,03784,603-298-7952
Pepito's Trucking,386 Merrimack St,Manchester,NH,03103,N/A
Mcnutt Trucking,25 Fairway Drive Apt 3225,Derry,NH,03038,N/A
Bw Clark Transportation,18 Quincy Street,Concord,NH,03301,603-224-8196
Ng Burnham Trucking,654 Main Street,Conway,NH,03818,603-996-1546
Tired Iron Trucking Service,236 Marcy Hill Road,East Swanzey,NH,03446,N/A
B M S Trucking Co,323 Ash Swamp Rd,Newmarket,NH,03857,603-659-9605
Jim's Trucking,22 Maylane Dr,Salem,NH,03079,603-893-1141
Punctual Home Delivery Service,27 Epping Street Apt 2,Raymond,NH,03077,603-895-6856
F W T Services Co,18 Pasture Drive,Franklin,NH,03235,603-934-7192
Orr Brothers,1817 Route 9,Spofford,NH,03462,603-363-8388
G R S Auto,95 Central Street,Woodsville,NH,03785,603-747-4192
Word Wrap Service Corp,101 Tidewater Farm Rd,Stratham,NH,03885,603-772-7181
Lone Star Transportation,14 Carter Rd,Merrimack,NH,03054,978-502-3478
Napa Auto Parts Of Lancaster,457 Main Street,Lancaster,NH,03584,603-788-2582
Napa Auto Parts Of Lebanon Nh,1 Mechanic Street,Lebanon,NH,03766,603-448-5944
Harmon Hauling,288 North Rd,Deerfield,NH,03037,603-463-7393
Rpw Auto Sales & Services,139 Rt 27,Raymond,NH,03077,603-895-3574
Ben Jameson Trucking,14 Hillside Ave,Groveton,NH,03582,603-303-0384
Prototype Service Company,21 East Washington Road,Bradford,NH,03221,603-938-5424
Burns Transport,51 Mill Rd,North Hampton,NH,03862,603-879-0383
V W Trucking,64 Main St,Milton Mills,NH,03852,603-473-2385
Steve Riendeau Trucking,1 Proctor Hill Rd,Brookline,NH,03033,603-673-7847
J & R Tranport LLC,75 Route 27,Brentwood,NH,03833,603-778-7725
Hutch & Sons Transportation,Rt 11 Box 30a,Farmington,NH,03835,603-312-2181
Modern Auto Sales,65 Rte 13,Brookline,NH,03033,603-235-6665
L&d Trucking,336 Rt 4 Apt 9,Barrington,NH,03825,603-868-2393
Mri Transport,79 Elm St #2,Claremont,NH,03743,603-542-5661
Castellano Trucking,1101 Catamount Rd,Pittsfield,NH,03263,603-435-6507
Triple B Trucking,138 Sherwood Glen,Somersworth,NH,03878,602-692-2077
Fabricare,40 Washington Street,Keene,NH,03431,603-352-1121
Macdonald Transportation,20 Carr Ave,Ashland,NH,03217,603-968-7045
Kbh LLC,187 Elm Street,Farmington,NH,03835,603-755-9711
Douglas Rich Trucking,41 Lancaster Road,Gorham,NH,03581,603-466-3358
R Carney Trucking,South Rd,Bethlehem,NH,03574,603-869-5858
Dartmouth Moving & Storage,128 South Main Street,West Lebanon,NH,03784,603-448-0378
Scholtz & Sons Trucking,28 Ford Farm Rd,Milton,NH,03851,603-652-9141
B&j Transport,133 Key Rd,Keene,NH,03431,603-352-8376
Carley Trucking,162 Lockehaven Rd,Enfield,NH,03748,603-632-7030
Three Ponds Transport,23 Depot Pond Rd,Milton,NH,03851,603-652-7710
Booty's Trucking,85 Pahray Lane,Manchester,NH,03109,603-666-0451
Gotta Go Trucking & Transportation,75 N River Rd,Milford,NH,03055,603-566-6670
Daniel Lively Trucking,12 Old Troy Rd,Fitzwilliam,NH,03447,603-585-9949
R B Leasing Co,731 Route 13 S,Milford,NH,03055,603-672-6106
Bajar Trucking,12 Bob's Way,Spofford,NH,03462,160-336-3463
T And T Transportation,873 Lost Nation Road,Groveton,NH,03582,603-636-2600
Independent Hauler,36 Railroad Ave,Gonic,NH,03839,603-332-7357
Mike's Transport,11 Tumbleweed Lane # 2,Enfield,NH,03748,603-632-7502
Rich Ruffin & Son Trucking,24 Adams Street,Seabrook,NH,03874,603-474-9462
B E Quint Iii Trucking LLC,33 Rabbitt Run Rd,Madison,NH,03849,603-367-9159
Gregg's General Outdoor Services Co,17 Swan St,Nashua,NH,03060,603-889-5875
Rohach Trans,11 Johnson St,Belmont,NH,03220,603-267-7159
Talk Of The Town Distributors,29 Marilyn Park Drive,Hampstead,NH,03841,603-329-6056
Spuk Distributor,45 Robinhood Rd,Nashua,NH,03062,603-881-9981
Seafoods Services,3 Manor Parkway,Salem,NH,03079,508-462-1905
K & G Trucking,25 Parklane Road,Hampstead,NH,03841,603-329-8161
C Stewart Moving,16 Old Jaffrey Rd,Rindge,NH,03461,N/A
Noah Transport,80 Drew Rd,Dover,NH,03820,603-742-7870
R & R Moving Co,Rt 11/103,Sunapee,NH,03773,603-863-0929
Tech System Transfer,214 Rochester Neck Rd,Rochester,NH,03824,603-335-2400
Cunha Transport,2 E Cedarbrook Village,Rochester,NH,03867,603-335-6681
Kiko Trucking,50 Crawley Falls Rd,Exeter,NH,03833,N/A
Tnt Delivery LLC,401 High Street,Somersworth,NH,03878,603-692-4659
J & S Auto,R R 1 Rte 135,Littleton,NH,03561,603-444-0639
Bleakney Trucking,Rfd 1 Box 144 Brown Hill Rd,Tamworth,NH,03886,603-323-8342
Bill Lund Trucking,15 Gile Road,Ossipee,NH,03864,603-539-4104
Spencer Trucking,279 Green St,Somersworth,NH,03878,603-692-6129
Route 4 Auto Transport,37a Stevens St,Enfield,NH,03748,603-632-7067
S P Augusta Trans LLC,155 Tuttle Lane,Greenland,NH,03840,603-433-6592
Regal Auction Services,349 Central St,Franklin,NH,03235,603-934-5410
D & M Sand & Gravel And Trucking Co,21 Stonebridge Dr,Plaistow,NH,03865,N/A
Abc Delivery,880 Candia Rd,Manchester,NH,03109,603-624-2227
Jp's Auto Transport,36 Central St,East Hampstead,NH,03826,603-329-4962
Hess Communication Services,69 Beach Plain,Danville,NH,03819,603-642-6060
Export Auto Enterprise,Rt 3 North & Summer Street,Lancaster,NH,03584,603-788-3800
"Ocean Containers Transport, Inc.",80 North Lowell Road Ste 311,Windham,NH,03087,603-421-0768
Sutphen Trucking,New Orchard Rd Rfd1,Epsom,NH,03234,603-736-9097
Maximum Transit,P O Box 495,Tilton,NH,03276,603-286-4654
Logging Truck,587 Rt 12a,Surry,NH,03431,603-352-1465
Hurlbert Transport,567 Warwick Road,Winchester,NH,03470,405-751-3291
Ron's Auto Service,3 Park Place,Northfield,NH,03276,603-286-3663
Rms Trucking,335 Route 125,Brentwood,NH,03833,978-346-9747
B & K Enterprises Transportation Services,461 Union St,Petersborough,NH,03458,603-924-4324
Wing Transport,Rr 3 Box 438,Lyme,NH,03768,N/A
R & C Trucking,74 Royal Range Rd,Sandown,NH,03873,603-887-5459
J & K Trucking,60 Stanley Br Drive,Salem,NH,03079,603-893-5469
Boucher Trucking,32a North Shore Rd,Derry,NH,03038,603-235-4620
Access Transportation And Limousine,470 Elm Street,Farmington,NH,03835,N/A
Cheyenne Express,65 Filmore Ave,Laconia,NH,03246,N/A
S & B Trucking,16 New Boston Road,Kingston,NH,03848,603-643-5881
Chubb Life America,One Granite Place,Concord,NH,03301,603-224-7741
Star Trucking,30a Raymond Road,Deerfield,NH,03037,603-463-7404
"Gentle Giant Forestry Services Of New England, Inc.",102 Armory Road,Milford,NH,03055,603-672-4055
R & M Trucking,#30 L M H V,Lancaster,NH,03584,603-788-4223
Granite State Transportation,P O Box 416,Contoocook,NH,03229,603-746-5828
Belanger Trucking,235 Moore St,Manchester,NH,03102,603-623-1276
Tecumseth Valley Farm & Trucking,P O Box 44,Suncook,NH,03275,N/A
Norma J Trucking,Rt 11,Alton,NH,03809,603-875-7265
Climatized Carrier,816 Elm Street #362,Manchester,NH,03101,203-753-7748
Tonka Toye Transport,19 Hillhaven Drive,Auburn,NH,03032,603-666-5925
M D Hall Transport,1129 Colebrook Rd,Errol,NH,03579,603-482-7721
Nadeau Transportation,8 Friend Street,Epping,NH,03042,603-679-1916
Batt Trucking,28 Bunker Street,Farmington,NH,03835,603-755-9734
John Jeffers Trucking,Carlton Hill,Colebrook,NH,03576,603-237-5091
Aardvark Amalgamated Ltd,P O Box 184,Bristol,NH,03222,N/A
Jones Distribution,75 Pear Tree Ln,New Market,NH,03857,603-778-8911
Nivah Moving And Storage Company,26 South Main St Ste 278,Concord,NH,03301,N/A
N & J Trucking,Rr 1 Box 273f,N Haverhill,NH,03774,904-787-6980
"M&t Trucking, Inc.",32 Kelley Rd,Plaistow,NH,03865,603-382-2941
Jb Farm Services,52 Mountain View Road,Deerfield,NH,03037,603-463-9834
Dj And K Transport,25 Huckins St,Center Ossipee,NH,03814,603-539-8375
Four Sons Tractor Service,214 Beechnut Dr,North Conway,NH,03860,603-356-3771
J & D Transport,62 Crestwood Drive,Gorham,NH,03581,603-466-2044
D W Boisvert Trucking,368 Portland St,Rochester,NH,03867,603-509-0208
E F A Transport,Rt 28 Rfd 2 Box 14,Epsom,NH,03234,N/A
Howe Transportation,238 Patten Rd,Merrimack,NH,03054,603-424-6136
Keniston Trucking & Logging,445 Daniel Webster Hwy,N Woodstock,NH,03262,603-745-3347
Dellacroce Trucking,54 New Rochester Rd,Dover,NH,03820,603-742-7456
Wadleigh Trucking,4 Cottage Road,Kensington,NH,03833,603-394-7321
Woolf's Trucking,16 Pamela Ln,Raymond,NH,03077,603-895-3302
B Rubchinuk Trucking,Rt 11,Sunapee,NH,03782,802-296-4853
Queene Trucking,7 Thayer Rd,Kingston,NH,03848,603-642-5573
Affordable Env Services,6 Whitten Ave Unit C,Hampton,NH,03842,800-869-0711
Nelson's Auto Repair,49 Redington St,Littleton,NH,03561,603-444-1115
B&p Transportation Services,80 Cotton Farm Road,Danville,NH,03819,603-382-2446
Loder Transport,2 Dartmouth Way,Derry,NH,03038,603-434-4614
Tremblay Trucking,2304 Oyster River Arms,Barrington,NH,03825,603-868-7896
J D C Transport Ltd,15 Leavitt Rd,Pittsfield,NH,03263,603-435-6827
Nichols Logging & Trucking LLC,151 Kimball Pond Rd,Dunbarton,NH,03046,603-774-6491
Ten Rod Auto Repair,361 Ten Rod Rd,Rochester,NH,03867,603-335-1059
Ryan Delivery,29 Warren Street,Laconia,NH,03246,603-528-3045
Amoskeag Carrier,22 Eastman Ave,Bedford,NH,03110,603-626-7324
Michael Foster Trucking,125 Mt Misery Rd,Littleton,NH,03561,603-444-6680
J & J Trucking,Bean Road,Errol,NH,03579,603-482-7713
Cornish Automotive,880 Townhouse Rd,Cornish,NH,03745,603-675-5403
Jp Trucking,37 Brook Side Drive,Stratham,NH,03885,603-778-9535
"Joe's Air Express, Inc.",800 Holt Avenue,Manchester,NH,03109,603-624-4245
Ball Trucking,Route 25-a,Orford,NH,03777,603-266-1045
Nason's Trucking & Excavation,353 Pine Hill Rd,Wolfeboro,NH,03894,603-569-2018
Glr Trucking,8 North Ave,Plaistow,NH,03865,603-382-1983
Tapper Trucking,118 Farmington Rd,Rochester,NH,03867,603-335-3151
Auto World Enterprise,938 Lancaster Rd,Northumberland,NH,03584,603-636-1717
Kremco Transport,47 River Road,Lochmere,NH,03252,603-528-8000
T & D Trucking,254 Clough Pk Rd,Weare,NH,03281,603-529-0528
O'rourke Trucking,49 Chiekville Road,Ctr Ossipee,NH,03814,603-539-6994
Laskos Trucking,187 Long Ridge Road,Wakefield,NH,03872,603-522-6474
Prman Trucking,108 Hatch Corner Rd,Meredith,NH,03253,603-279-5595
Rmg Trucking,2 Perkins Pl Apt 8,Woodsville,NH,03785,603-989-5552
Rice Trucking,146 Goose Pond Road,Canaan,NH,03741,603-523-9610
Red Services,Blackberry Acres Rte 116,N Haverhill,NH,03774,603-787-2698
Mearl Burdick Trucking,38 Ritas Circle,Northwood,NH,03261,603-431-0004
Limousine Express,360 Pembroke Street,Pembroke,NH,03275,N/A
A & L Trucking,188 Gilsum Road,Sullivan,NH,03445,603-847-3068
Jim's Debris Removal Service,93 Pond Hill Rd,Rochester,NH,03867,603-332-9288
Egs Auto Tow,200 Elm St,Manchester,NH,03101,603-624-7996
Lovely Transportation Service,1 Lone Star Avenue,Farmington,NH,03835,603-755-2771
Lyman's Trucking,93 Mayhew Tp Rt 3 A,Plymouth,NH,03264,603-536-3157
"C & M Auto Repair, Inc.",81 South Main,Newton,NH,03858,603-382-6770
Paul Tierney Auto Wholesalers,144 Main St Apt 506,Jaffrey,NH,03452,603-585-6519
L K Sleeper Trucking,685 Hwy 3a,Bow,NH,03304,603-224-1671
Kdb Trucking,31 Damren Road,Derry,NH,03038,603-432-2812
Figlioli Trucking,11 Overlook Ave,Londonderry,NH,03053,N/A
Goffs Fall Auto Sales,785 Goffs Fall Road,Manchester,NH,03103,603-668-2886
Pallet Services Of N E,586 N Barnstead Rd,Barnstead,NH,03225,603-396-8873
Cherokee Trucking,26 Melendy Rd Unit 70,Milford,NH,03055,603-672-5007
Black Diamond Coach Service,164 Mtn Vale Village,Conway,NH,03818,603-356-0870
Sundance Express,493 Ridge Rd,Middleton,NH,03887,603-473-8885
Hayes Transportation,7 My Way,Claremont,NH,03743,603-542-5911
Busy Bee Express,161 Timber Swamp Rd,Hampton,NH,03842,603-474-7764
Classic Limo,20 South Street,Milford,NH,03055,617-567-0420
Skip Kirk & Son Trucking,21 High Street,W Stewartswtown,NH,03597,802-266-3694
D & D Trucking,14 Parker Rd,Brookline,NH,03033,060-367-2242
R S Dasey Transportation,58 Branch Turnpike S-4,Concord,NH,03301,603-496-4080
M J Thibeault Trucking,254 Clough Road,Weare,NH,03281,603-529-4176
Perkins Transportations,750 Somerville St,Manchester,NH,03103,N/A
Jack Mc Trucking,281 Main Street,Salem,NH,03079,603-898-7250
Bubba's Express,320 Flatroof Mill Rd,Swanzey,NH,03446,603-355-4961
T M P Delivery,2 Brick St,Somer,NH,03878,603-692-6064
Rlm Trucking,4 Rockwood Ave,Jefferson,NH,03583,603-586-4314
"Raffa Express, Inc.",15 Oak Hill Circle,Atkinson,NH,03811,603-362-4949
Gen - Dick Trucking,24 Moody Rd,Effingham,NH,03882,603-539-6370
Jc Trucking,175 Valley Rd,Center Ossipee,NH,03814,N/A
Coy And Sons Trucking,140 S Main St,Lisbon,NH,03585,603-838-5241
East Coast Auto Repair,2 Danville Rd Bldg #6,Plaistow,NH,03865,603-382-2211
Sevigny Trucking,High Street,Berlin,NH,03570,603-752-4532
Gonthier Trucking,15 Rocky Hill Road,Somersworth,NH,03878,603-692-2505
Cedar Transport,89 Olde Madbury Lane,Dover,NH,03820,603-742-5185
S K T Transportation,Route 10,North Haverhill,NH,03774,603-787-6806
P J Bardsley Jr Transportation,10 Union Street,Farmington,NH,03835,603-755-3138
G T Lee Trucking,21 Old Croyden Rd,W Springfield,NH,03284,603-763-3029
Wildcatter Trucking,6 Linjay Circle,Nashua,NH,03062,603-891-3112
Auto Emporium,260 West Main Street,Littleton,NH,03561,603-444-1510
Marshall Trucking,34 Walnut St,Rochester,NH,03867,603-596-6355
Khalsa Transport,63 Palomino Lane,Bedford,NH,03110,603-641-8148
Lovell River Trucking,130 Valley Road,Center Ossipee,NH,03814,603-539-3273
Milford Truck & Diesel,206 Elm St,Milford,NH,03055,603-672-1547
R W Guidoboni Trucking,140 Barnard Hill Rd,Weare,NH,03281,603-529-0179
Black Wolf Transportation,47 Route 45,Temple,NH,03084,603-878-0435
Nes Courier Service,1329 Main St,Berlin,NH,03570,603-752-5254
Daniels Trucking & Excavating,75 Old Chester Rd,Derry,NH,03038,603-434-7942
Ldj Trucking,2131 Dover Road,Epsom,NH,03234,603-736-9673
Harlow Transportation,204 Meriden Road,Lebanon,NH,03766,N/A
J R D Trucking,384 Nh Rt 119 West,Fitzwilliam,NH,03447,603-585-7715
Tnt Trucking,50 Old Dover Rd,Rochester,NH,03867,603-332-3443
G&s Trucking,36 Ermer Road,No Salem,NH,03073,508-372-8661
T A Trucking,59 Winter Street,Exeter,NH,03833,603-772-6932
Albany Service Ctr,Rt 16,Conway,NH,03818,603-447-8979
B & S Produce Delivery,25 Fairway Drive 2325,Derry,NH,03038,603-425-7880
Mdf Express,31 North West Street,Charlestown,NH,03603,603-826-3048
Jaye's Trucking,8 Depot St,New Boston,NH,03070,603-497-2921
J M Ray Trucking,Rr 1 Box 492,Pittsburg,NH,03592,603-246-9917
Ted Wheeler Trucking,Rt 2,Jefferson,NH,03583,603-586-7966
Consolidated Transport Service,48 Westville Rd,Plaistow,NH,03865,617-539-3883
Slow-poke Express,50 B&b Lane,Weare,NH,03281,603-591-1608
Loyal Transportation,8 Mcguire Street,Concord,NH,03301,603-798-3538
Geddes Autobody,318 S Merrimack Rd,Hollis,NH,03049,603-465-2929
S D A Trucking,312 Route 27 Apt # 1326,Raymond,NH,03077,603-895-1136
Dave Allen Trucking,6 Colonial Drive,Londonderry,NH,03053,603-432-1509
Cavalliere Transport Services,406 Troy Road,Marlborough,NH,03455,603-876-4889
Brailsford Trucking,Ayvaz Mobile Home Park Lot 51,Barrington,NH,03825,603-868-1138
Mountain View Service Center,Route 16,Chocorua,NH,03817,603-323-8135
Kazmi Transportation,109 Allds Street,Nashua,NH,03060,603-883-9610
R Corrigan Trucking,50 Kenneth Lane,Jefferson,NH,03583,603-586-7798
R J Bernier Trucking,208 Middle Winchendon Road,Rindge,NH,03461,603-899-5109
Acme Movers,32 Harbor Ave,Nashua,NH,03062,603-595-4316
H Breault Trucking,315 Grove Street,Littleton,NH,03561,603-444-6097
William P Kimball Trucking,22 Dodge Rd,Benington,NH,03442,603-588-3267
A Personel Touch Limo Service,64 Dublin Ave,Nashua,NH,03063,603-881-5936
M P S I Trucking,1661 Route 106 North,Loudon,NH,03301,603-267-6060
White Hall Express,1440 Cardnial Drive,Rochester,NH,03867,508-828-6375
Estabrook Trucking,64 Trenton St,Manchester,NH,03104,603-622-6754
Tan Man Trucking,38 Old Bay Rd,New Durham,NH,03855,603-859-6807
All Waste Services,40 North Labombard Road,Lebanon,NH,03766,603-443-9941
J D W Trucking,3035 So Willow St,Manchester,NH,03103,603-627-1525
Scq Transport,270w Milan Rd,Milan,NH,03588,603-449-2166
R A Young & Sons Trans,11 Jesse George Road,Plaistow,NH,03865,603-382-5982
E & R Trucking,22 B West Road,Hudson,NH,03051,603-889-5087
Dat Trucking,Red Oak Hill,Wentworth,NH,03282,603-764-8501
Pereira Transportation LLC,11 North Shore Road,Chester,NH,03036,603-887-5791
D & N Trucking Company,30 Rocky Pond Road,Hollis,NH,03049,603-234-5336
K D S Trucking,Rr #2 Box 606,Claremont,NH,03743,603-543-3357
D A M Express,700 Cohas Avenue,Manchester,NH,03109,603-483-0700
D & E Express,36 L Scenic Dr,Derry,NH,03038,603-434-3836
Kristie Transportation,P O Box 34,Epping,NH,03042,860-243-5059
Shoestring Trucking,184 Marcy Hill Road,E Swanzey,NH,03446,603-352-6561
Hurricane Delivery Service,70 South Road,Deerfield,NH,03037,603-463-8012
Lavender Trucking,19 Darby Lane,Rochester,NH,38395,603-332-5906
Defilippo Transportation,312 Mcmurphy Road,Alexandria,NH,03222,603-744-6473
Ret Farms Trucking,109 Horeshoe Road,Chesterfield,NH,03443,603-363-4990
Electronic Express,118 Exeter Road,Hampton,NH,03842,603-926-0553
Celebrity Express LLC,68 Ridge Road Top,New Durham,NH,03855,603-859-5775
Green Mountain Transport,121 Old Pound Road,Effingham,NH,03882,603-539-7650
Confident Transport,139 3/4 Chestnut St,Nashua,NH,03060,603-886-5362
Greg's Septic Service,248 Portsmouth Ave,Stratham,NH,03885,603-778-7170
Taurus Transportation,303 Swanzey Lake Rd,West Swanzey,NH,03469,978-597-6085
Ral Jr Trucking,49 Pine St,Franklin,NH,03235,603-934-0394
R J Clay Transport,Rfd 1 Box 2402 Beech Hill Rd,Plymouth,NH,03264,603-536-4926
Menard Automotive Sales,149 Lane Road,Chester,NH,03036,603-887-4049
D & E Services,375 Whitehall Road,Hooksett,NH,03106,603-483-8386
Austin Automotive,119 Nh Route 12 North,Fitzwilliam,NH,03447,603-585-7019
G A Jabour Trucking,9 Gardner Road,Windham,NH,03087,603-912-5846
Hopkins Septic Service LLC,64 Appleton Rd,New Ipswich,NH,03071,603-878-3938
Cj Trucking,3 Daniels Dr,Enfield,NH,03748,603-448-2783
R F French Trucking,Box 129m Swich Rd,Canaan,NH,03741,603-763-3038
Twr Trucking,13 Cross Road,Sandown,NH,03873,603-887-6127
Meridian Horse Transportation,Stoneham Road,Wakefield,NH,03872,603-522-6814
Kira Transport,11 High St,Troy,NH,03465,603-242-7199
G B K Transport LLC,93 Woodlawn Circle,Portsmouth,NH,03801,603-319-8511
American Service Group,199 Epping Rd,Exeter,NH,03833,603-772-4888
J's Auto And Container Transport,12 Fairway Dr Apt 3412,Derry,NH,03086,603-818-9617
H J S Trucking,211 South Road,Kensington,NH,03827,603-394-7397
K & A Tibbetts Trucking,11 Spaulding Hill Rd,Pelham,NH,03076,603-426-5290
Just Excellent Truck Service,17 Plains Ct Unit C6,Franklin,NH,03235,603-568-8712
Mulcahy's Truck & Equipment,3 Exeter Rd,North Hampton,NH,03862,603-964-5527
Jj And K Transport,6 Pinedale Street,Hudson,NH,03051,603-598-4519
W H White Transport,Rfd 1 Box 43 Provence Rd,Strafford,NH,03884,603-664-9792
Wayne Services Group,358 Route 108,Somersworth,NH,03878,603-692-6575
Ace Movers,135 Lafayette Road Unit #1,Rye,NH,03870,603-964-7393
Steve Allen Trucking,23 Meetinghouse Rd,Merrimack,NH,03054,603-424-6853
Joe Parker Trucking,82 Daroska Road,Pittsfield,NH,03263,603-435-6341
Keith Corrigan Trucking,5 Old Etna Rd,Lebanon,NH,03766,603-448-9728
Northern Set Up And Repair,405 Suncook Valley Hwy,Epsom,NH,03234,603-736-8352
Long Transport,22 Great Hill Dr,New Market,NH,03857,603-659-7825
Autos Plus Transport,9 Pine St,Laconia,NH,03247,603-387-3979
R L Transport,37 Westwood Circle,Dover,NH,03820,603-749-6033
Gpr Transportation,41 Jessica Drive,Nashua,NH,03060,603-881-5279
A J Cabral Trucking Co,309 Winding Hill Road,Northwood,NH,03261,603-942-8621
"Tnt Distributing, Inc.",29 Kimball St,Lebanon,NH,03766,603-448-7026
Lonewolf Cartage,398 Main St,Sandown,NH,03873,603-887-2609
Bm Zapora & Sons Transportation,Pob 321,Winnisquam,NH,03289,603-524-7375
Attitash Trucking,83 Hampton Town Est,Hampton,NH,03842,508-662-3755
Al Sweet Trucking,2 Regina Road,Brookline,NH,03033,603-759-7449
"Highview Church Farm, Inc.",Route 10,East Lempster,NH,03605,603-863-2230
Jack's Motor Service,21 Union St,Milford,NH,03055,N/A
Dick's Tire Service,Route Rd,Hampton Falls,NH,03844,003-026-7636
Brooks Auto Supply,195 Main St,Colebrook,NH,03576,N/A
Battles Transportation,328 Center Road,Bradford,NH,03221,603-938-2241
Perry Trucking,Pollard Rd,Lincoln,NH,03251,N/A
Faucher Trucking & Construction,42 Stage Road,Hinsdale,NH,03451,603-336-7272
Kennett Transportation Company,252 W Main Street,Conway,NH,03818,603-447-2528
North Country Distributors,Main St,Tilton,NH,03276,603-286-3311
Johnnie's Sales And Service,599 Warwick Rd,Winchester,NH,03470,N/A
Peoples Courier Service,17 Boston Post Rd,Amherst,NH,03031,N/A
Kwiki Express,909 Easlington St,Dover,NH,03801,N/A
Gebg Transportation,264 Pinewood Rd,Allenstown,NH,03275,603-759-4050
Aztec Transportation,114 Lafayette Rd,North Hampton,NH,03862,603-778-8147
M S Lyon Trucking,115 High St,Bristol,NH,03222,603-744-3764
L C Trucking,132 East Dunstable Rd,Nashua,NH,03062,N/A
Key Transport,3 Mcquesten Cir,Hudson,NH,03051,N/A
Bradley Downer Trucking,5 Chase Lane,Woodsville,NH,03785,603-747-3764
Watson Transportation,121 Whitehouse Rd,Rochester,NH,03867,N/A
Kelley Trucking,37 March Rd,Sanbornton,NH,03269,603-286-9423
P & J Trucking,Snumshire Lane,Charlestown,NH,03603,603-826-5546
Rainbow Auto Brokers,41 Academy Avenue,Atkinson,NH,03811,603-362-4422
Jmd Iii,14 Celina Ave Unit 8,Nashua,NH,03063,N/A
R A Hannett Trucking,P O 139,Haverhill,NH,03765,N/A
Trans Pole,10 Dunklee Road,Bow,NH,03304,978-667-6011
Millbrook Transport,Po Box 181 Valley View Road,North Conway,NH,03860,N/A
W W Trucking,31 Charlonne Street,Jaffrey,NH,03452,603-532-6175
Lalumiere Trucking L L C,Route 116,Jefferson,NH,03583,603-586-7700
Chace Trucking,135 Main St,Lisbon,NH,03585,603-838-5928
Cordae Transportation,16 Fairway Dr Apt 2816,Derry,NH,03038,603-432-7434
"T C Heavy Equipment, Inc.",10 Dunklee Road Bldg 26,Bow,NH,03302,603-224-7897
Glen's Trucking,47 Stratton Rd Box 174,Jaffrey,NH,03452,N/A
Harts Transportation,H C 60 Box 116,Charlestown,NH,03603,N/A
Paine Trucking,39 Partridge Grn,Rochester,NH,03867,603-772-2324
Borriello Trucking,143 Buttrick Rd,Hampstead,NH,03841,603-329-4472
Jcc Transport,Rt 77,New Boston,NH,03070,603-529-1552
Tjb Trucking,20 New Boston Road,Newton,NH,03858,603-944-1358
Maxco Trailers And Transport,12 Maplewood Dr,Londonderry,NH,03053,603-437-6544
C W Specialty Transport,137 Plaistow Road,Plaistow,NH,03865,N/A
Lane Trucking,50 Avenue,Rye,NH,03870,603-964-8574
Able Trucking And Landgrading,256 Pingree Hill Rd,Auburn,NH,03032,603-627-7799
Mobile One,545 Daniel Webster Hwy,Manchester,NH,03104,603-668-6345
Foster Bros Trucking & Logging,236 Railroad St,Littleton,NH,03561,603-444-6949
Alpha Environmental Services,35 S River Rd,Bedford,NH,03110,603-626-5757
"Mountainside Transportation, Inc.",Route 101,Temple,NH,03084,603-654-5447
D B's Trucking,929 Main Street,Fremont,NH,03044,603-642-8454
Hat Creek Trucking,390 N River Rd,Epping,NH,03042,603-679-8674
Joell Transport,P O Box 1912,Merrimack,NH,03054,603-424-6347
Crawford Auto Service,6 N Main St,Salem,NH,03079,603-898-2081
K M H Trucking,215 Raymond Rd,Raymond,NH,03077,603-895-5647
Crawford Services,353 Queen St,Boschwen,NH,03303,603-224-8823
Kma Trucking,Rt 2 Box 189,Charlestown,NH,03603,N/A
J Lockhart Trucking,8 Oleson,Derry,NH,03038,N/A
G P S Distributing & Sunset Trading,11 Delta Drive,Londonderry,NH,03053,603-421-0900
Jurta Transport,91 Maple Street,Andover,NH,03216,603-735-5568
Bisson Moving & Storage,Rt 3,Merrimack,NH,03054,603-424-1818
Brown & Finnegan Movers,4 Purington Ln,Hampton,NH,03842,617-364-1927
Hampton Sand And Gravel,564 Lafayette Rd,Hampton,NH,03842,603-926-2889
H & D Truck Service,205 Tamworth Road,Tamworth,NH,03886,603-323-7988
Cimarron Realty & Trust,24 Batchelder Road,Seabrook,NH,03874,603-474-3006
Ids Trucking,300 Bedford St #b213,Manchester,NH,03101,N/A
R & K Trucking,6 Danville Rd,Plaistow,NH,03865,N/A
R B H,Stowell Rd,New Ipswich,NH,03071,603-878-2979
Tim-t Trucking,5 Prospect St,Epping,NH,03042,603-679-5453
Sea-k Trucking,414 New Zealand Road,Seabrook,NH,03874,603-926-5775
E A S Transport,33 Littleworth Rd,Dover,NH,03820,N/A
Lackie Transport,44 Boucher Rd,Pike,NH,03780,603-989-5572
R And L Transportation,591 Hanover St,Claremont,NH,03743,603-542-6300
3-d Trucking,6-b Mountain Road,Raymond,NH,03077,603-679-5066
Convered Bridge Trucking,Waysidelane,Cornish Flat,NH,03746,603-675-5488
Interstate Trailer Transport,15 Culver St #m50,Plaistow,NH,03865,603-382-9437
"Teague Trucking, Inc.",North Main Street,North Salem,NH,03073,603-893-6555
Princess Lines Trucking Co,18 Laclair Rd,Walpole,NH,03608,603-756-4341
Robert W James Trucking,269 C South Road,Kensington,NH,03833,978-741-0181
J & G Service,7 Back Ashuelot Rd,Winchester,NH,03470,603-239-6441
A C C Trucking,Rr 1 Box 261b,Francestown,NH,03043,603-434-1733
"Pine Grove Transport, Inc.",Rr 1 Box 253b,North Haverhill,NH,03774,603-787-6017
Willow Bend Wood Service LLC,41 North Road,North Hampton,NH,03862,603-964-8582
Bedard's Auto Center,568 Rt 12,Surry,NH,03431,603-357-4088
Dubois Transportation,140 Pickenal Pd Rd,Laconia,NH,03247,603-528-5747
Lighting Energy Conservation Services,Po Box 92,East Candia,NH,03040,800-626-4242
Home Transportation,Rr 1 Box 79a,Langdon,NH,03602,603-835-6730
Sewall Trucking & Equip,123 Union Rd,Stratham,NH,03885,603-772-4575
Buzzell U S Mail Trans,2 Goodwin Way,Kingston,NH,03848,603-642-3525
T L Nickerson,Rfd2 Box 1060,Contoocook,NH,03229,603-746-5594
Ronald F Mead Trucking,230 Rockingham Road,Derry,NH,03038,603-234-9000
Conlon Transportation,647 Hall Street,Manchester,NH,03104,603-622-6359
D Dunbar & Son Trucking,Rfd #1 Box 156 Rte 135,Monroe,NH,03771,603-638-2262
Buzzell Trucking & Firewood,5 Powwow River Rd,Kingston,NH,03848,603-642-5791
Horizon Solutions Corp,105 Faltin Dr,Manchester,NH,03103,603-669-5060
"K W Thompson Tool Co, Inc.",Farmington Road,Rochester,NH,03867,603-332-2333
S A Benoit Trucking,Bonney Shores Rd,Meredith,NH,03253,603-279-3203
Generick Auto,49 Lafayette Rd,Hampton Falls,NH,03844,603-926-5577
E 1 Express,475 Daniel Webster Hwy,Merrimack,NH,03054,603-424-1884
Dave Laraba Trucking,10 Crane Rd,Fitzwilliam,NH,03447,603-585-6867
Scott Wynott Trucking,11 Deerfield Dr,Hillsborough,NH,03244,603-464-4384
Tony's Wrecker Service,32 Sylvan St,Dover,NH,03820,603-742-8966
S P Hamlin Trucking,27 Knox Road,Bow,NH,03304,603-496-8771
Diesel Services,16 Ritchie Road,Deerfield,NH,03037,603-463-4143
Autos At The Orchard,273 Route 125,Barrington,NH,03825,603-664-9339
Dom Deluca Trucking,225 Knowlton St,Manchester,NH,03103,603-623-6495
Seamans Trucking,215 Middleton Road,Milton,NH,03851,603-755-3536
Tire Recycling Services Of Nh,206 Route 13,Brookline,NH,03033,603-673-7245
"R & M Lawn Care Services, Inc.",16 Richman Road,Hudson,NH,03051,603-886-7497
Bills Texaco Service Cntr,104 Central Ave,Dover,NH,03820,603-742-3116
Bradford Autocraft,P O Box 362,Bradford,NH,03221,603-938-2623
R & L Trucking & Excavating,139 Lily Pond Rd,Alton,NH,03809,603-875-0776
Durkee Crane Service,954 East Main Street,Center Conway,NH,03813,603-367-8307
Steve's Wrecker Service,209 Milton Rd #24,Rochester,NH,03868,603-332-6166
Dymond Trucking,Rr 2 Box 409,Littleton,NH,03561,603-444-0911
Double Q Corporation,131 Rt 101 A #26,Amherst,NH,03031,603-882-5552
Cheyenne Express,17 Walnut St,Rochester,NH,03867,603-332-1773
Precision Auto Service,54 Bartlett Street,Portsmouth,NH,03801,603-436-9192
Heritage Services,4 Heritage Hill Rd,East Conway,NH,03813,603-939-2911
R & E Express,87b Pelman Rd,Hudson,NH,03051,N/A
Total Timber Transport,45 Knapp Road,Piermont,NH,03779,603-989-3393
B & C Transportation,25 Moose Drive,New Ipswich,NH,03071,603-878-3185
Tmb Trucking,Mill St,Greenville,NH,03048,N/A
Willey Trucking,19 Union St,Whitefield,NH,03598,603-837-2029
Alton Transport,38 Adams Ave,Greenville,NH,03048,N/A
"C A B Services, Inc.",72 Littleworth Rd,Dover,NH,03820,603-749-6355
Canney Trucking,3 Steppingstone Road,Barrington,NH,03825,603-868-7388
J & J Transportation,330 Ashswamp Road,Newmarket,NH,03857,603-659-7409
B & B Trucking,North Groton Rd,Groton,NH,03241,603-786-9515
"Dolphyn Auto Sales, Inc.",48 Ashworth Ave,Hampton,NH,03842,603-926-2265
Shayne Co Trucking Excavation,Old Mason Rd,Greenville,NH,03048,603-878-2162
Truman Transp,Rr1 Bx 153-a Rte 4a,Enfield,NH,03748,603-632-5492
Waugh Transp,219 Methodist Hill Rd,Enfield,NH,03748,603-448-1672
Dan Bemorts Auto Service Ctr,135 Summer St Rr2 Box 361,Lancaster,NH,03584,603-788-4247
Williamson Motor Express,91 Colburn Rd,Milford,NH,03055,603-673-6635
Jeff Haynes Trucking,24 Nh Route 110,Groveton,NH,03582,603-636-1543
Kwiki Express,20 1/2 Chestnut St,Dover,NH,03820,N/A
Alexi's Transportation,60 Lock St,Nashua,NH,03060,N/A
Lav's Trucking,159 Nottingham Sq Rd,Epping,NH,03042,603-679-5200
Odd Couple Transportation,49 Hazel Dr Unit 2,Hampstead,NH,03841,N/A
Lacey Transport,689 Lafayette Rd,Seabrook,NH,03874,N/A
M C H Transportation,43 Cusack Road,Hampton,NH,03843,603-926-2031
Hallmark Auto Transport,239 Atlantic Ave #4,North Hampton,NH,03862,N/A
Andover Express,Box 206,Andover,NH,03216,603-735-5386
Expressions By Robert Waldo Jr,Main St,North Conway,NH,03860,603-736-9764
"A-1 Site Work, Inc.",140 Queen City Ave,Manchester,NH,03103,603-669-1968
Aksa Forestry Transport,111 Allen Road,Lempster,NH,03605,603-863-7332
Shannon Trucking LLC,40 Blake Road,Danville,NH,03819,603-382-1126
L & L Trucking,2 Birch Lane,Pelham,NH,03076,603-635-3795
Rambole Distributing,15 A Trolleycar Lane,Londonderry,NH,03053,603-434-8669
Tree Chop & Tessier Trucking,201 S Jordan Hill Rd,North Stratford,NH,03590,603-237-8206
F & S Transportation,1435 N H Rt 4a,Enfield,NH,03748,603-632-4984
L & L Transport,30 Riverview 202 Sr 27,Raymond,NH,03077,603-895-0421
D B K Trucking,71b Rockingham Rd,Londonderry,NH,03053,N/A
Bimbo Trucking,Heater Road,Lebanon,NH,03766,N/A
City Haul Trucking,2 Merrimack St,Hudson,NH,03051,603-595-8905
H Clapp Trucking,55 Rt 13 South,Brookline,NH,03033,603-672-1137
Al Sweet Trucking,58 Woodward Road,Merrimack,NH,03054,603-424-2665
Buckboard Transportation,Rfd-3 Box 180,Plymouth,NH,03264,603-536-4220
C & M Transportation,1060 Isaac Frye Hwy,Wilton,NH,03086,603-654-9372
Randy Claar Excavation LLC,53 Lovell Road,Stratham,NH,03885,603-772-5094
D Rodgers Trucking,188 Gray Rd,Center Barnstead,NH,03225,603-235-6322
T R Transport,357 South Rd,Brentwood,NH,03833,603-895-2062
Cbc Environmental Services,66 Danforth Rd,Bristol,NH,03222,603-744-9697
Lavoice Trucking,46 Jenkins Road,New Durham,NH,03835,386-566-4178
P & R Distributors,418 E High St,Manchester,NH,03104,603-668-9885
Circle Motor Sales,5 Main St Rt 1 Box 486,Seabrook,NH,03874,603-474-3523
A J Trucking,Wildlife Road 7b,Belmont,NH,03220,603-267-8158
Ron Johnson Trucking,63 Orchard Path Route 1,Weare,NH,03281,603-529-1781
Zeller Automotive Company,64 River Street,Rochester,NH,03867,603-332-7495
N-d Trucking,79 Saratoga Way,Portsmouth,NH,03801,603-498-1184
Badolato & Son's Trucking,3 Modean Dr,Derry,NH,03038,603-437-7527
Bruce Transportation Group,271 Derry Road,Litchfield,NH,03051,513-419-3218
Soule Truck Service,31 Priscilla Lane,Auburn,NH,03032,603-669-5711
Laro's Water Service LLC,42 Great Brook Rd,Lebanon,NH,03766,603-442-1095
Brian Tupick Trucking,18 Gordon Avenue,Gorham,NH,03581,603-752-2912
Mrk Transport Services,15 Germantown Rd,Derry,NH,03038,N/A
Nea Nh LLC,8 Ricker Ave,Londonderry,NH,03053,603-669-6222
H Nelson Transport & Service Co,77 Mammoth Rd,Hooksett,NH,03106,603-625-8228
W C Wight Trucking,Main St,Errol,NH,03579,N/A
Yankee Professional Plumbing Services,128 Dame Road,Tuftonboro,NH,03816,603-569-5995
Epsom Foreign Auto,Rfd #2 Box 14 Rt 28 South,Epsom,NH,03234,603-736-9204
Brian Batchelder Trucking,222 Amesbury Rd,Kensington,NH,03827,603-394-7698
Fogg's Auto,45 Stard Road,Seabrook,NH,03874,603-926-6350
Shire Trucking Co,P O Box 57,Portsmouth,NH,03802,603-427-0996
Smith Super Service,2 Blackfoot Drive,Nashua,NH,03063,603-595-1469
Bobs Auto Repair,49 Stillings Court,Rochester,NH,03867,603-332-0188
"Glenns Trucking Services, Inc.",180 Littleworth Rd,Dover,NH,03820,603-749-2979
Mangia Trucking,160 Winnicutt Rd,Stratham,NH,03885,603-778-6000
Charles T Ayers Trucking Co,106 Goboro Rd,Epsom,NH,03234,603-736-9390
C F T Corp,5 N Main Street,North Salem,NH,03073,603-893-6930
Manchester Parcel Delivery Service,P Box 4632,Manchester,NH,03108,603-234-4929
Gigs LLC,26 Haverhill Rd,Windham,NH,03087,603-434-0707
David Begin,100 Prospect Street,Lancaster,NH,03584,603-788-3077
Berlin Transportation,200 Bedford St,Manchester,NH,03101,508-962-0427
Arbie's Team Transport,Po Box 411,Contoocook,NH,03229,603-724-1943
Load Time Logistics LLC,85 Bay Rd,Farmington,NH,03835,603-755-9899
Haigler,1 Colby Road,Litchfield,NH,03052,603-494-4987
Morehouse Siding & Windows,30 Kendall Pond Rd Lot 84,Derry,NH,03038,603-437-3691
Swnh Electric And Hvac Services,546 Forest Road-rte 123,Alstead,NH,03602,603-835-7811
Roberts Trucking,407 Regent Dr,Dover,NH,03820,603-608-9233
Dehaven Roofing,13b Kim Ave,Londonderry,NH,03053,603-434-5654
Switchgear Exchange,3607 Lafayette Rd,Portsmouth,NH,03801,603-703-3803
Rmp Landscaping,8 Meadow Rd,Portsmouth,NH,03801,603-498-8305
Tlc Moving & Storage,1026 Route 12a,Plainfield,NH,03781,603-996-1522
Ajfloors,8 Gregg Rd,Nashua,NH,03062,603-886-6652
Huckins Towing,69 Ossipee Mtn Rd,Center Ossipee,NH,03814,603-393-4652
The Bread Guy,29 Beaver Lane,Chocorua,NH,03817,160-398-6208
Wingspeed Adventures,808 Russell Station Rd,Francestown,NH,03043,603-547-8822
Northstar Direct,249 Gay Street,Manchester,NH,03103,160-362-7333
Gaumont Plumbing & Heating,1284 Mammoth Road,Pelham,NH,03076,603-300-0559
Gardner Contracting,191 Bow Bog Rd,Bow,NH,03304,978-670-8424
Stuart Landscaping,64 Meredith Center Rd,Meredith,NH,03253,603-279-0272
Gate City Catering LLC,105 Parnell Place,Nashua,NH,03060,603-809-1073
Dusty Rhoades,9 Harvard St,Exeter,NH,03833,617-279-7533
Lloyd Contracting,1353 Brushwood Rd,Pike,NH,03780,302-451-1122
Malden Construction,81 Mill Shore Road,Hampstead,NH,03841,603-329-5993
Jpb Heavy Truck Service,5 May Ave,Keene,NH,03431,603-357-0702
A-1 Billiard Service,148 Back River Road,Bedford,NH,03110,603-765-6160
Robert Wilder Trucking,19 Quimby Court,Danville,NH,03819,603-974-2449
Iron Hammer Stoneworks LLC,427 North Rd,Danbury,NH,03230,603-768-3393
David Luter,6 Livermore Street,Wilton,NH,03086,617-429-1120
France Daigle Masonry,7 Mont Vernon Drive,Londonderry,NH,03053,603-434-8781
Robert Stark Lighting,9 Ling Street,Marlborough,NH,03455,212-586-2744
Kids On The Go Shuttle,Stone Bridge Rd,Wilmot,NH,03287,603-856-6876
Steve Blunt Masonry,105 Hillside Ave,Southhampton,NH,03827,603-394-7089
S Dirksen General Contractors,174 Black Cat Island Rd,Moultonborough,NH,03254,603-557-0595
Mel's Bread,86 Hooker Farm Road,Salem,NH,03079,603-890-1314
Mace Paving,19 Rocks Rd,Seabrook,NH,03874,603-760-2289
Jason W Gardner Enterprises,119 Millville Street,Salem,NH,03079,603-396-3752
Second Nature Landscape Outlet,207 Atlantic Avenue,North Hampton,NH,03862,603-765-0790
Joseph&sons Delivery Systems,2731/2 Main St,Nashua,NH,03060,603-966-6619
One Stop Autobody,150 Lowell Rd,Hudson,NH,03051,603-883-8780
Obrien & Sons,12 Harvard St,Nashua,NH,03060,603-566-3724
Ojala Farm,185 Thayer Road,New Ipswich,NH,03071,603-878-2024
Gps Logistics,3 Scenic View Drive,Pelham,NH,03076,800-226-3696
Osborn Mushroom Farm,307 Chestnut Hill Rd,Rochester,NH,03867,603-332-0154
Gmc Farm,120 Cornish Stage Rd,Cornish Flat,NH,03746,603-469-3560
Dale Hemeon Transportation,8 Cate Rd,Hooksett,NH,03106,603-485-2668
Bowman Transportation,84 Bowman Rd,Alton,NH,03809,603-318-8630
The Bargain Corner,32 Ames Plaza Lane,Walpole,NH,03608,603-756-9566
Don Mcwhirter And Crew,6 Copps Hill Rd,Melvin Village,NH,03850,603-340-0341
Dayne Thompson,300 Sargent Road,Gilmanton,NH,03237,603-832-1104
Trash Etc,8 Willow Vale,Atkinson,NH,03811,603-234-7120
Established Towing,20 S Summer St,Nottingham,NH,03290,603-778-6808
Urban Express,10 Morrison Ave,Salem,NH,03079,978-210-9847
Sr Trucking,47 Weare Rd,Seabrook,NH,03874,508-232-0156
Cycle Design,Winchester St,Keene,NH,03431,603-354-7740
Dugres Auto Repair,269 Concord St,Antrim,NH,03440,603-588-4907
Richard Clough Transport,15 Emile Dr,Allenstown,NH,03275,603-521-2539
Df Cremmen Auto Wholesale,7 Ridge Rd,Middleton,NH,03887,603-473-2025
Subcontracting,239 Drakeside Rd,Hampton,NH,03842,888-844-4245
Common Blacksmith,65 Main St,Lancaster,NH,03584,603-788-4570
Strongman Movers,89 Douglas Drive,Canolia,NH,03034,603-325-1071
Bradley Yates Trucking,12 Buchanan Street,Nashua,NH,03060,706-325-7927
Blm LLC,112 Bellview Dr,Swanzey,NH,03446,603-305-8412
Krw Auto Transport And Towing,207 Concord Rd,Keene,NH,03431,603-313-1450
Arthur Dufresne,46 Bridge St,Pelham,NH,03076,603-635-7583
Active Towing & Recovery,154 Oak Hill Rd,Weare,NH,03281,603-497-8428
"M R S Towing & Sales, Inc.",12 Faith Drive,Hampstead,NH,03841,603-329-7165
Jeff Hanson,77 South Rd,Gilmanton,NH,03237,603-234-5810
Subcharter S Corporation,38 B South Road,North Hampton,NH,03862,603-964-6713
Lapointe & Beaubien LLC,15 Drew Road,Somersworth,NH,03878,603-692-2941
Cds Portable Toilets,615 Us Route 3,N Stratford,NH,03590,603-922-8310
Deb Enterprises,73 Hamwoods Road,Alton,NH,03809,603-875-3184
Admiral Towing LLC,123 North Shore Drive,Hapmpton,NH,03842,603-601-2399
The Attentive Gardener,109 Exeter Road,North Hampton,NH,03862,603-964-2320
Riverdale Towing And Recovery,234 South Main Street,Newmarket,NH,03857,603-292-5107
Owner,7 Jimtown Road,Gorham,NH,03581,603-466-3087
Snap On Tools,23 Willow St,Pelham,NH,03076,603-235-4765
Solid Construction,3 Lancaster Drive,Londonderry,NH,03053,603-434-8062
Bjv Trucking,150 E Main St,Bradford,NH,03221,603-938-5634
Sanchez Towing,173 West Hollis St,Nashua,NH,03060,603-595-6265
Frank Tatro,120 Lafayette Road #45,Rye,NH,03870,603-817-0194
R&l Auto Towing & Recovery,78 Andrew Ln,Canaan,NH,03741,603-523-7985
C-corp,26 Scripps Lane,Mason,NH,03048,603-878-3447
Hampton Harbor Boatworks,23 Colby Rd,Danville,NH,03819,603-235-3486
Rt & Sons Ent,201 Us Rte 4,Wilmot,NH,03287,603-238-8202
Dales Towing,234 North Street,Claremont,NH,03743,603-558-3296
Seacoast Gas Service,7 Kinsale Dr,Rochester,NH,03868,603-973-3128
Franklin Area Towing,30 West High St,Franklin,NH,03235,603-934-1909
Thistle Towing,31 Tarns Rd,Pittsburg,NH,03592,603-538-6043
Nick's Towing Of Claremont,296 Stage Rd,Charlestown,NH,03603,603-543-9982
Dcl Trucking,718 Lost Nation Rd,Groveton,NH,03582,603-636-2585
Ne Food Imports,1c Central St,Hudson,NH,03051,603-438-6051
Rfe-LLC,64 Eaton Rd,Freedom,NH,03836,781-710-6607
Murano Scrap,12 Breezy,Hinsdale,NH,03451,802-451-0870
Walpole Valley Heating,123 Walpole Valley Road,Alstead,NH,03602,603-756-4038
Kadberrys,74 Jackson St,Littleton,NH,03561,603-259-3028
Vics Bread,5 Christopher Lane,Pelham,NH,03076,603-548-0825
Res Comm Foundations,14 Acre St,Raymond,NH,03077,603-244-2927
Toy Store Auto Sales,67 South Broadway,Salem,NH,03079,603-893-2253
Country Time Towing,87 Sharon Rd,New Ipswich,NH,03071,603-878-2426
H & D Trucking,33 Upham Place,Claremont,NH,03743,603-790-0365
Wjm Handyman Company,27 Greeley St,Hudson,NH,03051,978-788-5792
Move Well,8 Corona Ave,Nashua,NH,03063,503-702-6080
L & L Residential,131 Governors Rd,Milton,NH,03851,603-973-3526
M J Express,24 Roy St,Nashua,NH,03060,603-557-4809
Sjb Customs,39 Burnside St,Nashua,NH,03064,603-943-4062
One Step Up Moving,207 Parker Rd,New Boston,NH,03070,603-854-3434
Bolland Builders,82 Berkely Street,Bethlehem,NH,03574,603-869-5680
Disa Delivery,24 Deer Lick Road,Danville,NH,03819,603-819-6069
Gonzalez Movers,249 Union Street,Manchester,NH,03103,978-914-1031
Jt Knowles & Sons,32r Ledge Road,Seabrook,NH,03874,603-394-2017
Hackett Transportation,19 Baker Street,Dover,NH,03082,603-866-2281
Lambert & Sons Trucking,47c River Street,Seabrook,NH,03874,603-205-4399
Hometown Rite Window,39 Stagecoach Road,Durham,NH,03824,603-373-6201
Cw Keller,9 Hale Spring Road,Plaistow,NH,03865,603-382-2028
Lydia M Logistics,612 Cilley Road,Manchester,NH,03103,603-703-4895
Mr Mud Movers,6 Gordon Street,Woodsville,NH,03785,802-535-6831
Monadnock Lift Truck Service,788 North Street,Jaffrey,NH,03452,603-532-8665
Jrl Logistics,175 Londonderry Tpke - Apt 15,Hooksett,NH,03106,603-583-0209
Black Dog Transport LLC,20 Wyndmere Dr,Londonderry,NH,03053,603-966-0127
Fastlane Towing And Recovery,11 Holly Lane,Londonderry,NH,03053,603-479-4302
Red Oak Snacks,110 Dean Rd,Danbury,NH,03230,603-783-0342
Ttc,73 Jenkins Rd,Bedford,NH,03110,603-472-3013
Servpro Of Derry Londonderry,187 Londonderry Turnpike,Hooksett,NH,03106,603-432-3221
K & D Logistics,91 Falcon Crest Way,Manchester,NH,03104,617-835-2249
Tripp Transportation Group,200 International Dr Suite 250,Portmouth,NH,03801,866-783-7197
A Perfect Pick,3 Iris Ave,Pelham,NH,03076,978-764-2087
Big Island Auto Sales LLC,9a Kipkam Rd,Atkinson,NH,03811,603-231-2175
Alpine Express,1 Eastman Dr,Derry,NH,03038,978-998-5324
Parshley Electrical Service,800 West Hollis Street,Nashua,NH,03062,603-880-8795
Yamayagi Express,262 Route 9,West Chesterfield,NH,03466,603-256-6490
Twin State Tractor,585 Nh Route 4a,Enfield,NH,03748,603-632-4500
Cn Swan 24hr Towing And Recovery,9 Ponderosa Park,Charlestown,NH,03603,603-674-9852
Mustang Express,215 South Broadway,Salem,NH,03079,978-210-9847
Dale's Auto Body,961 Route 302,Lisbon,NH,03585,603-838-5527
3 Peas In A Pod Transport,16 Deer Run Lane,Northwood,NH,03261,202-521-1484
Kenny Desaulniers & Son Trucking,45 Durgin Road,Bennington,NH,03442,603-464-9167
Dr Energy Saver,7 Redroof Ln Unit 4,Salem,NH,03079,603-458-7961
O'donnell Excavating,1 Mathew Street Unit 9,Concord,NH,03301,603-715-2508
Ellis Plowing,436 Mammoth Rd,Pellham,NH,03076,603-608-9081
Cj Ryder Flooring,48 Hoit Rd,Epsom,NH,03234,603-736-8774
Delux Auto Transport,7 Sibley Terrace,Manchester,NH,03109,603-661-2806
A&m Towing,172 Rockingham Road,Derry,NH,03038,978-918-1718
Momentum Hauling LLC,1 Liberty Lane,Keene,NH,03431,603-369-8770
Watsons Streetworks,4 Bud Way,Nashua,NH,03063,603-943-7923
B & K Trucking,51 St Garage Rd,Milan,NH,03588,603-449-2968
Cjrl Trucking,67 West Shore Drive,Raymond,NH,03077,603-860-6382
C 2 L Trucking,75 1/2 Pine Hill Road,Nashua,NH,03063,978-726-1728
Sears Hometown Store 3523,831 Meadow St,Littleton,NH,03561,603-444-4120
Scott Verney Mobile Repair,10 Circle Drive,Goffstown,NH,03045,603-935-7552
Joken Signs,3 Arcola Street,Dover,NH,03820,603-617-6409
Emmanuel Import And Export,141 Morgan St,Manchester,NH,03102,603-858-3127
Walton Farm,182 Gofftown Back Road,Gofftown,NH,03045,202-521-1484
Rockingardens,132 Kingston Rd,Exeter,NH,03833,603-778-6474
Sunrise Farms,25 Pine Road,Brentwood,NH,03833,607-772-4420
Class B Transportation,4 Old Nashua Rd,Londonderry,NH,03053,603-556-3207
Auto Pickers,137 Henniker St,Hillsborough,NH,03244,603-464-3628
Daigle,172 School St,Rumney,NH,03266,603-630-6634
Atlantic Remove-all,77 Exeter Rd,South Hampton,NH,03827,603-394-0116
Daniel Ellison Professional Lawn Service,17 Calef Hwy,Lee,NH,03861,603-502-9465
Rhinestone Rhino LLC,220 Loudon Rd,Concord,NH,03301,603-651-7566
Goodhue Metals,7012 Josiah Bartlett Road,Loudon,NH,03307,603-731-3877
Baker Stone Masonry,378 Newbury Road,Sutton,NH,03221,603-927-4983
Painting Contractors,65 Saw Grass Circle,Londonderry,NH,03053,603-434-6374
Above All Excavating LLC,31 Wilde Rd,Spofford,NH,03462,603-721-9169
Vivian Beer Studio Works,21 Dow St,Manchester,NH,03101,845-667-0525
J Mayotte Trucking,29 Andrews Ln,East Kingston,NH,03827,603-777-2646
Chester Hollow Water Gardens,119 Haverhill Rd,Chester,NH,03036,603-887-7874
Brookline Firewood LLC,10 Proctor Hill Road,Brookline,NH,03033,603-582-8372
Yankee Insulation Products,480 Bedford Rd,New Boston,NH,03070,603-487-2400
Keyes Trucking,81 Lesnyk Rd,Goffstown,NH,03045,781-835-6293
Cheapo Depot,143 Lake St,Gilford,NH,03249,603-528-3376
6036263922,32 River Birch Circle,Manchester,NH,03102,603-264-9817
"Thee Rt 568, Inc.",137 West Bow St,Franklin,NH,03235,603-455-0933
Dba Kg Signs Kaotik Grafitti,118 Church Street,North Walpole Nh,NH,03609,160-344-5522
Laughing Crows Express,43 Spindleback Lane,New Ipswich,NH,03071,603-784-5270
J&e Wall Systems,1634 Greenland Rd,Greenland,NH,03840,603-427-5001
Wicked Good Ice,12 Amarosa Drive,Rochester,NH,03868,207-720-0582
Blue & Green,60 Old Hackett Hill Rd,Manchester,NH,03102,603-275-6483
Black Knight,668 Berry River Road,Barrington,NH,03825,603-781-5338
Bjr Distributing,945 Willow Brook Road,Plainfield,NH,03781,603-298-3384
Sailmaking Support Systems,588 Portsmouth Avenue,Greenland,NH,03840,603-431-6004
J&s Asphalt,178 South Main Street,Newton,NH,03858,603-560-9513
Sears Hometown Store 3673,389 Tenney Mountain Hwy,Plymouth,NH,03264,603-536-1288
Awhq,20 Mason Street,Nashua,NH,03060,781-640-6682
Angie Transportation,51 Parkview St,Manchester,NH,03103,603-486-1422
A & G Appliance,1 Front St,Rollingford,NH,03869,603-343-4724
Critter Control Of Nh,144 Wire Rd,Merrimack,NH,03054,603-424-7452
Emerlyn Technology,2190 White Mountain Hwy,North Conway,NH,03860,603-490-2561
Boczar Trucking,31 Fifield St,Nashua,NH,03060,603-942-0734
Chamberlin Electric,315 Derry Road Suite 9,Hudson,NH,03051,603-595-9473
Alexs Welding Service,23 Woodcraft Lane,Alstead,NH,03602,603-852-8054
Lambert Transport,83 Corlis Lane,Colebrook,NH,03576-3202,603-237-5762
Sp Rogers Ent,5 Griffin Road,Londonderry,NH,03053,N/A
K M Zahn & Sons,484 Mt Vernon Rd,Milford,NH,03055,603-673-5857
R L Grant Equipment,13 Cleveland Hill Road,Brookline,NH,03033,978-758-4027
Jr's Southern Cars Ii,1194 Hooksett Rd,Hooksett,NH,03106,603-623-7926
Town Line Trailers,1809 Rte 16,Center Ossipee,NH,03814,603-539-8458
John H Wescott Trucking,528 Shackford Corner Road,Barnstead,NH,03225,603-269-6204
Fowler Sand & Gravel,1094 Salmon Falls Road,Rochester,NH,03868-5708,603-332-1526
Capobianco Carpentry,173 North Road,Epsom,NH,03234,603-736-8738
Muller Transportation,21 Otter Road,Raymond,NH,03077,603-391-1556
Monkee Car Hauler,1 Pheasant Lane,Manchester,NH,03109,603-566-4735
Viking Logging Company,2315 Benton Road,North Haverhill,NH,03774,603-787-2695
Warren Farm Carriage Rides,72 Main Street,Alstead,NH,03602,603-835-2490
Johnny B Goods,17 Haverhill Rd,Salem,NH,03079,603-890-0212
Timberline Loggin,254 Woodword Road,North Haverhill,NH,03774,603-787-2096
Scott And Debs,517 Whittier Hwy,Moultonborough,NH,03254,603-253-7113
Lj Yard Work,4 Weaver Place,Weare,NH,03281,603-933-3256
Rodriguez Shipping,248 Grove St Apt 3,Manchester,NH,03103,978-809-6452
Epic Outdoors,9 Brown St,Salem,NH,03079,603-401-9511
Tim Swanson Excavation,66 Depot St,Hinsdale,NH,03451,603-731-1719
Jordan & Sons,85 Heritage Avenue,Portsmouth,NH,03801,603-964-5380
A-jac Trucking,169 Ford Farm Road,Milton,NH,03851,603-670-8907
Lombardos Trucking,13 Grandview Rd,Windham,NH,03087,603-560-5669
K & H Boczar Trucking,16 Mercury Lane,Nashua,NH,03062,603-921-6484
C & L King Trucking,43 Spring Street,Berlin,NH,03570,603-752-4651
Stan's Trucking,68 College Rd,Stratham,NH,03885,603-772-2990
Nowe Transportation&logistics,7 Kingston Rd,Plaistow,NH,03865,603-275-3157
Michael Veltsos Auto Transport,1 Ninth St,Hampton,NH,03842,603-231-3992
Tracy Hart Trucking,20 Buckingham Dr,Conway,NH,03818,207-391-8212
Jd Distributors,32 Critchett Rd,Raymond,NH,03077,603-393-5501
Hjp Transport Services,17 Goodnow St Apt2,Jaffrey,NH,03452,603-283-8784
Dwt Transport,68 Ledgemere Estates,Moultonboro,NH,03254,603-253-9316
C And S Signs,8 Harvey Rd,Londonderry,NH,03053,603-231-3602
Alton Home And Lumber Center,199 Main Street,Alton,NH,03809,603-875-3900
P George Homes,230 Rockingham Rd,Derry,NH,03038,603-965-4735
Brentwood Power Equipment,244 Rt 125,Brentwood,NH,03833,603-642-3201
Fields Of Green Estate Care,941 Main St,Fremont,NH,03044,603-642-5841
Cloverdalefeed & Farm Supply,299 Battle St,Webster,NH,03303,603-746-3234
"Pete's Cycle, Inc.",25 Craftsman Lane,Merrimack,NH,03054,603-598-2697
Pitre Logging,30 Blandin St,Bethlehem,NH,03574,603-616-5821
Merrimack Stone Industries,7 Webb Drive,Merrimack,NH,03054,603-883-6240
L&h Property Maintenance,668 River Rd,Lyme,NH,03768,603-353-9802
Scenic View Farm & Garden,162 Twin Mt Rd,Whitefield,NH,03598,603-837-9972
Intervale Lock And Safe,3631 White Mountain Highway,Intervale,NH,03845,603-356-2530
Jayco Disposal,277 Green Street,Somersworth,NH,03878,603-692-9700
Northeast Slope Mowing,29 Lower Cemetary Rd,Langdon,NH,03602,603-477-8013
River Valley Farm,160 Rt 10,Orford,NH,03777,603-667-6334
Ian Blackman LLC,48 Blackman Rd,Chichester,NH,03258,603-798-4665
Ultrakleen Products,45 Route 125,Kingston,NH,03848,603-347-8779
Paint Plus,95 Pleasant St,Epping,NH,03042,603-679-1105
Puffer Industries,158 Mayhew Turnpike,Plymouth,NH,03264,603-536-3399
Big Green Recycling,3 Chester Turnpike,Allenstown,NH,03275,603-210-5120
Nouveau Interiors LLC,291 Shasta St,Manchester,NH,03103,603-626-0020
Jeff's Plowing And Sanding,18 Hebb Drive,Orford,NH,03777,603-353-4313
Supreme Property Services,203 Pleasant St,Claremont,NH,03743,603-543-0492
Ras-tech,50 Pine Rd,Brentwood,NH,03833,603-772-1995
Barr Farm,7 Barr Rd,Alton Bay,NH,03252,617-201-5125
Jeffrey A Topping,39 Cross St ,Salem,NH,03079-4103,978-987-7484
Gordon Coursey And Son,10 Coursey Ln,Rumney,NH,03266,603-786-9082
Keenan Equipment Co,23 Winter St,Peterborough,NH,03458,603-924-9630
Archambault's Masonry,507 Hurricane Hill Road,Mason,NH,03048,603-878-2198
Tri State Car Crushing,902 Route 10,Lempster,NH,03605,603-731-3460
Eastern Antiques,516 Mammoth Road Unit 2d,Londonderry,NH,03053,603-437-0266
Jp & Sons,97 River Rd,Hudson,NH,03051-5228,978-375-3719
Russ Lanoie Design Const,397 Tasker Hill Rd,Conway,NH,03818,603-447-5266
Bob Peckett & Sons,138 Peckett Cross Road,Sugar Hill,NH,03585,603-823-7710
Shep Brown's Boat Basin,31 Lovejoy Sands Rd,Meredith,NH,03253,603-279-4573
Birchwood Orchard,206 Old Turnpike Rd,Mason,NH,03048,603-878-0542
D & L Amusement,140 Rte 140,Northfield,NH,03276,603-286-3846
Glennco Welding Fabricating,25 Ash Street,Londonderry,NH,03053,978-535-8124
Maple Creek Landworks,57 Mechanic St Ste 3 ,Lebanon,NH,03766-1525,603-298-7669
C + C Hauling,9 Russell St,Rochester,NH,03867,603-948-6856
Anthony Vadala,103 Bayberry Ln,Londonderry,NH,03053,978-758-0575
1 Stop Maintenance,415 Brushwood Road,North Haverhill,NH,03774,603-381-9514
"125 Maintenance & Fence, Inc.",1205 Calef Highway,Barrington,NH,03825,603-868-3025
Ski Haus-notb-patio Place,317 S Broadway,Salem,NH,03079,603-898-1722
"1st Class Moving & Storage, Inc.",1064 First Nh Turnpike,Northwood,NH,03261,603-942-5100
1st Pro-tech Building And Excavation LLC,564 Old Candia Road,Candia,NH,03034,603-587-0999
211 Central LLC,211 Central Ave,Dover,NH,03820-4003,603-742-9709
2tcb6 LLC,10 Conifer St,Merrimack,NH,03054,603-494-9831
3 Mile Trucking LLC,600 Beech St,Manchester,NH,03104,909-488-8786
"3d Drywall, Inc.",2303 Columbia Circle,Merrimack,NH,03054,603-429-9460
4 C Sons Transportation,33 Sparrow St,Keene,NH,03431,603-801-0852
4 Dugans Haulin LLC,22 Thurston Road,Milton,NH,03851,603-755-9362
Southern Nh Roadside Services,65 Saint Camille St,Nashua,NH,03060,603-809-6999
"603 Executive Transport, Inc.",30 Krainewood Dr,Moultonborough,NH,03254,603-998-7418
603 Marine LLC,165 Stark St,Gilford,NH,03249,603-409-1915
603 Oil And Fuel LLC,123 Governor Wentworth Hwy,Moultonboro,NH,03254,603-707-6161
603 Road Runner Transport LLC,38 Lowell St Apt 7,Nashua,NH,03064,817-258-5044
603 Transport LLC,16 Corliss Dr,Weare,NH,03281,603-714-4582
"93 North Airfreight Transportation, Inc.",1-a Old Robinson Rd,Hudson,NH,03051,603-886-3690
A & B Concessions & Catering,231 Emery Rd,Andover,NH,03231,603-630-7136
A & B Logistics LLC,156 Wash Pond Rd,Hampstead,NH,03841,603-489-5092
A & B Vending Co,26 Hall Road,Canterbury,NH,03224,800-696-1188
A & D Trucking,155a Piper Hill Road,Loudon,NH,03307,603-798-3355
"American Crane Co, Inc.",7 Crane Way,Hooksett,NH,03106,603-668-5844
"A A Auto Repair, Inc.",268 Main Street,Gorham,NH,03581,603-466-5716
"A And L Moving And Storage, Inc.",46 Bridge St,Nashua,NH,03060,603-577-3827
"A And M Signs With Style, Inc.",836 Candia Rd,Manchester,NH,03109,603-621-4144
Wendell Rexford & Sons,183 Colby Road,Whitefield,NH,03598,603-837-2451
A B C Moving And Storage Company,12 Bockes Road,Hudson,NH,03051,603-881-9444
"A B Excavating, Inc.",653 Main St,Lancaster,NH,03584,603-788-5110
"A D G Transport, Inc.",622 First Avenue #3,Berlin,NH,03570,819-875-5702
A E Brown,371 Mountain Ave,Northwood,NH,03261,603-942-8822
A E C Trucking,Rt 10 Box 4,East Lempster,NH,03605,N/A
"A E Trans Logistics, Inc.",6 Scott Road,Hampton,NH,03842,561-308-4243
A F Gloenco,452 Sunapee Street,Newport,NH,03773,603-863-8611
"A J Beverage Distributors, Inc.",6 Morrow St,Exeter,NH,03833,603-772-4045
"A J Crane Service, Inc.",38 Sherburne Rd,Portsmouth,NH,03801,603-431-5578
"A J Deroma Sons, Inc.",191 Foster Pond Road,Alexandria,NH,03222-9747,603-744-2162
A J Transport,Rt 137 South,Dublin,NH,03444,603-563-7006
A J Trucking,15 Woodworth Ave,Portsmouth,NH,03801,603-436-7082
A L Johnson Trucking,186 Bowkerville Rd,Troy,NH,03465,603-242-3846
A Line Trucking,Rr2 Box 1560,Chichester,NH,03234,603-798-5404
A N B Auto Repair Center,177 Glen Avenue,Berlin,NH,03570,603-752-7424
"A Plus Energy Services, Inc.",315 Kent Farm Rd,Hampstead,NH,03841,603-329-5953
A R Arsenault Transportation LLC,38 Noyes St,Bethlehem,NH,03574,603-869-5624
"A R Door Services, Inc.",183 Route 125,Brentwood,NH,03833,603-642-4462
A R Trucking LLC,177 Robbins Road,Rindge,NH,03461,603-899-6139
A Reliable Fix LLC,5 Nh Route 145,Clarksville,NH,03592,603-246-8844
A Rodd Industries LLC,4 Lake Front St,Amherst,NH,03031,603-732-3903
A S Goodrum Transport,619 Milan Hill Road,Milan,NH,03588,603-449-2352
"A T L, Inc.",69 Dover Rd,Chichester,NH,03234,603-798-3100
A T Paving Trucking,Rfd #2 Box 1880,Chichester,NH,03263,603-798-4636
"A To Z Express Of Nh, Inc.orporated",51 Main Street Suite 2,Salem,NH,03079,603-893-5060
"A Tree Health Company, Inc.",119 A Walnut St,Rochester,NH,03867,N/A
A W Greymont Jr Trucking,160 Brackett Road,New Durham,NH,03855,603-859-4396
A W Jewell LLC,14 Pierce Rd,Plainfield,NH,03781,603-298-6144
"A W Therrien Co, Inc.",199 Hayward St,Manchester,NH,03103-5504,603-669-3344
A Winn Transportation LLC,65 Brook St,W Chesterfld,NH,03466,603-313-5464
A Zippy Express LLC,48 Marie Ave,Nashua,NH,03063,978-375-2422
A&b LLC,196 Belmont St,Manchester,NH,03103,727-324-9192
A&e 24 Hr Emergency Roadside Assistance,230 Amherst St,Nashua,NH,03063,800-674-2501
A&e Trucking,19 Crosby St,Milford,NH,03055,603-673-9649
A&j Trucking Corp,17 Loop Rd,Merrimack,NH,03054,603-670-8456
A&k Trucking,234 Willow Brook Rd,Plainfield,NH,03781,603-865-7505
A-1 Power Washing,294 High Range Road,Londonderry,NH,03053,603-437-2343
Arthur E Chechowitz Trucking,21 Circuit Dr,Kingston,NH,03848,603-642-7570
A-tech Automotive LLC,116 Nashua St,Milford,NH,03055,603-673-7462
"A1 Disposal Services, Inc.",57 Bell St,Nashua,NH,03064,603-886-1835
Dba A2b Trucking,24 Upper Ridge Rd,Newbury,NH,03255,813-255-6521
Aa & D Masonry LLC,1650 Elm St Suite 303,Manchester,NH,03101-1217,603-669-0083
Aaa Energy Service Company,20 Priscilla Lane,Auburn,NH,03032,603-626-4884
"Aaa Pump Service, Inc.",93 Depot Rd,Manchester,NH,03103,603-645-8610
Aamt,645 Old Wellington Rd Un 6,Manchester,NH,03104,603-854-2125
Aaron P Davis Sr,152 Littleton Rd,Whitefield,NH,03598,603-837-9113
Frantzy Saintelus,197 Cilley Rd 03103,Manchester,NH,03103,160-389-2119
Ab Golden Logistics LLC,17 East Ridge Rd,Merrimack,NH,03054,603-765-6599
Ab Trucking,35 Hodge Road,Lancaster,NH,03584,603-788-5110
Abag Logistics LLC,16 Kern Dr,Nashua,NH,03060,603-809-1448
Abarca Transportation,24 Burnt Hill Ct,Warner,NH,03278,617-797-5986
Abbott Sanitation Service,182 Pigeon Hill,Union,NH,03887,603-473-2877
Abe Silfani,4 Wedgewood Dr,Concord,NH,03301,603-988-2058
Able Bodied Movers LLC,211 Goboro Rd,Epsom,NH,03234,603-736-8189
"Able Crane Service, Inc.",12 Star Drive,Merrimack,NH,03054,603-424-9415
Able Form Company,158 Merrimack Street,Hooksett,NH,03106,603-485-9744
"Able Moving & Storage, Inc.",14 Howe Drive,Amherst,NH,03031,603-882-2340
"Above Service Co, Inc.",724 E Industrial Park Rd 14,Manchester,NH,03109,603-641-1200
Above&beyond Moving&storage,9 Vose Farm Rd,Peterborough,NH,03458,603-924-3211
Abs Road Service LLC,583 Ocean Blvd,Hampton,NH,03842,603-918-9472
Abs Sealcoat,1660 Greenland Road,Greenland,NH,03840,603-436-5333
Absolute Floors LLC,9 Cedarwood Dr Unit 10,Bedford,NH,03110,603-609-0666
Absolute Powersports Nh,461 Main Street,Gorham,NH,03581,603-466-5454
Accurate Brazing Corporation,36 Cote Avenue,Goffstown,NH,03045,603-625-1456
The Dumpster Depot,8051 South Willow St,Manchester,NH,03103,603-870-9002
Ace Auto Transport LLC,121 Pako Ave,Keene,NH,03431-5018,603-209-2803
"Ace Welding Co, Inc.",715a Dw Hwy,Merrimack,NH,03054-0695,603-424-9936
"Achille Transport, Inc.",Jaffrey Road Rt 202 South,Peterborough,NH,03458,603-352-6554
Acme Pressure Washing,12 Wright Ave,Merrimack,NH,03054,603-883-6900
"Acme Rug Co, Inc.",16 Nashua Rd,Pelham,NH,03076,603-635-9919
"Acorn Leasing Co, Inc.",31 Flagstone Drive,Hudson,NH,03051,978-458-8983
Acorn Motor Freight LLC,33 Londonderry Rd #2,Londonderry,NH,03053,603-425-7417
"Acorn Transit, Inc.",20 Hampshire Drive,Hudson,NH,03051,603-880-6110
Acrs G Smith LLC,14 Merrimack Rd # 214,Milford,NH,03055,603-400-0463
Acs Leasing LLC,19a Columbia Dr,Amherst,NH,03031,866-910-1958
"Action Equipment And Supply, Inc.",17 Old Manchester Rd,Candia,NH,03034,603-587-0237
Action Glass Auto Broker,668 1st Nh Tpke,Northwood,NH,03261,603-942-7750
Action Transport Recovery,33 Rockingham Road,Windham,NH,03087,603-894-5906
Action Well Service,99 Eastern Ave Apt 1,Manchester,NH,03104,603-626-7742
Log Trucking,199 Surry Road,Gilsum,NH,03448,603-352-3778
Adam M Kimball,53 Springfield Road,Newport,NH,03773,603-477-4640
"Adep Group, Inc.",8 Industrial Way Ste E2,Salem,NH,03079,603-239-3005
Adkins Trucking,2nd Nh Tpke,Lempster,NH,03605,603-863-6486
Adler Auto LLC,327 South Rd,Salisbury,NH,03268-5303,603-820-2681
Admiral Building Movers,186 A Paige Hill Rd,Goffstown,NH,03045,603-649-7959
Adolph J Daroska,50 Concord Hill Rd,Pittsfield,NH,03263,N/A
"Adsa, Inc.",1 Stiles Road Ste 105,Salem,NH,03110,203-984-7487
Advance Crane Service LLC,107 Industrial Park,Laconia,NH,03225,603-528-9650
Private,15 Empire Rd,Pelham,NH,03079,978-994-5086
Advance Towing And Trucking LLC,47 High Street,Hillsboro,NH,03244,603-464-3218
Advanced Drilling And Blasting LLC,722 Route 3a,Bow,NH,03304,603-856-7689
Advanced Harvesting LLC,7a Winter Street,Peterborough,NH,03458,603-562-6146
"Advanced Moving Services, Inc.",3 Lilac Court,Nashua,NH,03062,603-881-5545
Advantage Trucking LLC,17 Gigante Drive,Hampstead,NH,03841,603-783-1706
"Adventure Transportation, Inc.",755 Monadnock Hwy,Swanzey,NH,03446,603-357-2933
Aebi New England LLC,166 River Street Route 123,Alstead,NH,03602,603-835-2600
"Aers Services, Inc.",210 Pine St #11,Nashua,NH,03060,603-889-8854
"Affiliated Resource Solutions, Inc.",15 Nottingham St,Hudson,NH,03051,603-312-2655
Affordable Container Service,4 Bridle Bridge Rd,Hudson,NH,03051,800-595-9180
Affordable Oil LLC,141 Rollins Rd,Rollinsford,NH,03869,603-743-5749
Affordable Pools,11 Rebel Rd Unit F,Hudson,NH,03051-3034,888-611-7665
Affordable Towing Corporation,5 Eastpoint Drive Unit 14,Hooksett,NH,03106,603-300-8265
"Affordable Vinyl Windows & Siding, Inc.",320 Rockingham Road,Auburn,NH,03032,603-647-7474
Ag Structures LLC,96 Old Turnpike Rd,Salisbury,NH,03268,603-648-2987
Ag&d Logistics LLC,23 Chatham Cir,Salem,NH,03079,603-275-0352
Agd Logistics,23 Chatham Circle,Salem,NH,03079,603-290-0534
Arc Transportation,15 Holmes Road,Dunbarton,NH,03046,603-774-5644
Agm Transport LLC,30 Pullman St,Manchester,NH,03103,862-246-8726
Agn Cable Tech LLC,84 W Broadway,Derry,NH,03038,978-429-6533
"Agw & Associates, Inc.",310 Marlboro St Sutie 104,Keene,NH,03431,603-762-1845
Ahlman's Well And Pump Service,400 North Main Street,Salem,NH,03079,603-898-9100
Ahmad Trucking LLC,550 Dartmouth College Hightway,Lebanon,NH,03766,603-359-6436
Aige Express Corp,62 Alice Drive,Concord,NH,03303,603-715-2759
Custom Moving And Storage Of Lebanon,41 Interchange Drive,West Lebanon,NH,03784,603-298-8991
Aimes Unleashed,35 Harrod Lane,Bedford,NH,03110,603-714-2299
Api Of Nh & Delta T Distributors,190 Zachary Rd,Manchester,NH,03109,603-668-7810
"Air Quality Experts, Inc.",23 Hall Farm Road,Atkinson,NH,03811,603-894-6465
"Airline Service Accommodating People, Inc.",10 Canterbury Forest,Plaistow,NH,03865,603-382-3867
Aj Movers LLC,13 Spollett Drive,Derry,NH,03038,603-216-5673
Aj Ralls Trucking,14 Stockwell Hill Rd,Gilmanton,NH,03237,603-556-0911
Go Minis,3a Sagamore Park Road,Hudson,NH,03051,603-883-4252
Ajmartino Enterprise LLC,17 Sunland Dr,Hudson,NH,03051,603-459-8446
Dubois Trucking,12 Castle Hill Rd,Pelham,NH,03076,603-882-6360
Fauteux Trucking,27 Jewett Drive ,Nelson,NH,03457,603-209-8454
Al- Siteworks,7 Eastman Loop,Newport,NH,03773,603-477-3990
"Aladdins Home Improvements, Inc.",39 Greenough Rd,Plaistow,NH,03865,603-378-2037
Alan Hamel Trucking Co,195 River Road,Allenstown,NH,03275,603-485-3245
Northern Woods,45 Railroad St,Lancaster,NH,03584,603-915-3199
East Coast Welding,1979 Lakeshore Rd,Gilford,NH,03249,603-293-8384
Alan Marsh,32 West Rd,Temple,NH,03084,617-212-8871
Ajm Wholesale,26 Matthew,Salem,NH,03079,603-894-6605
Apk Excavation,5 Oliver Road,Marlborough,NH,03455,603-876-4294
Alan R Semple Iii,14 Brandy Cir,Litchfield,NH,03052,603-437-2009
Clarendon Trucking Co,199 Rt 13,Brookline,NH,03033,603-673-5111
Alan W Merrill,2 Pearson St,Farmington,NH,03835,603-755-3914
"Alan's Diesel Service, Inc.",151 Stepping Stones Rd,Lee,NH,03861,603-659-2826
Albee Automotive Services LLC,896 Rush Rd,Henniker,NH,03242,603-995-1645
Moranco Trucking,88 Crane Rd,Whitefield,NH,03598,603-837-9208
Albert Olson,49 North Reading St,Manchester,NH,03104,603-657-4798
Alden C Anderson Jr LLC,18 Edgewood Avenue,Merrimack,NH,03054,603-930-7320
Aldrich Trucking LLC,5 Ponderosa Park,Charlestown,NH,03603,603-477-3856
Alecon Enterprises,122 Bridge St Unit 5,Pelham,NH,03076,603-635-0819
Aless Transportation LLC,177 Beech St Apt 3,Manchester,NH,03103,603-820-7684
Alexa Auto Transportation LLC,1 Pavillion Rd,Amherst,NH,03031,603-320-0561
Malex Trucking,7 Morgan St,Nashua,NH,03064,978-996-2874
All Creatures Mobile Veterinary Services,17 Elkins Rd,Kingston,NH,03848,603-244-6098
"All Interiors, Inc.",184 Rockingham Road,Londonderry,NH,03053,603-425-0770
All Kitchens Of New Hampshire,254 Dartmouth College Highway,Lebanon,NH,03766,603-448-4887
"All Metals Industries, Inc.",4 Higgins Drive,Belmont,NH,03220,603-267-7023
All Or Nothing Trucking,34 Raymond St,Nashua,NH,03064-1951,603-557-5517
"All Pro Moving & Storage, Inc.",836 Candia Road,Manchester,NH,03109,603-626-8010
All Safe Packing LLC,25 Front St Ste 1r,Nashua,NH,03064,877-625-7233
All Seasons Equipment,23 Heidi Lane,Bow,NH,03304,603-230-9500
Faucher Trucking,3 Sandy Brook Lane,Londonderry,NH,03053,603-434-4353
Allegro Piano Movers LLC,10-13 Starawberry Bank Rd,Nashua,NH,03062,603-809-7216
Bruce Cragin Trucking & Logging,271 Green Mtn Rd,Effingham,NH,03882,603-539-6338
Allen Jackson Trucking,2845 State Route 114,Bradford,NH,03221,603-848-0335
Al's Auto Service,300 Court St,Laconia,NH,03246,603-524-7441
Alliance Mechanical Services LLC,26 West Hollis Road,Hollis,NH,03049,603-465-7026
Alliance Paving Company LLC,54 Nutting Road,Jaffrey,NH,03452,603-532-4080
Alliance Roadside & Recovery,76 Northeastern Blvd Ste 33b,Nashua,NH,03062,603-718-5929
"Allied Auto Wrecking, Inc.",32 Dustin Tavern Rd,Weare,NH,03281,603-529-7211
Allied Fuels LLC,269 First Nh Tpike,Northwood,NH,03261,603-303-9679
"Allied Septic Service, Inc.",836 Candia Rd,Manchester,NH,03109,603-644-2283
Allservice Towing And Transportation,11 Laconia Rd,Belmont,NH,03246,603-556-3146
"Allstar Movers, Inc.",9 Kessler Farm Drive Apt 229,Nashua,NH,03063,603-661-0239
Allstar Towing,173 South Stark Highway,Weare,NH,03281,631-543-2186
Ally Delivers LLC,358 Barlett Street,Manchester,NH,03102,860-558-3918
Alpha Transports LLC,717 Parker Mountain Rd,Strafford,NH,03884,319-450-7237
Alpha Trucking LLC,56 Cornfield Dr,Somersworth,NH,03878,603-205-1433
Alphacon LLC,34 Bush Hill Rd,Hudson,NH,03051,603-234-4806
Alpine Logistics,85 River Road,Bow,NH,03304,603-229-1717
Alstead Ironworks LLC,396 Gilsum Mine Rd,Alstead,NH,03602,603-835-2304
Aap LLC,35 Willard Farm Road,New Ipswich,NH,03071,603-878-1149
"Alton Bay Distributors, Inc.",163 Alton Shores Rd,Alton Bay,NH,03810,203-770-5927
A S B Farrier Service,247 Old Nottingham Road,Epping,NH,03042,603-834-3785
Amanda T Leasing Corp,3 Security Drive,Hudson,NH,03051,603-598-0707
Amber-holly Trucking Dba,35 Pleasant St,Hinsdale,NH,03451,603-336-5113
"Ambrose Brothers, Inc.",405 Daniel Webster Highway,Meredith,NH,03253,603-279-4444
"Ambrose Logging Co, Inc.",405 Dw Hwy,Meredith,NH,03253,603-279-4444
American Energy Independence Co LLC,5 Main St,Pittsfield,NH,03263,603-228-3611
Amer Darwich,8 Lancelot Ct # 13,Salem,NH,03079,603-898-4374
American Auto Acs,Goeham Pond Rd,Goffstown,NH,03045,603-497-4777
American Auto Transport & Recovery,330 Lincoln Street,Manchester,NH,03103,603-647-4288
American Biomass Transportation,84 Daniel Plummer Rd,Goffstown,NH,03045,603-623-1150
American Biomass Transportation LLC,84 Daniel Plummer Rd,Goffstown,NH,03045,603-623-1150
American Dream Transport LLC,48 Nichols Rd,Lempster,NH,03605,603-557-9538
American Eagle Transport,970 Langdon Rd ,Charlestown,NH,03603-5108,603-558-4455
American Excavating Corp,5 Madden Road,Derry,NH,03038,603-425-2256
Ahc Corp,850 E Industrial Park Drive,Manchester,NH,03109,603-623-5444
American Logistics LLC,16 Falconer Ave,Milford,NH,03055,603-673-7013
"American Messenger Service, Inc.",160 Lake Avenue,Manchester,NH,03105,603-625-4531
Ranger Transport,24 Christina Rd,Raymond,NH,03077-1285,603-793-2872
"American Pride, Inc.",308 Old Cohas Street,Manchester,NH,03103,603-703-8445
"American Warehouse, Inc.",8 Industrial Drive,Hudson,NH,03051,603-881-7272
"Ameritruck Transport, Inc.",35 Manor St,Durham,NH,03824,800-516-1072
Amethyst Enviromental Ltd,16 Langelley Drive,Lee,NH,03861-6646,603-659-4442
Amf American Motor Freight LLC,33 Londonderry Rd # 2,Londonderry,NH,03053,603-818-4295
Amigos Trucking United LLC,413 S Main St,Nashua,NH,03060,603-557-4255
"Amk Trucking, Inc.",216 Forest Rd,Greenfield,NH,03047,603-400-0060
"Ammonoosuc Asphalt, Inc.",172 Douglas Drive,Bethlehem,NH,03574,603-444-2995
Amoskeag Beverages LLC,510 Hall Street,Bow,NH,03304,603-224-3348
Ams Facilities LLC,1176 Hooksett Road,Hooksett,NH,03106,603-647-5310
Amtech Coatings LLC,827 Rte 132 North,New Hampton,NH,03256,401-467-8600
Amv Logistics LLC,128 Porcupine Cir,Salem,NH,03079,603-890-1790
Anastas Transportation LLC,815 Mcgee Dr,Portsmouth,NH,03801,603-817-6596
Anchor Foundation LLC,168 Davis Village,New Ipswich,NH,03071,603-878-4138
Anchor Foundations LLC,712 Turnpike Road,New Ipswich,NH,03071,603-291-0485
"Andover Express Trucking, Inc.",50-a Northwestern Dr Suite #110b,Salem,NH,03079,800-617-8722
Andrew A Houle Appliance Sales And Service,10 Shackford Corner Road,Center Barnstead,NH,03225,603-269-3971
Mac Distributing,22 Richardson St,Lancaster,NH,03584,603-788-3513
Andrew M Greco,116 Rowell,Newport,NH,03773,207-615-4134
Infiniti Of Nashaua,11 Marmon Dr,Nashaua,NH,03060,603-546-0447
Andrew R Giddens,4 Pearly Pond Way,Rindge,NH,03461,603-499-6969
Atp Transport,84 Indian Acres Dr,Hinsdale,NH,03451,603-986-4125
"Andys Auto Repair Shop, Inc.",5 Simon St,Nashua,NH,03060,603-889-0949
Aniel Transport LLC,200 Blevens Dr,Manchester,NH,03104,978-885-7345
Anjo Trucking LLC,32 Perkins Rd,Londonderry,NH,03053,603-315-3628
Annis Trucking,5 Shirley Way,Litchfield,NH,03052,603-429-0453
Anthony Hartley,63 Lawrence Rd,Salem,NH,03079,603-824-6832
Anthony Nichols,29 High St,Peterborough,NH,03458,603-562-6307
Tony Horman,80 Burbank Rd,Center Conway,NH,03813,603-662-6079
Anthony Puglisi,39 Machos Rd Machos Road,Pittsburg,NH,03592,603-538-9526
Aaa Wood Products,8 Park St,Dover,NH,03820,603-765-9132
Anton Transportation LLC,8 Overhill Ave,Nashua,NH,03064,603-557-4134
Sorocaba Express,3 Kessler Farm Dr Apt 115,Nashua,NH,03063,978-601-5762
Plantscapes Management,12 Reyners Brook Drive,Dover,NH,03820,603-742-1182
Antonio R Silva,312 Mammoth Rd,Londonderry,NH,03053,603-231-0325
Antrim Logistics LLC,23 High Street,Antrim,NH,03440,603-588-2227
"Ap Solutions, Inc.",209 Flat Roof Mill Rd,Swanzey,NH,03446,603-357-9690
"Apc Paper Company, Inc.",130 Sullivan Street,Claremont,NH,03743,603-542-6330
Apex Property Maintenance,5 Reddington Landing,Hampton,NH,03842,603-926-2739
Apex Transportation Corp,28 Hejo Rd,Weare,NH,03281,603-325-2459
Apisun Express LLC,125 Brookdale Rd,Salem,NH,03079,978-902-2620
Appalachian Events LLC,One Corporate Park Drive Unit # 13,Derry,NH,03038,603-818-8762
"Appalachian Supply, Inc.",970 Meadow Street,Littleton,NH,03561,603-444-6336
Apple Hill Farm,580 Mountain Road,Concord,NH,03301,603-224-8862
"Apple Jack Services, Inc.",31 Fairhill Ave,Rye,NH,03870,603-964-1033
Apple Trucking,36 Cranberry Way,Manchestet,NH,03109,978-806-6270
Apple's Motor Express LLC,79 Bridge St,Hillsborough,NH,03244,603-547-0645
"Applied Pumping & Septic, Inc.",1676 Wakefield Rd,Sanbornville,NH,03872,603-406-9013
Approved Color LLC,101 Adams Hill Road,Greenville,NH,03048,603-878-1470
Al's Automotive & Truck Service Center,20 Franklin Street,Exeter,NH,03833,603-778-8158
Apr Trucking LLC,17 Chester Turnpike,Hooksett,NH,03106,603-483-2495
Monadnock Harley Davidson,588 Monadnock Highway,East Swanzey,NH,03446,603-352-1472
Aqida Trans LLC,204 Calef Rd,Manchester,NH,03103,603-858-2707
"Aquatic Wear, Inc.",1 Riverview Mill,Wilton,NH,03086,603-654-9885
"Aquatime Pools And Spas, Inc.",89 River Road,Hudson,NH,03051,603-595-5915
Paraiba Transport,254 Daniel Webster Hwy #8118,Nashua,NH,03060,857-425-9619
"Arbo Transport Co, Inc.",2 Central Ave,Portsmouth,NH,03801,207-439-6474
"Arc Source, Inc.",36 London Lane,Seabrook,NH,03874,603-760-6100
"Ardanbloom Enterprises, Inc.orporated",84 W Broadway Ste 200,Derry,NH,03038,866-766-7267
"Area Contractors, Inc.",72 Wheelock Street,Manchester,NH,03102,603-626-4799
Argent Communications LLC,10 Benning St,West Lebanon,NH,03784,202-521-1493
"Argo Cycles, Inc.",63 Epping Street,Raymond,NH,03077,603-645-0010
ArhaulsmithLLC,10 Bittersweet Ln,Exeter,NH,03833,603-702-3803
Aric Blanchette Trucking,254 Carley Rd,Peterborough,NH,03458,603-924-5954
Aris Industrial Supply LLC,159 Millville St,Salem,NH,03079,603-232-0406
P R C T Transport LLC,612 Beacon Street,Manchester,NH,03104,603-666-0586
"Arm Trucking, Inc.",860 Washington St,West Stewartstown,NH,03597,603-246-3552
A & R Bread Services,12 Ridgewood Dr,Goffstown,NH,03045,603-497-5689
"Armand L Sinotte Co, Inc.",1100 South Beech Street,Manchester,NH,03103,603-669-3337
Armor Guard Sealcoating Dover,894 Central Avenue,Dover,NH,03820,603-743-1831
Armor Relocation LLC,4 Mcmann Court,Salem,NH,03079,603-898-5686
Armor-guard Sealcoating Portsmouth,930 Route 1 Bypass,Portsmouth,NH,03801,603-743-1832
Arnold Travel,Dover Neck Road,Dover,NH,03820,N/A
"Arnold M Graton Associates, Inc.",385 Scenic View Rd,Ashland,NH,03217,603-968-3621
Superior Trucking,81 Mont Vernon Rd,New Boston,NH,03070,517-507-0612
Arrow Container Services LLC,16 Pulpit Rock Road,Pelham,NH,03076,603-635-4555
"Arrow Equipment, Inc.",151 Union Street,Littleton,NH,03561-5711,603-444-3313
"Arrow Tile Distributors, Inc.",3 Krif Court,Keene,NH,03431,603-357-6033
Arrowhead Motors LLC,210 Washington Street,Claremont,NH,03743,603-542-4477
Arthur B Wood Jr,185 Mt View Est Rd,Tamworth,NH,03886,N/A
Arthur E Presby Sr Trucking,86 Horse Corner Road,Chichester,NH,03234,603-798-5668
Arthur J Grimes,250 Dover Point Rd,Dover,NH,03820,N/A
A N L Trucking,11 West St,West Swanzey,NH,03469,603-903-0532
Artistic Homes,74 Daniel Webster Highway,Merrimack,NH,03054,603-880-1400
"Arts Service Center, Inc.",403 Amherst St,Manchester,NH,03104,603-668-1559
Asbj LLC,27 Berkshire Rd,Nashua,NH,03064,603-557-6609
Ashland Mobile,78 N Main St,Ashland,NH,03217,603-968-7915
"Ashley Welding Services, Inc.",7 Cutler Road,Hudson,NH,03051,603-880-9032
Ashuelot Trucking Company LLC,101 Old County Rd,Richmond,NH,03470,603-239-4400
"Ashwood Development Co, Inc.",11 Flagstone Dr,Hudson,NH,03051,603-883-9924
Asphalt Appeal LLC,54 Henry Dr,Effingham,NH,03882-8401,603-832-3750
"Assembled Homes, Inc.",136 Watson Rd # 24,Gilford,NH,03249,603-524-9153
"Associated Buyers, Inc.",50 Commerce Way,Barrington,NH,03825,603-664-7105
"Associated Drywall Company, Inc.",28 Burnshill Rd,Hudson,NH,03051,603-883-7719
"Associated Grocers Of New England, Inc.",11 Cooperative Way,Pembroke,NH,03275,603-223-5420
"Associated Industrial Service, Inc.",9 Waterville Dr,Merrimack,NH,03054,603-424-2108
Assured Trans LLC,1465 Woodbury Ave #801,Portsmouth,NH,03801,603-717-4058
At Your Service Nh,149 Castle Shore Rd,Moultonboro,NH,03254,603-986-8149
"Atco Auto Services, Inc.",7 Crescent Street,Salem,NH,03079,603-893-3940
Atkins Auto Repair Performance,14 Commerce Way Units Four And Five,Milton,NH,03851,603-652-7322
Atlantic Boston Carriers Ltd,214 A Plaistow Rd,Plaistow,NH,03865,603-329-6088
Atlantic Crane Service LLC,21 South Main Street,Newton,NH,03858,603-382-7552
"Atlantic Distribution Services, Inc.",140 Epping Road,Exeter,NH,03833,603-772-2000
"Atlantic Recovery & Transport, Inc.",755 Portsmouth Ave,Greenland,NH,03840,603-433-8663
Atlantic Recycling Equipment LLC,13 Jessie Doe Rd,Rollinsford,NH,03869,603-749-2414
Atlantic Refrigerated Service,220 Kensington Road,Hampton Falls,NH,03844,603-926-1192
"Atlantic Trucking, Inc.",3 Muddy Pond Rd,East Kingston,NH,03827,603-772-2353
"Atlas Distributing, Inc.",11 Delta Drive Suite A,Londonderry,NH,03053,603-434-4434
Atlas Foundation,109 Zion Hill Road,Salem,NH,03079,603-458-2292
"Atlas Motor Express, Inc.",51 Kingston Rd,Plaistow,NH,03865,603-382-6265
"Apeg, Inc.",136 Old Sharon Road,Jaffrey,NH,03452-0498,603-532-8324
Atlas Transportation LLC,75 Gilcreast Rd Unit 210,Londonderry,NH,03053,603-204-3927
"Attica Management, Inc.",3 Executive Park Dr Ste 201,Bedford,NH,03110,917-828-2022
Auburn Transport LLC,6 Farmer Road,Hooksett,NH,03106,603-235-7545
Auger Property Maintenance Services LLC,8 Owens Ct,Hampstead,NH,03841,603-329-4254
"Auto Auction Of New England, Inc.",8 Action Blvd,Londonderry,NH,03053,603-437-5700
"Auto Barn, Inc.",288 Brattleboro Road,Hinsdale,NH,03451,603-336-5900
"Auto City Of Manchester, Inc.",90 So Commercial St,Manchester,NH,03101,603-668-4088
Auto Correct LLC,14 Monroe,Dover,NH,03820,603-438-4028
Auto Doc's Transport LLC,42 Brown Hill Rd,E Hampstead,NH,03826,978-394-5179
Auto Rescue U,15 Highland St,Woodsville,NH,03785,N/A
"Auto Stop, Inc.",46 Bridge St,Pelham,NH,03076,603-635-3789
"Auto Town, Inc.",44 Route 125,Brentwood,NH,03833,603-642-7009
Auto Transport LLC,84 Karatzas Ave Apt 303,Manchester,NH,03104,603-867-4960
Auto Valley Technicians,Rt 3,W Campton,NH,03223,603-726-7585
"Auto Wholesalers Of Hooksett, Inc.",1339 Hooksett Road,Hooksett,NH,03106,603-668-6333
Autobahn Of Nh LLC,3 Garvin Falls Rd,Bow,NH,03304,800-350-4590
"Autocrane, Inc.",5 Walter Palmer Lane,Salem,NH,03079,603-896-9000
Automobili Logistics LLC,85 Stiles Rd Ste 104,Salem,NH,03079,978-457-4287
Automotive Alignments And Calibrations LLC,203 Lafayette Rd,North Hampton,NH,03862,808-415-6969
"Automotive Aquisitions, Inc. Nh Division",967 Gold Street,Manchester,NH,03103,603-623-6001
Automotive Equipment Services LLC,485 Pembroke Street,Pembroke,NH,03275,603-224-5764
"Automotive Supply Associates, Inc.",129 Manchester St,Concord,NH,03301,603-225-4000
"Autonomy, Inc.",73 Tucker Dr,Contoocook,NH,03229,603-746-4753
Avalanche Enterprises LLC,27 Heather Hill Lane,Goffstown,NH,03045,603-497-4949
Avery's Sweeping LLC,129 Paridise Rd,N Woodstock,NH,03262,603-745-4333
Avid Paquetted L Paquette Trucking LLC,7 Cote Ln,Londonderry,NH,03053,603-627-8642
Avilite Corp,55 South Commercial Street,Manchester,NH,03101,603-626-4388
Awesome Transportation,190 London Derry Turnpike,Manchester,NH,03104,603-641-6880
"Axl, Inc.",6 Drake Drive,Greenland,NH,03840,603-433-5555
"Ayer & Goss, Inc.",20 Hall Ave,Henniker,NH,03242-3395,603-428-3333
"Ayer Electric, Inc.",1215 Calef Highway,Barrington,NH,03825,603-868-6446
"Ayotte Transport, Inc.",Po Box 705,Goshen,NH,03752,N/A
"Azuro, Inc.orporated",121 Richards Avenue,Portsmouth,NH,03801,603-334-6386
"B & B Drywall, Inc.",9b Button Dr,Londonderry,NH,03053,603-432-9370
B & G Specialty Co,24 S Main St,Derry,NH,03038-2142,603-432-9671
B & L Savage LLC,43 Pine St,Littleton,NH,03561,603-991-7005
B B Trucking,Box 651,Pike,NH,03780,603-989-3135
B Barker Excavating,24b Purington Ln,Hampton,NH,03842,603-926-7566
"B Beard Jr Trucking General Contractors, Inc.",301 Calef Highway,Epping,NH,03042,603-679-2282
B Benjamin Trucking LLC,443 Langdon Rd,Charlestown,NH,03603,603-445-2061
B Brandy And Sons LLC,73 Musquash Rd,Hudson,NH,03051,603-275-9443
B C Legacy LLC,88 Grove St,Dover,NH,03820,413-209-1273
B D M Sweeper Service,331 Flat Root Mill Rd,Swanzey,NH,03446,603-357-5835
B Drouin & Sons Trucking,43 Dublin Street,Gorham,NH,03581,603-466-2058
"B E Pepin Poultry, Inc.",50 B & B Lane,Weare,NH,03281,603-529-3661
B E Tire Services LLC,37 Front Street,Campton,NH,03223,207-752-3040
B H Cameron Septic Services LLC,238 Paulson Road,Farmington,NH,03835,603-755-2110
B Hall Trucking LLC,63 Hall Rd,Errol,NH,03579,603-482-7741
"B I I Fence & Guardrail, Inc.",15 Dutile Road,Belmont,NH,03220,603-524-1415
B Krongard Auto Services,139 Ridge Farm Rd,Strafford,NH,03884,603-664-3174
B L Service,286 Route 10 N,Grantham,NH,03753,603-863-5004
B M Express,4 Mobile Drive,Hudson,NH,03051,603-598-2681
B Millett & Sons Logistics LLC,86 Mountain View Dr,Monroe,NH,03771,603-991-6303
Shipping Shack,63 Emerald Street,Keene,NH,03431,603-352-4249
B Tindle Trucking,18 Us Rt3,N Stratford,NH,03590,603-209-9969
B W D Wheeler Transportation,31 Walker St,Concord,NH,03301,603-228-3415
B W G Transport LLC,1058 Dover Rd,Epsom,NH,03234,603-724-3197
B W Trucking,77 Boyce Rd,Weare,NH,03281,603-529-0345
The Birches At Concord,300 Pleasant St,Concord,NH,03301,603-224-9111
Greystone Farm At Salem,242 Main St,Salem,NH,03079,603-898-5393
B&d Transportation LLC,903 Us Route 3 Unit B,Holderness,NH,03245-5655,603-235-2037
"B&h Oil Co, Inc.",321 N Main St,Salem,NH,03079-1285,603-893-8882
Bedford Falls,5 Corporate Drive,Bedford,NH,03110,603-471-2555
Benchmark Senior Living At Nashua Crossings,674 West Hollis Street,Nashua,NH,03062,603-882-2898
Back And Forth Transport LLC,11 Hartswood Road,Dover,NH,03820,603-740-4079
Back Bay Recovery LLC,140 North Main St,Wolfeboro,NH,03894,603-279-2203
Backroad Transportation Logistics LLC,50a Northwestern Dr,Salem,NH,03079,208-834-4444
Backwoods Transportation And Hauling LLC,285 Bridge St,Manchester,NH,03104,603-345-8333
"Badger - Rand Company, Inc.",3 Industrial Pk Dr,Dover,NH,03820,603-742-8366
Baier Transport LLC,8 Chase Park Road,Seabrook,NH,03874,603-490-7309
"Balcom Brothers, Inc.",94 Armory Rd,Milford,NH,03055-3405,603-673-6287
Ball Bros Trucking And Excavation,29 Coteville Rd,Londonderry,NH,03053,603-432-2775
Bana Trucking LLC,162 S Wilson St,Manchester,NH,03103,603-864-9681
"Banks Chevrolet Cadillac, Inc.",137 Manchester St,Concord,NH,03301,603-224-4055
Baraka Carriers LLC,53 Worcester Street,Nashua,NH,03060,603-943-0468
Barco Transportation Corp,512 West Main St,Tilton,NH,03276,603-286-4845
Barden Trucking,149 Cobb Meadow Rd,Dublin,NH,03444,603-831-4970
Barils Transportation LLC,16 Perkins Ct,Concord,NH,03301,N/A
Barlo Signs,158 Greeley St,Hudson,NH,03051-3422,603-882-2638
Barlow Architectural Millwork LLC,30 Gignate Dr,Hampstead,NH,03841,603-329-6026
Barn Store Of New England LLC,96 Old Turnpike Rd,Salisbury,NH,03268,603-648-2888
Barnard C Sherwin,200 County Road,Walpole,NH,03608,603-756-4869
Barnstead Logging Forestry Service,Route 126 Po Box 176,Center Barnstead,NH,03225,603-435-6874
Barons Major Brands LLC,Pob 325,Plaistow,NH,03865,603-382-1528
Barrett Drilling And Blasting LLC,722 Rte 3a,Bow,NH,03304,603-715-5661
Barrett Hauling Transport,139 Cumberland Rd,Gilford,NH,03249,603-387-8964
"Barrie Miller's Well & Pump Service, Inc.",10 Meeting Hill Road,Hillsborough,NH,03244,603-464-4806
"Barron Bros Development, Inc.",372 Nh Route 11,Farmington,NH,03835,603-755-9071
"Barron Express, Inc.",38 Gardner Hill Road,Tamworth,NH,03886,603-323-2333
Barry J Forst,32 Bow Lake Road,Barnstead,NH,03263,603-231-3866
Barry Murphy,99 Union St,Whitefield,NH,03598,603-837-2153
Bartlett Farm Dairy LLC,436 Josiah Bartlett Rd,Concord,NH,03301,603-226-6536
Bartlett Transportation,Pollard Road,Lincoln,NH,03251,603-745-8025
Bartley P Daley,169 Etna Road,Lebanon,NH,03766,603-448-1879
Barton Corporation,34 Folly Mill Road,Seabrook,NH,03874,603-760-2669
Barton Dairy Transport LLC,19 Fowler Road,Epsom,NH,03234,603-736-9473
Barton Gray Mariners Club LLC,27 Front Street,Exeter,NH,03833,617-728-3555
Base Line Services LLC,391 Chestnut Hill Rd,Farmington,NH,03835,603-332-6385
Basiliere Transportation Corporation,365 Island Pond Rd,Derry,NH,03038,603-324-7295
"Bat Express, Inc.",949 Olc Claremont Road,Charlestown,NH,03603,603-826-4333
Batman Transportation LLC,620 Somerville St,Manchester,NH,03103,603-836-5011
"Battaglia Foundations, Inc.",40 Concord Street,Antrim,NH,03440,603-387-9034
"Bay State Express Co, Inc.",Main Street,Pelham,NH,03301,617-242-2336
"Bayside Distributing, Inc.",Route 125,Brentwood,NH,03042,603-679-2302
Luk Trucking,64 Swiggy Brook Rd,Chichester,NH,03258,603-216-4228
Bcd Drywall Co,Main Street,Milton,NH,03851,603-652-9494
Bck Excavation LLC,13 Richard St,Hampton,NH,03842,603-944-6853
Bdc Services LLC,36 Dixon St,Laconia,NH,03246-3528,603-506-8229
Beacon Hill Trucking LLC,352 Beacon Hill Rd,Pembroke,NH,03275,603-224-5210
Bealzys Autobody,79 Athol Rd,Richmond,NH,03470,603-239-4547
"Beaman Logging, Inc.",465 Burt Hill Road,Winchester,NH,03470,603-239-8291
Bear Mountain Logging,1688 Route 302,Bartlett,NH,03812,603-387-5252
Beattie Enterprises,99 Bridge St,Lancaster,NH,03584,603-788-4035
Beauchine Auto Service,392 N Main St,Franklin,NH,03235,603-934-6328
Beaudry Family Trucking LLC,135 Nh Route 16,Dummer,NH,03588,603-723-5717
Joels Oil,50 Center Rd 50 Center Rd,Canterbury,NH,03224-2400,603-892-5505
Beaver Brook Trucking LLC,12 Brighton Lane,Croydon,NH,03773,603-863-3137
"Beck & Bellucci, Inc.",10 Salisbury Rd,Franklin,NH,03235,603-934-5236
"Becker Transportation, Inc.",240 Raymond Rd,Candia,NH,03034,603-483-2967
"Beckwood Services, Inc.",27 Hale Spring Road,Plaistow,NH,03865,603-382-3840
Bedford Drywall Corp,9 Madden Rd / Unit #1,Derry,NH,03038,603-437-9145
Bee Line Airport Transportation Service,3 Ty Lane,Penacook,NH,03303,603-913-1561
"Bellavance Beverage Co, Inc.",120 Northwest Blvd,Nashua,NH,03063-4006,603-882-9722
Bellemore Catch Basin Maintenance,174 Back River Road,Bedford,NH,03110,603-641-6640
Sears Of Gorham,161 Main Street,Gorham,NH,03581,603-466-5992
Ben Martel Transportation LLC,3 Elijah Beede Rd,S Tamworth,NH,03883-3553,603-452-8624
2013,83 Webster Hwy,Temple,NH,03084,603-924-3111
Benchmark Transportation,11 Lyford Drive,Fremont,NH,03044,603-686-1611
Benevides And Sons Trucking,341 Twinbridge Road,Newboston,NH,03070,603-487-3438
Valley View Maple Farm,1269 Main St,Springfield,NH,03284,603-763-5661
Ben Ellis Transport,10 Rebel Road,Hudson,NH,03051,603-598-8242
Readel Home Improvement,4 Pow Wow River Rd,East Kingston,NH,03827,603-332-3967
Ben Senter Trucking,211 Route 13,Brookline,NH,03033,603-673-9123
Bennco Timber Harvesting,379 North Bennington Rd,Bennington,NH,03442,603-547-0732
"Bentley Management Group, Inc.",12 Murphy Drive Suite 100,Nashua,NH,03062,603-883-0700
Mckenzie Septic,21 Grissom Ln,Claremont,NH,03743,603-558-2902
Bergquist Masonry LLC,661 West Road,Temple,NH,03084,603-924-7037
Berkshire Construction Co LLC,51 Payne Road,Winchester,NH,03470,603-357-7950
Berlin City Auto Group,485 Main Street,Gorham,NH,03581,603-752-6644
B J Licata Trucking,9 Oxford Rd,Hampstead,NH,03841,603-329-5795
Berry's Electrical Service LLC,45 Darby Lane,Rochester,NH,03839,603-335-4474
Bert Lariviere,Rt 26,Errol,NH,03579,603-482-7728
Best Produce LLC,91 Wire Rd,Merrimack,NH,03054,202-521-1493
Best Rate Real Estate LLC,563 Lafayette Road,Seabrook,NH,03874,978-265-7916
Bethea And Bethea Transport LLC,8 Cherry Lane,Lee,NH,03824,603-868-5355
Better Choice LLC,2 Cristy Rd,Windham,NH,03087,603-913-9186
"Bevis, Inc.",535 North Shore Road,Spofford,NH,03462,413-772-9377
Bfd Transport LLC,654 Mason Rd,Milford,NH,03055,603-860-7129
Bft Enterprises LLC,10 Dunklee Road #6,Bow,NH,03304,603-608-7337
Hy-on-a Hill Trout Farm,31 Reeds Mill Rd,Plainfield,NH,03781,603-675-6267
Bg Critical Transport LLC,412 Eaton Rd # 2 ,Swanzey,NH,03446,603-716-0946
Bgtrucking LLC,57 Manchester St 57 Manchester St,Nashua,NH,03064,603-204-4851
"Bhif Relocation Group, Inc.",393 Hanover Center Road,Etna,NH,03750,603-643-0010
Bicentennial Transport LLC,85 Elm Street,Goffstown,NH,03045,603-497-8692
"Bickford Transportation, Inc.",2962 Province Lake Rd,East Wakefield,NH,03830,603-522-5285
"Big And Small Towing, Inc.",149 Main St,Jaffrey,NH,03452,603-532-8255
Big Bux Express LLC,58 Redfield Circle,Derry,NH,03038,N/A
Big Moose Rv Sales Corporation,495 Route 16,Ossipee,NH,03864-7468,603-973-2733
Big Papi Materials Corp,37 Crown St Apt 16,Nashua,NH,03060,603-820-2837
Biggs Trucking LLC,22 Karine Ln,Manchester,NH,03109,603-627-5552
Bill Baxter Auto Salvage,Ten Rod Road,Farmington,NH,03835,603-859-0222
"Bill Patnode Trucking, Inc.",87 Hewitt Rd,Spofford,NH,03462,603-363-9399
"Bingham Lumber, Inc.",89 Rt 13,Brookline,NH,03033,603-673-4549
"Birch Street Collision, Inc.",34 Birch Street,Derry,NH,03038,603-425-6522
Biron Solutions LLC,480 Brook Rd,Bethlehem,NH,03574-4309,802-734-2092
"Biron's Flooring, Inc.",1011 John Stark Hwy,Newport,NH,03773,603-543-0329
Bj Gordon,16 1/2 Downing St,Concord,NH,03301,603-545-5126
Leon's And J&l,600 Main Street,Keene,NH,03431,603-357-7004
Bjt Holding LLC,5 Rockne Dr,Nashua,NH,03060,603-888-1121
Bl Bishop Trucking LLC,71 Flagg Road,Gonic,NH,03839,603-285-5081
Black Dog Crane & Rigging,280 Heritage Ave Unit 1,Portsmouth,NH,03801,603-431-3732
Black Dog Trucking LLC,468 Farmington Rd,Milton,NH,03851,207-608-5881
Black Jack Heavy Hauling,126 Shaker Road,Canterbury,NH,03224,603-783-4300
Black Paws Transport LLC,181 Riverdale Rd,New Boston,NH,03070,603-487-3634
Black River Logistics LLC,119 Lock St Apt 9,Nashua,NH,03064,407-955-8454
Black Star Trucking LLC,14 Longa Rd,Merrimack,NH,03054,603-860-7404
Redhawk Recovery,Timbertop Road,New Ipswich,NH,03071,603-878-4358
Blackjack Express LLC,7 Blackstone Drive Unit # 49,Nashua,NH,03063,603-595-0088
Blackwater Trucking & Excavating LLC,95 Blackwater Road,Rochester,NH,03867,603-332-8772
Blair Auto Salvage,73 Blair Hill Road,Charlestown,NH,03603,603-826-5080
"Blaktop, Inc.",73 Elm St West,West Lebanon,NH,03784,603-298-8885
Blanchette Quality Transport,118 Oak Hill Rd,Northfield,NH,03276,603-848-4818
Blaney Auto Crushing LLC,359 Nh Rt 11,Farmington,NH,03835,603-755-2498
Blessings Trucking LLC,2 Old English Village Rd Apt 1,Dover,NH,03820,909-435-8244
Lakeport Landing Marina,65 Gold Street,Lakeport,NH,03246,603-524-3755
Bll LLC,205 Kinsley St,Nashua,NH,03060,848-565-8213
Blodgett Conway Transportation,177 Preston St,Hillsboro,NH,03244,603-464-3758
"Bls Trucking, Inc.",408 Mammoth Road,Londonderry,NH,03053,603-434-2824
"Blue Chip Performance Diesel, Inc.",340 Gibbons Hwy,Wilton,NH,03086,603-654-3333
"Blue Fox Transportation, Inc.",6 Quail Rd,Raymond,NH,03077,774-240-4132
Blue Horizon Trucking,16 Nelson Court,Belmont,NH,03220,603-267-1180
"Blue Ribbon Trans, Inc.",1187 Long St,Webster,NH,03303,603-275-7678
"Blue Rock Building Supply, Inc.",400 South Main St,West Franklin,NH,03235,603-934-5604
Blue Star Trucking,Po Box 3492,Manchester,NH,03105,800-228-5187
Blue Stream Aquaculture Nh LLC,1525 River Rd ,Charlestown,NH,03603-4153,413-967-7415
Blue Whale Arts LLC,56 Jenness Road,Epping,NH,03042,603-679-1961
Bluefish Granite LLC,121 Lafayette Road,North Hampton,NH,03862,603-964-4120
Bluesky Transportation LLC,215 Heathrow Ave,Manchester,NH,03104,603-622-3191
Bmb Trucking LLC,225 Daniel Webster Hwy Unit 5,Belmont,NH,03220,603-524-0163
Bmd Electric LLC,55 Overlook Way,Canaan,NH,03741,603-523-7339
Bms Global LLC,33 Glendale Ave,Manchester,NH,03103,603-666-0778
"Bni Distribution, Inc.",376 Plains Road,Tamworth,NH,03886,603-539-1640
Bnv Paving Corp,36 Brown Dr,Greenville,NH,03048,978-590-0256
Bob Bryant Wrecker Service,Route 302,Center Conway,NH,03813,603-356-5297
"Bob Frizzell General Contractor, Inc.",16 Commerce Way,Milton,NH,03851,603-652-7800
"Bob Howard Trucking, Inc.",26 Hill Street,Hillsborough,NH,03244,603-494-5564
Bob Rossi's Septic Service LLC,120 Sanborn Road,East Kingston,NH,03827,603-642-5326
Bob S Fuel,21 Warwick Rd,Winchester,NH,03470-2811,603-239-6721
Bobcat Logging Co.,131 Dw Highway #144,Nashua,NH,03060,603-820-0251
Bobs Family Hauling Tow LLC,159 Hampstead Rd,Derry,NH,03038,603-432-0315
Bobs Sealcoating Linstriping,43 Glenwood Avenue,Dover,NH,03820,603-953-6004
Bonica Trucking,194 Depot Rd,Tamworth,NH,03886,603-323-8031
Bogms Trucking,47 Fox Run Rd ,Hinsdale,NH,03451,603-336-5162
Contoocook Creamery,945 Penacook Rd,Contoocook,NH,03229,603-746-4633
"Boises Exit 18 Auto Truck Repair, Inc.",Pershing Street,Lebanon,NH,03266,603-448-5510
Bookers Auto Repair & Body Shop LLC,198 Lafayette Rd,North Hampton,NH,03862,603-964-9021
"Mount Cranmore Ski Resort, Inc.",1 Skimobile Rd,North Conway,NH,03860,603-356-5544
"Boraczek Septic And Drain, Inc.",4 Hazel Drive,Hampstead,NH,03841,978-479-5236
"Boraczeks Trucking And Transport, Inc.",4 Hazel Dr,Hampstead,NH,03841,603-329-6005
"Boss Contractors, Inc.",581 Nh Route 119,Rindge,NH,03461,603-899-9630
Boston Contractor LLC,105 Lowell Rd,Windham,NH,03087-1809,603-630-7035
"Boston Perishable, Inc.",24 Hall St,Concord,NH,03301,978-390-7699
"Boston Strong Distributors, Inc.",7 Strawberry Bank Rd Unit 8,Nashua,NH,03062,781-632-1956
E&r Laudry And Dry Cleaners,565 Gold Street,Manchester,NH,03103,603-627-7661
Bourgoine Trucking LLC,Upper Union Street,West Peterborough,NH,03468,603-924-9759
Bovas Trucking LLC,132 Wells Village Rd,Sandown,NH,03873,978-808-7085
Bow Mills Land Management LLC,3 Logging Hill Rd,Bow,NH,03304-3719,603-738-3616
Bowman Enterprises LLC,84 Bowman Rd,Alton,NH,03809,603-318-8982
"Boyers Autobody Sales, Inc.",156 Lowell Road,Hudson,NH,03051,603-882-6637
Brad's Concessions,Route 175,Holderness,NH,03245,603-536-4678
Knight Custom Homes,21 Upham Road,Amherst,NH,03031,603-673-7547
"Frank's Vending Machines, Inc.",338 Success Road,Milan,NH,03588,603-723-4279
Bradley Leasing LLC,619 Sand Road,Pembroke,NH,03275,603-228-5558
Bradshaw's Wheels And Deals LLC,126 Sunset Drive,Monroe,NH,03771,603-616-6282
Brady Poulin Trucking,2 Sanel Drive,Colebrook,NH,03576,603-237-5413
Brady Sullivan Payroll Management,670 North Commercial Street,Manchester,NH,03101,603-622-6223
Brandon Framilla,3 2nd St,Rochester,NH,03867,941-584-9868
The Pipe Connection,215 A Route 3,Bridgewater,NH,03222,603-968-2275
"Brandy Brow Auto Parts, Inc.",89 Newton Rd,Plaistow,NH,03865,603-382-8533
"Brandy Wine Transport, Inc.",21 May Lane Drive,Salem,NH,03079,603-894-1190
Brantley Corporation,40 Stony Ridge Rd,Hampstead,NH,03841,603-329-4873
Brc Towing LLC,18 River Rd,Allenstown,NH,03275,603-210-5278
"Breezy Hill Lumber Co, Inc.",219 Dover Rd,Chichester,NH,03234,603-496-8870
Breezy Point Transportation LLC,166 Breezy Point Road,Warren,NH,03279,603-764-5794
"Brentwood Auto, Inc.",Route 125,Kingston,NH,03848,603-642-8760
Brentwood Bulk Transportation LLC,6 Washington Drive,Brentwood,NH,03833,603-580-1069
Brentwood Fence LLC,29 Lyford Lane,Brentwood,NH,03833,603-867-7856
"Brentwood Surplus Sales, Inc.",309 State Route 125,Brentwood,NH,03833-6026,603-679-6733
Brett Hayward,555 Calef Rd #2,Manchester,NH,03103,603-548-9585
K & B Excavation LLC,25 Healy Pasture Rd,Chichester,NH,03258-6306,603-545-9005
Brian A Whitehouse,183b Three Rivers Farm Road,Dover,NH,03820,808-353-1408
Ars Transport,24 Roosevelt Ave Apt 18,Hudson,NH,03051,603-845-9301
Bkb Excavation,227 Garland Rd,Barnstead,NH,03218,603-765-9098
Brian Boucher,131 Plain Road,Hinsdale,NH,03451,802-380-1278
Brian Buxton Sons Trucking,177 Drinkwater Road,Kensington,NH,03833,603-772-5110
Brian Crowley,16 Breezy Point 16 Breezy Point Rd Warren Nh 03279,Campton,NH,03223-0568,617-407-4804
New England Wall,213 Haverhill Road,East Kingston,NH,03827,603-965-5600
Duclos Trucking And Excavation,188 Leavitt Rd,Pittsfield,NH,03263,603-494-0933
Brian Forst Transport,1503 Province Road,Gilmanton,NH,03237,603-435-6251
Doak Towing And Recovery,832 Fox Hollow Dr,Hudson,NH,03051,603-595-5463
Mcguirk Fence Co,8 Frank Goodwin Rd,Wolfeboro,NH,03894,401-524-5171
B K Hillsgrove Hauling,6 Aspen Court,Barrington,NH,03825,603-664-2434
Brian M Bernard Enterprises,5 Clover Ct,Salem,NH,03079,603-893-5291
Brian Mcdermott,251 Ashswamp Rd,Newmarket,NH,03857,603-834-2335
Brian Neal Excavating LLC,13 Birnum Woods Rd,Stratham,NH,03885,603-580-5255
B Amey Transport,344 Indian Stream Road,Pittsburg,NH,03592,603-538-6718
Brian S Boczar Trucking,49 Jalen Drive,New Ipswich,NH,03071,603-878-6137
Briarcrest Estates LLC,100 Diannel Place,Laconia,NH,03246,603-527-1140
Briarwood Builders LLC,601 Pingree Hill Rd,Auburn,NH,03032,603-235-5574
Brill's Transport LLC,20 Colby Rd,Newmarket,NH,03857,802-391-7967
"Britmack Associates, Inc.",11 Woodlawn Ave,Atkinson,NH,03811-2255,603-553-6844
Brito's Trucking,210 Brook Village Rd Apt 22,Nashua,NH,03062,603-818-0087
Brito's Trucking & Logistics LLC,210 Brook Village Rd Apt 22,Nashua,NH,03062,603-818-0087
Briweld Industries LLC,55 Gold Ledge Drive,Auburn,NH,03032,603-622-9480
"Broadband Access Services, Inc.",75 Hayes Rd,Alton,NH,03809,603-569-3006
Broadside Collision Centers LLC,7 E Otterson St,Nashua,NH,03060,603-598-2700
Broadway Septic Design LLC,78 North Broadway,Salem,NH,03079,603-898-9339
"Brocks Plywood Sales, Inc.",298 North Main St,Rochester,NH,03867,603-332-4065
"Brodys Distribution, Inc.",241 Pinebrook Pl,Manchester,NH,03109,603-647-6359
Broker Hawks Logistics LLC,"930930 Laconia Road, Apt. #4",Belmont,NH,03220,603-267-9413
"Broker Trucking, Inc.",2 Milk St,Nashua,NH,03060,401-434-3971
Brook County Transport Ltd,2 Puzzle Lane Building#1 Unit 4,Newton,NH,03858,603-833-3707
Brookfield Union Enterprises LLC,251 Wentworth Rd,Brookfield,NH,03872,603-941-0656
Brookford Farm LLC,250 West Rd,Canterbury,NH,03224,603-742-4084
Brooks Agway Service LLC,14 Depot Street,Colebrook,NH,03576,603-237-4914
"Brooks Sales Service, Inc.",1601 Rte 16,Center Ossipee,NH,03814,603-539-6020
Bros Trans Corp,7 Partridge Cir,Salem,NH,03079,617-438-0236
Mountain View Grand Resort And Spa,101 Mountain View Road,Whitefield,NH,03598,603-837-2100
Browns Haulage Repair LLC,61 Darling Hill Rd,Mason,NH,03048,603-924-4988
Chartier Trucking,1447 Lost Nation Rd,Groveton,NH,03582,603-636-1818
Daigles Outdoor Services,127 Highland Street,Hudson,NH,03051,603-880-4146
Bruce Owen Trucking,376 Hollow Rd,Stewartstown,NH,03576,603-237-5067
Hayward Seal & Stripe LLC,1660 Greenland Rd,Greenland,NH,03840,603-436-2442
B&b Carpentry,32 North Road,New Ipswich,NH,03071,603-878-2211
Bruce Robinson Company,429 Hollow Hill Rd,Tamworth,NH,03886,603-323-7060
Bruces Auto Service,14 Gibsons Way Cold Pond Rd,Claremont,NH,03743,603-542-3314
Ekc Transport,38 Faraway Rd,Dalton,NH,03598,603-631-1269
"Bryant Transportation, Inc.",11 Vista Way,Merrimack,NH,03054,603-424-4750
Bryon Fletcher Excavating,117 Thompson Road,Walpole,NH,03608,603-756-3129
Brysons 4 Wheel Auto Repair LLC,6 Farrarville Rd,Belmont,NH,03220,603-738-9786
Bsl Bedford Development LLC,5 Corporate Drive,Bedford,NH,03110,603-471-2555
"Bsp Trans, Inc.",2500 Liberty Drive,Londonderry,NH,03053,603-432-1400
Btd Trucking LLC,1 Chestnut St Ste 4e,Nashua,NH,03060,603-809-5353
Btt Enterprises LLC,74 Old Derry Road,Hudson,NH,03051,603-781-3334
Buckeye Blasting Corp,48 Old Town Road,Epsom,NH,03234,603-736-4681
Buckley Express LLC,22 Highland Ave,Derry,NH,03038,603-434-8136
Budco Enterprises LLC,144 Hampstead Rd,Derry,NH,03038,603-765-1279
Budget Septic Service LLC,130 Presidential Hwy,Jefferson,NH,03583-6730,603-586-4548
Bueno Snow Plow Transportation LLC,23 Benson Ave,Nashua,NH,03060,603-557-4914
Buffum Auto Parts,1 West Swanzey Rd,West Swanzey,NH,03446,603-352-9010
Building Efficiencies,4e John Tyler Dr,Merrimack,NH,03054,603-233-1471
Bullbrook LLC,1 Blacksnake Road,Seabrook,NH,03874,603-394-7710
Bullseye Towing Recovery,50 Elm Street,Manchester,NH,03104,603-848-9900
Kingston Towing,12 New Boston Rd,Kingston,NH,03848,603-642-8405
"Bumper To Bumper Auto Repair, Inc.",Rt 115,Twin Mountain,NH,03595,603-846-0000
Phillip Clement,47 Lawrence Rd,Salem,NH,03079,603-458-5690
Bunzy Trucking,10 Conant Rd,Nashua,NH,03062,603-595-2472
Burbak Companies,361 Forest Road,Wilton,NH,03086,603-654-2291
Burke Logistics LLC,570 Bay Road,Durham,NH,03824,202-521-1493
Burke Masonry,380 Portland Street,Rochester,NH,03867,603-765-5177
Burley Transport,43 Woodfield St,Nashua,NH,03062,603-557-2311
Burndy LLC,47 East Industrial Park Drive,Manchester,NH,03109,603-647-5000
Burrill Trucking LLC,41 Wheeler Rd,Pittsburg,NH,03592,603-915-0806
"Business Express, Inc.",601 Spaulding Trpk,Portsmouth,NH,03878,203-222-2356
Busters Service Center LLC,45 North Main Street,Penacook,NH,03303,603-753-9383
Butch Eaton S Trucking LLC,1496 Province Lake Rd,East Wakefield,NH,03830,603-522-3894
Buzz Transport LLC,12 Old County Road,Plaistow,NH,03865,603-382-2022
Bwb Transport LLC,66 Russell Hill Road,Brookline,NH,03033,603-672-7610
C & C Bunnell Excavating LLC,319 Nelson Road,Monroe,NH,03771,603-638-2400
C & C Trucking LLC,40 Amos Fortune Road,Jaffrey,NH,03452,603-532-6960
C & E Aggregate Transport LLC,32 Snowshoe Trail,Contoocook,NH,03229,603-470-8057
C & F Logistics LLC,84 W Broadway Ste 200,Derry,NH,03038,603-275-4445
"C & S Vending Machine Co, Inc.",595 Berlin Gorham Rd,Gorham,NH,03581-4902,603-752-4360
Ct Equipment Traders,91 Main St ,Pelham,NH,03076-5727,603-508-6660
C A Hall Trucking,Rfd 1 Rt 12,Westmoreland,NH,03467,603-399-7052
"C A Joslyn, Inc.",99 Rabbit Hollow Rd,Winchester,NH,03470,603-239-6790
C And R Auto And Salvage,649 Second Street,Manchester,NH,03102,603-232-2942
"C Bean Transport, Inc.",31 Haynes Dr,Colebrook,NH,03576,603-237-9377
"C C Delivery, Inc.",22a Mill Rd,Derry,NH,03038,508-663-9958
C C L Trucking,6 Joyce Drive,Raymond,NH,03077,603-895-8657
C Chesley Food Service LLC,Po Box 190,Concord,NH,03301,603-224-4284
"C D L Transport, Inc.",439 Kelly Avenue,Manchester,NH,03105,603-625-2840
C D S Trucking,48 Walnut Ave,North Hampton,NH,03862,603-964-7403
C F H Transport,2037 Nh Route 140,Gilmanton,NH,03837,603-369-3407
C G Transportation Northeast,45 B & B Ln,Weare,NH,03281,603-529-1460
C G Truck Auto,45 B & B Lane,Weare,NH,03281,603-529-1460
C H Auto Transport LLC,3 Puzzle Lane Unit 2,Newton,NH,03858,978-764-2663
"C I Construction Co, Inc.",Rr 1,Claremont,NH,03743,603-543-3555
C J Beebe Trucking Of Brentwood LLC,335 South Road,Brentwood,NH,03833,603-642-7914
C J Rousseau Trucking,34 Thorton Road,Merrimack,NH,03054,603-883-5246
"C M Davidson, Inc.",5 Davidson Drive,Piermont,NH,03779,603-272-9111
C N F Trucking Co,25 B West Rd,Hudson,NH,03051,781-668-4743
C R King Transport Corp,480 Western Ave,Berlin,NH,03570,N/A
"C S Wholesale Grocers, Inc.",112 Tyler St,Claremont,NH,03743-2572,N/A
C&c Logistics,1862 Second Nh Tpke,New Boston,NH,03070-5500,603-769-1030
C&k Logistics Corp,361 Calef Hwy,Epping,NH,03042,603-244-0997
Ca1 Transportation LLC,646 Wallis Road,Rye,NH,03870,603-566-9909
Cabinet Express LLC,5 Central Street,Hudson,NH,03051,603-594-9650
Cabinet Warehouse LLC,273 South Broadway,Salem,NH,03079,978-944-3414
Kens Auto Salvage,18 Pow Wow River Rd Rte 107a,E Kingston,NH,03827,603-642-3636
Cabs Trucking LLC,155 Fleet St,Portsmouth,NH,03801,603-234-6347
Cadd Transportation Ltd,85 Plains Road,Claremont,NH,03743,603-542-2019
Cadonal LLC,1 Balsam Way Unit 208,Manchester,NH,03102,603-674-3604
Cairns Trucking,2 Pulaski Drive,Fremont,NH,03044,603-895-0556
Cakk Corporation,22 Ponemah Hill Rd Apt 8,Milford,NH,03055,603-921-8236
Call-time Transportation LLC,81 Chester Rd,Derry,NH,03038,603-216-1057
Calling All Cargo Moving And Storage,69 Venture Dr Unit 2,Dover,NH,03820,603-740-1900
Callum & Sons Trucking LLC,90 Fletcher Road,Newport,NH,03773,603-865-1044
Cal`s Drywall,Middle Winchenden Rd,Rindge,NH,03461,603-899-5122
Cam Truck Lease LLC,5 Dumaine Ave,Nashua,NH,03063,781-275-4476
Cambrays Excavation LLC,14 Sargent Rd,Brookline,NH,03033,603-672-5888
Hebert & Son Construction,228 Deerfield Rd,Allenstown,NH,03275,603-485-4744
Cameron Sealcoating LLC,115 Couture Road,Jefferson,NH,03583,603-586-7945
D-day Enterprises,1029 S Mammoth Rd #19,Manchester,NH,03109,603-626-5729
Cammett Heating Service LLC,7 Jacobs Well Rd,Epping,NH,03042,202-521-1493
Campers Inn,35 Robert Milligan Parkway,Merrimack,NH,03054,603-883-1082
"Campers Inn Of Kingston, Inc.",146 Route 125,Kingston,NH,03848,603-642-5555
"Campton Tire And Auto, Inc.",Route 3,West Campton,NH,03223,603-725-7585
Can Brothers Construction,26 Kingsbury Dr,Milton,NH,03851,603-483-2400
Candy Lane Transport LLC,12 Candy Lane,Gorham,NH,03581,603-466-3866
Rdr,3 Manor Parkway,Salem,NH,03079,603-893-1157
Canon Alfred,408 Depot St,Belmont,NH,03220-4300,484-201-5661
Canterbury Timber Company LLC,57 Old Gilmanton Rd,Canterbury,NH,03224,603-267-6372
Cantone Transportation,17a Oakridge Ave Apt 21,Salem,NH,03079,781-258-8124
Cri,5 Infinity Dr,Raymond,NH,03077,603-895-9750
Capital Rock Drilling And Blasting LLC,306 River Road,New Boston,NH,03070,603-487-2840
"Capital Tile And Marble Co, Inc.",278 River Road,Bow,NH,03304,603-226-0233
Capital Transportation Logistics LLC,100 Perimeter Road,Nashua,NH,03063,603-881-3350
Cts,7 Wall St Ste 200,Windham,NH,03087,888-276-6699
"Capital Well Co, Inc.",150 Concord Stage Road,Dunbarton,NH,03046,603-774-6155
"Capitol City Motors, Inc.",95 Manchester Street,Concord,NH,03301,603-225-6681
Cpi Floor Coatings,20 Beech St Extension,Newmarket,NH,03857,603-659-2788
Car Guyz Auto Recyclers LLC,484 Route 12 S Winchendon Road,Fitzwilliam,NH,03447,603-585-6601
Car Wash Services Equipment LLC,193 Walton Road,Seabrook,NH,03874,603-474-3301
"Card Transport, Inc.",76 Lower Pratt Pond Road,New Ipswich,NH,03071,603-878-0651
"Cardinal Glidden Oil Co, Inc.",5 Crowley St,Farmington,NH,03835,603-755-3562
"Care Plus Emergency Ambulance Service, Inc.",4 Center Street,Merrimack,NH,03054,603-424-8910
Carens Caravan Service Ltd,23 Douglass Way,Exeter,NH,03833,603-772-7959
Caribbean Solutions LLC,9 Newman St,Hillsboro,NH,03244,603-820-2637
Carl Anderson Transport,412 Catamount Rd,Pittsfield,NH,03263,603-435-8885
Carl's Transport,52 Granite St,Allenstown,NH,03275,603-369-0879
Carolyn Dudley,7058 Shaker Rd,Loudon,NH,03307,603-496-5333
Carons Trucking,34 Court St Apt 4,Dover,NH,03820,603-742-8051
"Carparts Distribution Center, Inc.",95 A Plaistow Rd,Plaistow,NH,03865,603-382-9206
Carr Transportation LLC,659 Rt 126,Barrington,NH,03825,603-664-7625
Carrier 5 Distributors,225 Alstead Center Rd,Alstead,NH,03602,603-835-2091
C C Thomas & Sons,1177 North Road,Warner,NH,03278,603-456-3849
Harris Energy,319 Highland Avenue,Littleton,NH,03561,603-444-2774
Carroll Nihan,136 Plains Road,Monroe,NH,03771,603-638-2404
Carroll St Auto LLC,68 Carroll Street,Manchester,NH,03102,603-627-5595
"Cars For Less, Inc.",429 Calavant Hill Rd,Charlestown,NH,03603,603-543-1210
Carver Enterprises,75 Slayton Hill Road,Lebanon,NH,03766,603-667-3154
New Hampshire Industries,68 Etna Road,Lebanon,NH,03766,603-448-1090
"Case Transportation, Inc.",85 Heritage Ave,Portsmouth,NH,03801,603-431-8703
Cash Enterprises Trucking Paving LLC,4 Poor Richards Drive,Bow,NH,03304,603-224-1401
"Caskraft, Inc.",49 Front Street,Campton,NH,03223-1318,603-536-4340
Cass Towing LLC,160 Summersworth Rd,Rollinsford,NH,03869,603-692-4884
Castiglioni Transport,2-22 Maple Ridge Dr,Merrimack,NH,03054,603-424-9947
Castillo Trucking Express LLC,134 Baker St Apt#1a,Manchester,NH,03103,603-707-8136
Castle Rock Fuel LLC,9 Londonbridge Rd,Windham,NH,03087,603-882-7787
"Cat Colonial Auto Transport, Inc.",62 Calef Hwy # 126,Lee,NH,03861,603-570-6352
Cat Transportation And Hauling,29 Gordon Ave,Newmarket,NH,03857,603-892-3517
Cater Stables LLC,1201 Montelona Road,Dunbarton,NH,03046,603-774-3015
Lookout Towing And Recovery,83 E Broadway #a,Derry,NH,03038,603-275-2112
Caulder Construction LLC,770 Lost River Road,North Woodstock,NH,03262,603-745-3556
Cavalry Trucking,66 Tory Hill Rd,Langdon,NH,03602,802-299-1740
"Cayer Transport, Inc.",5 Tallwood Drive,Bow,NH,03304,603-234-5899
Cc Contracting LLC,46 Taylor Street,Nashua,NH,03060,603-718-0350
Servicemaster Elite,12 Continental Blvd,Merrimack,NH,03054,603-883-4800
"Cci, Inc.",14 Lafayette Road,North Hampton,NH,03862,603-964-5073
"Ccm Logging & Land Clearing, Inc.",231 Fisher Corner Rd,Springfield,NH,03284,603-763-2860
"Ccn Enterprise, Inc.",19 Woodward Road,Merrimack,NH,03054,603-429-1616
"Cdl Transport, Inc.",439 Kelley St,Manchester,NH,03102,603-625-2840
Cecenas Trucking LLC,27 Mitchell St,Merrimack,NH,03054,603-809-7159
Cecilia Eaton,202 Eaton Road,Auburn,NH,03032,603-483-8800
Celos Transport LLC,2 Winter Street Apt T2,Claremont,NH,03743,603-490-0521
Central Lakes Region Movers,9 Perkins Rd,Belmont,NH,03220,603-267-8737
Century Leasing Corp,214 Plaistow Rd,Plaistow,NH,03865,603-382-1525
"Ceradyne Diaphorm, Inc.",7 Industrial Way Unit 6b,Salem,NH,03079,603-893-0992
"Cfh Associates, Inc.",Farrington Road,Francestown,NH,03043,N/A
Cgz Holding Corp,28 Daniel Plummer Rd Unit 14,Goffstown,NH,03045,603-606-1590
Mi-box Of Central & Western Ma,241 Nh Route 12 S,Fitzwilliam,NH,03447,978-300-0404
Chad Cross,153 Franklin St,Seabrook,NH,03874,603-234-2431
Cgd Property Service,268 Main Street,Claremont,NH,03743,603-543-7071
"Chamberlain Co, Inc.",14 Delaware Drive 1,Salem,NH,03079,603-893-2606
Chamberlin Transport LLC,182 Southwest Rd,Canterbury,NH,03224,603-674-2822
Chandler Distributing LLC,22 Founders Drive,Dublin,NH,03444,603-563-8151
Chappie's Trucking,2 Linden Road,Kingston,NH,03848,603-642-8158
Chappy's Concessions,Fairgrounds Road #8,Canaan,NH,03741,603-523-7177
Charbonneau Trucking & Excavating LLC,25 Gumpus Hill Road,Pelham,NH,03076,603-635-1896
Charles Beck Logging Trucking,21 Shindagen Road,Wilmot,NH,03287,603-526-2345
Charles Boissonneault,20 Hickory St,Hudson,NH,03051,603-765-9280
Charles Dehney,15 Highland Ave,Pelham,NH,03076,978-360-2527
Mccollough Transport,38 Berry Rd,Derry,NH,03038,603-432-7158
C F Ford Trucking Company,13 Depot Rd,East Kingston,NH,03827,603-642-7708
"Charles George Companies, Inc.",209 Nashua Road,Londonderry,NH,03053,603-425-2274
Gulbicki Towing,1193 Weirs Blvd,Laconia,NH,03246,603-366-5402
"Charles Leonard Construction Co, Inc.",183 Pembroke Road,Concord,NH,03301,603-225-0211
Pow Wow River Hauling,15 Babscott Lane,Kingston,NH,03848,603-642-3614
Obrien Trucking,8 Willow St,North Walpole,NH,03609-1103,208-834-4444
Charles Sawyer,27 Old Manchester Rd,Raymond,NH,03077,603-244-2325
Charles Sb Knowles,302 Walton Rd,Seabrook,NH,03874,603-474-9995
Charles Sound LLC,104 Lock St Apt A,Nashua,NH,03064,860-987-3080
Starkey Welding & Crane Service,444 Route 125,Brentwood,NH,03833,603-679-2553
Charles W Stone,100 Cornish Stage Rd,Cornish,NH,03745,603-469-3559
CharlesfrancistruckingLLC,2 Green Ave,Salem,NH,03079,603-893-6774
Charlestown Cornerstone LLC,949 Old Claremont Road,Charlestown,NH,03603,603-826-4976
Charlestown Enb LLC,949 Old Claremont Road,Charlestown,NH,03603,603-826-3944
Charlestown Tire LLC,121 Northwest Street,Charlestown,NH,03603,603-826-3638
Charlies Kids Trucking LLC,678 Mason Road,Milford,NH,03055,603-672-8976
Four Seasons Fence,15 Banfield Road,Portsmouth,NH,03801,603-436-2141
"Chases Auto Salvage, Inc.",1415 Rt 4 A,Enfield Center,NH,03749,603-632-5363
