Company Name,Street Address,Address Locality,Address Region,Postal Code,Telephone
Amechi Limousine,692 Bridgeton Pike,Mantua,NJ,08051,856-468-0293
River Auto Sales,250 River St,Paterson,NJ,07501,973-247-9888
Jimenez Carrying,2417 Sherman Avenue,Camden,NJ,08105,973-414-0350
"L & T Trucking, Inc.",283 Osborne Terrace,Newark,NJ,07112,973-489-5210
Keegan Trucking,1501 Parkside Ave Apt 5a,Trenton,NJ,08638,609-468-7483
Grand Finale Transportation,202 Cedarbrook Ave,South Plainfield,NJ,07080,908-217-3248
Hma Transportation,401 Locust Avenue,Lindenwold,NJ,08021,856-652-9589
"Luciano's Delivery, Inc.",260 Cliff St Apt 3,Fairview,NJ,07022,201-214-6488
Franks Auto Srvice,500 Route 73&5th Street,Palmyra,NJ,08065,856-829-8145
Eastern State Trucking,2440 Woodland Rd,Manchester,NJ,08759,718-619-2006
Golden Arrow Transportation,745 North Ave,Plainfield,NJ,07062,908-222-1990
Consolidated Transport International,Rt 70 Landmark Condos,Cherry Hill,NJ,08034,609-868-9803
Sochem Industrial Services LLC,7 Red Lion Rd,Southampton,NJ,08088,609-859-3100
Amber Materials,818a Route 57,Stewartsville,NJ,08886,908-213-6768
Ob Trucking,2290 Central Ave Apt 2c,Union City,NJ,07087,201-881-2735
Vision Logistics,715 Stuyvesant Ave,Trenton,NJ,08618,609-672-6589
Marco Expess Deliveries LLC,338 Magnolia Ave,Elizabeth,NJ,07206,973-967-0327
Carlton Ewen Trucking,208 E 17th Street,Paterson,NJ,07524,540-966-2174
Wayne Mazda,1244 Route 23 North,Wayne,NJ,07470,973-694-7700
J B A Trucking,598 Broad Street,Carlstadt,NJ,07072,201-933-1746
H And A Delivery Service,937 N 30th Street,Camden,NJ,08105,856-964-1797
"Ny Commuter, Inc.",227 Broadway,Bayonne,NJ,07002,201-339-2381
Double K & N Transpor LLC,775 S Eat Ave Apt 2f,Vineland,NJ,08360,856-507-0571
M & M Auto,18 Craig Drive,Deptford,NJ,08096,856-812-0500
Ks Transport LLC,115 Union Ave,Garfield,NJ,07026,201-577-8286
Radix Trans,436 Trinidad Blvd,Williamstown,NJ,08094,856-513-6794
Badesha Transport LLC,25 Wesley Lane,Burlington,NJ,08016,609-614-7875
The Way To Go Transports LLC,3414 Boice Dr,North Brunswick,NJ,08902,848-219-0334
Diaz Towing,501 N Pearl St,Bridgeton,NJ,08302,856-297-9719
Mobil Truck Repair Service LLC,261 Crown Point Rd,Thorofare,NJ,08086,856-579-4569
M T Carrier,423 9th Strret 2nd Floor,Palisades Park,NJ,07650,201-988-5506
Nitsuas Transport,2 Diana Ct,South Amboy,NJ,08879,732-470-6447
S J K Transport,185 Kearneyst,Paterson,NJ,07522,973-519-8313
Ipanema Moving,12 Wilson Ave,Newark,NJ,07105,877-440-0055
"F S Truck Sales, Inc.",13-19 Hyatt Avenue,Newark,NJ,08872,973-491-0092
First Express,24 Peach Hill Court,Ramsey,NJ,07036,718-406-6366
Kevin Trucking Express,61 Webster Dr,Wayne,NJ,07470,973-641-2554
Coffee Express And Arctic Express And Full Service Foods And Push Beverages,41 Pine Street Unit 10,Rockaway,NJ,07866,973-627-5885
Cyrus Trucking,6 Foy Ln,Long Branch,NJ,07740,732-859-5620
Starova Transport,370 Main Street,Lodi,NJ,07644,201-566-0135
Brennan Transportation Services,50 Connecticut Drive,Burlington,NJ,08016,201-299-3910
Rod's Transport Express,1509 Plymouth Rd,No Brunswick,NJ,08902,732-658-1750
Caballo Trucking,415 Cherry Street Apt 6h,Elizabeth,NJ,07208,347-628-2589
Jozabad Trucking LLC,4012 Gehr Pl,North Bergen,NJ,07047,201-916-4887
Cml Trucking,309 11th Street,Union City,NJ,07087,201-966-4954
V & S Transportation,25 Edwin Place,Newark,NJ,07112,860-777-7502
Thompson Trucking,4272 Highway 27,Princeton,NJ,08540,732-422-9247
Logistic Solution Management,159 Red Pine Loop,Old Bridge,NJ,08857,732-688-2576
Oreggio Auto Transportation,335 East Third St,Plainfield,NJ,07060,N/A
Transportation,162 Hoover Ave,Hamilton,NJ,08619,609-838-1055
A R C Trucking LLC,55 Morgan Place,North Arlington,NJ,07031,732-513-8305
Procuce Hauling,1770 Panther Rd,Vineland,NJ,08361,856-691-2987
Taylor's Auto Repair,950 Rt 23,Watage,NJ,07461,973-875-6609
Damon Bonner Trucking,35 Avenue A,Freehold,NJ,07728,732-433-5164
Core Transport,3 Hickory Tree Lane,Far Hills,NJ,07931,973-831-5767
William Rivera,7902 Park Ave,Pennsauken,NJ,08109,856-924-1762
Donnell Stockling Trucking,556 Leo St 1,Hillside,NJ,07205,908-349-8800
T&t Auto Sales,2345 Route 9,Toms River,NJ,08755,848-525-9806
Tri County Road Service,609 Beech Ave,Saddle Brook,NJ,07663,201-281-0233
D & S Trucking,35 Holmes Mill Road,Cream Ridge,NJ,08514,609-758-8618
Freeway Moving,31-33 Coe Ave,Hillside,NJ,07205,908-354-5959
Mr Jimmys Trucking,109 Townsley Street,Edison,NJ,08837,732-921-5514
Jole Express,395 C Ridge Rd,North Arlington,NJ,07031,973-972-8284
Ince Trucking,1219 Boulevard,Westfield,NJ,07090,908-591-4456
Acatlan Trucking,559 Raritan Ave #2,Perth Amboy,NJ,08861,732-347-4830
Garrity Transport & Trucking,5 Broadview Ave,Berlin,NJ,08009,856-207-2467
Das Global Services,1600 Lower Rd Ste #3,Linden,NJ,07036,908-290-1561
Burgess Transport,705 Texas Ave,Glassboro,NJ,08028,856-226-3883
J L Harris Trucking,1840 44th Street,Pennsauken,NJ,08110,267-342-0474
Moving,5303 Bergeline Ave # 202,West New York,NJ,07093,877-293-3501
Mr White Trucking,529 Sassafras St,Millville,NJ,08332,609-774-4956
Glover Trucking,4101 Ocean Ave #4,Wildwood,NJ,08260,609-729-0570
Mad Haulin' Corp,288 English Ct,Bridgewater,NJ,08807,908-393-4473
M & J Trucking LLC,3055 Mickle Street,Camden,NJ,08105,856-745-2527
Reyes Brothers Transport,90 Palisade Ave,Bogota,NJ,07603,201-342-9089
Mayari Trucking,41 Jay Street,Newark,NJ,07103,787-904-0438
Faust Trucking,65 Boonton Tnpk,Lincoln Park,NJ,07035,973-208-4246
Robert Trucking,442 Boyden Avenue,Maplewood,NJ,07040,973-763-2493
Bts,13 Melbloum Ln,Edison,NJ,08837,848-260-0245
Johns Auto Sales,975 Joyce Kilmer Ave,North Brunswick,NJ,08902,732-249-2006
Parker&sons Transport,25f Plazadelaslobos,Freehold,NJ,07724,732-683-2401
Angel Trucking,86 Charles Street Apt 404,Jersey City,NJ,07307,201-721-5639
Blase Trucking LLC,47 North Willow Street,Montclair,NJ,07042,973-530-5629
Advanced Asphalt Services,127b Bridgeton Pike #185,Mullica Hill,NJ,08062,856-562-2967
Giordano's Salons Network,481 Walker Street 1f,Fairview,NJ,07022,201-334-2263
S&r Trucking,5moore Terr,West Orange,NJ,07052,973-640-3720
Sds Enterprise,8 Belmont Lane,Willingboro,NJ,08046,609-871-3221
Osterman Trucking,1017 W Groveland Ave,Somers Point,NJ,08244,609-204-2991
Premium Installation And Delivery,19 Chapin Road Building B,Pine Brook,NJ,07058,973-582-3200
"Freight Contractors, Inc.",9 Barrie Road Apt A,East Brunswick,NJ,08816,845-701-1178
Bee Lines,5a Reading Road,Edison,NJ,08817,917-667-1208
Limited Liability Company,1121 Logan Av,Bellmawr,NJ,08031,856-931-8787
C & B Auto Transport,125 Florence Avenue,Colonia,NJ,07067,732-428-4697
Yasmine Clanton,96 Signal Hill Trail,Sparta,NJ,07871,862-268-3379
R&b Trucking Co,223 Grandview Ave,Piscataway,NJ,08855,732-752-1325
Adl Transportation,205 Florence Avenue,Colonia,NJ,07067,732-742-0187
Us Carrier,452 1st Ave,Elizabeth,NJ,07036,732-589-5197
Out Standing Delivery Services,2915 Kansas Road,Camden,NJ,08104,856-655-9518
Liquari Trucking And Transport,584 Karen Ln,Brick,NJ,08724,908-477-9261
Hr Hauling,151 Taylor Road,Newfield,NJ,08344,856-207-0106
27 Farm Market,92 Lincoln Hiway,Edison,NJ,08820,732-662-4954
Msl Express,725 Spring Street Building C,Elizabeth,NJ,07201,908-352-0108
Jt Panther Transport,396 South 7th Avenue,Highland Park,NJ,08904,732-985-5553
J W And Son Trucking,224 Blackwood Barnesboro Rd Box 116,Sewell,NJ,08080,609-929-2260
Cramer Auto Recycling,2013 Rt 542,Tuckerton,NJ,08087,609-296-4363
Carmor Trucking,24 Bellevue St,Elizabeth,NJ,07202,732-877-7818
A A And D Limo Taxi Services,110 Camellia Lane,Egg Harbor Twp,NJ,08234,609-839-9541
World Class Automotive,821 Shore Rd,Somers Point,NJ,08244,609-665-1778
Manuel Lourenco Trucking,46 Central Avenue,East Newark,NJ,07029,973-485-3437
Avg Trucking LLC,25 Oak Street,Moonahcie,NJ,07074,973-900-7163
M Tursi Trucking,155 N 5th St,Newark,NJ,07107,973-477-0283
Frank Henry Pena Mejia,535 Highland Ave,Clifton,NJ,07011,862-571-4027
Tims Auto And Truck Care Center,27 Loomis Ave,Sussex,NJ,07461,973-875-6181
Freihofer Distributor,83-stewart Street,Demarest,NJ,07627,201-784-3312
Steward's S J Galloway Food Service,503 Black Horse Pike Plaza 500,Haddon Heights,NJ,08035,856-546-1155
Rdf Trucking,1 Pennval Rd,Woodbridge,NJ,07095,848-250-5389
Albert L Way Hauling,2591 Route 9,Ocean View,NJ,08230,609-624-0462
Bf Trucking,105-newfield Ave,Edison,NJ,08837,732-225-0305
Ntl Transport,1800 Bay Ave Ste 1 E,Point Pleasant,NJ,08742,732-899-5019
Collins Eastcoast Transport,107 Elm St,Lakehurst,NJ,08733,732-657-6026
Jm Trucking,210 Cedar Street,South Bound Brook,NJ,08880,N/A
4 U Trucking,77 Park Avenue,Teaneck,NJ,07666,203-809-5107
Grm Automotvie Service,81 State Route 94,Vernon,NJ,07462,973-209-9281
Flacos Xtreme Delivery,2117 Mt Ephraim Ave Lot 20,Camden,NJ,08104,856-831-2156
Tru Color Transport,161 Prospect St Ste 4,East Orange,NJ,07017,973-676-1113
Mdv Transport,1519 Windward Ave,Beachwood,NJ,08722,732-349-9919
A Rising Star Transportation,S 20th Street,Newark,NJ,07710,973-405-7622
Effective Courier Services,80 Port Avenue,Elizabeth,NJ,07206,908-344-6620
Ginn And Sons Trucking,1061 East 25th St,Paterson,NJ,07513,862-571-5683
"Aa Auto Care, Inc.",60 Asbury Road Suit133,Hackettstown,NJ,07840,973-351-8075
Sgf Freight Service,142 Sixth Street,Elizabeth,NJ,07206,908-351-9000
Outlaw Logistics,2221 South Black Horse Pike,Williamstown,NJ,08094,856-982-7378
Jr Trucking,3610 Hudson Avenue Apt 2,Union City,NJ,07087,551-497-0783
Holmes Transportation,10 Kennedy Court,Thorofare,NJ,08086,856-579-4383
Kenneth C Wright,412 East Central Ave,Blackwood,NJ,08012,856-308-0684
Perfection Movers,125 Clark St,Garfield,NJ,07026,973-928-2447
Big Angel Trucking,422 Fulton Street,Elizabeth,NJ,07206,908-352-8160
Alh Trucking,131 N Fairview St,Riverside,NJ,08075,609-781-5720
Padilla Transport,19 Front St,Dover,NJ,07801,862-668-3519
Twins Express,15 Joyce Ln,Clifton,NJ,07012,973-767-2461
Roadway Express,24 Boundary Road,Marlboro,NJ,07746,732-337-3046
Morales Trucking,41 Ellen Heath Dr,Matawan,NJ,07747,732-921-5966
Jorene Distributors,9 Boyletown Road,Montville,NJ,07045,973-335-1878
Stack Transportation Services,1400 Sherman Ave,Pennsauken,NJ,08110,877-759-4991
Bana B Trucking,508 Fourth Avenue,Deptford,NJ,08096,609-381-1894
B And M Automotive,426 Monroeville Road,Swedesboro,NJ,08085,856-241-7446
Cr Green LLC,244 Powelton Ave,Woodlynne,NJ,08107,856-379-4918
Abk Transportation,524 15 Th St,Union City,NJ,07087,201-866-0540
Gametruck,11 Nantucket Court,Howell,NJ,07731,732-363-4333
Kmu Transport,21 South East Ave #1a,Vineland,NJ,08360,856-896-9053
Atl,712 Route 1 North,Edison,NJ,08817,718-512-8585
Kls,30 Freneau Ave Ste 1f,Matawan,NJ,07747,732-970-7355
Joto Delivery Service,1300 Us Hwy 22 Apt 47,North Plainfield,NJ,07060,973-210-1568
Class Act Moving,4 Spruce St,Jamesburg,NJ,08831,732-647-6809
Jlr Movers LLC,642 Third Avenue,Elizabeth,NJ,07202,732-685-1630
Family 1st Transport,338 Long Ave,Hillside,NJ,07205,908-267-9034
Casanova Trucking,215 Stefanic Avenue,Elmwood Park,NJ,07407,201-773-6363
Sunshine Van Lines,7000 Kenedy Blvd East Ste M18,Guttenburg,NJ,07093,877-612-8023
Perl Transportation,106 Elmhurst Blvd,Lakewood,NJ,08701,862-686-6821
Time X Express,331 Second Street,Elizabeth,NJ,07206,732-272-3193
Albert Trucking,5-25 Hartley Place,Fairlawn,NJ,07410,732-208-5553
E And S Transportation Service,121rose Pl,Woodland Park,NJ,07424,973-333-9787
Db Trucking,117 Clinton Pl Fl3,Hackensack,NJ,07601,201-488-2459
Fav Transportation,79 Old Amboy Rd,Bordentown,NJ,08505,609-298-7750
M&r Transport,710 Morningside Ave,Union Beach,NJ,07735,732-857-0014
Village Distributors,100 Syracuse St,Lakewood,NJ,08701,732-364-2300
JrstransportLLC,310 W Almond St,Vineland,NJ,08360,856-507-1768
Jd Moving Company,609 Grand Avenue,North Bergen,NJ,07047,201-681-5021
Clark Cubed,121 New York,Trenton,NJ,08638,877-522-5275
Trophy Truck,470 Raymond Blvd,Newark,NJ,07105,201-954-7893
Ultimate Services Strike Force,43 Fadem Road,Springfield,NJ,07081,800-858-8782
Three Brothers Auto Racing,35 Ellery Ave,Irvington,NJ,07111,973-373-1458
Ejz Trucking Co,31 Martin St Apt 2,Patterson,NJ,07501,917-709-0503
"Amc & Sons Trucking, Inc.",394 Washington Ave,Hackensack,NJ,07601,201-373-0187
Solis Enon Trucking,23 Niagara Lane,Willingboro,NJ,08046,609-526-5033
"Gnopras Transport, Inc.",1051 A-madison Ave,Elizabeth,NJ,07201,908-884-3780
Tri-state Trucking Services LLC,3 Dupont Ave ,Hopatcong,NJ,07843,973-810-3131
Tristate Gutter Services,33 Grandview Ave,North Plainfield,NJ,07060,N/A
Teddy's Trucking Co,64 Orchard Street,Ridgefield Park,NJ,07660,201-734-1441
Izzo's Truck Repair And Transport,2294 Camila Ave,Atco,NJ,08004,856-298-0108
Jcm Trucking,150 S Bridge Street Suite D9,Somerville,NJ,08876,908-222-6749
Philgate International,276 Littleton Avenue,Newark,NJ,07103,973-230-9309
G&e Moving,8 Villa Ct,Park Ridge,NJ,07656,201-476-0658
Cargo Plus,74 Myrtle Avenue,Passaic,NJ,07055,973-773-7113
Trail Blazers Logistics,156 Newman St,Metuchen,NJ,08840,732-662-1038
Francy Express,563 Maple Ave,Elizabeth,NJ,07202,908-576-8491
V & G Logistics LLC,168 Quaker Church Road,Randolph,NJ,07869,973-361-0253
L M S Trucking Co,6 Halcyon Pl,Bloomfield,NJ,07003,973-277-8753
Advanced National Transport,251 Bellevue Ave Suite 101,Hammonton,NJ,08037,888-868-0504
Chalex Logistic,195 1st Apt 12l,Newark,NJ,07107,212-731-9371
Marabou Auto Transport,40 Chapman Blvd. Apt Q-13,Somers Point,NJ,08244,201-923-1458
R L A Delivery LLC,229 Crooks Ave #227,Clifton,NJ,07011,973-914-0010
New Generation Truckin,165 Little Falls Road,Ceder Grove,NJ,07009,862-202-0791
4 Laine Transportation,506 Route 50,Corbin City,NJ,08270,609-350-9189
Aka Pecaro Of East Brunswick,1503 Astor Street,South Plainfield,NJ,07080,908-561-0982
LLC,24 Elliot Street,Morristonw,NJ,07960,201-400-1663
Ruiz Trucking Corp,127 Willet Street,Passaic,NJ,07055,973-960-9424
B And D,24 Meryl Lane,Cherry Hill,NJ,08002,856-520-0342
E&w Trucking Company,167 North Clinton Street,East Orange,NJ,07017,973-678-1637
Diligent Transports,402 E Second Ave,Roselle,NJ,07203,908-220-9185
John & Sons Moving,1182 Flexon Ave,Williamstown,NJ,08094,856-728-1420
Out-rite Transport LLC,885 Broadway #77,Bayonne,NJ,07002,347-688-7483
National Limited Containers,564 Valley Road,West Orange,NJ,07052,973-731-2167
Mv Trucking,64 Barbara Street 2p,Newark,NJ,07105,973-573-3510
L Zdatny Distributing,190 Railroad Ave,Northvale,NJ,07647,201-359-0593
Trenton Movers,138 Sherman Ave,Trenton,NJ,08638,609-883-0822
Trans Europe Express,2828 Jfk Blvd #415,Jersey City,NJ,07306,551-580-2213
Sv Trucking,3203 Clubhouse Dr,Paulsboro,NJ,08066,856-308-6279
King Coach,2 Stoneleigh Terrace,Riverdale,NJ,07457,973-492-0200
Household Goods Mover,809 Pearl Street 12g,Elizabeth,NJ,07202,908-344-6031
Atc Trucking,485 B Route 1 South,Iselin,NJ,08830,732-510-4650
North Continental Equipment,216 Geneva Street,Elizabeth,NJ,07206,908-354-0896
Gaylord E Duncan,23 Woodvale Dr,Atco,NJ,08004,609-381-4858
Delorbe Trucking,20 Harrison Ave,Garfield,NJ,07026,201-893-5744
Transgo,145 Lincoln Ave F12,Newark,NJ,07104,936-355-9406
College Hunks Hauling Junk,223 Crestwood Drive,South Orange,NJ,07079,201-317-7989
Haller's,11 B Primrose Ln,Jackson,NJ,08527,848-459-2822
Ugg Courier Express,181 Howard Blvd Suite M-140,Mount Arlington,NJ,07856,908-510-0515
Nanas Transport,305 Rahway Ave,Elizabeth,NJ,07202,908-469-4145
Logistic,630 13th Street,Union City,NJ,07087,201-937-2574
Movex,19 9th St,Waren,NJ,07059,908-874-4423
Absolute Auto Transportation LLC,339 Lakeview Ave Apt 2b,Clifton,NJ,07011,973-856-9301
Pnp Trucking,3477 Delsea Dr,Franklinville,NJ,08322,609-652-3317
"Hb Transport, Inc.",133 Prospect Ave,Maywood,NJ,07607,201-587-0126
Premier Car And Limousine,1020 South Ave West,Westfield,NJ,07090,800-355-3904
M&s Transportation,413 Walnut Avenue,Cranford,NJ,07016,908-821-6510
Rapid Transportation,36 Diamond Drive,Egg Harbor Township,NJ,08234,609-788-8382
Eagle Express Transportation,20 Grant Ct,Laurrel Springs,NJ,08021,856-535-5665
Sanchez Delivery,523 Route 523,Whitehouse Station,NJ,08889,908-752-1628
Ecotrans World,220 Franklin Rd,Randolph,NJ,07869,917-664-9799
Whitaker Trucking,245 Mounts Mills Rd,Monroe,NJ,08831,732-259-2372
Gutter Services,43 William Place 1st Floor,Totowa,NJ,07512,973-720-1214
"Red Express Trucking, Inc.",15 Lazarus Dr,Ledgewood,NJ,07852,973-252-3839
T N Transport,27 Peachtree Ln,Burlington,NJ,08016,609-635-4783
El Chino Express,1200-02 Central Ave Apt 6,Union City,NJ,07087,201-600-3833
Affordable International Movers,1800 Pennsylvania Ave,Whiting,NJ,08759,732-350-3100
Southside Food Service,7300 Route 130 North Unit 19,Pennsauken,NJ,08110,856-665-8790
Service Master To The Rescue,223 W Park Vae,Vineland,NJ,08360,856-692-4269
Jsb Transportation,34 Sequoia Drive,Old Bridge,NJ,08857,917-676-9190
Daniela Trucking LLC,1010 West St,Union City,NJ,07087,201-450-1283
James Toyota,174 Hwy 202,Flemington,NJ,08822,908-788-5700
Transportation Of Furniture,521 Green Pond Rd,Rockaway,NJ,07866,973-722-2171
Carrier,193 Tenby Chase Drive Apt#s-247,Delran,NJ,08075,856-206-2236
Brass Bull Transport,1292 Hancock Road,Toms River,NJ,08753,848-333-7047
Brooks Auto Transport,499 Garden Way,Mt Laurel,NJ,08054,609-929-5767
C&m Visalli,140 Swedesboro Road,Mullica Hill,NJ,08062,856-478-2636
Tj Clydesdale Trucking,631 Shunpike Road,Cape May,NJ,08204,609-780-0552
Sopo Express Logistics,7 Plymouth Court,Basking Ridge,NJ,07920,908-647-7768
J & J Pope Trucking,1605 Woodlawn Ave,Vineland,NJ,08360,856-696-9516
The Rock Matrial Transporting LLC,254 Garfield Ave,Oakhurst,NJ,07755,732-695-3088
"Big Ted's Trucking, Inc.",1 Lawton Rd,Bridgewater,NJ,08807,732-921-4385
Jlrs Backhoe Service,116 S 2nd St,Hammonton,NJ,08037,609-567-9619
"Skv Trucking, Inc.",760 Eayrestown Road Apt C2-6,Lumberton,NJ,08048,609-914-0545
Michael S Criscuolo Trucking,2 Cordwell Dr,New Egypt,NJ,08533,609-758-2773
Zip Zap Trucking,215 Msgr Kenezis Pl,Elizabeth,NJ,07206,908-296-1736
Moe Transportation,121 West 2nd Street,Clifton,NJ,07011,973-703-5817
Gin Transportation,198 Delacy Drive,North Plainfield,NJ,07060,908-405-9863
Prestige Trucking,14 Thornhill Court,Sicklerville,NJ,08081,856-374-5311
Hyman Transport,210 South Burnett Street Apt.44-b,East Orange,NJ,07018,973-280-3388
P And L Trucking,11 E Emprie Blvd,S Hackensack,NJ,07606,201-923-7885
V Milazzo Trucking,56 Compton Road,Wantage,NJ,07461,973-875-8520
Etalon Charter Services,69 Veronica Avenue,Somerset,NJ,08873,732-828-4420
Lance Conner Trucking,69 Braddock Avenue,Hammonton,NJ,08037,609-561-5704
Precision Auto Transport,69 North Chester Avenue,Delran,NJ,08075,856-924-0506
Ewd Trucking,Box 776 County Route 519,Frenchtown,NJ,08825,908-996-3885
Lea Trucking,66 West Clark Place,Colonia,NJ,07067,732-680-1040
Kofi Transport,9 Tulip Dr Apt 2l,Fords,NJ,08863,908-283-3909
"All Nation Transportation, Inc.",35 Elm Ave 2fl,Fairview,NJ,07022,201-819-8221
Gem Hauling LLC,66 Pedrick Ave,Williamstown,NJ,08094,856-728-1973
S B Express,10 Lewis Ave,Jersey City,NJ,07306,201-344-6702
Raa Associates,16 Higgins Road,Old Bridge,NJ,08857,732-679-5638
L Vasquez Trucking Co,63 Half Carroll St,Paterson,NJ,07501,908-656-0350
Trucking General Freigth,107 Whittlesey Ave,West Orange,NJ,07052,973-412-5224
J G E Trucking,140 Weber Road,Elmer,NJ,08318,856-453-8121
Jcc Trucking,53 Cherry St,Elizabeth,NJ,07202,908-966-8742
Car Transport,17 Ice Plant Rd,Lafayette,NJ,07848,973-220-7159
Job Transportation,1825 Manor Drive Apt B,Union,NJ,07083,908-258-7535
Rish Trucking,333 Vannostrand Avenue,Jersey City,NJ,07305,201-209-0012
Popa Delivery Servces,176 Oak Street,Paterson,NJ,07501,862-264-6069
Anthony Montagna Trucking,54 Brooklake Road,Madison,NJ,07940,973-377-2401
"Patori Logistics, Inc.",119 Crine Rd,Morganville,NJ,07751,732-340-0228
Sprague Trucking,700 Poplar Ave,Rio Grande,NJ,08242,609-465-5446
Hawk Transportation,58 Elmwood Terrace,Wayne,NJ,07470,201-982-8050
Enrique Gomez Trucking,2 Bernice Rd,Belleville,NJ,07109,973-277-6681
Fro Pro Carriers,13 Stanley Rd,West Orange,NJ,07052,973-325-1818
Moving And Storage,381 East 1st Street,Clifton,NJ,07011,866-298-7968
Hp Trucking,717 Clifton Avenue,Newark,NJ,07104,973-412-8936
Justin L Euell,82-36 Cliffwood Ave,Cliffwood,NJ,07721,732-970-4861
Nrs,1 N Pavilion Avenue,Riverside,NJ,08075,856-764-9645
George J Mcelroy,50 Carter Road,Haskell,NJ,07420,973-248-8727
K&s Trucking,124 Ely Avenue,Laurence Harbor,NJ,08879,732-987-9511
L Hendershot Excavating,367 Route 565,Wantage,NJ,07461,973-875-1901
Pastarama,164 Center Avenue,Sewell,NJ,08080,856-468-3553
Rocio Transportation,27 Compbell Drive,Parlin,NJ,08859,732-442-0020
Jean Karlos Transport LLC,137 Main St Apt 1,West Orange,NJ,07052,973-908-7531
R Picerno Trucking,8 Topaz Lane,Lakewood,NJ,08701,732-864-9651
Fv Trucking,1004 Fanny Street,Elizabeth,NJ,07201,201-852-4627
Epi Transportation,139-36th St Apt 27-w,Union City,NJ,07087,201-766-3565
Quality Transportation,119 Cherry St,Tinton Falls,NJ,07724,732-688-0036
Global Transportation & Travel Service,1465 Rt 38,Haines Port,NJ,08036,609-261-9500
Jbn Transport,65 Kingsland Ave Ste 101,Clifton,NJ,07014,973-778-8000
K Gayle Trucking LLC,443 12th Ave,Paterson,NJ,07514,201-456-6850
Gt Marine,630 Rt 9,West Creek,NJ,08092,609-548-4295
Janos Home Delivery Co,44 2nd Street Apt Fl 2,Clifton,NJ,07011,201-675-9811
Parker Transportation,57 Loveman Rd,Cream Ridge,NJ,08514,609-752-1116
Carrier,1029 Madison Ave,Paterson,NJ,07501,718-446-0787
Synergy,405 East Main St,Wrightstown,NJ,08562,609-723-8222
Rising Star Transport,40 D Cotters Lane,E Brunswick,NJ,08816,732-390-5455
Dippe Trucking,114 Cathay Rd,Clifton,NJ,07013,973-652-4423
Portlop Transportation Services,315 56th Street Apt C8,West New York,NJ,07093,908-966-0996
Jcv Trucking Co,74 Florida St 2nd Flr,Elizabeth,NJ,07206,347-400-3462
Pro 356 LLC,1903 Holbrook Street,Oakhurst,NJ,07755,720-352-9866
Andy's Trucking,18 Alexander St,New Brunswick,NJ,08901,732-435-0626
Ultimate Moving Services,161 Second Street,Jersey City,NJ,07302,201-533-9222
Ron Keel & Son Trucking,455 Chewslanding Rd,Sickerville,NJ,08081,609-970-7415
Amboy Motor Sports Transportation,166 Quiet Rd,Sicklerville,NJ,08081,856-875-4834
Eduvigildo Trucking,288 Oak Street,Pert Amboy,NJ,08861,732-376-0310
Gm Trans,150 So Bridge St C12,Somerville,NJ,08876,908-240-9380
Gm Trans,42 Hermann Avenue,Carteret,NJ,07008,917-294-2080
K & V Trucking,717 Palisade Ave Apt 3-s,Union City,NJ,07087,201-376-2945
Stanko Trucking LLC,25 Rieder Rd,Edison,NJ,08817,732-910-8071
Walter Leasing,50 Kero Road,Carlstadt,NJ,07072,201-438-7200
Wayne Service Group,71 Kingsland Ave,Clifton,NJ,07014,973-473-3669
M&s Gachineiro Trucking,8 Killington Drive,Howell,NJ,07731,732-364-4675
Rg Delivery,351nicklaus Ct,Swedesboro,NJ,08085,609-638-4602
Andriy Khudakivskyy,4004 B Saxony Drive,Mount Laurel,NJ,08054,856-313-5181
Zeg Express,440 Andbro Drive,Pitman,NJ,08071,856-256-1414
Japs Trucking,69 W Summit St,Vineland,NJ,08360,609-381-3809
Pete's Whitehouse Valero,3482 Rt 22 West,Whitehouse,NJ,08888,908-534-0308
Jeff Tischio Trucking,38 Ann Street,Rockaway,NJ,07866,973-625-5456
Service Concrete Company,173 Oak Ridge Road,Oak Ridge,NJ,07438,973-697-4040
New Day,4 Whitman Ave 2nd Floor,Jersey City,NJ,07306,973-951-6551
Stan's Way Delivery Services,32 Tappen Street,Avenel,NJ,07001,732-634-6260
Lou's Luxury Car Service,121 Frambes Avenue,Pleasantville,NJ,08232,609-383-1457
Jjjt Express,268 Bell Avenue,Lodi,NJ,07644,201-357-5613
Peterson-taylor Transportation LLC,44 Normandy Lane,Willingboro,NJ,08046,609-835-9300
Steel Cowboy Trucking,80 Rutgers Ave,Bridgeton,NJ,08302,856-451-7469
Logistic Transportation Of Nj,30 South Fifth St,Elizabeth,NJ,07206,908-906-1229
Pazmino Trucking,614 17 St,Union City,NJ,07087,201-916-1306
Oscars Logistics,11 13 Lincoln Terr 1st Floor,Belleville,NJ,07109,201-954-6302
Vlh Trucking,656 East 24th Street,Paterson,NJ,07504,973-896-7744
Lbl Trucking,110 Dubois Ave,Woodbury,NJ,08096,856-251-0901
K & A Trucking,1996 State Hwy 27 Apt 10,Edison,NJ,08817,570-875-7374
Albert Transportation,47 Sayre Street,Elizabeth,NJ,07208,908-351-4575
Carrier,57 Oak Street,Jersey City,NJ,07304,201-892-2469
"Gwr 2 & Sons Transportation, Inc.orporated",187 Haledon Ave,Paterson,NJ,07522,973-790-1458
Je&m Trucking,89 Linden Ave,Belleville,NJ,07109,973-450-4640
Hc Trucking,146 Abbey Rd,Voorhees,NJ,08043,856-772-5842
Fali Trucking,138 Scrapetown Road,Pemberton,NJ,08068,609-726-9277
Michael Zafferanohorse Transportation,2300 Massachusetts Ave #18,Toms River,NJ,08755,732-267-6407
Karina L Garces,595 Orange St A,Newark,NJ,07107,973-482-7951
J & T Trucking,88 Vanreypen St Apt# 5r,Jersey City,NJ,07306,917-709-8211
"D A Transport, Inc.",319 Dewitt St,Linden,NJ,07036,908-862-1936
E Melendez Transport,520 Randolph St,Canden,NJ,08105,856-966-1854
Ansa Transportation,774 Eayrestown Road,Lumberton,NJ,08048,609-261-9444
Waters Trucking,901 Tampa Rd,Forked River,NJ,08731,609-661-9323
Plants Express Net,249 Spring Valley Road,Park Ridge,NJ,07656,201-746-0500
Soldier Express,41 W Henry Pl,Iselin,NJ,08830,732-983-6900
T & S Trucking Services LLC,86 Tunison Rd,New Brunswick,NJ,08901,732-423-2961
C & C Trucking,58 Willow Ave,Hackensack,NJ,07601,201-207-5536
Mark A Johnson,6 Katheleen Pl,South Amboy,NJ,08879,732-241-3602
Tyson Lines LLC,516 N Wood Ave Apt 7,Linden,NJ,07036,908-531-9970
Automasters,235 Bergen St,Hamilton,NJ,08610,609-392-4641
T C I And Jr Trucking,173 Prospect Street,Garfield,NJ,07026,973-930-2470
Romans Transport,294 19th Ave,Brick,NJ,08724,732-785-5884
Cnj Trucking,27 Belhurst Ln,Willingboro,NJ,08046,609-865-9604
Indian Transport,1116 Aster Avenue,Williamstown,NJ,08094,856-875-7493
Cr Express,15 Knights Court,Bordentown,NJ,08505,609-499-8133
Dmd Material & Trucking,3720 Park Avenue,South Plainfield,NJ,07080,908-769-0770
Mahones Services,49 Biscay Dr,Flanders,NJ,07836,973-229-0958
Sats,294 East 5th Ave,Roselle,NJ,07203,908-241-1395
J & V Trucking,5715 Ruby Ave,Millville,NJ,08332,856-498-5295
Warner Bay Farms,34 Boss Road,Ringoes,NJ,08551,609-397-9000
3 Bs Trucking,541 Holly Village Ln,Toms River,NJ,08753,732-904-2288
Ad & C Business,5 Marlowe Ct,Galloway,NJ,08205,649-677-0001
Bosmediano's Transportation Services,2 Glock Farm Way,Chesterfield,NJ,08515,732-213-1966
Baraka Transporters LLC,64 Lehigh Ave,Avenel,NJ,07001,732-570-6971
Raider Express,524 Myrtle Ave,Gibbstown,NJ,08027,856-491-6583
Peeples Delivery Service,4 Eddington Lane,Willingboro,NJ,08046,609-209-3163
Hammary Express,1104 Asbury Ave,Asbury Park,NJ,07712,732-984-3393
Sja Trucking,148 Thompson Ave,Dover,NJ,07801,973-601-7155
Alex P B Delivery,920 North Broad St 3a,Elizabeth,NJ,07208,908-422-1652
"Autops, Inc.",8 Lexington Ave,Wallington,NJ,07075,973-470-9354
Jorge Parra Transport,24 Oram Drive,Dover,NJ,07801,973-592-3368
Eba Trucking,103 Center Grove Rd,Randolph,NJ,07869,973-585-7487
Rs & Rs Transportation LLC,456 Rockaway Road Apt 44,Dover,NJ,07801,201-600-2145
Nizao Transport LLC,375 Clifton Ave #12,Newark,NJ,07104,862-755-1328
Jb Express Deliveries,33 Elm Street,Elizabeth,NJ,07208,917-804-6098
"A 2 Z Moving, Inc.",426 Cedar Ln,Teaneck,NJ,07666,201-836-5900
Holland's Trucking,16 Fowler St,Franklin,NJ,07416,973-209-4486
G Checo Trucking Co,1404 Summit Ave Fl 3,Union City,NJ,07087,201-325-9217
Hardin Service,18 Clove Avenue,Sussex,NJ,07461,973-875-4939
Panek's Golf Car Service Co,92 N Main St,Windsor,NJ,08561,609-490-0242
Grants Environmental Services,84 Country Club Rd,Willingboro,NJ,08046,609-346-0739
Atilla Trucking,407 Grant Ave,Beverly,NJ,08010,609-387-1883
Rsb Logistics,1434 Washington Avenue,Pompton Lakes,NJ,07442,973-907-9103
D Ale Trucking,365 Route 540,Bridgeton,NJ,08302,856-459-1381
J M L,553 Newark Av,Elizabeth,NJ,07208,917-217-3279
"Vincent Services, Inc.",715 Abbi Rd,Carteret,NJ,07008,732-352-0849
S L Carrillo Trucking,13 Cleremont Ave,North Brunswick,NJ,08902,732-227-0589
Ace Luxury Car Service,508 Fairbanks Ave,Northfield,NJ,08225,609-646-4796
Moto Fly Transport,65 Crabapple Hill Road,Milford,NJ,08848,908-995-4140
Any City Movers,257 10th Ave,Paterson,NJ,07524,973-977-8470
Cadet And Sons Trucking,1710 Stratford Ave,Neptune,NJ,07753,732-496-0365
Jab Trucking LLC,14 Oxford Road,Jackson,NJ,08527,732-367-1625
Hartel Timber Services LLC,Federal City Road,Pennington,NJ,08534,609-737-1682
Alc Trucking LLC,1064 Stuyvesant Apt C1,Trenton,NJ,08618,609-499-2193
E P Transport,108 Carlisle Ave Apt#1,Patterson,NJ,07501,973-405-4653
Cuff Trucking LLC,8 Rebecca Place,Piscataway,NJ,08854,732-819-9707
Do It Right Logistics LLC,109 Elmwood Place,Plainfield,NJ,07060,908-222-1092
Paul Kelly Trucking,1147 Porchtown Rd,Franklinville,NJ,08322,856-694-2260
Valenti Truckin LLC,326 Bernard Road,Morganville,NJ,07751,646-573-4552
Gavilanes Trucking Co,1090 Tabor Rd,Morris Plains,NJ,07950,347-243-5987
Joe Ortu Jr Trucking,3522 Richmond Court,Hillsborough,NJ,08844,908-874-3465
Acw Service,65 Byrne St,Hackensack,NJ,07601,201-343-0434
Custom Carrirs Xpress Co,481 Doremus Ave,Newark,NJ,07105,201-680-8129
Apt,1 Eldridge Drive,Robbinsville,NJ,08691,609-223-0267
Sol Logistics,708 Bobby Jones Rd,Brigantine,NJ,08203,267-784-0158
B & L Trucking,17 Duncan Ave,Jersey City,NJ,07304,201-401-1945
Robert Rodano Trucking,60 Millstream Road,Pine Hill,NJ,08021,856-629-8030
C&s Transport,447a South Poplar Ave,Galloway,NJ,08205,609-748-1054
Arlington Construction,1 Woodbridge Center Suite 320,Woodbridge,NJ,07095,732-688-4383
Prospero Trucking ,230 E Central Ave,Hammonton,NJ,08037,609-932-9832
Eto Trucking LLC,25 Prospect Place,Matawan,NJ,07747,732-970-4135
A M D Distributors,1214 W Chestnut Avenue,Vineland,NJ,08360,856-982-3118
Forchion & Forchion Trucking,1020 Hanover Blvd,Browns Mills,NJ,08015,609-509-0133
Jm Trucking,211 Howard Street,New Brunswick,NJ,08901,732-558-6833
Durans' Truck,34 Old Irondale Rd,Wharton,NJ,07885,908-966-1019
Lux Transportation Network,76 Charles Street,Somerset,NJ,08873,973-544-6963
Jal Trucking,21 Cleveland Terrace,East Orange,NJ,07017,973-418-2150
M & A Trucking,124 N 1st St,Paterson,NJ,07522,973-904-1015
Just Us Express,353 Main St,Newport,NJ,08345,856-466-8611
Vogue Limousine,3135 Powhatan Ave,Point Pleasant,NJ,08742,732-899-9520
Global Food Distributors,1295 Ridge Ave,Manahawkin,NJ,08050,609-978-1214
Pacific,3171 Route 9 North #334,Old Bridge,NJ,08857,732-679-7185
Princeton Bmw Princeton Mini,3466 Route 1 North,Princeton,NJ,08540,609-452-9400
Trucking Services,546 Bayway Ave,Elizabeth,NJ,07202,908-576-8216
G M Express,9 Grayson Pl,Burlington,NJ,08016,609-932-8551
Scott Trucking,190 Big Hill Rd,Southampton,NJ,08088,609-859-8626
Mayflower Trucking,1112 Easton Ave,Somerset,NJ,08873,516-996-3684
Mti Mota Import Export Cargo Express,508 Brace Ave,Perth Amboy,NJ,08861,732-826-7090
Hector J J E Trucking LLC,171 Jasper Street,Paterson,NJ,07522,862-264-1016
Jj Delivery Express,2416 41st St,Pennsauken,NJ,08110,856-206-6167
Ghs,137 Lincoln Blvd,Middlesex,NJ,08846,732-356-3736
Nationwide International Limousine,201 Rt 17 North,Rutherford,NJ,07070,201-933-8030
Liriano C Trucking,640 Cook Ave,Laurence Harb,NJ,08879,347-992-6614
"C W Logistic, Inc.",123 1st Street,Elizabeth,NJ,07206,718-568-5947
R & M Transport,453b Closter Rd,Monroe Township,NJ,08831,609-655-3804
El Tio,48 1st Street,Passaic,NJ,07055,973-779-3314
Oscar A Montero,526 Westview Ave,Cliffside Park,NJ,07010,201-362-7012
Rd Shipping Multy Service,809 Adams Ave,Elizabeth,NJ,07208,908-994-9374
M O Logistics,336 Larch Rd,Mt Laurel,NJ,08054,856-905-9494
H T S,344 Chaple Heights Road,Sewell,NJ,08080,856-207-2073
Jacob Blazer Trucking,1363 Aspen Avenue,Mayslanding,NJ,08330,609-567-0037
3j Delivery,344 East Ruby Avenue,Palisades Park,NJ,07650,646-465-1823
Cains Trucking,188 Jericho Road,Salem,NJ,08079,856-981-5352
On-the-spot Transport,4201 Church Rd Suite 12,Mt Laurel,NJ,08051,856-222-9711
Long Valley Coach,195 Pleasant Grove Rd,Long Valley,NJ,07853,800-269-4925
Big Box Storage Of North Jersey,15 Willet Street #2,Bloomfield,NJ,07003,973-566-9200
R V Trucking,1496 Columbia Drive,North Brunswick,NJ,08902,732-247-0867
Magic Transportation LLC,1029 South 8th St,Camden,NJ,08103,856-362-0672
All Points Shipping,82 Myer St,Hackensack,NJ,07601,201-820-3061
Carlos J Rosario,648 Jefferson Ave C12,Elizabeth,NJ,07201,646-296-1878
Xeneize Trucking LLC,10 Lakeside Drive,Matawan,NJ,07747,732-566-7777
Jay Shortway Contracting,29 Drew Mt Rd,Sussex,NJ,07461,973-245-1337
Medi-transport Of Nj,63 2nd Avenue,Hamilton,NJ,08619,609-586-7171
M S G Logistics LLC,163 Desilvio Drive,Sicklerville,NJ,08081,201-238-1397
Peter Xpress Co,131 Avenue E Apt 6,Bayonne,NJ,07002,201-218-1212
Ryan Mccauley,1401 Farley Rd,Whitehouse Sta,NJ,08889,908-458-7759
Juan Moreno,411 High St 2nd Fl,Elizabeth,NJ,07202,908-352-0553
M&m Transportaion,29b Shafer Place,Hackensack,NJ,07601,201-440-9607
Bt Transport LLC,695 Southard Street,Trenton,NJ,08638,609-649-6088
Transcontinental Logistics LLC,2500 Westside Ave,North Bergen,NJ,07047,201-321-7458
Bluehawk Express,1104 Morris St,Roselle,NJ,07203,908-298-0215
Aj Trucking,754 Mclaughlin Place,Orange,NJ,07050,973-675-1526
Makesha Trucking LLC,11 Webster St,Irvington,NJ,07111,973-207-0695
Jason Morris Trucking,121 West 2nd Street,Clifton,NJ,07011,973-928-3276
Ocean Lane Shipping,665 Chancellor Ave,Irvington,NJ,07111,718-450-8992
Mauro Transporters,542 Cornell Ave,Toms River,NJ,08753,732-288-9276
Dlb Logistics,7 Fairfield Drive,Westampton,NJ,08060,609-509-5000
Lc Transport,620 Carlock Ave,Perth Amboy,NJ,08861,732-934-7166
5 Star Auto Repair LLC,16 Heines Mill Road,Delran,NJ,08075,856-693-3278
Star Trucking,5 Timothy Street Apt 3,Paterson,NJ,07503,201-757-0540
Barnes Trucking LLC,1162 Sawmill Rd,Brick,NJ,08724,732-740-8948
Brunetta & Sons Construction,826 S Brewster Rd,Vineland,NJ,08361,856-362-5768
Stc,120 Larch Street,Portreading,NJ,07064,732-541-5080
M & F Deliveries Service,211 Grove Ave,Middlesex,NJ,08846,201-889-6311
C & C Transport,10 Harvest Ln,Columbus,NJ,08022,609-815-4777
Ft & Cp Trucking,2 Essex Rd,Washington,NJ,07882,201-299-3633
J J S Transport,31 Dayton Crescent St,Bernardsville,NJ,07924,908-221-1935
Igli's Express,62 Hazen Court Apt B,Wayne,NJ,07470,201-281-0016
Pine Valley Acres Transport,220 Davis Rd,Franklin,NJ,07416,973-209-6101
High Power Trucking,843 Morris Ave,Lakewood,NJ,08701,732-910-8050
Michael J Carlino Contracting,1909 Forest Grove Rd,Vineland,NJ,08360,856-697-4736
Panchino Trucking,28 Oxford Road,Wharton,NJ,07885,973-659-1154
Stc,2327 Kennedy Boulevard #2d,Jersey City,NJ,07304,201-484-9084
Jeter's Express,54 Garfield Avenue,Garfield,NJ,07026,973-253-8787
Motor Carrier,61 Ridgewood Ave,Irvington,NJ,07111,973-399-8009
Frrr Trucking,62 Maple Place,Clifton,NJ,07011,973-340-8342
Jc's Trucking,324 Sunset Avenue,Old Bridge,NJ,08857,732-234-3351
Rondon Trucking,627 Summit Ave Apt 14j,Jersey City,NJ,07306,201-663-5322
Nj Express Trucking,29 Goshen St Apt 1,Paterson,NJ,07503,862-686-8383
Around Town Movers,18 Stafford Lane,Willingboro,NJ,08046,609-923-6909
Udi Precision,700 Hwy Us 46 - Unit 8,Clifton,NJ,07013,973-962-6330
C O Ebf Enterprises LLC,3 Lucianna Lane,East Hanover,NJ,07936,973-261-4321
2m Transportation,15 Fairview Avenue,Little Silver,NJ,07739,732-233-5642
Jppl Trucking,228 Cortlandt St,Belleville,NJ,07109,973-450-8741
Elwood Cephas,13 College Ct,Trenton,NJ,08611,609-989-8057
Fredery Almonte,514 Green St Apt #1,Boonton,NJ,07005,973-766-6272
Aladino Class Jr,357 Wilson Ave Bldg #26,Newark,NJ,07105,908-465-7494
M F Transport,112 Washington Avenue 2 F,Little Ferry,NJ,07643,201-638-4557
Nest Trucking,741 12th St,Hammonton,NJ,08037,609-289-5393
Ls Logistics,226 Delmore Avenue,South Plainfield,NJ,07080,732-208-5553
Inspiration Trucking Company,19 Greenbrier Drive,Westhampton,NJ,08060,609-518-9949
Jls Transport Services,108 Hillyer St,East Orange,NJ,07017,973-489-3851
Caucasus Express,22h Craigwood Rd #22h,Avenel,NJ,07001,N/A
"Polar Bear Trucking, Inc.",305 Penns Way ,Basking Ridge,NJ,07920,908-903-1840
Gill Interstate Carrier,256 Clendenny Ave Apt# 3,Jersey City,NJ,07304,917-476-5009
Two Brothers Trucking Corp,108 Grand St,Garfield,NJ,07026,973-478-3222
R K Transport,693 New Brunswick Ave,Perth Amboy,NJ,08861,732-433-4205
Scotty Appliance Delivery,359 Marion St,Union,NJ,07083,908-686-0131
Roadrunner Transportation,112 River Drive Ave,Pennsville,NJ,08070,856-678-0300
"J B B Trucking, Inc.",233 Wessington Avenue,Garfield,NJ,07026,973-546-7101
Location Logistics,41 Rock View Drive,Sparta,NJ,07871,973-729-6669
Cesar Trucking Transport,1117 83rd St #3,North Bergen,NJ,07047,201-838-3852
A & V Trucking,1405 Cherry St,Union,NJ,07083,908-512-3177
Net2staff Employment Services,53 Madison Ave,Clifton,NJ,07424,201-261-9010
Hrtlc,64 Orchard Street,West Long Branch,NJ,07764,732-870-8987
Trucking,35 Academy Rd Apt 2l2,Caldwell,NJ,07006,973-228-0969
Cvs Equipment Distributors,81 Division Street,South River,NJ,08882,732-651-0500
As Trucking,1300 Cedar Street,Millville,NJ,08332,856-825-9049
Briggs Enterprise,84 Bennington Drive,E Windsor,NJ,08520,732-309-7392
On-time Services,40 Broad Street,Carlstadt,NJ,07072,201-438-3211
Fermin Brother Trucking,205 Midland Avenue,Kearny,NJ,07032,201-991-7803
Caribe Express Trucking Company,1022 W Blancke Street,Linden,NJ,07036,908-296-2841
Aarts Transportation,846 Wissahickon Ave,Cape May,NJ,08204,609-884-7780
Marcano Transport,263 Central Avenue Pmb 143,Jersey City,NJ,07307,201-332-7766
"House Trucking If Nj, Inc.",2712 Secaucus Road,North Bergen,NJ,07047,201-866-0755
S & B Trucking,77 Garden Rd,Pompton Lakes,NJ,07442,201-314-4782
Scalia & Romano Transport Corp,3571 Kennedy Blvd,Jersey City,NJ,07307,908-497-7435
B & T Transportation,10 Berkshire Place,Irvington,NJ,07111,973-313-1300
A & L Trucking,1800 Lower Road,Linden,NJ,07036,718-284-4233
James Auto Transport,532 Delsea Dr,Westville,NJ,08093,856-304-6117
Aziza Beverage Co,2 Sheppard Road Suite 301,Voorhees,NJ,08043,856-751-7288
Rams Trucking,834 N30th Street,Camden,NJ,08105,856-963-4124
A W Cioffi Trucking L L C,11 Highland Ave,Erial,NJ,08081,856-309-0442
"United Transport Systems, Inc.",7 Canterbury Drive,Scotch Plains,NJ,07076,973-699-3055
Edwin S Trucking LLC,119 Elm Street,West Orange,NJ,07052,973-865-9809
Bms Moving Services,43 Monitor Street,Jersey City,NJ,07304,201-915-0729
Abc Moving Services LLC,401 Main Street,Phillipsburg,NJ,08865,484-239-3464
Arias Trucking,98 Amherst Ave,Colonia,NJ,07067,732-921-1077
Leo Transport Corp,2828 Kennedy Boulevard Suite 351,Jersey City,NJ,07306,917-865-1254
Shoreline Foodservice Co LLC,3 Independence Way,Southampton,NJ,08088,215-416-5656
"Mashaqi Trucking, Inc.",73 Vincent Drive,Burlington,NJ,08016,609-386-3671
"Fast Fleet Systems And Personal Touch Freight Systems And Evo Air Van, Inc.",475 Division St Building 1,Elizabeth,NJ,07201,908-558-9600
Cci,316 Colfax Avenue,Clifton,NJ,07013,973-779-1622
Johns Trucking,983 Spring Garden Road,Port Norris,NJ,08349,856-785-2785
Cross Country Trucking,35 Patten St,Freehold,NJ,07728,732-995-5910
Murillo Express,150 68th Street,Guttenberg,NJ,07093,201-294-1668
Sals Express,173 Blair Road,Woodbridge,NJ,07064,732-636-5500
Mdc Services,8 Shiawassee,Glenwood,NJ,07418,973-764-3137
K P Express,213 Stuyvesant Ave,Lyndhurst,NJ,07071,201-729-1500
283 Prospect St Apt 1,283 Prospect St,Perth Amboy,NJ,08861,732-692-3479
Load-em-up Trucking LLC,32 Grissom Place,Fords,NJ,08863,732-225-6015
B & B Trucking,737 Rt 538,New Egypt,NJ,08533,609-758-8951
Best Friends Trucking,36 Clover St,Newark,NJ,07105,973-733-2050
Waste Management Of Sault Sainte Marie,12 Union Avenue,Maplewood,NJ,07040,973-885-3057
Jts Trucking,2053 Ocean Heights Ave Apt 102,Egg Harbor Township,NJ,08234,609-926-4664
Aldaz Transportation,6911 Madison Street,Guttenberg,NJ,07093,201-376-2744
Transportation,13-51a River Road,Fairlawn,NJ,07410,917-538-2043
P Lopez Trucking,207 Belleville Ave,Belleville,NJ,07109,973-261-4093
"Felix Ortiz Trucking, Inc.",54 Edwin Street,Carteret,NJ,07008,732-433-0028
Big O Trucking,33 Brantley Way,Sicklerville,NJ,08081,856-232-3990
Berenato Distributors,111 Ashley Court,Cherry Hill,NJ,08003,856-428-5387
The Showcase Line,77 Cliffwood Ave Ste 7c,Cliffwood,NJ,07721,732-441-0555
Tlc Movers,53 Browning Terrace,Old Bridge,NJ,08857,732-491-9140
Carlos Trucking,2453 40th Street,Pennsauken,NJ,08110,609-605-0830
Trucking Cargo Express,52 Summer Avenue Floor 3,Newark,NJ,07104,973-223-3733
"Ultimate Automotive Industries, Inc.orporated",500 West Main Street,Wyckoff,NJ,07481,201-891-1133
"Professional Process Service, Inc.",981 Route 33 Bldg 1 Ste D,Monroe,NJ,08831,609-371-5091
Third Lane,515 Mount Prospect Avenue Suite 8b,Newark,NJ,07104,201-852-0895
"Father And Son Transport, Inc.",653 Landis Ave,Bridgeton,NJ,08302,856-453-8183
Millenium Freight Xpress Transport,7 Pagoda Lane,Freehold,NJ,07728,732-995-6009
American Transport,221 Front Street,Southampton,NJ,08088,609-859-1122
Buffalo Transport,111 Buffalo Ave 3rd Floor,Paterson,NJ,07503,862-571-5700
Caribean Trucking,22 Minker Pl.,Belleville,NJ,07109,813-597-1154
Tire Transportation,11 Union Street,Lodi,NJ,07644,212-923-6155
Sjc Farming & Hauling,6858 3rd Ave,Mays Landing,NJ,08330,609-625-5158
Nexus Transport Freight,117 Harrison Ave,Roseland,NJ,07068,973-364-1185
A&m Trucking,382 Abbott Avenue,Ridgefield,NJ,07657,201-280-5610
M T B Trucking Corp,6003fillmore Place # 5015,Wny,NJ,07093,813-476-6795
Mr Auto Transportation,1224 Lenox Ave,Plainfield,NJ,07060,908-296-4369
Ran Transport,141 Adelphia Rd,Farmingdale,NJ,07727,732-919-3899
Oliveira Trucking,36 Winding Wood Drive 2b,Sayreville,NJ,08872,732-234-3360
Emiliano Express,144 Lincoln Avenue,Hawthorne,NJ,07606,973-376-7546
J R Express Deliveries Co,1308 Palisade Avenue,Union City,NJ,07087,908-413-5518
Dri,3393 Liberty Street,Browns Mills,NJ,08015,609-351-8622
Limo Service,49 Owens Road,Old Bridge,NJ,08857,732-607-2500
Aguilera Trucking,296 Elm Street 1st Floor,Newark,NJ,07105,973-817-7120
The Lpa Group,130 Moonachie Ave,Carlstadt,NJ,07072,201-935-0220
Jmk Snyder Trucking,575 Jerome Avenue,Somerset,NJ,08873,908-322-7318
Dragonboard Us,208 Fairmount Ave,Jersey City,NJ,07306,201-938-0303
Serpa Services,302 Secaucus Rd,Secaucus,NJ,07094,201-538-3634
Hyman Delivery,22 Board Road,Hewitt,NJ,07421,973-809-3568
"Dreamland Transportation, Inc.",400 Duncan Ave,Jersey City,NJ,07306,201-451-8400
R J Clayton Transport,6 Syringa Street,Browns Mills,NJ,08015,609-346-4532
"Josh Martin Trucking, Inc.",13 Horton Ave,Bridgeton,NJ,08302,856-451-9202
Hugo San Candy Distributors,24 Bergen Ave,Jersey City,NJ,07305,201-892-3989
Sole Proprietor,836 Partridge Run,Point Pleasant,NJ,08742,732-899-5303
"Pro Aer, Inc.",517 Franklinville Rd,Mullica Hill,NJ,08062,856-478-6704
Rich's Automotive,42 North Beverwyck Road,Lake Hiawatha,NJ,07037,973-299-0188
Armstrong Transport LLC,6 Butterfly Ct,Manahawkin,NJ,08050,609-709-5710
Eric's Truck Service,116 Stiles Ave,Maple Shade,NJ,08052,856-482-5962
Vass Trucking,115 Blackwood Barnsboro Rd,Sewell,NJ,08080,609-820-1674
The Thomas Group,23 Sandhurst Rd,Lakewood,NJ,08701,732-551-9307
Todd Blessing Trucking,6 Thorntown Lane,Bordentown,NJ,08505,215-892-6738
Wcz-transport,6409 Grand Ave,North Bergen,NJ,07047,201-453-0364
Kat'z Transportation LLC,87 Walnut Ave,Bridgewater,NJ,08807,908-693-4525
"Cheng's Linen Service, Inc.",2047a Fletcher Avenue,Fort Lee,NJ,07024,207-346-5659
Atran Moving And Storage,35 Eighth Street,Passaic,NJ,07055,800-293-1123
Uflex,87 Madison Ave,Irvington,NJ,07111,973-372-1086
M & D Trucking,161 Oechsle Rd,Woodstown,NJ,08098,856-491-0271
"Fastrax Trucking, Inc.",122 Dartmouth Trail,Hopatcong,NJ,07843,973-770-8629
Jenkins Transport,167 Hope Avenue,Passaic,NJ,07055,973-751-7612
Gmr Trucking,2010 44th Street Apt 1a,North Bergen,NJ,07047,201-232-3502
B A Trucking,424 Ridge St,Newark,NJ,07104,973-482-7417
Lindmeier Trucking,505 Pennsylvania Avenue,Franklinville,NJ,08322,856-694-1284
Jose Almendares Trucking,4704 Kennedy Boulevard,Union City,NJ,07087,201-601-9547
"Tisma Transp0rt, Inc.",3 Kates Turn,Oak Ridge,NJ,07438,973-704-1653
R Rankins Trucking,10 Vernon Avenue,Somerset,NJ,08873,732-470-9201
R-mac Transport LLC,7339 Zimmerman Avenue,Pennsauken,NJ,08109,856-662-7483
Mailcon,4 Aurora Drive Suite 403,Cranbury,NJ,08512,609-655-3484
Call Ron,152 N Spinnaker Dr,Little Egg Harbor,NJ,08087,609-294-8395
Trucking,158 West 22 Street,Bayonne,NJ,07002,201-437-0360
Blood Sweat & Gears,109 E Crestwood Ave,Somerdale,NJ,08083,856-924-1439
Fish Contracting,197 Cedar Grove Rd,Mullica Hill,NJ,08062,856-478-2925
Coyote Express,6 Cottage Avenue,Moorestown,NJ,08057,856-229-1125
C Phelps Trucking,1246 West Atlantic Avenue,Blackwood,NJ,08012,267-688-4983
Frank's Deliveries Service,1200 Magie Ave,Elizabeth,NJ,07208,908-527-9257
Lara Tranport Corp,150 Liberty Rd 2nd Floor,Englewood,NJ,07631,201-871-0742
Middlesex Distributors,450 Florida Grove Road,Perth Amboy,NJ,08861,732-442-2230
Vizcaino Trucking,52 Contant Avenue,Lodi,NJ,07644,973-246-4188
County Moving,556 Otto Place,Paramus,NJ,07652,201-791-7112
Rottweiler Transport,489 Merrill Ct,Orange,NJ,07050,973-725-8103
Onur Trucking,340 West 2nd Street,Florence,NJ,08518,609-724-8828
Five Star Relocation,8555 Tonnelle Ave Ste 401,North Bergen,NJ,07047,201-766-3600
Tri-state Trucking & Hauling,44 Cedar Street,Garfield,NJ,07026,973-684-1985
K A W Trucking,408 Sutton Ave,Hackensack,NJ,07601,201-342-4810
Jtz Trucking,4 Charles St,Delaware,NJ,07833,908-475-1045
Villaci's Transport Co,92 Kossuth St Apt 1,Newark,NJ,07105,973-943-0295
M&n Trucking Co,12 S Atlantic Ave Unit 112,Matawan,NJ,07747,732-471-8146
Harz Leasing,55 State Street,Elmer,NJ,08318,856-207-5341
Rrx,67 Hazel Drive,Freehold,NJ,07728,732-804-1411
Milestone Logistics,1161 Bergen St,Newark,NJ,07112,973-374-9120
Allpro Moving And Storage,898 Ashburn Way,Swedesboro,NJ,08085,877-838-2837
Sandoval W Trucking,133 43rd Street,Union City,NJ,07087,201-348-2051
"Anthony & Malone Trucking, Inc.",115 Schooner Ave,Barnegat,NJ,08005,609-698-5520
Na,202 Myers Ave,Hasbrouck Heights,NJ,07604,201-376-1112
Mojica Trucking,101 Mount Prospect Ave,Newark,NJ,07104,201-697-9755
Jeb Trucking,938 Beaty Street,Trenton,NJ,08611,609-743-6341
Johns Trucking,122 W Mohawk Dr,Little Egg Harbor,NJ,08087,908-275-4540
D F L Transport,210 38th St Apt 2,Union City,NJ,07087,201-926-7769
Jacek Zgorski Trucking,714 W Blenheim Avenue,Blackwood,NJ,08012,856-312-0338
Tommy's Moving,918 Williow Ave 4r,Hoboken,NJ,07030,201-656-5030
T2 Logistics,149 East 8th Street,Roselle,NJ,07203,347-754-9540
Vanimans Trucking LLC,212 Main Ave,Milmay,NJ,08340,609-476-4904
Jls Trucking,4380 Stanley Terrace,Newfield,NJ,08344,856-362-5694
Cody Transport,408 Centre St,Elizabeth,NJ,07202,908-482-1615
Terrys Trucking,7 Ballad Ln,Willingboro,NJ,08046,609-835-7687
Professional Carpet Systems,800 Rike Drive,Millstone Twp,NJ,08535,732-656-3370
Girone Enterprises LLC,577 E Walnut Road,Vineland,NJ,08360,856-364-7985
Mod Hauling Services,2222 Harding Hwy,Newfield,NJ,08344,856-694-1610
Jc Services,215 Main St Apt#95,South Bound Brook,NJ,08880,732-356-8494
J A Delivery,231 Roosevelt Ave,Lodi,NJ,07644,201-522-9926
E & L Transport,400 Grier Ave,Elizabeth,NJ,07202,908-966-7851
Jas Trucking,27 Spring Garden Dr,Madison,NJ,07940,973-377-9218
Jose Calderon Trucking LLC,1501 Roosevelt Ave N4,Carteret,NJ,07008,732-925-4480
M1 Dellivery Solutions,3 Malibu Dr,Magnolia,NJ,08049,856-371-3313
Robert Trucking,18 Fairfield Ave,West Caldwell,NJ,07006,973-580-7777
Rojas Trucking,44 Park Ave,Berkeley Hgts,NJ,07922,908-966-2433
Rt Corbin Transport,460 17th Ave,Paterson,NJ,07504,973-278-0302
Super Plus Auto Express,400 Highland Terrace #4e,Orange,NJ,07050,973-789-8251
Rigthaway Trucking Service,103 North Wood Avenue,Linden,NJ,07036,386-756-9423
"Thaddyboo Trucking, Inc.",460 E32nd Street,Paterson,NJ,07504,973-332-6255
Juan Burgos,2210 Mays Landing Rd Lot 76,Millville,NJ,08332,863-529-3632
Glad 2b Trucking,193c 14th Avenue,Newark,NJ,07103,973-504-8665
De Liberto Specialty Foods,438 Getty Avenue,Clifton,NJ,07011,973-546-7132
Caicedo Transport,9-11 May Street Apt 1,Newark,NJ,07104,973-482-3964
Double M Trucking,84 Browns Lane,South River,NJ,08882,732-238-7270
Advanced Relocation System,11w 21st St,Linden,NJ,07036,908-862-4343
D G D Trucking,109 Race Street 2nd Floor,Elizabeth,NJ,07202,908-249-9098
Tdi,260 Murray Hill Parkway,East Rutherford,NJ,07073,201-460-8822
A-tech Automotive,239 Route 94,Blairstown,NJ,07825,908-362-9311
Rasta Trucking Co,81 Clinton Ave 3rd Flr,Jersey City,NJ,07304,201-304-4498
Auto Transport,107 Trumball St Bldg L 13 S,Elizabeth,NJ,07206,718-476-2723
Celtic Express,1920 South Delsea Drive #20,Vineland,NJ,08360,856-297-4870
No Doubt Express Trucking,407 Glenn Ave,Egg Harbor Twp,NJ,08234,609-407-2983
Jk Mover,164 Hillside Ave,Teaneck,NJ,07666,201-836-8216
Kinary Transportation Services LLC,99 Hanover St,Pemberton,NJ,08068,609-577-9641
Norma Alvarado,104 Malone Ave,Belleville,NJ,07109,973-759-3837
Alberto Veintimilla Trucking LLC,276 N 6th Street,Newark,NJ,07107,973-277-0646
B S Trucking,10 Market St,Passaic,NJ,07055,973-955-8688
Julio's Transport,394 6th Av,Paterson,NJ,07514,973-684-7130
S J Holzinger Trucking,89 Sydney Pl,Somerset,NJ,08873,732-803-1500
"To And Fro Transportation, Inc.",427 Walnut St,Camden,NJ,08103,856-757-0281
Alh Trucking,121 Lehigh Ave,Del Haven,NJ,08251,609-886-5605
J & J Modular Transport,2312 Sesame St,Atco,NJ,08004,856-719-6712
R &t Transportation,256 Vanderpool Street,Newark,NJ,07114,973-792-0040
Haziray Trucking,326 Mercer Loop,Jersey City,NJ,07302,201-312-2760
Jnf Trucking LLC,708 Summer St ,Elizabeth,NJ,07202,908-351-1043
Lds,26 Colonial Ave,Woodbury,NJ,08096,215-828-4915
"J & Mk Trucking, Inc.",400 North Main Street,Wharton,NJ,07885,973-366-8638
Foxchin Transportations,266 Elberon Ave,Paterson,NJ,07502,973-720-9796
Matthews Heavy Haul LLC,48 Providence Avenue,Woodland Park,NJ,07424,862-220-8686
Ecfs,2200 Route 31 Suite 8,Lebanon,NJ,08833,908-735-4830
Jgr Trucking,19 Reimer St,Somerset,NJ,08876,908-413-4061
Caucasus Transport,311 Redwood Avenue Building E Apartment E2,Paterson,NJ,07522,862-377-3243
Rar Express Trucking,520 Laurita St,Linden,NJ,07036,908-966-8844
Matthew Lorenzoni Dry Laid Masonry LLC,6 Barcroft Rd,Frenchtown,NJ,08825,908-996-6357
Federated Emergency Service LLC,2240 South Clinton Avenue,South Plainfield,NJ,07080,908-769-1800
Mjt Delivery Service,104 Edegewood Ave,Clifton,NJ,07012,973-778-5605
Speed Auto,136 Michigan Ave,Paterson,NJ,07503,973-523-1223
Hs Trucking,111 Bulding- B Macarthur Ave,Garfield,NJ,07026,609-922-1678
Direct Delivery,393 S 10th Street,Newark,NJ,07103,973-643-2300
Kuldip Singh,1469 Delsea Dr,Deptford,NJ,08096,856-848-2150
President,521 Pennigton Street,Elizabeth,NJ,07202,973-592-3782
New Way Container Transportation,809 Adams Ave,Elizabeth,NJ,07201,908-351-6755
Perry E Rhodes Trucking,631 Norway Avenue,Hamilton Twp,NJ,08629,609-638-5478
Lacy Trucking LLC,255 Claflin Avenue,Trenton,NJ,08638,609-883-2493
Gus Logistics LLC,666 Marlton Pike,Camden,NJ,08105,856-963-6571
Julio Distributors,187 Bergen Trp,Ridgefield Park,NJ,07660,201-807-1992
J C B Trucking,293 Sparta Ave,Sparta,NJ,07871,973-920-0300
K Way Expressinc,20 Grano St,Monroe,NJ,08831,732-521-1438
Action Pac Distributors Co,710 New Brunswick Ave,Rahway,NJ,07065,732-382-4704
Al Valentino Trucking And Grading LLC,2105 14th St,Folsom,NJ,08037,609-567-2100
Straightedge Transport LLC,135 Liberty St,Fords,NJ,08863,732-803-8382
Nito Transport,389 Highland Ave,Passaic,NJ,07055,973-277-0054
Clarks Boat Hauling,310 Morris Blvd,Toms River,NJ,08753,732-929-8122
All-in-one Trucking,64 Beech Street,East Orange,NJ,07018,973-677-7541
Olivare's Trucking,8511 1st Fl 1st Ave,North Bergen,NJ,07047,201-674-8805
"Phils On Sight Express Quick Lube And Services, Inc.",111 Windsor Street,Kearny,NJ,07032,201-955-7950
Richard Troina,32 Oslo Drive,Rockaway,NJ,07866,973-586-1441
Daniel Trucking,55 E Elm St,Carteret,NJ,07008,201-362-4093
Scott W Barbieri LLC,5 Concord Lane,Basking Ridge,NJ,07920,908-938-7091
B Rankins Trucking,10 Bernon Avenue,Somerset,NJ,08873,908-217-6846
Diggstown Transport,316 Second St Apt 2,Elizabeth,NJ,07206,908-965-6889
Lbx Express Corp,57 Jewell Street Apt 1,Garfield,NJ,07026,973-478-3709
Wilson's Transport Co,450 Elizabeth Ave 1st Fl,Elizabeth,NJ,07206,347-993-4034
Frederick Hernandez,92 E 18th St,Paterson,NJ,07524,973-592-2750
Dynastydeliveryservice,Glenview Dr,Willingboro,NJ,08046,609-747-8982
Rowe Comm Freight,4001 Chadbury Road,Mount Laurel,NJ,08054,609-332-4349
G T Express,268 Bell Avenue,Lodi,NJ,07644,201-838-2748
Lvl Transport,7511 Strand Ave,Mays Landing,NJ,08330,609-567-0466
Rwj Trucking,49 Argyle Avenue,Blackwood,NJ,08012,856-228-5381
"Rhodes Trucking, Inc.",658 South Ave,Plainfield,NJ,07062,908-922-2984
Lsi Distributors,1 Havenwood Court Suite 504b,Lakewood,NJ,08701,732-654-5060
All Star Car Carrier,35 3rd Avenue,Newark,NJ,07104,973-991-6262
Ells Trucking,1446 12th Ave,Williamstown,NJ,08094,856-889-1518
Anthony Franchi Trucking,127 Pershing Road,Brooklawn,NJ,08030,856-456-5544
Dpd Moving Systems,386 Rutherford Ave,Franklin,NJ,07416,973-209-6432
Asa Transport LLC,211 High St 2,Hackettstown,NJ,07840,908-637-6923
Alpha Trucking,315 57th St H 1,West New York,NJ,07093,201-577-6911
Cjc Trucking,72 Snyders Rd,Phillipsburg,NJ,08865,908-213-1411
T&s Auto Services,2608 North Delsea Drive,Vineland,NJ,08360,856-696-1713
Prince Trucking,145 Delmar Pl,Irvington,NJ,07111,973-371-4777
Mandingo Moving & Trucking Services,27 S Van Brunt,Englewood,NJ,07631,201-440-3434
Streamline Services LLC,112 Rt 565,Sussex,NJ,07461,973-875-1214
Kilic Trucking,125 Cooperskill Rd,Delran,NJ,08075,609-458-5758
N Zapata Trucking,55 Grace Street Apt 2,Bloomfield,NJ,07003,973-417-6321
1-800-pack-rat,17 South Middlesex Ave Suite B,Monroe Twp,NJ,08831,609-409-8100
Midway Auto Parts,1623 Glassboro Road,Williamstown,NJ,08094,856-881-8568
John Moore,152 Quiet Rd,Sicklerville,NJ,08081,N/A
Pawerd Trucking,85 Romaine Avenue,Jersey City,NJ,07306,201-432-4084
Bulldog Transportation,400 Alloway Aldine Rd,Elmer,NJ,08318,856-358-0146
G Gusta Trucking LLC,40 Zazzetti St,Waldwick,NJ,07463,201-304-1178
Lbn Transport,599 Broadway Apt 3b,Paterson,NJ,07514,973-345-8618
Executive Delivery,504 Island Lane,Egg Harbor Twp,NJ,08234,609-601-8794
Cls Transport,16 La Cascata,Clementon,NJ,08021,856-535-4257
Breton Transport Co,83 Second Avenue Apt 101,Newark,NJ,07104,973-573-7537
Furniture Delivery,1004 Sheridan Avenue,Roselle,NJ,07203,908-884-7335
All Around Water Services,21 Dogwood Rd,Wantage,NJ,07461,973-702-0797
Bozman Express,509 Riverdale Blvd,Pompton,NJ,07442,973-831-4310
Sunrise Auto Transport,50 Lefke Lane,Whippany,NJ,07981,973-887-8760
"Lp Transport, Inc.",4828 Tonnelle Ave Lot B-15,North Bergen,NJ,07047,201-624-8721
Don Luis Transportation,501 South Logan Avenue,Trenton,NJ,08629,609-865-2883
"J Callis Trucking, Inc.",195 William St,Englewood,NJ,07631,201-569-6439
Asw Tank Services,14 Underhill Ter,Ringwood,NJ,07456,973-962-0770
D C L Trucking LLC,625 Mount Hope Road,Wharton,NJ,07885,973-366-7741
Adds,59 Love Lane,Netcong,NJ,07857,973-691-7077
Richard Cass Trucking,130 Orr Road,Allentown,NJ,08501,609-203-4210
Dsc Trucking,343 Marine St,Tuckerton,NJ,08087,732-921-4169
D-kab Trucking Company,704 Village Dr,Edison,NJ,08817,609-655-3804
Wood Flooring Distributors,1275 Bloomfield Bldg 5 Unit 25a,Fairfield,NJ,07054,973-227-2827
Michael Dawson Trucking,73 Hance Blvd,Freehold,NJ,07728,732-522-4603
Strauss Trucking,78 Franklin Ave,West Keansburg,NJ,07734,N/A
Rafael & Sons Trucking,Po Box 792,Passaic,NJ,07055,N/A
Moran Trucking,2909 Stevens Street,Camden,NJ,08105,856-338-6958
P S W And Son Transport,378 Haynes St,Hackensack,NJ,07601,201-679-6982
Sellars Trucking,280 Nesbit Terrace,Irvington,NJ,07111,973-399-1137
Pvi,15 Princess Rd,Lawrenceville,NJ,08648,516-803-2091
Karli Trucking,416 4th St,Jackson,NJ,08527,732-928-0595
"J & Chris Transportation, Inc.",453b Closter Rd,Monroe Twp,NJ,08831,609-655-3804
Src Trucking,10 Magnolia Ave,Jersey City,NJ,07306,201-798-4195
Total Transportation,100 Harbor Rd,Morganville,NJ,07751,732-591-1522
Gregg's Trailer Service,32 Se Grant Ave,Port Reading,NJ,07064,732-541-8884
Blz Trucking,53-55 Martin St,Paterson,NJ,07501,973-713-9788
Cmr Trucking Co,115 Clark Place,Elizabeth,NJ,07206,908-400-7600
Vincent Ramos Trucking,276 N 6th St,Newark,NJ,07107,973-390-1118
W K Trucking,135 Toledo Lane,Willingboro,NJ,08046,609-880-9283
Tgd Trucking LLC,149 East 8th Ave,Roselle,NJ,07203,908-966-6690
T & L Trucking,894 Ave C,Bayonne,NJ,07002,201-823-0366
Divanny Guerrero,214 Johnson Ave,Teaneck,NJ,07666,201-928-1561
Trucking Brothers Ramirez,293 North 5th St,Newark,NJ,07107,973-485-6864
Ck Soon Trucking,1120 73rd St,North Bergen,NJ,07047,201-233-1790
Megatron Trucking,1159 Tanyard Rd,Sewell,NJ,08080,856-468-5741
M Patxot Transport,1200 Central Ave,Union City,NJ,07087,201-866-6616
Teamchas,65 Ramapo Valley Road Ste 15,Mahwah,NJ,07430,201-512-9450
Teamchas,65 Ramapo Valley Road Ste 15,Mahwah,NJ,07430,201-512-9450
Transfer Trucking,10 N Wood Ave Apt 202,Linden,NJ,07036,908-862-3730
Fast Ed's Auto Transport,21 Brand Rd,Toms River,NJ,08753,732-864-1452
R Perez Trucking,411 6th St,Union City,NJ,07087,800-317-0009
Badwal Transport,2200 Woodbridge Ave Apt 2,Edison,NJ,08817,732-393-1221
"Hps Trucking, Inc.",2452 Belcher Dr,Union,NJ,07083,908-688-8183
"D&c Hauling, Inc.",31 Third St,E Brunswick,NJ,08816,732-432-7959
B&dspecializedhauling,1387a Old Indian Mills Road,Shamong,NJ,08088,609-268-4972
Jro Trucking,388 Ave C,Bayonne,NJ,07002,201-823-2284
Dc & Rw Trucking,5 Fleming Ave,Sewell,NJ,08080,N/A
Gustavo A Bedoya Trucking Co,580 Fairview Ave #12,Fairview,NJ,07022,N/A
Welsh Trucking,408 Stiles Ave,Maple Shade,NJ,08052,856-482-7060
Chad Foster Trucking,279 Blackwood Ave,Franklinville,NJ,08322,856-694-0106
J&k Transport,386 Cr 519,Belvidere,NJ,07823,908-475-1281
Jcb Trucking,520 Delaware Rd,Blairstown,NJ,07825,908-459-5862
Eugene R Umstead Jr,122 Palisade Ave,Garfield,NJ,07026,973-472-3341
"Slick's Enterprises, Inc.",32 East 17th St,Linden,NJ,07036,302-279-6552
Mpa Trucking,3 Jewett Ave,Jersey City,NJ,07304,201-434-1760
Art Moving Company,93 Oxford Ave,Jersey City,NJ,07304,201-432-3500
A&t Service,775 Harding Hwy Box F13,Buena,NJ,08310,856-697-8684
Rosado Trucking,97 Marion St,Port Reading,NJ,07064,732-969-0595
R Janssen Trucking,7 James Hollow Dr,Barnegat,NJ,08005,609-607-9730
R S Transportation,62 Highland St,Paterson,NJ,07524,973-881-1869
Yourstone Transportation,3 Harris St 2nd Floor,Carteret,NJ,07008,732-969-1259
Angel Trucking,508 Liberty Ave,Jersey City,NJ,07307,201-656-0831
Angel Trucking,122 Irving Street Apt 1l,Jersey City,NJ,07307,201-653-1322
B & T Transportation,1809 Springfield Ave #2,Maplewood,NJ,07040,973-313-1300
J D Ellis,157 East Grant Ave,Roselle Park,NJ,07204,908-298-0742
Rodrigo Escobar Trucking,1112 North Ave,Elizabeth,NJ,07201,908-351-7398
Swainton Woodcutters Sos Trucking,1563 Route 9 N,Swainton,NJ,08210,609-465-7135
Dp Transportation Of Collingslakes,119 W Collings Drive,Collingslakes,NJ,08094,609-704-2929
A S A Warehousing Services,115 Greenvale Court,Cherry Hill,NJ,08034,856-667-4572
Sun Transport,58 County Road,Secaucus,NJ,07094,201-401-2741
Ebm Trucking,550 Clarkson Ave,Elizabeth,NJ,07202,N/A
J Romero Trucking Co,100 Thorne St,Jersey City,NJ,07307,N/A
"Ebj Trucking, Inc.",12 Wallace St,Pittsgrove,NJ,08318,856-794-8443
Estrada Trucking,75 E Blackwell St,Dover,NJ,07801,973-328-7117
Rtm Trucking,42 Hawk Rd,Lawrenceville,NJ,08648,609-915-6464
Gr Trucking,167 North Street 1st Floor,Jersey City,NJ,07307,201-659-8551
Ajm Trucking,60 Signal Hill Trail,Sparta,NJ,07871,973-726-8645
El Burrito Transportation,1900 Palisade Avenue,Union City,NJ,07087,201-330-2960
J & G Trucking,57 Polk St,Newark,NJ,07105,973-578-8959
Joseph D Ezzo Trucking,3038 Rt 23,Franklin,NJ,07416,973-827-5551
Snapple,433 Blair Road,Avenel,NJ,07001,732-815-2831
A G Trucking Co,914 Adams Ave 2nd Floor,Elizabeth,NJ,07201,908-659-1386
H L Woods Hauling,123 Ingham Ave,Egg Harbor Twp,NJ,08234,609-517-4638
Bohica Trucking,6 Wilson Way,Ringoes,NJ,08551,908-229-4096
A Savino Trucking Co,48 Rogers Dr,Landing,NJ,07850,973-398-4166
Wills Trucking Corp,158 Pulaski Ave,Perth Amboy,NJ,08861,732-496-5661
Wiggins Trucking,46 Bright Rd,New Egypt,NJ,08533,609-758-7191
Jsq Trucking,47 Dewitt Ave 3rd Floor,Belleville,NJ,07109,973-748-7595
Gepe Trucking,500 Chews Landing Road Apt 413,Lindenwold,NJ,08021,856-881-9386
A Hernandez Trucking,705 Charlie St,Perth Amboy,NJ,08861,732-826-6788
O&b Trucking,9228 Rt 130 North,Bordentown,NJ,08505,609-499-5885
Aga Transportation,307 E 26th St,Paterson,NJ,07514,973-523-8111
Eg Trucking,37 Wilson Pl,Belleville,NJ,07109,973-759-3274
Mr Rogers,160 Pikeview Lane,Woodbridge,NJ,07095,347-992-9696
Alvarado Trucking,671 Clifton Ave,Newark,NJ,07104,973-485-8131
Maq Trucking,270 Franklin St,Bloomfield,NJ,07003,973-781-8990
Finesse Auto Transport,6 Locust Ave,Columbus,NJ,08022,609-298-2669
M&j Trucking,197 Canterbury Ave,North Arlington,NJ,07031,201-991-2658
A Vintimilla Trucking,90 Columbus Ave,Belleville,NJ,07109,973-751-4476
Stout & Sons Trucking,34 Collins Ct,Brick,NJ,08724,772-201-5923
Adm Trucking,128 Grove St,Westfield,NJ,07090,908-389-1192
Mcgowan Logistics Systems,17 Farinella Dr,E Hanover,NJ,07936,973-952-9031
Ljs Transport,2 Helen Place 2nd Fl,Clifton,NJ,07011,201-438-6500
Bluegrass Services,901 Darmstadt Ave,Egg Harbor City,NJ,08215,609-804-0106
V S Trucking,30 Caroline Dr,South River,NJ,08882,732-613-0790
"Bill Clark Jr, Inc.",16 Beech Pl,Denville,NJ,07834,973-627-6290
Prestin Freight Management,16 Park Avenue,Rutherford,NJ,07070,201-635-1829
Parsons Trucking,741 Rt 40,Elmer,NJ,08318,856-358-7134
Metrostate Transport,57 Jackson St Apt #2,Passaic,NJ,07055,718-443-3539
R L Baglio Trucking,865 Weymouth Rd,Vineland,NJ,08360,856-697-9717
Rice Trucking,11 Phyllis Lane,Manahawkin,NJ,08050,609-597-1871
Rainbow Food Service,3 South Grey Rock,Little Falls,NJ,07424,973-785-2025
Sheppard Trucking,611 Abbington Dr Apt A6,Hightstown,NJ,08520,609-443-3615
Dgd Trucking,909 Cedar Dt,Stillwater,NJ,07875,973-903-0087
H T Trucking,22 Rutger St,New Brunswick,NJ,08901,732-296-1772
Vicuna Trucking Co,40 Monroe St 1st Fl,Newark,NJ,07105,973-465-5136
Michael C Paladino,25 Washington Street,Wharton,NJ,07885,973-537-6466
Js Transportation Co,1900 Bergenline Ave #4,Union City,NJ,07087,201-206-6812
Rj&sons Transport,1824 Nautilus Dr,Toms River,NJ,08753,732-966-2311
Carter Trucking,11 Carter Drive,Deptford,NJ,08096,856-853-8506
Maltese Trucking,260 Riva Ave,Milltown,NJ,08850,732-940-7789
A L Trucking,1 Devon Terrace,Kearny,NJ,07032,201-998-9579
Zara Trucking,100g Arcadia Rd,Hackensack,NJ,07601,201-342-3910
The Evans Company,152 Redneck Ave,Moonachie,NJ,07074,800-922-9924
Bunay Trucking Corp,372 No 7th Street,Newark,NJ,07107,973-418-8659
"Curovic Trucking, Inc.",100 Dyer Ave,Clifton,NJ,07014,973-778-4977
A & M Trucking,22 Mt Pleasant Ave,Belleville,NJ,07109,973-759-2483
Mulch Express,444 Commerce Ln Ste B,W Berlin,NJ,08091,856-768-5915
Liz's Trucking,1054 Kilsyth Rd,Elizabeth,NJ,07208,908-289-3909
Garden Fresh Produce,36 E Wesley St,So Hackensack,NJ,07606,201-996-0444
Jorge A Posso Trucking,14 Reservoir Rd,Parsippany,NJ,07054,973-539-7683
Krimmel Trucking,12 Hobart Av,Absecon,NJ,08201,609-677-0412
Tonito Trucking,3311 Paterson Plank Rd,North Bergen,NJ,07047,N/A
Roman Wagner Trucking,515 Clinton St,Linden,NJ,07036,908-862-8760
"V-ann Trucking, Inc.",256 Vanderpool St,Newark,NJ,07114,401-943-8486
H M L Trucking,1209 Columbia Pl,Hillside,NJ,07205,908-687-0293
Best Moving And Trucking,383 Woodlawn Ave,Jersey City,NJ,07305,201-333-4368
J M Trucking,604 Summer Ave,Newark,NJ,07104,973-483-8079
"Angulo Services, Inc.",301 73rd St,North Bergen,NJ,07047,201-438-6500
Dinosaur Transport,517 Longstreet Ave,Brielle,NJ,08730,732-253-2733
R Keel Jr Trucking,5 Hawthorne Rd,Sicklerville,NJ,08081,856-728-5740
Emerald Isle Transport And Supply Co,14 Minnietown Lane,Hopewell,NJ,08525,609-730-8131
Jose Briseno's Trucking,3 Franklin Ave #5,Harrison,NJ,07029,973-481-4069
"Ravi Trucking, Inc.",31 Henry St,Jersey City,NJ,07306,201-294-1868
J B C Trucking,563 Crooks Ave,Clifton,NJ,07011,973-819-7353
A J S Trucking LLC,156 Franklin Ave,W Berlin,NJ,08091,856-768-0311
Gregory D Brunner Trucking,P.o.box 7,Bricktown,NJ,08724,908-910-6699
J Kilcullen Trucking,625 Sydney Ave,Union Beach,NJ,07735,732-739-3891
Maria P Trucking,3400 Central Ave #b3,Union City,NJ,07087,201-866-4613
D A Express,23 Monterey Ave,Teaneck,NJ,07666,201-814-0086
Bergen Movers,120 Colden St,Jersey City,NJ,07302,201-332-4402
Spinit Trucking,7536 Pleasant Ave,Pennsauken,NJ,08110,856-663-5279
L Chemin Trucking,530 Hamilton St,Harrison,NJ,07029,973-445-5382
Vargas Trucking,95 Littleton Ave,Newark,NJ,07105,973-651-1044
Velez Transporation,201 Henmarken Dr,Northvale,NJ,07647,201-438-6500
Sand's Trucking,404 Atlantic Ave,Waterford,NJ,08089,856-767-1767
Usme Trucking,5700 Hudson Ave,West New York,NJ,07093,201-601-2581
Common Carrier,110 Curtain Ave,Browns Mills,NJ,08015,609-203-6685
A G Trucking,299a 7 Ave West,Newark,NJ,07107,973-760-4105
Clemons Trucking,65 Charles St,Bloomfield,NJ,07003,973-680-0190
Teamchas,65 Ramapo Valley Rd Suite 15,Mahwah,NJ,07430,201-512-9450
Rolo Express,8211 3rd Ave,North Bergen,NJ,07047,201-438-6500
Nelson Services,14-39 51st St,North Bergen,NJ,07047,201-770-0303
Storm's Hauling,831 Elm Street,Camden,NJ,08102,856-963-1647
Rjr Trucking,686 Rt 513,Pittstown,NJ,08867,908-735-5873
Benton & Holden Moving & Storage,28 Abeel Road,Monroe Township,NJ,08831,609-395-4071
Martin's Hauling,284 Nautilus Drive,Manahawkin,NJ,08050,609-597-6938
Asa Trucking,38 Grove Ave,Woodbridge,NJ,07095,908-351-7402
S D T Hauling,565 Kiowa Dr,Franklin Lakes,NJ,07417,201-337-5591
Belmonte's Transportation,421 57th St #1,West New York,NJ,07093,973-340-1960
New Line Transportation,355 Delan Place,Fairview,NJ,07022,201-945-6062
"Ed Czech Trucking, Inc.",40 Steinhardt Ave,Old Bridge,NJ,08857,732-251-3252
"E & N Delivery Transportation, Inc.",100 Thorne St,Jersey City,NJ,07307,201-206-7283
Tat Transport,203 Parker Ave Apt 3,Clifton,NJ,07011,973-546-4218
Triple K Trucking,508 South Clinton St,East Orange,NJ,07018,973-678-7580
Trucking Company,251 Industrial Parkway,Branchburg,NJ,08876,908-722-7782
J Munoz Trucking,1 Plenge Drive,Belleville,NJ,07109,973-759-0687
State Auction Liquidators Or National Estate Auction,380 Paterson Plank Road,Carlstadt,NJ,07072,201-887-6733
Scisco Trucking LLC,24 Clover Hill Dr,Jackson,NJ,08527,732-367-8588
Jorge Penafil Trucking,62 Taylor St,Newark,NJ,07104,973-485-4857
Gateserver Trucking,2 Laventhal Ave,Irvington,NJ,07111,888-428-3903
M&jr Trucking,210 Bergenline Ave Apt 7,Union City,NJ,07087,201-438-6500
Pinchas Leasing Co,2 Bergen Turnpike,Ridgefield Park,NJ,07660,201-440-4200
J's & C's Transport,220 N 21st St,Kenilworth,NJ,07033,908-653-0392
Mcbride Struble Service,321 Fairfield Rd,Fairfield,NJ,07004,973-575-0800
"Cestona Trucking, Inc.",559 E Jersey St,Elizabeth,NJ,07206,908-296-8522
Knight Express,342 Summer Ave,Plainfield,NJ,07062,908-222-9289
D & F Trucking,650 Elizabeth St,Perth Amboy,NJ,08861,732-293-1555
F Leon Trucking,679 Ridge St,Neward,NJ,07109,973-429-1606
Horner Trucking,8 Mill St,Stockton,NJ,08559,609-397-0311
Nida Transportation,65 Ivy Way,Aberdeen,NJ,07747,732-566-2221
Dlm Transport,717 Dock St,Millville,NJ,08332,856-327-1309
Cedeno Trucking,20 Agness St,Bellville,NJ,07109,N/A
Storm Transport Services,91-a Palisade Avenue,Jersey City,NJ,07306,201-656-2613
R Mack Trucking,2212 Adams Ave,Toms River,NJ,08753,732-904-5085
C V Trucking,735 Chancellor Ave,Irvington,NJ,07111,N/A
R L Seabrooks Transport,595 Stuyvesant Ave,Irvington,NJ,07111,973-399-0745
Abb Turbocharger,1460 Livingston Ave,N Brunswick,NJ,08902,732-932-6227
O Grob Trucking,600 N Union Ave,Hillside,NJ,07205,973-808-0072
Harry James Transportation,853 Jackson Road,Buena Vista,NJ,08346,609-704-5648
Chirino Trucking,114 Port Ave Apt2,Elizabeth,NJ,07206,908-353-5786
E G & Son Trucking,12 Liberty St,Freehold,NJ,07728,732-863-1297
Garden State Trucking & Recycling Corp,17 Concord Circle,Howell,NJ,07731,732-905-7430
Kz Trucking,102 East 23rd St,Paterson,NJ,07514,973-279-6259
J & R Trucking,529 Smith St,Perth Amboy,NJ,08861,732-619-4687
J & R Trucking,529 Smith St,Perth Amboy,NJ,08861,732-619-4687
Mac Trucking LLC,259 Mcclellan Ave,Hamilton,NJ,08629,609-496-1560
Advanced Tank Services,286 Houses Corner Rd,Sparta,NJ,07871,973-300-0913
Dl El Trucking,156 Ogden Ave,Kearny,NJ,07032,201-246-0647
L B Trucking,35 Winding Wood Drive,Sayreville,NJ,08872,732-613-0086
Cbh Trucking,7310 Park Avenue,North Bergen,NJ,07047,201-430-3560
Sonia Trucking,130 Bender Ave,Roselle Park,NJ,07204,908-241-6002
Paramo Trucking,9 Sunset Avenue,North Arlington,NJ,07031,201-852-1245
Myb Trucking,1020 Woodlane Crossing #68,Edgewater,NJ,08010,N/A
Jm1 Transport,53 Washington St,Perth Amboy,NJ,08861,732-213-3342
B & G Transport Company,108 Winchester Dr,E Windsor,NJ,08520,609-371-1305
"Try State Service, Inc.",355 Sandford Ave,Newark,NJ,07106,973-399-2204
Now Freight Systems,Hackensack Ave Bldg 9 Sec J,Kearny,NJ,07032,973-578-8288
Pugliese Trucking,119 Wallnut St,Roselle Park,NJ,07204,N/A
Deana's Transport,217 Graylock Pkwy,Belleville,NJ,07109,973-844-1821
Christopher Colson Trucking,3 Skyline Dr,Hopatcong,NJ,07843,973-670-1841
"D K Delivery Svc, Inc.",17 Tower Ln,Willingboro,NJ,08046,609-871-6168
Haraizeh Trucking,34 Grant Ave Apt 2,Dumont,NJ,07628,201-501-0602
"A & E Trucking, Inc.",16 High Mountain Trail,Lincoln Park,NJ,07035,973-628-1048
Nsg Trucking,41 Mageira St,South River,NJ,08882,732-432-0900
Pilot Air Freight,1416 Chestnut Ave,Hillside,NJ,07205,908-810-1000
J H Trucking,192 E 17 Th St,Paterson,NJ,07524,973-742-5182
Morgans General Contracting ,714 Franklinville Rd,Mullica Hill,NJ,08062,609-805-5619
Terror-ebb Trucking,1001 California Ave,Egg Harbor Tnp,NJ,08234,609-646-5954
Providence Trucking Corp,862 Kennedy Blvd,Bayonne,NJ,07002,201-823-9043
E Leary Transport,100 Elizabeth Ave,Iselin,NJ,08830,732-283-1728
"Universal Scrap Service, Inc.",Viking Terminal Jernee Mill Rd,Sayerville,NJ,08882,732-441-4441
Woo's Trucking,554 E Elizabeth Ave,Linden,NJ,07036,908-587-0421
Ramirez Pena Trucking,Catalpa St,Perth Amboy,NJ,08861,732-324-6392
J R Trucking,391 Sip Ave,Jersey City,NJ,07306,201-951-6617
H B Trucking,122 W Brown St,Somerville,NJ,08876,908-725-3893
Eta Worldwide,One Greentree Centre Suite 201,Marton,NJ,08053,856-874-1904
Bledi Trucking,67 Alps Road,Wayne,NJ,07470,973-517-6424
S T Transport,118 Mountain View Rd,Asbury,NJ,08802,908-689-7837
"Paulina, Inc. Trucking",96 Butler St,Paterson,NJ,07524,973-881-1328
Mike's Transport,413 Windsor Dr,Bellmawr,NJ,08031,609-684-4784
"Eddie O Trucking, Inc.",386 Washington St,Perth Amboy,NJ,08861,732-442-0106
Singleton Trucking,36 Sewell St,Glassboro,NJ,08028,856-881-8505
Peralta Trucking,130 Elm St,Elizabeth,NJ,07208,908-553-3617
Jk Trucking,615 Tara Dr,Sicklerville,NJ,08081,856-629-2028
Triple C Transportation,15 American Way,Spotswood,NJ,08884,732-251-9979
Government Construction,11 Evergreen Avenue,Neptune City,NJ,07753,732-502-0808
M K P Trucking,323 Buffalo Ave,Paterson,NJ,07503,973-332-1569
Richadson Trucking,130 Fifth Ave,Paterson,NJ,07524,201-438-6500
T & T Rv Transport,300 E Dennis Dr,Galloway,NJ,08205,609-652-7247
"Euclides Transportation, Inc.",82 Fourth Suite #1,Passaic,NJ,07055,N/A
Mmm Express,600 Ramsey Ave Ste 206,Hillside,NJ,07205,917-418-2223
D & P Transport,502 N Clinton Ave,Trenton,NJ,08638,609-599-3048
Bilvic Trucking,18 Tracey Dr,Milltown,NJ,08850,732-246-4372
Sterling Environmental Services,79 Irving Ave,Livingston,NJ,07039,973-994-7454
J & B Trucking,71 Avenue B,Lodi,NJ,07644,201-637-6306
Jb Trucking,158 Ocean Ave,Middletown,NJ,07748,732-495-5533
Touch Down Delivery,667 First Ave,Deptford,NJ,08096,856-228-5404
Four Seasons Trucking,125 Enterprise Ave S,Secaucus,NJ,07094,201-617-1101
J G T Corp,125 Chambers St,S Plainfield,NJ,07080,908-581-2568
Hts Trucking,344 Chapel Heights Rd,Sewell,NJ,08080,856-589-3219
Alfredo Dinten Trucking,61 Lincoln Hwy Ste #9,So Kearny,NJ,07032,973-589-1185
Ali Koc,519 Rt 33,Englishtown,NJ,08052,516-775-1922
Sfinx Express Transit,9274 Kennedy Blvd,North Bergen,NJ,07047,201-861-1033
G Sichko Trucking Co,42 Bellows Lane,Towaco,NJ,07082,973-394-9442
"G T A Transport, Inc.",237 Newark Ave,Bloomfield,NJ,07003,201-406-5105
"Bedrock Hauling, Inc.",13 West Long Branch Ave,Ocean Gate,NJ,08740,888-691-4140
Cynthia Transport,712 10th St Apt 8,Union City,NJ,07087,201-319-9773
H & H Express,223 Orchard St,Elizabeth,NJ,07208,908-355-0749
Tony R Trucking,723 N 6th Street,Newark,NJ,07107,973-578-2059
Rosado's Transport,30 Lebed Dr,Somerset,NJ,08873,732-887-0989
Rdc Trucking,107 Kensington Terr,Passaic,NJ,07055,973-395-6122
Shamrock Moving,734 Smith Bowen Rd,Galloway,NJ,08205,877-653-6683
Rlc Trucking,3003 Adams St,Wall,NJ,07719,732-299-8533
Zenon Trucking,2804 Spruce Str,Union,NJ,07083,908-687-1760
Anderson Auto Transort,175 W Shore Ave,Dumont,NJ,07628,201-852-1538
Abc Discount Auto Parts,4 Springdale Rd,Cherry Hill,NJ,08003,856-797-2979
E Logistics Freight Management,38 Saw Mill Pond Rd,Edison,NJ,08817,732-650-1333
Kap Trucking,17 Wyoming Dr,Jackson,NJ,08527,732-367-3626
Antico Trucking,9 Grand Blvd,Spotswood,NJ,08884,732-940-0915
Rc Transport,9023 Kennedy Blvd,North Bergen,NJ,07047,201-255-0052
M Brenes Trucking Co,343 Vosseller Ave,Bound Brook,NJ,08805,732-356-0836
Joe Transportation,7 Short St,Lodi,NJ,07644,973-632-0905
Affordable Delivery & Moving Services,1701 Tuckerton Ave,Whiting,NJ,08759,732-350-1914
De La Mota Transport,434 Monroe Street Apt 1,Passaic,NJ,07055,973-651-1258
Reliable Tire Service,200 East Saint George Ave,Linden,NJ,07036,908-486-2555
Kirk Trucking,165 Vannostrand Ave,Jersey,NJ,07305,201-434-4632
Jason's Transport,4060 Rt 1,Monmouth Junction,NJ,08852,732-438-8422
Fast Trucking Service Corp,185 Sherwood Ave,Paterson,NJ,07502,973-942-6551
"Saas Trucking Serv, Inc.",44-a Pinehill Rd,Englishtown,NJ,07726,718-317-7529
"Ocean Transport, Inc.",2 Scott Court #c4,Ridgefield,NJ,07660,201-218-3338
Energy Trucking,1253 Route 206,Shamong,NJ,08088,609-268-8477
Trinty Trucking,10 Maricopa Trail,Browns Mills,NJ,08015,609-735-1831
Dubose Transport,172 Sherman St,Passaic,NJ,07055,973-470-8526
Piss And Moan Express,35 Rieder Road,Spotswood,NJ,08884,732-251-3374
Moya Trucking,320 Jackson St Apt 1104,Hoboken,NJ,07030,201-420-0446
"D & L Trucking, Inc.",23 Anita Dr,Jackson,NJ,08527,732-928-5573
Fisher's Fine Automobiles,342 White Horse Pike,Clementon,NJ,08021,856-309-9400
C&a Trucking LLC,148 Woodland Ave,Little Ferry,NJ,07643,201-974-2319
"Deliveries On Time, Inc.",30 Cedar St,Hillside,NJ,07205,908-353-8037
Marian Trucking,19b University Circle,Linden,NJ,07036,908-884-6482
Oviedo Trucking Co,31-spring Street,Passaic,NJ,07055,201-280-5315
J M Crosby Trucking,20 Watsessing Ave C-12,Belleville,NJ,07109,973-759-8843
Big Trucking,46 Mulock St,Harrison,NJ,07029,201-759-6367
Troy Hurst,7 Abendale Lane,Sicklerville,NJ,08081,856-875-9685
Monteagudo Trucking,6603 Grand Ave,North Bergen,NJ,07047,201-854-8527
Mora Trucking,2413 Woodbridge Plaza,Woodbridge,NJ,07095,732-768-5241
Chris Scarborough Trucking,121 Perry Ln,E H T,NJ,08234,609-926-5113
Hillside Delivery Service,215 Conklin Ave,Hillside,NJ,07205,973-923-9582
"Amboy Diesel Service, Inc.",228 Boundary Rd,Marlboro,NJ,07746,732-303-0606
Rhett Transport,225 Chapel Hill Rd,Red Bank,NJ,07701,732-741-9034
A & A Trucking Heavy Duty Dump Service,380 Clear Stream Rd,Jackson,NJ,08527,908-791-9405
Pasion Trucking,22 Donald Pl,Elizabeth,NJ,07208,908-289-2278
Dagoberto Barrantes,385 New Hampshire Lane,Bound Brook,NJ,08805,732-564-1695
J J Trucking,68a West 23rd St,Bayonne,NJ,07002,201-438-6500
Ruben Campos Trucking,5903 Washington St Apt 2,West New York,NJ,07093,201-330-1066
"A & S Transmission Service, Inc.",2233 Bartram Avenue,Atco,NJ,08004,609-471-8903
Lainez Trucking,364 Lafayette Ave,Passaic,NJ,07055,973-916-1145
E S Transportation,40 Booraem Avenue #45,Jersey City,NJ,07307,N/A
E J Bauman Trucking,131 Carl Road,Corbin City,NJ,08270,609-628-2878
C & V Trucking,309 Mattix Run,Absecon,NJ,08201,N/A
Velez Trucking,537 Jersey Ave,Elizabeth,NJ,07202,800-816-0885
Bindi,405 Minnisink Rd,Totowa,NJ,07512,973-812-8118
Jose L Villar,23 Martin Ave,Edison,NJ,08837,732-662-7383
D Bastos Trucking,152 New York Ave,Newark,NJ,07105,973-344-3072
Ken Christensen Used Auto Parts,20 Henry St,Sayreville,NJ,08872,732-390-4651
Perez Trucking,126 Willow Ave,Hoboken,NJ,07030,N/A
C S Trucking,1425 Burnet Avenue,Union City,NJ,07083,908-820-8612
P H Price Trucking,1046 Cedar Ave,Williamstown,NJ,08094,856-629-0173
G & G Trucking,46 Morris Ave,Mt Tabor,NJ,07878,973-627-3481
Castle Container Transport Corp,16 Brookwood Dr,Maplewood,NJ,07040,973-763-7166
Richard Folkvard Trucking,49 Arthur Ave,Carteret,NJ,07008,732-969-3936
Ozzie's Trucking,101 Pine St,Hackensack,NJ,07601,917-417-8798
Destinee Trucking,483 Central Ave,Jersey City,NJ,07307,N/A
E L C Transportation,41-15 Liberty Ave,North Bergen,NJ,07047,201-864-0257
F & R Transport,9 Oakwood Pl,Carteret,NJ,07008,732-802-0506
Unique Trucking,569 Avenue A,Bayonne,NJ,07002,201-823-9882
C K Trucking,8 Farrand Dr,Parisippany,NJ,07054,973-331-8008
J C Bridgers,103 N Wood Ave 28,Linden,NJ,07036,908-868-9999
Medina Trucking,170 New Brunswick Ave,Perth Amboy,NJ,08861,732-581-2553
Jm Transportation,17-e Redfield Vlg #3,Edison,NJ,08837,732-549-3614
Mfd Truck Broker,15 Sherry Lane,Hammonton,NJ,08037,609-567-5955
Irvin Trucking Co,815 87th St Apt 1,North Bergen,NJ,07047,201-758-0278
J C K Trucking,58 Gilbert Rd,Bordentown,NJ,08505,609-267-9592
Jd Trucking,739 Edward St,Parsippany,NJ,07054,973-316-2681
Cj Limouseine Service,P O Box 242,Kenilworth,NJ,07033,908-709-9661
Professional Furniture Services,59 Newburgh Rd,Hacketsstown,NJ,07840,908-852-4900
Fleetwood Trucking,79 Third Ave,Paterson,NJ,07514,973-589-1185
Cheyenne Trucking & Rigging,243 13th St,Avalon,NJ,08202,609-967-1119
H L Trucking,108 Koscucko St,Manville,NJ,08835,908-685-0253
Paradise Farms,103 Fitzer Rd,Frenchtown,NJ,08825,908-399-1182
Bdl Trucking,269 Gatzmer Ave,Monroe Twp,NJ,08831,732-656-9536
Jemer Transport,69 Randolph Ave Apt 5,Jersey City,NJ,07305,201-324-0585
Tom's Moving And Delivery,117 Walnut St,Bridgeton,NJ,08302,856-455-4504
S & K Transport Corp,115 Nelson Ave,Jersey City,NJ,07307,201-707-1150
Yvolex Trucking,122 39th St Apt 6,Union City,NJ,07087,201-864-2760
George Weiss And Son,338 Prospect Dr,Brick,NJ,08724,732-840-3764
Luis Express Trucking Company,464 Rose Village #5,Newark,NJ,07107,973-483-1275
Paco Trucking,760 Clifton Ave,Newark,NJ,07104,973-481-1296
Pro-transport,60 Forest Drive,Jackson,NJ,08527,732-300-7195
Rice Transport,844 Sergeantsville Rd,Stockton,NJ,08559,609-773-1199
"L Campoverde Trucking, Inc.",38-40 Pennington St #1,Newark,NJ,07102,973-622-0627
Ken Riggio Trucking,451 South Brewster Road,Vineland,NJ,08360,856-697-4338
Schusa Trucking,1059 Sayre Rd South,Union,NJ,07083,908-624-1747
Rjv Transport,310 Clarendon St,Secaucus,NJ,07094,201-616-2753
Aka Trucking,9 Lilac Dr,Ewing,NJ,08638,609-883-2277
Mirailton Dasilva,11 Columbus Ave,Belleville,NJ,07109,973-844-9361
All Aboard Auto Transport,1088 Route 88,Lakewood,NJ,08701,732-363-8823
Rios Transportation,334 Pennington St,Elizabeth,NJ,07202,347-228-6622
J A's Trucking,3204 Cornucopia Ave,Vineland,NJ,08360,609-825-2216
Davidson Trucking,5 Fox Hollow Drive,Spring Lake Heights,NJ,07762,732-528-8628
Blc Trucking,251 N 4th St,Paterson,NJ,07514,973-703-1404
Dania Trucking,411 Central Ave,Jersey City,NJ,07307,N/A
"Transexpress, Inc.",1501 Harrison Ave,Kearny,NJ,07032,800-507-1920
All-ways Delivery,4 Aspen Court,Mount Holly,NJ,08060,609-265-2337
Cintron Trucking,1111 Ave C,Bayonne,NJ,07002,201-858-1492
Monty Burgess Trucking,357 Fairmont St,Somerset,NJ,08873,732-214-1336
Townsend's Trucking,915 Louis Dr,Millville,NJ,08332,N/A
Mickens Trucking,68 Maple Ave,Irvington,NJ,07111,973-372-8652
Haul For Hire,600 Liberty Ave,North Bergen,NJ,07047,201-951-5168
Quality Installation Service,28 Lamker Ct,Little Ferry,NJ,07643,201-440-2644
Jacomino Trucking,229 49th St Apt A4,Union City,NJ,07087,N/A
Green Hope Corporation,1403 67th Street Apt#2,North Bergen,NJ,07047,201-522-8057
Gonzalez Transport G T,23 Oak St,Teaneck,NJ,07666,201-424-3165
Len Alvarez Trucking,27 Raleigh Rd,Edison,NJ,08817,732-572-4189
L Westling & Son Trucking,2 Crest Hill Dr,Sussex,NJ,07461,973-670-8591
Big W Trucking Co,259 Summer St,Passaic,NJ,07055,973-595-5922
Hugo Trucking,10 Wilkinson Terr Floor,Kearny,NJ,07032,201-424-0176
Landau Foods,1920 Swarthmore Ave,Lakewood,NJ,08701,847-459-9000
Fazio Trucking,205 E Wyoming Ave,Absecon,NJ,08201,609-677-5795
C T S,593 Tennent Road,Manalapan,NJ,07726,732-513-7496
Manescala Trucking,207 Meadow Rd,Edison,NJ,08817,718-967-6322
Elime Transport,411 Hancock Dr,Mullica Hill,NJ,08062,856-223-5293
Doctor Bird Logistics LLC,128 Reeve Terr,Plainfield,NJ,07062,908-757-9325
3 Fred's Trucking,1453 Rustic Dr Suite 1,Ocean,NJ,07712,732-695-1106
K J Trucking,285 Essex Ave,Thorofare,NJ,08086,609-868-9752
Three Brothers Trucking,1227 W St Georges Ave,Linden,NJ,07036,908-486-6444
Ema Trucking & Transport,3 White Oak Court,Turnersville,NJ,08012,856-218-9099
Adrian Nistor Trucking,735 Columbus Rd,Burlington,NJ,08016,609-387-5256
J T Trucking,7 East Taunton Rd,Atco,NJ,08004,856-719-0969
El Sabalero Trucking,526 1st Ave,Elizabeth,NJ,07206,908-994-1462
Sledd Transport,128 Broadway Rd,Cranbury,NJ,08512,609-655-5899
C And R Moving Services,C-1 Sycamore Ct,Camden,NJ,08103,856-338-8997
G-plus Trucking,140 R Howard Drive,Bergenfield,NJ,07621,201-385-3680
Pdq Trucking,14 Buckley Ave,Oxford,NJ,07863,908-453-4877
Arauz Trucking Co,1410 27th St,North Bergen,NJ,07047,201-866-3649
E & E Trucking,6314 Adams Street House,West New York,NJ,07093,201-854-7522
M T Trucking,500 Piaget Ave,Clifton,NJ,07011,973-223-6326
"P Perez Trucking Co, Inc.",8670 Kennedy Blvd,North Bergen,NJ,07047,201-861-9999
Melchor Trucking,224 Van Nostrand Ave,Jersey City,NJ,07305,201-433-2072
Sam Ecret Jr Trucking,79 Forrest Lane,Carneys Point,NJ,08069,856-299-7841
Am Trucking,1209 43 St,North Bergen,NJ,07047,201-863-6899
Goodday Service,82 Home Ave,Rutherford,NJ,07070,201-531-0865
Bosco Trucking Service & Delivery,318 Bolton Rd,East Windsor,NJ,08520,609-371-2643
Jc's Moving,58 Lavender Drive,Deptford Township,NJ,08080,856-627-8209
Yen Transportation,657 Maple Ave,Elizabeth,NJ,07202,908-353-0916
American Food Service Int,430 North Main St,Woodstown,NJ,08098,856-769-7741
Pavlos Trucking,210 Henry St,Hasbrouck Hts,NJ,07604,N/A
J Ordonez Trucking,10 Waldo Ave,Bloomfield,NJ,07003,973-743-4389
Shelton Express,5701 Blvd East Apt 25b,West New York,NJ,07093,N/A
Ben A Trucking Co,7704 4th Avenue,North Bergen,NJ,07047,201-758-1856
J P Trucking,702 Bergenline Ave #3,Union City,NJ,07087,201-864-5848
Taylor Transport,140 Warren St,Paterson,NJ,07524,N/A
Koki Trucking,125 A Arcadia Rd,Hackensack,NJ,07601,201-519-9995
Tonnelle Truck Center,3701 Tonnelle Ave,North Bergen,NJ,07047,201-864-6090
Jcr Trucking,22o Farmington Rd,Delran,NJ,08075,856-764-7168
Preferred Services,1129 Caldwell Ave,Union City,NJ,07083,973-242-2250
Al Smith Moving,33 Pacific Avenue,Jersey City,NJ,07305,201-433-0606
M C Trucking,24 Kierstead Ave,Nutley,NJ,07110,973-542-1661
J J Jins Trucking Co,7 Tryall Blud,Monroe,NJ,08831,908-227-8401
L C Service,920 Fredon Rd,Newton,NJ,07860,973-383-5414
Guavy Trucking,734n Broadst Apt #21,Elizabeth,NJ,07208,908-355-3020
Millennium Express,609 Woodland Ave,Absecon,NJ,08201,609-484-9733
Chivito Trucking,61 Arlington Ave,Newark,NJ,07104,973-885-5399
White Line Trans,324 Dixon Ave,Paterson,NJ,07501,N/A
Vango,2703 Fire Road,Egg Harbor Township,NJ,08234,800-428-8829
"Route 66 Auto Mall, Inc.",3401 Route 66,Neptune,NJ,07753,732-922-1050
"Gjd Trucking, Inc.",2272 Jfk Blvd,Jersey City,NJ,07304,201-761-0680
H & M Trucking,52 Ginger Dr,Mt Holly,NJ,08060,609-518-2255
Kup Trucking,208 Harrison Ave,Jersey City,NJ,07304,201-873-3665
Sunrise Trucking,630 Union St,Rahway,NJ,07065,732-388-0175
Ktd Trucking,Po Box 32,Lawnside,NJ,08045,856-227-4013
"G & G Multi Serv, Inc.",101 73rd Street Apt 36,North Bergen,NJ,07047,201-421-0630
K & K Trucking,606 Milford Warrenfiten Rd,Milford,NJ,08848,908-995-9111
Henry Jr Trucking Corp,16 Teaneck Road,Ridgefield Park,NJ,07660,201-641-8020
Confer Trucking,21 Broadway,Browns Mills,NJ,08015,609-893-8578
Win Movers,58 Church St,Keansburg,NJ,07734,732-495-9939
Infinity Express,7305 Pacific Ave,Wildwood Crest,NJ,08260,856-374-0222
Teresi Auto And Marine Sales,247 W Shore Ave,Bogota,NJ,07603,201-487-0901
Victor Linton Trucking,47 Neptune Ave,Jersey City,NJ,07305,973-574-8856
Castellano Express,151 Oakwood Ave,Cliffside Park,NJ,07022,N/A
"1st Alpha Trucking Co, Inc.",94 Grand St Apt # 4,Paterson,NJ,07501,201-832-3862
Whitfield Freight,55 Dewey Street,Newark,NJ,07112,973-282-2666
Dieppa's Moving & Trucking,880 East 19th St,Paterson,NJ,07501,973-684-2755
Christian E Zamora,901 Seymour Ave,Linden,NJ,07036,201-214-7818
Bill Pearson Trucking,100 Beattys Rd,Stewartsville,NJ,08886,908-479-4324
Never Stop Trucking,3510 Marlton Pike,Pennsauken,NJ,08110,856-662-8796
Five Star Auto Centers,365 N Midland Ave,Saddle Brook,NJ,07663,201-843-0140
Z E W Trucking,131 Godwin Avenue,Paterson,NJ,07501,973-296-1044
J Espinoza Trucking,25 Halstead St,Kearny,NJ,07032,201-998-9462
Amauta Trucking,266 E 23rd St,Paterson,NJ,07514,973-345-7346
Triple Crown Horse Transport,94 Tanya Circle,Ocean,NJ,07712,732-695-0535
"Marjan Trucking, Inc.",105 Belmont Ave,Garfield,NJ,07026,201-481-4795
North Shore Trucking,17 Griffin St,Monmouth Beach,NJ,07750,732-571-0855
Lampley Commercial Hauling,87 Forrest Hill Road,W Orange,NJ,07052,908-964-8121
N E L Transport Company,29 Wilson Ave,South River,NJ,08882,732-522-6357
"Six Pence Trucking Company, Inc.",43 Sunset Lake Rd,Blairstown,NJ,07825,908-362-8315
Urgiles Trucking,263 Schuyler Ave,Kearny,NJ,07032,201-998-7267
Cpk Trucking,72 Rancocas Rd,Mt Holly,NJ,08060,609-702-8219
Jbm Transport,1005 Crestwood Dr,Williamstown,NJ,08094,856-728-9298
Pluto Logistic Company,58 Windsong Circle,East Brunswick,NJ,08816,609-655-3802
Dgl Trucking,201 Valley View Drive,Mantua,NJ,08051,609-617-5248
Nelpa Transport LLC,231 North 5th Ave,Long Branch,NJ,07740,267-879-1168
D K Trucking,1703 Straford Ave,Neptune,NJ,07753,732-775-2453
Bt Express,75 Highland Street,Paterson,NJ,07524,973-345-1910
I & I Auto Transport,402 Cookstown-jacobsontown Rd,Wrightstown,NJ,08562,609-758-6787
O Bazan G Trucking Co,14 Clover Ct,Carteret,NJ,07008,732-969-1988
Gtm Trucking LLC,177 Howard Blvd,Mt Arlington,NJ,07856,973-770-0645
Abraham Delivery Services,399 Halladay St,Jersey City,NJ,07304,917-662-4643
Dmd Trucking & Construction,3720 Park Ave,S Plainfield,NJ,07080,908-769-0770
Eml Gato Lh Trucking,44 Bergen,Fairview,NJ,07022,201-943-6536
Tyna's Trucking,79 Iozea Terrace,Elmwood Park,NJ,07407,201-796-7292
Eua Trucking,83 Walnut St Apt 61,Toms River,NJ,08753,732-644-6647
As Transportation,71 Ackerman Ave Apt 258,Clifton,NJ,07011,973-931-6625
Avalon Transportation,89 Ridge Rd,N Arlington,NJ,07031,201-997-7368
"Cli International, Inc.",41 Rizzolo Rd,Kearny,NJ,07032,201-991-3361
Moving System,25 Courtland Lane,Bedminster,NJ,07921,732-371-9553
Brattoli Auto Transport,218 Stuyvesant Ave,Lyndhurst,NJ,07071,201-697-0121
Inteco,219 Murray Hill Parkway,East Rutherford,NJ,07073,201-531-0011
Jfm Transport,Pine Tree Blvd Court L Apt 18c,Old Bridge,NJ,08857,732-360-2127
Just Right Trucking,1212 Plainfield Ave,Plainfield,NJ,07060,908-561-5608
J C Transport,23 Dogwood Ln,Pittsgrove,NJ,08318,856-495-0665
Barba Trucking,5105 S Park Dr # S 106,Pennsauken,NJ,08109,856-665-8197
Bolivar's Transport,1900 Montgomery St,Rahway,NJ,07065,732-669-1359
Genesis Trucking,310 Cooper Ave,Woodlynne,NJ,08107,856-236-5699
Dargi & Son Trucking,311 Washington Ave Brook Run,Dover,NJ,07801,973-361-0111
Banipal Transportation,108 Winchester Dr,East Windsor,NJ,08520,609-371-0282
Michael A Johnson & Sons Trucking,Evelyn Ave,Norma,NJ,08347,856-690-9363
Vertigo Trucking,306 73rd St #2,North Bergen,NJ,07047,201-923-2229
"Aa Moving Systems, Inc.",185 E 25th St,Paterson,NJ,07514,N/A
S & S Trucking,15 Circle Dr,Lakehurst,NJ,08759,732-657-4551
Ege Transportation,21 Rowland St,Newark,NJ,07104,N/A
Nana Transport Company,75-09 Park Ave Apt # 1,North Bergen,NJ,07047,N/A
J J Express Co,116 Brill St,Newark,NJ,07105,973-220-6782
Zein Delivery Services LLC,116 Corabell Ave,Lodi,NJ,07644,973-768-7696
Rcm Moving,9 Woodlawn Ave,Newfield,NJ,08344,N/A
Vazquez Transport,55 Marine Terrace,Long Branch,NJ,07740,732-787-9992
Coast Medical Services,200 Tornillo Way #110,Tinton Falls,NJ,07712,732-380-9600
Nazario Trucking Corp,631 Kennedy Blvd,Bayonne,NJ,07002,N/A
Lopez E Trucking Co,1463-43 Rd Street Apt 1,North Bergen,NJ,07047,201-330-0682
Branch Cargo Express,51 W 5th St,Newark,NJ,07102,973-445-7873
Rough Rider Express,415 18th Avenue,Paterson,NJ,07504,973-754-1399
Kay-t Auto Sales & Leasing Co,30 Ridgedale Ave #205b,E Hanover,NJ,07936,973-386-0388
Modern Distributors,219-p Berlin Rd - Ste 239,Cherry Hill,NJ,08034,215-335-9000
Jeke Bros Trucking,373 Main St 1f,Little Ferry,NJ,07643,201-440-8523
Covington Transport,614 7th Ave,Asbury Park,NJ,07712,732-988-9948
Gilbert & Son Express,3 Montclair St,Delran,NJ,08075,856-296-9275
S & Trucking,437 70 St # 2,Guttenberg,NJ,07093,201-821-0507
Express Machinery,669 Market St,Paterson,NJ,07513,973-349-0822
Spike Transit LLC,250 N Fourth St,Manville,NJ,08835,908-429-1401
Trio Trucking,33 Pauline Terr,Lodi,NJ,07644,973-779-0583
Chulipany Trucking,Industrial Ave Rt 287,Edison,NJ,08818,732-738-3244
"Yellow United Freight, Inc.",38-07 Palisade Ave Apt A-3,Union City,NJ,07087,N/A
Kilic Trucking,311 Broad St,Florence,NJ,08518,609-499-8544
Auto Wagon LLC,2402 Ramshorn Dr,Manasquan,NJ,08736,732-539-1791
Sunset Trucking,81 Knickerbocker Ave,Paterson,NJ,07503,973-277-2016
"Domino's R Trucking, Inc.",503 Amboy Ave,Perth Amboy,NJ,08861,732-826-2884
J H Trucking,416 Taylor Lane,Williamstown,NJ,08094,856-629-2749
Wda Trucking,28 Mill St,Mt Holly,NJ,08060,609-332-0420
V S Trucking,2422 6th St,Fort Lee,NJ,07024,N/A
Duenas Trucking,50 Paulison Ave,Ridgefield Park,NJ,07660,201-807-0354
New Road Limo,761 Mountain Ave,Springfield,NJ,07081,973-376-4694
Angel's Trucking,Box 171,Kearny,NJ,07032,201-780-0855
Metro Trucking,2540 Randolph Ave,Avenel,NJ,07001,732-382-7995
Team Transport Company,62-05 Pelisade Ave,West New York,NJ,07093,646-250-6721
Baladi Auto Trucking,25 Madeline Ave,Clifton,NJ,07011,973-445-0399
Beta Trucking,272 Slocum Way,Fort Lee,NJ,07024,201-585-1212
Osorio Trucking,1729 Robert Avenue,Hamilton,NJ,08609,609-743-6924
Husky Hauling,51 Stiles Lane,Pinebrook,NJ,07058,973-882-6663
Michi Trucking,42 Highland Ave,Hazlet,NJ,07730,732-203-0722
Emory Transport,1516 Monroe Ave Apt 17b,Neptune,NJ,07753,732-213-6159
Arias Trucking Co,265 Third St,Jersey City,NJ,07302,201-325-0486
Robin Mack Trucking,211 Summer Ave,Newark,NJ,07104,201-207-1440
G's Trucking Service,Po Box 2433,Clifton,NJ,07011,973-534-5702
Samsun Trucking,608 Abby Rd,Carteret,NJ,07008,732-233-0178
Richie Rich Moving Company,6011 Hoover Drive #1a,Mays Landing,NJ,08330,609-625-2853
A & E Trucking,808 Chancellor St,Elizabeth,NJ,07202,908-553-1186
"L D Trucking, Inc.",455 Somerset Street,No Plainfield,NJ,07060,908-447-6765
Cruz Transportation Co,81 Clifton Terrace,Weehawken,NJ,07086,347-683-3450
Mora Trucking,685 Bruce St Apt A,Ridgefield,NJ,07657,201-313-9840
Redeemed Enterprise LLC,9 Birdseye Lane,Willingboro,NJ,08046,609-540-1425
Stewart Transportation Co,779 Summer Ave,Newark,NJ,07104,973-481-2719
M B Trucking Co,102 Tichenor Street,Newark,NJ,07105,973-344-2453
"Graycon Diron Bound Express, Inc.",65 Jabez St,Newark,NJ,07105,973-491-5151
T Patterson Trucking,27 18th Ave,Paterson,NJ,07513,973-345-1487
Francesco Transport LLC,30 Echo Pl,Elmwood Park,NJ,07407,201-475-2931
Century 22 Transport,117 Corbin Ave #302,Jersey City,NJ,07306,201-451-9287
Merolle Brothers Trucking,11 Ludlow St,Wharton,NJ,07885,973-713-8349
A & M Trucking,96 Ford Rd Unit # 8,Denville,NJ,07834,908-797-6894
Dodimead Trucking,737 Calhoun Avenue,Mays Landing,NJ,08330,609-625-0433
Blt Trucking Of Nj,323 19th St,Union City,NJ,07087,201-206-3796
Guirguis & Sons Transport,144 Sixth Street,Ridgefield Park,NJ,07660,201-320-8695
Rsr Foodservice Equipment,6574 Delilah Road,Pleasantville,NJ,08234,609-646-5158
Rule P Trucking,59 5th St,Highlands,NJ,07732,732-872-7293
Chelita Transport Corp,427 Hamilton St,Harrison,NJ,07029,973-296-1017
C B S Express,391 2nd Street,Hackensack,NJ,07601,201-489-4983
Ezey Logistics,912 Florida Grove Rd,Keasbey,NJ,08832,732-207-8777
Carrera Transport LLC,98 Viola Ave,Clifton,NJ,07011,973-272-2797
Valdez Trucking,83 Myrtle St,Bloomfield,NJ,07003,973-429-0847
N D Service,21 Fawn Dr,Montville,NJ,07045,973-794-4404
Regal Relocation Services,44 Woodland Street,Tenafly,NJ,07670,201-567-3900
Shamrock Express Enterprises,152 Vreeland Ave,Clifton,NJ,07011,973-340-1821
R1 Trucking Company,621 Adams Ave,Elizabeth,NJ,07201,908-558-3492
Green Tea Trucking,71 Winding Wood Dr Apt 7a,Sayreville,NJ,08872,732-208-3060
Nunez & T Trucking Co,640 Forest St Apt 1,Orange,NJ,07050,973-672-4134
Galbreath Trucking,20 Trebing Lane,Willingboro,NJ,08046,609-877-3179
Chris Andrew Transport,637a Second St,Bridewater,NJ,08807,908-722-6697
S & R Trucking,2 Framingham Road,Edgewater,NJ,08010,609-835-7267
Motorway Transport,36 Seward Ave,Piscataway,NJ,08854,908-812-4881
Glo Trucking Corp,421 Parker 2nd Floor,Newark,NJ,07104,973-483-8123
Wps LLC,40 North Enterprise Ave,Trenton,NJ,08638,609-695-8800
Gm Delivery,56 Carey St,Lakewood,NJ,08701,732-620-2866
World Wide Auto,2077 Rt 1 North,Rahway,NJ,07065,732-381-2344
Vann Trucking Co,58 School St,Piscataway,NJ,08854,732-371-9910
Brooks Trucking,6035 Hoover Dr,Mays Landing,NJ,08330,609-909-0293
Asap Transport Co,57 Primrose Ln,Sicklerville,NJ,08081,856-577-7487
B & F Transport Ltd,195 Illinois Ave,Paterson,NJ,07503,973-345-5289
K & C Trucking,25 Grove St,Little Ferry,NJ,07643,N/A
Caputo Express,543 78th St,North Bergen,NJ,07047,201-583-0544
D C S Trucking Co,521 Harrison Ave,Harrison,NJ,07029,N/A
C & S Express LLC,455 Ridge Rd,Lyndhurst,NJ,07071,201-222-0107
Molina Trucking Co,431 Walnut Street 2nd Fl,Newark,NJ,07105,917-501-2639
Capricorn Trucking,156 Lewis St,Paterson,NJ,07501,973-345-1444
"Hds Trucking, Inc.",202 Lexington Ave,Jersey City,NJ,07304,N/A
Xena Trucking,423 Catherine St,Elizabeth,NJ,07201,201-288-6817
Little Hills Transportation,537 Washington Ave,Roselle,NJ,07203,908-620-3949
Hercules Trucking,75 Stockton St,Newark,NJ,07105,908-355-3772
Rc Express,619 Mercer St,East Windsor,NJ,08520,609-448-0630
Aamco Transmissions,1105 Route 23 South,Wayne,NJ,07470,973-628-0677
Kb & B Gararra Trucking Co,115 Terrace Ave,Jersey City,NJ,07307,201-795-4989
Miller Trucking,670 Monmouth Rd,Wrightstown,NJ,08562,609-723-3053
Wholesale Auto Group Of Nj,2345 Hwy 9 #14,Toms River,NJ,08755,347-245-5655
R G Transport,1500 Corporate Blv,Newburgh,NJ,07047,888-811-9186
Freeway Auto Transport,44 Danella Way,Howell,NJ,07731,732-919-7244
Newman & Shahid Trucking,126 So Munn Ave,East Orange,NJ,07018,973-675-0925
Auto Sheen,1012 S Black Horse Pike,Blackwood,NJ,08012,856-227-7772
"Ad & Jr Delivery Services, Inc.",708 13th St,Union City,NJ,07087,201-223-0718
"J Jam Express, Inc.",239 North 11th St,Kenilworth,NJ,07033,908-296-8429
Holguin Trucking,815 Bergenline Ave 163 St,Union City,NJ,07087,N/A
Kbb Gamarra Trucking,115 Terrace Ave,Jersey City,NJ,07307,201-795-4989
A & D Distributors,301 Paxton Street,Paterson,NJ,07503,973-687-5600
R-d-j Transport,461 Melrose Avenue,Cherry Hill,NJ,08102,856-672-9042
Triple E Express,54 A Baird Ave,Paulsboro,NJ,08066,856-423-6699
Rtts,231 Inslee Pl,Elizabeth,NJ,07206,908-354-8340
I & M Transport,331 Preston Ave Apt 908,Voorhees,NJ,08043,609-352-5565
G R Trucking,12 South Maple Ave,New Gretna,NJ,08224,609-296-7787
Metro Transportation,262 Waterside Dr,Little Ferry,NJ,07643,201-394-2040
Ufer Trucking,107 Tappan Street,Kearny,NJ,07032,201-832-5420
K Trucking,63 E 7th St,Clifton,NJ,07011,201-954-1744
Usta Trucking,95 Cedar Lane A23,Florence,NJ,08518,N/A
Avery Paul King Trucking,1637 Essex St,Rahway,NJ,07065,732-566-6441
Simon Says Movers,506 S Second Ave,Galloway,NJ,08205,609-404-4847
Oblites Trucking,45 Fitch St,Carteret,NJ,07008,732-969-9656
R D M Express,6849 Harding Hwy,Mays Landing,NJ,08330,609-476-3531
Leo's Transport,30- 63rd St Apt 1r,West New York,NJ,07093,201-854-4782
D&l Trucking Co,117 Sewell Rd,Sewell,NJ,08080,856-582-6089
U W Trucking Co,575 59th St Apt 3a,W New York,NJ,07093,N/A
Sky Days Transport,400 Duncan Avenue,Jersey City,NJ,07306,201-395-0900
Tms Freight,1970 William St,Union,NJ,07083,908-591-0200
Goobal Express LLC,126 Algonquin Trail,Medford Lakes,NJ,08055,609-714-8383
Rtg Trucking,21 Colfax Rd,Edison,NJ,08817,732-248-0893
Ens Transport,1010 East 23rd St Apt #5,Paterson,NJ,07513,973-345-7675
Jr Trucking,107 Laureba Ave,Stratford,NJ,08084,N/A
A-1 Industrial Scrap,278 Secaucus Rd,Secaucus,NJ,07094,201-864-0998
Marcos Trucking,1201 73rd St,North Bergen,NJ,07047,201-617-9245
Cgm Trucking,746 14th Ave,Paterson,NJ,07504,973-405-7783
Rkr Trucking,13 Cedar Grove Pl,Old Bridge,NJ,08857,732-904-6032
"Azl Trucking, Inc.",30 Pine Brook Rd,Lincoln Park,NJ,07035,973-686-3767
Poly Trucking,711 Clifton Ave 2nd Fl,Newark,NJ,07104,973-412-9354
Lanza Trucking,478 Rahway Ave,Woodbridge,NJ,07095,732-636-8805
G D S,153 Edward Dr,Swedesboro,NJ,08085,856-628-4601
Sij Trucking,29 Oak Ave,Tuckerton,NJ,08087,609-568-5264
State,71 Irvington Street,Westwood,NJ,07675,N/A
Rgs Transport,602 Union Landing Rd,Cinnaminson,NJ,08077,856-303-4130
"Nn&j Trucking, Inc.",912 Jersey Av 2 Fl,Elizabeth,NJ,07202,N/A
A Polo & Trucking,53-55 Martin St ,Patterson,NJ,07501,212-740-0940
Bobby Trucking Company,265 Broadway St Suite 2,Jersey City,NJ,07306,917-478-1919
Keith & Sons Trucking,80 2nd Ave Apt 202,Newark,NJ,07104,973-395-0562
Double J Enterprise,126 Chingarora Ave,Keyport,NJ,07735,732-264-7526
Platinum Transportation,14 Franklin Drive,Somers Point,NJ,08244,609-517-6880
Brown Hauling,54 Rosemont Ave,Lambertville,NJ,08530,609-397-2033
S T Moving,15 Jones Pl,Edison,NJ,08817,732-572-7585
Winston Transportation,29 Schuyler Dr,Edison,NJ,08817,N/A
Rivero Trucking,111 39 St,Union City,NJ,07087,201-865-1510
William Torres Trucking,813 15 St Apt #2,Union City,NJ,07087,201-867-8113
M & L Trucking,517 Richard Dr,Millville,NJ,08332,856-466-0679
Motor Carrier,10 N Washington Ave,Bergenfield,NJ,07621,201-385-6502
Koenig Oil Co,One Union Street,Robbinsville,NJ,08691,609-208-2002
Ecmf,71 Irvington Street,Westwood,NJ,07675,201-594-0555
Lenco Transportation Co,J Court 14a,Old Bridge,NJ,08857,732-688-0120
Kasco,22 1/2 East Washington Ave,Washington,NJ,07882,908-689-9337
Joseph C Digrado Trucking,912 Ross St,Rahway,NJ,07065,908-355-2606
Soto Transportation,38 Napolen St ,Newark,NJ,07105,973-466-2955
Faithful Movers Delivery Service,210 A Center St,Landing,NJ,07850,973-448-0058
B & G Trucking,8 Bright,Jersey City,NJ,07302,800-472-3775
Odilio Transport Co,289 Mc Cle Lan St,Perth Amboy,NJ,08861,N/A
"Rica Trucking, Inc.",6 3rd Ave Fl3,Paterson,NJ,07524,973-523-9015
Frank A Pangallo Trucking,545 Cable Ave,Beachwood,NJ,08722,732-557-9525
Ok Auto Sales & Transport,41 Haddon Ave,Berlin,NJ,08091,856-753-7113
Moves R Us,1100 83 St,North Bergen,NJ,07047,201-854-0410
E & M Transport,39 Alley Rd,Lawnside,NJ,08045,N/A
J & J Trucking,140 Sylvan Ave,Englwood Cliffs,NJ,07632,775-742-6029
"Knuckles Trucking, Inc.",3260 Ridgeway Rd,Lakehurst,NJ,08733,732-657-0504
Wty Trucking,17 Wilkins Ave,Browns Mills,NJ,08015,609-893-1048
"Klitos Transport, Inc.",315 56th St Apt 6f,West New York,NJ,07093,N/A
Ysauro Vergara Transport Co,82 3 22nd St,Union City,NJ,07087,N/A
Les Trucking,93 N 22nd St,East Orange,NJ,07019,973-678-2766
Vazquez Transport,439 Neville St,Perth Amboy,NJ,08861,732-697-0152
Sun Line Trucking,700 Blvd East Apt Ad,Weehawken,NJ,07086,201-770-0684
"Almonte Express, Inc.",62 Rutherford Pl,N Arlington,NJ,07031,201-966-9081
Bud Enterprises,465 Mundet Place,Hillside,NJ,07205,908-282-1298
Cti,204 Eagle Rock Ave,Roseland,NJ,07068,330-309-3415
Manflow Transport Co,27 Polk Street Grownd Fl ,Newark,NJ,07105,N/A
Mr Briggs Trucking,217 A Pearce Ave,Point Pleasant,NJ,08742,732-714-0135
Maragoto Trucking,7 Paley Place,Edison,NJ,08817,732-572-3464
Del Monaco Foods LLC,248 Green Street,South Hackensack,NJ,07606,201-498-0666
Jelara Trucking,127 Bell Avenue,Hopatcong,NJ,07843,973-398-8127
Oflu Trucking,340 W 2nd St,Florence,NJ,08518,609-499-0850
"Hardy Trucking, Inc.",54 Hadley Lane,Willingboro,NJ,08046,609-835-4015
M B Trucking,31 Henry St,Jersey City,NJ,07306,N/A
Keyworks Transport,13 Salter Drive,Montville,NJ,07045,973-334-6454
Kulesa Trucking,1827 Washington Ave,Ortley Beach,NJ,08751,732-830-8766
Jennings Trucking,51 First Street,Hackensack,NJ,07601,201-342-6682
Lja Transport,35 Kinnaman Avenue,Washington,NJ,07882,908-689-5111
Atlantic Waste Services,28 North Drive,Rochelle Park,NJ,07662,201-206-3118
New Face Distributors,223 Verona Ave,Newark,NJ,07104,877-204-4127
Double R Trucking,610 East Mulberry Street,Millville,NJ,08332,856-327-3379
"South Jersey Auto Lines, Inc.",268 Landis Ave,Bridgeton,NJ,08302,856-451-1277
J A Transport,514 Sayre Ave,Perth Amboy,NJ,08861,N/A
Amp Trucking,8 Farmerville Road,Califon,NJ,07830,908-832-1028
Marizan Transport Co,716 Ocean Ave Apt 2,Jersey City,NJ,07305,917-676-8772
Tri State Trucking,24 Storm Ave,Jersey City,NJ,07306,973-417-3321
Dave Morris,75 Diamond Lane,Old Bridge,NJ,08857,908-623-7262
Jr's Express Trucking LLC,29 Mirror Pl,Oak Ridge,NJ,07438,973-697-5133
C Sanjurjo & Son Transport LLC,90 Corey St,Fords,NJ,08863,732-738-8434
Atlantic Coast Pro Auto Recycler,3037 Ocean Heights Ave,Egg Harbor Twp,NJ,08234,609-927-7337
Montex Delvery Service,11 Kent Ave,Wayne,NJ,07470,973-628-7449
Fleetwood Food Service Corporation,71 Bloomfield Ave,Newark,NJ,07104,973-482-5070
Dockside Transportation,627 Anderson Ave,Wood Ridge,NJ,07075,201-481-6280
Cochran Transport,82 Partridge Lane,Cherry Hill,NJ,08003,N/A
J Mclane Trucking,511 Forence Avenue,Union Beach,NJ,07735,732-335-4095
Gonzalez Trucking Services LLC,245 Paterson Plank Road East,Carstadt,NJ,07072,201-522-6754
Luttman Trucking,9 Valley Forge Drive,East Brunswick,NJ,08816,732-257-0476
Eagle Transportation,320 Fairmount Ave Apt 505,Jersey City,NJ,07304,N/A
Central Housewares,237 Frelinghuysen Ave,Newark,NJ,07114,201-643-1100
"Lgt Logistics, Inc.",7430 Kennedy Blvd Ste 310,North Bergen,NJ,07047,610-789-9200
Kaiser Trucking,3rd & Cedar,Elwood,NJ,08217,609-567-3493
B & D Transport,620 Jefferson Ave,Woodbine,NJ,08270,609-861-3611
Miranda Trucking,P O Box 5313,North Bergen,NJ,07047,N/A
Sabi Zammari Express,7005 Park Ave,Guttlenberg,NJ,07093,N/A
Earl's Moving & Storage,40 E Park St,East Orange,NJ,07017,201-371-9479
Top Line Limosine Service,620 Rancocas Avenue,Riverside,NJ,08075,609-786-8336
The Good Friends Transit Corporation,413 7th Street,Fairview,NJ,07022,N/A
Miller Freight Service,825 Brook Road,Lakewood,NJ,08701,N/A
Steve's Trucking,2704 Second Ave,Toms River,NJ,08753,908-288-0229
Street Car Transit,35 Farragut Road Apt 27a,Plainfield,NJ,07062,908-769-7417
E M Laubach Trucking,3120 Belvidere Road,Phillipsburg,NJ,08865,908-475-3128
Ecb,1419 Weeping Willow Ct,Toms River,NJ,08753,908-288-9484
J P P Deliveries,541 Sollas Court,Lyndhurst,NJ,07071,201-939-0420
Kimsey Mitchell Trucking Co,41 East Forest Avenue,Englewood,NJ,07631,973-616-1245
Baker Trucking,32 White Birch Trails,Stockholm,NJ,07460,201-697-1836
Sherby & Sons Trucking,260 Perry Road,Petersburg,NJ,08270,609-628-2970
Macys Courier Service,1258 South River Road,Cranbury,NJ,08512,N/A
Cengiz's Trucking,40 E Cuttlers Ln,East Brunswick,NJ,08816,201-451-7508
Jbu Auto Tow,183 Davis Rd,Frankin,NJ,07416,201-827-4690
Gutowski Trucking,1903 Edgewood Ave,Millville,NJ,08332,609-825-9412
G & B Transport,6 Byron Rd,North Brunswick,NJ,08902,908-940-9614
B & S Rv Transport,778 Academy Rd ,Cape May,NJ,08204,609-463-9384
Mascarelli Auto Transport,65 Camille Lane,Freehold,NJ,07728,908-780-7766
P S Express,1161a Valley Rd,Wayne,NJ,07470,201-872-0804
Good Stuff Cheap,626 Ocean Road,Point Pleasant,NJ,08742,908-899-0300
G&d Transport Co,52 Green Pond Road,Rockaway,NJ,07866,908-354-6362
Fetherstons Trucking,97 Compton Street,Belford,NJ,07718,908-787-3302
Sylvester's Trucking,Rd #5 Post Rd,Vineland,NJ,08360,609-691-3743
Ots Nj LLC,640 Herman Road Suite 4,Jackson,NJ,08527,732-833-0600
S & D Trucking,34 Main St,Succasunna,NJ,07876,201-927-4996
J C Transport,Rd 1 Box 122,Monroeville,NJ,08343,609-853-5021
"Safeway Express, Inc.",836 Harned St,Perth Amboy,NJ,08861,N/A
Gla Transportation Co,2351 Rte 50 Box 373,Tuckahoe,NJ,08250,609-628-2877
Tsd Transport,190 Pompton Plains Crossroads,Wayne,NJ,07470,973-835-9434
Mario Pires Trucking,879 State Street,Perth Amboy,NJ,08861,N/A
Csepi Express,76 Highland Avenue,Somerset,NJ,08873,908-247-5711
Allison Transportation Company,23 Oakmont Court,Westville,NJ,08093,609-384-8517
"Cape Coast Transportation, Inc.",12 Grouse Dr,Bayville,NJ,08721,N/A
Austin Transport,381 Jelliff Avenue,Newark,NJ,07108,201-824-8264
William Roach Trucking,21 Brooklyn Mt Road,Hopatcong,NJ,07843,201-770-3360
Gravel Hole Leasing,300 Quinton Marlboro Rd,Salem,NJ,08079,856-935-6586
Macabee Moving & Storage,250 S Main St,Wood Ridge,NJ,07075,N/A
J & A Dos Rios Ltd,971 Stuyvesant Avenue,Union,NJ,07083,908-686-9030
La Transport,12 Summit Drive,Branchville,NJ,07826,201-948-4346
S Cherkes Trucking,1400 Hollinshed Ave,Pennsauken,NJ,08110,609-665-6654
Yanavok Trucking,101 Richard Mine Road,Dover,NJ,07801,201-328-1809
"Bendel Express, Inc.",280 South Harrison St Ste 304,East Orange,NJ,07018,201-678-1224
Nelson Express,2 Healy Terr,Kearny,NJ,07032,201-647-6287
P Z Messenger & Trucking,931 Orchard Terrace,Linden,NJ,07036,908-925-1621
Localio Trucking,1634 Cornell Avenue,Trenton,NJ,08619,609-586-9267
Thornton Motor Freight,610 Sewall Ave,Asbury Park,NJ,07712,932-775-7288
L M T,1610 75th Street,Northbergen,NJ,07047,201-295-1001
Repici Transporting,1516 Columbus Road,Burlington,NJ,08016,N/A
Krenzer Trucking,2248 Newark Avenue,Scotch Plains,NJ,07090,908-232-4648
Spadaccini Trucking,9 Waterfall Court,Bloomingdale,NJ,07403,201-492-8003
Cal-tyme Transportation Trucking Co,621 Jackson Ave,Linden,NJ,07036,908-486-7283
James Rutherford,16 Autumn Lane,Trenton,NJ,08638,609-883-0506
T F Barry Oil Service,260 Snyder Avenue,Berkeley,NJ,07922,908-464-1333
Paul Cree Moving,103 East Spring Valley Ave,Maywood,NJ,07607,201-712-9760
Lincoln Freight,600 N Union Ave Box 57,Hillside,NJ,07205,N/A
"John Traino Trucking, Inc.",1095 Edgewater Ave,Ridgefield,NJ,07657,201-941-2400
John M Trucking,39 Leonard Street,Dover,NJ,08901,201-361-0415
L Manning Trucking,555 Mount Prospect Ave,Newark,NJ,07104,201-482-9339
Medical Transportation,P O Box 738,Howell,NJ,07731,N/A
R J Transport,1449 Rt 72,Barnegat,NJ,08005,060-969-8443
Hazelton Trucking,57 Garrison Road,Elmer,NJ,08318,N/A
Jake Davis Moving And Delivery Service,365 Gouldtown Woodroff Rd,Bridgeton,NJ,08302,856-451-8892
Belqui Molinari Trucking,249 Pasadena Ave,Lodi,NJ,07644,201-472-3370
Linda Express,201 1/2 York St,Jersey City,NJ,07302,201-451-5870
P S Trucking,431 Vander Veer Road,Raritan,NJ,08869,908-526-7360
"A Vizzi, Inc.",653 Sayre Ave,Perth Amboy,NJ,08861,908-826-9250
M & R Trucking,753 Oak Ave,Malaga,NJ,08328,856-694-4179
Taylor Trucking,86 River Road,Wayne,NJ,07470,201-696-9277
R A Gilmore Trucking,166 Village Dr,Barnegat,NJ,08005,N/A
John A Urso Trucking,110 6th Street,Barnegat,NJ,08005,N/A
Joseph D Giovannelli Trucking,25 Sampson Street,Bloomfield,NJ,07003,N/A
Girdwood Express Trucking,517 Dorothy Place,Brick,NJ,08723,732-558-0947
Truck Power Enterprises,21 Hunter St,Succasunna,NJ,07876,201-927-3410
Tltinc,Rt 1 206,Sparta,NJ,07871,973-801-4768
The Freight Station LLC,2401 Morris Ave 2nd F1 West,Union,NJ,07083,908-206-1067
Walker Trucking,38 Marigold Lane,Leh,NJ,08087,609-294-0257
Ballaswilliama,106 Marshall Ave Apt 8,Little Ferry,NJ,07643,201-601-6288
C & R Delivery,38 Lupus Lane,Sewell,NJ,08080,856-256-1123
Cotten's Bus Service,125 Webster St,Irvington,NJ,07111,973-374-5597
Tee Jay Trucking Co,152 Court Street,Elizabeth,NJ,07206,908-351-1456
Childs Hauling,675 Burke Rd,Jackson,NJ,08527,908-928-5020
I E M Furniture,450 Murray Hill Parkway,East Ruthiford,NJ,07073,201-507-8288
"E L P Trucking, Inc.",66 Wheeler Ave,Carteret,NJ,07008,908-541-5972
Dennis R Sharp Trucking,51 Lindale Avenue,Williamstown,NJ,08094,856-728-2150
Tinton Falls Rapid Transit,2830 W Bangs Ave,Neptune,NJ,07753,908-918-9456
F & M Trucking Services,52 E Pampano Drive,Bricktown,NJ,08723,908-477-9503
Subeh Express,6011 Washington St,West New York,NJ,07093,N/A
"Roller Transit, Inc.",123 Central Ave,Blue Anchor,NJ,08037,609-567-0971
Deer Heart Transportation,950 Coolidge Ave,Whiting,NJ,08759,908-350-6796
Jordan Trucking,239 E Crestview Avenue,Absecon,NJ,08201,609-748-1229
"Rbi Moving, Inc.",114-77th Street,North Bergen,NJ,07047,201-662-8877
G F Trucking,158 Oak Lane,Hightstown,NJ,08520,609-448-4999
Truck Rail Transport,196 Maracaibo St,Newark,NJ,07114,973-589-5580
Wm Daniel Trucking & Excavating,72 Clover Hill Road,Flemington,NJ,08822,908-782-7716
S & H Trucking,36 Reler Ln Apt F,Somerset,NJ,08873,908-422-6618
Ems Trucking,64 Pikeview Lane,Woodbridge,NJ,07095,908-855-8861
Crew Transportation,6 Union Road,Sussex,NJ,07461,973-702-1343
Whalons Furniture & Design,651 Mill Road,Absecon,NJ,08201,609-272-7540
Nationwide Transfer,P O Box 646,Wayne,NJ,07474,N/A
B L Trucking,8 Sussex Dr,West Milford,NJ,07480,973-728-8092
Highlites Trucking,11 Lower Oak Grove Rd,Frenchtown,NJ,08825,908-996-0678
Ashman's Auto,247 R West Washington Avenue,Washington,NJ,07882,908-966-0128
Busy-b's Delivery Service,R/12 White Swan Community,Paulsboro,NJ,08066,609-224-1207
Rush Delivery,521 E Main St,Maple Shade,NJ,08052,609-667-3193
Excalibur Express,6112 Broadway Avenue #2,West New York,NJ,07093,N/A
A And D Trucking,43 E 36th St,Paterson,NJ,07514,201-684-3657
R- Trucking,930 Sicklerville Rd,Sicklerville,NJ,08081,609-629-3315
Iq Express Courier,108 Columbia Ave,Stratford,NJ,08084,609-783-5621
Rd Trucking,96 Browertown Rd,Little Falls,NJ,07424,201-785-8130
Transport Network,513 West Mount Pleasant Ave,Livingston,NJ,07039,800-784-7874
Jerusalem Transportation,3610 Fox Run Drive,Plainsboro,NJ,08536,N/A
D C Transport Co,720 W Third Ave,Runnemede,NJ,08078,609-931-1252
Tj's Trucking,346 Merritt Ave,Bergenfield,NJ,07621,201-439-1738
Tuff-enuff-trucking,920 Palisade Avenue Apt 13,Union City,NJ,07087,201-974-2948
Interstate Ruiz Trucking,1231 North 32 Street,Camden,NJ,08105,609-541-9436
Four Star Trucking,611 Polinia Way,Mystic Island,NJ,08087,609-296-5459
D P Express,22 Scott Court - A4,Ridgefield Park,NJ,07660,201-641-9034
K C Trucking,202 Capricorn Drive #1,Somerville,NJ,08876,908-874-6517
Reliant Transport,Route 521,Hope,NJ,07844,908-459-4186
Tedmar Trucking,133 Kossuth Street,Newark,NJ,07105,973-522-1003
Mountain View Trucking,41 Moonachie Road,Moonachie,NJ,07074,201-329-9808
Active Tank & Envirionment,110 Riverside Avenue,Newark,NJ,07104,201-482-4600
James J Cilano Disposal Service,19 Ise Street,South Hackensack,NJ,07606,201-342-9836
Walker Transport,4 Derringer Drive,Howell,NJ,07731,631-789-0857
"S&h Transportation, Inc.",Po Box 2009,W New York,NJ,07093,N/A
Total Car Care Transport,401 Fernwood Dr,Forked River,NJ,08731,609-971-5724
Lai Car Carriers,10 Michael Court,Dover,NJ,07801,201-366-0772
H Davis Trucking,Blair Road,Hamburg,NJ,07419,201-827-4012
Deworth Trucking,23 Hillside Avenue,Barnegat,NJ,08005,609-698-2184
Pj Hergenrother Trucking,930 West Blvd,Alpha,NJ,08865,908-859-3343
Wagons East Express,607 Yorkshire Court,Sewell,NJ,08080,609-228-4476
Rtl Transport,9-10 Saddle River Road,Fair Lawn,NJ,07410,973-741-1700
Nicholas R Kameno,180 Fort De France Ave,Toms River,NJ,08757,732-281-8896
Mhtrucking,54 Cedar Grove Road,Little Falls,NJ,07424,201-785-1332
S & M Trucking,401-75th Street Apt B-2,North Bergen,NJ,07047,201-453-1684
John Heyward Tkg,157 Mali Drive,North Plainfield,NJ,07062,908-755-9410
Williams Trucking,319 Bridgeton Pike,Mullica Hills,NJ,08062,856-223-0552
Whartonmr Mover LLC,29 Hartz Drive,Bridgeton,NJ,08302,856-453-9611
F & T Trucking,162 Upper Neck Rd,Pittsgrove,NJ,08318,609-358-7561
Garden State Express,121 Jersey Avenue,New Brunswick,NJ,08901,908-249-8686
Triple Deuce Trucking,7 Mccay Drive,Roebling,NJ,08554,609-499-1728
D & D Trucking Co,1203 Turner Ave,Ocean,NJ,07712,732-361-6899
"Coke Brothers Trucking, Inc.",487 E 24th Street,Paterson,NJ,07514,201-278-3780
Moon Transit,225 Morris St #8,Fairview,NJ,07022,201-943-1478
Overland Marine Transport,9 Windward Rd,North Beach,NJ,08008,609-494-7200
Trc Transportation,1092 St George Ave #181,Rahway,NJ,07065,973-226-5301
Cbh Trucking,198 Kitchell Lake Drive,West Milford,NJ,07480,201-728-8663
Quality Express Trucking,3434 Jefferson Ave,Toms River,NJ,08514,888-677-7701
S M D Trucking,Route 539,New Egypt,NJ,08533,609-758-8100
Coyle-two Bro,244 Knoll Drive,Park Ridge,NJ,07656,201-391-7274
R J Szwak Trucking,420 Summit Ave,Westville,NJ,08093,609-456-3102
Just A Mele Farms Trucking,125 Franklin Ave,Wyckoff,NJ,07481,201-891-6993
Gfk Messenger Service,417 North Riverside Drive,Neptune,NJ,07753,908-988-2750
Ground Air Transport,67 Rita Lane,Jackson,NJ,08527,N/A
Matthews Limo Service,5058 White Horse Pike,Egg Harbor,NJ,08215,609-965-6323
B & B Transport,17 Decou Rd,Oine Hill,NJ,08021,609-435-3448
"Zamel Transportation, Inc.",88 Riveredge Road,Lincoln Park,NJ,07035,N/A
J Adamo Trucking,69 Strickland Rd,Freehold,NJ,07728,732-431-1179
Show Time Trucking & Moving,239 Boulevard,Elmwood Park,NJ,07407,973-219-6309
Associated Relocating Service Co,254 Maple Road,West Milford,NJ,07480,201-208-8690
Smokey Maountain Express,33 East Midland Ave,Paramus,NJ,07653,N/A
Joseph Trucking,56 Brook Avenue,Plainfield,NJ,07060,908-668-0249
M & R Transport,Route 83,South Dennis,NJ,08245,609-628-3082
Diamond Tire Service,1062 Magnolia Ave,Elizabeth,NJ,07201,908-351-7900
Interstate Olympic Van Lines,240 Moonachie Avenue # F,Moonachie,NJ,07074,201-229-0007
D & M Transportaion Company,537 Hillside Avenue,Palisades Park,NJ,07650,201-461-2857
Third Rail Transport,6309 D Long Beach Blvd,Harvey Cedars,NJ,08008,914-921-3241
K I C O Transport,171 San Nicholas Street,Englewood,NJ,07631,305-378-1018
M J E Trucking Corp,616 17th Street,Union City,NJ,07087,201-963-0421
Cape May Point Trucking Company,637 Seagrove Avenue,Cape May,NJ,08204,609-886-1280
A C G Transport,275 Willow Way,Mt Laurel,NJ,08054,609-778-7247
Pike Motors Auto Parts,88-92 Montgomery Street,Paterson,NJ,07501,201-345-7184
M & D Trucking,381 Meredith St,Perth Amboy,NJ,08661,609-655-3804
Curtis Trucking,146 Fulton Ave,Jersey City,NJ,07305,201-413-1558
Lewin Trucking,Box 442,Boonton,NJ,07005,201-402-1324
Css Trucking,714 Paulison Ave,Clifton,NJ,07011,201-779-3144
E & C Trucking,146 E 32nd St Apt 3,Paterson,NJ,07514,201-279-1039
Jersey Shore Courier Service,501 Prospect Street Unit 96,Lakewood,NJ,08701,732-747-0644
Gil's Trucking,618 Ridge Street,Newark,NJ,07104,201-483-6638
Dimodica Trucking,45 Mohawk Ave,Clementon,NJ,08021,201-308-9800
Actionemco,5601 Westside Avenue,North Bergen,NJ,07047,201-295-9200
D & T Delivery Service,1501 Little Gloucester Rd W 19,Blackwood,NJ,08012,609-440-7331
Wharton's Mr Mover,29 Hartz Drive,Bridgeton,NJ,08302,609-453-9611
T D C Transport,38 Highview Terrace,Dover,NJ,07801,201-361-1874
R & G Trucking,130 East Henry Street,Linden,NJ,07036,908-925-2459
W & D Express,1494 N Main Road North Apt,Vineland,NJ,08360,609-696-8912
Kcc Transport Systems,1200 Fuller Road Area D,Linden,NJ,07036,908-486-2727
"B & M Trucking, Inc.",Route 46 West,Belvidere,NJ,07823,908-475-8122
Mcarthur Fuel,64 Dawn Drive,Clark,NJ,07066,908-382-4553
Guerras Trucking,416 Washington Ave,Elizabeth,NJ,07202,908-289-0181
Lockheed Martin,2339 Route 70 West,Cherry Hill,NJ,08002,856-486-5174
Lightning Truck Repair,116 Moonachie Ave,Moonachie,NJ,07074,201-438-8015
Mejias Trucking,17 8th Ave,Newark,NJ,07104,201-484-1307
First Transport Group,225 Market St - Suite #53,Paterson,NJ,07505,973-746-7405
Excellent Delivery Systems - Eds,242 Church Rd,Medford,NJ,08055,609-654-5139
G & H Transport,457 Rt 547,Howell,NJ,07731,732-938-4953
M & P Trucking,78 Elizabeth Ave,Elmwood Park,NJ,07407,201-703-6977
W L Solomon Trucking Co,132 Pomona Ave,Newark,NJ,07112,908-397-3035
Lisewski Trucking,11 Annex Pl,Bergenfield,NJ,07621,201-385-2559
"Profile Transport, Inc.",192 Oak St,Bridgewater,NJ,08807,908-303-2247
Royal Jordanian Express,9201 Kennedy Blvd,North Bergen,NJ,07047,201-868-2239
Bakers Trucking,997 E 25 St,Paterson,NJ,07513,973-279-6053
Divine Trucking Co,111 Durham Ave,Metuchen,NJ,08840,908-906-3183
R & D Transport Company,685 Rt 12,Flemington,NJ,08822,908-237-4534
Express Way Transport,47 New Street,Dover,NJ,07801,973-978-9551
Moving U S A,30-48th St Suite #4,Weehawken,NJ,07087,201-863-7156
Whitfield Trucking,682 W 7th St Apt 1a,Plainfield,NJ,07060,908-444-8051
Jet Blast Company,510 Monroe Street,Hoboken,NJ,07030,201-656-1735
Jws Trucking,714 Paulison Ave,Clifton,NJ,07011,201-779-3144
R J Sour Trucking,582 Jerome Avenue,Somerset,NJ,08873,908-285-0090
Corp,400 C Commerce Blvd,Carlstadt,NJ,07072,201-896-1185
Supersonic Transportation,100 Irving St,Jersey City,NJ,07307,201-798-3180
Eagle Express Trucking,209 Comly Rd Apt M 28,Lincoln Park,NJ,07035,973-305-9129
"Blm Trucking, Inc.",181 Rutledge Avenue,East Orange,NJ,07017,973-675-1222
Aldias Transport,30 Hillman St,Clifton,NJ,07011,201-772-8972
Harrison Trucking,30 Troy Ave,Trenton,NJ,08638,609-882-5802
Railway Express Intermodal Systems,81 Century Lane,Watchung,NJ,07060,908-351-0900
W Robinson Trucking Jr,356 Whig Lane Rd,Pilesgrove,NJ,08098,856-769-2257
Ras Transportation,2467 Rt 10 E Bldg 40 Apt 6b,Morris Plains,NJ,07950,201-984-4081
Jack Shortway Trucking,45 2nd Ave,Hawthorne,NJ,07506,201-427-0402
Robert Trucking,62 Broadway,Hackensack,NJ,07601,201-489-2791
Andrzej Pyzak Trucking,156 County Ave,Secaucus,NJ,07094,201-392-5068
T A K Transport,14 Pasadena Ave,Lodi,NJ,07644,201-773-9111
Cfs Express,100 Riverdale Rd,Riverdale,NJ,07457,973-839-8800
Dennis Hansen Trucking,55 Baird Rd,Millstone Township,NJ,08535,732-682-6161
J & J Trucking,244 Grandview Ave,Edison,NJ,08837,732-738-1831
South Jersey Transport,247 Harding Highway,Landisville,NJ,08326,856-697-1610
Alan Trucking,6 Palisade Ave,Bogota,NJ,07603,201-742-5636
Nationwide Trucking Dispatch,13-233 Dell Place,Stanhope,NJ,07874,201-252-7591
G & H Transport,457 Rt 547,Howell,NJ,07731,732-938-4953
Mv Trucking,56 Ferguson St # C-1,Newark,NJ,07105,201-466-0932
Map Trucking,60-66 Whitehorse Ave Apt H2,Hamilton,NJ,08610,609-585-8537
Lorwin Trucking Co,1619 41st Street,Pennsauken,NJ,08110,609-488-8024
Santa Clara Trucking Co,100 Rutledge Ct South,Matawan,NJ,07747,908-583-8370
"Md Jersey Disposal Co, Inc.",1 North Mainshore Rd,Waretown,NJ,08758,609-971-0506
M T Landucci Trucking,116 Rutgers Lane,Parsippany,NJ,07054,201-808-0451
D J Transportation,1261 Teaneck Road,Teaneck,NJ,07666,201-837-7755
"Hot Rush Delivery Services, Inc.",819 Jackson Ave 1st Fl,Elizabeth,NJ,07201,908-629-1766
Mpj Transporter,108 Forepeak Ave,Beachwood,NJ,08722,732-349-4085
American Waste Consultants,124 Richey Ave,Collingswood,NJ,08107,609-858-0563
Brett Norbury Trucking,2737 Cedarville Rd,Millville,NJ,08332,609-293-8004
Beira Transports LLC,180 Brighton Ave Apt 1,Long Branch,NJ,07740,732-581-0688
Zeta Transport,276 Broad Ave,Leonia,NJ,07605,917-468-0669
Adi Trucking Services,45 Saw Mill Pond Road,Edison,NJ,08817,732-287-5550
Ralph Ford & Sons Transportation,819 Ramah Road,Millville,NJ,08332,856-447-3046
Capital Moving & Storage,613 Devine Ave,Elizabeth,NJ,07207,908-629-9799
Middleman Trucking,378 Franklin Ave,West Berlin,NJ,08091,609-767-8542
J&r Trucking,47 West 6th Ave,Pine Hill,NJ,08021,609-783-8373
Ndk Moving Asso,314 7th Ave,Newark,NJ,07107,201-485-6656
Minority Carrier,207 S Dudley St,Camden,NJ,08105,609-338-9045
H&b Transport Company,717 Wesley Ave,Pleasantville,NJ,08232,609-383-0198
V G Express,52 Butler St,Elizabeth,NJ,07206,908-355-6717
Total Logistics,Box 44,Hainesport,NJ,08036,609-261-9494
D & M Trucking,164 B Franklin Trnpk,Mahwah,NJ,07430,201-529-3333
Kazmierski Trucking,19 Franklin Drive,Somers Point,NJ,08244,609-601-9495
"Charlie Allen's Autobody, Inc.",1170 Route 33,Hamilton Square,NJ,08690,609-586-1977
R & D Transport,1204 Noreen Drive,Burlington,NJ,08016,609-386-2472
Hsw Trucking,194 Autumn St,Passaic,NJ,07055,973-296-3891
Walter Burkhart Trucking,8 Tuckahoe Rd,Milmay,NJ,08340,609-691-1491
