Company Name,Street Address,Address Locality,Address Region,Postal Code,Telephone
Prairie Home Transport,213 4th St Ne,Hillsboro,ND,58045,701-636-2667
Swd Trucking,393 4th Street Sw,Dickinson,ND,58601,701-690-8880
Wayward Wind Pilot Car Service,209 2nd St Ne,Linton,ND,58552,406-461-6249
Hogness Trucking,8195 147th Ave Se,Milnor,ND,58060,701-427-5558
Cws,121 3rd St Sw,Watford City,ND,58854,719-964-5291
Haman Trucking,1815 71st Ave Ne,New Rockford,ND,58356,701-650-8378
Opies Trucking,10274 Scranton Road,Scranton,ND,58653,605-278-6355
Keith Linstaedt Trucking,104 Broadway Ave S,Ypsilanti,ND,58497,701-489-3378
Bostyan Vacuum Service,4903 Hwy 16,Golva,ND,58632,701-872-3416
Mark Praus Trucking,6025 Prairewood Dr,Bismarck,ND,58504,701-290-2569
Curt's Trucking,416 Roosevelt St,Turtle Lake,ND,58575,701-448-2265
Bentruckin',2601 2nd Ave Sw,Minot,ND,58701,701-240-0188
Wallace Trucking,316 South Raymond,Northwood,ND,58267,701-587-5332
King Trucking,322 3rd Ave S,Casselton,ND,58012,701-361-5010
Will Trucking,6600 63rd Street Sw,Elgin,ND,58533,701-584-3417
B Jochim Trucking,3021 Twin City Dr,Mandan,ND,58554,701-516-2608
Cj Doll Trucking,115 2nd Ave S,Lehr,ND,58460,701-378-2362
Roadrunner Hotshot,2407 7th Ave E,Williston,ND,58801,701-570-5286
Barthel Trucking,323 Maple Drive,Mapelton,ND,58059,701-367-5729
Payne Trucking,1012 16th St S,Grand Forks,ND,58201,701-772-3185
Minnkota Trucking,16710 County Road 2,Walcott,ND,58077,218-789-7376
J & D Trucking,3291 Hwy 3 S,Harvey,ND,58341,701-693-6030
Patridge Trucking,1602 8th Ave N,Grand Forks,ND,58203,701-772-1883
Carlson Trucking,6422 122nd Ave Ne,Lankin,ND,58250,701-593-6366
Midwest Container Service,442 5th Street,St Thomas,ND,58276,218-781-3585
Gerber Trucking,7931 19th Ave N,Newburg,ND,58762,701-721-5179
R Rusch,1506 1st Ave Nw #8,Mandan,ND,58554,701-214-8427
Martinson Trucking,511 Lincoln St,Edmore,ND,58330,701-644-2220
New Moon Trucking,700 S 12th St #230,Bismarck,ND,58501,605-391-3529
Jch Trucking,2385 24 Ave Ne,Mekinock,ND,58258,701-330-5491
Brook Rangeloff Trucking,437 3rd Street Ne,Tappen,ND,58487,701-214-1874
Py's Trucking,4769 Lavonne Courts,Fargo,ND,58104,701-318-1277
Happy Trails Trucking,2719 Yorktown Dr,Bismarck,ND,58503,701-223-3460
Gronek Logistics & Transportation Services,153 Allen Drive,Lincoln,ND,58504,701-202-9045
Isaiah 48-17 Transport,4812 47th Ave South,Fargo,ND,58104,701-446-6414
Jeff Amoth Trucking,1007 Riverside Ave,Walhalla,ND,58282,701-549-2374
Thomas Johnson Trucking,1926 23rd Ave S,Grand Forks,ND,58201,701-739-2312
Ca Trucking,2938 7th St W #206,West Fargo,ND,58078,510-299-4526
Blue Sky Trucking,414 3rd St,Washburn,ND,58577,701-462-3835
Dewhirst Diesel Power,12731 21st St Nw,Watford City,ND,58854,701-842-4669
Harding Trucking,2235 91st Av Ne,Tolna,ND,58380,701-262-4586
Conservative Trucking,101 2nd St E,Crosby,ND,58730,701-965-8356
Western Edge Oilfield Services,1401 1st Ave E,Williston,ND,58801,701-572-0669
Jc Trucking,131 E Highland,Watford City,ND,58854,701-842-4789
Aerostream Transport Corp,679 42nd Ave W,West Fargo,ND,58078,701-793-5975
Haul Freight,908 17th St West,Williston,ND,58801,701-570-1907
Tofsrud Trucking,5887 53rd St Ne,Leeds,ND,58346,701-739-6103
Driving Force Enterprises,10831 3rd St Nw,Killdeer,ND,58640,701-764-5419
Alx,9300 84th Ave Se,Minot,ND,58701,701-624-5165
Wohlk Manure Hauling,1195 Hwy 83 Sw,Washburn,ND,58577,701-462-8333
Wilson Paul,"4958 Us 85, Williston",Williston,ND,58801,701-580-5698
Slaubaugh Aviation,104 2nd St Ne,Watford City,ND,58854,701-651-0598
Turndup Trucking,1206 3rd Ave Nw Apt 21,Beulah,ND,58523,701-873-7743
Hanson Energy Services,3706 1st Ave W,Williston,ND,58801,701-580-2351
Unterseher Express,302 24th Ave Sw,Watford City,ND,58854,701-842-2160
Rh&f Trucking,4333 15th Eve Street #225,Fargo,ND,58103,952-239-2517
Laber Trucking,6321 30th Ave Se,Napoleon,ND,58561,701-754-2938
Truck Driver Training Institute Of North Dakota,409 6th Street S Suite B,Wahpeton,ND,58074,701-214-4225
Stoppler Trucking,1425 80th St Se,Linton,ND,58552,701-321-1881
L Witt Trucking,411 South 9th Street,Hettinger,ND,58639,701-567-3327
C & C Transport,355 Center Avenue S,Mayville,ND,58257,701-786-4111
Jm Trucking,403 - 20th Street East,Williston,ND,58801,701-774-1953
Ludwig Transport,226 Drummond,Mchenry,ND,58464,701-785-2322
Stang Trucking,519 8th St Nw,Hettinger,ND,58639,701-853-2295
Schiffner Trucking,607 10th Ave W,West Fargo,ND,58078,701-282-3680
Abcd Trucking,402 South Main Street,Elgin,ND,58533,701-584-2991
A-a Trucking,5429 135th Ave Se,Enderlin,ND,58027,701-437-3754
Mga Trucking,13 Carpenter Ave West,Forest River,ND,58233,701-248-3880
Hernandez Trucking,440 44th St Ne,Northwood,ND,58267,701-326-4301
Schneider Trucking,201 Durango Drive,Burlington,ND,58722,701-852-2328
Ottem Bros Trucking,515 Beaupre St,Pembina,ND,58271,701-825-6312
Schultz Trucking,5571 County Road 6,Forest River,ND,58233,701-248-3899
Haugen Transport,16655 Co Rd 25,Mooreton,ND,58061,701-274-8918
Elite Towing,1309 1st Ave N,Fargo,ND,58102,218-789-1515
Ben Filip Trucking,224 Elm St,Alsen,ND,58311,701-682-5114
L & P Miller Trucking,1504 Shannon Dr #5,Mandan,ND,58554,701-667-0136
Dakota Transport,502 1st Ave,Verona,ND,58490,701-432-5694
Donald Forsberg Trucking,6058 122 1/2 Ave Se,Lisbon,ND,58054,701-973-4551
William Tinkler Trucking,544 5th Street Ne,Thompson,ND,58278,701-599-2235
Walz Trucking,1838 5th Avenue South,Fargo,ND,58103,701-451-9388
Gleason Express,10167 Hwy 18,Lidgerwood,ND,58053,701-640-3101
J&d Heil Trucking,608 Main,Upham,ND,58789,701-728-2806
Tap Trucking,606 Gran St,Carson,ND,58529,701-471-4668
B Jochim Trucking,3021 Twin City Dr,Mandan,ND,58554,701-471-3704
Lembke Trucking,809 Church Ave,Hebron,ND,58638,701-290-1153
Andres Building & Bin Moving,4379 130 Road Northwest,Williston,ND,58801,701-774-3874
Transport Asa,3321 32nd St Sw Apt 204,Fargo,ND,58104,701-261-6765
Ennen Trucking,9000 Bar D Road,Bismarck,ND,58504,701-224-9152
Sb Enterprise,2258 27th Ave S,Grand Forks,ND,58201,701-739-2759
Torgerson Trucking,9880 76 St Nw,Tioga,ND,58852,701-464-5762
Aamodt Trucking,14073 48th St Nw Lot 22,Williston,ND,58801,701-770-4367
Coach America Crew Transport,3750 E Rosser Ave,Bismarck,ND,58501,701-223-9035
Satrom Trucking,310 4 Ave East,West Fargo,ND,58078,701-282-9644
Jim Bachmeier Trucking,402 Montana,Carson,ND,58529,701-622-3203
Circle K Trucking,325 Sampson Ave,Linton,ND,58552,701-254-4276
Six Buckle Trucking,209 Elm Avenue,New Salem,ND,58563,701-843-8086
Miller Enterprises,324 4th St Sw,Dickinson,ND,58601,701-483-4865
Erickson Trucking,541 2nd Ave Se,Dickinson,ND,58601,701-264-7294
Western Cass Blading & Trucking,803 Elm Street,Tower City,ND,58071,701-749-2620
K & B Trucking,808 12th Ave W,West Fargo,ND,58078,701-306-1620
Haroldson Transport,401 Erickson Street,Coteau,ND,58721,701-377-2795
Kcm Transport,15 Miles East Bia Rte 12,Mandaree,ND,58757,701-759-3490
Bci Trucking,2264 Oak Ave Ne,Emerado,ND,58228,701-252-8551
Krueger Trucking,2590 48 Th St Ne,Niagara,ND,58266,701-277-8993
Heck Transport,5140 127th Ave Sw,Belfield,ND,58622,701-575-4867
D And D Express,7827 101st Ave Ne,Edmore,ND,58330,701-949-2141
Carrier Welding And Pipefitting,318 9th Street East,Williston,ND,58801,701-770-3647
Niemiller Transport,707 2nd Ave W Unit 1,West Fargo,ND,58079,701-388-2688
Dreamland Trucking,9520 45 1/2 St Se,Ypsilanti,ND,58497,701-489-3525
Bryce Winjum Trucking,6281 Martens Way,Fargo,ND,58104,701-238-9947
B & K Distributing Company,1918 7th Ave W,Williston,ND,58801,701-572-9988
Nick Wurzer Trucking,3255 18th St S Apt 107,Fargo,ND,58104,701-478-6577
Diamond K Trucking,601 Violet Ave Nw,South Heart,ND,58655,701-677-4315
Buffalo Creek Transport,7645 35 St Se,Jamestown,ND,58401,701-486-3504
Stoltz Trucking,31350 17th Ave Ne,Sterling,ND,58572,701-387-4707
Gary Sather Trucking,310 West Thayer Avenue,Bismarck,ND,58501,701-258-3396
L P S,4001 12th Ave N Suite 201,Fargo,ND,58102,701-282-5330
Bublitz Trucking,2502 14th Ave W,Williston,ND,58801,701-744-3322
Erasmo Trucking,Sixth St Lot #3,St Thomas,ND,58276,701-360-0140
Preszler Trucking,43800 102 Avenue Se,Braddock,ND,58524,701-332-6620
Fullerton Trucking,11810 64th Street Sw,New England,ND,58647,701-290-4971
Oilfield Hotshot Services,3204 2nd Avenue West,Williston,ND,58801,701-774-3663
Rick Bellemare Trucking,11001 38th St S,Horace,ND,58047,701-588-4253
Mark Anderson Trucking,7870 11th St Ne,Grace City,ND,58445,701-674-3172
Chugga Trucking & Son,605 Schroeder Drive,Grand Forks,ND,58201,701-885-2484
"S & S Hot Shot Services, Inc.",Po Box 566,Towner,ND,58788,701-720-6272
Red River Rolloff Services,3992 Meadow Brook Ct,Grand Forks,ND,58201,701-772-8447
Brandon Martin Trucking LLC,303 Frank St,Gladstone,ND,58630,701-225-9470
Rje Trucking,2605 5th Ave N,Grand Forks,ND,58203,701-775-5740
U-save Auto Rental,2231 Main Avenue,Fargo,ND,58103,701-241-7802
Bk Trucking,503 6th Ave N,Rolette,ND,58366,701-246-3447
Heffta Trucking,11648 66th St Ne,Adams,ND,58210,701-944-2427
Cms Trucking,8364 County Road 7,Powers Lake,ND,58773,701-464-5723
Double H Trucking,11607 77 St Nw,Wildrose,ND,58795,701-770-6158
Dozer Trucking,603 Earl Street,Adams,ND,58210,701-944-2430
Armstrong Trucking,300 3rd St West,Carpio,ND,58725,701-468-5633
Strand Farms,14098 6th St Ne,Portland,ND,58274,701-371-4750
Dan's Milk Hauling,2865 Hwy 21,Solen,ND,58570,701-597-3648
Mcdaniel Transportation,460 7th Ave Ne,West Fargo,ND,58078,701-282-7066
Ross Carman Trucking,2406 E Thayer Ave #28,Bismarck,ND,58501,701-471-4078
Martin Vareberg,307 Elliott St,Elliott,ND,58054,701-683-3332
Lund Trucking,625 6th Av,Alice,ND,58031,701-689-6421
Nygord Express,5013 Silver Gate Dr,Grand Forks,ND,58203,218-779-8046
Border Crossing Transport,241 Broughton,Minto,ND,58261,701-520-3456
Cory Mckechnie,5045 132nd Trail Nw Lot 108,Williston,ND,58801,701-570-1179
Leingang Trucking,5265 Highway 6,Mandan,ND,58554,701-663-0146
E & M,226 2nd St Se,Rogers,ND,58479,701-646-6729
Cs Trucking,2467 East River Road,Medora,ND,58645,701-623-4596
Turbo Transport,31 11th Street Ne,Mcclusky,ND,58463,701-363-2613
Linda's Trucking,242 Stephen Ave,Grafton,ND,58237,956-783-1100
Heartland Transport,223 2nd St W,Mcclusky,ND,58463,701-363-2852
Lorenzo's Trucking,338 Prospect Avenue,Grafton,ND,58237,701-520-2250
H & K Trucking,1181 Prairie Parkway Dr Apt 212,West Fargo,ND,58078,701-361-2912
P & L Trucking,921 Hwy 281 N,Jamestown,ND,58401,701-252-1788
Lemer Transport,103 3rd Street East,Martin,ND,58758,701-693-2204
Roger's Trucking,107 Lawerance Ave,Epping,ND,58843,701-770-5780
Christmann Trucking,2874 19th St Sw,Center,ND,58530,701-794-3171
Riverbend Trucking,7265 3rd Ave Sw,Linton,ND,58552,701-782-4280
"Ernie's Repair, Inc.",222 Main Street,Caledonia,ND,58219,701-636-5960
Sandstorm,301 2nd St Se,Watford City,ND,58854,701-690-8483
Black Water Service,13203 49th St Sw,Belfield,ND,58622,701-575-8162
Pauly Transport & Harvesting LLC,1304 Loy Ave,Wahpeton,ND,58075,701-642-1225
Darin Magedanz Trucking,106 Adams Ave,Grand Forks,ND,58201,605-881-7657
Mc & T Trucking,16880 30th St Sw,Beach,ND,58621,701-872-4552
Bill Ressler Trucking,2613 8th Ave Nw,Mandan,ND,58554,701-663-4025
Art Garza Trucking,415 Cooper Avenue,Grafton,ND,58237,701-352-0173
Blue Marble Trucking,334 Wilson Avenue,Minto,ND,58261,701-248-2007
Lakeside Farm,10010 68th St Sw,Regent,ND,58650,701-563-4429
Midwest Hotshot,1017 1st Ave Ne,Hazen,ND,58545,701-748-6514
Russell Jaeger Trucking,1196 Highway 83 Sw,Washburn,ND,58577,701-462-3878
Double M Transport,2429 Pirates Loop Se,Mandan,ND,58554,701-226-6868
Rendezvous Region Transportation And Construction,103 Poplar Ave,Milton,ND,58260,701-496-3395
Burchill Trucking,1341 129th Ave Se,Hope,ND,58046,701-945-2571
Lindemann Trucking,305 6th Ave,Enderlin,ND,58027,701-924-8300
Weston Trucking,8278 County 6,Sarles,ND,58372,701-697-5303
Sedler Trucking,3021 Twin City Drive,Mandan,ND,58554,701-676-2702
Burckhard Trucking,402 9th Ave Nw,West Fargo,ND,58078,701-277-8004
Kleinsasser Trucking,3197 8th St Ne,Chaseley,ND,58423,701-324-2711
Double B Trucking,14269 Painted Woods Dr,Williston,ND,58801,701-572-0051
Tom Houser Trucking,111 3rd Ave Ne,Mcclusky,ND,58463,701-363-2350
Wede Trucking,645 Hwy 281,Carrington,ND,58421,701-285-3516
C & T Trucking,2891 227 Ave Ne,Baldwin,ND,58521,701-355-1182
Jamestown Monument,1221 10th St Se,Jamestown,ND,58401,701-252-3866
Jag Trucking,Box 71,Max,ND,58759,701-679-2264
Sanford Trucking,1401 5th St #1,Langdon,ND,58249,701-256-2230
Scott's Auto,1001 23rd Street S Unit C,Fargo,ND,58103,701-793-2548
Dennis Dahl Trucking,218 Morrison St,West Fargo,ND,58078,701-281-5018
Hanson Farm & Trucking,913 15th Ave Se,Minot,ND,58701,701-838-7396
Miller Ranch Trucking,Hcr 1 Box 1a,Marmarth,ND,58643,701-279-6713
"Nelson Express, Inc.",219 Griggs Ave,Grafton,ND,58237,701-248-2454
Dakota's Transport,239 2nd Street,Hoople,ND,58243,701-894-6156
Waste Services,355 Hwy 13 West,Gwinner,ND,58040,701-680-1850
G D Hudson Trucking,12 E 20th St,Williston,ND,58801,701-572-4739
Randy's Trucking,176 15th St East,Dickinson,ND,58601,701-225-0256
Preskey Trucking,2485 Glenburn Road,Glenburn,ND,58740,701-362-7384
E T S,19900 30th Ave Ne,Mckenzie,ND,58572,701-673-3193
Festus Trucking,2223 109th Ave Se,Rogers,ND,58479,701-646-6079
Audette Trucking,2478 Huntington Park Dr,Grand Forks,ND,58201,701-795-9388
Depaolis Transport,409 Oak Rd,Portland,ND,58274,773-775-2357
Bnc Trucking,1314 25th Street West,Williston,ND,58801,701-572-3778
Todd Kunze Trucking,204 4th Ave,Dazey,ND,58429,701-733-2361
K & L Transport,15 A St Nw,Sykeston,ND,58486,406-489-6921
Cheyanne Trucking,2720 Yorktown Dr,Bismarck,ND,58503,701-223-0372
Leonard Trucking,7852 51st Street Ne,Devils Lake,ND,58301,701-662-6095
Smokin Joe Express,2248 East Main,West Fargo,ND,58078,800-299-8609
Prettyman Honey Farms,217 S Park St,Hebron,ND,58638,701-590-3075
Waldner Trucking,1602 27th Street Se,Minot,ND,58701,701-837-0399
John Larson Trucking,316 1st Street Sw,Hillsboro,ND,58045,701-636-4147
Knell Trucking,301 County 29,Hazen,ND,58545,701-487-3314
C & C Wholesale Automotive,1406 1 1/2 Avenue North,Wishek,ND,58495,N/A
Marvin Dachtler Trucking,212 S 6th Street,Glen Ullin,ND,58631,701-348-3674
Cavett Transport,12948 55th Street Se,Enderlin,ND,58027,701-437-3564
Wahpeton Senior Citizens Center,520 3rd Ave South,Wahpeton,ND,58075,701-642-5746
Rockin R Trucking,P O Box 1171,Center,ND,58530,701-794-3228
Vandyke Trucking,107 East Street,West Fargo,ND,58078,701-282-8569
Ram Trans,319 N Main,Flasher,ND,58535,701-597-3927
River City Trucking,101 Oak Ave,Mandan,ND,58554,701-663-2624
End Vision Trucking Llp,1111 Painted Woods Lane,Washburn,ND,58577,701-462-3618
Yellow Rose Trucking,Box 24,Tolley,ND,58787,701-386-2892
Hurt Trucking,416 Hwy 22,Killdeer,ND,58640,701-764-5817
Egeland Trucking,196 Filmore Ave,Grand Forks,ND,58201,N/A
Mark Dimmler Trucking,9316 49th St N E,Crary,ND,58327,701-398-5108
Volk & Associates,6010 80th Ave Ne,Webster,ND,58382,701-395-4388
C & C Sayler Trucking,3453 35th St Se,Dawson,ND,58487,701-327-4577
Lyle Lima Trucking,205 4th Nw,Wolford,ND,58385,701-583-2515
Austfjord Trucking,14104 93rd St Ne,Cavalier,ND,58220,701-265-8583
Bredwick Trucking,Hc R1 Box 41,Arnegard,ND,58835,701-720-0288
Prairie Oilfield Service,502 Linda St,Tioga,ND,58852,720-936-6932
Troy Fladeland Trucking,8703 49th St Nw,New Town,ND,58763,701-627-2978
Kippen Farms Trucking,904 Grace Avenue,Cavalier,ND,58220,701-265-2399
Jon G Trucking,1027 Railroad Ave F #104,Hatton,ND,58240,701-543-3425
Miller Farms Trucking,15804 84th St Sw,Rhame,ND,58651,701-279-6959
Ron Sandvig Trucking,9320 Mahlum Court,Grand Forks,ND,58201,701-746-7014
Carrier Custom Services,Rr1,Pembina,ND,58271,701-281-0710
Mason Trucking,115 6th Ave N,Fessenden,ND,58438,701-547-3525
Russ Trucking,131 Grey Avenue,Bowdon,ND,58418,701-962-3614
Lake Transfer,7607 Willow Lane,Devils Lake,ND,58301,701-662-3540
Keno Transfer,1625 16 1/2 St So,Fargo,ND,58103,701-476-0697
Whittet's Trucking,Rhame Ave,Haynes,ND,58639,701-567-4151
Brandner Trucking,15 N Badger St,Wishek,ND,58495,701-452-2199
Lcl's Trucking,7203 79th Ave Se,Edgeley,ND,58433,701-493-2875
Harmel Trucking,Rt 1 Box 35,Rolette,ND,58366,701-246-3779
Justa Trucking,309 2nd St Ne,Tappen,ND,58487,701-226-0966
Kp Transfer,312 6th Ave N,Casselton,ND,58012,701-347-4282
Benz Trucking,401 Haycreek Ct,Bismarck,ND,58503,701-250-0091
Loder Ranch Trucking,9408 142nd Ave Sw,Bowman,ND,58623,701-574-3109
Heintz Trucking,1021 James Ave Ne,Jamestown,ND,58401,701-952-6456
T N T Trucking Co,7051 99th Ave Ne,Edmore,ND,58330,701-894-6526
Dc&b Hotshot & Trucking,14129 Highway 2 W,Williston,ND,58801,701-572-9273
Rich's Mobile Home Transport,16708 12th St Se,Grandin,ND,58038,701-484-9340
Schumacher,322 5th St W,Napoleon,ND,58561,701-320-5028
Greg Laber Trucking,1109 Cnty Rd 6 Nw,Souris,ND,58783,701-295-2268
R C 1 Trucking,9793 Hwy 32,Walhalla,ND,58282,701-549-2595
K & W Hauling,201 2nd St W,Finley,ND,58230,701-524-1340
S F Transport,Rr 2 Box 88,Mayville,ND,58257,701-786-2385
Hepper Trucking,1827 East Capital Av,Bismarck,ND,58501,701-471-1690
B & J Trucking,5710 Highway 52,Sykeston,ND,58486,N/A
"Arneson Transport, Inc.",108 7th Ave West ,Lisbon,ND,58054,701-683-3106
S & T Trucking,604 North Main St,Drayton,ND,58225,701-454-6433
Klein Trucking,Box 9184,Fargo,ND,58106,218-779-9498
Z S W Trucking,3226 Twin City Dr,Mandan,ND,58554,701-667-2921
Wally's Trucking,1817 Heritage Ave,Bismarck,ND,58501,701-255-9156
Haugen Trucking,1308 Sims,Dickinson,ND,58601,701-227-3727
Baisch Trucking,233 A Street,Dickinson,ND,58601,701-483-4921
A And B Trucking,106 5th St Nw,South Heart,ND,58655,701-677-5598
Dazell Trucking,5065 82nd Ave Nw,Stanley,ND,58784,701-628-1114
Alan Dewall Trucking,419 N Griffin St,Bismarck,ND,58501,701-224-8523
Rms Trucking,208 2nd Ave Se,Marmarth,ND,58643,805-689-4890
Don Gienger Trucking,5300 48r Ave Se,Streeter,ND,58483,701-424-3627
White Hart Transport,24 Cleveland St,Enderlin,ND,58027,701-437-2369
Hovde Trucking,201 Brennan Avenue,Forest River,ND,58233,701-248-3732
Nygaard Trucking,213 6th Ave E,West Fargo,ND,58078,701-277-1490
Tony Hoge Trucking,5245 97th Ave Ne,Bismarck,ND,58503,701-323-7664
Lazy V Livestock & Trucking,34740 80th Street Ne,Wilton,ND,58579,701-440-0226
Dohn's Service,516 4th Street S,Wishek,ND,58495,701-452-2550
Brekke Trucking,506 Kennedy St,Edmore,ND,58330,701-644-2289
T&d Farms,2354 39th Ave Nw,Garrison,ND,58540,701-337-5423
Jat Trucking,2111 64th St Ne,Rugby,ND,58368,701-776-6441
Gk & Sons Trucking,8130 Old Hwy 2,Stanley,ND,58784,701-628-1485
Dietz Trucking,659 2nd Ave Nw 58621,Beach,ND,58621,701-872-3334
Branson Trucking,901 Elk St,Alexander,ND,58831,701-828-3104
"A R Services, Inc.",3921 Lockport St,Bismarck,ND,58503,701-255-0533
Denault Trucking,419 Briggs Ave S,Park River,ND,58270,701-284-6724
Grube Trucking,15692 Co Rd 1,Pembina,ND,58271,N/A
Heinrich Trucking,3080 55 Ave Se,Medina,ND,58467,701-486-3154
Patzer Trucking And Repair,2740 18th Street Ne,Harvey,ND,58341,701-324-2480
Elsner Trucking,913 Heart Dr,Dickinson,ND,58601,701-483-8380
Paul Hendrickson Trucking,2759 67th Ave Nw,Parshall,ND,58770,701-743-4554
Wold Trucking,2500 Centennial Rd #91,Bismarck,ND,58503,701-223-9215
Darrin Leifson Trucking,16501 226 St Sw,Ryder,ND,58779,701-725-4937
Pro-ag Service,9139 9th Ave Nw,Newburg,ND,58762,701-272-6305
Bernhardt Farms,2280 22nd Ave Se,Tuttle,ND,58488,701-867-2444
Christinson Trucking,224 Auburn Dr,Grafton,ND,58237,701-352-0562
"X Shots Fire Service, Inc.",1005 Westrac Drive,Fargo,ND,58103,701-365-8105
Little R Trucking,Rr 3 Box 140,Tioga,ND,58852,701-664-3548
"Zentner's House Moving, Inc.",Rt 2 Box 25,Mott,ND,58646,701-824-2527
Rick Eversvik Trucking,310 2nd St Se,New Rockford,ND,58356,701-947-5994
"Mueller Trucking, Inc.",949 4th Ave Nmorth,Ellendale,ND,58436,N/A
Alamo Trucking,Rr 4 Box 132,Minot,ND,58701,701-624-5312
Edwardson Trucking,5994 6th Ave N,Granville,ND,58741,701-728-9599
Erfle Trucking,393 45th Ave Ne,Heaton,ND,58418,701-984-2264
Big E Express,P O Box 13,Medina,ND,58467,701-486-3207
Voigt Diesel Service And Trucking,16 South 18th Street,Fargo,ND,58103,701-277-1966
Raney River Express,8550 161st Ave Ne,Drayton,ND,58225,701-454-6340
Classic Transportation,307 Lake St,Ray,ND,58849,701-568-2338
Roth Trucking,4230 Shaun Lane #3,Mandan,ND,58554,701-224-1943
A K Trucking,5 Mi W Belcourt 5 Mi N Bia 11,Belcourt,ND,58316,701-244-5750
Thompson Brothers Trucking,Box 184,Blanchard,ND,58009,701-436-5486
L & T Mail Service,2923 Shadow Rd,Grand Forks,ND,58201,701-772-1104
Cut Rate Freight,Rr 2 Box 51a,Luverne,ND,58056,701-945-2372
Ts Trucking,401 Grape Ave,Oakes,ND,58474,701-742-2981
Jim Klym Trucking,1075 Main South,Dickinson,ND,58601,701-225-2027
F R C Trucking,426 7th Ave S,Fargo,ND,58103,701-293-9854
Hochhalter Trucking,8854 69th St Sw,Mott,ND,58646,701-824-3114
Waste Oil Service,3017 9th St N,Fargo,ND,58102,701-237-9669
Moline Transfer,Rr 4 Box 136,Rugby,ND,58368,701-583-2870
Skjeret Trucking,1432 111th Ave Se,Dazey,ND,58429,701-733-2178
Fargo Freightliner,2315 7th Ave N,Fargo,ND,58102,701-293-9133
Rock Hill Trucking,30650 249th Street Ne,Wing,ND,58494,701-220-2641
B L Brodehl Trucking,851 93rd St Nw,Newburg,ND,58762,701-272-6252
S & B Trucking,Po Box 272,Mandan,ND,58554,701-663-6426
Jack's Trucking,Po Box 194,Hamberg,ND,58337,701-547-3601
Stremick Trucking,1017 12th St,Langdon,ND,58249,701-256-3172
Justa Trucking,511 Holiday Park Village,Jamestown,ND,58401,701-252-2167
Olson Transportation,8 Captain Leach Dr,Mandan,ND,58554,701-667-2014
Mickelson Trucking,Rt 1 Box 47,Finley,ND,58230,701-524-2414
Mack Trucking & Excavating,3722 Berkely Dr #6,Grand Forks,ND,58203,701-775-7952
Osowski Trucking,Rr 2,Walsh County,ND,58213,701-699-2586
Paul Fuchs Trucking,C-6 Holiday Pk,Minot,ND,58701,701-852-9160
States Trucking,1704 9th Ave N,Grand Forks,ND,58201,N/A
Bert's Trucking,3868 Montreal St,Bismarck,ND,58501,701-224-0833
Dakota Auto,2705 5th Ave S,Fargo,ND,58103,701-297-0826
"Jjm Trucking, Inc.",230 A Street,Dickinson,ND,58601,701-225-6122
Dave Vanhoff Trucking,323 Seward Ave Apt 1,Grand Forks,ND,58203,701-775-6481
A Bar J Trucking,6365 Highway 1806,Mandan,ND,58554,701-667-1239
Halmrast Trucking,P O Box 427,Lisbon,ND,58054,701-683-4791
Huber Trucking,110 N 10th St ,Wishek,ND,58495,701-452-2612
Eszlinger Stackmoving,Box 494,Ashley,ND,58413,701-288-3294
W I K Transport,319 Central Ave S,Beulah,ND,58523,701-873-5437
Nesland Trucking,409 3rd St,Thompson,ND,58278,701-599-2955
Robert Jeffrey Trucking,1102 Lanark Ave,Grand Forks,ND,58208,218-773-0709
Bergrud Trucking,4613 32nd Street Ne,Maddock,ND,58348,701-438-2719
First Dakota Living Trust,Hwy 13 W,Gwinner,ND,58040,701-678-2205
Myers Transport,6120 61 St Avenue Nw,Berthold,ND,58718,701-453-3251
Parvey Trucking,201 N Shore Ln,Devils Lake,ND,58301,701-795-9255
Lonesome Dove Trucking,7106 49th St Nw,Palermo,ND,58769,701-629-0002
J T Trucking,Box 197,Strasburg,ND,58573,701-336-7251
Flat Land Express,605 Sw 2nd St,Rugby,ND,58368,701-776-6949
King Farms,15442 29 St Se,Casselton,ND,58012,701-347-5924
Muir Trucking,3290 27th St Ne,Ardoch,ND,58261,701-215-8149
Marvin Streich Trucking,800 31st Ave Se Lot 915,Minot,ND,58701,701-852-2760
Ymi Trucking,7720 Hwy 18,Wyndmere,ND,58081,701-439-2425
Srnsky Trucking,1130 Mckinley Ave,Grand Forks,ND,58201,701-795-5109
D & K Trucking,1542 7th Ave S,Fargo,ND,58103,701-298-3473
Hager Trucking,7945 162nd Ave Se,Barney,ND,58008,701-439-2348
J & A Trucking,127 N Main,Tappen,ND,58487,701-327-1979
Amundson Trucking,Rt 1 Box 47,Finley,ND,58230,701-524-2414
Ed Gracie Trucking,Rr 2 Box 108 J,Grand Forks,ND,58203,701-775-8560
Kungel Trucking,8902 63 Ave Se,Kulm,ND,58456,701-698-2601
Berquist Trucking,3572 Highway 1806 W,Watford City,ND,58854,701-842-3029
Roland's Trucking,Po Box 1694,Belcourt,ND,58316,701-477-8859
Broermann Specialized Carriers,Rt 1,Minto,ND,58261,701-248-3151
Central Dakota Express,Rr 1 Box 112,Drake,ND,58736,701-465-3445
Super Express,Rr 1 Box 193b,Grand Forks,ND,58203,701-772-5128
Joel Fike Trucking,916 Alder Avenue,Harvey,ND,58341,701-324-2429
Ken's Pilot Service,1626 17th Ave E,West Fargo,ND,58078,701-241-9784
Miller Trucking Farms,7505 44th Ave,Raleigh,ND,58564,701-597-3792
Mortenson Trucking,3780 27th Ave Se,Steele,ND,58482,701-222-1916
Crane Trucking,1204 Coolidge Ave,Minot,ND,58701,701-838-8095
Broken Axle Trucking,Hc 1 Box 23,Starkweather,ND,58377,701-292-5571
"Dki, Inc.",8482 182nd Ave Se,Wahpeton,ND,58075,701-642-1590
Black Horse Hauling,General Delivery,Hankinson,ND,58041,701-242-8376
Paul Westby Trucking,2nd & Merl,Fairdale,ND,58229,701-966-2255
Dale Schwalbe Trucking,Box 1102,Beulah,ND,58523,701-873-5027
Polensky Ranch & Trucking,Rr3 Box 115b,Dickinson,ND,58601,N/A
Rocket Daily Delivery,1330 1/2 Main Avenue,Fargo,ND,58103,N/A
Jerry Bossert Trucking,3952 County Road 85,New Salem,ND,58563,701-667-5889
R&l Trucking,Po Box 195,Jessie,ND,58452,N/A
Miller Trucking,13453 90th Street Se,Forman,ND,58032,701-724-3735
Carrs Grain Service,189 72nd Ave Se,Carrington,ND,58421,701-652-3415
Freedom Transport,8059 36th St Se,Jamestown,ND,58401,701-252-5088
Bienek Trucking,824 2nd Ave No #5,Grand Forks,ND,58201,218-745-4415
Voegele Trucking,1308 1/2 Sunset Dr,Mandan,ND,58554,701-667-1217
Tri-behm's Oil,3806 Highway 2 And 52 West,Minot,ND,58701,701-852-8955
Thomas Buckley Jr Trucking,8654 145th Ave Sw,Bowman,ND,58623,701-440-5541
Diamond - R Trucking,Po Box 854,Tioga,ND,58852,701-664-2316
Lance's Roastabout Service,Rr 1 Box 100,Watford City,ND,58854,701-842-6250
J R Trucking,1009 Alder Ave,Harvey,ND,58341,701-324-4846
Curt's Trucking,5408 60th Ave Ne,Brinsmade,ND,58351,701-466-2754
Daniel J O'toole Trucking,630 Allendale Rd Ne,Thompson,ND,58278,701-599-2250
Prairie Winds Trucking,106 Park Ave,Mandan,ND,58554,701-663-1478
Keena's Transportation,2900 Keith Drive,Bismarck,ND,58501,701-224-1670
L T Maley Trucking,9161 44th St Se,Ypsilanti,ND,58497,701-489-3183
Draco Shipping,59 Mcdougall Dr,Lincoln,ND,58504,701-255-6091
Hit The Road Jack Trucking,P O Box 455,Velva,ND,58790,701-338-2771
Schmidt House 9 And Family Trucking,1706 E Main Apt B5,Mandan,ND,58554,701-471-8948
Donohue Trucking,Rr 4 Box 184d,Williston,ND,58801,701-774-0934
C & L Trucking,5240 76th St Ne,Wolford,ND,58385,701-583-2306
P M B Transport,1022 S 1st St,Wahpeton,ND,58075,701-642-9540
K C Trucking,Hc02 Box 72a,Watford City,ND,58854,701-842-6404
Davidson Trucking,Rr 1 Box 330,Hettinger,ND,58639,701-567-2625
Rock'n H Transfer,Rr 1 Box 51,Cooperstown,ND,58425,701-797-2868
Rare-bear Trucking,Rr 1 Box 36a,Buxton,ND,58218,701-786-2613
Interstate Auto Transport,2626 24th Ave Sw,Fargo,ND,58103,701-298-3032
Quad L Trucking,501-12th Ave Se Apt 304 D,Devis Lake,ND,58301,701-662-3474
Hegwood Trucking,403 Haycreek Ct,Bismarck,ND,58501,701-258-1995
Don's Service Center,1701 S University,Fargo,ND,58103,701-293-7663
Leininger Trucking,1260 105th Ave Ne,Binford,ND,58416,701-676-2546
Skaurud Transportation,5104 16th Ave Sw,Fargo,ND,58103,701-356-4016
Contract Services,1808 5th Ave N,Fargo,ND,58102,701-280-0083
G&n Rentals,905 1st Street Nw,Bowman,ND,58623,701-523-3796
Joe's Casing & Drilling,5429 137th Ave Nw,Williston,ND,58801,701-572-6487
Thorp Trucking,2401 El Rio Drive,Minot,ND,58701,701-838-9210
Barry Green Trucking,1510 Westmore Ave,Wahpeton,ND,58075,701-642-6517
Severson Trucking,3477 110th Ave Ne,Lakota,ND,58344,701-322-4795
Shane Gunderson Trucking,123 188th Ave Nw,Baldwin,ND,58521,701-400-4534
B & R Trucking,206 1st St Sw,Towner,ND,58482,701-537-5844
Arm Courier,2715 39 1/2 Ave North,Fargo,ND,58102,701-293-1095
Tom Pahl Trucking,9955 103rd Ave S E,Oakes,ND,58474,701-783-4358
Lane Trucking,1026 Monroe Avenue,Grand Forks,ND,58201,701-787-0910
Leon P Haman Trucking,210 12th Ave S Apt 3,Devils Lake,ND,58301,701-662-2397
Mike Wagoner Trucking,350 101st Ave Se,Sutton,ND,58484,701-769-2210
C & M Trucking,Rr 1 Box 47,Sheyenne,ND,58374,701-996-2823
Kvamme Trucking,5945 75th Ave Nw,Palermo,ND,58769,701-628-2881
Kersten Trucking,969 91st Street,Newburg,ND,58762,701-272-6319
Williston Equipment Sales,901 18th St West,Williston,ND,58801,701-774-9616
Td Transport,4168 116th Ave Ne,Michigan,ND,58259,701-259-2216
Dick Wagoner Trucking,Rr 1 Box 130,Sutton,ND,58484,701-769-2440
Erfle Trucking,427 Park Ave W,Bowdon,ND,58418,701-962-3339
Arth & Sons Transport,Rr 1 Box 125,Lidgerwood,ND,58053,701-538-4461
Jorgenson Trucking,6509 55th Ave Ne,Leeds,ND,58346,701-466-2739
Dave's I29 Tire & Service Center,3523 Main Ave,Fargo,ND,58103,701-237-0435
Triple R Trucking,344 6th Ave E,Dickinson,ND,58601,701-225-7119
Dockter Trucking,5075 57th Street Se,Braddock,ND,58524,701-475-2688
Jamestown L P Gas,1802 Highway 281 North,Jamestown,ND,58401,701-252-8688
Road Slave Express,Rural Route 1,Belcourt,ND,58367,701-477-6209
Halvorson Trucking,120 Lee Ave W,Tolna,ND,58380,701-262-4462
Anderson Trucking,#5 18th Avenue Se,Minot,ND,58701,701-852-0399
Vangsness Trucking,5895 Hwy 18,Walcott,ND,58077,701-428-3167
Bob Mastre Trucking,906 4th Ave E,West Fargo,ND,58078,701-282-9341
Little Blue Express,3931 64th Ave S,Fargo,ND,58104,701-237-3886
"Stn Trucking, Inc.",330 Kilowatt Dr,Minto,ND,58261,701-248-3510
Ss Specialty Construction,9430 25th Ave Se,Zeeland,ND,58581,701-423-5583
Steier Oil Field Service,70 Gta Dr,Dickinson,ND,58601,701-483-8245
Douglas Amundson Trucking,2611 N 42nd St,Grand Forks,ND,58203,701-787-0096
M & K Trucking,800 N Anderson St,Bismarck,ND,58501,701-258-5999
Pulvermacher Trucking,7750 29th Ave Ne,Starkweather,ND,58377,701-292-4103
Ternes Trucking,415 92nd St Se,Strasburg,ND,58573,701-336-7421
Harley J Trucking,1 Mile N On Fish Lake Rd,Belcourt,ND,58316,701-477-5543
Loren Woodbury Trucking LLC,5355 87th St Sw,Carson,ND,58529,701-622-3307
Skaurud Express,27 Meadow Park,Fargo,ND,58102,701-297-0826
"Professional Services, Inc.",Box 339,Tioga,ND,58852,701-664-2870
Bruce Jacobson Trucking,10324 19th St Se,Rogers,ND,58479,701-646-6725
Dakota Ecp,202 3rd Ave Sw,Watford City,ND,58854,701-595-0522
Nogowski Construction,8317 130 Ave Se,Gwinner,ND,58040,701-678-2245
Bruhaul Trucking,1424 4th Ave N #2,Grand Forks,ND,58203,701-746-4024
Vanish Transportation,302 4th St Nw,Mandan,ND,58554,701-663-0039
G M Transport LLC,1812 Cottonwood St,Grand Forks,ND,58201,701-780-2858
Williams Trucking,Box 923,West Fargo,ND,58078,701-235-2294
Lightning Express,3140 32nd Street South,Fargo,ND,58103,701-388-9507
Disrud Trucking,8130 36th St Sw,Shields,ND,58569,701-422-3487
Wj Trucking,7415 89th Avenue Se,Edgeley,ND,58433,701-493-2548
Smitty's Equipment Repair Service,178 Filmore Ave,Grand Forks,ND,58201,701-775-5187
Fossen Trucking,3583 Highway 30,Maddock,ND,58348,701-438-2674
Oster Trucking,7600 149th Ave Nw,Grenora,ND,58845,701-694-4285
Monty Dugger Trucking,Rr 1,Tappen,ND,58407,701-327-4590
Roger O'neill Trucking,511 1st Ave Nw,Mandan,ND,58554,701-663-5802
Ray Frantsen Trucking,203 4th St W,Velva,ND,58790,701-338-2446
R & S Trucking,7805 50th Ave Se,Lehr,ND,58460,701-378-2238
Brush Hill Trucking,7027 10th Street Se,Pingree,ND,58476,701-285-3389
Buerkle Heavy Equipment Service,101 Robertson St,Lignite,ND,58752,701-933-2233
Sauer Trucking,2008 Utah Dr,Bismarck,ND,58503,701-222-3808
Resource Carrier Services,5150 Hwy # 2,East Minot,ND,58702,701-838-6660
L J Hiltner Custom Hauling,10150 103 St Ne,Wales,ND,58281,701-256-2188
B & T Trucking,709 Neill Street,Buxton,ND,58218,701-847-2754
J K Trucking,206 4th Street Northeast,Belfield,ND,58622,701-575-4002
Honsey Trucking,26 Southbrook,Bottineau,ND,58318,701-228-5112
Diamond S Trucking,8347 29 R St Se,Jamestown,ND,58401,701-252-2169
"Leon Leifson Trucking, Inc.",1010 55th St Se,Minot,ND,58701,701-839-9377
Hahne Trucking,6161 70th Street Se,Fredonia,ND,58440,701-698-2235
Lockwood Transportation,219 Second Ave Box 251,Zap,ND,58580,517-424-4175
Can Dak Trucking,10670 County Rd 1,Kenmare,ND,58746,701-386-2892
Laducer Trucking,Po Box 1081,Dunseith,ND,58329,701-244-2177
Syvertsen Trucking,7025 170th Avenue Se,Colfax,ND,58018,701-372-3769
Classic Transport,Po Box 441,Cooperstown,ND,58425,701-797-3140
Paradise Enterprises,106 Road Runner Ave,Bismarck,ND,58504,701-223-8049
Wayne Bohrer Trucking,8230 53rd St Nw,Stanley,ND,58784,701-628-2093
Harvest Transport,14069 89th St Ne,Hensel,ND,58241,701-265-8871
Terry's Trucking,1980 85th Street Se,Hague,ND,58542,701-336-7108
Altendorf Harvesting,15061 County Road 19,Minto,ND,58261,701-248-3521
Rocking B Transport,800 Riverwood Drive,West Fargo,ND,58078,701-282-7114
Janz Trucking,3262 Center Ave N,Kief,ND,58747,701-626-7266
Center Auto & Truck Repair,680 36th Street South,Fargo,ND,58103,701-235-8908
Road Runner Moving,1998 30th Avenue South #102,Grand Forks,ND,58201,701-746-9103
Performance Auto,1917 Main Ave,Fargo,ND,58103,701-237-4641
V S Freight,202 Centennial Dr,Argusville,ND,58005,701-484-9337
Jason Biegler Trucking,1102 Hwy 83 Ne,Sterling,ND,58572,701-387-4772
Legacy Transport,877 Hanna Ave,Valley City,ND,58072,701-845-0448
J Bar J Trucking,780 42nd St N,Voltaire,ND,58792,701-525-6718
Skorick Trucking,Box 102,Butte,ND,58723,701-626-7533
Blue Mountain Trucking,421 3rd Avenue E,Richardton,ND,58652,701-974-3990
Ben Kraft Trucking,2816 Lexington Dr,Bismarck,ND,58503,701-224-1986
Mccloud Trucking,Box 156,Rolla,ND,58367,N/A
Hurst Trucking,600 N 27th St,Fargo,ND,58102,701-234-9974
Knorr Trucking,2926 Cabin Dr E #4,Coleharber,ND,58531,701-624-5543
Lawrence Transportation,Highway 40,Tioga,ND,58852,N/A
Schwan Enterprises & Schwan Oil Co,803 College Drive North,Devils Lake,ND,58301,701-662-4219
Hendrickson Trucking,101 1st Ave West,Bisbee,ND,58317,701-656-3434
Trout Trucking,R R 2 Box 80,Sherwood,ND,58782,701-459-2454
Hambrick Trucking,3745 28 1/2 Ave,Mandan,ND,58554,701-663-0041
Marv Barnick Trucking,3rd Avenue & 2nd St Nw,Steele,ND,58482,701-475-2833
Carlson Trucking,426 1st Street Nw,Minot,ND,58701,701-838-3911
Fettes Transportation Systems,3939 7th Ave Nw,Fargo,ND,58102,701-277-3631
E B Fisher & Sons,204 South Park,Northwood,ND,58267,701-587-5950
Ray Gibson Trucking,Rt 1 Box 14,Webster,ND,58382,701-395-4445
Mathisons Express Press Graphics,1213 N P Avenue,Fargo,ND,58102,701-232-8971
Guenther Trucking,R Rt2 Box 871,Hettinger,ND,58639,605-855-2331
Biegler Trucking,Box 23,Driscoll,ND,58532,701-387-4467
Donald Holm Trucking,545 2nd St,Arthur,ND,58006,701-967-8903
Longhaul Trucking Division,306 Main Avenue,New Salem,ND,58563,701-843-7533
Fietzek Trucking,P O Box 133,Hunter,ND,58048,701-874-2344
Prairie Land Trucking,607 W Front St,Larimore,ND,58251,701-343-2994
R K Trucking,5441 162nd Ave Ne,Baldwin,ND,58521,701-673-3379
Velociti Metal Works,711 Railroad Ave E,Hatton,ND,58240,701-543-3221
Pfliiger Trucking,4402 Patriot Drive,Bismarck,ND,58501,701-622-3456
Arneson Grain Service,Main St,Grandin,ND,58038,701-484-5507
Buchholz Trucking,135 1st St,Wyndmere,ND,58081,701-439-2343
Fandrich Trucking,1572 Hw 52w,Fessenden,ND,58438,701-547-3548
Hefta Trucking,Box 399,Mayville,ND,58257,701-786-2093
Helgeson Trucking,1814 25th Ave S,Fargo,ND,58103,701-293-9673
Thomas And Jeannette Waldie,9783 60th St Se,Marion,ND,58466,701-669-2320
Mueller Trucking,409 S 9th St,Wishek,ND,58495,701-452-2665
Ken Krump Trucking,705 1st Avenue Sw,Hankinson,ND,58041,701-242-7671
R & E Trucking,11651 79th St Ne,Milton,ND,58260,701-496-3377
John Ehlis & Son,3890 Hwy 25,Mandan,ND,58554,701-663-3472
Sundeen Trucking,Tufte Trailer Ct,Lakota,ND,58344,701-247-2312
H F Trucking,826 27th Street,Bismarck,ND,58501,701-223-7953
Little Deep Farm & Trucking,2975 101st Street Nw,Antler,ND,58711,701-756-6287
"W E Siegel Trucking, Inc.",3047 Greenwood Dr,Bismarck,ND,58554,701-391-3319
E & J Transport,1114 18th Street S,Fargo,ND,58103,701-293-0799
R & A Biegler Trucking,213 Park Street,Sterling,ND,58572,701-387-4772
Anderson Trucking,734 19th St N,Fargo,ND,58102,701-235-3869
Rapid Transport,1621 12th Avenue S,Fargo,ND,58103,701-293-1406
International Transport,12238 82nd Ln Nw,Corinth,ND,58830,307-922-4337
Goldsmith Trucking,616 1st Ave. Ne,Streeter,ND,58483,701-424-3442
Sisk Trucking,1920 Co Rd 6 Nw,Westhope,ND,58793,701-245-6542
De-distributing,135 5th Ave S,Wahpeton,ND,58075,701-642-3679
W Krous Trucking,30750 Hwy 10,Sterling,ND,58572,701-387-4724
Keith Green Trucking,3532 Hwy 85 N,Alexander,ND,58831,701-828-3568
"Minot Coal Huizenga Trucking, Inc.",3 Evergreen St,Burlington,ND,58722,701-839-1225
Olson Trucking,205 3rd Street N,New Salem,ND,58563,701-843-8375
Burchill Trucking,321 Main St,Pillsbury,ND,58065,701-945-2383
Martin Trucking,Hwy 2 East,Devils Lake,ND,58301,701-662-3820
Robert Susa Trucking,2308 11th Avenue Se,Mandan,ND,58554,701-663-8351
R & J Trucking,R R,Elgin,ND,58533,701-584-2052
Johnson Trucking,3965 62nd Ave Ne,Oberon,ND,58357,701-473-5501
Hartman Crane Service,1159 37 Street Ne,Dickinson,ND,58601,701-225-0123
Rick's Bulk Service,1849 Hwy 5 Ne,Bottineau,ND,58318,701-228-5175
D D Jenssen Trucking,5453 62nd St Ne,Leeds,ND,58346,701-466-2716
Colby Transport,1021 Main Ave W,West Fargo,ND,58078,701-282-0780
Olson Trucking,2 Miles E 1 Mile N 5 Mile E,Montpelier,ND,58472,701-489-3242
S A Mears Trucking,315 Ne 1 St Street,Rugby,ND,58368,701-776-6607
Biel Bros Trucking,490 8th St N,Carrington,ND,58421,701-652-3539
Buchholz Trucking,Mobile Home N Of Elevator,Wheatland,ND,58079,701-347-4296
Floyd Heinitz Trucking,20 25th Ave E,Dickinson,ND,58601,701-590-1599
C Grad Trucking,408 Hwy 30 South,Maddock,ND,58348,701-438-2768
W L Brock Trucking,Box 10823 34 St Se R,Valley City,ND,58072,701-845-3194
Myran Trucking,16 Third Street & Oak Avenue,Taylor,ND,58656,701-974-3444
Koth Transportation,4217 61st Avenue Ne,Minnewaukan,ND,58351,701-473-5350
"Sk & S Oilfield Service, Inc.",4513 16th Ave West,Williston,ND,58801,701-572-7698
Laine Trucking,2235 68th St Se,Kintyre,ND,58549,701-332-6666
L Wall Trucking,238 Van Buren Ave Nw,Tappen,ND,58487,701-327-4235
North Forty Trucking,R R 2 Box 122,Willow City,ND,58384,701-366-4764
David J Bjerke Trucking,1mile East 1 Mile South,Park River,ND,58270,701-284-7874
Chadwick Trucking,1002 5th Ave Sw,Jamestown,ND,58401,701-320-5646
Steven Rohrich Trucking,301 1st Ave Se,Steele,ND,58482,701-475-2270
Northern Traill Transport,Rt 1 Box 85,Cummings,ND,58223,701-436-5736
Woodworth,7048 Snapply Lane,Bismarck,ND,58504,701-222-2710
Bjornstad Trucking,702 4th St,Edmore,ND,58330,863-512-1128
Mbm Trucking,R R 1 Box 32,Hope,ND,58046,701-945-2754
Keller Trucking,7363 12th Ave N,Upham,ND,58789,701-768-2654
Tl Trucking,5 Miles South & 1 East,Mc Clusky,ND,58463,701-363-2755
Boehm Trucking,Rt 1 Box 51a,Karlsruhe,ND,58744,701-525-6623
Norpack Trucking,R R 1,Casselton,ND,58004,N/A
Terry Harpole Trucking,3181 Highway #10,Dawson,ND,58482,701-327-8315
Braathen Trucking,8240 70th St Ne,Starkweather,ND,58377,701-292-4567
Johnson Trucking,Rural Route 1,Minnewaukan,ND,58351,701-473-5527
Bryl Trucking & Harvesting,103 Crystal Lane Ct,Devils Lake,ND,58301,701-739-6846
Larson Trucking,Russell St,Reynolds,ND,58275,701-847-2303
B & O Trucking,3100 11th Ave Se Apt C6,Minot,ND,58701,701-852-1887
Don Wagoner Trucking,10050 County Road 22,Sutton,ND,58484,701-769-2440
North Star Express,Box 372,Cavalier,ND,58220,701-265-4984
Skinners Trucking,85 Elevator Rd,Carrington,ND,58421,701-984-2588
Dockter Farms & Trucking,Hco 1 Box 43,Denhoff,ND,58430,701-884-2743
"Thomas & Son Trucking, Inc.",739-21st St N,Fargo,ND,58102,701-261-3709
Dakota Feedyard Service,3041 63 Ave Se,Napoleon,ND,58561,701-754-2825
Riendeau Trucking,119 2nd Street Nw,Hillsboro,ND,58045,701-636-5866
Brindle Trucking,6395 7th Ave Se,Hazelton,ND,58544,701-782-4348
L B Trucking,Rt 2 Box 67,Rolla,ND,58367,701-477-3073
Larue Benz Drilling,9790 Hwy 200,Dunn Center,ND,58626,701-483-5076
St Mary's Trucking,2940 91 St Ave Se,Spiritwood,ND,58481,701-252-2167
J&j Crew Transportation,213 7 Ave Ne,Minot,ND,58701,701-852-2943
Jim Anderson Trucking,14881 58th St Se,Leonard,ND,58052,701-882-3417
Trenda Trucking,107 Parkview Circle,Grand Forks,ND,58201,701-746-9345
Raven Trucking,606 1/2 E Interstate Ave,Bismarck,ND,58501,701-663-1969
Molitor Trucking,Rt 2 Box 890,Hettinger,ND,58639,701-853-2587
Bjornstad Trucking,606 7th St,Walhalla,ND,58282,701-549-3824
Hulm Trucking,415 5th St South,Hague,ND,58542,701-336-7581
Thornton Trucking,920 41st St W,Jamestown,ND,58401,701-252-1345
Red River Service,2721 11th Avenue N,Fargo,ND,58102,701-232-5997
Rl Trucking,1900 Hwy 2 Bypass East,Minot,ND,58701,701-837-1112
Heck Trucking,2978 108 Ave Ne,Pekin,ND,58361,701-322-4444
Murphy Trucking,7875 106 St Ne,Sarles,ND,58372,701-697-5172
Lad Trucking,1020 University Ave,Grand Forks,ND,58203,701-775-8992
Dakota Transfer,6155 151st Ave Se,Leonard,ND,58052,701-281-2566
Double C Trucking,Rt 1 Box 99,Dunseith,ND,58329,701-263-4108
A & S Trucking,261 College St Sw,Valley City,ND,58072,N/A
Hannestad Transport,1667 136th Ave Ne,Hatton,ND,58240,701-543-3843
Newgard Trucking,Box 152,Edmore,ND,58330,701-644-2475
David Holman Trucking,Rt 1 Box 62,Clifford,ND,58016,000-000-0701
J & T's Trucking,Box 40,Maddock,ND,58348,701-438-2729
Voegele Transportation,233 Northland Est,Jamestown,ND,58401,N/A
Mike's Trucking,Rr3-box 449 A,Devils Lake,ND,58301,701-662-7939
Pat Burns Trucking,941 Mchugh Ave,Grafton,ND,58237,701-352-4697
Elvin Slaubaugh Trucking,7670 44th Ave Ne,Wolford,ND,58385,701-583-2534
Ron Selzler Trucking,1010 Breton Drive Unit B,Bismarck,ND,58503,701-530-2133
Nelson Trucking,1703 11th Avenue N,Grand Forks,ND,58203,701-775-0452
Strata Corporatrtionearthmovers Lakes Paving And Ready Mix,728 Red Dot Place,Grand Forks,ND,58201,701-792-3045
Plemel Trucking,Hcr1 Box 172,Starkweather,ND,58377,701-292-4235
Storbakken Trucking,2315 N Washington,Grand Forks,ND,58201,701-746-6253
L B Trucking,Rr 1 Box 58,Karlsruhe,ND,58744,N/A
Samuelson Trucking,7849 109 Th St Ne,Sarles,ND,58372,701-697-5124
Corey Hart,3439 Main Street,Chaseley,ND,58423,701-962-3460
Haman Trucking,9361 46th St Ne,Crary,ND,58327,701-398-3242
D & D Emerson Trucking,9378 144 Av Ne,Cavalier,ND,58220,701-265-4054
W T Sturn Trucking,B-3 Parktown Tr Ct,Mandan,ND,58554,701-663-1854
Engstrom Trucking,Rr 1 Box 22,York,ND,58386,701-583-2503
Shane Burns Trucking,15533 County Road 11,Grafton,ND,58237,701-352-3130
Meidinger Trucking,P O Box 16,Ashley,ND,58413,701-288-3621
Nowacki Contract Hauling,1220 Cherry St,Grand Forks,ND,58201,701-746-7234
Gunville Trucking,Box 861,Dunseith,ND,58329,701-263-4633
Pepper Fazekas Trucking,Rr 2 Box 23c,Saint Michael,ND,58370,701-766-4385
T & R Trucking,2601 15th St S Suite 7a,Fargo,ND,58103,701-281-1595
Gingerich Trucking,Rt 1 Box 36,Wolford,ND,58385,701-583-2571
"Perreault Construction, Inc.",795 Co Rd 21,Beulah,ND,58523,701-873-4516
Rodney Dean Brekhus,303 Main Po Box 83,Velva,ND,58790,701-388-7333
Rodger T Rosaaen,1009 Antelope Dr,Hazen,ND,58545,701-748-2874
Mark Korsmo,115 34th St Ne,Northwood,ND,58267,701-587-5569
Sos Heavy Haul LLC,500 Hwy 13 W,Wyndmere,ND,58081,701-439-9250
Triple C Express LLC,1121 39th Ave W,West Fargo,ND,58078,701-306-5158
"Gardner Farms, Inc.",14890 39th Circle Nw,Williston,ND,58801,701-774-1303
"Owen, Inc.",1751 93rd St Ne,Bismarck,ND,58501,701-226-3654
Moonlight Express LLC,153 Allen Dr,Lincoln,ND,58504,701-426-2231
J&k Hotshot,607 13th Ave West,Williston,ND,58801,701-571-7140
Meidinger Sales And Service,9950 Highway 10,Bismarck,ND,58501,701-255-4207
Asap Trucking,6950 92nd Ave Nw,Powers Lake,ND,58773,435-212-0737
Triple H Trucking,10998 5th St Nw,Killdeer,ND,58640,701-764-6471
Will Moline Trucking,10440 86th St Ne,Langdon,ND,58249,701-256-2337
Sherritt Trucking,15594 8th St,Blanchard,ND,58009,701-488-2774
Suwyapi Trucking,9201 N Project Rd,Burlington,ND,58722,405-283-0698
Old Dog Transportation,2123 16th Ave W,Williston,ND,58801,701-580-8317
Kcv Transport,8171 36r St Se,Jamestown,ND,58402,701-252-4275
Hiltner Trucking,502 D Parkway Dr,Burlington,ND,58722,701-721-2139
Tracey's Auto Transport,216 12th St South,Fargo,ND,58103,701-540-6916
Alltime Trucking Llp,1654 Pennsylvania Avenue,Bismarck,ND,58501,701-471-4582
Berry Farms,15624 Highway 200,Cartwright,ND,58838,406-480-4220
Thomas Trucking,322 3rd St Se,Stanley,ND,58784,208-241-8114
Terry Schander Construction,1821 3rd St North,Fargo,ND,58102,701-238-1848
Musland Farms,515 7th St,Edgeley,ND,58433,701-493-2041
Fisher Trucking,1112 32nd Ave Sw,Minot,ND,58701,701-794-3331
Tru Trucking,1223 1/2 West 2nd Street,Williston,ND,58801,701-570-5537
Bf Halvorson Trucking,421 15th Ave W,Williston,ND,58801,701-770-7109
Ram Trucking,141 3rd St S W,Watford City,ND,58854,701-444-3980
J D 2 Hotshot Service,5109 131st Ave N W,Williston,ND,58801,701-572-5445
Mikesspraying,2065thavenuewest,Crosby,ND,58730,701-834-2441
John & Susan Gudajtes Farms,15363 County Rd 15,Minto,ND,58261,701-248-3702
Jay Gudajtes Farm,15363 County Road 15,Minto,ND,58261,701-248-3144
Ctr Express,204 2nd Street Ne,Belfield,ND,58622,307-371-2831
Jky,3141 32nd St Sw Apt 2,Fargo,ND,58103,701-318-4326
Kellerman Lawn Care,954 Homestead Ct,West Frago,ND,58078,701-866-2088
Dp Services,3405 1st Ave West,Williston,ND,58801,170-177-0934
Kittelson Trucking,1112 4th St W,Williston,ND,58801,701-580-7070
Rall Ranch,7952 101st St,Forbes,ND,58439,701-357-7751
Outlaw Hauling Solutions,6664 59th Ave Se,Fredonia,ND,58440,701-485-3456
Mkz Trucking,911 1st St Ne,Devils Lake,ND,58301,701-230-2026
Larry's Trucking,3701 20th Ave West,Williston,ND,58801,801-505-1901
K & D Trucking,2901 34th Ave S Apt 165,Fargo,ND,58104,701-238-8659
Samuel Recycling,4425 31st Ave S Apt 214,Fargo,ND,58103,701-367-9848
Badlands Transports,502 Centennial Drive,Glenburn,ND,58740,928-358-6797
David Cross Trucking,206 Fifth Street Ne,Crosby,ND,58730,406-210-5052
Charlie Horse Trucking,5073 140th Ave Nw,Williston,ND,58801,573-298-3364
Gourneau Brothers,Bia Rd 21 Keplin Loop,Belcourt,ND,58316,701-477-3993
Bahr Transport,1019 Lake Ave,Bismarck,ND,58504,701-223-1929
"Rank In File Trucking, Inc.",1102 S Washington Street Suite 105,Bismarck,ND,58504,701-751-4582
Ideal Oilfield Solutions Llp,2203 36th Ter,Williston,ND,58801,701-339-8387
Keith Miller Trucking,108 3rd St,Milnor,ND,58060,701-680-2666
Marshall Trucking LLC,387 15th Street West,Dickinson,ND,58601,701-751-4582
Triple A Enterprises,111 1st Nw,Devils Lake,ND,58301,701-306-8423
Ireland Motor Friehgt,1114 2nd Ave Ne Apt 2,Jamestown,ND,58401,513-306-8993
Seven Bar Eleven Hot Shot Service,523 3 Ave Se,Dickinson,ND,58601,701-483-6707
C Bar J Trucking,202 Frontage Road,New Town,ND,58763,513-635-4048
Zander Transport,4540 Mckenzie Dr Apt 11,Mandan,ND,58554,701-390-3851
Wce Transport,601 3rd Ave Se,Mandan,ND,58554,701-721-2277
Lam Logistics LLC,1102 S Washington St Suite 100,Bismarck,ND,58504,701-751-4582
Fredericks Contruction,7592 7th Street Nw,Holiday,ND,58636,701-870-0129
Black Dog Trucking,946 29th St W,Dickinson,ND,58601,701-590-9110
Arrowhead Trucking LLC,1102 S Washington St Suite 100,Bismarck,ND,58504,701-751-4582
Will Haul & Transport,6160 Sky Lane,Bismarck,ND,58503,701-426-3045
Streich 2,2021 3rd Ave E,West Fargo,ND,58078,701-371-5769
Platinum Delivery Services LLC,1805 2nd Ave Sw,Jamestown,ND,58402,701-368-9193
Dasch Transport,2988 Ontario Lane,Bismarck,ND,58503,503-341-3362
Malt Trucking LLC,1011 4th St Ne,Watford City,ND,58854,360-470-3379
Great Northern Express LLC,1102 South Washington St Suite 100,Bismarck,ND,58504,701-751-4582
Those 1 Guys Hotshot,313 5th Ave Ne,Rolla,ND,58367,701-278-2144
Mustang Trucking,7905 64th Ave Sw,Leith,ND,58529,218-770-6345
Ew Trucking,132 3rdst Sw,Watford City,ND,58854,701-570-4930
B I T,2802 22nd Ave West,Williston,ND,58801,406-925-2547
Freedom Express,2009 East Main Ste D,West Fargo,ND,58078,701-630-2309
Rocking 22 Trucking,12087 18th St Se,Luverne,ND,58056,701-490-0395
Traditions Transport,919 S 7th Street Suite 503,Bismarck,ND,58504,212-494-9081
"Dakota Sunset, Inc.",2813 24th Ave S,Fargo,ND,58103,701-235-6787
Holmgren Trucking,306 3rd Ave Se,Kulm,ND,58456,701-647-2324
Dallas Alice Hotshot,102 B28 58th Lane,Tioga,ND,58852,907-529-4802
"M & M Services, Inc.",1906 East Broadway Suite F,Bismarck,ND,58501,701-751-4582
Not,683 7th St Sw,Halliday,ND,58636,435-590-5375
Huss Trucking,320 1st Ave Ne,Streeter,ND,58483,701-202-9648
Maple Nut Trucking,419 Juniper Dr,Bismarck,ND,58503,701-202-6319
"Snyder Transport, Inc.",222 2nd Ave Nw,Hazen,ND,58545,701-880-0544
Gabriel Transport LLC,904 34th Street,Northwood,ND,58267,619-846-7222
Johan Trucking LLC,387 15th St W,Dickinson,ND,58601,701-264-9899
C & S Farms,4625 Gates Dr,Bismarck,ND,58503,701-471-5054
Volk & Associates,1314 3rd Ave,S Fargo,ND,58104,509-496-7452
Dagman S Mkd,5050 29th St,New Salem,ND,58563,701-223-2552
Red River Implement,5602 S 35th Street,Fargo,ND,58104,N/A
Sam Gregg Trucking,11419 Hwy 2,Ray,ND,58849,406-360-0399
Quality Transport,627 3rd Ave Sw,Dickinson,ND,58601,701-225-1668
Ell Dirt Works LLC,4751 Highway 1804,Williston,ND,58801,701-572-8506
Edgewood Ranch,12787 County Rd 19a,Fordville,ND,58231,701-229-3318
Warren Contractors,6120 Hwy 8,Stanley,ND,58784,701-440-8621
Jim Hipner LLC,Po Box 181,Ross,ND,58776,701-509-6300
Ben Waddington,7796 106th Ave Sw,Regent,ND,58650,701-563-4849
Wolf Pack Transport,201 Central Ave,Finley,ND,58230,701-524-2338
Radar Runners Corp,12215 Hyw 66,Milton,ND,58260,701-496-3106
Rs,4949 16th Ave S Apt 115,Fargo,ND,58104,701-541-9513
Steve's Lawn Care,3436 50th St N,Reiles Acres,ND,58102,701-364-2827
"Corey's Construction, Inc.",700 Walders St Apt 4,Minot,ND,58703,425-308-5830
Skt Hotshot Delivery Service,615 25th Avenue Nw,Minot,ND,58703,701-340-9491
W D Petkau,4763 Clock Tower Ln S,Fargo,ND,58104,701-212-2791
Rmb Transport,2039 8th St Nw,Minot,ND,58703,701-340-7927
Cody Houser Trucking,421 Stevenson St Nw,Berthold,ND,58718,701-425-2865
Alabama Trucking,1220 Main Street,Williston,ND,58801,701-651-7992
Bakken Power,5632 Carolville Loop,Williston,ND,58801,540-966-2174
"Kellen Trucking, Inc.",1140 4th Avenue East,Dickinson,ND,58601,701-300-0387
S&btrucking,3701 4th Avenue West,Williston,ND,58801,916-764-1779
Noland Trucking,5295 139th Ave Nw,Williston,ND,58801,318-282-4574
Andy's Excavating,15307 52 1/2 St Se,Leonard,ND,58052,701-645-2547
S & Y Flatbed Services,15 Mountain View Street,Killdeer,ND,58640,701-690-5321
Aca Trucking,387 15th St West,Dickinson,ND,58601,623-399-3669
Gutter Topper Of Nd,311 2nd St,Riverdale,ND,58565,701-654-7694
Trailer Sales,102 4th St Nw,South Heart,ND,58655,701-290-5574
Lazy S Transport,40001 392nd St Ne,Arena,ND,58494,701-943-2673
Wildangel Express,153 Allen Drive,Lincoln,ND,58504,701-426-2754
Tnt Power Washing And Transportation,1119 University Dr 402,Bismarck,ND,58504,701-400-5582
Perkins Performance Products,3602 Hwy 2 & 52 West,Minot,ND,58701,701-509-1929
Veit Dredging,400 20th Ave Se,Minot,ND,58701,701-839-9476
Henry Tranport LLC,13580 59th St Northwest Lot E-11,Williston,ND,58801,352-636-1228
Dlm Trucking LLC,3800 Hwy 16,Beach,ND,58621,701-218-0061
Cutting Edge Enterprises,846 Central Ave North,Valley City,ND,58072,701-840-5281
Mmos,10240 103rd Ave Nw,Noonan,ND,58765,406-544-2180
Jlh Transport,705 6th St Nw,Mandan,ND,58554,701-667-2958
Sam's Hot Shot,714 3rd Ave E,Williston,ND,58801,701-651-3039
Huthcison Trucking,12262 38th Street North West,Watford City,ND,58854,701-842-3476
American Pro Services,107 18th Street East,Williston,ND,58801,541-609-8686
Herk's Hauling,7406 Sunnyside Street,Horace,ND,58047,701-388-1429
Retzlaff Trucking,5517 94th Ave Se,Marion,ND,58466,701-269-5066
Mobile Acs,212 Score Street,Ray,ND,58849,770-205-0218
Havin Fun Services,3550 175 Ave Ne,Baldwin,ND,58521,701-220-2703
High Palins Drifters Hot Shot And Oil Wells Services,11303 Hwy 1804,Ray,ND,58849,701-609-4892
Integrity Testing Services,2436 4th St West,Dickinson,ND,58601,701-483-0059
Galvan Trucking,204 Griggs Ave,Grafton,ND,58237,701-331-8890
Uzb Auto Transport,2100 29th South # 103,Grand Forks,ND,58201,763-772-7292
Minutemen Fuel Delivery,842-12th Avenue East,West Fargo,ND,58078,701-373-5141
Rj&b Trucking,425 Winther St,Ray,ND,58849,701-568-7362
Bar J Bar Trucking,110 Kenny St Box 15,Alamo,ND,58830,701-528-2016
Dp Farms,16247 31st Street Se,Harwood,ND,58042,701-371-2078
Versatile Energy Services,5000 7th Ave Sw,Minot,ND,58701,701-858-1869
Frenchy's,503 2nd Ave Ne,Mandan,ND,58554,701-426-8949
Matt Hendrickson Trucking,1360 32nd St S Apt #27,Fargo,ND,58103,701-500-9118
Jrs Moving Company LLC,102 4th Ave Sw,Belfield,ND,58622,701-290-3688
Chiron,121 Well St W Suite 916,Williston,ND,58801,801-921-0021
Marley Transport,1119 University Drive #1620,Bismarck,ND,58504,701-426-7694
Bar Lazy T Trucking LLC,2218 6th Ave Ne,Beulah,ND,58523,701-873-4633
Christopher C Lohman,6116 55th Ave S,Fargo,ND,58104,701-552-0784
Hegland Cattle Company,6216 31st Street Ne,Oberon,ND,58357,701-798-2767
Schmidt Trucking,227 Hill Street,Hazelton,ND,58544,701-527-8890
Jbgr Trucking,3812 23rd Court Rv 2,Williston,ND,58801,701-334-0158
Schanz Trucking,9697 Hwy 1,Langdon,ND,58249,701-370-0978
Two Brothers Trucking,1933 17th Ave Ne,Emerado,ND,58228,520-241-8785
North Bound Trucking,202 2nd Ave E,Rhame,ND,58651,701-279-6779
Michelson Trucking,3905 61st Street,Flasher,ND,58535,701-597-3410
Total Oilfield Rentals,1825 26th St Se,Minot,ND,58702,780-778-6222
Antilia Enterprises,808 11th St West,Williston,ND,58801,281-330-5116
Deadline Hotshot Solutions,608 53rd St E Apt 108,Williston,ND,58801,701-741-0397
Bradac Ranch,8005 175th Ave Sw,Marmarth,ND,58643,701-279-5715
Firebird Trucking,1059 Hwy 200,Killdeer,ND,58640,928-830-5777
Turbo Trucking,717 7 Street,Wyndmere,ND,58081,701-403-9733
Ducon Energy,212 4th St South Suite 106,Grand Forks,ND,58201,701-757-0284
Arth Farms,Pobox 245,Milnor,ND,58060,701-680-1761
Hj Trucking,429 N East Street,Hebron,ND,58638,801-633-5785
T Diamond J Transport,502 14 Street Nw,Mandan,ND,58554,701-202-0109
Yardman LLC,4106 45th St N,Fargo,ND,58102,701-361-5426
Jc's Long Horn Trucking,208 Railrode Ave,Carson,ND,58529,701-658-9101
Ptr,1416 11th St,Langdon,ND,58249,701-370-1785
Duke Ojaimor,602 11th Street,E Williston,ND,58801,860-710-1356
Jeanotte Tools,1579 Baywood Dr,West Fargo,ND,58078,701-540-1984
6517756767,11661 80th St Ne,Milton,ND,58260,651-775-6767
G&c Heuchert Farm,6867 County Rd 2,Grafton,ND,58237,701-352-1695
Ldm Trucking,5296 6th Ave North,Grand Forks,ND,58203,218-779-2589
C&d Trucking,3806 22nd Ave West,Williston,ND,58801,701-572-3647
L D Hill Trucking,2785 156th Ave Se,Amenia,ND,58004,701-347-5068
Nyren Transport,7276 14th St Nw Lot 8,Garrison,ND,58540,701-743-4900
Advanced Pressure Washing Services,4176 130th Rd Nw Lot #2,Williston,ND,58801,701-774-3187
Daddy's Pride,4805 San Juan Dr,Fargo,ND,58103,702-305-2293
Dmd Transport Service,3353 108th St Ne,Saint John,ND,58369,701-390-1007
Rusch Land And Cattle Company,1009 4th Ave Se,Hettinger,ND,58639,701-567-6626
Bakken Generator,2308 50th St W #2,Williston,ND,58801,701-609-0654
K&n Custom Ag Services,210 3rd St Se,Leeds,ND,58346,701-351-7930
Fargo Express,3160 33rd St S #308,Fargo,ND,58104,701-729-1008
Club Ride,4614 Amber Valley Pkwy,Fargo,ND,58104,701-478-2040
Farmer,8309 140 Ave Se,Milnor,ND,58060,701-427-5106
Onyok Transport,807 East Avenue A #2,Bismark,ND,58501,720-448-4915
Little Missouri Trucking LLC,4457 West River Rd,Medora,ND,58645,701-623-4897
Jtd Trucking,5916 Horseshoe Bend,Mandan,ND,58554,509-631-1440
Blue Bull LLC,1263 West High Street,Dickinson,ND,58601,605-848-1336
J D Hondl,11340 44th St Sw,Dickinson,ND,58601,701-225-6180
Hotshots Of America,615 Mitchell Ave N,Steele,ND,58482,701-989-0847
Harris Trucking,20 N 10th St,Wishek,ND,58495,701-321-3307
Triple H,5331 151st Ave Nw,Williston,ND,58801,701-651-3787
Peters Trucking,103 Tuttle Ave,Mandan,ND,58554,701-934-1489
Smg,12602 22m Street Nw,Watford City,ND,58854,701-842-2227
Gb Trucking,4510 Camden Loop,Bismark,ND,58503,701-214-0522
Altendorf Grain Express,745 12th St East,Grafton,ND,58237,701-248-3521
Lutz Trucking,12280 28th St Se,Valley City,ND,58072,701-840-8081
Custom Grain Cleaning,4102 Timberline Drive,Fargo,ND,58104,701-361-8958
Motor Carrier,211 2nd Ave,Hague,ND,58542,701-336-0330
5w Trucking,1830 104th Ave Sw,Manning,ND,58642,701-690-2517
Jamie Elsner Harvesting And Trucking LLC,9718 51 St Se,Marion,ND,58466,701-320-9901
Managing Member,1906 23rd St W,Williston,ND,58801,701-774-7627
Nam Industries,12621 22nd St Nw,Watford City,ND,58854,701-609-6715
B Trucking,1429 20th St S,Fargo,ND,58103,701-200-5416
K & T Transportation,6437 Kingswood Rd,Bismarck,ND,58503,701-400-2486
Lrh Trucking,57400 324th Ave Nw,Kenmare,ND,58746,208-317-3697
Arlyn's Insulation LLC,2515 58th Ave S,Fargo,ND,58104,701-232-3891
Marrah Mountian LLC,1104 Elm St Apt 211,Tioga,ND,58852,701-580-8770
Boutain Trucking,112 6th St Sw,Hankinson,ND,58041,701-403-4347
Travis Binek Dba Binek Golf Cars,962 24th St West,Dickinson,ND,58601,701-690-5451
Cgf Transport,1008 N 7th St Apt 6,Bismarck,ND,58502,605-848-2852
B S T,507 4th Ave Nw,West Fargo,ND,58078,701-368-9510
Travis Ryberg Hot Shot & Services,725 S 12th St Lot 213,Bismarck,ND,58504,701-595-3248
Northern Lights Chopping,2560 Hwy 21,Solen,ND,58570,701-445-7502
Husker Transport,8238 33rd Street Southeast,Jamestown,ND,58401,405-588-8999
Trusted Lines,137 Kennedy St,Watford City,ND,58854,618-604-1121
Double D Welding,308 Mckinkley Avenue,Bowbells,ND,58721,307-231-5736
Bender Auto Body,5021 39th Ave Nw,Mandan,ND,58554,701-693-6446
Hotshot,200 Main,Almont,ND,58520,701-202-3527
Hardy Farm,3860 170th Avenue Sw,Beach,ND,58621,701-872-4353
Snap On,2051 36th Ave S 115,Grand Forks,ND,58201,218-230-4752
"Kessler Delivery, Inc.",8556 Hihgway 2,Stanly,ND,58784,701-590-9326
Jbb Enterprises,14659 Highway 1408 Apt#5,Trenton,ND,58853,951-347-7667
Pitts Trucking,315 Main Street #695,New Town,ND,58763,701-609-6677
Furuseth Trucking,3065 40th Ave S Unit D,Fargo,ND,58104,701-793-1090
Enviroag Logistics,9231 66th Street,Edmore,ND,58330,701-230-1085
Saltar Trucking,805 Long Dr,Watford City,ND,58854,208-627-3738
East River Trucking,206 4th Street South,New Town,ND,58763,701-627-4500
Owner,228 Warrior Circle,Mandaree,ND,58757,208-740-4542
Northern Lights Energy Equipment,322 Violet,South Heart,ND,58655,701-290-6701
Grizzly Tools,605 8th Ave East,Williston,ND,58801,701-572-8378
Jk&j Trucking,5120 Hwy 2 E Lot 37,Minot,ND,58701,931-787-8758
J & F Lightning Deliveries,2410 Sw52,Dickinson,ND,58601,405-283-0698
Two B,13365 57th St Nw,Williston,ND,58801,701-774-5251
Gerry Rattei,5551 34th Ave Se,Napoleon,ND,58561,701-754-2875
B & B Excavation,27 W Lynmar Dr,Fargo,ND,58102,701-412-3971
Novaks,6901 135th Ave Sw,Minot,ND,58701,701-722-3767
Hunt Trucking,411 10th St W,Bottineau,ND,58318,701-201-0412
Mikkelson Farm & Harvesting,1387 122nd Ave Ne,Aneta,ND,58212-9307,701-524-1418
End Of The Trail Trucking,605 W Borchardt Avenue,Underwood,ND,58576-4326,701-462-8430
Gerhardt And Sons,3360 County Road 83,Mandan,ND,58554,701-250-0652
Shadow Industries,4237 147th Ave Nw,Williston,ND,58801,701-572-8846
Tuff-e Mfg,460 2nd Ave E,Carson,ND,58529-4106,701-622-3626
Glinz Farm,1059 Highway 5 Ne,Bottineau,ND,58318-7102,701-228-2922
D&r Trucking,101 8th Ave Sw Apt 307,Stanley,ND,58784,912-655-0680
Mix Trucking,704 Riverwood Dr,West Fargo,ND,58078,218-766-5114
"Capital City Culvert, Inc.",11251 84th Ave Ne,Bismarck,ND,58503,701-226-9994
K A R Transport,301 58th St W #461,Williston,ND,58801,909-307-2849
Cmt,361 E 2nd St,Dunn City,ND,58626,520-227-2908
Sandvig Bros,5750 147th Ave Se,Sheldon,ND,58068,701-882-3486
701 Trucking,239 2nd Street,Hoople,ND,58243,701-331-2640
Western Spirit Logs,300 E Central Ave,Ross,ND,58776,406-360-9575
Allserve,309 Madison St,Arnegard,ND,58835,307-680-8991
Rocking Diamond Ranch,6107 141 First Ave Nw,Williston,ND,58801,701-826-2939
Discovery Transport,307 North Bismarck,Hebron,ND,58638,208-358-2171
82nd Airborne Transportation,210 34th Ave E,West Fargo,ND,58078,701-200-8168
Bateman Trucking,40 1st Ave West Suite 302d,Dickinson,ND,58601,701-590-2280
Amishrebel Hotshot,815 College Dr Unit 1 A,New Town,ND,58763,701-500-4733
Bma Express,1804 39th St S Apt 210,Fargo,ND,58103,701-541-3566
Blueneck Truckers,321 1st St Nw,Hillsboro,ND,58045,701-430-1041
K&r Trucking,114 Ave B West,Napoleon,ND,58561,701-754-2851
Dillmann Trucking,604 Hillview Place,Mandan,ND,58554,701-663-9362
Harris Trucking LLC,3842 6th Ave E,Dickinson,ND,58601,816-548-5188
Otto Transport,709 S 25th St,Grand Forks,ND,58202,218-230-5373
One Source,587 15th St West Pmd 258,Dickinson,ND,58601,701-340-4782
Huston Trucking,220 E Rosser Ave,Bismarck,ND,58507,202-521-1493
Hollaway,1420 S Third,Carrington,ND,58421,701-652-2905
Dahly Trucking,400 24th St Nw,Minot,ND,58703,701-839-3448
Polries Trucking,153 53rd Ave Se,Sykeston,ND,58486,701-307-0339
Big Boy Transport Services,108 4th Street Sw,Watford City,ND,58854,218-820-8913
Smokin J Transport,1324 4th St Nw,West Fargo,ND,58078,701-213-5035
Cannon's Mobile Home Mover's,102 128th Ave Nw Lot #10,Minot,ND,58703,701-340-3449
Fisher Trucking,2792 58th St,St Anthony,ND,58566,701-400-6576
Ross Trucking,15840 23 Rd St Sw,Sentinel Butte,ND,58654-9591,701-872-4736
Lamothe Transportation Services,104 Division Ave North,Cavalier,ND,58220,701-331-4508
Kutina Trucking,104 Franklin Ave,Bowbells,ND,58721,507-459-0752
Elite Auto Transport Specialists,1900 21st Ave S Apt 302,Fargo,ND,58103,701-541-7857
Iii Kings Trucking,300 2nd Ave Sw,Leeds,ND,58346,701-381-2897
Tnt Transport,305 6th St E,Finley,ND,58230,701-789-9736
Jp Service,308 5th Ave,Plaza,ND,58771,701-497-3730
Brent Thompson Trucking,16779 16th St Ne,Buxton,ND,58218-9238,701-330-5532
Jim Fuller Trucking,10861 33rd St Nw,Keene,ND,58847,850-737-0243
Lakeview Ranch,934 85th Ave Ne,Glenfield,ND,58443,701-674-3242
Lefor Angus Ranch,4381 120a Sw,South Heart,ND,58655,701-677-5685
Farmer,7835 96 Ave Se,Lamoure,ND,58458-8805,701-883-4469
Red Dot Apiaries,301 Highway 8 South,Hettinger,ND,58639,701-567-4661
Lakeview Ranch,14006 97th St Sw,Bowman,ND,58623,701-574-3175
Lundeby Farm,113 Broadway,Osnabrack,ND,58269-0011,701-496-3361
Ketterling Grain,10130 26th Ave Se,Zeeland,ND,58581,701-423-5444
M & A Recycling,2511 Kirsten Lane S #102,Fargo,ND,58104,701-205-4987
Aqua Pure Water Solutions,416 Gateway Drive,Grand Forks,ND,58203,701-772-5221
Rick Nenow & Son,1301 6th Ave Sw,Jamestown,ND,58401,701-252-5797
D & T Bergh Farm,10011 138th Ave Se,Havana,ND,58043,701-680-7249
Alpha-seal,516 1st St S E,Lamoure,ND,58458,701-883-5644
Wce Oil Field Services,4141 38th Street Sw Ste E,Fargo,ND,58104,701-356-7303
E Schmidt,3721 Se 52nd Ave,Medina,ND,58467,701-486-3573
Heartland Pool Service,900 1st Street South,Strasburg,ND,58573,701-336-7214
Joe Blacks Bar & Grill,118 N 3rd St,Grand Forks,ND,58203,701-775-2017
Garrison Diversion,210 Hwy 200 Ne,Mcclusky,ND,58463,701-363-2950
L & M Logistics,9351 11th Ave Se ,Minot,ND,58701,701-340-9947
Wisness Seed Farm,12912 23rd St Nw ,Arnegard,ND,58835-9174,701-586-3763
Rlk Trucking,3718 12th St W,West Fargo,ND,58078,701-641-8027
Mac Tool Distributor,1583 Phillippi Rd,Manvel,ND,58256,701-696-2559
Colby Enterprises,4159 9th Lane North,Voltaire,ND,58792,701-838-9935
Weed Badger,5673 95th Ave S E,Marion,ND,58466-9718,701-778-7511
Sweetpro Feeds,207 14th Street,Walhalla,ND,58282-0069,701-549-3450
Christinson Scrap Metals,5th St Box 101,Saint Thomas,ND,58276,701-265-4387
Opland Farm,14000 212th St Sw,Des Lacs,ND,58733,701-725-4458
Gussiaas Brothers,885 76 Ave Ne,Carrington,ND,58421,701-674-3282
Lsi Truck Sales,3720 E Divide Ave,Bismarck,ND,58501,701-258-3517
Who's Your Honey Co,3797 Hwy 1806,Mandan,ND,58554,701-663-0342
Fhm Equipment,2701 Twin City Drive,Mandan,ND,58554,701-667-9364
A L I Transport,805 E Main Ave Unit 4,West Fargo,ND,58078,507-271-0668
Platinum Trucking,200 Alice Ave ,Tioga,ND,58852,701-339-5137
"Ventura Logistics Partners, LLC",234 9th St E ,Dickinson,ND,58601,701-690-3098
A & B Trucking,802 25th St N,Fargo,ND,58102,218-422-5315
Tc Transportation,502 1st St N,New Town,ND,58763,770-710-5398
1 Earth Materials LLC,216 1st St Ne,Hillsboro,ND,58045-4511,701-436-6646
2 Brother's Moving,551 1st Street East,Dickinson,ND,58601,701-590-1250
2 Crow Transport LLC,417 6th Ave Ne,Hazen,ND,58545,701-421-0170
2 Gates Trucking LLC,8088 Hwy 30,Mylo,ND,58353,701-550-9632
2 Guys Freight LLC,1823 9th Ave N,Grand Forks,ND,58203,701-213-1392
2 Js Eli Trucking LLC,116 9th St W,Bottineau,ND,58318,701-871-7749
2 Kool Trucking LLC,115 5th St N,New Town,ND,58763,701-580-1615
2 Pint Express LLC,13812 60th St Nw,Williston,ND,58801,712-209-3729
2 Weekes Trucking LLC,6225 91st St Ave Nw,Ross,ND,58776,208-552-3345
23 Trucking LLC,1351 Mike St Apt 200,Dickinson,ND,58601,385-888-1925
24 7 Propane Cylinders Home Refill Services LLC,12621 22nd Street,Watford City,ND,58854,701-226-1043
24-7 365 Leasing LLC,1001 15th Ave Sw,Watford City,ND,58854,740-298-2306
24-7 Energy Services,12621 22nd St Nw,Watford City,ND,58854-9206,701-269-9011
24-7 Energy Services,204 N Main St Pmb 275 Pmb 275,Watford City,ND,58854-7124,701-269-9011
2luckytrucking LLC,809 Reclamation Dr Apt 312,Williston,ND,58801,786-537-7964
2nosam Transport LLC,341 Adeline Dr,Stanley,ND,58784,701-484-1016
Capital Well Services,21 2nd Street West,Williston,ND,58802,701-572-4088
"3-d Trucking, Inc.",4910 153rd Ave Nw,Williston,ND,58801,701-875-4214
316 Transport LLC,3108 3rd Ave E Apt 218,Williston,ND,58801-3086,909-239-7533
"32 Below, Inc.",1216 5th Ave Ne,West Fargo,ND,58078,701-526-1732
360 Logistics LLC,338 Main St,New Town,ND,58763,206-953-0847
3c Hauling LLC,3111 3rd St N,Fargo,ND,58102,218-639-8102
3d Hotshot Service LLC,1649 103rd St Ne,Bottineau,ND,58318,701-263-4614
A & L Truck Sales,115 Main Street Ne,Bowbells,ND,58721,701-377-4000
A & L Trucking,101 Prairie St,Portal,ND,58772,208-851-8349
Cal's Ice Service,227 3rd St Se,Mayville,ND,58257,701-786-2310
A A Trucking LLC,4242 9th Avenue Cir S Apt 12,Fargo,ND,58103,701-730-5028
A Bros Transport LLC,3945 Highway 8 Unit 216a,New Town,ND,58763-9587,701-651-0295
A D C Transport,3801 S 11th St Unit A,Grand Forks,ND,58201,405-283-0698
"A H Newman, Inc.",Rr 1,Clifford,ND,58016,701-488-2778
"A H Services, Inc.",109 Main Ave S,Mooreton,ND,58061,701-274-8816
"A J Transportation, Inc.",331 23rd Street North,Fargo,ND,58102,701-293-3434
"A K Transport Services, Inc.",17075 Ctr 10,Moorton,ND,58061,701-274-8901
"A Line Builders, Inc.",1202 1st St N,Fargo,ND,58102,701-361-8887
A Plus Prairie Transport Llp,118 Broadway Ste 506,Fargo,ND,58102,701-491-8275
A S Portables LLC,13357 57th St Nw,Williston,ND,58801,701-580-6240
A S Trucking Company,Rt 2 Box 80,Hillsboro,ND,58045,701-436-5004
A Team,5204 105th Street Nw,Tioga,ND,58852,702-604-3665
A Team Transport LLC,2441 161st Ave Sw,Sentinal Butte,ND,58654,701-872-4850
"A W Diesel Service, Inc.",15 Highway 13 E,Gwinner,ND,58040,701-678-5118
A&a Mobile Transport LLC,10676 11th Street Sw,Killdeer,ND,58640,701-573-4656
A&c Precision Co LLC,1119 14th St West Apt 111,Dickinson,ND,58601,701-590-9372
A&c Transport LLC,4071 34th Avenue S Apt 204,Fargo,ND,58104,701-730-6982
A&d Moving,2819 Umber Crt S,Fargo,ND,58104,218-329-3177
A&j Oil Field Solutions LLC,124 Park Ln Apt 304,Killdeer,ND,58640-8510,701-300-4625
A-1 Eagle Trucking LLC,33 3rd Street South,New Town,ND,58763,661-803-3337
Sam,413 3rd Ave,West Fargo,ND,58078,701-281-1001
A-1 Towing LLC,2183 Sommer Dr N,Mandan,ND,58554,701-751-4352
"A-3 Trucking, Inc.",900 Main St,Antler,ND,58711,701-267-3367
A-jetnour Transportation LLC,2215 32nd St W Apt 112,Williston,ND,58801,208-703-9609
A-lot Cargo Services LLC,504 2nd Ave Sw Apt 104,Hillsboro,ND,58045,214-810-6902
A1 Express LLC,1621 University Dr S Ste 226,Fargo,ND,58103,701-730-8223
A1a Transport 1,3809 22 Ave W,Williston,ND,58801,760-576-9167
A2b Transport LLC,1510 Palomino Rd Ne,Minot,ND,58703,701-720-9901
A2z Oil Field Trucking,315 4th St Se,Stanley,ND,58784,701-629-5242
Aa Logistic LLC,1625 7th St N,Fargo,ND,58102,701-552-2385
Aa Trucking,Rr 1 Box 259,Columbus,ND,58727,701-939-7211
Aaa Stars Logistics LLC,2150 32nd Ave S Suite G,Grand Forks,ND,58201,701-740-8466
Aalund Farm,210 4th Ave W,Sherwood,ND,58782,701-459-2837
"Aarmac Transport, Inc.",1316 Tuxedo Rd,Minot,ND,58703,435-669-6364
Aaron Abrahamson,10734 31st Ave,Dunseith,ND,58329,701-263-3761
Aaron Bradley Nelson,941 9th St Ne,Thompson,ND,58278,701-739-7379
Aaron Skarsgard,406 5th Ave Sw,Stanley,ND,58784,701-628-1055
Aaron Thompson,8920 32nd Ave,Rolette,ND,58366-8030,701-228-4145
Triple A Propane,Main Street,Mc Gregor,ND,58755,701-546-4581
Ab Trucking LLC,111 18th St S #16,Fargo,ND,58103,701-639-0878
Abco Recycling LLC,2020 N University Ave,Williston,ND,58802,701-580-8741
Jees Transport,937 44th St #304,Fargo,ND,58103,970-779-1102
Fargo Transport,4333 15th Ave S Apt 136,Fargo,ND,58103,701-893-6098
Abdinasir Trucking LLC,726 23rd St S Apt 69,Fargo,ND,58103,612-286-6003
Ola Trucking,512 45th St S Apt 205,Fargo,ND,58103,701-793-6612
"Abele Transport, Inc.",2600 S 34th St 119,Grand Forks,ND,58201,701-787-0096
"Abentroth Distributing, Inc.",16969 - 8th St Ne,Cummings,ND,58223,701-430-0262
Aber-grain Co,206 1st Ave E,Abercrombie,ND,58001,701-553-8737
Abes LLC,2333 99th Ave Se,Wimbledon,ND,58492,701-789-0778
Abid Enterprise LLC,4501 19th Ave Sw,Fargo,ND,58103-7701,707-805-2306
"Able Transportation, Inc.",1415 West Gateway Drive #2,Fargo,ND,58103,N/A
Abou Trucking LLC,2705 27th St W Apt 113,Williston,ND,58801-9558,207-272-3549
Aboubakar S Coulibaly,212 4th St S,New Town,ND,58763,206-920-1307
"Abrasives, Inc.",4090 Hwy 49,Glen Ullin,ND,58631-9742,701-348-3610
Abs Transport LLC,2493 27th Ave S Apt 710,Grand Forks,ND,58201,617-669-5445
Absolute Energy Systems LLC,708 1st Street,New Town,ND,58763,623-262-1509
Absolute Fence & Decks,1106 44th Ave W,West Fargo,ND,58078,701-238-1669
Abstract Logistics LLC,208 S 4th St,New Salem,ND,58563,701-220-3098
Abt Brokerage,1103 45th Ave. N.,Fargo,ND,58102,701-478-4200
"Abx, Inc.",692 Sommerset Ln,West Fargo,ND,58078,701-282-3149
"Ac Flaagan, Inc.orporated",304 South Park Street,Northwood,ND,58267-4308,701-367-9321
Accel Fusion LLC,387 15th Street West #278,Dickenson,ND,58601,202-521-1484
Accelerated Transportation LLC,4801 11th Ave W Apt 311,Williston,ND,58801-5391,435-840-2272
Access Relocation,3401 E Rosser Ave,Bismarck,ND,58501,701-258-7777
"Access Transportation Services, Inc.",410 Prairie Ave.,Center,ND,58530,701-794-3330
Acclaim Trucking LLC,3979 86 Av Nw,New Town,ND,58763,719-243-6099
Ace Hotshot LLC,703 7th St W,Williston,ND,58801,701-651-2975
Ace2go Logistics LLC,1333 37th Ave Se,Minot,ND,58701,424-297-2277
"Action Electric, Inc.",1216 South Main,Dickenson,ND,58601,701-483-6416
Acto Transportation LLC,19 8th St S #828,Fargo,ND,58103,470-451-8547
Acv Trucking,2801 39 1/2 Ave N,Fargo,ND,58102,701-232-7805
"Acx Trucking, Inc.",3538 11th Ave N Apt 6,Grand Forks,ND,58203,952-261-4123
No Limit Trucking,1414 5th Ave S.,Fargo,ND,58103,651-308-2382
Adam Noskoviak,227 B Street,Dickinson,ND,58601,715-413-0510
Adam William Cotton,1218 Morningside Drive,Casselton,ND,58012,701-202-3295
Adamen Global Logistic LLC,2550 15th St S Apt 11a,Fargo,ND,58103,701-630-9301
"Adams, Inc.",2131 16th St N,Fargo,ND,58102-1840,701-277-9422
Adams Logistics LLC,4570 49th Avenue South #316,Fargo,ND,58104,507-291-4223
"Adams Trucking, Inc.",8389 29th Ave Nw,Lansford,ND,58750,701-263-1835
"Adams Trucking, Inc..",8389 29th Ave Nw None ,Lansford,ND,58750,701-263-1835
Adams Ventures LLC,1200 N 47th St Ste B,Grand Forks,ND,58203,701-847-2685
Adoneez Hotshots LLC,2117 Parkway Dr,Williston,ND,58801,602-689-5959
Adr Logistics,1137 9th St N,Fargo,ND,58102,701-343-8721
"Advance Electric, Inc.",715 7th Ave N,Grand Forks,ND,58203,701-746-5222
"Advanced Ag Construction, Inc.orporated",420 Main Street,Horace,ND,58047,701-281-6050
Advanced Business Methods,1515 13th Ave E,West Fargo,ND,58078,701-282-3151
Advanced Spray Foam Dba Steves Sprayfoam Insulation,1316 11th Ave Se,Watford City,ND,58854,406-471-6059
"Advanced Striping, Inc.",4711 6th St W,West Fargo,ND,58078,701-200-4898
Advanced Welding Solutions,3153 111e Ave Sw,Dickinson,ND,58601,701-260-0041
Adventure Rv,1220 Main Ave West,West Fargo,ND,58078,701-277-1165
"Aemsco, Inc.",205 46th Avenue Ne,Minot,ND,58703,701-852-1876
"Aerial Timber Applicators, Inc.",Airport Road 90 114 Ave Ne,Cooperstown,ND,58425-0486,701-797-3612
Aerie Ventures LLC,19 8th St S Ste 836,Fargo,ND,58103-1804,561-596-0126
"Aero Spraying Service, Inc.",4622 2nd Ave W,Williston,ND,58801,701-572-3514
Afa Transportation,1336 25th Ave S Ste 203,Fargo,ND,58103,701-318-2885
Affordable Towing Service LLC,1607 5th Ave W,Williston,ND,58801,701-572-4233
"Afm Enterprises, Inc.",Highway 2 West,Lakota,ND,58344,701-799-5539
Afra Transport LLC,122 23rd St S Suite F2,Fargo,ND,58103,701-799-8504
"Afrah Transport, Inc.",2602 Arrowhead Rd S # 103,Fargo,ND,58103,651-500-2425
"Ag Depot, Inc.",1160 12th Street Ne,Grand Forks,ND,58201,701-772-9236
Ag Warehouse Transport LLC,Po Box 175,Sharon,ND,58277,701-238-7574
Fm Logistics Company,6103 55th Ave S,Fargo,ND,58104,701-809-6930
Agas LLC,9982 37th St Nw,New Town,ND,58763,507-398-7913
Agassiz Drain Tile LLC,942 3rd St Se,Mayville,ND,58257,701-788-7473
"Agassiz Excavating, Inc.",14854 82nd Street Northeast,Saint Thomas,ND,58276,701-257-6517
Northern Plains Rail Services,100 Railroad Ave,Fordville,ND,58231,701-229-3330
Agassiz Underground LLC,3100 41st S,Fargo,ND,58104,701-356-0539
Agc LLC,2600 South 34th Street Apt 211,Grand Forks,ND,58201,218-289-3325
Agco-amity Jv LLC,17885 Hwy 13,Wahpeton,ND,58075,701-642-2621
Agility Logistics LLC,1400 42nd Street West Apt 106,Williston,ND,58801,701-570-2228
Agility Resources LLC,427 4th St N,New Town,ND,58763-4046,520-247-5979
Agm Trucking LLC,19 8th St S # 855,Fargo,ND,58103-1804,701-414-6522
"Agri Resources, Inc.",5621 53rd Ave Sw,Fargo,ND,58104,701-277-3221
"Agri-cover, Inc.",3000 Highway 281 Se,Jamestown,ND,58401,701-251-1427
"Agritec, Inc.",205 Miller Road,Deering,ND,58731,701-728-6614
Agritimes Transport LLC,110 28th St Sw,Minot,ND,58701,701-720-4387
"Agrivision, Inc.",1 Main Street,Sarles,ND,58372,701-697-5229
Agroline Ltd,310 Hwy 9,Wimbledon,ND,58492,701-435-2468
"Agrovalley, Inc.",6950 168th Ave Se,Colfax,ND,58018,701-372-3782
"Ah, Inc.",9228 1st St Sw ,Dunn Center,ND,58626-9655,701-548-8595
Ahm Express LLC,4802 16th Ave S Apt 305,Fargo,ND,58103,517-885-5396
Aim Transport LLC,1425 Roughrider Blvd Apt 310,Dickinson,ND,58601,202-521-1493
Aime Byiringiro,3602 7th St W Apt 2107,Williston,ND,58801-4182,312-888-6546
"Air Freight Delivery, Inc.",2218 Westward Dr,Grand Forks,ND,58201,701-780-0059
"Air Mechanical, Inc.orporated",1914 4th Ave Nw,West Fargo,ND,58078,701-234-9596
Aj Hotshot Llp,920 15 Ave Se,Minot,ND,58701,701-858-8032
Aj Logistics LLC,2315 32nd St W Apt 309,Williston,ND,58801,949-278-3364
Aj Transport LLC,103 Winther St,Ray,ND,58849,423-351-3143
Ajd Remote Delivery And Recovery LLC,16301 55th St Ne ,Glenburn,ND,58740,701-334-6775
Ajs Trucking LLC,2109 60th Ave S,Fargo,ND,58104,701-793-2431
"Al's Pumping Service, Inc.",1231 6th Avenue West,Williston,ND,58801,701-859-8540
Alamo Country Express LLC,7578 128th Ave Nw,Alamo,ND,58830,701-570-4093
Al Andres Trucking,2112 56th Ave Se,Woodworth,ND,58496,701-752-4404
Alan Itten,406 Brander St Apt 1,Bottineau,ND,58318,701-871-9920
Albaugh Enterprises LLC,5036 Jackson St,Williston,ND,58801,701-371-5546
Albaugh Oilfield Services LLC,523 Cherry St,Grand Forks,ND,58201,701-213-6809
"Albers Sales Leasing, Inc.",3354 Saratoga Ave,Bismarck,ND,58503,701-223-8000
Carton Excavating,106 Hwy 32 East,Forman,ND,58032,701-724-3751
Ald Trans LLC,1402 42nd St W Apt 208,Williston,ND,58801-7540,701-917-3261
Derun Transfer,825 43 Street Se,Minot,ND,58701,202-521-1493
Alert Transport LLC,8060 116 Ave Se,Crete,ND,58040,701-753-7401
Amistydegast Enterprise,1098 Jerry Lane Unit 2,Dickinson,ND,58601,682-800-9200
Alexis Fuel Co,3003 32nd Ave S Ste 240,Fargo,ND,58103-6118,715-505-6455
"Alexis Trucking, Inc.",1050 26th St W,Dickinson Nd,ND,58601,715-505-6455
Pony Express Transport,1624 13 1/2 Street Sw,Minot,ND,58701,701-833-8670
Alfred Rose,306 Highway 12 West,Hettinger,ND,58639-8503,701-567-2191
Sherlock Excavating,3591 11th Ave Ne,Drake,ND,58736,701-465-3264
Aliaksandra Trucking LLC,92 2nd St E,Dunn Center,ND,58626-9730,701-690-6831
Alil Elfija Trucking LLC,4140 4th Ave S Apt 1103,Fargo,ND,58103,701-561-1745
Alis Trucking LLC,1325 27th Street Se,Minot,ND,58701,701-720-0300
All About Moving,830 South 48th Street #10,Grand Forks,ND,58201,701-772-4100
"All American Truck Brokerage, Inc.",5527 Hwy 85,Williston,ND,58801,701-570-0846
"All American Trucking Hotshot, Inc.",5527 Hwy 85,Williston,ND,58801,701-570-0846
"All Day Trucking, Inc.",2721 Hwy 281 S,Jamestown,ND,58401,701-269-2502
"All Freight, Inc.",1345 5th Ave N,Fargo,ND,58102,701-298-0825
"All In Trucking, Inc.",1106 18th Street West,Williston,ND,58801,701-570-1193
All Nations Energy LLC,11085 32e St Sw,Dickinson,ND,58601,701-570-4920
"All New Gutter Service, Inc.",474 45th Street South,Fargo,ND,58103,701-293-5310
All Out Mr LLC,3402 4th Ave S,Fargo,ND,58103,619-496-8099
"All Season Motorsports, Inc.",2205 Sheyenne St,West Fargo,ND,58078,701-282-2336
All State Transport LLC,2600 S 34th St Apt 118,Grand Forks,ND,58201,701-557-2265
"All Weather Well Service, Inc.",3111 1st Ave W,Williston,ND,58801,701-570-3163
All-in Service LLC,803 Hwy 10 E,Belfield,ND,58622,701-575-8248
"All-terrain Grounds Maintenance, Inc.",4663 13th Ave N,Fargo,ND,58102,701-280-3125
Johnson Trucking,107 2nd Ave Sw,Bowman,ND,58623,605-877-1067
Ads Trucking & Rental,6822 N Star Acres Rd,Bismarck,ND,58503,701-258-5838
A J Hodges Trucking,201 S Marks St,Douglas,ND,58735,701-529-4435
Olson Trucking,6555 8th St Ne,Carrington,ND,58421,701-652-1020
A Livingston,915 Burdick Expy W,Minot,ND,58701,701-340-0906
Allard Trucking LLC,602 4th Ave E,Williston,ND,58801,701-570-0955
Alldax Transit LLC,1156 Donna Ln Apt 105,Dickinson,ND,58601,701-264-9091
A & C Berg And Sons,3264 Johnstown St,Johnstown,ND,58235,701-869-2320
Gallagher Trucking,110 Roberts Avenue Ne,Fessenden,ND,58438,701-547-3285
Allen Kent Services LLC,217 24th St Nw,Minot,ND,58703,701-721-7223
Kunze Livestock,246 6th Ave Ne,Valley City,ND,58072,701-490-1255
Schulz Farm,8044 87th Ave Sw,Mott,ND,58646-9742,701-824-2057
Arm Enterprise,5254 28th St Ne,Maddock,ND,58348-9100,701-438-2158
Allen Ressler Trucking,1000 14th St Nw,Mandan,ND,58554,701-663-0946
Allen Walz Trucking,A 13 Hubner Trailer Court,Oakes,ND,58474,701-742-3147
Alliance Oilfield Logistics Corporation,301 58th St W Suite 587,Williston,ND,58801-7217,406-250-0274
Alliance Trucking LLC,5120 12th St Se,Bismarck,ND,58504,720-878-4590
Alliance Trucking LLC,2501 4th Street West Unit103,Dickinson,ND,58601,602-405-0132
Alliance Valley Bean LLC,3792 Elevator Road,Larimore,ND,58251,701-343-6363
Allied Agronomy LLC,109 Industrial Park Ste 1,Edgeley,ND,58433,701-493-2680
"Allied Beet Service, Inc.",18065 79-1/2 St Se,Wahpeton,ND,58075,701-642-5787
Allied Energy,109 Industrial Park,Edgeley,ND,58433,701-493-2266
Alltime LLC,641 3rd Ave Se,Dickinson,ND,58601-6016,435-817-6037
A&c Berg And Sons,7471 104th Ave Ne,Edmore,ND,58330,701-644-2258
Alpha Logistics LLC,3330 29th St W Apt 303,Williston,ND,58801,701-651-7357
Alpha Vera Trucking LLC,3421 32nd St S Apt 301,Fargo,ND,58104-8889,401-442-5691
Alphaone Hotshots & Transport LLC,3701 7th St W #215,Williston ,ND,58801,701-300-0486
"Alrighty Services, Inc.",1903 50th St W,Williston,ND,58802,720-585-6282
Als Hotshot LLC,11640 4l St Sw,Killdeer,ND,58640,530-310-1931
A L S Trucking,1510 14th St S,Fargo,ND,58103,701-306-7670
Alsager Ranch - Josh Alsager,446 Elm Street,Kindred,ND,58051,701-428-9091
Alsen Farmers Elevator,Main Street,Alsen,ND,58311,701-682-5156
"Altendorf Express, Inc.",County Road 15,Minto,ND,58261,701-248-3003
Altendorf Brokers,County Rd 15,Minto,ND,58261,701-248-3003
"Altendorf Trucking, Inc.",County Road 15,Minto,ND,58261,701-248-3204
"Alternative Wrecker Service, Inc.",11091 33rd Street Sw,Dickinson,ND,58601,701-225-1461
"Alton Hot Shot Service, Inc.",14029 Prairie Ln,Willistion,ND,58801,701-609-1308
"Alton Hot Shot Service, Inc.orperated",2114 Prarie Road,Williston,ND,58801,701-570-2422
"Altrans, Inc.",3336 123rd Avenue Se,Oriska,ND,58063,701-845-2172
Alva Express,Hwy 85 North,Williston,ND,58802,701-580-7941
Alvin F Thomas Trucking,9105 56th St Ne,Devils Lake,ND,58301,701-230-1376
Alycia Bilbrey,2524 Skyline Drive,Minot,ND,58703,701-721-3332
Alyeska Transport LLC,700 19th Ave Se,Minot,ND,58701,509-675-0769
Am Pm Trucking LLC,5 Irma Ct,Minot,ND,58703,701-818-4356
Amaexpress LLC,122 23rd St S Ste F3,Fargo,ND,58103,614-787-9300
Amberline Transportation LLC,401 Nelson Dr,Horace,ND,58047,701-282-2544
American Bean LLC,101 1st Avenue,Petersburg,ND,58272,701-345-8264
"American Casing & Equipment, Inc.",2706 West Front Street,Williston,ND,58801,701-572-4573
American Crystal Sugar Company,8152 Hwy 44,Drayton,ND,58225,701-454-3326
"American Energy Logistics, Inc.",387 15th Street West Suite 107,Dickinson,ND,58601,701-202-2414
"American Enterprises, Inc.",3155 44th Ave N,Fargo,ND,58102,701-238-0496
American Express Hub LLC,33 S 3rd St Ste D,Grand Forks,ND,58201,701-787-1876
American Fast Express LLC,4302 13th Ave S #140,Fargo,ND,58103,612-499-7928
"American General Contractors, Inc.",3627 117th Avenue Se,Valley City,ND,58072,701-845-0225
American Oil Field Services LLC,8117 59th St Nw,Stanley,ND,58784,719-491-1178
American Patriot Trucking LLC,6224 Nw 89th St,Ross,ND,58776,785-737-8063
"American Pioneer Co, Inc.",460 West Ute Ave,Grand Junction Co,ND,58843,970-234-0646
American Pollinating Services LLC,5700 Gateway Drive Unit 12,Grand Forks,ND,58201,701-330-2737
Outlet Recreation,2249 Main Ave E,West Fargo,ND,58078,701-478-6699
"American Truck & Equipment, Inc.",4606-4th St W,Williston,ND,58801,701-572-2812
American Well Service Llp,11 West Division St Ste 201,Kenmare,ND,58746,701-818-7116
Americas Energy Transport Company LLC,1898 8th St West,Dickinson,ND,58601,858-342-8059
"Ameritest, Inc.",905 30 St Nw Bldg 1,Minot,ND,58703,701-858-1718
Knife River Materials,4658 7th Ave N,Fargo,ND,58102,701-232-2594
Amir Transportation LLC,2550 15th St S Apt 27,Fargo,ND,58103,612-999-3577
Amirsuccess Ventures LLC,3105 2nd Ave E Apt 301,Williston,ND,58801-2970,347-820-4498
Amm Transport LLC,610 Ryan St,Munich,ND,58352,701-370-3733
Ammu Transport LLC,516 19th St Sw Apt 5,Jamestown,ND,58401,704-241-3565
Amp Field Services LLC,735 3rd Ave W,Dickinson,ND,58601,702-302-7700
Amz Hauling LLC,2301 8th Avenue East,Williston,ND,58801,701-774-3776
Anchor Up Trucking LLC,9722 39th St Nw,New Town,ND,58763,619-410-2742
Anchors Hotshot Services,6224 89th Ave,Ross,ND,58776,970-980-8116
Anderson Arneson Trucking LLC,13545 101 St Se,Havana,ND,58043,701-724-6498
"Anderson Brothers, Inc.",311 Main Street,Edgeley,ND,58433,701-493-2241
Anderson Harvesting & Trucking LLC,402 4th Ave,Starkweather,ND,58377,701-292-5700
"Anderson Western, Inc.",1707 Yegen Road,Bismarck,ND,58504,701-222-3550
Andre Jordheim Brent Jordheim,2090 3rd Ave W,Dickinson,ND,58601,701-225-9614
Gonzalez Trucking,4553 Domingo Rd S,Fargo,ND,58103-1006,701-388-3777
Andres Martinez And Son Trucking,14851 60th Street Ne,Minto,ND,58261,701-741-2056
Andres Trucking,4393 47 Ave Se,Medina,ND,58467,701-327-2180
Double A Trucking,2003 Dublin Lane,Williston,ND,58801,701-770-8991
Andrew's Trucking,2919 26th St W Apt 109,Williston,ND,58801,570-989-2558
Andrew Kessel,2702 126th Ave Sw,Belfield,ND,58622,701-290-9558
Kouba Trucking,Mcelwain Trailer Court Lot 71,Max,ND,58759,701-389-2889
Andrew L Terry,R R 1 Box 103c,Emerado,ND,58228,701-594-2117
Andrew Rickford Trucking,205 Main St,Jessie,ND,58452,701-789-1083
Andrew Smith,3510 165th Av Sw,Beach,ND,58621,701-872-3248
Ptr,1002 9th Ave,Langdon,ND,58249,701-370-2106
Andy Boe Trucking LLC,1103 45th Ave N,Fargo,ND,58102,701-478-4200
Andy Booke Trucking,17320 County Road 6,Wahpeton,ND,58075,701-640-9960
Andy Moe Trucking,15900 35th Street Sw,Sentinel Butte,ND,58654,701-872-4131
Washburn Trucking,3877 87th Ave Nw,New Town,ND,58763,435-219-0712
Cuban Truck,301 58th Street W Suite # 150,Williston,ND,58801,786-359-6347
Triple Crown Transport,180 37th St. Ne.,Balfour,ND,58712,701-465-3390
Angels Wing Trucking And Logistics,4243 9th Avenue Cir S Apt 314,Fargo,ND,58103,701-238-1315
Anhorn Trucking,108 Brewster,Harvey,ND,58341,701-324-2704
Plus One Transport,16625 18th St Se,Gardner,ND,58036,701-484-5394
"Antelope Creek Trucking, Inc.",5801 Lake Shore Est 11b,Beulah,ND,58523,701-870-1181
Country Motors Towing,11360 44th Street Sw,Dickinson,ND,58601,701-290-3084
Anthony Hendrickson,201 1st Ave W,Bisbee,ND,58317,701-656-3434
Anthony L Mock,5665 22nd Ave Se,Kintyre,ND,58549,701-332-0909
Am Loeppky,229 7th St N Unit F,West Fargo,ND,58078,701-361-9307
"Antler Oilfield Service, Inc.",8199 58th St Nw,Stanley,ND,58784,701-629-1870
Aok Truss Services LLC,13386 53rd X Court,Williston,ND,58802,360-219-6971
Apache Hotshot LLC,1351 7 1/2 St E,West Fargo,ND,58078,701-394-6016
"Apex Real Estate, Inc.",1906 29th Street West,Williston,ND,58801,303-670-2220
Apex Transport LLC,409 N 24th St,Bismarck,ND,58501,701-425-5886
Apex Trucking,1413 6th Ave Se,Dickinson,ND,58601,435-232-2821
Benco Equipment,4600 Rifle Range Dr,Bismarck,ND,58504-7715,701-221-4217
"Api Distribution, Inc.",701 Channel Drive,Bismarck,ND,58501,701-258-9905
Apolive Logistics LLC,317 16th Ave Ne Apt 210,Devils Lake,ND,58301-3447,701-681-9614
Aporia Transport,5112 16th Ave W #127,Williston,ND,58801,304-646-6448
Aqua Transport LLC,1156 21st Street West #213,Dickinson,ND,58601,701-541-2159
Arayas LLC,1030 W Turnpike Ave Apt 304,Bismarck,ND,58501,701-609-3822
Arc Ace Welding Fabrication LLC,634 E Broadway Ave #1453,Williston,ND,58801,701-389-0264
Arc Tech,6831 2nd Ave Circle East,Williston,ND,58801,701-774-9402
"Arctic Alaska Enterprises, Inc.",901 Elk Street,Alexander,ND,58318,701-228-5119
Arctic Auto Transport,1312 Westwood St,Bismarck,ND,58504,701-426-6393
"Arctic Express & Sales, Inc.",2730 5th Avenue S.,Fargo,ND,58107,866-987-4007
Arden Miller Transport,816 2nd Ave Sw,Rugby,ND,58368,701-776-6615
Arg Oil Field Services LLC,1266 Gum Ave,Dickinson,ND,58601,432-294-0531
Argent Land Holding,2175 29th Ave Ne,Harvey,ND,58341,719-232-9004
Aries Transports LLC,1001 44th St S Apt 304,Fargo,ND,58103,210-952-7436
"Arikara, Inc.",2720 Interstate 94 E. Business Loop,Dickinson,ND,58602,701-264-1168
Ark Welding LLC,3708 2nd Ave E,Williston,ND,58801,406-407-1868
Arlet Trucking LLC,1515 Burnt Boat Dr # 154,Bismarck,ND,58503,786-575-1016
Lisbon Mobile Milling,Hwy 32 S,Lisbon,ND,58054-1009,701-683-5972
A & H Trucking,3440 Hwy 41,Velva,ND,58790,701-338-2797
Armitage Transport & Services LLC,4818 Southview Ln Po,Williston,ND,58801,701-339-0560
"Armour Xteriors, Inc.orporated",2528 W Main Ave,West Fargo,ND,58078,701-277-9797
"Armstrong Sanitation Plus, Inc.",1800 Memorial Highway,Mandan,ND,58554,701-572-9773
"Arnhalt Transport, Inc.",4196 55th St S,Fargo,ND,58104,701-235-6460
"Arnhalt Transportation Brokerage, Inc.","3701 38th St. S, Suite B",Fargo,ND,58104,701-282-9211
Arnold Nels Anderson,17140 101 St Se,Hankinson,ND,58041,701-242-7803
"Arnold R Peterson Trucking, Inc.",13813 County 1,Cavalier,ND,58220,701-265-4272
Snapon Tools,1511 Cottonwood St,Grand Forks,ND,58201,218-779-4805
Around The Clock Hotshot Services LLC,935 Energy St Lot 93,Williston,ND,58801-7072,701-310-5682
"Arrow Electric, Inc.",2224 124 T Ave Nw,Watford City,ND,58854,701-429-8969
Arrow Pipeline LLC,10702 Highway 73,Keene,ND,58847,701-675-2048
"Arrow Transport Services, Inc.",8430 44th St Nw,New Town,ND,58763,612-414-8275
Arrow Trucking,[email protected],Williston,ND,58802,310-694-4579
Arrowhead Hot Shot Service,641 Park Ave,Dickenson,ND,58601,701-260-2359
"Arrowhead Transport, Inc.",12827 Hwy 13,Gwinner,ND,58040,701-678-2681
Arrowwood Prairie Coop,221 3rd Avenue,Wimbledon,ND,58492,701-435-2406
Arsari Enterprises LLC,100 Sw Main St,Carpio,ND,58725,701-520-9994
Art Johnson Trucking,1511 Kuster Court,Grand Forks,ND,58201,701-775-9806
Art Weekes Trucking LLC,924 4th Ave,Langdon,ND,58249,701-256-2374
Governor Transport,213 1st Ave W,Hunter,ND,58048,701-347-2599
Arthur J Oldham,516 16th Street Ne,Jamestown,ND,58401,701-253-4929
Arthurs Trucking LLC,3382 4th Ave E Apt 109,Dickinson,ND,58601-5063,701-715-5818
Arturo Martinez Trucking,13580 59th St Nw Lot 20,Williston,ND,58801,405-283-0698
"Asa Services, Inc.",5979 130th Ave Nw,Epping,ND,58843,951-805-6691
Asare Trucking LLC,2899 34th Street South Apt 210,Grand Forks,ND,58201,701-770-5774
A To Z Tragedy Relief And Restoration,514 1st Ave Ne,Steele,ND,58482,701-220-7269
"Ask Transportation, Inc.",24 Avenue R,Williston,ND,58801,701-572-3389
"B & B Hot Oil Service, Inc.orporated",135 4th Ave Se,Dickinson,ND,58601,701-264-1128
"B & B Trucking, Inc.",210 Minnesota Avenue,Wilton,ND,58579,701-734-6373
B & C Transport LLC,308 7th St West,West Fargo,ND,58078,701-277-9747
"B & D Custom Spraying, Inc.",8331 County Rd 3b,Lansford,ND,58750,701-263-1635
B & Dwtt Services,301 19th Ave Nw Unit C,Watford City,ND,58854-7189,701-334-0627
"B & F Salvage, Inc.",8600 Hwy 83 South,Minot,ND,58701,701-722-3503
B & K Energy LLC,547 S 7th Street #200,Bismarck,ND,58504,720-774-3058
Powder River Transport,804 17th Ave Sw,Watford City,ND,58854,701-842-3080
B&p Trucking,3185 Hwy 41,Ruso,ND,58778,701-626-7661
B Bryson Energy Services LLC,504 8th St Nw,Mandan,ND,58554,701-934-3688
B G Roustabout Service LLC,605 8th Ave East,Williston,ND,58801,307-673-0266
"B J Grain, Inc.",2895 144th Ave Se,Ayr,ND,58007,701-896-3425
"B L Industries Holding, Inc.",1412 15th St,Walhalla,ND,58282,701-549-3838
B N R Transport LLC,819 Booth Ave,Larimore,ND,58251,218-779-8488
B R Oilfield Trucking LLC,57 4th Ave Se,Beach,ND,58621,540-966-2174
"B S Xpress, Inc.",15283 8th St Ne,Mayville,ND,58257,701-361-3449
B Thomas Transport LLC,311 14th Ave Nw,Mandan,ND,58554,701-202-9723
B Trucking LLC,222 1st St W,Ross,ND,58776,701-629-6224
B&b Mobile Home Transport LLC,368 4th St Sw,Dickinson,ND,58601,701-483-5564
"B&g Transportation, Inc.",1102 42nd St W Apt 208,Williston,ND,58801,832-820-3121
B&j Trucking LLC,6420 Whitney Ct,Bismarck,ND,58504,701-315-0217
"B&l Trucking, Inc.",221 2nd Ave,Washburn,ND,58577,701-426-6177
B-6 Trucking,2780 43rd Ave,New Salem,ND,58563,701-843-7806
B-more Logistics LLC,1521 Sharloh Loop Unit D,Bismarck,ND,58501,213-626-9398
B5 Trucking LLC,2095 Wienberger Dr S,Mandan,ND,58554,701-663-7970
Ba Trucking LLC,5051 77th Ave Nw,Stanley,ND,58784,612-390-2279
Baca Energy Services LLC,302 58th St W #577,Williston,ND,58801,701-426-3518
Floor To Ceiling Carpet One,360 36th Street South,Fargo,ND,58103,701-237-6601
Back Country Trucking LLC,569 109th Ave Sw,Killdeer,ND,58640,307-751-8784
Tim Hartsell,204 N Main St Unit 628,Watford City,ND,58854-7124,406-581-3758
Backroad Enterprises LLC,1712 1st Ave East,Williston,ND,58801,701-770-1086
Backroads Hotshot LLC,414 11th Ave W,Williston,ND,58801,701-570-9500
Backwoods Transport LLC,"5051 Owan Industrial Park Dr, Unit 8",Williston,ND,58801,701-651-7904
Bad Habit Trucking LLC,107 Keidel Trl Sw ,Mandan,ND,58554-2322,701-218-0061
Badass Trucking LLC,1287 56th Ave Nw,Garrison,ND,58540,701-690-4611
Badlands Distribution Llp,4410 110th Ave Sw,Dickinson,ND,58601,303-396-2048
Badlands Enterprises Corp,602 Elk Street #429,Alexander,ND,58831,701-491-8866
Badlands Excavating & Oil Field Service LLC,1719 8th St Nw,Minot,ND,58703,701-838-7599
Badlands Express,4820 Sagebrush Drive,Bismarck,ND,58504,701-258-1127
Badlands Freight LLC,1114 Jefferson Ave,Bismarck,ND,58504,701-530-0940
"Badlands Hydrotesting, Inc.",14304 83rd St Sw,Bowman,ND,58623,605-484-2184
Badlands Hydrovac Services,324 4th Ave Ne,Watfordcity,ND,58854,701-651-7549
Badlands Investment Group LLC,3250 15th Ave S Unit 11,Fargo,ND,58103,805-479-3014
Power Fuels,2001 6th St Se,Minot,ND,58701,701-839-5755
Baffkom Logistics LLC,3711 7th St W Apt 210,Williston,ND,58801,701-770-9577
"Bailey Crane Service & Specialties, Inc.",7500 123 Ave Ne,Bismarck,ND,58503,701-673-3350
Baja Oil Service LLC,1541 Carroll St Apt 110,Dickinson,ND,58601,619-844-7238
Baker Consulting LLC,2820 102nd Ave Nw,Mandaree,ND,58757,701-759-3292
Bakken Crane Service,562 Colfax Street,Dickinson,ND,58601,701-264-9479
Bakken Crude Trucking LLC,310 Airport Rd,Williston,ND,58801,701-651-3304
Bakken Field Services LLC,735 3rd Ave W,Dickinson,ND,58601,702-302-7700
Bakken Freight And Dispatch LLC,13669 Cherry St Nw,Williston,ND,58801,701-300-0529
Bakken Fuels LLC,547 South 7th Street #360,Bismarck,ND,58504,701-400-0078
Bakken Hot Shot Services LLC,4963 142nd Ave Nw,Williston,ND,58801,701-651-3926
Bakken Investments LLC,1542 16th W #208,Williston Nd,ND,58801,509-876-6969
Bakken Liquids Transport LLC,835 12th Ave,Dickinson,ND,58601,701-552-1293
Bakken Logistics LLC,3706 Heartland Dr,Bismarck,ND,58503,701-222-4924
Bakken Modified LLC,405 106th Ave Sw,Killdeer,ND,58640,701-764-7293
Bakken Services LLC,11746 Highway 2,Ray,ND,58849,405-283-0698
Bakkhaulen,13725 Kristina St Unit G,Williston,ND,58801,208-880-2247
Bal Services LLC,581 North Main Street,Ryder,ND,58779,307-679-2287
Ballantyne Agri,10050 Co Rd 17a,Westhope,ND,58793-9773,701-245-6552
"Bam Trucking, Inc.",2331 68th Ave Nw,Ryder,ND,58779,701-743-4260
Bandit Enterprises LLC,3247 85m Avenue Sw,Richardton,ND,58652,701-260-2610
Bantam Trucking LLC,310 B Ave N,Mcclusky,ND,58463,701-934-3053
Bar 7 LLC,505 8th Ave Se,Stanley,ND,58784,208-589-8093
Bar Over J Trucking LLC,2500 Centennial Rd #69,Bismarck,ND,58503,701-391-4284
Bar Trucking,3710 26th St W #3208,Williston,ND,58801,713-534-3022
Bar-lin Transport LLC,6682 115th Ave Se,Fort Ransom,ND,58033,701-432-5903
Langford Brothers Trucking LLC,1102 South Washington Street #105,Bismarck,ND,58504,701-751-4582
"Baranko Brothers, Inc.",3048 Hwy 22 North,Dickinson,ND,58602,701-483-5868
Barbot Enterprises,1703 Rose Lane,Williston,ND,58801,701-572-7363
Barendt Trucking,716 2nd Street,Devils Lake,ND,58301,701-662-6339
Bargonhauling LLC,13580 59th St Northwest #a19,Williston,ND,58801,701-770-3905
Barkman Custom Transport LLC,13668 Cherry St Nw,Williston,ND,58801,701-580-2462
Barrett Herr,8540 30th Ave Se,Wishek,ND,58495,701-452-2846
"Barrett Logistics, Inc.",2910 University Drive,Fargo,ND,58103,701-237-5352
Barrett Trucking LLC,3338 19th Street South,Fargo,ND,58104,701-371-0237
Divine Strategy Ventures,3740 49th St S,Fargo,ND,58104,701-730-7687
Schafer Trucking,2581 County Road 11,Sentinel Butte,ND,58654,701-872-5402
Bs Trucking,3775 County Road 139,New Salem,ND,58563,701-989-8971
Proco2,704 Broadway,Portland,ND,58274,701-786-4051
Bartnes Trucking LLC,230 Tower Ave,Bismarck,ND,58501,701-770-0305
Basaraba's Excavating,12th St Ne,Wilton,ND,58579,701-734-8143
"Baseview Petroleum, Inc.",304 Hwy 15,Northwood,ND,58267-0477,701-587-6395
"Basin Concrete, Inc.",5023 138th Ave Nw,Williston,ND,58801,701-774-3085
Basin Tubin Testin,13565 57th St Nw,Williston,ND,58802,701-774-1283
Basin Oilfield Services LLC,2120 29th Street West #306,Williston,ND,58801,701-580-2772
Basin Rock Oil Field Services LLC,409 Third St Nw,Mandan,ND,58554,701-609-6011
Basin Saftey Consulting Corp,5009 139th Ave Nw,Williston,ND,58801,202-521-1493
Basin Septic Service,5113 2nd Ave W,Williston,ND,58801,701-572-5372
"Basin Service Company, Inc.",55 Main Street,Westhope,ND,58793,701-245-6143
Basin Transload LLC,10154 93rd Ave Nw,Columbus,ND,58727,701-939-2048
Basson Trucking LLC,506 Main St N,Velva,ND,58790-7208,701-509-9120
Bateman Brothers Trucking LLC,1906 E Bdway #f,Bismarck,ND,58501,720-431-2560
"Bateman Ag, Inc.",6500 32nd Ave South,Grand Forks,ND,58201-9146,701-741-1595
Battle Bee Trucking LLC,5065 Highway 281,Rolla,ND,58367,701-550-9785
Battle Lake Transport LLC,1950 E Rose Creek Pkwy S,Fargo,ND,58104,701-818-9178
Bauer Freight Solutions LLC,914 4th Ave ,Washburn,ND,58577,701-400-7564
"Baumgartner & Sons, Inc.",105 Walleye Lane,Linton,ND,58552,701-336-7199
Bautz Wildcat Trucking LLC,11280 41st St Sw,Dickinson,ND,58601,701-483-2692
Bayley Hochhalter,114 Duchess Ave Sw,Tappen,ND,58487-8733,701-269-1917
"Bb Towing, Inc.",105 5th Ave N,Buffalo,ND,58011,701-799-5760
Bc Excavating LLC,700 South 7th Street,Fargo,ND,58102,701-898-7335
"Ben's Welding & Fabrication, Inc.",4051 Hwy 85 ,Belfield,ND,58622,701-290-4282
Benchmark Transport LLC,814 14th Ave S,Grand Forks,ND,58201,701-330-0838
Bendickson Farms Tranport LLC,1952 39th Ave Nw,Garrison,ND,58540,701-337-5370
Beng Logistics LLC,1156 Donna Ln Apt 109,Dickinson,ND,58601,864-650-8577
Highland Excavating,1360 23rd St Ne,Emerado,ND,58228,218-779-2328
Benjamin Sweet Trucking LLC,1395 S Columbia Rd Ste A Box 325,Grand Forks,ND,58201,701-740-7827
Benjamin's Trucking,536 Country Side Park,Fargo,ND,58103,701-200-9697
Bennys Trucking LLC,1463 6th Ave Se,Dickinson,ND,58601,915-929-9169
Lakeland Fine Foods,930 N 2nd St,Bismarck,ND,58501,402-960-5030
Benson Trucking,122 Main Street South,Sheyenne,ND,58374,701-996-2184
Benz Farm,3888 Hyw 3,Dawson,ND,58428,701-327-4377
Bep Petroleum & Tank LLC,1200 Yegen Road,Bismarck,ND,58504,701-258-5427
"Berdahl Trucking, Inc.",1900 Burdick Expy W #9,Minot,ND,58701,701-833-5948
"Berg Grain & Produce, Inc.",2205 5th Ave N,Fargo,ND,58102,701-293-3434
"Berger Body & Glass, Inc.",17915 Hwy 13,Wahpeton,ND,58075,701-642-3773
"Bergers Mobile Home Transport, Inc.",7900 Arcata Dr,Bismarck,ND,58503,701-250-1221
"Bergseth Bros Co, Inc.",1211 47th Street N,Fargo,ND,58102,701-232-8818
Litte Rabbit Express,310 Ave D East,Napoleon,ND,58561,701-754-2612
Fast Delivery And Trucking,2923 26th St W #209,Williston,ND,58801,206-422-6444
Bernard Jooste Trucking,2526 Kimberly Ave,Bismarck,ND,58501,701-220-6577
4 M Trucking,302 1st Ave W,Alexander,ND,58831,701-828-3317
"Bertagnolli Trucking, Inc.",894 East Industrial Drive,Dickinson,ND,58601,701-260-1988
Berthal LLC,190 N Main St Po 38,Fortuna,ND,58844,701-648-8800
"Bertsch Trucking, Inc.",16622 Higway 200 Se,Hillsboro,ND,58045,701-636-4100
Bertsch Trucking LLC,16622 Hwy 200 Se,Hillsboro,ND,58045,701-636-4100
Best Mobile Home Transport LLC,3289 102w Ave Sw,Gladstone,ND,58630,701-590-1272
Best Services Logistic,2550 15th St S Apt4,Fargo,ND,58103,701-781-2621
Best Transportation LLC,3550 S 17th St Apt 305,Grand Forks,ND,58201,218-303-6393
"Beteric, Inc.","3739 38th Street, Sw, Ste. F",Fargo,ND,58104,701-282-5215
Holdfast Transport,1350 Mike St Apt 204,Dickinson,ND,58601,918-521-9238
"Beverage Wholesalers, Inc.",701 4th Ave N,Fargo,ND,58102-4721,701-293-7404
Beyleh M Ahmed,1446 16 1/2 St S,Fargo,ND,58103,218-791-8612
"Bg Production Service, Inc.",14036 West Front Street,Williston,ND,58801,406-433-3026
Bg Trucking & Aggregate LLC,620 2nd St,Edinburg,ND,58227,701-331-4544
Bgr Logistics LLC,"626 2nd Avenue North, Box 2742", Fargo,ND,58108,218-935-5282
"Bh Utility Services, Inc.",801 30th St Nw,Minot,ND,58703,701-858-0018
3 Brothers Recycling,4936 47th St S #206,Fargo,ND,58104,701-541-3045
Biby Trucking LLC,535 3rd St Se,Leeds,ND,58346,701-351-1304
Big Boy Truck'n LLC,2414 Coves Ct,Dickinson,ND,58601-3030,719-468-0808
Big Country Transport Systems LLC,423 Christianson Dr,West Fargo,ND,58078,701-369-2198
"Big D Transport, Inc.",107 South 5th St,Verona,ND,58490,701-432-5635
"Big Dog Freights, Inc.",1727 42nd Street South #10,Fargo,ND,58103,701-318-2158
Big Dog Transport,1037 Lawler Ave,Grafton,ND,58237-2127,701-331-4213
Big Dog Trucking LLC,240 39th St N,Fargo,ND,58102,701-364-9119
Big Iron Outlaw Trucking LLC,220 Main Ave ,Oakes,ND,58474,701-680-0955
Big Iron Trucking LLC,538 1st Ave W,Dickinson,ND,58601,541-852-1441
Big J Services LLC,5752 129th Ave Nw,Epping,ND,58843,701-770-4147
"Big Jims East Side Tire, Inc.",111 Gateway Dr,Grand Forks,ND,58203,701-775-7045
Big Riggs Trucking LLC,319 2nd St Ne,Kenmare,ND,58746,208-290-3794
"Big Rock Construction, Inc.",213 3rd St S,New Town,ND,58763,701-320-7400
"Big Roy Trucking, Inc.",759 7th Avenue Nw,Mercer,ND,58559,701-447-2479
"Big Sky Well Service, Inc.",3352 Hwy 85 North,Belfield,ND,58622,701-575-8075
"Big T & Son, Inc.",2202 36th Terrace,Williston,ND,58801,619-794-3956
"Big Time Services, Inc.",5432 49th Ave S,Fargo,ND,58104,907-440-7073
Big Z Trucking LLC,1005 S Main St Pmb 343,Watford City,ND,58854,801-520-6296
"Bigs Transit, Inc.",1301 15th St S,Fargo,ND,58103,218-359-0152
Bigwood Enterprises,15035 County Road 11,Saint Thomas,ND,58276,701-257-6515
"Bilfinger Westcon, Inc.",7401 Yukon Dr,Bismarck,ND,58503,701-222-0076
Bohn Trucking,8943 144th Ave Ne,St Thomas,ND,58276,701-257-6555
Hoffer,5353 40th Ave Se,Tappen,ND,58487,701-327-8287
Bao Trucking,201 Sukut St,West Fargo,ND,58078,701-277-8134
Bill Bata,6333 Hwy 35,Adams,ND,58210,701-944-2501
Bill Raethz Trucking,2102 31st Avenue S,Fargo,ND,58103,701-293-8871
Bill Transport,306 2nd St,Hamilton,ND,58238,701-265-3130
Billing's Trucking Transit Of Nd LLC,4020 7th Ave E #2-302,Williston,ND,58801-3875,561-536-8062
"Binde Trucking, Inc.",9460 132nd Ave Nw,Fortuna,ND,58844,701-982-3593
Binneman Family Trucking LLC,204 1st St Ne,Lamoure,ND,58458,701-866-5843
Binstock Trucking LLC,321 E Broadway St,Dickinson,ND,58601,701-645-3473
Culligan Water Conditioning,1120 Np Avenue,Fargo,ND,58102,701-232-7878
Birchem Livestock,8165 174th Ave Se,Wahpeton,ND,58075,701-640-0969
Bird Dog Hotshot LLC,3001 Harvest Hills Dr Apt 338,Williston,ND,58801,218-407-2610
"Bird Industries, Inc.",2819-b S Broadway,Minot,ND,58701,888-772-1455
Birtrucking,4802 15th Ave S Apt 308,Fargo,ND,58103,701-729-6394
Bis Man Yardcare,3028 Memorial Hwy,Mandan,ND,58554,701-471-5768
"Bischof Distributing, Inc.",1965 Far West Drive,Bismarck,ND,58504,701-663-4896
"Bismarck Logistic, Inc.",416 W Turnpike Ave,Bismarck,ND,58501,701-250-7391
Bison Septic LLC,6722 Fairview Drive,Williston,ND,58801,541-788-4830
"Bison Transport, Inc.",3701-38th St Sw,Fargo,ND,58103,N/A
Bistline Transport LLC,111 3rd St Unit 9,Ross,ND,58776,435-632-7994
Bitterroot Tower Service LLC,722 Front St,Casselton,ND,58012,218-287-3747
Bj's Dst,601 Main Street East,Mohall,ND,58761,701-572-7102
Bjb Trucking LLC,12310 47th St Sw,South Heart,ND,58655,701-677-4143
"Bjorge Bros Farm, Inc.",17079 11th St Ne,Buxton,ND,58218,701-942-3175
"Bjornson Oil Company, Inc.",1349 Main St West,Cavalier,ND,58220,701-265-4043
Bjornstad Harvesting LLC,10153 County 39,Langdon,ND,58249,701-370-5429
Bjornstad Trucking LLC,707 4th Ave,Cando,ND,58324,701-968-3088
Black Bandit Hotshot LLC,1325 27th St Se Lot 521,Minot,ND,58701,701-509-7575
Black Bear Energy LLC,199 4th St Sw,Parshall,ND,58770,701-897-2828
Black Butte Associates LLC,1616 Bison Dr,Williston,ND,58801,701-770-9360
Black Diamond Energy LLC,4310 Sims Street,Dickinson,ND,58601,619-254-8225
Black Diamond Hotshots LLC,10 42nd St E Apt 1306,Williston,ND,58801,701-580-1457
"Black Diamond Logistics, Inc.",305 Jennings Avenue,Center,ND,58530,701-426-4377
Black Diamond Propane LLC,13931 Town And Country North Ct ,Williston,ND,58801-9027,701-651-6355
Black Enterprizes,3301 9th Av East,Williston,ND,58801,701-572-5064
Black Gold Contractors LLC,101 Tenth Avenue Nw,Reeder,ND,58649,701-842-2375
Black Gold Hauling LLC,904 24th Ave Sw,Watford City,ND,58854-6839,480-532-5291
Black Gold Oil Foeld Services,509 Reclamation Drive Apt 7,Williston,ND,58801,406-945-3299
"Black Gold Potato Sales, Inc.",4575 32nd Ave S,Grand Forks,ND,58201,701-772-2620
"Black Gold Trucking, Inc.",901 177th Ave Sw,Minot,ND,58701,701-722-5567
Black Hawk Energy Services Ltd,13593 56 Street Nw,Williston,ND,58801,202-521-1493
Black Hawk Express Corp,3853 Renee Drive,Bismarck,ND,58503,701-223-5855
"Black Hills Trucking, Inc.",Po Box 250,Dickenson,ND,58601,N/A
"Black Horse Construction, Inc.",120 South Main Street Ste 210,Stanley,ND,58784,701-628-3047
Black Mountain Trucking LLC,2540 36th Ave S Apt 303,Fargo,ND,58104,701-404-0863
Black Rhino LLC,313 26th Ave Ne,Watford City,ND,58854,801-866-3298
"Black Rock Developing & Hauling, Inc.",634 E Broadway Ste 101 Box 1181,Williston,ND,58801,432-215-7244
Black Rock Trucking LLC,1300 Highway 23 E,Watford City,ND,58854,360-624-8923
Black Stack Diesel LLC,7001 3rd Ave E,Williston,ND,58801,701-570-6609
Black Wolf Logistics LLC,1905 4th Ave Ne Apt 113,Watford City,ND,58854,786-436-6630
Blackduck Outdoor Power Equipment,3004 16th Street Ne,Watford City,ND,58854,218-368-5626
Blackfeather Oilfield Services LLC,3754 North M Street,New Town,ND,58763,701-690-5019
Blackhawk Trucking LLC,1822 34th Street West,Williston,ND,58801,307-752-1901
Blackspur Services LLC,387 15th St W # 116,Dickinson,ND,58601,701-720-0327
Blackstone Crude LLC,1940 S Broadway Pmb 154,Minot,ND,58701,425-246-8193
Blackstone Oilfield Services LLC,2808 27th St W,Williston,ND,58801-3571,360-305-6440
Blackstone Services LLC,3720 Prairie Commons St,Williston,ND,58801,406-890-3441
Blackwater Logistics LLC,315 Main St #892,New Town,ND,58763,973-342-9657
Blair Gunderson Llp,2908 Buckskin Rd Se,Mandan,ND,58554,701-520-2914
Bland Bohannon Blaine Stevens,5042 133rd Ave Nw Lot 212,Williston,ND,58801,701-770-7598
Bland Logistics LLC,217 Auburn Drive,Grafton,ND,58237,480-797-4451
"Blawat Construction, Inc.",7865 Old Hwy 44 South,Drayton,ND,58225,701-454-3936
Blazin Racin LLC,2315 University Dr N,Fargo,ND,58102,701-298-8925
Blekestad Trucking LLC,726 15th St W,Williston,ND,58801,701-570-8187
Ride Or Die Trucking Company,4151 38th St S Ste C,Fargo,ND,58104,701-293-9400
"Blomquist Trucking, Inc.orporated",Rt 1 Box 3,Edmore,ND,58330,701-746-7956
Blue Antelope Trucking LLC,8291 38f St Sw,Richardton,ND,58652-8500,989-614-0480
"Blue Appaloosa, Inc.",10658 1st St Sw,Killdeer,ND,58640,701-764-6749
Blue Butte Aggregates LLC,3675 155th Ave Nw,Cartwright,ND,58838,701-774-9816
"Blue Buttes Trucking, Inc.",114 2nd Street,Keene,ND,58847,701-675-2020
Blue Dog Trucking Dbi,1637 Winslow Ct,West Fargo,ND,58078,701-729-1403
"Blue Flame Propane, Inc.",14672 Highway 2 Suite #4,Williston,ND,58802,701-875-5000
Blue Ink Energiesblue Ink Cattle Trainblue,1408 W Pheasant Ridge Dr,Watford City,ND,58854-7837,701-641-2781
"Blue Line Trans, Inc.",3003 32nd Ave S Ste 240,Fargo,ND,58103,701-300-7004
"Blue Marlin Expedite, Inc.",5015 28th Ave S Apt 205,Fargo,ND,58104,701-630-9633
Blue Marlin LLC,1131 E Main Ave,Bismarck,ND,58501,701-426-8470
"Blue Mountain Transport, Inc.","3194 111e Ave Sw #3, Dickinson, Nd 58601",Dickinson,ND,58601,701-354-3883
Blue Nova Energy LLC,3890 150th Avenue Nw,Williston,ND,58801,308-784-3456
Blue Raven Oil LLC,851 Bia Route 20,Hollyday,ND,58636,405-283-0698
"Blue Star Trucking, Inc.",1455 32nd St S Unit 6438,Fargo,ND,58109,701-729-1197
Blue Water Transport LLC,1352 146th Ave Se,Galesburg,ND,58035,308-636-8718
Blues Oilfield Trucking LLC,222 6th Ave Se,Stanley,ND,58784,406-369-0235
Bnls Trucking LLC,515 Andrew Jackson Way,Killdeer,ND,58640,701-264-0260
Circle G Tractors,403 Emmerling Circle,Walhalla,ND,58282,701-265-2220
"Bob Headquarters, Inc.",10543 Hwy 281,Dunseith,ND,58329,204-728-7470
Jordahl Custom Harvesting,362 N 5,Pembina,ND,58271,701-825-6926
Bob Neevel,9838 50th S E,Marion,ND,58466,701-669-2566
Bob Smith Trucking,Po Box 399,Parshall,ND,58770,406-989-1008
"Bob's Oilfield Service, Inc.",3364 Highway #85 North,Belfield,ND,58622,701-575-4666
Bob-o Express Co,3795 23rd Ave Ne,Larimore,ND,58251,701-343-2957
Bobcat Of Mandan,4209 Memorial Hwy,Mandan,ND,58554,701-663-0903
Bobs Trucking,P O Box 37,Surrey,ND,58785,N/A
Bohannon Oilfield Services LLC,5042 133rd Ave Nw Lot 212,Williston,ND,58801,701-770-8197
Bohican Heavy Haul LLC,387 15th St W # 149,Dickinson,ND,58601-3017,701-300-0172
"Bohlman Trenching Service, Inc.",1372 7th Ave Ne,Thompson,ND,58278,701-599-2360
Bollinger Farms,7888 86th St Ae,Monango,ND,58436,701-396-7601
Bolt Transport LLC,3001 Harvest Hills Dr Apt 337,Williston,ND,58801-2672,701-609-2643
Bomape LLC,3002 17th Ave W Apt 106,Williston,ND,58801,701-580-5314
"Bonafide Black Gold, Inc.",3009 31st Ave W Apt 312a,Williston,ND,58801,833-387-1224
Bonaime Trucking,2600 S 34th St Apt #111,Grand Forks,ND,58201,701-775-7229
Bonetrail Trucking,1204 Park Place,Williston,ND,58801,701-572-5223
Bakken Boys Transport,202 N Main St Ste 192,Crosby,ND,58730-9998,833-422-5536
4063965391,13580 59th St Nw #h12,Williston,ND,58801,406-396-5391
"Booth Delivery Service, Inc.",1502 1st Ave North,Fargo,ND,58102,701-235-0096
Border Brothers LLC,10560 72nd Ave Nw,Flaxton,ND,58737,701-339-8211
"Border Line, Inc.",3150 39th St Sw Suite B,Fargo,ND,58104,701-281-1665
Border Plains Equipment LLC,13954 West Front Street,Williston,ND,58801,701-774-0957
Border States,105 25 St N,Fargo,ND,58102,701-293-5833
Border Town Transport LLC,414 Farm To Market Rd,Noonan,ND,58765,701-339-8690
"Border Transport, Inc.",222 South 5th Street,Pembina,ND,58271,701-825-6455
Border Trucking LLC,606 Miller St,Dwight,ND,58075,701-642-9771
"Bore One, Inc.",6111 County Road 12 W,Minot,ND,58701,202-521-1493
Boreworx LLC,202 2nd Ave Se,Marmarth,ND,58643,701-483-2739
Borsheim Crane Service,5028 139 Ave Nw,Williston,ND,58801,701-572-6301
Bosch Lumber Company,2241 I94 Business Loop E,Dickinson,ND,58601,701-483-5179
Boser Transport LLC,463 Santa Cruise Dr,Fargo,ND,58103,701-388-5858
"Bosh Enterprises, Inc.",513 14th St S,Fargo,ND,58102,701-237-9564
