Company Name,Street Address,Address Locality,Address Region,Postal Code,Telephone
Hauling 3 Transport,5900 Bridgeway Drive,Indian Trail,NC,28079,704-737-4735
Tyler Express Trucking,Apt 128b Hallie Family Lane,Kenansville,NC,28349,910-441-0012
Strickland Transport,50 Trevor Kirk Dr,Timberlake,NC,27583,919-452-6355
Cummings Trucking,153 Suggs Rd,Lumberton,NC,28360,910-674-4036
Red Eagle Trucking,154 Villa Ln,Davidson,NC,28036,704-230-9461
Autopark Chrysler Jeep,400 Auto Park Blvd,Cary,NC,27511,919-481-2880
Jerry Barker Trucking,1403 Cedar Creek Road,Fayetteville,NC,28312,910-485-0984
Four Winds Enterprise Trucking,452 Kever Rd,Maxton,NC,28364,910-522-9587
Todayz Truckin,1769 Sisk Rd,Danbury,NC,27016,336-406-1380
Ridge Transportation,147 South Valley St,Liberty,NC,27298,336-543-5725
"Office Supply Services, Inc.",2139 Supply Court Nw,Concord,NC,28027,704-786-4677
Rose Trucking,2357 W Highway 150,Crouse,NC,28033,980-429-5073
Gray's Trucking,937 Dollard Town Rd,Goldsboro,NC,27534,919-751-9472
Lj Trucking,211 Kingville Dr,Charlotte,NC,28213,714-208-6202
Jcr Trucking,272 Link Road,Elkin,NC,28621,336-902-1600
David Price Auto Works,603 Monroe Street,Eden,NC,27288,336-623-2460
Ken Norman Trucking,945 River Hills Court,Taylorville,NC,28681,828-228-0583
L & L Sharpening Service,115 Kayla Ct,Jacksonville,NC,28540,910-330-1410
Bk Cranford Trucking,217 Oscar Rd,Troy,NC,27371,910-572-1247
Rhythm & Blues Transport,1060 Sumner Rd,Pink Hill,NC,28572,910-305-0871
C Williams Trucking,828 Wilson Street,Plymouth,NC,27962,252-793-6941
Atm Transport,647 Gillispe St,Saint Pauls,NC,28384,980-721-5938
J & T Trucking,622 A Mount Olive Rd,Windsor,NC,27983,252-287-8484
Malloy Road Service,3096 E White Pond Rd,Fairmont,NC,28340,240-508-7423
Eastern Carolina Auto Service,5278 Ita Rd,Enfield,NC,27823,252-586-5917
Franklin Moving,330 Mountain View Drive,Morganton,NC,28655,828-205-5533
Central Triangle Express,1038 Harvest St,Durham,NC,27704,919-730-7170
Cochrane Automotive,7036 Kristi Dr,Garner,NC,27529,919-306-3409
Northfork Transport,4582 Us Hwy 221 N,Marion,NC,28752,828-442-1444
Dee's Trucking Co,1228 Club Pond Road,Henderson,NC,27536,252-430-9307
Alston Trucking,12540 Hwy 48,Littleton,NC,27850,252-678-2219
Gear On Transportation,232 Kenneth Blvd,Havelock,NC,28532,252-725-7156
D & C Transport,4301 Morning Drive,Claremont,NC,28610,828-459-9251
Lovelace Trucking,4884 Sedgeview Lane,Winston Salem,NC,27107,336-608-4298
Hap Trucking,3539 Mccuiston Rd,Greensboro,NC,27407,336-292-4503
Barbara's Express,110 Woodland Shore Drive,Littleton,NC,27850,252-676-2845
C Miranda Trucking,2109 Rice Rd,Henderson,NC,27537,252-492-3375
James Morgan Trucking,9892 Hwy 24/27,Carthage,NC,28327,910-947-2518
Top Notch Trucking,605 Old Hwy,Garysburg,NC,27831,252-536-3519
Rite-way Trucking,9154 Us Hwy 158,Conway,NC,27820,252-585-0523
Flying Eagle Trucking,2941 Clarendon Chadbourn Rd,Chadbourn,NC,28431,910-443-3430
No Limit Transport,1709 Staleys Farm Rd,Asheboro,NC,27205,336-653-0899
Thg Transport,425 Wolfpoint Extension,Fayetteville,NC,28311,910-480-0109
Miller Trucking Co,2531 Shingle Gap Road,Millers Creek,NC,28651,336-667-3688
Gp Pump And Trench Service,110 Mccrary View Drive,Penrose,NC,28766,828-877-6073
Driving Righteous Journey Trucking LLC,1220 Matthews Commons Drive #22,Matthews,NC,28105,704-906-9966
Norris G Welch Trucking,369 Bay Branch Rd,Belvidere,NC,27919,252-297-9903
World Fleet Transportation,11145 Whitlock Crossing Court,Charlotte,NC,28273,704-713-2041
J Transito Installations,350 Blanco Pinea Way,Dobson,NC,27017,336-756-8629
Curtis Mace Trucking,133 Looking Glass Dr,Marion,NC,28752,828-442-3912
Bells Auto Sales,4469 Old 60,Wilkesboro,NC,28697,336-984-2150
Amsas Express,1010 Mcquay Av,Charlotte,NC,28208,704-201-9917
Hd Truck & Equipment,144 Flat Rock Rd,Crumpler,NC,28617,336-982-2045
Oceans East,119 Doe Trail Rd,Lumberton,NC,28358,910-374-6550
Eller's Fuel & Wrecker Service,206 N Main Street,Robbinsville,NC,28771,828-479-6042
J & L Transport,3008 Coleberry Trails,Rocky Mount,NC,27804,252-903-0879
Southern Touch Transport,1131 9th Ave Se,Hickory,NC,28601,828-320-8055
Brishton Trucking,158 Stallings Road,Zebulon,NC,27597,919-269-9126
Carolina Transport,301 Mainstem Rd,Pantego,NC,27860,252-799-6337
Good Foundation Transport,5241 Fox Hunt Drive Apt-f,Greensboro,NC,27407,201-920-4325
Reliable Transport,6817 Tree Hill Rd,Matthews,NC,28104,704-449-8983
Strickland Auto Repair,181 Brenda Drive,Mount Airy,NC,27030,336-789-6226
D & C Trucking,124 Boone Dr,Cofield,NC,27922,252-287-1595
N Style Trucking,15 Dogwood Ln,Bath,NC,27807,252-943-5854
Palmer And Palmer Trucking,326 Richmond Dr,Fayetteville,NC,28304,910-229-2418
Phelps Transport,3308 Bee Mountain Rd,Lenoir,NC,28645,828-754-8283
Drake Farm & Poultry Cleaning Service,3711 Brief Rd East,Monroe,NC,28110,704-753-4255
Willis' Auto,338 North Church St,Burlington,NC,27217,336-227-7282
East Carolina Transport,3299 Tilley Morris Rd,Matthews,NC,28105,704-846-1608
T & S Trucking,270 Bremen Garden Drive,Lexington,NC,27295,336-596-0793
Syndicate Moving And Transport,2159 Floop Point Road,Hampstead,NC,28443,N/A
James Jackson Trucking,111 Winston Dr,Goldsboro,NC,27530,919-330-8942
Holley Transport,5010 Elizabeth Road,Charlotte,NC,28269,704-293-6003
1st Class Auto Transport,3191 Harmony Hwy,Harmony,NC,28634,704-761-4595
Jackson Trucking,230 Morgan Rd,Canor,NC,27229,910-828-6156
Barwell Auto Sales,1490 Ken Miller Rd,Rutherfordton,NC,28139,828-286-2109
Jdk Logistics,1955 Wishon Rd,Concord,NC,28025,704-784-0205
Bwc Trucking,6140 Sardis Road,Charlotte,NC,28270,704-996-8118
Mitchell's Auto Transport,2565 Holiday Ave,Zebulon,NC,27597,919-375-9038
C & D Trucking Service,203 West Houston St,Monroe,NC,28112,704-289-2055
Flatland Express,602 Proctorville Church Rd,Proctorville,NC,28375,910-280-4822
Mono Transportation,1828 Rosemont Street,Salisbury,NC,28144,704-267-8957
Mcdaniel Transport,839 Ivywood Drive,Shelby,NC,28150,704-419-1833
Bullards Trucking,984 Goins Road,Pembroke,NC,28372,910-521-1002
Heltons Automotive,341 Wesleyan Dr,Mcadenville,NC,28101,704-824-4416
Keels Trucking Company LLC,310 Kemper Road,Hampstead,NC,28443,910-538-9744
M H Cooper Transport,228 A Ocean Hwy S,Hertford,NC,27944,252-426-7579
J T Hill Trucking,3800 Sain Avenue,Connelly Springs,NC,28612,828-397-6039
Moore's Transport,981 Bynum Rd,Seaboard,NC,27876,252-532-0569
Hard Rock Trucking,133 Stockton Lane,Canton,NC,28716,828-648-2505
J & S Transport & Logistics,593 Deadmon Rd,Mocksville,NC,27028,704-657-5286
H A Hauling,2536 Nickelridge Ct,Charlotte,NC,28273,704-583-4989
Ss&c Trucking,7141 Lee Ave,Wade,NC,28395,910-323-3338
Alfred Dockery Trucking,1473 Bates Creek Road,Murphy,NC,28906,828-837-7084
Youngs Transfer,101 Fisher Ferry St Apt C,Thomasville,NC,27360,704-431-4519
Jeka Trucking,910 Cleveland St,Roanoke Rapids,NC,27870,252-676-3921
Els,692 A North Spence Ave,Goldsboro,NC,27530,919-778-5777
Almond Trucking,28172-a Nc Hwy 24-27,Albemarle,NC,28001,704-983-1606
Todd & Lea Trucking,1642 Virginia Rd,Edenton,NC,27932,252-333-6400
Rch Transportation,6701 Old Lexington Rd,Winston Salem,NC,27107,336-624-6351
Triple S Transports,2005 Mountain View Church Road,King,NC,27021,336-983-7453
Mclean Trucking,3016 Cornsilk Dr,Sanford,NC,27332,919-343-8574
Mapar Transit,550 Becton Rd,Havelock,NC,28532,252-269-1927
Thorpe & Sons Transportation,45 Ward Drive,Youngsville,NC,27596,919-570-9586
C I C Transport,5620 Zebulon Rd,Wake Forest,NC,27587,803-328-1394
Ada Auto Transport,103 Virginia Creek Drive,Hampstead,NC,28443,910-547-2246
Bass Transport,170 Bernice Street,Marion,NC,28752,828-925-3880
Gatlin Logistics,145 Hayes-smith Lane,Salemburg,NC,28385,910-249-4029
Blockel Transport,5575 Hwy 96 W,Youngsville,NC,27596,919-231-3105
Clifford Transportation,220 Serenity Pointe Dr,Kernersville,NC,27284,336-769-2346
B & S Express,800 Lake Vista Dr Apt 305,Candler,NC,28715,828-712-2041
Stewart Express & Logistics,2900 Leo Dr,Greensboro,NC,27405,336-324-0619
Ayljen Logistics,1309 Solo Drive,Siler City,NC,27344,919-799-3184
Don's Trucking,157 Laurel Street,Bakersville,NC,28705,828-688-3128
Noj Transport,177 Stephanie Dr,North Wilkesboro,NC,28659,336-667-2867
P And J Transportation,4653 Nc Hwy 65,Reidsville,NC,27320,336-202-6037
Mahamadou Dambaki,414 Key West Mews,Cary,NC,27513,919-995-2363
Clinard Transport,315 Lynnhaven Park Drive,Winston-salem,NC,27107,336-650-1733
On Demand Trucking,168 Tram Rd,West End,NC,27376,910-947-2913
Daniel Malpuss Iii Trucking,115 Fleming St,Wilmington,NC,28401,910-762-8492
Integrity Transport,222 Burnette Acres,Winston Salem,NC,27107,336-771-8762
Wiggins Transport,2871 Meadowlark Rd,Dunn,NC,28334,919-478-6703
B & L Trucking,218 Love Street,Franklin,NC,28734,828-524-0999
Jerry Thompkins Trucking,4327 Camden Rd,Fayetteville,NC,28306,910-674-3330
1st Access Transport,5715 Kimesville Rd,Liberty,NC,27298,336-213-2764
Ark Trucking,644 South Creek Rd,Nebo,NC,28761,828-659-5802
Barringer Trucking,3029 Polk-white Road,Charlotte,NC,28269,704-287-7848
Barnett Trucking,6326 Planters Road,Elm City,NC,27822,252-237-9825
Harris Specialized Transport,750 Body Road,Elizabeth City,NC,27909,252-722-3044
Vicks Auto,17 Williams Rd,Spring Hope,NC,27882,919-269-6246
Your Style Trucking,525 Arlington Circle,Lenoir,NC,28645,404-408-9513
Extreme Movers,5196 Branchside Dr,Granite Falls,NC,28630,828-612-6490
M & R Transportation,1153 Elgin Dr,Conover,NC,28613,828-256-6351
Velo Tax Express,2200 Holiday Dr,Raleigh,NC,27610,919-625-0248
Mccoy Trucking,414 Wesminster Dr,Clayton,NC,27520,404-380-2337
Rock Trucking,6 Johns St,Asheville,NC,28806,828-545-0595
Stone Mill Sales & Service,150 Haunted Branch Road,North Wilkesboro,NC,28659,336-838-1260
B-quick Trucking,4021 Clontz Taylor Road,Marshville,NC,28103,980-328-8157
Alex Trucking,217 Palace Green Lane,Sanford,NC,27330,N/A
Strong Arm Courier Service,1638 Southpoint Crossing Dr,Durham,NC,27713,919-321-1290
Fat Boy Express,2077 Hickory Hill Rd,Chadbourn,NC,28431,910-654-6202
Cool Express Of Nc,3691 Owens Mountain Ave,Connellys Springs,NC,28612,828-397-5479
S & B Auto Transport,5000 Newman Way,Ash,NC,28420,910-473-0696
Mccormick & Sons Trucking,3545 Parker Rd,Booneville,NC,27011,336-466-0832
Prs S & S Horse And Tack,549 Webb Road,Concord,NC,28025,704-784-4449
M F Trucking,195 Asbury Drive,Lumberton,NC,28358,910-738-8006
First Choice Transport,3841 Us Highway 64 W,Mocksville,NC,27028,336-492-2096
Rest Assured Moving,324 Craige St,Gaston,NC,27832,252-578-5881
Bynum Transportation,2602 Arrington Bridge Rd,Dudley,NC,28333,919-581-8053
Scott Farms,5949 Nc Hwy 268,Dobson,NC,27017,336-374-3126
Big Earl's Horse Transport,337 Palamino Rd,Parkton,NC,28371,910-858-3293
21 Brewers Trucking,1282 Wes Brewer Road,Newland,NC,28657,828-733-9785
Crystal Trucking,4303 Sugar Pine Lane,Durham,NC,27705,919-490-4909
Adolph Mckinley Boyce Trucking,149 Whitemon Lane,Edenton,NC,27932,252-809-2261
Jbj Truckin',194 Arthur Haney Road,Dobson,NC,27017,336-710-2203
Puddin Hill Transportation,6115 Us Highway 264,Scranton,NC,27875,770-205-0218
Allen Trucking,301 Wilson Ave,Kinston,NC,28501,252-523-1983
Carolina Express Deliveries,2800 Perimeter Park Drive Ste A,Qmorrisvillle,NC,27560,919-544-4660
P&j Hauling,345 Herbie Road,Carthage,NC,28327,910-464-0455
Hinton Haulers,4122 Helms-funderburke,Marshville,NC,28103,973-216-3274
Anytime Trucking,250 Kara Lane,Lexington,NC,27295,336-731-8570
Monks Transport,8435 Foxtrail Dr,Fayetteville,NC,28311,910-670-1173
R And W Transporters,113 Bradshaw Rd Lot 9,Sneads Ferry,NC,28460,910-327-0305
T & D Wrecker Service,293 Old Hwy 10 West,Marion,NC,28752,828-652-6300
Gladheart Farms Distribution LLC,29 Lora Lane,Asheville,NC,28803,828-255-2484
Nelson Bay Transport,185 Nelson Neck Rd,Sealevel,NC,28577,252-249-1447
G Mack Trucking,2210 Kirkgate Ln,Charlotte,NC,28215,704-910-3809
Eso Trucking,338 Merrimont Dr,Winston Salem,NC,27106,336-760-1409
Ballantyne & Beyond Moving,8910-b Otter Creek Dr,Charlotte,NC,28277,704-544-1800
Smith 526 Transportation,1843 Olsen Lane,Charlotte,NC,28213,919-426-6958
Rivers Trucking,1900 Kingston Drive,Gastonia,NC,28052,704-396-6954
Sutton Automotive And Wrecker Service,1727 South Main Street,Waynesville,NC,28786,828-452-4464
2m Construction Services,7534 Quebec Ct,Fayetteville,NC,28304,910-263-2788
Hookers Transportation & Recovery,213 Harbor Springs Lane,Kings Mountain,NC,28086,704-923-4960
Thomas Kionka Trucking Company,6125 Wilkinson Boulvard,Charlotte,NC,28214,704-831-8236
Andy's Trucking,1523 G Crescent Lane,Mattews,NC,28105,407-929-7408
T & M Haulers,7299 Us Hwy 301 S,Four Oaks,NC,27524,919-963-2069
Mcmillan Transport,59 Lark Avenue,Lumberton,NC,28358,910-734-0251
Carrier,278 Dekota Road,Maxton,NC,28364,910-474-6789
Njb Transport,4900 #d Hoyle Drive,Raleigh,NC,27604,919-896-8118
"All Aboard Transportation, Inc.",1021 W Rowan St Apt I,Fayetteville,NC,28305,910-483-7289
Daniel Smith Trucking,207 Hamilton Road,Lexington,NC,27295,336-243-7526
Hace Lamar Trucking,1306 Alpha Rd,Henderson,NC,27536,252-572-2369
Br Donaldson Clearing & Grading,1280 Cherry Rd,Hayesville,NC,28904,828-389-3441
Wright Trucking,39034 Hwy 740,Badin,NC,28009,704-422-5303
Gilbert R Kuper,194 Barco Rd,Barco,NC,27917,252-207-6091
Coras Transportation,6819 Sullins Rd,Charlotte,NC,28214,704-241-6826
Gabbies Transport,3259 Willoughby Drive,Walkertown,NC,27051,336-749-7614
Stokley Trucking,2513 Dan And Mary Street,Elizabeth City,NC,27909,252-338-8564
Mitchs Auto Sales,84 Depot St,Franklin,NC,28734,828-369-3434
T & H Auto Removers,272 Seminole Drive,Winston Salem,NC,27107,336-769-0790
J A Mendoza Quality Tire Service,519 Bethphage Ln,Monroe,NC,28112,704-320-8742
Superman Transport,3013 Penny Lane,East Bend,NC,27018,336-624-1025
Williams Trucking,981 Deep Bottom Rd,Wallace,NC,28466,910-271-4997
Benjamin Trucking,1671 Sandy Ridge Church Rd,Morven,NC,28119,704-475-4879
Casey Riddle Trucking,234 Locust Grove Road,Weaverville,NC,28787,828-658-3896
Carolina Go Go Cart Trucking,134 Trotter Lane,Beaufort,NC,28516,252-503-9660
Parks Express,1207 Wilmington Ave,Statesville,NC,28677,704-252-9111
C And D Trucking,204 Boswell St,Edenton,NC,27932,252-482-7095
Big Style Trucking,1300 Oak Hill Drive 203d,Wilkesboro,NC,28697,336-818-0085
M A P Trucking Co,522 Mobile St,Greensboro,NC,27406,336-275-4197
Gilchrist Trucking,110 Marvin Dr,Spring Lake,NC,28390,910-436-9469
Silver Lining Services,531 Blackberry Inn Road,Weaverville,NC,28787,828-658-0112
D C Express,520 South Main St,Dobson,NC,27017,336-386-4376
T & J Truckin,544 Smith Hollow Road,Marshall,NC,28753,828-649-9025
Haul Mor,3614 Dallas High Shoals Hwy,Dallas,NC,28034,704-900-8212
Rdb Express,7950 Nations Ford Road Ste D5,Charlotte,NC,28273,800-595-0577
Bryant's Hauling And Transporting,3766 Old Lowery Road,Red Springs,NC,28377,910-843-3568
Heavy Hauling Of Greensboro,7204 Senepole Road,Randleman,NC,27317,336-674-4669
Carrion Trucking,17060 Wood Duck Run,Laurel Hill,NC,28351,910-462-3699
T & S Trucking,465 Running Brook Rd,Midland,NC,28107,704-886-4578
R & R Trucking,3191 C Lake Wendell,Wendell,NC,27591,919-365-4564
Brown's Trucking,3492 Thrower Rd,Hope Mills,NC,28348,910-483-7245
Bobby Grubb Hauling And Grading,476 Weisner Drive,Lexington,NC,27295,336-731-7241
Grose Brothers Trucking LLC,11278 Boone Trail,Purlear,NC,28665,336-984-9628
Whitfield Transport,127 Haywood Bailey Rd,Roxboro,NC,27574,336-330-0365
Hall Furniture Carriers,5079 Fairview Church Road,Trinity,NC,27370,336-471-1994
James Ennis Trucking Limited Liability Company,1405 Union Chapel Road,Burgaw,NC,28425,910-283-0997
Allstates Transport,6632 B Knightdale Blvd,Knightdale,NC,27545,919-633-5240
Jms Transporting,2954 Ripley Drive,Bolivia,NC,28422,910-616-1329
Longshot Transporters,180 Old Airport Road,Statesville,NC,28677,704-380-3113
T & W Express,1251 Fred Powell Rd,Whiteville,NC,28472,910-770-5881
Jfm Logistics,20 Ivey Dr,Sanford,NC,27332,919-356-4993
D & R Trucking,1382 Eli Brown Rd,Williamston,NC,27892,252-217-5349
K P Bridges Trucking,300 Ellis Rd,Gastonia,NC,28056,704-853-8785
Mitchell Transport,753 Goble Road,Hiddenite,NC,28636,N/A
D M Odom Grading Services,823 Waugh St,Greensboro,NC,27405,336-272-7916
Buds Electric,73 Fox Hunter Trail,Brasstown,NC,28902,828-837-8035
Phantom Transport,217 Cedar Park Drive,Clyde,NC,28721,828-627-1644
Matherly Trucking,3502 Windale Ln,Mebane,NC,27302,919-563-2269
Mancave Trucking,24712 Nc 73 Hwy,Albemarle,NC,28001,980-581-3040
K T Transport,4700 Harper Renn Rd,Oxford,NC,27565,919-693-9461
G & C Hauling,871 Bryants Circle,Maxton,NC,28364,910-844-5925
Jbg Trucking,413 E Main St,Beulaville,NC,28518,910-298-5551
Belhaven Freight Transportation,263 E Waters Street,Belhaven,NC,27810,910-462-0158
C & S Carriers,13655 Calloway Glen Dr,Charlotte,NC,28273,704-858-5844
Crc Trucking,78 Cunningham Road,Robbinsville,NC,28771,828-479-8595
Adnamced Disposal,1100 West Craighead Road,Charlotte,NC,28206,704-596-9428
P&l Express Lines,13016 Eastfield Road - Suite 250,Huntersville,NC,28078,704-968-5775
Locklear Trucking,970 Mary C Road,St Pauls,NC,28384,910-374-4324
Zane Freight,46 Bonnie Brae Drive,Weaverville,NC,28787,828-280-7701
Otis Corley Trucking,122 Foxchase Village,New Bern,NC,28562,252-636-1898
High Rock Motor Carrier,421 Scout Rd,Lexington,NC,27292,336-798-6842
Duncan Trucking,Lot 5 Medowlark Lane,Hendersonville,NC,28792,N/A
Pdq Services,750 Church St N,Concord,NC,28025,704-795-9270
M & J Transportation,1340 Bridgton Cape Ct,Winston-salem,NC,27127,336-293-4933
Fortyeight States Trucking,139 Cobb Coley Ln,Dudley,NC,28333,919-729-7233
Pettus Pallet & Recycle Service,4210 Barringer Dr,Charlotte,NC,28217,704-523-4041
Kimrey Trucking,24746 Makayla Dr,Oakboro,NC,28129,704-486-0291
Fhhi Trucking,73 Hollyberry Lane,Marshall,NC,28753,828-656-8105
Teb Trucking,184 Newland Lane,Statesville,NC,28625,704-876-2005
Hearts Song Express,271 Blossom Drive,Pembroke,NC,28372,910-774-9572
Gibsons Trucking,17860 Longview Farms Rd,Laurel Hill,NC,28351,910-268-2255
D Knight Trucking,1931 Munn Pointe Dr,Whitsett,NC,27377,336-558-6233
Ronnie Chaney Trucking,6550 Crayton Rd,Mount Pleasant,NC,28124,704-555-1212
Tml Trucking,595 Iu Gap Rd,Robbinsville,NC,28771,828-479-6711
Southeast Hauling,4014 Tybee Court,Concord,NC,28027,704-701-0185
M & C Trucking,278 Spring Valley Lane,Purlear,NC,28665,336-452-1904
Foothills Auto Transport,1524 Indian Hills Drive,Lenoir,NC,28645,828-455-1563
Oasis Logistics,4000 Fountain Grove Road,High Point,NC,27265,336-307-4188
D L Patterson Auto Transport,390 Turnersburg Hwy,Statesville,NC,28625,704-878-0404
Jones Group,4675 General Howe Hwy,Riegelwood,NC,28456,910-228-1761
W & C Stith Transport,505 Walton St Sw,Wilson,NC,27893,252-234-9471
Toraille Express,1831 Olsen Lane,Charlotte,NC,28213,704-609-8895
Magnolia Boys,1292 Nash Johnson Pond Rd,Magnolia,NC,28453,910-305-7427
Left Lane Delivery,26729 D Valley Drive,Albemarle,NC,28001,704-982-6929
Metrolina Xpress,8508 Park Rd #155,Charlotte,NC,28210,800-416-8250
Gar Transportation,2908 Red Clay Dr Apt#611,Raleigh,NC,27604,N/A
C Garner Trucking,5265 Osborn Mill Rd,Seagrove,NC,27341,336-879-4378
Bostick Trucking,145 Tilley St,Hoffman,NC,28347,910-281-3334
Garrett Trucking,36453 Hwy 49,New London,NC,28127,704-463-0720
James,7031 Pawtuckett Road,Charlotte,NC,28214,704-712-6489
Jose Sanchez,105 4th Street,Rose Hill,NC,28458,910-305-2665
Trivette Transportation,2780 North Brushwood Circle,Newton,NC,28658,828-465-1257
Transportation Systems Development Company,1807 N Pine Street,Lumberton,NC,28358,910-416-0458
Hedgepeth Stap Logistic,3909 Medoc Mountain Road,Enfield,NC,27823,301-542-6373
Allen Transportation,205 Forsyth Dr,Chapel Hill,NC,27517,919-240-9391
J & M Trucking,3325 Aldwych Way,Charlotte,NC,28216,704-942-4632
Wrats Trans,1001 South Marshall St,Winston Salem,NC,27101,336-331-3397
Crs Trucking,1022 Carter Ave,Charlotte,NC,28206,704-892-7512
Spicer Trucking,121 Millbornes Lane,North Wilkesboro,NC,28659,336-667-7824
Sylmar Trucking,700 Phillips St,Shelby,NC,28150,704-466-3439
Gorecki Southern,71 Hunter Dr,Marion,NC,28752,828-659-4209
Dentons Transfer,483 Pop Stirewalt Rd,Salisbury,NC,28146,704-279-5013
Bardwil Trucking,3210 Charlie Elliott Rd,Shelby,NC,28150,704-607-6488
Innovation Transport,6728 Foxberry Rd,Fayetteville,NC,28314,910-728-5853
Jjnj Trucking Co,4964 Buckboard Circle,Concord,NC,28025,704-792-2426
Bass Trucking,4110 Cypress Ave,Wilson,NC,27896,919-522-5276
Sellers Trucking,513 N Greene Street,Wadesboro,NC,28170,704-994-9222
R & A Transport,409 Old Highway Road,Garysburg,NC,27831,252-532-0734
Tew Farms,452 Boren Brick Rd,Roseboro,NC,28382,910-531-2043
Stallings Transport,311 Routledge St,Kenansville,NC,28439,919-790-1354
Land Trucking,912 Young Rd,Stoneville,NC,27048,336-573-2839
Hjt,7 Smoketree Court,Durham,NC,27712,919-237-3258
Barrett Transports,8513 Cleve Brown Rd,Charlotte,NC,28269,704-999-3569
Big Boys Trucking,143 Big Oak Circle,Ruffin,NC,27326,336-694-3095
S & S Go Hard Trucking,3618 Weatherly Lane,Shelby,NC,28150,704-480-0160
Goins Auto Sales,446 Quaker Road,Mount Airy,NC,27030,133-678-6435
Miller Logistics,247 Turner Road,Lexington,NC,27292,336-224-5794
3jc Truckin,3931 Woodmont Ct,Lenoir,NC,28645,828-726-8686
"Stamey Distributing, Inc.",154 Morrison Church Rd,Franklin,NC,28734,828-524-5903
"Allstar Regional Transport, Inc.",Po Box 37929,Raleigh,NC,27627,919-442-7675
Mike Rackley,1202 Old Smith Chapel Rd,Mt Olive,NC,28365,919-223-3802
David's Logistics,444 Tomahawk Dr,Clayton,NC,27520,919-879-9171
Three Brothers Transport,917 N Glenn Ave,Siler City,NC,27344,919-790-1354
Alexander Delivery Service,3400 Freeman Rd,Durham,NC,27703,919-790-1354
Roberts Farms,11525 Nc 87 Hwy W,Tar Heel,NC,28392,910-866-4625
Beaver Transport,3521 Barus Pond Loop,Valdese,NC,28690,828-448-1825
Lort Trucking,399 Nodaway Lane,Thomasville,NC,27360,336-313-6451
Mpd Trucking,156 Kellogg Fork Rd,Sunbury,NC,27979,252-339-3812
J E Holder & Sons Trucking,112 2nd Street Se,Catawba,NC,28609,828-241-1206
Pcs Logistics,2349 Brandt Village,Greensboro,NC,27455,919-790-1354
Currie Transport,4034a High Rock Rd,Gibsonville,NC,27249,336-382-7582
"Icon Trucking, Inc.",2338 Toddville Road,Charlotte,NC,28214,704-496-0139
Rdl,505 W King St,Elizabethtown,NC,28337,910-879-7105
B & M Trucking Co,2485 Doc Lofton Rd,Ayden,NC,28513,252-717-8443
Universal Express,3650 Holly Spring Rd,Ramseur,NC,27316,N/A
Dodd Materials Transport,104 Emily Ct,Garner,NC,27529,919-995-2401
K I M Transportation LLC,121 Franklin Drive,Raeford,NC,28376,910-904-2657
On The Run Transports,1133 Rowland Lane,Mebane,NC,27302,919-563-8933
C C Trucking,806 Willeyton Rd,Gates,NC,27937,252-357-0103
Tai,306 S Andrews Ave,Goldsboro,NC,27530,919-921-6241
V & A Trucking LLC,1140 Connarista Rd,Aulander,NC,27805,252-345-3359
Lb Mobile Carwashing And Services,4639 Byers Ridge Dr,Greensboro,NC,27405,336-617-8396
Edh Trucking,4 Maltese Lane,Weaverville,NC,28787,828-658-2169
Estep Auto Transport,7448 Forney Hill Road,Denver,NC,28037,704-530-6975
Tnt Express 1,7924 Rolling Stone Avenue,Charlotte,NC,28216,704-919-0646
Watson Transport,3586 Old Coleridge Rd,Siler City,NC,27344,919-790-1354
Red Dog Transport,613 White Oak Street,Asheboro,NC,27203,336-736-2721
Crown S Courier Service,2709 Owl Tree Court,Raleigh,NC,27610,919-917-0098
Gardner Trucking,511 Oak Grove Road,Flat Rock,NC,28731,828-693-6877
Avalanche Transport,3032 Christian Scott Lane,Charlotte,NC,28214,704-898-2825
Mcleod Transport,130 Pickett Circle,Vass,NC,28394,910-692-8232
Albright Automotive,5464 South Nc Hwy 49,Burlington,NC,27215,336-214-8426
Jcm Trucking,95 Vixen Lane,Pinehurst,NC,28374,910-295-4488
Perkinsons Trucking,1363 King St,Henderson,NC,27536,252-433-9191
E And L Transport,146 Tangerine Lane,Bunnlevel,NC,28323,910-658-8331
Shannon Transport,600 W Hwy 70,Hildebran,NC,28637,828-729-5609
A&g Transportation Services,7628 Natalie Commons Drive,Denver,NC,28037,864-398-8154
"Rts Trucking, Inc.",5615 Hornaday Rd Suite I,Greensboro,NC,27409,336-587-7728
Young Money Transport,1405 Clear Brook Dr,Shelby,NC,28150,704-470-7044
L&l Transport,525 Lonnie Farm Road,Pembroke,NC,28372,910-827-2649
Allstar Transportation,119 Shady Grove Lane,Richlands,NC,28574,919-324-1449
Cannon Pool Service,37 Central Heights Dr,Concord,NC,28025,704-200-5279
J & S Trucking,780 Mount Vernon Rd,Woodleaf,NC,27054,704-278-4066
Haynesworth Trucking,15529 Rathangan Dr,Charlotte,NC,28273,980-253-1946
Carolina Rapid Express,15823 Herring Gull Way,Charlotte,NC,28278,704-249-4226
Pops Automotive,572 Highway 48 North,Gaston,NC,27832,252-533-9100
John Holmes Trucking,2650 Lasalle St,Charlotte,NC,28216,704-400-1449
Jesus Salas Trucking,9438 Shasta Rd,Bailey,NC,27807,956-454-4752
Blue Diamond Express,1105 First St Apt A,Wilson,NC,27893,916-604-3452
Strickland Trucking,2516 Government Road,Clayton,NC,27520,919-264-6598
M & M Trucking,4032 Little John Circle,Shelby,NC,28152,704-434-5520
Ballard Transport,9030 Gortman Rd,Kernersville,NC,27284,336-310-3103
Mitch Crumley Grading,1393 Old Winston Road,Pinnacle,NC,27043,336-462-9037
Knc Transport,161 Low Creek Lane,Lexington,NC,27295,336-224-2840
King In Me,144 Hickory Nut Drive,Statesville,NC,28677,704-310-0458
M N K,426 Sir David Dr,Zebulon,NC,27597,919-239-0532
 ,8747 New Hampshire Ave,St Louis,NC,63123,314-260-9613
Lb Transports,21b Spicewood Rd,Weaverville,NC,28787,828-645-2072
Caswell Trucking,921 Lazy Branch Dr,Benson,NC,27504,919-623-5816
B L Express,661 Ashmoor Ln,Lexington,NC,27295,336-764-0791
Emerald Transportation,116 Pats Road,Vass,NC,28394,910-245-7124
Cj Hauling,16 Timber Lane,Asheville,NC,28806,828-337-9405
Smitty Trucking,2213 Geddie Place,High Point,NC,27260,336-889-2659
Big Dog Transport,30 Roberts Lane,Hiddenite,NC,28636,704-585-9668
Maina Trucking,6476 Thistle Down Drive,Harrisburg,NC,28075,240-643-7773
Denning Communcation Service,1619 Barmack Ct,Hope Mills,NC,28348,919-200-5775
Cmm Trucking,144 Maple St,Wadesboro,NC,28170,704-694-6612
Gfj,273 Sims Bridge Rd,Franklinton,NC,27525,919-494-1061
Coley Trucking,5129 Reidsville Rd,Walkertown,NC,27051,336-462-1025
D & J Trucking Company,6430 Hwy 72 W,Pembroke,NC,28372,901-521-2143
Ross Brothers Trucking,4001 Jamie Ct Apt 3g,Raleigh,NC,27613,919-795-9408
P&t Handyman,269 John Skinner Rd,Littleton,NC,27850,252-586-2121
K R Trice Utility Services,161 D Alwran Rd,Mount Holly,NC,28120,704-634-6627
Angel Wings Transportation,106 Oak Ridge Road,Dudley,NC,28333,419-466-0094
Bullards Trucking,102 Cornwallis Rd,Riegelwood,NC,28456,910-232-7586
Acc Trucking,73 Vanna Star Ln,Cullowhee,NC,28723,828-293-0470
Setzer Express,3563 Angle Place,Hudson,NC,28638,828-396-7787
Hargrove Enterprise,110 Hillview Circle,Rockingham,NC,28379,910-817-7350
Brent Raymer Racing,400 International Drive,Concord,NC,28027,704-786-0132
Steves Auto Transport,1699 Black Jack Simpson Rd,Greenville,NC,27858,252-758-6075
Snl Trucking,712 Chatham Rd,Winston-salem,NC,27101,336-775-7094
New River Transport,9596 Us Hwy 221 North,Crumpler,NC,28617,336-982-3068
Willey Farming & Freight,1828 Ray Wilson Rd.,Sandy Ridge,NC,27046,336-871-2351
Davis Transport,101-a Chesterfield Court,Greenville,NC,27834,252-413-6320
D & D Trucking,4311 Pitt Street,Ayden,NC,28513,252-814-6290
J & T Hauling,145 Roberts Farm Rd,Rowland,NC,28383,910-522-9752
Lytch Touring,5513 Ocracoke Court,Raleigh,NC,27610,919-231-9671
Mays Meats Transport,541 East Main Avenue,Taylorsville,NC,28681,828-632-2034
S M Trucking,245 Dorothy St,High Point,NC,27262,336-687-1571
Dougs Auto Sale,2439 Norwood St,Lenoir,NC,28645,828-729-1453
Time Now Trucking,5 Cannonball Ct,Greensboro,NC,27455,336-508-4133
Garner & Sons Transportation,329 Gibbtown Rd,Merritt,NC,28556,910-388-4710
National Delivery Service,2590 Ashbourne Dr,Gastonia,NC,28056,704-862-7194
Mcneill Transports,4176 Nc Hwy 49 S,Asheboro,NC,27205,336-953-7854
Elite Trucking,137 Greylin Loop #103,Statesville,NC,28625,347-533-0233
Tommy And Son Hauling Grading And Septic Service,110 Neal Beasley Road,Franklin,NC,28734,828-369-2042
J & J Logistics,7141 Wiggins Mill Rd,Lucama,NC,27851,757-621-9089
Ledfords Auto Sales,3090 Sweeten Creek Rd,Asheville,NC,28803,828-654-9960
Sure Transport,875 Buck Boone Rd,Conway,NC,27820,252-396-1774
Blackcreek Trucking,4006 Concord Hy,Monroe,NC,28110,704-839-1777
Bst Enterprises,14 Old Charlote Hwy Suite 200,Asheville,NC,28803,828-298-5092
Jwc Transport,1196 Deep Bottom Rd,Wallace,NC,28466,910-285-5966
M & W Transport,190 Glen Dale Road,Bolton,NC,28423,910-352-8201
Quick Carriers,4314 Lebanon Road,Efland,NC,27243,919-304-2390
Triad Transport Systems,1324 Florida St,High Point,NC,27262,336-689-4381
Mccollum Transportation,924 Balsam Terrace,Charlotte,NC,28214,704-712-3838
Byron Trucking,1606 White Cross Rd,Chapel Hill,NC,27516,919-240-5444
Skeen Farm And Land Service,5284 Ellen Ave,Archdale,NC,27263,336-434-1512
Buck Truckin,181 Mcfadden Road,Forest City,NC,28043,828-429-9649
Knc Transportation,104 Zander Woods Ct,Mt Holly,NC,28120,704-369-9651
Twinkle Tows,244 Orchard Lane,Taylorsville,NC,28681,828-635-0787
Hardy Trucking Co,104 Rudd Trl,Hollister,NC,27844,252-586-5802
Saunders Transportation,850 W Craighead Rd,Charlotte,NC,28206,980-226-6458
Valley River Transport,340 Interstate Lane,Marble,NC,28905,828-837-9115
Tony Auto Repair,711 Northwest Blvd,Newton,NC,28658,828-695-4412
J & L Transporters,668 Williamsburg Road,Olin,NC,28660,704-876-6552
Family Team Express,3615 Mcelveen Court,Greensboro,NC,27401,336-501-1956
The Open Box Moving Solutions,1314 #15 Tunnel Road,Asheville,NC,28805,828-505-8008
Thomlin Transport,875 Peachtree Hills Rd,Murphy,NC,28906,828-226-8713
Roadwing Transport,1208 Pine Street,Kannapolis,NC,28081,704-421-3040
Rf Transporter,130 Lippard Street,Statesville,NC,28677,704-500-6004
Cd Trucking,9240 Us 158,Conway,NC,27820,252-365-9009
Cd & L,4111 Rose Lake Dr Sye I,Charlotte,NC,28217,704-808-1570
Marian Grabowski Transport,1002 La Charette,Monroe,NC,28110,201-956-3717
Willin' Express,3047 George York Rd,Randleman,NC,27317,336-495-1609
T & W Logistics,6191 Elk Creek Road,Deep Gap,NC,28618,828-406-0829
Cm Logistics,328 Ai Taylor Road,Richlands,NC,28574,910-915-5523
A & T Trucking,105 Planters Run,Elizabeth City,NC,27909,252-335-4646
A & J Transport,187 Stallings Rd,Zebulon,NC,27597,919-610-1974
T & M Leasing,177 Sandy Lane,Richland,NC,28574,910-990-2039
Dje Transport,524 Godwin Ave,Lumberton,NC,28358,910-816-9572
Bac Transport,194 Courtney Lane,Dunn,NC,28334,301-418-2517
Nautical Transport,4900 Brenton Court,Wilmington,NC,28412,770-205-0218
Crenshaw's Carrying Service,16 Dancing Shoes Court,Clayton,NC,27520,917-607-7350
Ravenhawk Transport,7407 Ern Way,Wilmington,NC,28411,910-795-1740
Spencer Logistics,108 6th Street Nw,Conover,NC,28613,828-465-5006
Miles Transport,4715 Merriweather Dr,Winston Salem,NC,27107,704-907-6712
C S One Trucking,1309 Westpointe Drive #1,Greenville,NC,27834,252-364-2044
Sms1010,4166 S Nc Hwy 11,Wallace,NC,28466,917-582-9970
Byrds Hauling And Excavation,1045 Collins Farm Rd,Mount Airy,NC,27030,336-351-3062
H & S Trucking,507 Mcswain Road,Forest City,NC,28043,828-657-4886
Delivery Plus,307 Alison Lane,Archdale,NC,27263,336-259-3316
Lwm Transport,127 Fall Ridge Lane,Broadway,NC,27505,919-548-6140
"All In Deliveries, Inc.",1605 Pinedale Dr,Raleigh,NC,27603,919-779-2839
C & C Trucking,5021 Cottage Bluff,Knightdale,NC,27545,919-791-7529
Riviere Trucking,463 Mayview Dr,Creedmoor,NC,27522,919-328-9926
Distributor Of Matco Tools,7980 Carnostie Dr,Laurinburg,NC,28352,910-266-9880
Motor Carrier,265 Greenfield Dr,Lexington,NC,27295,336-655-8633
Jim Warren Trucking,10152 Hwy 421 North,Zionville,NC,28698,828-964-0835
T Mac Trucking,3630 Centergrove Rd,Concord,NC,28025,704-788-1521
B & N Transport,8908 Windsong Dr,Charlotte,NC,28273,704-907-8007
D&d Hauling,9714 Calpher Ct,Matthews,NC,28105,980-297-2909
Greens Transport,3593 Silver Creek Ln,Stem,NC,27581,919-482-0006
Down To Earth Trucking Grading Excavating,1068 Hawshaw Firetower Rd,Newland,NC,28657,828-783-8686
Foxmoor Transport,2521 Porter Road,Currie,NC,28435,910-789-0364
Strick's Transport,3395 Andrew Jackson Hwy,Chadbourn,NC,28431,910-207-1112
White Hauling & Trucking,6836 Delta Lake Dr,Charlotte,NC,28215,704-532-9035
Kyle A Johnson Trucking,736 Sand Ridge Road,Pink Hill,NC,28572,910-298-3062
Dalton Trucking,5325 Us 70 West,Marion,NC,28752,828-724-4391
Mike Dalton Trucking,5419 Chapman Hollow,Morganton,NC,28655,828-584-3309
Jeff Weis Trucking,2301 Fountain Town Rd,Chinquapin,NC,28521,910-375-0204
Cash Transport,5853 Riverdale Dr,Jamestown,NC,27282,336-885-5510
Bam International,1937 Homeview Rd,Whitsett,NC,27377,908-413-3935
Prestige Courier,2911 Cricketeer Drive,Charlotte,NC,28216,704-631-6562
S & N Express,4147 Suzuki Trail,Lenoir,NC,28645,828-612-6982
Jr Jacksons Trucking,510 Hobbs Street,Roseboro,NC,28382,910-987-4016
C3d Trucking,3575 Prospect Rd,Pembroke,NC,28372,910-521-9167
Demand Delivery,757 Hickory Hollow Road,Gaston,NC,27832,252-286-7841
W D Carlton Trucking,231 C & H Place,Boomer,NC,28606,336-981-5219
Womble Trucking,212 Chiquapin Ln,Mt Ulla,NC,28125,704-663-0294
Straight Up Trucking,402 Ridge St Nw,Lenoir,NC,28645,828-757-0736
Gaffney Trucking,16041g Johnston Rd #136,Charlotte,NC,28277,803-517-5194
Nanrick Enterprises,408 Midway Rd,Rockingham,NC,28379,910-895-1907
Sextant Transport LLC,1314 Old Bay River Road,Grantsboro,NC,28529,252-670-0401
J & R Transport,23772 Justice Branch Rd,Littleton,NC,27850,252-586-6340
Bradley's Trucking,1224 Piney Knob Road,Rutherfordton,NC,28139,828-288-6897
Anita Job Hauling,121 Garrington Island Road,Shawboro,NC,27973,252-336-2437
Trans Express,211 Amethyst Dr,Burnsville,NC,28714,828-682-5208
Jerel T Davis Trucking,271 Shaw Rd,Wallace,NC,28466,910-289-7577
T-trucking,5904 Sm Benton Lane,Monroe,NC,28110,704-283-7199
Reliable Express Delivery,600 Arsley Rd,Charlotte,NC,28207,704-583-0204
T L Phillips & Sons Trucking,2963 Alston Bridge Rd,Siler City,NC,27344,919-663-5701
T & J Enterprise,1406 Longview Ave,Salisbury,NC,28146,704-633-2975
Aka Harvin Transport,544 S Henley St,Southern Pines,NC,28387,910-692-6544
J & S Trucking,11948 Us 421 N,Broadway,NC,27505,919-498-5631
Gordon Transportation,960 Old Linwood Road,Lexington,NC,27292,336-357-0446
Keyestone Logistics,2606 Keyes Place,Lenoir,NC,28645,828-234-4535
Donnie G Smith Trucking,312 S Gold Branch Rd,Richfield,NC,28137,704-322-7758
R & L Trucking,2320 Hwy 43,Vanceboro,NC,28586,252-244-0014
La Shaffer Iii Trucking,737 Pannel Road ,Reidsville,NC,27320,336-344-1285
Et&t Express,4830 Coronado Drive,Charlotte,NC,28212,732-738-5210
"Interstate Autos, Inc.",211 Lynch Street,Rutherfordton,NC,28139,828-286-0071
Norris Trucking,16104 Parasol Tree Pl Apt 106,Charlotte,NC,28278,704-906-7907
Leake Transport,8106 Eastfork Road,Stantonsburg,NC,27883,252-315-4774
T&v Transport,120 Dabbling Duck Cir,Mooresville,NC,28117,704-426-0659
T & N Transport,5150 Nc Hwy 54,Graham,NC,27253,336-376-1334
B & T Trucking,400 Doctor Finch Rd,Henderson,NC,27537,252-433-0442
Kleiman Transport,1396 Whitman Drive,Concord,NC,28027,704-426-9035
K C Graham Trucking,227 Community Rd,Warsaw,NC,28398,910-293-3539
Renegades Transport,7230 Nevada St,Kernersville,NC,27284,336-423-7883
Crowder Transport,662 Tom Camp Rd,Rutherfordton,NC,28139,828-223-0065
Beckelhimer Trucking,1484 Jacob St,Thomasville,NC,27360,336-474-0425
Jmc Express,79 Jordan Dr,Lumberton,NC,28358,910-336-0555
Golden Transportation,546 Eastway Ave,Kannapolis,NC,28083,704-938-8833
Saretta & Taelor Trucking,1619 Fayettville,Durham,NC,27702,919-394-7392
Backhaul Central Expedite,5120 Banfshire Rd,Charlotte,NC,28215,704-241-5761
A&g Hauling,1435 Millpond Road,Elizabeth City,NC,27909,252-771-5782
Thorpes Limousine & Shuttle Service,1615 Us 70 Hwy East,Durham,NC,27703,919-596-8333
Levan Transport,145 Cedar Forest Lane,Mocksville,NC,27028,336-940-6857
Hackstall Transport,322 Moore Town Road,Riegelwood,NC,28456,910-520-3772
Corona Auto Repair Corp,2350 Old Lexington Rd,Winston Salem,NC,27107,336-771-2097
Jag Transport,752 West Firetower Road,Swansboro,NC,28584,252-393-3950
Outlaw's Trucking,403 Quinn Store Road,Beulaville,NC,28518,910-271-1056
Dg Futrell Trucking,135 Pinetop Rd,Newport,NC,28570,252-223-4630
Carry On Transportation,301 Edwards Rd,Chocowinity,NC,27817,252-946-5803
Honeydew Trucking,1500 Bethesda Woods Lane,Clemmons,NC,27012,336-778-2225
H&s Transport,225 Bentley's Drive,Lexington,NC,27295,336-787-3262
Day's Trucking,5821 Raineywood Dr,Mebane,NC,27302,919-568-8710
Arthur Ray Turner Trucking,228 Chapanoke Rd,Hertford,NC,27944,252-333-6830
Epic Express,3743 Sudbury Road,Charlotte,NC,28205,704-562-4034
Extreme Transport,390 Four Lakes Drive,Cleveland,NC,27013,704-202-7220
Hughes Trucking,1060 J V Parker Drive,Hickory,NC,28602,814-598-4210
Derek Wood Gallimore Trucking,5427 Us 64 West,Lexington,NC,27295,336-302-1374
Thompson Trucking,1804 Glenview Dr,Greenville,NC,27836,252-931-0782
W W Walters,329 Houston St,Charlotte,NC,28214,704-361-4632
Fields Hauling,21 Cavalier Rd,Gates,NC,27937,757-374-3548
R & E Trucking,351 Robbins Ln,Lexington,NC,27292,336-202-5553
J T Rivers Trucking,101 Charlestown Pl,Wadesboro,NC,28170,704-694-5236
T Lane Transportation,290 Bethel Church Rd,Jackson Springs,NC,27281,910-974-4071
Albertson Transportation,121 Oak Hills Dr,Rocky Point,NC,28457,910-602-3126
Willard Bryant Faw Jr Trucking,104 Springview Dr,Millers Creek,NC,28651,336-667-5902
Rjh Trucking,355 Nance Rd,Stanfield,NC,28163,980-521-8643
Wall Brothers Trucking,143 Crescent Dr,Oxford,NC,27565,910-571-4963
T J & K Transport,160 Herring Loop Rd,Wallace,NC,28466,910-285-5401
Long Mountian Express,70 Chads Lane,Candler,NC,28715,828-667-4669
J & L Johnson Trucking,2212 Loflin Farlow Lane,Sophia,NC,27350,336-495-8613
Guinn Trucking,754 Nine Mile Rd,Richlands,NC,28574,910-381-2704
M&g Trucking,558 S Nc 11 Hwy,Magnolia,NC,28453,910-271-2073
Charles Ray Riley Transport,1573 A Will Suitt Rd #a,Creedmoor,NC,27522,919-575-8494
Reids Hauling,3264 Deal Mill Rd,Hudson,NC,28638,828-313-2417
Roberts Concessions,1483 Indian Wells Loop,Asheboro,NC,27205,336-629-3523
Bobbie Battle Trucking,730 Saint George Road,Raleigh,NC,27610,919-673-6438
S & S Transport,1578 Denny Road,King,NC,27021,336-983-6944
T L Morgan Trucking,1889 Fawn Haven Lane,Supply,NC,28462,910-842-8035
R&m Trackhoe & Hauling,707 Rhododendron Ave,Black Mountain,NC,28711,828-669-6377
Brad Jonas Transport,5596 Farmington Dr,Oxford,NC,27565,919-693-6923
Calvarys Trucking,1420 Braswell Rd,Chadbourn,NC,28431,910-654-5739
Moving Connections,44 Samayoa Place,Asheville,NC,28806,828-258-0060
Chavis & Son Trucking,3063 Alfordville Rd,Rowland,NC,28383,910-740-3048
Triad Moving And Storage,1031 E Mountain St Buildind 319,Kernersville,NC,27284,336-996-4581
A & S Trucking,206 E Hwy 218,Monroe,NC,28110,704-753-9283
Delivery And Appliance Solutions,306 Orange St,Tabor City,NC,28463,843-241-6243
Jdb Transport,2408 Glencove Way,High Point,NC,27265,336-708-0046
Cummings Transport,4261 Delway Hwy,Harrells,NC,28444,910-337-3516
T M Tyson Refrigerated Transport,44160 Snuggs Road,Norwood,NC,28128,907-376-6704
Banks Transport Ii,101 Lakeside Dr,Clayton,NC,27520,919-553-3195
Dancing Trucking,1705 Harper St,Fayetteville,NC,28312,910-922-4238
Chris' Hauling,102 Patriot Way,Barco,NC,27917,757-621-5259
T&c Trucking,1255 Deer Hill Ln,Millers Creek,NC,28651,336-973-8477
Southern Lighting Services,4133 Us Highway 321a,Granite Falls,NC,28630,828-313-0010
S & M Trucking,198 Douglas Rd,Hamlet,NC,28345,910-582-9963
S & R Auto Transportation,1508 Grassy Hills Lane,Holly Springs,NC,27540,919-567-0464
Move It Now Of Raleigh,9701 Fayetteville Rd,Raleigh,NC,27603,919-577-6628
Aol Freight Solutions,1836 Center Park Drive,Charlotte,NC,28217,704-329-7395
Wheels Around America Auto Transport,100 Elfreth Lane,Spring Lake,NC,28390,910-315-7075
Southeast Auto Express,5708 Scrub Oak Ct #10,Fayetteville,NC,28311,910-797-6740
K G Transport,1015 Bethlehem Church Rd,Youngsville,NC,27596,252-230-4846
Knight Trucking,107 Porter Lane,Sanford,NC,27330,919-776-3653
King's Mobile Movers,274 Curtis Creek Rd,Candler,NC,28715,828-665-4719
Jl Logistics,440 Annaberg Ln,Monroe,NC,28110,704-225-1000
Lee Trucking,6541 Paces Arbor Cir Apt 224,Raleigh,NC,27609,919-279-7348
Dale's Trucking,304 Fawn Dr,Henderson,NC,27537,252-767-5531
Reyna Azteca Distribution,3921 Cornerwood Ln Apt 11,Charlotte,NC,28211,704-491-1297
J & K Trucking,200 Buckhead Road,Harmony,NC,28634,704-546-5166
Shaw Trucking,100 Hunterhill Rd Apt 2b,Tarboro,NC,27886,252-567-3214
Hyco Equipment,6115 Leasburg Road,Roxboro,NC,27574,336-330-0644
Morgan Trucking,3936 Baybrook Rd,Nashville,NC,27856,252-443-5231
General Transport,6822 Branson Mill Rd,Pleasant Garden,NC,27313,336-676-0410
Ll Trucking,216 Bost #4,Kernersville,NC,27284,336-993-7410
M M Transport,562 Marion Amos Rd,Roseboro,NC,28382,910-525-5990
Carolina Moving And Currier,112 Marigold Ln,Lexington,NC,27292,336-596-3423
Kuhn Logistics,15336 Old Statesville Road,Huntersville,NC,28078,704-947-6683
A & G Dozier Hauling,122 C Stiles Ln,South Mills,NC,27976,252-771-2914
M And T Express,1759 Hamburg Road,Bakersville,NC,28705,828-221-3591
"Wildchild Enterprises, Inc.",143 Dock Landing Loop,South Mills,NC,27976,757-560-4543
Blue Ridge Transport,8221 Spotswood Road,Summerfield,NC,27358,336-337-4509
Elite Auto Transport,1130 Clyde Edgerton Dr,Kernersville,NC,27284,336-992-3388
Hill Logistics,144 Westbridge Rd,Winston Salem,NC,27107,336-708-0856
3rd Byrd Trucking,4812 Oak Bend Court,Charlotte,NC,28215,704-545-1292
Wood Trucking,398 Gum Spring Rd,White Oak,NC,28399,910-866-5493
Ramdass Delivery Services,1006 N Bragg Blvd Apt 173,Spring Lake,NC,28390,917-549-0527
Harmon's Transport Service,429 No Creek Road,Mocksville,NC,27028,336-998-6065
Shull Trucking,1050 Moriah Road,Rougemont,NC,27572,336-364-7457
Linda's Auto Transport,120 Green Lane,Clayton,NC,27520,919-359-8188
3d Trucking,110 Jerome St,Wingate,NC,28174,704-200-5401
Pummill's Express,2021 Rougemont Lane,Kernersville,NC,27284,336-307-9209
Unlimited Freight Options,1636 Fawn Ln,Creedmoor,NC,27522,919-795-3739
Tlc Express,5702 Whichard Road,Stokes,NC,27884,252-367-4282
Big Will Trucking,305 N Grimes St,Robersonville,NC,27871,252-320-4428
Betz Freight,79 Lighthouse Rd,Ocracoke,NC,27960,252-928-0048
Noble Eagle Transport Of Nc,2644 Crowders Creek Rd,Gastonia,NC,28052,704-830-6736
Vargas Transportation,4329-b Kernersville Rd,Kernersville,NC,27284,336-784-9868
Ez Access Movers,2650 Windsor Chase Drive,Matthews,NC,28105,704-845-6683
Turtle & Company,1120 Ivey Church Road,Maiden,NC,28650,828-428-8127
Kelly Transport,545 S Mechanic Street,Southern Pines,NC,28387,910-692-2587
Taybron Trucking,3705 Rasberry Dr,Wilson,NC,27896,252-237-9134
Bennett Trucking,949 Macon St,Asheboro,NC,27203,336-736-8331
B E I Transport,7304 Pebblestone Dr Apt F,Charlotte,NC,28212,704-563-9165
Norok Transportation,7825 Vinings Oak Ln Bldg 7825 Apt 927,Matthews,NC,28105,704-844-9043
Accurate Shipping Resources,8642 W Market St Suite 144,Greensboro,NC,27409,336-294-4200
Mac's Auto,143 Faith Rock Road,Franklinville,NC,27248,336-824-1002
Double E Transport,231 Drye Rd,Council,NC,28434,910-655-2422
Ease,219 Big Tree Drive,Statesville,NC,28677,704-980-4116
J C Finch Trucking,103 Dove Rd,Oxford,NC,27565,252-213-0929
M&r Trucking,8948 Ambridge Lane,Kernersville,NC,27284,336-992-4461
On Time Trucking,2114 Joe Road,Statesville,NC,28625,203-685-3948
Burgess Express Carrier,106 Mallow Lane,Roanoke Rapids,NC,27870,252-537-6523
Wannako Xpress Carrier,21 Short St,Candler,NC,28715,828-279-4099
Ken And Arts Motion Picture Catering Service,139 Buckeye Road,Leland,NC,28451,910-620-8868
D&r Transport,8227 Hwy 107 South,Cullowhee,NC,28723,828-293-3024
S T A Trucking,1074 S Lake Lodge Rd,Henderson,NC,27537,252-767-9455
Charles Owens Trucking,197 Oakland St,Locust,NC,28097,704-668-1530
Competition Auto Sales,336 I40 Access Rd,Hilderbran,NC,28637,828-397-2666
Jay Hardin Trucking,465 Wade Rd,Fairmont,NC,28340,910-628-0489
Cmc Grading & Hauling,471 Steel Hopper Way,Garner,NC,27529,910-528-2197
C & C Trucking,366 Buck Rd,Maxton,NC,28364,910-844-7010
J & G Transport,5140 Carolina Beach Rd # 218,Wilmington,NC,28412,910-386-3959
S & K Express,1168 Bailey Rd,Fairmont,NC,28340,910-258-4658
Lazy B Farms,2181 Fountaintown Rd,Chinquapin,NC,28521,910-324-8000
Michael W Floyd Trucking,62 Tamaras Court,Pisgah Forest,NC,28768,828-884-6875
Farmbrook Hauling LLC,5150 Wilson Rd,Maxton,NC,28364,910-843-2566
Fast Lane Auto Recovery,349 Rocky River Rd,Oakboro,NC,28129,704-533-1751
Love's Trucking,402 Dan Bryant Road,Pilot Mountain,NC,27041,336-429-3016
Bennett's Hauling,435 Mcneill Road,Southern Pines,NC,28388,910-315-8504
Kar Enterprises,4114 Jacumin Rd,Valdese,NC,28690,828-874-5595
Seymore Trucking,243 Bartlett Rd,Camden,NC,27921,252-336-4473
K Cox Trucking,302 Bennetts Bridge Rd,Mount Olive,NC,28365,919-658-0016
Randall C Hanes Logistics,3868 Hwy 158,Mocksville,NC,27028,336-655-2868
Colvin Trucking,311 Sanchez Drive Lot 1a,Lumberton,NC,28358,910-286-7378
Keene Trucking,144 Hall Siding Rd,Ahoskie,NC,27910,252-332-4815
Arrowood & Son Hauling,935 Big Island Road,Rutherfordton,NC,28139,828-245-4597
Rcs Grading & Trucking,69 Regal Knolls Dr,Mills River,NC,28759,828-337-4505
Eastridge Trucking,1449 Congo Road,Wilkesboro,NC,28697,336-838-8830
4g Trucking,4653 Hidden Hollow Ln,Knightdale,NC,27545,919-217-9338
Wynn Trucking,116 Briarwood Drive,Selma,NC,27576,919-965-0741
Hodges Transport,648 Lowe Rd,Mt Airy,NC,27030,336-326-6814
Smith Trucking,479 Sweet Home Church Road,Elizabethtown,NC,28337,910-991-6153
Freeman Trucking,3341 Spies Rd,Star,NC,27356,910-220-7368
Hot Shot Pressure Washing & Hauling,2351 26th Street Ne,Hickory,NC,28601,828-256-8748
Merritt Trucking,629 Sugs & Taylor Rd,Dublin,NC,28332,910-876-3082
Young Trucking,656 Shaw Rd,Riegelwood,NC,28456,910-655-9363
Line D Express Transport,1800 Old Humblemill Rd,Asheboro,NC,27205,336-289-1743
Mcdougal Transport,3515 Rivermist Drive,Raleigh,NC,27610,919-291-0018
G & C Transport,109 Raspberry Ct,Willow Spring,NC,27592,919-639-3796
Bob's Trucking,1345 Southwest Greenville Blvd,Greenville,NC,27834,252-227-4133
Distribuidor Guerrero,1330 Caudle Rd,Randleman,NC,27317,336-498-0193
Delivery Direct,30 Birnham Ln,Durham,NC,27707,919-493-3150
Awl Transport,10235 Stokes Ferry Rd,Gold Hill,NC,28071,704-637-7271
Hill Trucking,440 L Vengeance Creek Rd,Marble,NC,28905,828-837-0273
Dawson Trucking Co,960 Mcnair Rd,Plymouth,NC,27962,252-799-1772
Kings Transport,3905 Garrett Rd,Durham,NC,27707,919-943-6460
J&t Transport,207 New Hope Church Road,Battleboro,NC,27809,252-885-6713
Don King's Transport,102 Milford Lane,Durham,NC,27713,919-544-5282
R D Clark Trucking,67 Icard Ridge Rd Ext,Granite Falls,NC,28630,828-495-4747
Wright Truck Sales,213 Crowatan Rd,Castle Hayne,NC,28429,910-675-0987
Maldonado Trucking,13029 Blaze Manor Lane,Charlotte,NC,28215,704-737-6363
Mid South Transport,2080 Wicker Lovell Rd,Randleman,NC,27317,336-302-9815
D & M Trucking,1601 North 117 Hwy By-pass,Goldsboro,NC,27530,919-735-0244
Pin Express,4649 Barrington Hills Lane,Garner,NC,27529,919-326-1706
Coopers Trucking,147 Rummage Pack House Road,Ellerbe,NC,28338,910-652-4969
Keith Morgan Hauling,153 Hardin Rd,Ruthrfordton,NC,28139,828-286-8100
Emmanuel Trucking,702 Bennett St,Asheboro,NC,27203,336-308-6158
Big D's Trucking,1098 Hitching Post Rd,Roseboro,NC,28382,919-778-7646
Early Trucking,3017 Tarlton Mill Rd,Marshville,NC,28103,704-296-2268
Control Services Transportation,5545 Old Still Road,Wake Forest,NC,27587,919-424-1227
Paragon Pre-owned Center,5322 Fayetteville Rd,Raleigh,NC,27603,919-661-9696
Dtm Trucking,149 Bobcat Ln,Henderson,NC,27536,252-430-8555
D And C Trucking Co,451 Fork Bixby Road,Advance,NC,27006,336-940-5724
J & J Trucking,1075 Blue Sky Road,Halifax,NC,27839,252-536-2030
Howarth Trucking,130 Big Oaks Rd,Bryson City,NC,28713,828-488-4364
Dock's Trucking,2396 Joe Gardner Rd,Grifton,NC,28530,252-524-6918
Crs Trucking,281 Richey Road,Taylorsville,NC,28681,828-495-7755
Asheville Auto Transport,300 Long Shoals Rd Apt 4r,Arden,NC,28704,828-316-9034
Ldr & Son Transport,202 N Webster Street,Rowland,NC,28383,910-734-8063
Colly Creek Express,11730 Us 701 North,Garland,NC,28441,910-874-5757
Dba Kam Trucking,2646a Alamance Ch Rd,Greensboro,NC,27406,336-482-7519
Davis Trucking,32 Jones St,Clyde,NC,28721,828-627-2414
Maynor Transport,1404 Eisenhower Street,Lumberton,NC,28358,910-739-5785
Robby Murchison Trucking,3615 Pilson Rd,Cameron,NC,28326,919-235-2769
D And C Trucking,4612 Hwy 710 N,Pembroke,NC,28372,910-521-8514
"Buffaloe Transport, Inc.",109 Annotto Bay Lane,Garner,NC,27529,919-661-8334
Rnk Delivery Service,8737 Robinson Forest Dr,Charlotte,NC,28277,704-795-4568
Leary Trucking,1905 Hwy 561,Harrellsville,NC,27942,252-356-2708
Buie Transport,3461 Buie Philadelphus Rd,Red Spring,NC,28377,910-736-5766
Boyles Transport,1933 N Nc Highway 109,Thomasville,NC,27360,336-687-6835
Senegal Trucking,2924 Haig Street,Greensboro,NC,27405,336-375-6822
Verbal's Trucking,6110 Ashmont Rd,Aberdeen,NC,28315,910-783-5827
Brice Mcghee Trucking,9648 Hwy 23,Mars Hill,NC,28754,828-689-5519
Monteith Bros Tractor,357 Bamboo Trail,Sylva,NC,28779,828-689-7252
Hard Luck Trucking,320 Warner Rd,Raeford,NC,28376,910-875-2033
Terry Killoughs Longleaf Pine Needles,5002 Belk Mill Rd,Monroe,NC,28112,704-764-7982
Moore Brothers Trucking,5128 Forest View Heights Rd,Oxford,NC,27565,919-603-3736
Klink Transfer And Storage,9258-1 Us Hwy 421 N,Zionville,NC,28698,828-264-9309
Lone Wolf Trucking,554 Hwy 109,Mt Gilead,NC,27306,910-571-1701
Murphy Trucking,302 Bailey Settlement Rd,Green Mountains,NC,28740,828-688-9045
A & J Trucking,1662 Running Brook Rd,Creedmore,NC,27522,919-697-1824
M F Trucking,261 Bt Washington Rd,Clarkton,NC,28433,910-647-0862
T & A Transport,449 Newsome Grove Rd,Ahoskie,NC,27910,252-332-5757
Little Hauling,14910 Bull Hill,Oakboro,NC,28129,704-485-4436
Smalley Trucking,935 Cotton Grove Rd,Lexington,NC,27292,336-287-4133
R C Transport,206 Powers Dr,Elizabeth City,NC,27909,252-562-5131
Lee & Vons Hauling,3023 Capitol Drive,Charlotte,NC,28208,704-957-8358
Ochoa Trucking,1930 Paradise Rd,Edenton,NC,27932,252-482-5435
J-mak Transport,212 Remington Dr,Midway Park,NC,28544,910-577-6627
Mary Garris Trucking,428 Taylor Road,Polkton,NC,28135,704-272-7847
G And T Autotransport,5754 Bear Creek Cir,Fayetteville,NC,28304,910-286-5505
Mcneil Brothers Trucking,123 East Albemarle St,Edenton,NC,27932,252-340-1730
Sham Rock Transit,4236 Doc Bennett Rd,Fayetteville,NC,28306,910-483-8224
Pj Trucking,2171 Nettlebrook Drive,Winston-salem,NC,27106,336-923-0076
James Mccray Trucking,7309 Conifer Circle,Indian Trail,NC,28079,704-882-0908
Underdog Transport,714 Langtree Rd,Mooresville,NC,28115,704-987-4246
West Transport,275 Green Meadow Lane,Roxboro,NC,27574,336-599-1632
R&n Faw Trucking,868 Huffman River Lane,Purlear,NC,28665,336-973-3842
V N P Trucking,4509 Ryan St,Durham,NC,27704,919-452-7530
L Mcintyre Trucking,2709 Brookhaven Dr,Sanford,NC,27330,919-499-7535
On Our Way Courier Service,1811 Sardis Rd North Suite 208,Charlotte,NC,28270,704-846-7874
J & K Trucking,1446 Hwy 461,Ahoskie,NC,27910,252-332-6681
Action First Transportation,2604 Mcgill Street,Kannapolis,NC,28081,704-791-8320
Cogdell's Trucking,303 Dixon Dairy Rd,Kings Mtn,NC,28086,704-730-8450
Kelly Trucking,585 Causby Rd,Morganton,NC,28655,828-584-6770
W & J Almond Trucking,20624 Old Concord Rd,Albemarle,NC,28001,704-983-2721
Wells Trucking,3809 Symi Circle Apt 6,Morehead City,NC,28557,252-521-0894
Qmaatjbs Truck Service,706 West 1st St,Weldon,NC,27890,888-787-7407
Pjt,6012 Carriage Oaks Drive,Charlotte,NC,28262,704-737-1196
Neils Transport,206 Oakhurst St,Gibsonville,NC,27249,336-260-4700
Wayne Jarvis Trucking,33 Suitt Rd,Franklinton,NC,27525,919-702-4447
Night Light Express,30 Edmonds Road,Weaverville,NC,28787,828-645-0814
K & T Hunt Trucking,4430 N Chicken Rd,Pembroke,NC,28372,910-522-1266
Dollar Bill Trucking,1068 Ramsey Road,Jacksonville,NC,28546,910-455-5696
Crh Trucking,260 Legacy Ln,Lillington,NC,27546,910-893-6184
R A Foy Transportation,8012 Old Concord Rd,Salisbury,NC,28146,704-216-2009
I & J Trucking,2513 Acorn Branch Rd,Wilmington,NC,28405,910-762-5597
Brower Trucking,102 Baldwin Unity Village Via Mcintyre Rd,Ellerbe,NC,28338,910-461-8788
Jcs Heavy Hauling LLC,171 Hawk Road,Ernul,NC,28527,252-633-0241
S D Trans,3562 Love Rd,Claremont,NC,28610,828-695-9473
Rutherford County Transport,558 Morrow Motor Road,Forest City,NC,28043,828-289-4362
Kpjr Transport,611 Elmwood Ct,Wake Forest,NC,27587,919-830-8080
D P Transport,209 Fosseway Drive,Greensboro,NC,27455,336-644-8040
U-style Limo Service,130 Maggett Street,Murfreesboro,NC,27855,252-396-0053
Tdc Deliveries,3400 Friendship Ledford Rd,Winston-salem,NC,27107,336-399-0173
Old Foundry Body Shop,9827 Nc 211,Red Springs,NC,28377,910-843-3792
Byrel Trucking,1928 Peach Farm Road,Lillington,NC,27546,910-814-3313
D & K Trucking,4209 Us Hwy 601 North,Mocksville,NC,27028,336-492-2392
Twin Screws Trucking,430 Woodville Rd,Hertford,NC,27944,252-264-5666
Felder Trucking,195 Farley Circle,Roanoke Rapids,NC,27870,252-673-2465
Hunt & Son Trucking,112 Bertha Jones Rd,Rowland,NC,28383,910-521-9115
Spoon Trucking,122 Hunters Ridge Rd,Grandy,NC,27939,757-777-0342
D & J Trucking,108 Camelot Road,Hertford,NC,27944,252-333-5404
Tison Transport Service,139 Brendle Cove Lane,Hayesville,NC,28904,828-389-3489
1st Class Auto Transport,5801 Louise St.,Fayetteville,NC,28314,803-854-0088
B R W Trucking,600 Community Road,Shelby,NC,28150,704-480-7442
Flythes Backhoe Service,814 Peanut Market Rd,Seaboard,NC,27876,252-578-0426
Anthony Ray Mayes Trucking,1277 John Owen Rd,White Oak,NC,28399,910-991-5799
"Triad Asset Recovery, Inc.",110 Salem Creek Drive Suite D,Winston Salem,NC,27103,336-765-6330
Little Chris Trucking Company,8283 Highway 561 East,Halifax,NC,27839,252-536-3060
Nu Crescent Trucking,3204 Slippery Elm Dr,Raleigh,NC,27610,919-521-6831
"Tarheel Transportation Xpress, Inc.",601-3s Friendway Rd,Greensboro,NC,27410,336-375-8558
F & B Transport,641 Long Shank St,Hope Mills,NC,28348,910-423-7999
Mwt Trucking,8927 King Rd Ne # B,Leland,NC,28451,910-471-5541
Dmt Express,1049 S First St,Nashville,NC,27856,252-459-3510
Dorrell Trucking,480 Cherry Street,Wadesboro,NC,28170,704-475-8051
Steady Moven Trucking,816 Williford St,Rocky Mount,NC,27803,252-363-9218
Swinson Transport,118 Grange Dr,Wendell,NC,27591,919-366-9393
Caprars Auto Transport,136 Quiet Cove Road,Mooresville,NC,28117,704-230-7891
J-express,8501 Tower Point Dr Ste B,Charlotte,NC,28227,704-210-8859
Cannon Transport,768 Sam Brown Rd,Gastonia,NC,28056,704-914-6429
Boyles Trucking,496 Pleasant Hill Church Rd,Ellerbe,NC,28338,910-995-2008
Gbi Transport,16 Purvis Lane,Cameron,NC,28326,910-497-4931
Powder Magic,1005 Chatham Church Rd,Moncure,NC,27559,919-696-4527
Fagar Express,1520 Hoyle St,Gastonia,NC,28052,704-200-4835
Covington Truck Lines,147 Sonoma Dr,Cleveland,NC,27013,704-528-0026
Larry Wright Trucking,6234 Southlake Drive,Hickory,NC,28601,828-310-0366
"Carolina Green, Inc.orporated",2718 Toddville Road,Charlotte,NC,28214,704-394-3152
Garrell's Transport,100 Farm Trail,Chadbourn,NC,28431,910-640-8487
Rightaway Transport,2419 Mclean Road,Charlotte,NC,28213,704-320-1091
Baker Trucking,1221 Seabrook Rd,Raleigh,NC,27610,910-271-4064
R & R Carriers,225 W Main Street,Burnsville,NC,28714,828-284-1454
D Brown Trucking,185 Ezzell Road,Clinton,NC,28328,919-376-9536
Csc Trucking,5701 Tice Rd,Marshville,NC,28103,704-272-7035
Ck Express,5841 Neck Road,Huntersville,NC,28078,704-712-1970
Cds,408 S Mclin Creek Road,Conover,NC,28613,828-464-8355
Cross Creek Trucking,184 S Holiness Church Rd,Wilkesboro,NC,28697,336-973-5352
Small Time Trucking,1593 Cool Springs Rd,Ernul,NC,28527,252-259-7756
Hunter Trucking,1420 Hwy18 S,Moravian Falls,NC,28654,336-667-7820
Martinez Transport,5532 Scuppernong Road,Wilson,NC,27893,252-373-2160
4u2 Express,3057 Burney Ford Road,Clarkton,NC,28433,910-645-2546
Amaljjon Transportation,189 Rivercroft Dr,Red Springs,NC,28377,910-848-1213
W & A Express,339-a Britt Rd,Four Oaks,NC,27524,919-288-8917
Carolina Express Transportation,2858 Wilmington Hwy,Jacksonville,NC,28540,910-353-3300
Bridges Trucking,610 Cedar Street,Wadesboro,NC,28170,704-475-1247
Jo Jos Hookup Towing And Transport,102 Little Kinston Road,Swansboro,NC,28584,252-342-5866
A & M Trucking,817 Haynes Lennon Hwy,Cerro Gordo,NC,28430,910-654-0227
Myricks Trucking,396 Havenbrook Way,Concord,NC,28027,704-652-8810
Dgl Trucking,43 Crepe Myrtle Lane,Tarheel,NC,28392,910-876-1967
K & D Trucking,509 Catherine Creek Rd Apt B,Ahoskie,NC,27910,252-209-4541
D W Boatman,1811 Crossbridge Dr,Monroe,NC,28112,704-989-6364
S Class Transport,20201 Floral Ln,Cornelius,NC,28031,704-894-9029
Boggs Trucking,364 Ellington Road,Graham,NC,27253,336-376-6800
Crotts Trucking,2665 Valleyspring Road Lot 12,Kernersville,NC,27284,336-754-3341
Tucker Transportation,1169 Onslow Pines Road,Jacksonville,NC,28540,254-226-0343
Nimai Transport,3375 Moir Farm Rd,Sandy Ridge,NC,27046,336-593-8200
Ronnie Luke Jr Trucking,321 Bethany Church Rd,Cofield,NC,27922,252-287-8861
Charleston Trucking,8109 Baylis Drive,Huntersville,NC,28078,704-464-1194
Kimzey Trucking,8 Bantam Path,Mills River,NC,28759,828-329-1060
D S V Trucking,2440 Pine Meadow Dr,Kernersville,NC,27284,336-869-3289
S & B Produce,116 Chalcedony St,Raleigh,NC,27603,517-507-0612
Rick A Lindsay,3365 Jessie Hill Dr,Clarmont,NC,28610,828-234-4502
Ward Brothers Trucking,3189 Saddletree Road,Lumberton,NC,28360,910-258-6453
Wc Craft Trucking,901 Hwy 58 Lot 21,Swansboro,NC,28584,252-241-1562
Uncle Bobs Transport LLC,207 Bingham St,Carthage,NC,28327,910-947-7231
Credle & Vines Trucking,2401 Mill Street,Winterville,NC,28590,252-355-6681
Circle T Farms,1725 Nc Hwy 82,Dunn,NC,28334,910-892-2778
Kirby Trucking,1255 W Wall Street,Lilesville,NC,28091,704-848-4041
Eric L Cukrowicz Trucking,811 N Broad St,Roseboro,NC,28382,910-249-3969
Ac Trucking,2830 Austin St,Raleigh,NC,27603,919-625-6595
New Age Transport,3627 Westfield St,High Point,NC,27265,336-847-9583
Four Seasons Transport,110 Sloan Avenue,Morganton,NC,28655,828-437-6957
G S Trucking,25784 U S Hwy 421,Willard,NC,28478,910-283-6095
C&p Transport,6705 Foxberry Road,Fayetteville,NC,28314,910-670-5660
Papa Smurf Trucking,268 London Church Rd,Roanoke Rapids,NC,27870,252-535-2322
It Trucking,2703 Rondeau Court,Matthews,NC,28105,704-845-1508
T & L Transport,142 Carver Creek Drive,Dallas,NC,28034,704-813-1692
East Coast Transport,Apartment A 516 Virginia Road,Edenton,NC,27932,252-482-7500
Jansen Transport,125 Royall Rd,Thurmond,NC,28683,336-874-2911
E M Trucking,633 N Colony Rd,Chadbourn,NC,28431,910-234-9709
Ken Krause Co,148 Rice Road,Vass,NC,28394,910-245-4540
Dry Creek Trucking,626 Dana Rd,Hendersonville,NC,28792,828-808-0251
Halcorp,100 Poplar Court,Richlands,NC,28574,910-934-1900
Dennis Carter Trucking,1903 Milling Road,Mocksville,NC,27028,336-682-1450
Doug Wilson Trucking,2433 Lang Skinner Dr,Lagrange,NC,28551,252-775-0101
Shekinahglory Recovery & Evacuation,738 Ghio Rd,Hamlet,NC,28345,910-582-3487
Campbell Trucking,5422 Willard Road,Staley,NC,27355,336-669-0035
Css Express,7194 Freindship Ledford Rd,Winston Salem,NC,27105,336-692-6080
Southern Show Service,7651 Briardale Dr,Charlotte,NC,28212,704-400-2062
Keep Rolling,2333 Belmeade Dr Lot 18,Charlotte,NC,28214,910-391-7923
Kl Roark Trucking,787 Willett Miller Rd,Todd,NC,28684,336-877-1807
Hidden Springs Ranch,6421 Pulley Town Rd,Wake Forest,NC,27587,919-562-7676
J & J Auto Transport,120 Thomas Ln,Hampstead,NC,28443,910-270-4612
Double Bull Trucking,1080 Camp Rd,Salisbury,NC,28147,704-239-1202
Js Jackson Trucking,402 Wm Hooker Dr,Hookerton,NC,28538,252-531-2992
Max R Palmer Trucking,234 Blazing Trail,Waynesville,NC,28786,828-342-3306
Whitley Auto Sales,24481 Nc Hwy 24-27,Albemarle,NC,28001,704-983-1530
Ryggs Hauling,150 Ephrem Rd,Clemmons,NC,27012,336-764-4576
Johnson Trucking,534 Tate Rd,Willard,NC,28478,910-285-5210
Furniture Express,6819 Dawn Acres Drive,Trinity,NC,27370,336-688-9112
Big Gs Transporting,2254 Rl Routh Dr,Franklinville,NC,27248,336-653-1177
Robinson Trucking,512 Prince Williams St,Reidsville,NC,27320,336-349-6424
Pettis Trucking And Hauling,8604 Catawba Cove Dr,Belmont,NC,28012,704-861-8611
Go Transport,350 Linn Avenue,China Grove,NC,28023,704-933-6239
M&r Trucking,113 Gladwood Circle,New Bern,NC,28560,252-670-7506
Fields Trucking,20 Parsley Ln,Littleton,NC,27850,252-578-3436
Gizzmo Link,137 Reagan Lane,Bostic,NC,28018,828-286-2790
K A B Transport,267 Otis Brown Dr,North Wilkesboro,NC,28659,336-262-8645
William R And Priscilla M Bowen Trucking,2774 Tom Sessions Rd,Whiteville,NC,28472,910-647-0900
Hester Transport,10 Blazing Star Ln,Bahama,NC,27503,919-477-9332
C4 Delivery Services,1001 E Wt Harris Blvd P154,Charlotte,NC,28213,704-599-1725
Paul's Trucking,275 Four Lakes Dr,Cleveland,NC,27013,704-798-0724
Andrew Mciver Trucking,507 Bragg St,Sanford,NC,27330,646-299-2770
Roadking Xpress,6001-a West Market St,Greensboro,NC,27409,336-268-2640
Sunny Transport,3509 Artee Rd,Shelby,NC,28150,704-297-0958
John King Trucking,120 Johnson Farm Road,Rose Hill,NC,28458,910-284-2043
Long Branch Grading And Hauling,Diamond Creek Road,Rosman,NC,28772,828-877-3080
M-l-b Express,901 Tatum Dr,New Bern,NC,28560,252-626-3199
Gta Trucking,2611 Old Hwy 601,Mt Airy,NC,27030,336-443-3004
Aj And Sons Transportation,144 Maranatha Circle,Spring Lake,NC,28390,910-497-3774
Mighty Movers,673 Chestnut Ln,Mars Hill,NC,28754,888-909-3560
F J F Transport,4142 Old River Rd,Canton,NC,28716,828-648-0833
Bennie Nguyen Franks Trucking,914 Autumn Dr,Greenville,NC,27834,252-321-7509
Gearbuck Aviation Services LLC,6321 E Bryan Blvd,Greensboro,NC,27409,336-665-1060
Magnum Trucking,640 Strange Road,Louisburg,NC,27549,919-496-9884
Inlaws Pickup & Delivery Service LLC,1372 Little Rd,Newton,NC,28658,828-217-4041
Joe Hamilton Trucking,205 Wynona Drive,Denton,NC,27239,336-859-2730
Sparkling Image Transfer,2195 Amity Hill Rd,Cleveland,NC,27013,704-278-4387
Americars,1268 U S Hwy 17s,Elizabeth City,NC,27909,757-287-8444
Premier Trucking,316 Kingston Ave ,Rocky Mount,NC,27803,252-442-8154
Hb Kid Express,203 Clearview Dr,Holly Ridge,NC,28445,910-376-1039
Kenny Mack Trucking,6166 Post Rd,Thomasville,NC,27360,336-475-4394
Unified Transport,21 Bryan Godwin Court,Erwin,NC,28339,910-897-5401
Motleys Trucking,145 Moores Subdivision,Jackson,NC,27845,252-578-3081
Winstead Trucking,3345 Burney Town Road,Kinston,NC,28501,252-208-1545
"Las, Inc.",505 Ansonville Polkton Road,Ansonville,NC,28007,704-826-8922
Flavjack Touring & Transort,1074 West Chapel Rd,Asheville,NC,28803,828-279-7173
Aim Trucking,708 Briarwood Street,Reidsville,NC,27320,336-349-5845
Rmk Trucking,1240 Belk Road,Mt Ulla,NC,28125,704-663-7569
Rgs Trucking,1707 Pinedell Ave,Monroe,NC,28110,704-242-3856
Air Truck Express,4814-b West Blvd,Charlotte,NC,28208,704-359-0024
True Transport,430 Cooper Rd,Salisbury,NC,28147,704-224-3761
Lewis Trucking,1490 Old Tallulah Rd,Robbinsville,NC,28771,828-735-0532
Money Train Express,413 Woodberry Dr,Wingate,NC,28174,704-233-1460
Eddie Younts Septic Service,7764 Caratoke Hwy,Powells Point,NC,27966,252-491-8445
Pierce Trucking,509 West Springhill Terrace,Jacksonville,NC,28546,910-577-5030
Hollins Exposition Services,121 North Chimney Rock Road,Greensboro,NC,27409,888-711-3888
J D Trucking,4915 Brooktree Dr,Charlotte,NC,28208,704-399-5801
A & J Trucking,529 Pugh Rd,Clinton,NC,28328,910-592-2393
Capital Trucking,6623 Hodge Road,Wendell,NC,27591,919-365-6651
A & R Trucking,461 Sheppard Branch Rd,Weaverville,NC,28787,828-645-6284
Bardwil Trucking,3210 Charlie Elliot Road,Shelby,NC,28150,704-607-6489
Sp Transport,1916 Links Ln,Matthews,NC,28104,704-882-5677
Sei Logistics,1071 Boulder Rd,Greensboro,NC,27409,336-855-3660
D & J Trucking,5911 Hyde Park Dr,High Point,NC,27263,336-434-3971
G S Eller Trucking,6131 Trottersridge Rd,Charlotte,NC,28227,704-532-1637
J W Transport,205 Dyson Road,Harmony,NC,28634,704-546-5830
D & S Trucking,4114 Hwy 35,Potecasi,NC,27867,252-585-0064
J & B Trucking,1233 Soundneck Rd,Elizabeth City,NC,27909,252-330-4710
Watson And Campbell Trucking,12400 Ormsby Drive,Laurinburg,NC,28352,910-276-4504
Saving Grace Trucking,23 Maple Drive,Whiteville,NC,28472,910-641-0435
Black Tiger Trucking ,Cedar Point Lane 7609 106,Charlotte,NC,28210,704-287-7845
A & R Trucking,237 Greens Cross Road,Windsor,NC,27983,252-325-0475
Greens Transport,7131 Wannamaker Lane,Charlotte,NC,28226,704-543-8632
Prestige Services,7164 Stirrup Court,Weddington,NC,28104,704-814-6968
M & S Trucking,1nancy Mountain Road,Rosman,NC,28772,828-884-6536
B & C Transport,222 Candlelight Circle,Clyde,NC,28721,828-648-4289
Farm Labor Contractor,109 Fleming St Lot 2,Wilmington,NC,28401,910-398-3495
Druid Hauling,443 Marshall Graves Rd,Yanceyville,NC,27379,336-694-6406
Ronnie Mckinney Trucking Co,494 Herb Mckinney Rd,Bakersville,NC,28705,704-458-9403
Black Star Line,4894 Highway 158 F,Roanoke Rapids,NC,27870,252-535-2277
Furniture Capital Transport,206 Old Winston Rd Unit 9,High Point,NC,27265,336-327-7000
Faith Trucking,1038 Wr Lane # 3,Burlington,NC,27217,407-201-7275
Duke Trucking Express,126 Benton Rd,Kings Mountain,NC,28086,704-974-6768
Lbc Express Trucking,10965 Princeton Village Dr,Charlotte,NC,28277,704-541-8586
Knight Rider Transport,1531 National Hwy,Thomasville,NC,27360,336-887-8905
Smith Logistics,4798 Rainbow Dr,Kannapolis,NC,28081,704-938-4675
John H Garris Jr Trucking,221 Davis Ln,Wadesboro,NC,28170,704-475-9152
Beaver Trucking,2159 Weatherford Dr,Shelby,NC,28150,704-472-7172
Fesperman Truckiing,12908 Austin Rd,Locust,NC,28097,704-888-2449
J Brisnson Trucking,734 Columbia Ave,Rocky Mount,NC,27804,252-442-7398
Hamby Trucking,178 Railroad Grade Road,Fleetwood,NC,28626,336-877-1515
Hawg Head Transportation,203 Market St,Rockwell,NC,28138,704-773-0468
Dkcd Trucking,3 Dixie Way,Canton,NC,28716,828-646-0447
Eagle Transportation,3545 Old River Road,Greenville,NC,27834,252-757-3687
Hoggard Brothers Trucking,539 Republican Road,Windsor,NC,27983,252-794-4171
Davis Transport,140 Coolidge Road,Robbins,NC,27325,910-824-9667
Red Duck Express,2036 Low Gap Rd,Hendersonville,NC,28792,828-685-1033
Clyde Gupton Trucking,252 Pleasants Rd,Louisburg,NC,27549,919-853-3310
Hudnall Truck Service,8713 New River Circle,Raleigh,NC,27603,919-329-6779
Stillwell Brothers Trucking,450 Hidden Valley Road,Sylva,NC,28779,828-586-9678
Forbes Wood Works,2160 Zion Hill Road,Marion,NC,28752,828-925-5525
Mike Beck Trucking,5778 E Us 64,Lexington,NC,27239,336-859-5888
Johnson Trucking,1721 Pinnacle Church Road,Nebo,NC,28761,828-652-8101
Sucess Enterprises Transportation,344 Lindley Ave,Asheboro,NC,27203,336-267-6023
M & M Trucking,18 New Clyde Hwy,Canton,NC,28716,828-235-9127
Solid Rock Transportation,736 Jonestown Rd Apt 1f,Winston Salem,NC,27103,336-201-1595
Little's Trucking,229 Barrass St,Polkton,NC,28135,704-272-7759
Williams Trucking,166 Galestown Rd,Rockingham,NC,28379,803-754-4742
Smith Transport,143 Meadowvien Dr,Wadesboro,NC,28170,704-848-4163
Transport Plus,3059 Rains Crossroads Road,Selma,NC,27576,919-796-5896
R Baxley Trans,3592 Pope Crossing Rd,Lumberton,NC,28358,910-736-4019
Joe Biggers Trucking,32175 Chapel Rd,Albemarle,NC,28001,704-983-8994
B B K Trucking,11100 Southgates Dr,Laurinburg,NC,28352,910-276-8434
Lynn Bost Trucking,328 Palmer Circle,Rockwell,NC,28138,704-279-9511
Streets Transportation,6831 Stone Mountain Road,Lenoir,NC,28645,828-754-1893
Blueridge Auto Sales,3647 Georgia Highway,Franklin,NC,28734,828-369-7215
P & M Trucking,3350 Judges Court,Lenoir,NC,28645,828-758-1175
M & C Transport,3729 Weeden St,Staley,NC,27355,919-542-7632
Mark Coman Trucking,3177 Kennedy Road,Thomasville,NC,27360,336-472-5317
Rick Daniel Trucking,2016 Sanders Rd,Stem,NC,27581,919-672-3976
Intermodal Transportation Services,6219 Harburn Forest Dr,Charlotte,NC,28269,704-875-7767
B & T Logistics,5350 White Horse Ct,Parkton,NC,28371,910-424-3289
"Print Delivery Service, Inc.",807 Pressley Road Unit 411,Charlotte,NC,28217,704-902-1738
Mjm Transport,126a Horizon Lane,Jacksonville,NC,28540,518-773-7057
B & T Trucking,526 Joe Morris Road,Kenly,NC,27542,919-242-6525
Keith Kennedy Trucking,2590 Phifer Rd,Cleveland,NC,27013,704-902-8213
Donna Collins Trucking,1234 Loflin Road,Trinity,NC,27370,336-736-0922
Time Line Logistics,174 Loop Rd,Enfield,NC,27823,908-241-0911
Huyck's Auto Transport,81 Ivy Knoll Lane,Hendersonville,NC,28791,828-301-4787
S & P Furniture Delivery,2529 Northside Dr,Statesville,NC,28625,704-881-0486
Maynor Transport,3720 Autry Mill Rd,Godwin,NC,28344,910-567-5249
J S Teague Transport & Co,3223 Factory St,Lenoir,NC,28645,828-325-0575
Green Hill Transportation,719 Ritter Road,Robbins,NC,27325,910-464-3367
Jnz Transport,9700 Research Dr Suite 112,Charlotte,NC,28262,704-249-2065
Rc Transport,2800 Barkers Creek Rd.,Whittier,NC,28789,828-586-6409
T & C Trucking,11131 Claude Lewis Rd,Middlesex,NC,27557,252-235-2512
D J Joyner Trucking,979 Ransdell Rd,Louisburg,NC,27549,919-497-6197
Mcdonalds Unlimited Service,114 Todd St,Belmont,NC,28012,704-461-8343
Strickland Trucking,183 Strickford Dr,Maxton,NC,28364,910-521-4165
T & S Trucking,101 Troy Drive,Elizabeth City,NC,27909,252-264-4249
Laurand Transportation,148 O O King Dr,Flat Rock,NC,28731,828-692-8386
American Cargo Express,4517 Hopson Rd,Morrisville,NC,27560,919-474-0089
Herbert Watkins Trucking,1559 Bullocksville Park Rd,Manson,NC,27553,252-456-3383
Charles E Mantie Trucking,1814 Hwy 258,Pink Hill,NC,28572,252-568-7476
Two Men And A Truck Raleigh,1001 Corporation Pkwy Ste 106,Raleigh,NC,27610,919-878-8833
Southern Trucking,146 Trantham Dr,Lexington,NC,27292,336-479-6043
Shoney's Express,11645 Nc Hwy 130 W,Maxton,NC,28364,910-844-3249
D & D Jr Trucking,4524 C Buckhorn Rd,Bullock,NC,27507,919-603-1770
D & E Contracting,232 Oliver Orr Rd,Robbinsville,NC,28771,828-479-3080
Whitley Trucking,2000 Springhill Road,Spring Hope,NC,27882,252-478-4479
Lwr Transport,986 Madison View Ct,Rural Hall,NC,27045,336-969-5272
Thomasville Transport,3404 Fountain Street,Archdale,NC,27263,336-861-6659
Bess Trucking,12734 Bravington Road,Huntersville,NC,28078,704-948-3520
J & K Trucking,1412 Darby Dr,Raeford,NC,28376,910-875-5296
Turner's Trucking,1340 Marion Spencer Rd,Lawsonville,NC,27022,336-871-3611
Holland Auto Sales,355 Us Hwy 221-a,Forest City,NC,28043,828-245-1861
G&l Mckenzie Trucking,129 Woodhouse Dr,Grandy,NC,27939,252-453-4127
Bm Miller Trucking,543 Swamp Road,Hertford,NC,27944,252-426-7734
Lil Rod Trucking,4170-d Wendell Blvd,Wendell,NC,27591,919-365-9753
Michael D's Trucking,614 Rhea Smith Rd,Roanoke Rapids,NC,27870,252-535-4948
Rod Copeland Trucking,370 Cecil Odie Road,Clinton,NC,28328,910-337-3316
Harrington Trucking,1057 Gill Childers Rd,Taylorsville,NC,28681,828-632-6778
J K Trucking,301 Canetuck Rd,Currie,NC,28425,910-669-2648
Ron Valley Trucking,102 Tammy Rd,Salisbury,NC,28147,704-855-3103
Tim Little Trucking,1825 Shiloh Church Road,Morven,NC,28119,704-851-3870
Scs Trucking,470 Jack Dale Rd,Wallace,NC,28466,910-285-0984
M & W Trucking,5316 Nc 581 Hwy,Kenly,NC,27542,252-205-1858
Rjp Trucking,74 Scarlet Circle,Franklinton,NC,27525,919-494-5063
Carolina Short Haul,9104 Detroiter Drive,Huntersville,NC,28078,704-964-5456
Cvk Trucking,3977 Kem Ln,Claremont,NC,28610,828-228-2249
Harris Boys Trucking,4151 Corbin Rd,Greensboro,NC,27405,336-596-5205
Cr & J Trucking,502 W 34th St,Lumberton,NC,28358,910-674-4650
D & G Trucking,142 Brisson Rd,Bladenboro,NC,28320,910-862-4573
M J Transport,112 Sprucepine Drive,Raeford,NC,28376,910-489-3312
J T & S Trucking,1624 Nc Hwy 137,Eure,NC,27935,252-312-9265
Magnolia Boys,314 Paul Ed Dail Rd,Kenansville,NC,28349,919-227-9503
Rucker Trucking,426 Durham Street,Mount Airy,NC,27030,347-613-1823
M & G Trucking,2308 Rock Hill Road,Castle Hayne,NC,28429,910-431-6955
Blue Steel Trucking,3439 Fincher Blvd,Charlotte,NC,28269,704-241-6566
Thomasville Transit,5693 Easement Dr,Trinity,NC,27370,336-861-6659
Efird's Trucking,28400 Canton Rd,Albemarle,NC,28001,704-983-2761
Cook &son Transport & Tractorwork Plus,2177 Hwy 64/74a,Rutherfordton,NC,28139,828-288-0415
G & T Trucking,306 Belmont Mt Holly Road,Belmont,NC,28012,704-827-8036
Burkhart Trucking,988 Becks Church Rd,Lexington,NC,27292,336-357-5038
Webb On Transportation,26 Luke Rd,Broadway,NC,27505,919-799-9564
Hardins Farm,8208 Millrun Road,Stokesdale,NC,27357,336-643-4978
Davis Hauling,5949 A Country Lane,Snow Camp,NC,27349,336-229-0807
Quik Courier Transport & Quik Courier Delivery Service,1829 Hampshire Dr,Salisbury,NC,28146,704-642-1047
Eric Lamberson Trucking,16 Court View Lane,Asheville,NC,28806,828-255-4616
Htf Trucking,1093 Hwy 73,Jackson Springs,NC,27281,910-652-2087
Naples Transport,8738 Boylston Highway,Mills River,NC,28759,828-890-1998
Stevens Transportation,14 Oakbrook Road,Fletcher,NC,28732,828-606-9020
Jackson Trucking,887 Vandalero Court,Hope Mills,NC,28348,910-850-6691
Heye Trucking LLC,1323 Porter Rd,Tabor City,NC,28463,910-642-5475
Rc Trucking,217 Ray Hodges Ln,Cameron,NC,28326,919-499-1414
Rays Auto Transport,2249 Payne Road,Lexington,NC,27295,336-817-0316
Chiefs Trucking,5641 Hancock St,Hope Mills,NC,28348,910-339-1780
Jody Coble Trucking,2964 Way Rd,Liberty,NC,27298,336-622-3646
Dennis Jones Trucking,2002 Stricklands Xrds Rd,Four Oaks,NC,27524,919-934-1759
Sanela Trucking,7631 Gillman Court,Charlotte,NC,28269,704-726-2643
Larry's Tuneup & Auto Sales,406 North Main Street,Laurinburg,NC,28352,910-276-3358
"Nelson Trucking, Inc.",10028 Hwy 226 South,Nebo,NC,28761,828-659-8377
J L Mewborn Trucking,1027 Outlaws Bridge,Albertson,NC,28508,252-569-5111
Three N Transport,347 Collins Road,Dobson,NC,27017,336-386-0861
Elite Transportation,10601 Ponderosa Svc Rd,Wake Forest,NC,27587,919-562-1824
Bullock Transport,9264 Sahabi Road,Kernersville,NC,27284,336-993-3879
9 Mile Trucking,700 9 Mile Road,Richlands,NC,28574,910-375-0499
Airforce One Trucking,105 Bloomingfield Pl,Goldsboro,NC,27530,919-735-4683
Marcus Hammonds Trucking,3938 Andrew Jackson Hwy Sw,Chadbourn,NC,28431,910-654-4787
"Culpeper Hauling, Inc.",1156 Northside Road,Elizabeth City,NC,27909,757-404-8615
Midnight Express,2791 Rocky Fork Ch Rd,Sanford,NC,27332,919-478-3097
Beddingfield Family Trucking,605 Sarecta Road,Kenansville,NC,28349,910-275-3083
Wholesale Tire Distributors,2094 Ellisboro Road,Madison,NC,27025,866-864-8473
J K Transportation,133 Custom Dr,Mocksville,NC,27028,336-940-7941
Mountain Shadows Cartage Company,35 Mountain Shadows Lane,Canton,NC,28716,828-648-0132
Troy Ganus Trucking,12920 Debra Drive,Laurinburg,NC,28352,910-276-6593
J V G Transport Services,104 Cross Lake Dr,Fuquay Varina,NC,27526,919-557-6714
Guevaras Trucking,1001 Alden Ln,Winston Salem,NC,27103,336-765-1722
Al Hodges Transportation,2613 Gary Rd,Rocky Mount,NC,27803,252-452-5476
Stewart Trucking,185 Beamer Road Suite 7000,Mount Airy,NC,27030,336-577-6908
Sam Transport,6311 Tiara Ln #102,Charlotte,NC,28212,704-942-6043
"American Veterinary Pharmaceuticals, Inc.",1702 Chicopee Road,Benson,NC,27504,919-894-1470
J B & Sons Trucking,111 Heather Glen Dr,Goldsboro,NC,27530,919-735-0734
C D Beatty Trucking,513 West Bridgers St Ext,Burgaw,NC,28425,910-352-7386
Dehart Trucking Co,1114 Winding Stairs Rd,Topton,NC,28781,704-637-9431
L G P Carriers,237 Red Bank Road,Waynesville,NC,28786,828-456-3221
Ken's Trucking,4587 Garden Street,Winston Salem,NC,27105,336-399-0465
Southend Transport,16914 Commons Creek Dr,Charlotte,NC,28277,704-634-4525
Carter Trucking Company,9650 Strickland Road Suite 103-211,Raleigh,NC,27615,919-870-8137
Keith Doster,64 George Doster Road,Franklin,NC,28734,828-349-9815
Time Line Express,603 Arlington Ave,Albemarle,NC,28001,704-982-4062
J L Transport,4748 Hwy 16 North,Crumpler,NC,28617,336-982-4579
Norman Boylorn Trucking,31 Jackson Way,Franklinton,NC,27596,919-671-1458
Lugo Express,443 Beacon Lane,Mt Airy,NC,27030,912-855-6890
"Fern Transport, Inc.",162 Ground Hog Hill Drive,Waynesville,NC,28786,828-648-8582
Noblett Trucking,1644 Beaver Creek School Road,West Jefferson,NC,28694,336-846-2903
Randy's Trucking,260 Brackett Rd,Forest City,NC,28043,828-288-1023
Sacred Family Trucking,7840 Harrells Hwy,Garland,NC,28441,910-409-2014
Seven Drops Express,692 Hunters Ridge Rd,Taylorsville,NC,28681,828-635-5582
Sherron Transport,277 Perry Rd,Zebulon,NC,27597,919-269-2241
Garden Center Mulch Service,713 Bridge Street,Elkin,NC,28621,336-835-5245
Reese Trucking,112 A Cherry Court Apts,Greenville,NC,27858,252-754-8179
Second Chance Trucking,124 Yale Road,Hendersonville,NC,28739,828-891-4761
Chi Trucking Co,4801 East Independence Blvd Suite 603,Charlotte,NC,28212,704-714-1352
Covington Express,6805 Ebara Ln,Charlotte,NC,28213,704-492-3384
Dillard Trucking,5502 Brushy Mtn Rd,Moravian Falls,NC,28654,336-984-5956
Furniture Capital Transport,4104 Foxboro Court,Trinity,NC,27370,336-861-6659
Hinson Hauling & Grading,216 Los Barn Farm Dri,Rockwell,NC,28138,704-239-2264
Hulings Transportation,1825 Sugar Creek Road,Charlotte,NC,28262,704-969-4281
C W Harbaugh Trucking,3845 Volunteer Rd,Pinnacle,NC,27043,336-755-9601
National Express,5015 Holbert Lane,Mt Holly,NC,28120,704-394-2120
Bullard Brothers Trucking,547 Eddie Rd,Pembroke,NC,28372,910-521-7728
Tony Express,5455 Nc Hwy 49,Denton,NC,27239,336-596-1054
Jabrs Haulin,521 Gallup Trail,Kings Mountain,NC,28086,704-730-8570
T Line Trucking,216 Alexander Rd,Troy,NC,27371,910-572-7641
Tm Transport,1919 Whiteville Rd Nw,Ash,NC,28420,910-755-7615
Super Dave's Mobile Home Movers,151 Noel Drive,Stoneville,NC,27048,336-573-9349
Ark Moving & Storage,2920 North Tryon St,Charlotte,NC,28206,704-376-5556
Mcgirt Transport,4059 Preston Road,Maxton,NC,28364,910-843-9335
Gomez & Gomez Trucking,535 Roy Stanley Road,Dobson,NC,27017,366-783-3025
Womble Trucking,212 Chinquapin Lane,Mt Ulla,NC,28125,704-239-0506
B & C Trucking,4160 Sowers Road,Linwood,NC,27299,336-752-2876
Seagle Trucking,1302 Carolina St Se,Valdese,NC,28690,828-874-2691
Tender Heart Trucking Company,800 Staggs Creek Road,Warrensville,NC,28693,336-384-2184
C & D Trucking Of Lagrange,507 W Boundary St,Lagrange,NC,28551,252-566-3489
Jackson's Greenhouses,10430 Nc 903,Oak City,NC,27857,252-798-2435
T & D Trucking,155 N Brookfield Dr,N Wilkesboro,NC,28659,336-670-9510
Cunningham Transportation,305 E Todd Ln,Charlotte,NC,28208,704-398-9654
Hunt Truck & Automotivie,4327 Us Hwy 301 South,Rowland,NC,28383,910-671-0369
D&d William Transport,116 Willis Cove Rd,Canton,NC,28716,828-235-9641
"Longhorn Trucking, Inc.",116 Monarch Court,Advance,NC,27006,336-414-6769
Exum Trucking,4900 Us 258 South,Tarboro,NC,27886,252-823-4545
Robertson Transport Service,2620 Faith Road,Salisbury,NC,28146,803-548-7163
Joe Baxley Transport,59 Grand Pas Trail,Canton,NC,28716,828-648-2662
Henderson Threatt,3612 Lemsford Way,Charlotte,NC,28215,704-597-7204
Btv Express,350 Potts Rd,Advance,NC,27006,336-671-4633
Dukes Auto Mart,412 N Bickett Blvd,Louisburg,NC,27549,919-496-3151
Jim's Auto Sales,76 Roan Rd,Spruce Pine,NC,28777,828-766-6666
Graystone Express,201 B N Church Street,Mooresville,NC,28115,704-658-1970
Richard E Phillips Trucking,1732 Cashiers Valley Road,Brevard,NC,28712,828-862-6734
Thomas Packing & Trucking,607 South Madison,Goldsboro,NC,27530,919-394-3839
"Cl Brothers Trucking, Inc.",1094 Essex Place,Fayetteville,NC,28301,910-484-3544
Williams Trucking,5627 Marthonna Way,Raleigh,NC,27616,919-369-5958
G-dot Transporation,527 Beaver Dam Rd,Liberty,NC,27298,336-622-5797
Msi Transport,67 Destination Drive,Asheville,NC,28806,360-991-9592
Rjc Trucking,1770 Bee Tree Road,Glenville,NC,28736,828-734-5411
Suntee Transport,1425 Rock Spring Street,Greensboro,NC,27405,336-375-1168
T&c Ltl Service,2706 Wightman Church Rd,Polkton,NC,28135,704-826-6256
"Revels Transportation, Inc.",117 Indian Drive,Maxton,NC,28364,910-844-3134
Strickland Trucking,4526 Us 264 Alt,Bailey,NC,27807,252-373-9173
Jdj Trucking,165 Margaret Lanier Dr,Lexington,NC,27295,336-853-5800
Rtr Trucking,6386 Upper Burningtown Rd,Franklin,NC,28734,828-342-6890
Linwood E Best Trucking,716 Greenmead Dr,Kinston,NC,28501,252-523-4061
Flynn Hauling,950 White Oak Lane,Tryon,NC,28782,828-894-3062
Purdies Trucking,3170 E Elizabethtown Rd,Lumberton,NC,28358,910-674-4618
Gallimore Transport,2785 Sundance Trail,Trinity,NC,27370,336-905-1844
G W Transport,13786 Bethel Ave Extension,Midland,NC,28107,704-996-5684
T & D Evans Trucking,126 Arlie Loop,Statesville,NC,28677,704-873-0610
Davila Transport,214 White Head Rd,Fayetteville,NC,28312,352-516-8078
Jonathan David Moore Trucking,601 Euclid Street,Monroe,NC,28110,980-721-7353
Pauls Hauling,5215 Sylva Rd,Franklin,NC,28734,828-524-6843
Chad Hardison Trucking,1685 Balgrey Ests,Jamesville,NC,27846,252-799-8067
Mtc,6606 Cedar Cliff Drive,Charlotte,NC,28216,704-309-8194
J F C Express Co,118 Hidden Lane,Lowgap,NC,27024,336-352-3401
Hodges Trucking,228 Floyd Mayes Rd,Dobson,NC,27017,336-352-4597
Ruiz Hauling,2471 Forest Trl,Sophia,NC,27350,336-683-0253
Henry Benjamin Smith,Windblow Rd,Jackson Springs,NC,27281,910-974-4249
Lilly Trucking,8172 Main Street,Vanceboro,NC,28586,252-244-1940
Scooter Trucking,1118 Alyssum Lane,Indian Trail,NC,28079,704-821-0774
C & J Transportation,416 Carlyle Rd,Troutman,NC,28166,209-992-7873
Pugh Trucking,619 Blount St,Windsor,NC,27983,252-794-2691
Willis Trucking,810 Kathy Dr Ne,Connelys Springs,NC,28612,828-874-5916
R & H Trucking,6430 Del Rio Road,Charlotte,NC,28277,704-339-0048
Holt Trucking,1455 Ribelin Rd,Salisbury,NC,28146,704-637-0499
Cardona Trucking,2203 Dunmore Court,High Point,NC,27260,336-476-1777
A & S Auto Transport,10660 S Tryon St Suite 6,Charlotte,NC,28273,704-299-8971
A D S Services,5222 Grass Ridge Drive,Charlotte,NC,28227,704-545-8262
Ledbetter Transport,305 York Rd,Kings Mountain,NC,28086,704-219-4255
Mighty B Trucking,604 Powell Rd,Murfreesboro,NC,27855,252-398-4179
Dkw Trucking,1422 Ellis Rd,Durham,NC,27703,919-957-2564
Cherokee Land Development Services,1559 Copper Creek Road,Murphy,NC,28906,828-837-2871
Trans King,300 Union Ridge Dr,Morrisville,NC,27560,919-468-7266
"Meserve Trucking, Inc.",4 West End Lane,West End,NC,27376,910-673-3447
Hairy Hoggs,219 Stratford Dr,Indian Trail,NC,28079,704-821-4179
J W Transport,4550 Whitestocking Rd,Burgaw,NC,28425,910-259-9216
Wrance Wrecker,2309 South Lake Veiw Dr,Newport,NC,28570,252-622-1269
Patrick Nduati,5750 Underwood Ave,Charlotte,NC,28213,704-455-1215
W & K Trucking,551 Carroll Town Rd,Macon,NC,27551,252-257-1758
Smith Trucking,330 King Rd,Ramseur,NC,27316,336-736-5745
Veexpress,1202 Rachel Lane,Salisbury,NC,28147,704-633-1429
Bulldog Hauling,6641 Latta Spring Circle,Huntersville,NC,28078,704-746-4490
Triple S Trucking,324 N Haines Street,Williamston,NC,27892,252-792-4837
Conyers Truckin,434 N Faison Ave,Faison,NC,28341,910-267-1065
Pine Log Creek Trucking,279 Pine Log Rd,Polkton,NC,28135,704-695-4196
Dunn Transportation,345 Billie Harris St,Eden,NC,27288,336-589-4452
Jb Trucking Carriers,115 Terrier Way,Raeford,NC,28376,910-797-3324
Grant Trucking,179 Oakdale Rd,Snow Hill,NC,28580,252-717-1371
Lee & Lee Trucking,1808 Crest St,Kannapolis,NC,28081,704-932-0236
Harper Express,701 Coy Smith Rd,Albertson,NC,28508,252-568-3811
Ballard Brothers Trucking,142 Boonetown Rd,Gates,NC,27937,252-357-0997
Billy Pierce Trucking,146 Castelloe Rd,Windsor,NC,27983,252-325-0817
Bryan Hazelwood Trucking,426-a Adams Road,Morven,NC,28119,800-226-3696
J R Transport,406 Columbia Ave,Lumberton,NC,28358,910-671-0461
Jrp Express,10601 Ponderosa Service Road,Wake Forest,NC,27587,919-562-1824
Car Aution Transportation,166 Amber Ln,Carthage,NC,28327,917-279-7095
Never Late Trucking,1788 Cleveland Rd Lot 82,Smithfield,NC,27577,919-464-3257
Esmeralda Trucking,6597 Pebble Lane,Oxford,NC,27565,919-690-8464
Rm Trucking,975 Old Cress Rd,Salisbury,NC,28147,704-857-3190
Jacobs Trucking,1356 7 Creeks Hwy,Whiteville,NC,28472,910-642-8953
Cribbs Trucking,3248 Pine Level Church Rd,Nakina,NC,28455,910-642-9737
Gary Lee Basinger Trucking,15430 Stockes Ferry Rd,Gold Hill,NC,28071,704-279-8378
All Points Motor Freight,8109 Rain Ct,Charlotte,NC,28214,704-391-9563
Strickland & Strickland Trucking,704 Nichole Lane,Rocky Mount,NC,27801,252-937-8183
Richardsons Farms & Trucking,277 Mollys Bay Road,Maxton,NC,28364,910-844-3807
B & R Horse Transport,5650 Mcdougal Dr,Fayetteville,NC,28304,910-476-2993
Dc Grant Trucking,121 Gray Fence Dr,Alexander,NC,28701,828-777-6549
Bethune Transport,6637 Nc Hwy 242,Dunn,NC,28334,919-894-8649
Personalized Tours,867 Amye Street,Fayetteville,NC,28301,910-488-4537
Vernon Ray Harris Trucking,411 Sapphire Dr,Durham,NC,27703,919-598-6791
J M Wilkins Trucking,408 Fate Weaver Rd,Warrenton,NC,27589,252-257-5657
Mountain Express,5325 Pinnacle Mtn Rd,Zirconia,NC,28790,828-329-3498
Kamara Trucking,12600 Tucker Crossing Ln,Charlotte,NC,28273,N/A
Big T Trucking & Transit,18835 Hwy B,Denton,NC,27239,704-633-4153
Show Nuff Express,10601 Ponderosa Service Road,Wake Forest,NC,27587,919-562-1824
Pritchard's Hauling,211 Mountain Meadows Drive,Bessemer City,NC,28016,704-922-9508
Charles V White Jr,906 Absher Road,Statesville,NC,28625,704-871-0146
"Nc Lenders Service Company, Inc.",2734 Virginia Rd,Edenton,NC,27932,252-221-8252
Kevin Dean Trucking,6356 S Plank Rd,Cameron,NC,28326,919-774-3706
D & D Trucking,1475 Leaflet Church Rd,Lillington,NC,27546,910-893-2815
Burke's Hauling,1219 Pilot Westfield Rd,Pilot Mtn,NC,27041,336-314-8169
Ronnie's Trucking,158 Candace Drive,Union Mills,NC,28167,828-287-9195
L&r Trucking,378 Akor Pl,Cameron,NC,28326,910-391-3827
Corry Construcction,2712 Shoals Creek Church Rd,Shelby,NC,28152,704-484-3700
Jr & T Transport,6723 Windover Dr,Durham,NC,27712,919-477-1059
W T Trucking,600 Roses Branch Rd,Bakersville,NC,28705,828-385-2176
Atkinson Trucking Company,21332 Hwy 87 E,Riegelwood,NC,28456,910-785-0453
Rush Express,1110 Lee St,Kannapolis,NC,28081,704-938-3711
Survival Trucking,211 West Kearns Ave,High Point,NC,27260,917-567-7477
Kent Harvey Trucking,Lee Rd Lot 45,Hollister,NC,27844,252-586-3523
Ornelas & Sons Hauling,639 Cornsilk Branch Rd,Robbinsville,NC,28771,828-479-2330
B & A Transport LLC,61 Wimberly Rd,Moncure,NC,27559,919-353-0111
Fowler Backhoe Service,1951 Miller Rd,Tabor City,NC,28463,910-653-4679
Scott Westall's Trucking,2266 N Mills River Road,Mills River,NC,28759,828-329-0450
Hayes Trucking,113 Yale Rd,Hendersonville,NC,28739,828-891-4352
Anytime Express Transportation,203 Dixie Dr # 6,Siler City 27344,NC,27344,919-799-9302
Scott Royal Trucking,1940 Airport Rd,North Wilkesboro,NC,28659,336-696-8087
J & S Hauling,3005 Old Beatty Ford Rd,China Grove,NC,28023,704-855-8328
C & S Trucking,160 Walt Clark Road,Newland,NC,28657,828-733-9408
Doug Davis Hauling,5005 Walt Gay Road,Monroe,NC,28112,704-764-9312
Nguyen Transportation,7513 Whistlestop Rd,Charlotte,NC,28210,704-807-1273
Canteen Trucking,4016 Maid Marion Court,Jamestown,NC,27282,336-471-7076
Brinkley Trucking,93 Spring Creek Church Rd,Bakersville,NC,28705,828-688-4641
Townsend Trucking Co,7 Pine Bark Ct,Greensboro,NC,27406,336-215-2585
Vip Transport Services,7401 Rex Rd Ste 108,Chapel Hill,NC,27516,919-929-5642
J & K Trucking,121 Honeysuckle Lane,Glade Valley,NC,28627,336-657-3360
T & T Trucking,2009 Hallsville Rd,Beulaville,NC,28518,910-271-1563
Eagle Transportation,141 Furlong Industrial Dr,Kernersville,NC,27284,336-993-8400
Detalli J & J Trans,2930 Hwy 39 North,Henderson,NC,27537,252-492-8615
F & D Trucking,1012 Boone Road,Elon,NC,27244,336-421-8013
Central Carolina Transport,6904 August Drive,Clemmons,NC,27012,336-712-1527
Extreme Clutchin,375 Daves Drive,Salisbury,NC,28146,704-636-8194
Tamaron Trucking,191 Sandrail Ln,Winston Salem,NC,27107,336-764-3421
Davann Trucking,7403 Lauringburg Rd,Raeford,NC,28376,910-978-8599
First Time Logistics,406 S Madison Ave,Goldsboro,NC,27530,201-766-1600
J W Transport,361 Saint Peters Church Road,Randleman,NC,27317,336-267-1423
Gabrielle Express Co,2981 Bethel Church Rd,Kernersville,NC,27284,336-993-2706
"Tk Martin Transportation, Inc.",207 Druid Hills Drive,Lexington,NC,27292,336-249-2765
Willie Ward Trucking,100 Parsley Ln,Littleton,NC,27850,252-544-0080
Vtr Express LLC,3324 Davidson Dr,Fayetteville,NC,28306,910-424-1207
Dasher Transport,6055 Hedgerow Circle,Clemons,NC,27012,336-416-3197
L J Trucking,1584 Harrington Rd,Broadway,NC,27505,919-258-9895
M & S Mayo Trucking,153 Belcross Rd,Camden,NC,27921,252-267-6168
Bead Express,320 Northwind Dr,Alexander,NC,28701,828-683-0136
Safety Transport,2941 Pilot View Ch Rd,Yadkinville,NC,27055,336-961-2558
Triple T Trucking,201 Dunn Street,Morven,NC,28119,704-851-3518
Hill Auto Transport & Sales,535 Bryant Road,Lexington,NC,27292,336-474-0637
Griffin Refrigerated Service,301 Flat Creek Church Rd,Weaverville,NC,28787,828-667-3853
Middleton Transport,55 Wylie Loop,Belmont,NC,28012,704-974-3804
Frank J Green Trucking,437 Walls Church Road,Bostic,NC,28018,828-245-6090
A & H Trucking,1177 Misty Morn Drive,Lenoir,NC,28645,954-234-5332
Mjh Transport,658 Bruton St,Biscoe,NC,27209,910-428-2634
Benedicdo Trucking,9014 Red Clay Ln,Charlotte,NC,28269,704-575-3853
Rlm Trucking,4740 Irish Potato Rd,Kannapolis,NC,28083,704-782-9534
Express Delivery,3425 North Sharon Amity Rd,Charlotte,NC,28205,704-426-9021
Southside Trucking,104 Gulftide Ct,Rocky Mount,NC,27801,252-266-1600
Rick Plyler Trucking,5612 White Store Rd,Wingate,NC,28174,704-634-0623
Top Of The Line Trucking,2000 Ladybank Ct,Indian Trail,NC,28079,704-839-6023
U Direct Transportation,809 Potterstone Glen Way,Cary,NC,27519,919-362-1925
Kj Trucking,2441 Big Flatts Ch Rd,Fleetwood,NC,28626,336-877-1841
Hoyle Trucking,26 Margie Lane,Henderson,NC,27537,252-438-7752
Final Destination Logistics,1551 Plantation Trail,Gastonia,NC,28056,704-516-1203
C & G Transportation,14474 Watson Seed Farm Rd,Whitakers,NC,27891,252-437-0929
Jacobs & Jacobs Trucking,508 Mountain St,Windsor,NC,27983,252-794-2993
Antonio Marsh,235 Esther Rd,West End,NC,27376,910-295-1445
Larry Kegley Trucking,114 Sheraton Court,King,NC,27021,336-983-9020
B And D Transfer,1071 Harris Road,Trinity,NC,27370,336-626-3709
B & B Hauling LLC,4000 Miami Church Rd,Concord,NC,28025,704-791-6210
Promesa Distributors,5160-a Indiana Ave,Winston Salem,NC,27106,336-767-1943
Veterans Transport,149 Chance Lane,Mocksville,NC,27028,336-831-5885
Piroska Freight Systems,6598 Jenkins Road,Morganton,NC,28655,828-437-0007
Faith Transport,3001 Rainey-faith St,Salisbury,NC,28146,704-224-7676
Ee&k Transportation,1408 Belmont St,Burlington,NC,27215,336-229-1801
2nd Chance Trucking,5078 Summer Ridge Rd,Fayettville,NC,28303,910-705-7574
Apache Wind Transport,167 Cox Avenue,Linwood,NC,27299,336-956-3465
Henderson Hauling,2727 Tallu Rd,Charlotte,NC,28269,704-222-2287
Greg Edwards Trucking,204 Cherrywood Pl,Wadesboro,NC,28170,704-848-8326
Richardson Limo Service,411 West Moore St,Greenville,NC,27834,252-916-0495
Choice Tours Transportation,2722 Haversham Ct,Charlotte,NC,28216,704-399-9929
Edgerton Trucking,159 Ramblewood Lane,Henderson,NC,27537,252-438-3925
R L Harris Hauling,5035 Old Stantonsburg Road,Wilson,NC,27893,252-265-9872
J W Trucking,617 Jackson St,Laurinburg,NC,28352,910-277-7647
Jng Trucking,106 Pate Cir,Goldsboro,NC,27530,919-439-4916
Larry Hinson Trucking,3030 Copeland Rd,Concord,NC,28025,704-791-0727
Helvey Transport,4680 Chaucer Pl Nw,Concord,NC,28027,980-521-8503
D & D Trucking,121 Riverbluff Rd,Greenville,NC,27858,252-268-2247
"James Chappell Trucking, Inc.",1168 County Line Rd,Belvidere,NC,27919,252-297-2267
J & S Trucking,108 S Gregory Rd,Shawboro,NC,27973,252-336-2450
Broadie Trucking,5118 Grays Ridge Dr,Charlotte,NC,28269,704-957-9182
Peach Movers Of North Carolina,336 Yorkshire Dr,Charlotte,NC,28217,704-544-6669
Cokeley Trucking,167 N Bellwood Road,Salisbury,NC,28146,704-279-3793
Dj's Trucking,241 Meadow Lane,Roanoke Rapids,NC,27870,252-586-5829
C & C Clark Trucking,150 Ponderosa Dr,Hamlet,NC,28345,910-995-6452
Sanders Trucking,7228 Janston Drive,Raleigh,NC,27613,919-332-3699
Mcmotorsports,141 Ridgetop Road,Mooresville,NC,28117,704-202-3060
M H Trucking,133 Creekstone Drive,Statesville,NC,28625,704-592-2108
Roll On Over Trucking,495 Brewer Rd,Red Springs,NC,28377,910-843-2247
Ymci Carries LLC,115 South Chatham Ave,Siler City,NC,27344,919-663-2069
Freeman Trucking,052 Drumhill Church Lane,Gates,NC,27937,252-357-0962
Minton Transport,286 Mullberry Mill Rd,North Wilkesboro,NC,28659,336-670-2833
U-save Boat Transport,1513 East Pne Street,Mount Airy,NC,27030,336-789-6090
R L Tooley Trucking,494 Ferry Rd,Havelock,NC,28532,252-447-8139
John Eckard Trucking,503 Brookfield Circle,Salisbury,NC,28146,704-857-4380
R & K Trucking,17 Melton Rd Ext,Candler,NC,28715,828-665-8484
Forrest Evans Trucking,108 Academy Street,Marshall,NC,28753,828-649-9520
Rl Green Trucking Company,5832 Freedom Drive,Charlotte,NC,28214,704-392-7177
Wrightway Transportation,903 Cleveland Avenue,Grover,NC,28073,704-937-7064
Jeff Scott Trucking,600 Clarence Phillips Rd,Bennett,NC,27208,336-581-6496
New Era,12 Colton Court,Durham,NC,27713,919-824-9206
Jpc Transport,178 Foxfire Drive,Holly Springs,NC,27540,919-753-8757
Nathan's Transport,32 Dale Earnhardt Dr,Canton,NC,28716,828-648-7139
Lil Daddys Trucking,201 Blanchard Rd,Lumber Bridge,NC,28357,910-818-3392
Wdg Trucking,726 Gray Fox Rd,Rosman,NC,28772,828-877-6324
"Kgc, Inc.",6092 Hwy 212,Marshall,NC,28753,828-691-4099
J & M Trucking,303 Gibson Road,Madison,NC,27025,336-548-3922
Mlf Trucking,12004 Birdwell Ct,Charlotte,NC,28269,704-277-9750
W C Finch Jr Trucking,103 Dove Rd,Oxford,NC,27565,252-762-0553
Getwell Trucking,288 Springway Lane,Cleveland,NC,27013,704-232-9257
Grice Trucking,3535 Rhonda Drive,Trinity,NC,27370,336-267-3449
Thomasville Distributor,5903 Harvester Drive,Greensboro,NC,27406,336-676-8064
F T W Trucking,128 Lee Avenue,Lexington,NC,27295,336-236-4099
Smith Transport,301 Della St,Elizabethtown,NC,28337,910-862-2994
Tarheel Furniture Carriers,4421 Meadowbrook Dr ,Trinity,NC,27370,336-861-5501
J & J Express,3273 Elk Creek Road,Deep Gap,NC,28618,828-263-5273
Denton Transportation,2340 Garner Road,Denton,NC,27239,336-239-5307
A W Mayberry Auto Transport,113 Iveybrook Drive,Statesville,NC,28625,704-872-6618
Itt,2787 Cantelmo Place,Lenoir,NC,28645,828-759-1184
Schronce Hauling,4499 Herter Road,Lincolnton,NC,28092,704-435-6834
Kajormo Enterprises,4123 Taylor Oaks Dr,Raleigh,NC,27616,919-266-7119
Johnson Transport,9815 Old Beatty Ford Rd,Rockwell,NC,28138,704-657-2456
J & D Mobile Home Movers,226 Shannon Rd,Lumberton,NC,28360,910-671-6740
Extreme Trucking,3144 Hilly Branch Road,Lumberton,NC,28360,910-671-9540
M & J Trucking,124 Fawnlilly Place,Garner,NC,27529,919-550-4145
Dreamworks Trucking LLC,1180 Miss Daisy Lane,Kannapolis,NC,28083,570-856-5862
Evans Trucking,63 August Ln,Roanoke Rapids,NC,27870,252-537-7109
Price Trucking,34 Wards Run,Marshall,NC,28753,828-649-0490
Luckys Limosine Service,217 Rozier Church Rd,Lumberton,NC,28358,910-738-3496
Reese Logistics,12416 Sylvan Oak Way,Charlotte,NC,28273,803-776-1852
Mountain Ram Pilot Car Services,545 Ellijay Road,Franklin,NC,28734,828-342-9113
Mitchell Ingold Trucking,216 Hill Rd,Wadesboro,NC,28170,704-984-3668
David Mcfalls Trucking,801 Pitt Street,Glen Alpine,NC,28628,828-584-7269
Nbs Trucking,1905 Northview Dr,Kinston,NC,28501,252-522-4153
Cape Fear Transport,1209 Turnpike Road,Fayetteville,NC,28305,910-844-5419
L & L Trucking,842 Chapanoke Rd,Hertford,NC,27944,252-264-4275
Kgr Trucking,2201 Woodall Dairy Rd,Benson,NC,27504,919-894-7214
Hendrickson Express,8417 Castlekeep Rd,Charlotte,NC,28226,704-542-6988
Ray Branch Trucking,808 Mark Street,Belmont,NC,28012,704-825-9164
Rolling Thunder Transport,204 Marlow Branch Rd,Pinetops,NC,27864,774-230-3074
Barnett's Trucking,6318 Webb Lake Road,Elm City,NC,27822,250-237-1410
Jimmy Brantley Trucking,3515 Brantley Road,Marshville,NC,28103,704-776-0927
Goforth Trucking,115 Dark Springs Mtn Trl,Troy,NC,27371,910-572-3908
Miller's Moving Pick Up & Delivery,1208 Worth Sr,High Point,NC,27260,336-887-5466
Double Nickel Transport,Rt 7 Box 256,Fayetteville,NC,28306,910-865-3583
Pappy's Truck Lines,1703 Michigan Circle,Lumberton,NC,28358,910-738-3579
J L Williams Trucking,251 Baldy Murphy Rd,Louisburg,NC,27549,919-853-3478
Silver Star Transport,4501 Oakley Ct,Walkertown,NC,27051,336-595-8896
Rachel Truck Line,1824 Finchley Drive,Charlotte,NC,28215,704-563-7411
Coolamite Trucking,119 Huffman Road,Mocksville,NC,27028,336-284-6081
Roadmap Trucking,386 Grady Siler Road,Siler City,NC,27344,919-663-2263
Forte's Express,308 Level Street,Goldsboro,NC,27530,919-736-0280
C G W Mobile Home Transport,1230 Jupiter Rd,Weaverville,NC,28787,828-645-5463
Merrill Trucking,110 Garden View Court,Belmont,NC,28012,704-825-3689
L & D Transport,2670 Thickety Road,Clyde,NC,28721,828-627-0848
C E Williams Trucking,232 Powell Rd,Mocksville,NC,27028,336-492-5965
Reynolds Systems,14019 Queens Harbor Road,Charlotte,NC,28278,704-968-0941
Rtm Transportation,112 River By Farm Rd,Edenton,NC,27932,252-482-1614
C & G Trucking,2511 Register Drive,Kinston,NC,28504,706-322-2020
Cockman's Trucking,1933 Tippett Rd,Asheboro,NC,27204,336-626-7483
Advantage Delivery Service,2398 Peeler Rd,Drexel,NC,28619,828-437-5588
C W Express,5309 Church St,Hope Mills,NC,28348,910-424-1661
F Fair Trucking,931 S Main St # 228 B,Kernersville,NC,27284,336-767-7623
Gator Express,295 Rocky Heights,Taylorsville,NC,28681,888-342-3008
S & K Trucking,302 Piedmont Ave,Gibsonville,NC,27249,336-449-0138
Thomas Bullock Trucking,4628 Great Dane Ln,Zebulon,NC,27597,919-554-2407
Sharpe Equine Transport,185 Kirkpatrick Lane,Taylorsville,NC,28681,828-320-4093
D J Barnett Trucking,515 Barnett Lane,Kinston,NC,28504,252-527-5241
T A M Trucking,2695 Narrow Way,Morganton,NC,28655,828-438-4784
Jonathan D Lowry Trucking,Hwy 710 West,Pembroke,NC,28372,910-521-7238
Rascoe's Foreign & Domestic Auto Sales,1718 Indian Wood Rd,Windsor,NC,27983,252-794-4766
L & L Trucking,116 Petunia Ln,Mt Airy,NC,27030,336-577-7470
R & M Expediting Service,222 Clifford Road,Olin,NC,28660,704-539-4970
M & L Solomon Trucking,3117 Lucas Street,Elon College,NC,27244,336-585-1250
Webb Trucking,2018 Starcross Road,Lenoir,NC,28645,828-728-0613
T & J Trucking,5622 Old Hwy 421,Zionville,NC,28698,423-727-6583
Chuckey's Trucking,1904 Brookcliff Rd,Sanford,NC,27330,919-774-3389
R J Maness Trucking,535 Rushwood Rd,Robbins,NC,27325,910-948-4133
Melvin K Futrell Trucking,12557 Us Highway 158,Conway,NC,27820,252-585-0368
Harold Allison Trucking,81 Rosehill Rd,Asheville,NC,28803,828-298-2780
Sessoms Trucking Co,560 Microwave Tower Rd,Roseboro,NC,28382,910-531-3123
C & W Trucking,918 Sink Farm Rd,Lexington,NC,27295,336-853-2160
J L Kohler Trucking Co,871 Page Rd,Garner,NC,27529,919-662-4813
M & W Trucking,6849 Cedar Square Rd,Archdale,NC,27263,336-688-8889
Bo Britt Trucking,2677 Zion Church Rd,Seven Springs,NC,28578,252-569-2541
Austin Transport,101 Maready Lane,Hubert,NC,28539,910-326-1835
Glory Train Express,163 Park Ave,Asheville,NC,28801,828-687-1962
Associated Secialties,162 Lumber Lane,Mount Holly,NC,28120,704-827-8904
W H Baucom Trucking,538 Wyoming Dr,Concord,NC,28027,704-375-7668
Rc Express,581 N Old Greenboro Rd,High Point,NC,27265,336-887-3074
W&l Motor Lines,1515 4th Street Sw,Conover,NC,28613,800-968-3080
C M G Trucking,1517 Maggie St,Fayetteville,NC,28303,910-488-6833
First Class Cargo Transport,2942 Dry Creek Court,Gastonia,NC,28054,704-868-4751
Michael Jones Trucking,653 Old Chinquapin Rd,Beulaville,NC,28518,910-298-3184
Blackburn Trucking,133 Rustic Way Lane,Mooresville,NC,28117,704-662-9097
Jls Trucking LLC,190 Palmer Road,Mt Airy,NC,27030,336-710-0444
Black Hills Trucking,231 Beaver Dam Loop Rd,Candler,NC,28715,828-670-1413
Linwood Banks & Sons,267 Reid Road,Garysburg,NC,27831,252-536-2629
Weeks Trucking,301 Red Barn Lane,Clinton,NC,28328,910-564-6702
Clifford Transport,505 Park St Apt #10,Williamston,NC,27892,252-799-0584
Beach Movers,3113 Colombia St,Kill Devil Hills,NC,27948,252-255-5663
Hamilton Trucking,Po Box 791,Goldsboro,NC,27533,N/A
Jesse Jefferson Transport,6000 River Rd Apt 39,Washington,NC,27889,252-975-0987
Arrow Express Courier Services,2326 Cliffside Dr,Statesville,NC,28625,704-924-7785
G R Mccoy Auto Transport,6107 Hwy 211 East,Lumberton,NC,28358,910-739-2866
Cody Trucking,Box 1415,Andrews,NC,28901,828-321-3702
Patemmer Transport,187 Morgan Parkway,Zebulon,NC,27597,919-365-0522
Dennis's Trucking,287 Bennett Road,Rutherfordton,NC,28139,704-435-6834
Davis Transportation,5720 Alanhurst Place,Charlotte,NC,28217,704-904-0273
Stanaland Trucking,1741 Longwood Road Nw,Ash,NC,28420,910-287-4917
Frankie's Auto Sales,745 Village Rd,Leland,NC,28451,910-371-0032
D J F Express,354 Michaels Road,Mocksville,NC,27028,336-284-6902
Millers Hauling & Grading,6850 Tuckaseegee Rd,Kannapolis,NC,28081,704-934-2043
B & B Trucking,7312 Glenmont Dr,Charlotte,NC,28227,704-573-9982
Hopson Transportation,Po Box 36,Crumpler,NC,28617,336-982-8775
"Bradley's Mobile Home Movers, Inc.",263 Mill Shoals Road,Mill Spring,NC,28756,828-625-8789
Daniel Locklear Trucking,854 Bryants Cir,Maxton,NC,28364,910-844-5670
Smith Trucking,3004 Malmo Loop Rd Ne,Leland,NC,28451,910-471-7593
Bishop Brick & Construction,457 Charleys Knob Rd,Pisgah Forest,NC,28768,828-989-7222
L & C Trucking Usa,4149 Ringtail Court,Concord,NC,28025,704-960-0792
Freedom Distribution,352 Cobb Cir,Murphy,NC,28906,828-837-9062
Easy Shoppe Courier Services,1505 Bridford Pkwy Suite 8l,Greensboro,NC,27407,336-855-1112
M L B Trucking,2524 Tarry Church Rd South,Biscoe,NC,27209,910-428-9844
Millennium Express,2427 Thornton Rd,Charolotte,NC,28208,870-672-7469
Lil Berry Transport LLC,1414 39th St,Wilmington,NC,28403,910-790-3083
M C & Sons Trucking,24537 Ramsey Rd,Albemarle,NC,28001,704-982-0265
Whitaker Transport Co,2400 Amys Place,Winterville,NC,28590,252-439-0123
J B K Trucking,45 Whitt Lane,Fairview,NC,28730,828-628-3509
King Transport,1321-204 Park Glen Dr,Raleigh,NC,27610,919-834-9257
Lee's Trucking,344 Wilshire Dr,Eden,NC,27288,336-623-2634
Keith Barron Express Service,Po Box 38031,Greensboro,NC,27438,888-371-1839
Silver Eagle Trucking,426 Sanford Avenue,Mocksville,NC,27028,336-909-1733
Gary Aycock Trucking,117 Cypress Creek Rd,Chinquapin,NC,28521,910-285-6925
Jasper Nelson Trucking,6642 Cornwall Rd,Oxford,NC,27565,919-693-0413
Evans Transport,3700 Medlin Place,Tarboro,NC,27886,252-823-8872
M & F Trucking,11541 Old Smithfield Rd,Bailey,NC,27807,252-293-0373
Ervin Carter Trucking,361 Jim Sauls Rd,Warsaw,NC,28398,910-296-0561
Little Trucking Company,Rte 1 Box 41,Lilesville,NC,28091,704-848-8670
Clem's Transport,1207 Little Rd,Newton,NC,28658,828-464-6974
Winstead Trucking,26 Joel Court,Durham,NC,27703,919-596-7251
J Wooland's Trucking Service,Hwy 304 Maribel,Maribel,NC,28515,N/A
Jerry Lee Devane Trucking,525 Jumping Run Road,Ivanhoe,NC,28447,910-532-4989
Newkirk Trucking,1408 Lanefield Road,Warsaw,NC,28398,910-293-7909
Tag Custom & Modular Home Service,34481 Tiffany Lane,Albemarle,NC,28001,704-982-4731
Doley House Trucking Co,6725 Reddman Road,Charlotte,NC,28212,704-563-5822
Stewart Trucking,4517 Martin Circle,Ayden,NC,28513,252-714-7149
Thacker Trucking,6174 Corl Rd,Concord,NC,28027,704-786-6527
A C Watson Trucking,Hwy 11 120 Short Road,Lewiston,NC,27849,252-348-2836
A & M Trucking,3096 Johns River Road,Morganton,NC,28655,828-433-5205
Hicks Transportation,194 Floyd Hayes Lane,Elk Park,NC,28622,828-733-1515
Nunnery Trucking,5690 Maxwell Rd,Autryville,NC,28318,910-567-5927
Mr Bobcat Brown Service,1801 Jones Rd,Mill Spring,NC,28756,828-625-0766
Cheyenne Trucking,Po Box 1730,West Jefferson,NC,28694,336-982-8635
Burnsville Service Center,2462 Rocky Mount Church Road,Polkton,NC,28135,704-826-8655
Herman's Logging Service,653 Vanco Mill Road,Henderson,NC,27537,252-430-7826
Charles Hupp Trucking,409 Gordon Drive,Advance,NC,27006,336-940-5102
Your Transportation Company,1033 Haws Run Rd,Maple Hill,NC,28454,910-346-1117
T & J Dunevant Trucking,408 Beaver Creek Pkwy,Roxboro,NC,27574,336-599-1499
Steele Mobile Home Service,104 Old Dixie Road,Hot Springs,NC,28743,828-622-7327
David Caldwell Jr Trucking,1126 Scalesville Rd,Summerfield,NC,27358,336-643-6567
M T M Trucking,897 Hwy 395,Louisburg,NC,27549,919-497-0590
Brothers Transportation,11514 Green Willow Lane,Charlotte,NC,28226,509-532-9089
C M Services,3612 Old Camden Road,Monroe,NC,28110,704-283-8715
Jaguar Transportation,Route 1 Box 23 B,Peachland,NC,28133,704-272-9115
Sdc Trucking,1003 Auctioneer Road,Clinton,NC,28328,910-533-3843
Cave Mobile Home Contractors,102 Watson Lane,Dobson,NC,27017,336-710-0783
Fletcher Trucking,298 Turnpike Rd,Thomasville,NC,27360,336-475-3341
Hayes Contract Hauling,1260 Dupree Landing Rd,Hallsboro,NC,28442,910-646-2148
R&r Hauling,9601 Mountain Ivy Ct,Charlotte,NC,28210,704-759-0854
J C & Me Trucking,3374 E Highway 150,Lincolnton,NC,28092,704-435-6834
"B L S Trucking, Inc.",211 Keiser Rd,Bessemer City,NC,28016,352-307-2139
R & G Transport,9825 Castor Rd,Salisbury,NC,28146,704-645-7028
J & W Home Service,432 Sherman Dr,Lexington,NC,27295,336-787-3613
Joyner's Mobile Home Movers,7418 Jessica Way,Rocky Mountain,NC,27803,252-985-3370
Dixie Trucking,1135 Horseshoe Road,Autreville,NC,28318,910-525-5690
Stewart Enterprises,232 Nottley River Rd,Murphy,NC,28906,828-837-8120
W Hyde Hauling,3467 Rhyne Forest Rd,Iron Station,NC,28080,704-732-9220
Rm Trucking,Route 1 Box 301,Peachland,NC,28133,N/A
Mccray Trucking,40 Sexton Farm Rd Lot 37,Plymouth,NC,27962,252-791-0704
Blanton Trucking,683 Carolina Rd,Aberdeen,NC,28315,910-944-3914
S & R Ferebee Trucking,607 Massachusetts Ave,Elizabeth,NC,27909,252-331-2483
Thumper Trucking,618-a Scott Ave,Sanford,NC,27330,919-258-5233
"S & W Transporting Of Gaston County, Inc.",109 Button Bush Ct,Gastonia,NC,28052,704-869-0086
Buckshot Express,108 Wildmere Lane,Statesville,NC,28677,704-871-8083
T Tucker Trucking,113 Mcdougald Dr,Castle Haynew,NC,28429,910-251-1165
Tom James Wrecker Service,1597 South 4th St,Highlands,NC,28741,828-526-2579
Brenda Odom Trucking,72 Israel Road,Candler,NC,28715,828-667-9976
D & D Trucking,251 Nc 42,Colerain,NC,27924,252-332-1949
"John Spruill Trucking, Inc.",411 Briarwood Lane,New Bern,NC,28560,252-636-3608
Townsends Trucking,456 Nc 210 East,Harrells,NC,28444,910-529-2011
Lanier Trucking,3507 Aycock Ct,Leland,NC,28451,910-655-4699
Martin Trucking,Rt 1 Box 188,Conway,NC,27820,N/A
C & S Trucking,507 Avenue I,Southmont,NC,27292,336-798-2449
Moore's Trucking,133 Buster Moore Rd,Ahoskie,NC,27910,252-332-5985
Williams Trucking,7679 Glenbrook Drive,Fayetteville,NC,28314,910-867-9393
"Log Trail Trucking, Inc.",1455 Maurice Brown Rd,Jamesville,NC,27846,252-809-1562
Fox Hollow Trucking,865 Fox Hollow Lane,Salisbury,NC,28146,704-630-6677
T W Figgs Trucking,206 Carters Rd,Gatesville,NC,27938,252-357-0702
Mdf Trucking,701 West Blume St,Landis,NC,28088,704-855-4348
Mullen Trucking,106 Hillside Dr,Louisburg,NC,27549,919-554-9171
W L Trucking,088 Sugar Run Rd,Sunbury,NC,27979,252-465-8553
Fox Trucking,871 Shiloh Road,Statesille,NC,28677,704-873-9332
Jj Evans Transport,389 C & N Smithmill Rd,Stoneville,NC,27048,336-573-3595
Dk Bright Trucking,152 Pioneer Ridge Road,Sparta,NC,28675,336-359-8884
U Call We Haul Transport,6433 Montpelier Rd,Charlotte,NC,28210,704-643-9309
Daylon R Owens Trucking,6575 Raleigh Road,Kittrell,NC,27544,252-433-0286
Ward's Trucking,11500 New Britton Hwy E,Whiteville,NC,28472,910-653-4627
Sammy Ray Trucking,1305 Kellum Loop Road,Jacksonville,NC,28546,910-347-8869
Tri-state Moving & Hauling,1600 D N Sandhills Blvd,Aberdeen,NC,28315,910-944-9633
Msj Transport,105 Rock Olive Dr,Rockwell,NC,28138,704-279-3702
T L C Trucking,104 Wells Road,Cove City,NC,28523,252-634-9524
Hood Trucking,2311 Lucena St,Charlotte,NC,28206,704-333-0078
Spencer Trucking Company,1244 Parson Grove Church Road,Wadesboro,NC,28170,704-517-7063
Mclawhorn Trucking,5909 Hwy 17 South,New Bern,NC,28562,252-637-6625
Team One Logistics,2534 Century Oaks Ln,Charlotte,NC,28262,704-599-9456
Draughn's Trucking,5417 Swan Creek By-pass,Jonesville,NC,28642,336-835-6084
Vincent Hauling,822 River Rd,Henrico,NC,27842,252-537-7105
Croom's Trucking,13007 Nc Highway 242 N ,Elizabethtown,NC,28337,910-588-4006
Lee & Nani Trucking,3901 Sharon View Rd,Charlotte,NC,28226,559-816-1279
Scott Garner Transport,3764 S Plank Rd,Sanford,NC,27330,919-708-7336
R & R Express,125 Chevy Lane,Statesville,NC,28625,704-876-3806
J & J Trucking,721 North Road St,Elizabeth City,NC,27909,N/A
Silance Trucking,566 Haws Run Rd,Jacksonville,NC,28540,910-346-4391
Evans Trucking,1120 Bugshop Rd,Princeton,NC,27569,919-202-8231
Rhyne Construction Service,1002 Dallas Bessimar City Hwy,Gastonia,NC,28052,704-629-0101
Larry Swain Trucking,2574 Us Hwy 64 West,Plymouth,NC,27962,252-793-9391
D & P Trucking,65 Sherman Rd,Maxton,NC,28364,N/A
B A B Transport,304 Ridge Lake Dr,Apex,NC,27502,919-367-8693
Rock Bottom Transport,16552 A Liberty Hill Church Rd,Oakboro,NC,28129,704-485-3033
J & B Wood Products,122 31st Street Sw,Hickory,NC,28601,828-345-1192
Puryear Trucking Company,461 Bayshore Drive,Fayetteville,NC,28311,910-822-4076
"Mccoy Drew Trucking, Inc.",1836 North 305 Highway,Rich Square,NC,27869,252-587-3977
East Carolina Transport,622 Washington St,Nashville,NC,27856,252-459-1728
Dealer Transport,1501 Cranston Rd,Garner,NC,27529,919-779-0166
Triple B Transportation,123 5th Street,Rose Hill,NC,28458,910-289-9325
Rushing Trucking,1504 Acme Road,Marshville,NC,28103,704-624-5585
Kurney Trucking,2813 Auburn Knightdale,Raleigh,NC,27610,919-217-4815
Harnett County Auto Acution,611 Spring Branch Rd,Dunn,NC,28334,919-242-6160
"Reams Trucking, Inc.",9029 Grassy Creek Rd,Bullock,NC,27507,919-693-7579
Barker & Son Trucking,5201 Hwy 41 West,Trenton,NC,28585,252-208-2796
Pierce Trucking,1456 Old Camp Road,Denton,NC,27239,336-859-2619
Jsa Trucking,153 Tiara Drive,Kings Mountain,NC,28086,704-734-0030
Johnson & Son Trucking,Po Box 70 Hwy 35,Woodland,NC,27897,N/A
T&t Trucking,2303 Walt Arney Rd A4,Lenoir,NC,28645,828-757-7908
Higher Power Services,394 Thankful Road,Rocky Point,NC,28457,910-763-9821
W Drew Backhoe & Dumptruck Services,10724 Kingsview Dr,Davidson,NC,28036,704-723-6635
Chatman Transport,2081c Mccray Road,Burlington,NC,27217,336-578-4219
Barker & Son Trucking,5201 Hwy 41w,Trenton,NC,28585,252-208-2796
Carolina Express,1401 Snipes Rd,Pembroke,NC,28372,910-843-3492
Angela's Trucking,895 Southern Mill Rd,Henderson,NC,27536,252-438-5879
Deaton Trucking,1129 Verde Rd,Mooresville,NC,28115,704-202-0270
Collins Auto Transport,Lemont Dr Box 938,Raeford,NC,28376,910-904-1309
J B Trucking,5735-c Bob Daniel Rd,Oxford,NC,27565,919-693-9379
W T Davis Trucking,1731 Riverside Dr ,Charlotte,NC,28214,704-399-3674
F&s Trucking,366 Bassett Road,Millerscreek,NC,28651,336-667-5149
Contractors Transportation,6524 Rocklake Dr,Charlotte,NC,28214,704-394-5440
Crawford Trucking,2008 El Verno Court Apt F,Charlotte,NC,28208,704-649-9904
Blr Furniture Carriers,3826 Beverly Hills Dr,High Point,NC,27265,336-869-6261
Aa Truckin,5254 Sanders Rd,Seagrove,NC,27341,336-879-4364
Lunsford Transport,511 Moll Hodgson Rd,Harmony,NC,28634,704-546-7020
Loads First Transport,1110 Morningside Dr,Charlotte,NC,28205,704-344-8810
D Riddick Trucking,031 Us Hwy 158 Bus,Gatesville,NC,27938,252-332-9908
W R H Trucking,423 Hudlers Hillside Tr,Grassy Creek,NC,28631,336-384-2360
Mcdougald Trucking,374 Chicken Farm Rd,Dunn,NC,28334,910-892-6911
Mills Trucking,Rt 1 Box 102,Pinetops,NC,27864,252-827-4491
Lowrider Trucking,135 N Main Street Apt 1,Granite Falls,NC,28630,828-244-0681
Lucas Trucking,1883 Harnett Church Rd,Roseboro,NC,28382,910-564-2578
Prestige Delivery Service,890 Highland Ave Hc,Hickory,NC,28601,818-645-6453
Balance Transport,638 Durham Lake Road,Dudley,NC,28333,252-229-7508
Rowel Transport,851 Covington Farm Rd,St Paul,NC,28384,910-865-8463
Wiggins & Sons Trucking,239 Brinkley Ville Rd,Ahoskie,NC,27910,252-332-3835
Encorp Express,6601-e Northpark Blvd,Charlotte,NC,28216,704-597-1977
Mcneill Trucking,22105 Highway 902,Bennett,NC,27208,336-581-3595
T&j Trucking,522 Brown Street,Elizabeth City,NC,27909,252-333-1254
Blaine Hodges Trucking,451 Pleasant Valley Road,Banner Elk,NC,28604,828-963-6428
Faith Transport,1705 Belgrave Circle,Hope Mills,NC,28348,910-678-8120
Mandingo Express Co,9507 Stoney Glen #q,Charlotte,NC,28227,704-965-1475
"Cds Distributing, Inc.",1100 Tuckaseegee Rd,Charlotte,NC,28208,704-343-9775
Morris Trucking,6181 Unity St,Thomasville,NC,27360,336-498-1936
Harris Trucking,11015 Piney Woods Road,Fairfield,NC,27826,252-926-1203
T M T,1220 Magnolia Church Rd,Stedman,NC,28391,704-791-7069
Buckshot Trucking,1137 Devils Tramping Ground Rd,Bear Creek,NC,27207,919-545-1073
R C Ragland Hauling,209 Ramblewood Drive Apt88,Raleigh,NC,27609,252-425-7897
Chad Mills Trucking,1001 Edwards Store Rd,Peachland,NC,28133,704-385-9866
Wilkerson Transport,1426 College Street,Oxford,NC,27565,919-693-2333
Case Trucking,4475 Draughorn Rd,Fayetteville,NC,28301,N/A
Greg Trucking,89 Roberson Rd,Pittsboro,NC,27312,919-542-3245
B & D Trucking,115 Cap Fields Dr,Bear Creek,NC,27207,919-837-0091
Sanches Trucking,2528 O Hara Drive,Charlotte,NC,28273,704-583-1246
Premier Delivery,326 Maple Street,Hudson,NC,28638,828-728-8308
Whidbee Trucking,593 Okisko Rd,Elizabeth City,NC,27909,252-264-5893
Jones Trucking,2560 Tomahawk Hwy,Harrells,NC,28444,910-990-3913
Prophetic Trucking,3216 Marie Dr,Raleigh,NC,27604,919-954-8598
Excaliber Fleet Service,700 Melton Drive,Rocky Mount,NC,27804,252-450-6956
Allen Mcknight Express,153 John Mickles Rd,Pinnacle,NC,27043,336-325-3246
Greg's Wrecker Service,306 Belmont Mt Holly Road,Belmont,NC,28012,704-827-8036
M & M Trucking,508 Cherry St,N Wilkesboro,NC,28659,704-402-6136
Straight Shot Express,1904 S Main St # 210,Wake Forest,NC,27587,919-787-3001
Cozy Carz Auto Sales,995 Village Rd,Leland,NC,28451,910-371-5332
Murphy's Trucking,645 Kelly Street,Statesville,NC,28677,704-375-7668
Piedmont Forklift Service,3705 Berger St,Gastonia,NC,28054,704-865-9876
Ricky Lucas Trucking,2834 Hayne Stretch Road,Roseboro,NC,28382,910-531-3687
Speedeez Logistics & Delivery Service,60 Foxberry Drive,Arden,NC,28804,828-225-9900
Willie Powell Jr Trucking,1607 Friendship Ch Rd,Faison,NC,28341,910-267-1765
Jim Willie Trucking,4493 Church Road,Newton Grove,NC,28366,910-594-1907
Smith Trucking,18540 Hampton Court,Laurel Hill,NC,28351,910-462-2948
Rabon's Trucking Co,3971 Kennedy Road,Thomasville,NC,27360,336-861-6659
W G R Trucking,108 Hicks St,Cherryville,NC,28021,704-445-4956
J R's Transport,101 Cedarwood Drive,Louisburg,NC,27549,919-569-2189
Jeremy Hensley Trucking,153 Briggs Branch Road,Mars Hill,NC,28754,828-689-3173
Hill's Quality Transport,305 B Westland Farm Rd,Mt Holly,NC,28120,704-820-9310
Joseph Miles Trucking,5825 Butler Rd,Fairmont,NC,28340,910-422-9436
Bcw Trucking,1618 W 5th St,Lumerton,NC,28358,910-648-6623
Triple Hhh Trucking,Main St,Villas,NC,28692,704-435-6834
George R Long Trucking,2718 Dock Road,Whiteville,NC,28472,910-640-3492
Virgil Ward Trucking,102 Furnie Hinson Road,Whiteville,NC,28472,910-642-2892
Ferrell Trucking,1211 Marshburn Rd,Wendell,NC,27591,919-365-9925
R D H Trucking,1599 Candace Ridge Dr ,Greensboro,NC,27406,252-345-1319
S & S Warner Trucking,317 Jenwil Dr,Deep Gap,NC,28618,828-268-2928
Rhj Trucking,113 Robbins Street,Greensboro,NC,27406,336-272-0690
Vaughn Church Trucking,6356 Congo Rd,Wilkesboro,NC,28697,336-973-4852
Miller & Maynard Trucking,4729 Oak Ridge Dr,Winston Salem,NC,27105,336-661-1938
Furniture Transport Delivery,10660-2 Old Us Hwy 52,Winston Salem,NC,27107,336-764-2910
Denning Farms Trucking,7270 Mt Pleasant Road,Willow Spring,NC,27592,919-552-3369
Class Action Movers,8001 Magna Lane,Indian Trail,NC,28079,704-971-0550
"Phynesse Trucking, Inc.",994 Porter Road,Greenville,NC,27834,252-752-7923
Suhy Trucking,518 Doggett Road,Forest City,NC,28043,704-435-6834
R & F Trucking,2038 Collins Bird Lane,Connelly Springs,NC,28612,828-397-4608
Heath Trucking,Smalltown Rd,Pink Hill,NC,28572,252-568-2459
G A S Express Transport,201 Dogwood Street,Locust,NC,28097,704-269-5518
R & A Duckworth Trucking,2749 Montana Drive,Kannapolis,NC,28081,704-938-5560
Calvin Russell Trucking Co,190 Lealer Lyons Dr,Whiteville,NC,28472,910-642-4944
Nance Trucking,1524 Griffin Rd,Chadbourn,NC,28431,910-654-5106
G & L Transport,P O Box 1677,Indian Trail,NC,28079,704-821-6881
C J Trucking,Rt 1 Box 956,Beaufort,NC,27516,919-571-3598
Howard Trucking,15 West Neuse River Dr,Roanoke Rapids,NC,27870,252-536-3810
David's Auto Sales,2432 Shoal Creek Ch Rd,Shelby,NC,28152,704-484-9463
Big League Movers,209 Wind Road Ste B,Greensboro,NC,27405,336-375-1906
Onyx Trucking & Expedite Service,8324 Sand Hills Ct,Charlotte,NC,28215,704-618-7071
Select Transport,P O Box 14272,Archdale,NC,27263,336-847-6355
Chd Same Day Courier Service,2116 N Davidson Street,Charlotte,NC,28205,704-372-0160
G & G Trucking,100 Harris Rd,Smithfield,NC,27577,919-938-3081
Holloman Trucking,416 Craft Rd,Walstonburg,NC,27888,252-753-4925
Day Star Transport,1208 Buff St,Greensboro,NC,27406,817-357-2842
L & D Auto Sales,3716 Hwy 226,Bakersville,NC,28705,828-688-3966
Moving Solutions,2108 Laurel Valley Way,Raleigh,NC,27604,919-271-4109
Swaims Backhoe & Hauling,701 Walkabout Lane,Winston Salem,NC,27107,336-769-0664
"Bullard & Bullard Trucking, Inc.",322 Lonnie Farm Rd,Pembroke,NC,28372,910-521-2929
Mlt,3546 Ole Country Ln,Claremont,NC,28610,828-465-7315
Simcox Trucking Co,320 Belk Road,Mount Ulla,NC,28125,704-662-0841
Cope Trucking,560 Nations Creek Road,Whittier,NC,28789,828-631-4154
Mial's Tree Stumpremoval & Crane Service,2914 Waterside Drive,Shelby,NC,28150,704-487-1180
"High Point Furniture Transport, Inc.",2462 George York Rd,Randleman,NC,27317,336-498-5594
Bucky Helms Grading & Hauling,152 Miles Road,Dallas,NC,28034,704-922-9028
Charles Phillips Trucking,7547 Airport Rd,Bear Creek,NC,27207,919-742-4947
Glenn Hall Trucking,203 Thomas St,Beulaville,NC,28518,910-298-6149
Redeemed Trucking Co,288 N C 306 Highway S,Grantsboro,NC,28529,252-745-4808
Bobby Pendergraft Trucking,67 Boardwalk Rd,Princeton,NC,27569,919-936-2765
Sebastian Trucking,4599 Gilmore Drive,Liberty,NC,27298,336-622-1385
Anderson Trucking,2868 Old Hwy 10,Nebo,NC,28761,828-652-7196
Mr P Trucking,599 Blain Rd,New London,NC,28127,336-461-3267
Edwards Trucking Co,4209 Horseshoe Bend,Matthews,NC,28105,704-619-8292
Bladerunner Trucking Co,1277 Delaware Avenue,Eden,NC,27288,704-435-6834
Partin Trucking Co,1608 Zion Church Rd,Hickory,NC,28602,828-294-0545
Pearson Trucking,510 Hwy 73 E,Ellerbe,NC,28338,910-652-4110
D & W Enterprises,2161 Alfred Hartley Road,Lenoir,NC,28645,828-728-9703
R&r& Sons Trucking,69 Alexander Dr,Bolton,NC,28423,910-655-8638
Mulch Magic Express,700 Riverside Dr,Asheville,NC,28804,828-252-7711
T A And Sons Transport,167 Lake Royale,Louisberg,NC,27549,252-478-7326
Baker Trucking,406 W Harnett St,Dunn,NC,28334,N/A
Triple T Trucking,10809 Mt Holly Rd,Charlotte,NC,28214,704-435-6834
Forbes Trucking,2180 Bailey Rd,Williamston,NC,27892,N/A
Brooks Trucking Co,124 Nix Creek Church Rd,Marion,NC,28752,828-442-2081
Nono Trucking,1310 Hammock Ave,Shelby,NC,28152,704-482-1372
"Precision Steel Services, Inc.",6514 Chapel Hill Road,Raleigh,NC,27607,919-854-4410
"K T C Transportation Co, Inc.",812 Eaglewood Avenue,Charlotte,NC,28212,888-816-5802
Chavis Trucking,864 Butler Town Rd,Clarendon,NC,28432,910-653-6148
Reddick & Sons Trucking Co,1821 West Meadowview Road,Greensboro,NC,27403,336-340-6145
4-k Trucking,3242 Malmo Loop Rd Ne,Leland,NC,28451,919-655-1944
Auto Movers,1094 Hunt Rd,Lexington,NC,27292,336-210-6881
Richard Lucas Trucking,2645 Hayne Stretch Road,Roseboro,NC,28382,910-531-3768
Ronnie Humphrey Trucking,260 Hunter Rd,Beulaville,NC,28518,910-298-3326
Thomas Trucking Produce,7509 Highway 41 East,Elizabethtown,NC,28337,910-862-8866
Herbert Lewis Lancaster Transport,502 North Church Street,Kenly,NC,27542,919-284-5112
Nps Transport,222 Caluin Lane,Mocksville,NC,27028,336-284-6709
R & R Trucking,884 Branson Mill Rd,Randleman,NC,27317,336-498-2580
Kar-mar Tires & Auto Sales,5935 Old Coucor Sals Road,Kammapolis,NC,28083,704-932-3377
C & C Mobile Home Moving,444 Bremen Garden Dr,Lexington,NC,27295,336-238-5514
John Pierce Trucking,2645 Belgrade Swansboro Rd,Maysville,NC,28555,910-743-2226
Mooresville Transport,2412 Statesville Hwy,Mooresville,NC,28115,704-664-1566
T&s Trucking,10639 Walkers Ferry Rd,Charlotte,NC,28278,704-393-3402
L & J Express,1050 Rockridge Rd,Asheboro,NC,27203,336-215-1834
Cary Epley Trucking,2067 E Nc 24 Hwy,Kenansville,NC,28349,910-298-6503
Atlantic Lease Services,4357 Raleigh Street,Charlotte,NC,28213,704-342-2511
Rock & Roll Express,1837 Oscar Frye Rd,Pinnacle,NC,27043,336-351-3934
In Home Delivery,600 W Ward Avenue,High Point,NC,27260,336-454-2896
L & L Transport,516 Deer Flag Ln,Wilson Mills,NC,27593,919-934-8520
State To State Trucking,201 Brehon St,Warrenton,NC,27589,252-257-4618
Sbw Trucking,118 East Fairview Drive,Murfreesboro,NC,27855,252-398-9903
Thornton Trucking,117 Myrtle Dr,Moyock,NC,27958,252-232-2328
Powell's Trucking,122 Scarlet Lane,Faison,NC,28341,910-533-2456
Jws Express,306 Westover Ave,Kannapolis,NC,28081,704-435-6834
A E Raymond & Son,149 Mara Avenue,Gastonia,NC,28052,704-864-5996
Stewart Trucking,1174 Trexler Rd,Salisbury,NC,28146,704-637-3989
The Little Miss Agnes Commercial Transport Co,1428 Jones And Barnes Lane,Kinston,NC,28504,252-328-6183
Morgan Trucking,112 Oakgrove Ave,Greenville,NC,27834,252-758-1488
R & P Trucking,2260 Bandore Circle,Fayetteville,NC,28301,910-483-8838
Burton Trucking Line,4858 Elkton Road,Clarkton,NC,28433,910-645-4715
Big J Express,4887 Us 70 West,Marion,NC,28752,828-724-9110
J & B Transport,544 Rayhill Rd,Mills River,NC,28759,828-891-9724
Medley Trucking & Grading,13014 Hwy 18n,Ennice,NC,28623,336-657-8419
K&d Trucking Co,191 Jess Brown Rd,Bryson City,NC,28713,828-488-2065
Smoky Mountain Transportation Services,154 Robins Nest Drive,Canton,NC,28716,828-235-1585
Beddard Trucking,3256 Hollis Road,Plymouth,NC,27962,252-791-0504
Thomas Transport,319 East Main St,Cherryville,NC,28021,704-435-2228
Kerdasi Transport,3328 Greystone Drive,Rocky Mount,NC,27804,252-937-6953
Buckner Express,70 Pleasant Hill,Clyde,NC,28721,828-627-1054
M A T Trucking,119 Country Run Lane,Goldsboro,NC,27530,919-735-4060
Old Reliables Transport,2964 Minetree Pynes,Haw River,NC,27258,336-578-2434
Green Transportation,2142 Maizefield Lane,Fuquay Varina,NC,27526,954-684-4604
Yankeegirl Trucking,108 J And M Lane,Mooresville,NC,28117,704-506-1008
Furniture Carrier,14 West Guilford St,Thomasville,NC,27360,336-475-0226
Dier Auto Sales,2205 W Pine St,Mount Airy,NC,27030,336-789-4918
Little Light Transport,170 Jones Rd Lot #16,Winston Salem,NC,27107,336-771-9045
Michael Jacobs Trucking,1793 School Rd,Fairmont,NC,28340,910-628-7603
Jayla Transportation,101 Browning Drive,Thomasville,NC,27360,336-472-1503
"Joyner Trucking, Inc.",646 Nc 111 122 South,Tarboro,NC,27886,252-824-7719
J D Mack Trucking,4611 Brenda Court,Charlotte,NC,28269,704-598-9375
C M Trucking,807 Cindy Drive,Monroe,NC,28112,704-225-0286
Don's Auto,250 Old County Home Rd,Asheville,NC,28806,828-254-1368
Stewart Transport,2880 Mt Hope Church Rd,Julian,NC,27283,336-697-7554
M R S Express,2 Pine Tree Ct,Macon,NC,27551,252-257-0677
Jeff Adams Trucking,319 Coston Rd,Richlands,NC,28574,910-324-6923
D C Trucking,132 Wedgewood Dr,Moyock,NC,27958,252-202-4228
Sauls Company,3009 Old Us 70w,Clayton,NC,27520,919-553-0705
Robinson & Sons Trucking,7257 Turnbull Road,Fayetteville,NC,28301,910-678-7197
H L Trucking,1280 Moore's Chapel Road,Lillington,NC,27546,910-893-9962
Bruce Respess Trucking,220 Lamb Road,Roper,NC,27970,252-793-5386
Howeys Trucking & Paving Co,14337 Lucia Riverbend Hwy,Mount Holly,NC,28120,704-827-1841
Ricks Trucking,511 Nash St Lot #4,Monroe,NC,28110,704-292-1006
Jenkins Trucking,P O Box 941,Bethel,NC,27812,252-752-1770
Johnnie R Pearce Jr Trucking,510 West Jones Avenue,Selma,NC,27576,919-965-3540
M & B Transport Service,135 Natures Way,Mt Holly,NC,28120,704-820-9154
Helms Trucking,3012 Malmo Loop Road,Leland,NC,28451,910-655-9648
Saigeco Services,114 Dover Ave,Kings Mountain,NC,28086,704-739-3857
Hughes Trucking,41 Lynn Drive,Spruce Pine,NC,28777,828-765-6779
James Thomas Terrell Jr Trucking,116 Justice Street,Louisberg,NC,27549,919-496-2776
