Company Name,Street Address,Address Locality,Address Region,Postal Code,Telephone
C & G Transit,1523 Addington Road,Toledo,OH,43607,419-536-5303
Us 2 U Shipping,7730 Township Road 338,Millersburg,OH,44654,330-231-7133
Mps Transport,30516 Royalview Dr,Willowick,OH,44095,440-668-7389
S Mcdaniel Trucking,474 Antrim Road,Xenia,OH,45385,937-397-2630
Ledgerwood Transport,1461 White Oaks Rd,Marion,OH,43302,740-360-9815
Michael S Mourn Trucking,254 S Main Street,Sugar Grove,OH,43155,740-746-9108
Bettes Trucking,889 Pearlman Rd,Akron,OH,44319,330-734-7298
Shaner Auto Sales,5001 N Dixie Drive,Dayton,OH,45414,937-274-8391
Hamilton Trucking,3529 Snouffer Road,Columbus,OH,43235,614-397-2901
Holbrook Logistics,1631 Coon Hollow Rd,Lucasville,OH,45648,740-259-4090
Dj Trucking,926 Fairwinds Court Unit A,Lebanon,OH,45152,513-836-7131
Jpd Dobbs Trucking LLC,724 Yeutte Ct,Columbus,OH,43223,614-274-2914
J & W Hauling,23946 St Rt 31,Raymond,OH,43067,937-935-0882
Aqua Limo,9425 Brook Park Road Rear Building,Parma,OH,44129,440-808-2782
Sandys Trucking,1438 Burnett St,Mineral Ridge,OH,44440,330-505-0113
Automotive Transport Group,415 Fisher Ave,East Liverpool,OH,43920,330-708-4685
Arnold Farms And Trucking,2332 Pekin Road,Springboro,OH,45066,513-520-0730
Robert Ector,3341 Kimberly Lane,Grand Prairie,OH,75052,214-406-2800
Fresh Start Moving & Storage,128 N Oakley Avenue,Columbus,OH,43204,614-745-0338
Stelzer Trucking,17910 Grange Road,Fredericktown,OH,43019,740-398-0187
C & M Car Haulers,1415 Ray Street,Dayton,OH,45404,208-392-7242
Gg & J Trucking,6289 Woodmor Ave Nw,Canton,OH,44718,330-526-8223
Slow And Steady Trucking,625 S College St,Newcomerstown,OH,43832,740-255-7213
Premier Trailer Transport,4888 Us Highway 20 E,Bellevue,OH,44811,419-483-3177
Jenn Trucking,26791 Shanks Rd,Coolville,OH,45723,740-667-6244
K&s Trucking,3444 Leonard Ave Sw,Canton,OH,44706,330-546-0149
Custom Auto Collision And Paint,Laylin Rd,Norwalk,OH,44857,419-663-6363
Elida Auto Service,612 East Kiracofe Avenue,Elida,OH,45807,419-331-2301
America's Best Moving Company,1911 Glenn Ave,Columbus,OH,43212,770-205-0218
Five Pines Trucking LLC,692 County Road 500,Ashland,OH,44805,419-945-2328
T Moore Trucking,10344 Fairview Rd,Newark,OH,43056,614-206-1358
D A Wade Trucking,6873 Us Rt 40,Tipp City,OH,45371,937-845-1732
Robertson Motor Freight,6556 Lemaster Rd,Athens,OH,45701,740-591-0089
Trich Trucking,2519 Gardengate Pl,Toledo,OH,43614,419-508-5071
W Beatty Transport,607 Cauley Place,Riverside,OH,45431,937-603-9448
Rising Sun Transportation LLC,1906 Forest Maple Ln,Columbus,OH,43229,614-359-6148
Westside Transport,3750 Stahlheber Road,Hamilton,OH,45013,513-484-2414
Dayton Excavating & Repair Service,8503 Clover Rd,Salineville,OH,43945,330-738-6031
Williams Trucking,20590 River Road,Circleville,OH,43113,740-474-8038
M&m Transportation LLC,3708 Sheraton Dr,Parma,OH,44134,216-440-0876
Steven Betts Trucking,3482 Ch&d Rd,Oak Hill,OH,45656,740-682-6087
Fugate Transport,592 E Jenkins Avenue,Columbus,OH,43207,614-443-2298
H B H Carriers,10435 Londonderry Ct,Montgomry,OH,45242,513-393-4586
Singh G Transport,4510 Granada Blvd Apt 24,Warrensville,OH,44128,216-392-4399
Playful-1,2731 Scottwood,Toledo,OH,43610,419-574-3121
Rainwater Freight Services,480 South Shiloh Rd,Pleasant Hill,OH,45359,937-676-2487
Karlee Trucking,800 Sailor Road,Vinton,OH,45686,740-388-8554
Demaris Transportation,9470 Meridian Way,West Chester,OH,45069,800-356-5830
Reid Distributing,366 Todd Place,Hamilton,OH,45011,513-642-5346
Emmanuel Express,1753 E Fifth Avenue,Columbus,OH,43219,614-279-9249
Adm Logistics,408 Earl Ave,Washington Court House,OH,43160,740-335-1885
Avanti Trucking,8200 Tyler Blvd Area G,Mentor,OH,44060,440-266-0186
W W Williams,835 W Goodale Blvd,Columbus,OH,43212,614-228-5000
Todd G Wise Logistics,3909 Argonne St,Mogadore,OH,44260,330-628-2124
Jmr Auto Transport,10615 Us Route 50,Hillsboro,OH,45133,937-393-2894
Tom Cosgrove Trucking,363 Craggy Creek Drive,Chippewa Lake,OH,44215,330-769-2577
Pannu Transport Co,32600 Aurora Rd Apt201,Solon,OH,44139,440-542-0729
A1 Transport And Recovery,903 Main Street,Hamilton,OH,45013,513-487-0047
Sample's Transport Service,5941 South Ridge West,Madison,OH,44057,216-870-7939
Ltd Logistics,9162 St Rte 118,Rockford,OH,45882,419-363-9902
Moonstar Auto Transport,2324 Stanley Ave,Dayton,OH,45404,937-222-7909
Yost Hauling,18068 4th Street,Beloit,OH,44609,330-938-6450
Matthews Trucking,232 Locust Lane,West Milton,OH,45383,937-307-5565
Currey's Transport,2394 Meloy Rd,Kent,OH,44240,330-281-9144
Stouffer S Trucking,157 Fair Ave,Salem,OH,44460,330-277-1832
E And A Transport,965 Tollis Parkway,Broadview Heights,OH,44147,216-798-1466
55 Degrees,2177 West 15th Street,Cleveland,OH,44113,216-658-9463
Arts Transport & Recovery,8837 Hartman Rd,Wadsworth,OH,44281,330-730-0272
Buckeye Specialized Logistics,7306 Thatcher Ave Nw,North Canton,OH,44720,330-310-3400
D & B Trucking,7888 Columbia Avenue,Cincinnati,OH,45249,513-530-9787
Jm Trucking,2929 Polk Rd,Sabina,OH,45169,937-302-0094
Mister D Trucking,24132 Bowman Road,Defiance,OH,43512,419-393-4466
At Your Service,325 W Mcmicken Ave,Cincinnati,OH,45214,513-251-9484
Jd Trucking,21226 Sr-81,Spencerville,OH,45887,419-305-0290
Haulin Horse Power Transporters,4911 Maple Dr,Vienna,OH,44473,330-394-1411
Pryor Dozer Service,9 Olive Street,Caldwell,OH,43724,740-732-5019
Garrett Enterprises Delivery,340 Riddle Road,Cincinnati,OH,45246,513-860-1258
Md Delivery Service,9554 Dover Rd,Apple Creek,OH,44606,330-778-0012
Smith Farm Service,13144 Cemetary Road,Wapakoneta,OH,45895,419-738-5143
Mecca Express,3256 Tollcross Dr,Hilliard,OH,43026,614-771-6139
C & S Transportation,2537 W North Bend Rd,Cincinnati,OH,45239,513-498-6435
Bob's Transportation,3290 Cr 75,Glenmont,OH,44628,330-377-4933
Sullivan Distributing,6146 Meadowvale,Toledo,OH,43613,419-261-7550
Holla Express,9093 Strausser St Nw,Massillon,OH,44646,330-854-3788
Specialty Linen Services,5056 Youngstown-poland Road,Youngstown,OH,44514,330-755-5777
D&b Trucking,5800 Cushman Rd,Sylvania,OH,43560,419-392-2066
J & S Movers,4135 Talbert Street,Cincinnati,OH,45205,513-251-1298
Logan Trucking,5254 Keystone Furnace Road,Jackson,OH,45640,740-418-6809
Kemp Trucking,20911 Daniels Rd,Mount Vernon,OH,43050,740-504-6123
Terrys North Coast Auto,3328 St Clair Ave,Cleveland,OH,44114,216-391-7446
John Roberts Trucking,390 Walnut St,Williamsburg,OH,45176,513-536-7259
Four C's Trucking,717 Beatrice Dr,Dayton,OH,45404,937-604-4101
Dinamis Logistic,4140 Brookside Blv,Cleveland,OH,44135,N/A
Jl Lofton Transportation,5801 Plumtree Path,Dayton,OH,45415,937-604-1110
U & H Express,6 Mcclure Street Apt D,Dayton,OH,45403,937-554-5922
R&s Transport,1176 Cinnamon Ridge Lane,Sidney,OH,45365,937-916-7902
Matt Cline Trucking,161 Newman Alley,Otway,OH,45657,740-372-2224
Bart Transport,2017 Byron Drive,Brunswick,OH,44212,216-534-5346
North Coast Expediting,524 Washington Av,Huron,OH,44839,419-515-0910
Servicemaster By Ameristeam,5280 West 161st Street,Brook Park,OH,44142,216-271-7223
Lynn Trucking,8335 Stateline Rd,Union City,OH,45390,937-308-0560
Midgly Trucking,5915 E State Route 29,Urbana,OH,43078,937-648-8850
Cbs Distributors,1600 S Arlington St Ste 200,Akron,OH,44306,330-724-5444
B & G Transport,2221 South Ridge W,Ashtabula,OH,44004,423-339-5591
Johnson Trucking,322 Pearl St,Newcomerstown,OH,43832,740-498-6644
Four K Trucking,6495 Converse Huff Rd,Plain City,OH,43064,614-535-8818
Reliable Auto Transportation,535 N Freedom St,Ravenna,OH,44266,516-568-3112
Ohio Auto Sales & Salvage,42083 Ste Rte 344,Columbiana,OH,44408,330-482-4100
Gats,2151 East Dublin Granville Rd Ste 213,Columbus,OH,43229,614-377-8404
Bts,3505 Westerville Road,Columbus,OH,43224,614-475-8646
Ffti,5417 Mallards Marsh,Columbus,OH,43229,614-599-0008
Thornton Trucking,7200 Lemon Hill Road,Mcconnelsville,OH,43756,740-962-2240
Rhoades Hotshot Service,1192 Parkside Drive,Alliance,OH,44601,406-224-1517
Sprint Transport,3577 Reserve Dr,Medina,OH,44256,704-962-1937
Ras Services LLC,14 Justin Dr,Norwalk,OH,44857,419-577-0582
Jbh Transport,428 Sprague,Berea,OH,44017,216-225-8030
Amg Trucking,2174 State Route 516 Nw,Dover,OH,44622,330-575-1475
Kw Trucking,206 North Central Avenue,Lima,OH,45801,419-236-5743
Jackson Trucking,2125 Winona Drive,Middletown,OH,45042,513-267-2691
Near Transport,3194 Anita St,Columbus,OH,43234,614-206-0995
"4 Us Trucking, Inc.",544 Heather Ln,Bedford,OH,44146,216-288-1945
Carroll Trucking,480 N 15th Street,Coshocton,OH,43812,740-202-0024
Mclaughlin Trucking,4942 Powell Rd,Huber Heights,OH,45424,937-603-9435
3d Express LLC,164 Cunningham Road,Londonderry,OH,45647,740-887-3335
Jbc Express,47200 Stewart Rd,New London,OH,44851,440-320-3262
Signature Freight,6300 Shiloh Springs Road,Trotwood,OH,45426,937-236-9075
Pds Trucking,147 Clay Baner Rd,Oak Hill,OH,45656,740-418-2037
Mac Trucking,701 Sugarball Ln,Cincinnati,OH,45215,513-652-8212
Hurd Transport,4506 Errington Rd,Columbus,OH,43227,614-204-3066
G Meyer Trucking,205 Gaines Street,Higginsport,OH,45131,937-515-9096
Six Brothers Auto Sale,2705 Glenwood Ave,Youngstown,OH,44511,330-501-5518
Whaley Trucking,7127 Plessinger Road,Versailles,OH,45380,937-418-4440
Pappa D Trucking,1799 Lynn Hipshor Rd,Marion,OH,43302,419-294-3984
Browns Distributing Co,1241 Glen Haven Lane,Batavia,OH,45103,N/A
Schneider Transport,Barger Road,Leesburg,OH,45135,937-780-6847
Berachah Valley Transportation,9638 Collett Road,Waynesville,OH,45068,937-241-2247
Nicks Trucking,9110 Garden Rd,Maumee,OH,43537,419-341-8604
E T Trucking,112 High St Apt 3,Liberty Center,OH,43532,419-533-5973
Low Road Logistics LLC,6102 Low Road,Lisbon,OH,44432,330-227-0726
Linden Logistics,13087 Broadgauge Road,South Vienna,OH,45369,740-541-0595
Proline Xpress,24371 Lorain Rd Suite 206,North Olmsted,OH,44070,440-777-8120
Wooten Trucking,39634 Mound Hill Rd,Albany,OH,45710,740-388-0851
S & J Hauling,161 Clark Rd,Sycamore,OH,44882,419-927-2320
L M Trucking,3400 Finley Rd,Malta,OH,43758,740-962-6312
Big A Transport,9211 Flintlock Place,Orient,OH,43146,614-562-2299
Professional Services,245 South Street,Galion,OH,44833,419-565-8681
Bob And His Bus,5622 County Road 30,Mt Gilead,OH,43338,419-947-8911
R E Groll Transportation,14285 County Road N-65,Pioneer,OH,43554,419-737-6028
Marbeck Trucking,17900 Keller Rd,Butler,OH,44822,740-694-3166
Mclaughlin Transportation Services,10525 Frederick Pike,Vandalia,OH,45377,937-387-6524
G&t Logistics,7583 Wellshire Dr,Pickerington,OH,43147,614-559-0542
Don's White Buggy Service,7515 Burrville Rd,Celina,OH,45822,419-852-2770
Thomas Yount Trucking,2295 Bazetta Road,Cortland,OH,44410,330-646-9422
First Choice Courier,42 North St,Phillipsburg,OH,45354,937-266-7123
Hopetown Graphics,3976 Bach-buxton Road,Amelia,OH,45102,859-431-4020
Stein-way Transport,12335 Emerson Rd,Apple Creek,OH,44606,330-857-8700
Circle R Haulers,5271 Twp Rd 113,New Riegel,OH,44853,419-310-8599
Lars Industry,05233 Hicksvill-edgerton Road,Hicksville,OH,43526,260-438-4038
Monya Trammell Trucking,4100 Hickman Rd,Columbus,OH,43224,614-517-4581
M K Express Lines,108 Diamond Way,Cortland,OH,44410,234-244-4091
K A R T,266 Gieke Rd,Oak Hill,OH,45656,740-577-4603
Wolf Express,205 Rita St,Deyton,OH,45404,510-213-4883
Zayden Trucking,9252 Hyw52,Manchester,OH,45144,937-549-2861
Jae & Jd Trucking,1559 Sassafras Dr,Mansfield,OH,44905,419-612-6459
Okob Transportation,4920 Scioto-darby Road,Hillard,OH,43026,614-375-2078
Three In One Transporting,3582 East 138th Street,Cleveland,OH,44120,216-308-6554
S And S Motorways LLC,716 N Cross Street,Dover,OH,44622,330-663-6032
Jason Hatfield Automotive,3900 St Rt 3,Sunbury,OH,43074,614-599-0006
Tc Trucking,3672 State Line Road,Oxford,OH,45056,513-376-1145
Thunderstorm Express LLC,6943 York Rd Apt 202,Parma Heights,OH,44130,440-227-4062
"Cpv Transport, Inc.",336 Portage Ave,N Canton,OH,44720,330-268-1679
Avalon Express Transport,1700 Woodlands,Maumee,OH,43537,419-283-7292
Randy Ball Trucking,194 Hopping Avenue,Peebles,OH,45660,937-217-6211
Mac Express,8485 Township Rd 457,Loudonville,OH,44842,419-651-8572
Delphi Packard Electric Eea,1265 North River Road,Warren,OH,44406,330-373-2929
Clearsprings Transportation,2989 County Road 25,Cardington,OH,43315,567-240-1062
Casto Woodard Trucking,921 Carl Penn Road,Waverly,OH,45690,740-259-9750
"Premier Gardening Services, Inc.",2361 Gradwohl,Toledo,OH,43617,419-841-4750
Steelco Carriers,9907 South Blvd,Cleveland,OH,44108,216-791-9707
Estels Auto World,S Schwamberger Rd,Swanton,OH,43558,419-829-2238
Meadows Quality Services,3744 Panama Drive,Westerville,OH,43081,614-516-7913
Jerry & Coco's Logistics,384 Dallwood,Avon,OH,44012,440-320-4205
Rescue Marine,8640 E North Shore Blvd,Marblehead,OH,43440,419-798-5194
Midwest Transport,3502 Rebecca Dr,Canfield,OH,44406,330-953-3475
Bellisari Trucking,3382 Brookside Blvd,Columbus,OH,43204,614-778-1217
American United Transport,1297-102 High Street,Wadsworth,OH,44281,330-286-0550
R Hackney Transport,533 Greenwood Ave,Akron,OH,44320,330-419-3499
R L Hollon Jr Trucking,7330 Justus Rd Sw,Stoutsville,OH,43154,740-503-6542
M C Trucking,559 Jefferson Street,Marion,OH,43302,740-375-0806
Next Level Transportation,5540 Cantara Pl,Columbus,OH,43232,614-402-0542
Jl Trucking,20115 Venedocia Eastern Road,Venedocia,OH,45894,419-667-4515
John J Banchich Transportation,1450 N Tettau Road,Port Clinton,OH,43452,419-635-4510
Grace Transportation,6985 Maple Hill Ct,Westerville,OH,43082,614-260-0678
Crislip Hotshot Trucking,6157 Alliance Vrd Nw,Malvern,OH,44644,330-933-4688
H S Trucking,2267 Meadowood Blvd,Twinsburg,OH,44087,330-313-1235
Bee Haul-d Moving Company,632 Goodwin Avenue,Lancaster,OH,43130,740-277-7725
Strait 8 Trucking,4761 Timberview Dr,Vermilion,OH,44089,440-963-0361
Ohio Haulers,3217 Hartville Road,Rootstown,OH,44272,330-687-4743
K & C Trucking Company,1044 Camba Road,Jackson,OH,45640,740-286-0709
Cap Transport,181 D N Hamilton Rd,Columbus,OH,43213,614-384-3392
Carls Auto Transport,5107 Jameson Dr,Columbus,OH,43232,615-589-8881
Hogue Trucking,10888 Walnut St,Glouster,OH,45732,740-767-3245
Felzor Transportation,910 N Highland Ave,Girard,OH,44420,440-983-9598
Lrtinc,188 Carroll Ave,Painesville,OH,44077,440-488-6814
Well Oiled Distribution LLC,3094 Riley Road,Johnstown,OH,43031,740-374-5490
Rock And Roll Express Delivery,791 1/2 Broad St,Wadsworth,OH,44281,330-321-5329
Assure Transport,69606 Crescent Road,St Clairsville,OH,43950,740-359-2394
Casey Transport,1113 S Western Ave,Springfield,OH,45506,937-408-3648
Awl,13482 Church View Dr,Pickerington,OH,43147,317-385-4916
Transportation,4202 Sheraton Dr,Parma,OH,44134,440-842-8861
Unique Services Logistics,7165 Tomahawk Trail,Reynoldsburg,OH,43068,614-367-1730
Hsc Motor Freight,1183 S Market Street,Troy,OH,45373,937-339-4490
Smooth Enterprises,10002 Arborwood Dr,Cincinnati,OH,45251,513-258-6859
Service Lumber Co,1061 Sodom Hutchings Rd Se,Vienna,OH,44473,330-720-6672
Francis Trucking,10077 Manor Road Ne,Minerva,OH,44657,330-205-8106
Mcbeth Hauling,5021 Larue Green Camp Road,New Bloomington,OH,43341,740-361-4714
Highway Autohaulers LLC,146 Cosmos Ln,Pataskala,OH,43062,740-927-4946
Wylie Trucking LLC,710 Park Drive,Washington Court House,OH,43160,740-572-3685
Wallstreet Logistics,7855 Harrison Ave Unit 6,Cincinnati,OH,45231,513-442-0236
3 Cross All American Truck & Trailer Repair,1420 Matzinger Road,Toledo,OH,43612,419-726-4408
Flashy Transportation,4040 Richmont St Sw,Navarre,OH,44662,330-704-2167
E And D Shuttle Services LLC,7907 Glendale Milford Rd,Camp Dennison,OH,45111,513-332-7655
Dls,1319 Colorado Ave,Lorain,OH,44052,313-215-4076
Shrieve Trucking,14824 Ideal Road,Senecaville,OH,43780,740-685-6661
Bowerman Transport,14158 Greensburg Pike,Portage,OH,43451,419-601-0191
4 We Help Movers,4670 Paddock Rd Suite A,Cincinnati,OH,45229,513-575-4357
Countrystyle,3301 Wiesman Road,Urbana,OH,43078,937-869-6256
Brooks Express Services,1210 Davis Drive,Fairborn,OH,45324,937-754-0140
Dependable Transport Service,11300 Brookpark Rd,Cleveland,OH,44135,216-253-5887
Dunn Deliveries LLC,3309 Portman Ave Apt 1,Cleveland,OH,44109,216-351-1717
Rosenburg Trucking,868 Sugar Camp Jackson Fork Rd,South Webster,OH,45682,740-778-1012
L & A Trucking Company,4290 Broadway,Lorain,OH,44052,440-233-9610
J L Stutler Trucking,31 West Walnut,Marengo,OH,43334,740-272-0465
Nabtex Express,743 Avonia Drive,Columbus,OH,43228,614-592-8448
Epker Transportation,609 N Stadium Road,Oregon,OH,43616,419-754-3634
Ht Express,4424 18th Street Nw,Canton,OH,44708,330-502-3868
Starz And Stripes Transport,6244 County Road 1-1,Swanton,OH,43558,419-344-6753
Co-op Express,5765 St Rt 725 East,Camden,OH,45311,937-787-4663
Dremone Trucking LLC,734 Wilfred Avenue,Dayton,OH,45410,937-626-6506
Skylark Express,11335 Wright Rd,Uniontown,OH,44685,330-933-0984
Jmb Trucking,6830 Sharon Ct,Columbus,OH,43229,614-735-1057
Lakota Trucking,9003 Cincinnati Dayton Rd,West Chester,OH,45069,513-777-7827
Craces Auto Sales,90 High St,Wheelersburg,OH,45694,740-574-9318
Demmitt Dairy Farms,855 St Rt 202,Troy,OH,45373,937-335-2013
Elite Slate Transport,4645 Dungannon Drive,Grove City,OH,43123,614-579-0940
3b Transport,9860 Snyder Church Rd,Baltimore,OH,43105,503-607-1088
Phke Trucking,11770 Market Street,North Lima,OH,44452,330-507-9986
Hurrier Courier,8605 West State 571,West Milton,OH,45383,937-417-2866
Ddo Trucking,6260 Pearl Road #505,Parma Hts,OH,44130,440-840-7888
High Noon Transportation,68 Romaine Ave,Boardman,OH,44512,330-629-8104
Jm Services,23300 Lakeland Blvd,Euclid,OH,44132,216-731-4444
100 Trucking,6915 Highland Green Dr Apt 315a,West Chester,OH,45069,513-393-1414
Eat Cake Distributing,16331 State Route 678,Rockbridge,OH,43149,740-385-2493
Stow Auto Carrier,372 Pleasant Meadow Blvd # E,Stow,OH,44224,330-338-9631
Bruce Trucking,76 Grand Ave,Marysville,OH,43040,937-243-2797
Mainline Transportation,300 Tilden Ave Unit #4,Mount Vernon,OH,43050,740-397-2627
B And N Trucking,8716 Torrnace Avenue,Brooklyn,OH,44144,216-741-2385
Freedom Quest Transport,7163 Nettle Creek Rd,St Paris,OH,43072,254-799-7779
Crider Trucking,328 North Fourth St,Williamsburg,OH,45176,513-724-7805
Erkole,3052 Rollingwood Dr,Columbus,OH,43219,614-804-1214
Yurub,2665 Sunbury Court East,Columbus,OH,43219,678-595-6218
Graham Road Logistics,13307 Graham Road,East Cleveland,OH,44112,216-373-7388
Rick Davis Trucking,1175 Salem Road,Wellston,OH,45692,740-384-4092
George R Brown Trucking LLC,406 S Chestnut St,Barnesville,OH,43713,740-425-1454
Mahat Trucking,2470 Bentham Ct,Columbus,OH,43219,614-735-4160
Bk Express,4290 Skylane Drive,Cleveland,OH,44109,440-539-0571
Zm Transportation,1085 Garden Rd,Willoughby,OH,44094,440-946-3926
Phoenix Well Services LLC,920 West Easton Road,Burbank,OH,44214,330-624-0050
Melton Auto Transport,8107 Morrow Woodville,Pleasant Plain,OH,45162,513-508-5115
Bc Trucking,4845 Mcallister,Columbus,OH,43227,662-607-7848
Pom Trucking,6843 Prairie Rd,Sabina,OH,45169,513-313-4762
Bells Trucking,3204 Pierce Road,Georgetown,OH,45121,513-262-8586
Bevins Auto Sales,4250 Co Rd 107,Chesapeake,OH,45619,174-045-1288
Rouse 1,3204 Cedar Grove Place,Grove City,OH,43123,304-914-7501
C P Transport,10425 Kensington Rd Ne,Kensington,OH,44427,330-223-1869
Lowkeys Trucking,922 Chamberlain Ave,Cincinnati,OH,45215,513-769-1212
Hollis Trucking,5158 State Route 664,Bremen,OH,43107,740-569-7027
Ind Delivery,2146 Freeman Ave #1,Cincinnati,OH,45214,513-290-9202
Elite Motor Carriers,615 E Benton St,Wapakoneta,OH,45895,419-303-5216
Claridon Trucking Company,7141 N Wiswell Rd,Windsor,OH,44099,440-320-1771
Jkr Trucking,9686 Forty Corners St,Massillon,OH,44647,330-904-1020
Daynas Express Line LLC,1798 Tabor Ridge Road Ne,New Philadelphia,OH,44663,330-401-2927
Jackson Trucking,7789 Windward Trace,Massillon,OH,44646,330-837-3416
Younggold Trucking,210 S Stringtown Rd,Xenia,OH,45385,937-602-9801
Adams Trucking,622 Holcomb Road,West Union,OH,45693,937-544-2423
Trautman Transportation,13484 Unity Rd,New Springfield,OH,44443,330-233-2348
E A W Trucking,2067 Fillmans Bottom Road Sw,Port Washington,OH,43837,330-407-0574
Gotta Go Livestock,85 Limetree Dr,Delaware,OH,43015,740-369-5968
Caprifleet Trucking,343 Autumn Rd Se,Carrollton,OH,44615,330-627-3562
Clemons Trucking,11813 Winchester Rd,Ashville,OH,43103,614-554-2170
J D A Trucking,1560 Linwood Ave,Columbus,OH,43207,614-449-2165
Bentley Transportation,33972 Wolf Hill Road,Mcarhtur,OH,45651,740-395-3260
Lns Trucking,945 Dingledine Avenue,Lima,OH,45804,419-228-7947
M A Transport LLC,325 S Main St,Uniopolis,OH,45888,419-568-4109
Hampton Motor Freight LLC,5612 Ridgebury Blvd,Lyndhurst,OH,44124,216-926-9650
Royalty Transport,2118 Tremainsville Rd,Toledo,OH,43613,419-472-5504
Nauti Bouy Marine Services,4683 E Catawba Woods Dr ,Port Clinton,OH,43452,419-341-4027
Kilby Transport,4453 Middle Rd,Conneaut,OH,44030,440-594-1479
S & S Sign Service,485 Ternstedt Lane,Columbus,OH,43228,614-279-9722
H-h Trucking,1920 Lyntz Townline Rd,Warren,OH,44481,330-883-1589
Mccalls Trucking,19131 Concord St,Adelphi,OH,43101,740-332-4817
K & D Transportation,675n Deis Drive Suite 192,Fairfield,OH,45014,513-266-5746
Dailey Mobile Home Transportation,7580 Clay Pike,Chandlersville,OH,43727,740-674-4806
Monteith Trucking,14178 Barrett Mill Rd,Bainbridge,OH,45612,937-365-1228
Hot Oil Transport,5500 Waterville Swanton Rd,Swanton,OH,43558,419-875-5222
Gary Keller Trucking,575 Dace Rd,Lucasville,OH,45648,740-259-4920
Tag Trucking,3640 Adams Road,Kingsville,OH,44048,814-490-3806
Smb Trucking,10680 Gloria Ave,Cincinnati,OH,45231,513-851-0953
W H Fetzer Transportation,500 Donnenwirth Ave,Plymouth,OH,44865,419-687-8237
Gott Transport,22751 Georgetown Rd,Homeworth,OH,44634,330-257-3400
Birmingham Executive Chauffeured Services,5655 Opportunity Drive # 27,Toledo,OH,43612,419-882-5466
M M Trucking,1131 Way,Rome,OH,44085,440-294-2100
Tim Young Trucking,281 Pedretti Avenue,Cincinnati,OH,45238,513-471-4558
Cns Trucking,4135 Walnut Rd Se Lot10,Buckeye Lake,OH,43008,614-827-5500
Calver Transport,9271-d State Rte 125,West Portsmouth,OH,45663,740-858-5815
New-ark Motor Coach,5284 Linnville Road,Newark,OH,43055,740-405-6050
Bih Express LLC,1290 E 342 St,Eastlake,OH,44095,216-310-5476
T A P Trucking,17765 Road 20p,Fort Jennings,OH,45844,419-286-2696
Kdm Auto Transport,5732 Dornell,Sylvania,OH,43560,419-517-3027
Kelch Trucking,40185 Lodge Rd,Leetonia,OH,44431,330-427-1932
Lawns Plus,717 Old Seven Road,Coolville,OH,45723,740-667-6011
Van Dyke's Transport,13063 Lakeside Drive,Greenfield,OH,45123,937-981-7257
Truex Trucking,473 Luther Street,Mansfield,OH,44902,419-524-2827
All Cargo Services,7640 Peters Pike,Dayton,OH,45414,859-757-9685
Tony & Tracy Sill Trucking,4531 Hoaglin Center Road,Van Wert,OH,45891,419-587-3115
Poling's Hay Service,7521 Brush Lake Road,North Lewisburg,OH,43060,937-747-2815
Utss,206 East Garfield Road,Aurora,OH,44202,330-562-3330
Midwest Highway Coach,1515 Bethel Rd Ste 102 ,Columbus,OH,43220,614-299-2300
Okeana Transport,1100 California Road,Okeana,OH,45053,513-757-4455
"L A Buchanan Trucking, Inc.",477 Snavely Rd,Richmond Hts,OH,44143,216-533-9346
Dee's Trucking,2958 Nursery Avenue,Cleveland,OH,44103,216-429-0902
Kc Transport,2601 Oxford Millville Road,Oxford,OH,45056,513-259-6201
Jeffery M Mcintosh Trucking,401 Mill St,Montpelier,OH,43543,419-485-0495
Mike Tomlison Trucking,912 Straight Creek Rd,Waverly,OH,45690,740-648-8811
J & K Auto Transport,2914 Peterson Lane,Sandusky,OH,44870,419-271-3940
Jeff Sheets Trucking,1517 Skeels Road,Celina,OH,45822,419-942-1674
Stryker Express,5474 Co Rd 43,De Graff,OH,43318,937-539-0548
Howister Freight Relocating,4876 Fisher Corinth Rd,Farmdale,OH,44417,330-924-5120
Iron Dogs Transportation,39091 Grant Street,Lisbon,OH,44432,330-424-1086
Paul Alan Trucking,11707 Fenstermaker Rd,Garrettsville,OH,44231,440-781-6945
Chad Pollock Trucking,3845 Culbertson Rd,Zanesville,OH,43701,740-452-7550
Clinton Aluminum & Stainless Steel,6270 Van Buren Rd,Clinton,OH,44216,330-882-6743
Scotka Log Transport,56862 W 51st St,Shadyside,OH,43947,740-671-8983
Haslage Trucking,2241 East 28th Street,Lorain,OH,44055,440-277-1099
Lone Wolf Trucking,351 College Ave,Rutland,OH,45775,740-742-1801
Ballah Trucking,919 State Route 56 Southwest,London,OH,43140,614-296-3102
Hauenstein Trucking,16243 County Road 1150,Montpelier,OH,43543,419-485-3313
Brothers 2 Custom Transport,13570 County Home Road,Marysville,OH,43040,937-642-6910
Rb Trucking,2213 Lafevre Rd ,Geneva,OH,44041,440-964-3710
Blue Diamond Stables,8310 Sadie Thomas Rd,Johnstown,OH,43031,740-809-8180
R Way Service,1649 Cedar Brown Road,Curtice,OH,43412,419-836-7506
Liberty Transport,8186 Lincoln Pike,Patriot,OH,45658,740-256-1553
Marshall Express,9959 Chester Road,Cincinnati,OH,45215,513-554-4122
Henry Ward Trucking,13800 Shaker Blvd # 1004,Cleveland,OH,44120,216-283-0930
Easy Freight Transportation,1026 Austin Ave,Akron,OH,44306,330-388-6422
Studebaker Farms,5650 Monroe Central Rd,Eaton,OH,45320,937-456-2843
Kabahizi Trucking,1320 St Adelbert Ave,Dayton,OH,45404,937-266-0928
Mhws,12340 Wren Landeck Road,Van Wert,OH,45891,419-965-2685
Rockin H Equine Handling Services,775 Moss Hollow Rd,Chillicothe,OH,45601,740-663-2650
Pods,480 E Dixie Drive,West Carrollton,OH,45449,270-302-9164
Heath Farm Trucking,2716 Township Road 30 West,Bellefontaine,OH,43311,937-592-1636
Sullivans Auto Sales,4497 Marysville Rd,Delaware,OH,43015,740-363-2100
Perry Trucking,14450 Elm Rock Rd,Nelsonville,OH,45764,740-270-9109
Heffner Carriers,316 North High Street,Columbus Grove,OH,45830,567-242-8123
Competitive Movers,4241 Sweeney Lane,Hillsboro,OH,45133,937-403-6742
Dm Transportation,6203 Sheed Road,Cincinnati,OH,45247,513-385-5236
K A T S,115 New Street,Quincy,OH,43343,937-441-9801
I & K Distributors,1600 Gressel Drive,Delphos,OH,45833,419-695-5015
Charles Morton Trucking,903 Raymond St,Akron,OH,44307,330-762-5453
Maine Line Auto Sales,16004 Broadway Avenue,Maple Heights,OH,44137,216-956-7400
K And M Trucking,5221 Denlinger Road,Trotwood,OH,45426,937-837-6582
Dees Trucking,25151 Brookpark Road Apt 415,North Olmsted,OH,44070,440-377-2322
Huffman Trucking,312 N Main St,West Manchester,OH,45382,937-533-6430
Finishline Car-truck,954 Matzinger,Toledo,OH,43612,419-476-1750
Wtc,8232 Kirtland Chardon Rd,Kirtland,OH,44094,440-744-4860
Thoroughbred Industries,1285 Ghent Hills Rd,Akron,OH,44333,330-665-5870
Iam Express,2063 Sr 224,Plymouth,OH,44865,419-933-4106
Fast Transportation,6311 Vandalia Ave,Brooklyn,OH,44144,216-398-8021
M N D J Express,18645 Fox Rd,Hiram,OH,44234,440-834-1586
Hein Trucking,90770 Conotton Rd,Bowerston,OH,44695,740-269-4006
Pro Automotive,2326 Front St,Toledo,OH,43605,419-698-3377
Darrell's Hauling,2121 Finley Guy Road,London,OH,43140,740-857-1089
Mark Stevens Trucking,2648 Omega Road,Greenwich,OH,44837,419-752-6885
P & M Enterprise,707 Harrison Ave Sw,Canton,OH,44706,330-956-4562
Browns Basement Waterproofing,524 Lake Katherine Rd,Jackson,OH,45640,740-288-9811
Lil Henry's Garage,9063 State Route 503,Camden,OH,45311,937-535-8589
Vestal Farm Service,9427 E Portage Rd,Portage,OH,43451,419-686-2976
Thompson Trucking,10254 Avon Lake Rd,Burbank,OH,44214,330-624-7777
Lady On The Move Trucking,3955 E 140th St,Cleveland,OH,44128,216-921-5411
Seneca Transport,59696 West Wind Lane,Senecaville,OH,43780,740-685-2310
Borns Trucking,Box 22552 Cr 230,Mount Victory,OH,43340,937-597-7020
Kneece Trucking,112 Richard Avenue,Bellefontaine,OH,43311,740-207-9464
Vinyl & Carpet Service,1784 Westwood Avenue,Cincinnati,OH,45214,513-251-4872
R & D Trucking,711 Poe Road,Bucyrus,OH,44820,419-985-5156
Big Mike's Transport,109 W Lugbill Rd,Archbold,OH,43502,419-572-6727
Timber Creek Hauling,29772 Jackson Rd,Kingston,OH,45644,740-412-5651
Dsg Trucking,2610 Post Road,Twinsburg,OH,44087,330-998-3296
Old Master Trucking,4185 County Road 28,West Liberty,OH,43357,937-205-4569
Outlaw Hauling,321 High St,Barnesville,OH,43713,740-425-9036
Custom Farm And Freight Services Co,1060 Andy Drive,New Concord,OH,43762,740-819-0172
J & D Trucking,4928 State Route 288,Galion,OH,44833,419-468-7184
Jay Rose Trucking,1360 E Spring Valley Paintersvile Road,Xenia,OH,45385,937-902-4319
Mayabb Trucking,6618 State Route 503,West Alexandria,OH,45381,937-787-4832
Dpc Automotive,315 Two Ridge Road,Wintersville,OH,43953,740-264-0045
Iron Man Trucking,1595 Sylvan Road,Wooster,OH,44691,330-264-1135
Lindner Transportation,1926 Township Road 1095,Ashland,OH,44805,419-368-3740
G A S Logistics,2065 S County Rd 25a,Troy,OH,45373,937-339-1409
Need A Lift Trucking,9883 Mercer Auglaize County Line Road,Mendon,OH,45862,419-795-8005
C Davis Express,12809 Craven Ave,Cleveland,OH,44105,216-751-5757
Anthony Trucking,5734 Drake Road,Piqua,OH,45356,937-778-1489
Miphi Moving,740 Gregg Street,Washington Court House,OH,43160,614-428-4444
Cas Trucking,5382 Ridge Rd Se,Canton,OH,44707,330-484-4172
Ipi Express LLC,17599 Whitney Road # 320,Strongsville,OH,44136,440-915-6744
Rons Auto Parts,3590 Center Road,Zanesville,OH,43701,740-453-7234
A Sweet Express,3645 Bevis Lane,Cincinnati,OH,45251,513-245-2333
Mtb Transportation,46201 Stumptown Road,Cadiz,OH,43907,330-581-3233
Ftcs Trucking,5628 Betty Lane,Milford,OH,45150,513-444-4118
D&l Trucking,4243 Sunnyside Dr,Louisville,OH,44641,330-353-6513
B P A Trucking,2773 Primrose Trl,Columbus,OH,43231,614-316-9464
B-k Mills Farms Trucking,10985 Road #24,Haviland,OH,45851,419-203-4758
Morse,3267 Old Providence Rd,Westerville,OH,43081,614-774-9490
Unger Transport,681 Polley Road,Winchester,OH,45697,937-695-0442
R-j Transport,9861 State Route 47 West,Degraff,OH,43318,937-585-5620
Unitrans Auto Hauler,16970 Bear Creek Lane,Strongsville,OH,44136,216-659-5514
Wooten Trucking,2030 S Tecumseh Rd,Springfield,OH,45502,937-322-7116
Ns Trucking,2949 Capital Park Ct #1c,Columbus,OH,43224,614-403-6207
Jeff Helline Pwf,4796 Tr 401,Millersburg,OH,44654,330-231-3325
Malik Transportation,6 Mcclure St Spt A,Dayton,OH,45403,603-361-0897
Cleary Trucking,1408 S 11th St,Ironton,OH,45638,740-646-6511
Barte Trucking,590 Swisher Hill Road,Cheshire,OH,45620,740-367-7899
Scott Auto Transport,458 Jones Road,Waterford,OH,45786,740-350-8726
Henricks Auto Sales,8838 State Route 34,Bryan,OH,43506,419-636-1694
R & M Trucking,3154 Henderson School Rd Ne,New Philadelphia,OH,44663,330-343-9305
Rc7 Horse And Cattle Co,5021 Winfield Strasburg Rd Nw,Dover,OH,44622,330-343-1509
Chucks Trucking,212 3rd Avenue,Chesapeake,OH,45619,304-972-6775
Shaan Logistics,10366 Townley Ct,Aurora,OH,44202,216-288-0711
Amburgey Trucking,743 Todhunter Road,Monroe,OH,45050,513-539-7051
Kennys Auto Wrecking,1401 Findlay Road,Lima,OH,45801,419-223-0836
Convenience 4 You,744 Cuthbert Rd,Toledo,OH,43607,419-531-9431
Dependable Package Delivery,4263 Berryhill Lane,Cincinnati,OH,45242,513-891-9829
Stratton Tools,9026 Mcnoun Rd,Winchester,OH,45697,937-205-1634
Stutzman Trucking,4030 Mt Camel-tobasco Rd Ste 314,Cincinnati,OH,45255,989-572-8391
1st Choice Freight,421 Jewett Avenue,Dennison,OH,44621,740-922-5794
Gtl,3323 Plum Creek Dr,Columbus,OH,43219,614-559-0583
Rutan Trucking,1931 Campground Road #46,Wellsville,OH,43968,330-870-4080
Kilborn Trucking,5619 Chiles Ave,Cincinnati,OH,45248,513-548-6437
R A Miller Delivery Service,3670 Lobelia Drive,Cincinnati,OH,45241,513-984-1546
Garrett Motor Freight,3651 Yoder Road,Lima,OH,45806,419-215-0700
S And M Trucking,340 Nye St,Marion,OH,43302,740-387-8680
Jta Trucking,7322 Gilliland Road,Van Wert,OH,45891,419-238-6070
J & J Transport,3430 Tiffin Rd,Fremont,OH,43420,419-355-8341
Overdrive Trucking,140 Terrace Circle,Dalton,OH,44618,330-516-3160
Sonrise Trucking,3641 N Kemp Rd,Elida,OH,45807,419-339-9236
Steedman,129 Rossburn Pl,Rossford,OH,43460,419-666-6028
Maberry Transport,14260 Fruend Road,Delphos,OH,45833,419-296-0873
Supreme Carrier,3250 Harvey Ave Apt 5,Cincinnati,OH,45229,513-578-0109
Snk Transport,706 Township Highway 202,Bloomingdale,OH,43910,740-381-0086
Jerry's Auto Sales,2519 Longines Rd,Dayton,OH,45414,937-277-2886
Dba Bryce Seymour,7214 Industrial Park Blvd,Mentor,OH,44060,440-796-3438
R P M Trucking,1311 37th St Ne,Canton,OH,44714,330-452-6033
Harris Trucking,179 Davenport Rd,Chillicothe,OH,45601,740-412-8945
Chime Master System,6312 Goss Road,Sugar Grove,OH,43155,740-746-9221
J & B Crowl Transport,1009 West Vine Street,Mount Vernon,OH,43050,740-326-4273
Cook Farms,1225 W Michaels Rd,Tipp City,OH,45371,937-313-5797
Town Center Automotive,4972 Sr 43,Kent,OH,44240,330-678-8780
"Kobi Express, Inc.",2816 Revels Avenue,Dayton,OH,45417,937-321-5416
Valley Moving,59511 Pigeon Point Road,Barnesville,OH,43713,740-238-2403
N E And Renovations,1825 Hillside Terrace,Akron,OH,44305,330-585-8118
Mother Loving Trucking,1150 A Campbell Run Rd,Lower Salem,OH,45745,740-525-5706
Kelsar Transportation,7760 Hansgrove Ct,Dublin,OH,43016,513-593-6775
Dsg Trucking,340 Riddle Rd,Cincinnati,OH,45215,513-545-2496
Swain Trucking,1141 Senate Drive,Fairfield,OH,45014,513-829-5255
L A Scott Trucking,2989 Symmes Rd,Fairfield,OH,45214,513-641-2300
B S Trucking,45 Pinewood St,Bucyrus,OH,44820,419-834-1133
Cook Trucking,206 Elm Street,Van Bueren,OH,45889,419-934-0462
Barzoo 53 Express,18 3rd Street Rear,Shelby,OH,44875,480-766-0757
Ec Trucking,1545 S Meridian Road,Youngstown,OH,44511,330-792-0072
Lmkv Transportation Systems,168th & St Clair Ave,Cleveland,OH,44110,216-905-1862
Beisner Trucking,1402 Peters Road,Troy,OH,45373,937-339-0773
Stewart Auto Transport,2750 Old State Route 32,Batavia,OH,45103,513-646-9419
Cheyenne Transport,12770 Cr 6,Killbuck,OH,44637,330-377-9854
L H Johnson Trucking,7483 S Elyria Rd,Shreve,OH,44676,330-317-1721
Martins Creek Transport Ltd,5763 Tr 351,Millersburg,OH,44654,330-674-6354
Richard Kasprowski Hauling,54249 National Road,Bridgeport,OH,43912,740-635-1349
Smileyz Trucking,7654 White Chapel Road,Newark,OH,43056,614-377-5575
Extreme Transportation Services LLC,2615 Lakeside Avenue East,Cleveland,OH,44114,216-539-2738
Davota Transport Corp,13326 Spruce Run Drive # 207,North Royalton,OH,44133,440-237-1367
Nft,5151 S Main St Suite F,Sylvania,OH,43560,419-882-4240
Rogers Direct,2270 Garden Creek,Maumee,OH,43537,419-491-0619
Flagg Waste & Recycling,15800 Needles Road,Johnstown,OH,43031,740-965-6051
Cj's Transport,1089 Sealy Ridge Rd,Vincent,OH,45784,740-989-3031
Sandy Mountain Transportation,9454 Tallmadge Rd,Diamond,OH,44412,330-671-9241
Jw Transport,10711 Jerusalem Rd,Curtice,OH,43412,419-855-3973
Overman Express,117 East Broadway Street Lot #14,Fort Recovery,OH,45846,419-375-0010
"Ohio Valley Cable Services, Inc.",1030 Freeway Dr North Building 6,Columbus,OH,43229,614-890-1782
Lazer Sharpparking Lot Services,2487 Powell Ave,Columbus,OH,43209,614-338-1162
Spano Trucking,Box 315,Flushing,OH,43977,740-968-3046
Simoniz Distribution,1200 E Russ Road,Greenville,OH,45331,937-547-9350
Rl Kovacs Trucking,41211 Black Oak Rd,Flushing,OH,43977,540-966-2174
Orrca Trucking,1439 Lakeview Road,Cleveland,OH,44112,216-421-8733
Tom Welker Trucking & Excavating,3032 Us Highway 50,Fayetteville,OH,45118,513-875-3934
Buttrick Hauling,825 Hamilton Road,Crown City,OH,45623,740-256-1478
Richard R Layman Trucking,8029 Fairview Rd,Mt Vernon,OH,43050,740-392-7348
Moore's Transportation,1019 Ralston Avenue,Defiance,OH,43512,419-509-7204
Perry Trucking,5695 Bluebird Lane,Marblehead,OH,43440,419-656-4067
Collins Trucking,412 Hill St,Junction City,OH,43748,740-987-2758
Rp Trucking Company,913 Green Heart Dr,New Carlisle,OH,45344,937-308-5454
D H Express,1298 Conant St,Maumee,OH,43537,419-893-1178
Wisecarver Trucking,7775 Ridgeview Lane,Zanesville,OH,43701,740-453-9404
Kevin Kisamore Trucking,1485 State Route 43,Mogadore,OH,44260,330-628-9763
C&d Trucking,9846 Hackett Rd,Apple Creek,OH,44606,330-698-9017
Yost Trucking Co,743 Belmont Ave,Wooster,OH,44691,304-657-0680
Rb Transportation,633 Hoyt St Sw ,Warren,OH,44485,330-759-0625
Ryan S Pollard Trucking,160 Mchenry Rd,West Union,OH,45693,937-205-4883
Kens Quality Transportation Service,2045 Ross Hanover Road,Hamilton,OH,45013,513-868-6505
H T Express,518 W Liberty St Ste 149,Hubbard,OH,44425,330-534-9250
Spaulding Trucking,2010 St Clair St,Hamilton,OH,45011,513-383-7171
Denver & Sons,5295 Springboro Pike,Dayton,OH,45439,937-439-1934
Mlc Auto Transport,7988 Bedford Rd,Hubbard,OH,44425,330-534-2488
Robert Himes Trucking,35026 Rt 30,Lisbon,OH,44432,330-692-1797
Crossroads Expedited Delivery Service,1812 Colonnade Road #205,Cleveland,OH,44112,216-486-3352
Steinbinders Service,50502 State Route 154,Negley,OH,44441,330-426-9489
Midnights Run Trucking,1015 Feesburg-poetown Road,Hamersville,OH,45130,937-379-2265
S And S Trucking,9758 Us Rt 62 Ne,Washington Court House,OH,43160,937-696-1002
City Service Company,930 Parkway,Kent,OH,44240,330-678-8700
Mills Trucking,6620 Lake Road,Medina,OH,44256,330-723-5615
Bond Trucking,1729 Connecticut Ave Se,Massillon,OH,44646,330-832-9421
R W Trucking,5363 Tannerville Rd,Orrville,OH,44667,330-683-3726
Russ Snider Trucking,7347 Old Us Highway 68,Georgetown,OH,45121,937-483-0063
Tra Transportation,8983 Bentley Road,Bluffton,OH,45817,419-371-9027
Rexroad Trucking,571 South Spring Street,Bucyrus,OH,44820,419-569-1005
R & R Transport,15155 State Route 15,Ottawa,OH,45875,419-523-4262
J L H Express,213 Bruce Street,Eaton,OH,45320,937-456-9957
Blue Frog Transport,24640 Mermill Rd,Custar,OH,43511,419-669-4502
Rayl's Auto Sales,45880 Y And O Rd,East Liverpool,OH,43920,330-385-3026
Hunley's Bobcat Service,701 Greenbush East Road,Mt Orab,OH,45154,937-446-2109
Mike Schuck Auto Service,720 Mclister Avenue,Mingo Junction,OH,43938,740-282-7411
Dm Automotive,1785 Mitchells Ln,Marietta,OH,45750,740-373-5037
Amazing Movers,5497 Diamond Loch,Columbus,OH,43226,614-922-0800
Dave Smith Trucking,3812 St Rt 49,Arcanum,OH,45304,937-692-8827
Sam's Transport,6675 Convent,Sylvania,OH,43560,419-697-2618
Spring Valley Body Shop,200 Bellbrook Ave,Spring Valley,OH,45370,937-862-7581
D Z Expeditors,3681 Boomer Road,Cincinnati,OH,45247,513-481-7992
Williams Carrier Transicold,835 West Goodale Boulevard,Columbus,OH,43212,614-228-5000
"R W Blevins Express, Inc.",4698 State Route 132,Batavia,OH,45103,513-735-4063
Bet,45440 Butternut Ridge Road,Oberlin,OH,44074,440-289-5352
Rons Transport,113 Twp Rd 1196,Proctorville,OH,45669,740-646-2064
Vern's Auto Sales,222 Spring St,Piqua,OH,45356,937-773-9296
A H Trucking,3280 Morse Rd # 203,Columbus,OH,43224,614-475-8303
Redstreak Express,417 Skyline Dr,Piketon,OH,45661,740-708-9655
Lucas Clark Trucking,11011 Wiley Rd,West Salem,OH,44287,419-295-0276
Staub Trucking,3785 Cochran Road,Lynchburg,OH,45142,937-288-9812
J Kelly Transportation,717 Warner Rd.,Canton,OH,44707,419-775-1781
Roger Ramey Trucking,9097 State Route 243,South Point,OH,45680,740-533-0871
Ohio Tire Transportation,3156 Oakwood Drive,Cuyahoga Falls,OH,44221,330-573-7060
Starr & Son Trucking Ptnr,44867 E Hamilton,Oberlin,OH,44074,440-774-1698
Jim's Buckeye Transport,1312 Greene St,Marietta,OH,45750,740-374-5818
Berry Transport,12353 Malmsberry Road,Beloit,OH,44609,330-565-4374
Zap Transport,15593 Brookpark Road,Brookpark,OH,44142,216-267-8886
Aj Trucking,360 Edgewood Dr,Columbiana,OH,44408,330-482-4155
Strowder Trucking,3105 E Overlook,Cleveland Heights,OH,44118,216-577-2068
Alternative Trucking Service,3214 W 88th Street,Cleveland,OH,44102,216-631-3917
Sunliner Classics,9584 Smith Road,Litchfield,OH,44253,330-667-2841
Rod Youtsey Trucking,208 East Koch St,Ohio City,OH,45874,419-235-5704
Jack Strunk Trucking,10144 Pottinger Road,Cincinnati,OH,45251,513-851-8587
Brokaw Trucking,5833 College Hill Rd,Cambridge,OH,43725,740-439-5336
Stub Trucking,Box 625 Concress Road,Belpre,OH,45714,740-423-5517
Hawthorne Trucking,1195 Cassingham Hollow Dr,Coshocton,OH,43812,740-623-0649
J A G Trucking,413 South Bodmer Ave,Strasburg,OH,44680,330-878-1060
K & G Transport,606 Deerfield Drive,Harrison,OH,45030,513-367-6987
Dba Sefert Transport,46921 St Rt 556,Beallsville,OH,43716,740-926-1732
Kb Trucking,1821 Peters Branch Road,Crown City,OH,45623,740-256-0803
"Unlimited Movers, Inc.",408 Spring Grove Dr,Tallmadge,OH,44278,330-634-9183
Stewart Trucking,14692 Spohn Rd,Fredericktown,OH,43019,740-694-1545
Inez D Trucking,94 South Harris Ave,Columbus,OH,43204,614-278-9392
A-1 Leasing,12301 Hoover Ave Nw,Uniontown,OH,44685,330-877-1281
Ranwood Trucking,10121 Swamp Road,Logan,OH,43138,740-823-1584
G L Parker Transport,#8 Harkness St,Norwalk,OH,44827,440-371-1950
Laughery Transport,360 S 21st Street,Sebring,OH,44672,330-938-6873
Grooms Trucking,35 Wilderness Rd,West Union,OH,45693,937-544-6093
Thompson Trucking,1284 East State Route 28,Midland,OH,45148,937-685-9347
Awl Auto And Truck,2101 Washington Blvd,Belpre,OH,45714,740-315-1004
H & N Custom Hauling,28960 Quarry Rd,Wellington,OH,44090,216-509-2041
Cgm Warehouse And Distribution Services,3148 West 32nd Street,Cleveland,OH,44109,216-961-9520
D E Selhorst Trucking LLC,8795 State Route 571,Arcanum,OH,45304,937-459-6443
Thad C Beck,6679 County Road 76,Mount Gilead,OH,43338,419-946-7352
Double D Trucking,15126 St Rt 124,Hillsboro,OH,45133,937-588-5455
"Double R Trucking, Inc.",611 Union Street,Youngstown,OH,44502,330-747-1669
Mooney Trucking,45751 Sarahsville Road,Caldwell,OH,43724,740-732-5834
Rocking K Logging,6010 State Route 39,Millersburg,OH,44654,330-674-0307
Car X Auto Service,11843 Kempersprings Dr,Cincinnati,OH,45240,513-825-2660
Mcadow Trucking,11150 Rt 136,West Union,OH,45693,937-779-6863
Brian K Brown Trucking,28171 St Rt 41,Peebles,OH,45660,937-587-2330
Jm Sweet Trucking,19387 Woodward Rd,Fayetteville,OH,45118,513-383-7142
Thorbahn Services,35 Dogwood Ct,Bowling Green,OH,43402,419-352-7253
"Msw, Inc.",5320 Krieger Court,Columbus,OH,43228,614-870-9686
Stidds Express,334 Township Road 1275,Polk,OH,44866,419-869-5011
Ridzon Farms,47810 S R 14,New Waterford,OH,44445,330-457-2398
Dma Distributing,28180 Oregon Rd #700,Perrysburg,OH,43551,419-666-2567
Matthews Trucking,113 Reed Street,Oak Hill,OH,45656,740-682-7347
Pjas Trucking,44727 Y&o Rd,Welville,OH,43968,330-532-2411
A Osman Transport,5363 Silver Creek Rd,Columbus,OH,43228,614-288-5813
Harmon Direct Deliveries,1044 Roush Hill Rd,Manchester,OH,45144,937-549-3884
Vegas Transport,11315 Cheyenne Trail #102,Parma Hts,OH,44130,440-882-6972
Brad L Mcauley Trucking,Township Road 228,Summerfield,OH,43788,740-838-2006
Time To Ride,13889 Ravenna Avenue,Alliance,OH,44601,330-206-5855
Haas & Sons,10037 Us Rt 62,Sardinia,OH,45171,937-446-9580
Neil Johnson Trucking,14511 Zion Rd,Thornville,OH,43076,740-246-5226
Drg Transport,17599 Whitney Rd #521,Strongsville,OH,44136,216-854-6287
Cusano Trucking,3450 Plymouth Ridge Rd,Kingsville,OH,44048,440-224-1968
Dean Knittel And Son Auto Repair,1201 Franklin Ave,Portsmouth,OH,45662,740-353-1647
Nathan Spurgeon Trucking,1401 Farmers Rd,Wilmington,OH,45177,937-382-7545
Rogers Trucking,365 Vaughn Rd,Culter,OH,45724,740-989-0383
Liquidation Expo Sale,3288 Morse Rd,Columbus,OH,43231,614-471-8700
Steves Water Hauling & Dump Truck Service,830 Rocky Point Road,Fleming,OH,45729,740-678-1725
Jim Carrington Trucking,8844 Mcgohan Road,Georgetown,OH,45121,937-378-9038
Bmk Transport,557 Maplewood Ave,Whitehall,OH,43213,614-238-0967
G D C Transport,19 Rosalind Place,Toledo,OH,43610,419-450-4174
Alfman Trucking,4170 Twp Rd 448 Ne,Crooksville,OH,43731,740-982-1255
Jackson Transport,47466 Us Highway 20,Oberlin,OH,44074,216-299-9716
Summit Moving & Storage,885 East Tallmadge Ave,Akron,OH,44310,330-633-3633
Baileys Trucking,10766 Chillicothe Pike,Jackson,OH,45640,740-710-1971
Brad Hamilton Trucking,5863 Countrydale Ct,Fairfield,OH,45014,513-829-9995
Fields & Sons Trucking,1011 Millville Oxford Rd,Hamilton,OH,45013,513-868-1103
Rr Bammerlin Trucking,2446 Haviland Ct,Mansfield,OH,44903,419-589-9931
By Faith Trucking,179 Brookline Ave,Youngstown,OH,44505,330-518-4287
D&w Trucking,6377 Ledgebrook Dr,Brook Park,OH,44142,216-267-9409
Michael Haenning Trucking,2761 Millville-shandon Rd,Hamilton,OH,45013,513-738-2154
Hiraan Transportation,2860 Westerville Rd,Columbus,OH,43224,661-343-0404
Treat's Trucking,39 Rolff Dr Apt A,Hamilton,OH,45055,513-464-1278
Brp Transport,3711 Washington Waterloo Rd Ne,Washington Court House,OH,43160,740-869-3992
Dillinger Trucking,116 Village Green Dr,Sidney,OH,45365,937-492-7275
Glidden Trucking,48441 Outpost Rd,Caldwell,OH,43724,740-732-2501
Pull Tank Trucking LLC,7136 Hilmar Drive,Westerville,OH,43082,614-562-0095
Truckin' Trucking,1293 East Aurora Road,Macedonia,OH,44056,216-214-8760
Wilson Farms,18313 Miller Road,Richwood,OH,43344,937-358-2192
Z W Smith Trucking,304 Lugano St Sw,Sugarcreek,OH,44681,330-852-9020
Destiny Trucking LLC,908 Cloverdale,Toledo,OH,43612,419-476-5335
Herrold Trucking,67961 Creek Road,Mcarthur,OH,45651,740-596-5763
Fitten Trucking LLC,20016 Longbrook Road,Warrensville Heights,OH,44128,216-921-7588
Bnt Transportation,186 Knight Dream St,Delaware,OH,43015,740-815-2985
Lst,13016 Warwick Road,Marshallville,OH,44645,330-855-3225
William R Stashonsky Trucking,6186 College Hill Road,Cambridge,OH,43725,740-432-3008
Fotown Express,120 W Sixth Street,Fostoria,OH,44830,419-619-1938
"Pits, Inc.",596 West Plane Street,Bethel,OH,45106,513-734-7927
Dan Anders Trucking,7273 Egypt Pike,Chillicothe,OH,45601,740-775-1677
Midwest Drainage,3433 Sr 120,Metamora,OH,43540,419-644-2094
Renner Trucking,2025 Mowry Rd,Pleasant Hill,OH,45359,937-676-2237
Commercial Motor Freight,120 Monroe St,Port Clinton,OH,43452,419-707-9206
J & L Transfer LLC,2456 Chambers Ave,Columbus,OH,43223,614-276-0534
Butler Trucking,297 Smithfield Street,Dillonvale,OH,43917,740-769-1501
Dyess Trucking,196 Bailey Chapel Rd,Piketon,OH,45661,740-289-3178
Applemans Car Hauling,4498 Foxfire Drive,Zanesville,OH,43701,740-819-5376
"Command Transport, Inc.orporated",201 Wilcox St,Antwerp,OH,45813,419-258-2524
Layne Transport,4481 State Route 601,Norwalk,OH,44857,567-424-6051
B & B Trucking,6014 Ring Lane,Milford,OH,45150,513-575-3285
Bolock Trucking Service,1031 Pinewood Drive,Adena,OH,43901,740-546-3275
"Carson's Trucking, Inc.",7488 Stroker Rd,Sidney,OH,45365,937-313-0878
Lestourgeon Auto Transport,7945 High St,Orient,OH,43146,614-371-1885
Peck Trucking,23 Virginia Ave,Dayton,OH,45410,937-258-1458
Rjt Transport LLC,1480 Sharon Copley Road,Wadsworth,OH,44281,330-239-4554
R & S Trucking,6779 Byers Road Ne,New Philadelphia,OH,44663,330-343-4560
Pertuset Trucking,128 Pine Ln,Lucasville,OH,45648,740-259-1313
Gebhart & Sons Trucking,8112 Ransbottom Rd,Roseville,OH,43777,740-697-0575
L B Express,4980 S Hamilton Rd,Groveport,OH,43125,614-835-0345
Mcshane Transport,957 Proehl Dr,Barberton,OH,44203,330-794-7081
Errand Express,10852 Maharg Road,St Louisville,OH,43071,740-345-2255
K&a Trucking,78 State Street,Struthers,OH,44471,330-718-2774
K O T Logistics,3915 Laurel Valley Drive,Powell,OH,43065,740-881-6939
Salmons Trucking,1500 South Rode Island Ave,Wellston,OH,45692,740-384-5296
Dearman Moving & Storage,961 N Main Street,Mansfield,OH,44902,419-524-3456
K&h Trucking Co,6066 Hilltop Dr,Strasburg,OH,44680,330-857-3891
Deb Trucking,2204 Townsend Rd,Martinsville,OH,45146,937-685-6406
Huelskamp Trucking,1857 Mercer Auglaize County Line Rd,Minster,OH,45865,419-925-4854
Jim Holland Trucking,2010 Pavonia Rd West,Mansfield,OH,44903,419-589-6231
Violet Trucking,3039 Mcclellan Drive,Urbana,OH,43078,937-653-8746
R-truck Service,7361 Ohio River Road,Sciotoville,OH,45662,740-574-4283
Patterson Trucking,5303 Bayview Road,Celina,OH,45822,567-510-5212
Blue Line Trucking,2065 Bunts Rd,Lakewood,OH,44107,216-221-7347
D & G Automotive,5757 Hamilton Avenue,Cincinnati,OH,45224,513-541-0033
Dogwood Trucking LLC,2505 Dogwood Pl,Blacklick,OH,43004,614-769-5730
Meeson Trucking,5250 Columbia Rd #202,North Olmsted,OH,44070,216-272-1687
Webb Trucking,8945 Cox Rd,Westchester,OH,45069,513-779-4810
C Thomas Trucking,20840 St Rt 93s,Logan,OH,43138,740-385-9661
K R Cain Trucking,4218 Co Rd 175,Clyde,OH,43410,419-547-0707
D & R Trucking,327 Elm Crest,Milford,OH,45150,513-722-4139
Newkirk Trucking,543 Duffey Rd,Peebles,OH,45660,937-386-3318
J R Arnold Trucking,46175 Old Hopedale Rd,Hopedale,OH,43976,740-942-3103
Romtrans,1208 Sandy Glen Dr,Perrysburg,OH,43551,419-350-3043
Coleman Trucking,3715 Willow Run Dr,Toledo,OH,43607,419-535-1566
C & C Farms & Trucking,1155 South Nixon Camp Road,Lebanon,OH,45036,513-276-2795
Gsi Transportation Services LLC,7862 Yo Pitt Rd,Poland,OH,44514,330-549-3774
Massive Motor Freight,3893 Mayfield Road,Cleveland Heights,OH,44121,216-214-9341
Mike Slowinski Trucking And Excavating,10574 Dowling Rd,Perrysburg,OH,43551,419-833-1218
J Portis Trucking,932 Jonathan Avenue,Akron,OH,44306,330-724-7998
D&j Trucking,380 Airport Hwy,Wauseon,OH,43567,419-467-2970
M W Trucking,2292 Mackletree Rd,Blue Creek,OH,45616,740-858-3228
J & J Trucking,6516 Fee Rd,Rome,OH,44085,440-645-3760
S & S Trucking,5920 S Windsor Rd,Middlefield,OH,44062,440-272-5360
D & J Trucking,1808 Park Avenue East,Mansfield,OH,44905,419-566-3233
First Choice Auto Transport,3340 Carson Salt Springs Rd,Warren,OH,44481,330-872-3343
Jerry Young's Trucking,10190 Roller Coaster Road,Lisbon,OH,44432,330-420-0668
Thor Trucking,14506 Coble Road,Yorkshire,OH,45388,419-305-3891
Q's Trucking,7778 Waggoner Chase Blvd,Blacklick,OH,43004,614-989-2196
Trax-trailer & Auto Express,84 Mallard Glen Dr Apt 1,Centerville,OH,45458,937-974-8779
Double D Trucking,1090 Jett Hill Road,Reno,OH,45773,740-236-0245
Stoney Island Salvage,7800 Platt Ave,Cleveland,OH,44104,216-881-2222
Stevens Auto Sales,18618 Sr 328,Union Furnace,OH,43158,740-385-8994
Williams Trucking,4964 State Route 132,Morrow,OH,45152,937-289-4235
L & N Trucking,2003 40th St Ne,Canton,OH,44705,330-492-3716
Silver Wolf Trucking,4162 Postboy Rd,Newcomerstown,OH,43832,216-235-2327
Tom Reinsmith Trucking,138 Unblebee Rd,Beaver,OH,45613,740-988-1488
Heitsche Trucking,2721 South Railroad Street,Collins,OH,44826,419-663-8789
Ransdell Trucking,6761 Locustview Drive,Huber Heights,OH,45424,937-477-1904
Wyant Rigging,7769 Akron Rd,Sterling,OH,44276,330-669-2804
Venture Trucking,1625 Maiden Lane,Springfield,OH,45504,937-525-0322
J L G Trucking Co,1265 Strossmayer Rd,Vienna,OH,44473,330-219-4370
Redline Auto Transport,135 Queens Lane,Canfield,OH,44406,330-519-5221
F K Trucking,3369 Park Avenue,Mansfield,OH,44906,N/A
Top Transport Co,19222 Heather Lane,Strongsville,OH,44149,216-214-2777
Lowery Trucking,13376 Spicelick Rd,Nelsonville,OH,45764,740-753-3398
Justin Trucking,7318 Stewart Sharon Rd,Hubbard,OH,44425,330-233-1286
L & L Trucking,302 11th St S W,Massillon,OH,44647,330-844-3505
Country Crane Service,782 Jessie Creek Road,Cheshire,OH,45620,740-367-7554
Schuchart Trucking,1966 Middleboro,Clarksville,OH,45113,513-899-2102
Pods,9455 Rosemont Drive,Streetsboro,OH,44241,330-422-0381
C & R Trucking,861 Hicks Blvd,Fairfield,OH,45014,513-829-6484
Jtl Transportation,2154 Jewett Dr,Columbus,OH,43229,614-402-2688
Larue Hauling,1165 Township Road 1186,Ashland,OH,44805,419-281-6911
Redline Motor Freight,620 Batavia Pike,Cincinnati,OH,45244,513-748-1348
Sebi's Delivery Service,3745 Spencer Ave,Cincinnati,OH,45212,513-351-4554
Liber Trucking,3633 Orion St Nw,North Canton,OH,44720,330-833-9601
R J George Trucking,5961 Poplar Dr,Hillsboro,OH,45133,937-393-3668
Acheson Agri Trucking LLC,18733 Twp Rd 47,Belle Center,OH,43310,937-464-2916
Haun Trucking,3253 St R 222,Millersburg,OH,44654,419-606-0762
Lightfritz Trucking,416 Phillips Street,Marietta,OH,45750,740-568-9758
Gaaffaa Trucking,1750 Bob-o-link Bend,Columbus,OH,43229,614-774-4360
Astron Transport,4281 Hamilton Richmond Road,Oxford,OH,45056,513-309-8488
Unique Transport,3000 Greenwich Road,Brunswick,OH,44212,330-849-8467
Kennys No Joke Trucking,5380 Bartlett Rd,Bedford Heights,OH,44146,216-543-4840
Cjr Trucking,121 N Cross Street,Newtonsville,OH,45158,513-625-1810
Heil Trucking,17716 Mayfield Rd,Windsor,OH,44099,440-223-4963
Srs Trucking,5840 N Rangeline,Covington,OH,45318,937-524-1956
Nedrow Transport,1805 Steele Rd,Bellville,OH,44813,419-886-1980
Brands Trucking,948 Gordon Smith Blvd Apt 8,Hamilton,OH,45013,513-693-0789
Strech Equine Transport,6911 Sidley Road,Thompson,OH,44086,440-298-3151
Taylor Trucking,13192 Barrington Rd,St Marys,OH,45885,419-394-8681
Montgomery Trucking,283 Township Road 613,Toronto,OH,43964,740-544-5001
Rjd Transport,50474 County Road 186,Fresno,OH,43824,740-622-0296
Ht Trucking,8924 Reading Rd,Reading,OH,45215,N/A
Atl,3370 Rosedale Road,Irwin,OH,43029,740-857-1308
Eversole Trucking,5228 Red Bird Lane,Hamilton,OH,45011,513-896-9010
Pruitt Delivery Service,121 Washington Avenue,Lockland,OH,45215,513-821-2690
Community Responsive Transit LLC,200 Putnam Street,Marietta,OH,45750,740-374-9999
Greg Evans,29600 Osborne Road,Richwood,OH,43344,740-943-2674
Mcs,92 South Wall Street Bld 7,Wilmington,OH,45177,513-383-4190
Rainwater Express,6987 Jordan Rd,Lewisburg,OH,45338,937-245-1403
Dunlap Farms Trucking,08566 Burnfield Road,Spencerville,OH,45887,419-303-9579
Mlj Williams LLC,19294 Schick Road,Defiance,OH,43512,419-658-2751
"Avanti Trucking, Inc.",8200 Tyler Blvd Area G,Mentor,OH,44060,440-266-0186
M&a Trucking,3228 Mccall St,Dayton,OH,45417,937-268-6254
Motors For Missions,9781 St Rte 123 Suite 200,Blanchester,OH,45107,513-236-1897
Jam Transport,10340 Springpointe Circle Apt J,Miamisburg,OH,45342,513-226-8686
Roahrig Trucking,17011 Sr 93,Coshocton,OH,43812,740-545-9301
Tiny Tim Transport Express,1115 Clarendon Ave Nw,Canton,OH,44708,330-956-4984
M & J Trucking,1440 Smith Rd,Xenia,OH,45385,937-372-3296
Bishop Trucking,3354 Dolomar Road,Cincinnati,OH,45239,513-741-8838
Arborturf,3810 Columbus Lancaster Rd Nw,Carroll,OH,43112,740-654-6859
Liberty Hotshots,979 Kertesz Road,Clinton,OH,44216,330-571-1354
Richardson & Sons Transportation,312 Pataskala Ridge Dr,Pataskala,OH,43062,740-704-3154
Marvin Transport,13286 Ridgeway Road,Orient,OH,43146,614-604-2983
Thummim Trucking Transportation,4538 Freudenberger,Dayton,OH,45427,937-263-5769
Sea To Sea Auto Transport,18156 Us Rt 23 N,Circleville,OH,43113,740-248-6902
Exxtreme Transport,700 Co Rd 56,Toronto,OH,43964,740-282-7661
Steven Transportation,1372 E 43rd St,Cleveland,OH,44103,502-969-2323
Bodette Distributing,5633 Bent Oak Rd,Sylvania,OH,43560,419-260-2019
Aba Express,4902 Glenshade Avenue,Cincinnati,OH,45227,513-561-0522
All Buckeye Brothers Transporation,3629 Cleveland Ave Ste C,Columbus,OH,43224,614-332-1667
Kulwinder Trucking,10777 Brettridge Dr,Powell,OH,43065,614-989-7520
Sks Transport,853 Dillewood Ave,Sheffield Lake,OH,44054,440-949-2623
L And H Carriers LLC,1535 Co Rd 24,Marengo,OH,43334,419-864-3173
Exact Logistics,1524 Bender Avenue,Hamilton,OH,45011,405-283-0521
Ezana Trucking Co,2658 Castine Way,Reynoldsburg,OH,43068,614-429-7240
C And J Trucking,600 Bay Place,Trenton,OH,45067,513-988-6025
Amanda Transport,7241 Heller,Whitehouse,OH,43571,419-467-8571
Pms Trucking,102 Zimmerman Ave,Van Wert,OH,45891,260-750-2851
Loadexpress And Trading Company,3283 Cleveland Ave #13,Columbus,OH,43224,614-432-5083
Suburban Auto Parts,1306 E High Street,Bryan,OH,43506,419-636-5715
Buchanan & Sons Truckin,7664 Whitacre,Blanchester,OH,45107,562-519-3646
Ddt Deleon Dump Trucking,961 S Reynolds Lot 166,Toledo,OH,43615,419-380-8901
Ml Trucking,13456 Walhonding Road,Pleasant City,OH,43772,740-260-0566
Creative Scapes Horticultural Services,151 Pedretti Avenue,Cincinnati,OH,45238,513-244-2165
Raphael Trucking,512 Storey Rd,Orwell,OH,44076,440-813-7905
Chippewa Transport Limited,9274 Chippewa Road,Lodi,OH,44254,330-667-3501
Eastside Transport,2806 Hudson Street,Youngstown,OH,44511,330-778-4118
Wayne Moore Trucking,6235 Hunt Road,Fayetteville,OH,45118,513-625-2153
D & R Transport,1425 E Dublin-granville Rd Suite 207,Columbus,OH,43229,614-781-9684
D T S Xpress,4947 Lincoln Hwy,Bucyrus,OH,44820,530-933-5934
Cla Transport Services,25 Walnut View Court South,Canal Winchester,OH,43110,614-837-1202
Express Delivery Service,225 Highland Drive,Medina,OH,44256,330-722-4654
Tri County Ambulance Service,231 Webber Way,E Liverpool,OH,43920,330-385-1829
Thunder Trucking,330 Chestnut St,Newcomerstown,OH,43832,740-498-7309
W & E Transportation,7680 Gerald Drive,Middleburg Heights,OH,44130,440-826-0425
Willow Creek Farms And Trucking,790 Mccoy Rd,Wilmington,OH,45177,937-383-3426
Dunkerton Trucking,6474 Morrel Ray Rd,Bristolville,OH,44402,330-637-6474
Jw Carrier,1017 North Sr 72,Sabina,OH,45169,502-640-5883
Cline Wood Products And Trucking,43093 Sr 26,Woodsfield,OH,43793,740-472-1348
4 Paws Trucking,736 Second Ave,Gallipolis,OH,45631,740-446-8677
Killbuck Transport,36488 Cr 33,Warsaw,OH,43844,740-502-4613
Nba Motors,1711 Market Avenue Southeast,Canton,OH,44707,330-454-9198
Lauber Trucking,1941 Levevre Rd,Troy,OH,45373,937-339-7094
Plessinger Trucking,4762 New Madison Celetown Rd,Greenville,OH,45331,937-417-8584
G And L Express,2368 E Midothian Blvd,Youngstown,OH,44502,330-518-0868
Rs Xpress,6581 Gracely Drive,Cincinnati,OH,45233,513-702-9462
Mcclure Enterprises,742 Sr 95,Loudonville,OH,44842,419-938-7102
Romline Express,2733 Shirley Road,Youngstown,OH,44502,330-785-5858
Doves LLC,52427 Beautiful Ridge Road,Clarington,OH,43915,740-458-9881
H D Trucking,8861 Norwalk Rd,Litchfield,OH,44253,N/A
B's Trucking,12677 St Rt 56e Suite A,Circleville,OH,43113,740-332-3912
Michaels Hotshot Transportation,2218 Pearce St,Salem,OH,33323,330-277-8445
E J Jialanella Trucking,1224 Fohl Rd Se,East Sparta,OH,44626,330-484-0450
Rgl Express,20600 Sheldon Road,Brook Park,OH,44142,216-265-7940
Cls Trucking,8925 County Road U,Lyons,OH,43533,419-923-0257
M Meyer Trucking,3983 Drew Ave,Cincinnati,OH,45248,513-240-0908
Allstar Trucking,21930 Foster Rd,Wellington,OH,44090,440-396-9270
Rti,8799 North Gateway Drive,North Royalton,OH,44133,440-263-0746
Jmc,9520 Gallia Pike,Wheelersburg,OH,45694,740-574-5200
Gary Roberts Transport,11007 Staddens Bridge Road,Newark,OH,43055,740-404-5447
Rhoads Trucking,5207 Twp Rd 191,Marengo,OH,43334,419-253-7936
Rv Haulers Of Ohio,8860 West State Route 2,Oak Harbor,OH,43449,419-898-3635
Rk Trucking,10885 Holi-dale Dr,Chardon,OH,44024,330-647-1272
Major League Trucking,419 5th Street,Lowell,OH,45744,740-896-3111
Renegade Express,740 E Indianola Ave,Youngstown,OH,44502,330-788-8259
Jg Quality Veneer Transport,729 Arrowhead Drive Apt L,Sidney,OH,45365,740-466-8469
Jessee Trucking,13053 St Rt 136,West Union,OH,45693,937-544-6188
Heath Zerger Trucking,44317 Mart Weekly Rd,Caldwell,OH,43724,740-732-0044
Highbeam Express,15362 Co Rd 19,Fayette,OH,43521,419-340-8992
Dayton - West Brown,56 Westbrook Rd,Dayton,OH,45415,937-454-0884
Crabtree Trucking,1513 White Gravel Mcdaniel Rd,Minford,OH,45653,740-820-8921
Smith Trucking,14574 Old Fredericktown Rd,Calcutta,OH,43920,330-385-2064
D C Express,1822 Crider Road,Mansfield,OH,44906,419-564-6921
Ivs Express,10 S Timber Hollow Dr #1021,Fairfield,OH,45014,513-503-1206
Steve Mathenys Body Shop,1578 A Tickridge Road,Wheelersburg,OH,45694,740-776-4869
Campbell Trucking,202 N Main St,Middle Point,OH,45863,419-968-2278
Dick Nichols Trucking,6531 Columbus Rd,Centerburg,OH,43011,740-625-6540
D & R Movers,465 Elberon Ave,Cincinnati,OH,45205,513-921-1968
Pg Transport,5419 Watkins Road Sw,Pataskala,OH,43062,740-927-3192
Heavy Dog Transport,15122 Tr 191,Defiance,OH,43512,419-393-4167
Pms Trucking,1654 Poe Road,North Baltimore,OH,45872,419-257-2298
Dircksen Transportation,02314 County Road 26,Minster,OH,45865,419-628-3286
Grimm Trucking,202 Cherry,Stryker,OH,43557,419-682-4806
Weimer Trucking,27368 Rainbow Lane Circle,Beloit,OH,44609,330-537-2416
Johnson Trucking,1240 Arnold Ave,Akron,OH,44305,330-794-1035
Mk Trucking,2475 Four Mile Rd,Jackson,OH,45640,740-286-0125
Bk Transport,5765 St Rt 725 East,Camden,OH,45311,937-733-8902
Jbs Auto Transport,3412 Crandon St,Hilliard,OH,43026,614-876-6055
Hightower Moving,3311 Blackstone Drive,Toledo,OH,43608,419-297-5347
Wayne's Mobile Home Transport,209 Ohio River Drive,Stout,OH,45684,937-549-8900
Roanna Trucking,5458 Dull-robinson Road,Convoy,OH,45832,419-749-2926
Talbott Trucking,44150 Th 403,Clarington,OH,43915,740-458-1360
Young Trucking,7369 Hamilton Road,Mendon,OH,45862,419-305-0533
Cj Transport LLC,5704 Echolake Rd Ne,New Philadelphia,OH,44663,330-401-3768
Terry Newman Jr Trucking,299 Clifford Rd,Peebles,OH,45660,937-587-2454
Scotts Lawnservice,14111 Scottslawn Rd,Marysville,OH,43041,937-367-7677
Rdm Trucking,7498 Stage Coach Rd Nw,Rushville,OH,43150,740-536-9095
Helix Transportation,682 Linwood Ave,Columbus,OH,43205,614-805-1109
All Around Trucking,196 South Vanburen Avenue,Barberton,OH,44203,330-753-7100
Fitzgerald Auto Sales,5905 St Rt 104,Mcdermott,OH,45652,740-858-0450
L W Tudor Trucking LLC,6836 Shiloh Rd,Goshen,OH,45122,513-294-2154
Expected Deliveries Maintained Tm,6253 Plesant Chapel Road,Mechanicsburg,OH,43044,937-867-1488
Hilltop Trucking,48501 Hagmar Ridge Road,Cadiz,OH,43907,740-546-4406
Aztecca City Towing,4838 Crosscreek Dr,Columbus,OH,43232,614-824-7678
Bandy Trucking,1203 Dutch Hollow Rd,Beaver,OH,45613,740-226-1151
Father & Son Gl LLC,8265 Memphis Ave Apt 8,Brooklyn,OH,44144,440-915-0157
Hot Shot Xpress,1162 Johnson Ridge Road,Gallipolis,OH,45631,740-446-7410
Alpine Meadows Trucking,7985 Spooky Hollow Road,Sugarcreek,OH,44681,330-852-2559
Wilcox Trucking,454 Melbourne Ave,Boardman,OH,44512,330-207-5333
Hot Box Trucking,Rt 2 7940 Quaker Rd,Fredericktown,OH,43019,419-947-2227
R B S Trucking,133 Moreland Road,Niles,OH,44446,330-307-7736
Callahan's Mobile Home Service,390 Shadow Lake,Mason,OH,45040,513-336-2269
J Humenuik Trucking,760 Stevens Blvd,Eastlake,OH,44095,216-773-1469
No Limit Enterprises,3608 Whitegate Drive,Toledo,OH,43607,419-531-4373
Reeder Trucking LLC,2915 Dogwood Dr,Springfield,OH,45504,937-324-2763
S G S Transport,853 Dillewood,Sheffield Lake,OH,44054,440-949-2623
Have Truck Will Travel,Lot 10 E Frank Leinard Pk Wy,Antwerp,OH,45813,419-770-3439
Hop-along Trucking,140 W Erie Street,Jefferson,OH,44047,440-969-4366
Sts,1269 Deepwood Drive,Macedonia,OH,44056,216-244-0943
M & D Trucking,163 Lees Dr,Hebron,OH,43025,740-504-0479
Unifacs Steel Works LLC,1241 Mckinley Avenue,Columbus,OH,43222,614-274-1128
Cheyennes Express,8801 Sr 55,Saint Paris,OH,43072,937-475-4957
Ram Trucking & Hauling,879 St Rt 46 South,Jefferson,OH,44047,440-576-0300
Myron Hines Private Transport,13204 Horner Ave,Cleveland,OH,44120,216-921-2369
Terry Napper Trucking,36720 State Route 124,Middleport,OH,45760,740-742-2343
W S Carrier Services,3314 Morse Road Suite 214,Columbus,OH,43231,614-438-0095
Groover Business Services,5241 Arlington Rd,North Canton,OH,44720,330-907-6061
Nichols Trucking,95 Quail Lane,Proctorville,OH,45669,740-534-3232
Lacy & Sons Transport,10561 Dowling Road,Perrysburg,OH,43551,419-833-2705
Jerry L Cleland Trucking,32651 Happy Hollow Road,Middleport,OH,45760,740-742-2036
Dks Trucking,10588-a Winesburg Rd,Dundee,OH,44624,330-359-6308
Djs Trucking,20968 Miller Rd,Wapakoneta,OH,45895,419-236-2625
White Oak Auto Care,7401 Cheviot Road,Cincinnati,OH,45247,513-741-1300
Lacy Trucking A Division Of Jim's Grinding,918 S First St,Ironton,OH,45638,740-533-9182
Rick Allen Trucking,947 Circle Drive,Circleville,OH,43113,740-474-8936
Kauffman Express Transportation,146 East Crain Avenue -trucks In Ravenna,Kent,OH,43240,330-289-7042
L&r Trucking,124 South Second Street,West Union,OH,45693,937-482-4128
Boyd Transport,3088 North Sr 53,Upper Sandusky,OH,43351,419-618-2325
Dj Trucking,6091 Mountain Rd,Kensington,OH,44427,330-738-2111
"Cel, Inc.",4566 Bliss Drive,Norton,OH,44203,330-328-1147
Gorrell Trucking,1443 Poes Run Road,Londonderry,OH,45647,740-887-5026
Leadfoot Logistics,8484 St Rt 56e,Circleville,OH,43113,740-474-9432
Hammond Trucking,25375 Plummer Road,Williamsport,OH,43164,740-207-7848
Kings Transport,46 Private Dr 473,Ironton,OH,45638,606-232-9335
Putts Trucking,52 Prospect St,Shiloh,OH,44890,419-896-2536
Wilson Trucking,3466 Wakeman Townline Rd,Wakeman,OH,44889,419-668-6010
Conley Trucking,221 E Main St,Eaton,OH,45320,937-456-4891
Paden's Trucking,72220 Broadhead Rd,Kimbolton,OH,43749,740-260-6765
Lds,207 W Portage Trail Ext Ste200,Cuyahoga Falls,OH,44223,330-920-1287
Jms Transport,1090 Century Hill,Louisville,OH,44641,330-875-4561
Cook's Auto Transport,6101 Hoss Rd,Hubbard,OH,44425,330-502-8773
"Bill Hunt Transport & Lakewood Steel, Inc.",363 Woodridge Rd,Vermilion,OH,44089,440-967-0492
Cinfair Express,653 Vine Street,Hamilton,OH,45011,513-887-2667
Dallas Wood Trucking,1468 Graceland Dr,Fairborn,OH,45324,937-754-0758
Virhio Carriers,Po Box 417,Stony Ridge,OH,43463,419-837-0031
Roxo's Trucking,607 Liberty Street,Van Wert,OH,45891,419-238-7967
K & G Trucking,65 Beechwood Drive,Columbiana,OH,44408,330-482-6014
Orion Transport,3579 Carmel Terrace,Cincinnati,OH,45211,513-752-1043
Load Runner Trucking,15691 Road 48,Haviland,OH,45851,419-587-3216
Tri-county Vending,174 Dogwood Drive,Gallipolis,OH,45631,740-379-2218
Walter C Worthy Trucking Co,787 Stoner Street,Akron,OH,44320,330-535-7265
Croft Trucking,8030 Virginia,Atwater,OH,44201,330-947-3403
"Feltner Trucking, Inc.",8401 Freed Rd,New Paris,OH,45347,937-437-1608
Green Valley Mediterranean Cuisine,5902 E Height Dr,Toledo,OH,43613,419-531-7200
Ogletree Trucking Ltd,238 Wayne Ave Apt 2,Cincinnati,OH,45215,513-821-1030
Mountain Pine Transport,3785 Millbrook Rd,Shreve,OH,44676,541-601-7818
Comet Express,5646 Kylie Ct,Sylvania,OH,43560,567-868-1490
Rdb Transport,34209 County Rd 383,Warsaw,OH,43844,740-327-3071
Wilson Express Co,5593 New Milford Rd,Ravenna,OH,44266,330-296-4173
Idealease Of Lima,2655 St Johns Rd,Lima,OH,45804,419-224-6045
J-n-t Trucking,17239 State Route 165,Beloit,OH,44609,330-332-3684
Ohio Ltl Express,216 North Washington Street,Greenfield,OH,45123,937-981-4700
Mark Martin Trucking,5683 Tallawanda Dr,Fairfield,OH,45014,513-383-8380
Russell L Sturgeon Trucking,5151 Imwalle Avenue,Cincinnati,OH,45217,513-641-2717
J And A Trucking,15141 Olive Green,Centerburg,OH,43011,614-261-0500
"Goosh Iii Trucking, Inc.",168 North Goodrich Street,Oregon,OH,43616,419-697-1681
Lloyd Trucking,309 Granville St,Gahanna,OH,43230,614-638-4166
Btz Transport,4705 Hay Rd,Harrod,OH,45850,419-648-7416
R P Express,3800 N Vista,Uniontown,OH,44685,330-699-2135
Rickies Express,2155 Delmont Rd,Lancaster,OH,43130,740-687-6180
4 Wells Trucking,3399 E 113th St,Cleveland,OH,44104,216-581-8367
Stamper Trucking Co,3838 S Greenbrier,Fairborn,OH,45324,937-676-3637
Dc Trucking,7917 Huntsman Ct,Dayton,OH,45424,937-233-9210
C & L Cartage C & L Trucking,4361 County Road D,Delta,OH,43515,419-822-3880
Mcdaniel Transportation,3450 Sharpsville Rd,Lynchburg,OH,45142,937-364-2539
Harper Trucking,398 Township Rd 136s,Ironton,OH,45638,740-532-1113
Scott & Company Trucking,3610 Co Rd F,Swanton,OH,43558,419-865-0067
Crone Trucking,150 Circle Dr,Harrison,OH,45030,513-367-0417
Outlaw Enterprises,12107 Greenville St Marys Rd,Versailles,OH,45380,419-336-1029
Harley's Trucking,239 Sater St,Greenville,OH,45331,937-548-0476
"C D R Trucking, Inc.",13654 Ringgold Northern Rd,Ashville,OH,43103,614-554-3236
Kleine Trucking,3579 Epley Lane,Cincinnati,OH,45247,513-245-1678
Dedicated Freightlines,136 Rogers Drive,Germantown,OH,45327,937-855-4148
Jck Trucking,782 N Minnesota Ave,Wellson,OH,45692,740-384-4230
"Alternative Moving, Inc.",P O Box 118018,Toledo,OH,43611,419-534-3468
T E Transport,2137 Springdale Rd,Cincinnati,OH,45231,513-225-5144
West Amish Transportation Co,584 W Main St,Leesburg,OH,45135,937-780-4985
Puppy Dog Trucking,1135 Locust Grove Rd,Bremen,OH,43107,740-569-1059
Bulldog's Hotshots,4690 Tipp-elizabeth Rd,Tipp City,OH,45371,937-667-8585
Saj&b Trucking Co,363 Cari Penn Road,Waverly,OH,45690,740-947-8423
Roberts Trucking,7128 Alert New London Road,Okeana,OH,45053,513-738-4318
J & J Trucking,819 Bennett Road,Wilmington,OH,45177,937-382-8849
Settys Motor Express,725 Pettit Rd,Albany,OH,45710,740-590-5108
Bruce Nance Trucking,11069 State Rte 124,Piketon,OH,45661,740-493-1438
"Whites Trucking Co, Inc.",3383 St Rt 781,Peebles,OH,45660,937-587-3599
Dingess Trucking,3422 E 78th Street,Cleveland,OH,44427,216-341-6542
Platfoot Trucking,1889 Clune-stucked Rd,Maria Stein,OH,45860,419-733-7355
Anderson Sales & Service,38112 Rt 7,Sardis,OH,43946,740-483-1902
Ars Refuse Service,200 Taylor Parkway,Archbold,OH,43502,419-445-5391
Chemstation,3127 Encrete Lane,Dayton,OH,45439,937-534-0410
M And K Trucking,14590 N Elyria Rd,West Salem,OH,44287,419-853-8608
Morris Trucking,6577 Fallon Ln,Canal Winchester,OH,43110,614-834-0176
B & S Transportation,9682 Coakley Rd,Logan,OH,43138,740-385-0309
Touba Delivery Systems,11521 Mount Overlook Ave,Cleveland,OH,44104,216-926-8584
C Butler Trucking,3416 Brigham Street,Toledo,OH,43608,419-727-4625
Springer Trucking,7210 Hammerwood Ct,Maineville,OH,45039,513-543-5883
Dynasty Transport & Recovery,2506 Commerical Ave,Mingo Junction,OH,43938,740-535-1410
R C Express,313 Hooven Avenue,Hooven,OH,45033,513-353-9800
B & W Trucking,5214 Shepherd Road,Cincinnati,OH,45223,513-542-5330
Fed-log Transport,4943 Sr 82,Mantua,OH,44255,330-274-8715
Trinity Transport,104 North Street,Woodsfield,OH,43793,740-472-0194
Urban Express Transportation,1640 E 5th Avenue,Columbus,OH,43219,614-253-7000
Six Wheeler's,221 Rosie Lane,West Union,OH,45693,937-549-2345
Elk,9980 Daly Rd,Cinninnati,OH,45231,513-522-7285
Alan Rogers Express,6 Cottage Court,Cincinnati,OH,45230,513-232-2616
A-1 City Movers,1629 Vine St,Cincinnati,OH,45210,513-721-7077
Blackbox Network Services,3708 Davis Avenue,Cincinnati,OH,45211,513-662-3800
W R Blain,2710 Frost Rd,Mantua,OH,44255,330-274-3149
Bolen Trucking,4637 Rt 20,Wakeman,OH,44889,440-839-2902
Dj Norris Trucking,7583 Cindell Street,E Canton,OH,44730,330-488-6575
Salmons & Sons Trucking,1304 Mohican Tr,Wapakoneta,OH,45895,419-738-2690
N & T Movers,229 N Central Ave,Lima,OH,45801,419-222-0000
Tas Trucking,1754 E Lockwood Road,Port Clinton,OH,43452,419-707-1495
Robinson Trucking,6460 Arbor Court,Middletown,OH,45044,513-424-4638
Mike Anderson Trucking,304 South Front St,Alger,OH,45812,419-757-3905
Davis Trucking,59 Park Ave,Shelby,OH,44875,419-564-5736
Auto Transport 2000,10265 Snowflake Ln,Cincinnati,OH,45251,513-851-1712
Vinkas Hauling,66420 Old Rt 8,Barnesville,OH,43713,740-758-5656
Tmt,9171 State Route 180,Kingston,OH,45644,740-655-2880
J M B Hot Shot & Special Delivery Services,527 Wrexham Ave,Columbus,OH,43223,614-274-6713
Ryan Transportation,13421 Hawke Rd,Columbia Station,OH,44028,440-236-9140
Duncan Trucking,12 Township Rd,Willow Wood,OH,45696,740-442-1944
L & L Transportation LLC,2115 Millers Lane,Reno,OH,45773,740-374-2267
R & T Trucking,19301 Gant Rd,Waynsfield,OH,45896,419-568-1433
Hr Career Development,315 S Main St,West Unity,OH,43570,419-924-2774
Bosse Trucking,6501 Co Rd 14,Ada,OH,45810,419-326-7255
P A M Trucking,5001 Detroit Ave,Cleveland,OH,44102,216-898-9922
Jcn Transportation,2060 First Street Se,New Philadelphia,OH,44663,330-339-4656
Stugots Trucking,5442 Bluesky Dr #4,Cinti,OH,45247,513-574-7140
Hawk Transport,10396 Lincolnway E,Orrville,OH,44667,330-682-0939
The Moving Alternative,13922 Mitchell Road,Bowling Green,OH,43402,419-353-9035
Avt Transportation,7134 Lesourdsville,West Chster,OH,45011,513-324-0419
Jim Bryant Trucking,100 E Pearl St,Sherwood,OH,43556,419-899-3749
Long Trucking,6801 County Road 14,Mt Gilead,OH,43338,740-244-1428
Robinson Trucking,3032 Chickadee Dr,Hamilton,OH,45011,513-726-4401
Baker Trucking,11522 Twp Rd 86,Lakeview,OH,43331,937-843-9548
Price Trucking Ltd,414 N East Street,Galion,OH,44833,419-468-7031
"W H Fitzer & Sons Transport, Inc.",500 Donnenwirth Ave,Plymoth,OH,44865,419-687-8237
Run N Hard Auto Transport,2597 Reeves Rd N E Apt 7,Warren,OH,44484,330-219-4185
M & R Delivery,1860 Walnut St,Goshen,OH,45122,513-722-2388
Dually Express,750 Leonard St,East Liverpool,OH,43920,330-368-0518
Winebrenner Enterprizes,209 E Britton Road,Burbank,OH,44214,330-464-5452
K&s Trucking,64710 Pisgah Rd,Quaker City,OH,43773,740-758-5970
Fleharty Trucking,505 North Pleasant Valley,Riverside,OH,45404,937-236-5627
Robbins Express,5918 Glen St,Sciotoville,OH,45662,740-776-1345
Palmieri & Son Movers,702 Bradley Road,Westlake,OH,44145,440-871-6848
T J Express,444 Dehart Rd,Bainbridge,OH,45612,740-634-2819
Wise International Trucks,7277 Northfield Road,Walton Hills,OH,44146,440-439-1475
Hatch Trucking,6522 Richardson Rd,Conneaut,OH,44030,440-265-9564
D & M Trucking,13009 King Rd,Thornville,OH,43076,740-246-6561
Newman & Sons Trucking,4235 Sunnyside Ave,Louisville,OH,44641,330-353-4471
N T S,6787 Tyler Court,Mason,OH,45040,513-368-5127
Eckman's Trucking,5769 State Route 7,New Waterford,OH,44445,330-720-7279
Rcr Trucking,7459 County Line Rd 183,Fredericktown,OH,43019,419-768-7659
Boyd's Hot Shots,2925 County Road 12,Bellefontaine,OH,43311,937-537-8275
Stone Hill Transport,7216 Co Road 591,Carey,OH,43316,419-396-3047
Marks Transport Company,6720 Vandemark Rd,Medina,OH,44256,330-283-4574
Logans Liquid Waste Hauling,32664 Woodale Dr,Lisbon,OH,44432,330-222-6052
J P Trucking,6319 Mayflower St,Cincinnat,OH,45237,513-357-7005
Stacy's Auto Transport,229 Oneida Dr,Loveland,OH,45140,513-697-6224
Jcr Distributers,266 Stabel Rd,Lagrange,OH,44050,440-355-5537
Brookhart Contractors,Rt 1 Box 197l,Little Hocking,OH,45742,740-678-2742
Holland Septic Tank Service,5354 Co Rd 3,Swanton,OH,43558,419-865-3858
Mcvey Trucking,2218 Yankee Road,Middletown,OH,45044,513-379-6122
Sanders Trucking,1770 Brush Fork Rd,Sugar Grove,OH,43155,740-746-9235
Bockey Trucking,P O Box 402,Delphos,OH,45833,419-692-2707
Kevin's Trucks,7870 Third St,Masury,OH,44438,724-813-0434
Roadhard Trucking,1680 Wyandot Road,Bucyrus,OH,44820,419-562-4207
"Weghorst Trucking, Inc.",1971 Mackle Tree Road,Blue Creek,OH,45616,740-858-6747
Charles Trucking,1508 5th St,Portsmouth,OH,45662,740-353-9786
Robinson's Trucking,2452 Centerpoint Rd,Oak Hill,OH,45656,740-682-3163
Md Transport Co,1434 4th Street Ne,Canton,OH,44704,330-456-4170
Two Men And A Truck,4620 French Creek Road,Sheffield Village,OH,44054,440-277-9565
Rd Riches Transport Services,23720 Lime City Rd 90,Perrysburg,OH,43551,419-872-4575
Carps Trucking,32350 Zanesville St,Barnesville,OH,43713,740-679-2290
Circle M Trucking,2921 W Poplar Ridge,Malta,OH,43758,740-454-0128
Madjusty Transportation,500 Yankee Road,Monore,OH,45050,513-539-0100
Partin Trucking,9385 Gina Drive,West Chester,OH,45069,513-755-7293
C M B Carriers,36528 St Rt 327,Ray,OH,45672,740-887-5090
J & B Trucking,333 Findlay St,Findlay,OH,45840,419-889-3153
Movin Muscle Cars,2626 Salem Cave Rd,Beaver,OH,45613,740-352-7611
Edward Feldmann,3847 Macnicholas Ave,Cincinnati,OH,45236,513-984-2773
Benevolent Services Transportation,13m434 Pine Grove Ridge,Salineville,OH,43945,740-632-4036
T & M Express,4365 Twp 271,Millersburg,OH,44654,330-674-1054
"W & W Trucking & Logging, Inc.",8154 Kinsman Nickersn Rd,Kinsman,OH,44428,330-876-0533
Rrr Express,445 W North Bend Rd,Cincinnati,OH,45216,513-761-2200
Groundhawk Transportation,3601 E 112th St,Cleveland,OH,44105,216-819-9900
Big Z Transport,502 Mccarty Lane,Jackson,OH,45640,740-286-8844
Dofal On Us Transportation,13200 State Road,North Royalton,OH,44133,440-582-8058
Lariche Chevrolet Cadillac,215 East Main Cross St,Findlay,OH,45840,419-422-1855
Zimmerman Auto Wrecking,65495 Meeksville Rd,Mcarthur,OH,45651,740-596-4263
Luna Trucking,1907 Brookside Dr,Findlay,OH,45840,419-375-0002
Car Carrier,223 Stone Rd,Belpre,OH,45714,740-423-1414
Kinney Trucking,191 Macy Ave,Barberton,OH,44203,330-848-9349
C & J Trucking,427 E Bucyrus St,Crestline,OH,44827,419-689-1369
Lyons Logistics And Associates,2802 State Rte 4,Bellevue,OH,44811,419-483-8121
Yeomans Trucking,119 S Jefferson St,Pitsburg,OH,45358,937-564-3369
K & A Trucking,11677 Road 114,Paulding,OH,45879,419-399-4733
Jsj Transportation,3809 Maple Crest,Woodmere,OH,44122,216-378-1944
Transpro,2445 B West State St,Alliance,OH,44601,330-821-6289
Mike Landfried Trucking,21549 Buena Vista Rd,Rockbridge,OH,43149,740-969-4960
Keyline Express,292 South Fifth St,Williamsburg,OH,45176,513-724-9000
Bigfoottrucking,871 Cambridge Ave,Youngstown,OH,44490,330-788-5862
First Capital Logistics,250 Hopetown Rd,Chillicothe,OH,45601,740-775-8736
Davis Excavation & Moving,10188 Primrose Rd,New Paris,OH,45347,937-437-1903
S & J Trucking,310 Oak Avenue,Sidney,OH,45365,419-628-9112
Wide Open Trucking,206 Patterson Road,Dayton,OH,45419,937-294-0335
Fast Layne Transport,4340 Clark Rd,Urbana,OH,43078,937-652-3526
Edwin Thomas Transportation,2435 Montana Ave #11,Cincinnati,OH,45211,513-661-5457
Jeff's Trucking,160-20 Towpath Road,Troy,OH,45373,937-526-3111
Shadow Transport,16 E Church St,Niles,OH,44446,330-219-7876
G & P Transportation,10694 Ashville Pike Lot 93 A,Lockbourne,OH,43137,740-983-6214
River Bend Transport,6275 S County Road 57 Suite B,Alvada,OH,44802,419-387-7560
Larkins Logistics,1035 Clinton St,Sandusky,OH,44870,419-625-8587
J D Levens Trucking,6215 Mud Lake Rd,Creston,OH,44217,330-635-7582
All-pro Manufactured Home Transport,230 N Walnut St,Gnadenhutten,OH,44629,740-254-9144
A-i-e,8839 Quaker Rd,Fredericktown,OH,43019,740-694-4232
Frank Bursick Trucking,14987 E Liverpool Rd,East Liverpool,OH,43920,412-480-6244
Midnight Angel Express,162 Woodsmill Road,Bidwell,OH,45614,740-446-3733
Jeff Hill Trucking,Rt 1 Box 332 B,Vincent,OH,45784,740-678-8670
J T Transportation,1572 E Easton Road,Creston,OH,44217,330-635-3215
W S Trucking,689 Rocky Point Rd,Fleming,OH,45729,740-678-2520
Golden Star Transport,5556 Bradview Rd 3402,Parma,OH,44134,216-398-1162
Rice And Sons Transport,751 Chesbrough St,Toledo,OH,43605,419-698-1517
Michael Shriver Trucking,4999 Kerr Road,Bidwell,OH,45614,740-245-5164
Triple R Trucking,Willow Branch Rd,South Point,OH,45680,606-325-8301
E & L Sheets Trucking,1417 Fish And Game Rd,Waverly,OH,45690,740-947-0436
Wil-kare Transit,3670 Weaver Rd,Williamsburg,OH,45176,513-625-4930
Bocik Trucking,468 County Road 123,Deshler,OH,43567,419-293-1308
Kevin Trucking,324 Carroll Rd,Athens,OH,45701,N/A
Direct Logistics,1087 Janet Way,Lebanon,OH,45036,513-228-1200
Duncan Trucking,7640 Lafayette Rd,Lodi,OH,44254,937-882-1254
Jenkins Trucking,1325 Massie Run Road,Bainbridge,OH,45612,740-634-3188
Hoelscher Trucking LLC,12 Middle Street,Fort Loramie,OH,45845,937-295-3257
Dixie Express,10993 North Shore Dr,Hillsboro,OH,45133,937-840-9606
Bruns Trucking,132 Kremer-hoving Rd,St Henry,OH,45883,419-375-0002
Austen Trucking,1504 State Rt 89,Jeromesville,OH,44840,419-651-3668
Brice L Twigg Enterprises,13741 Banning Road,Mount Vernon,OH,43050,740-393-2891
Ed Muth Trucking,3471 Twp Rd 198,Bellefontaine,OH,43311,937-593-9626
Shelton Transport,3002 Twin Creek Rd,W Alexandria,OH,45381,937-839-5028
C A S Trucking,6569 Goshen Rd,Goshen,OH,45122,513-625-4331
Gregs Services,16 Sixth Ave Sw,Pataskala,OH,43062,614-402-4128
C S J Trucking,47550 Township Road 40,Caldwell,OH,43724,740-732-0303
Smith Transport,11503 Us 23,Lockbourne,OH,43137,740-983-8715
Eastside Ind Trk Service,7244 Shiloh Road,Goshen,OH,45122,513-625-2288
Hamilton Trucking,27241 Cr 171,Fresno,OH,43824,740-545-6577
Mjm Trucking,7235 Township Road 619,Millersburg,OH,44654,330-852-3291
Cuz Mobile Home Services,11502 Kinsey Rd,Tippecanoe,OH,44699,740-922-4646
Double K Trucking,187 Township Rd 176,Crown City,OH,45623,740-446-8677
Topgun Warehouse Delivery,9266 Meridian Way,Westchester,OH,45069,513-948-8412
Carpenter Trucking,3701 Pleasant Valley Rd Se,Dennison,OH,44621,740-922-9285
Charles E Ramey Trucking,2818 Twp Rd 220,Willowwood,OH,45696,740-643-2138
Kashmir Transport Service,682 Riverview Dr Apt 136,Columbus,OH,43202,614-946-1447
R & M Trucking,11821 Sr 243,Chesapeake,OH,45619,740-867-8324
Bethany Lutheran Village,6451 Far Hills Ave,Centerville,OH,45459,937-433-2110
Alexander Trucking And Timber,1749 Clough Pike,Batavia,OH,45103,513-735-0625
C W Bright Trucking,1260 Bartley Road,Dayton,OH,45414,937-898-1453
B & R Transportation,1483 St #38 Ne,Washington Court House,OH,43160,740-333-7347
Ziggy Trucking,100 N Maple St,West Salem,OH,44287,419-846-5578
"Benge Trucking, Inc.",2161 Eaton Road,Hamilton,OH,45013,513-887-6770
Ws Express,5169 Miami Dale Drive,Fairfield,OH,45014,513-829-1519
Scc Distribution,2257 Westbrooke Drive,Columbus,OH,43228,614-876-8925
Steve's Transports,237 N Walnut St,Gnadenhutten,OH,44629,740-254-9421
Air & Expedited Express,7291 Starlawn Rd,Perrysburg,OH,43551,419-822-5642
Cline's Trucking,929 Us Rt 62,Hillsboro,OH,45133,937-442-5090
Andy Charles & Sons Trucking,1421 3rd St,West Portsmouth,OH,45663,740-858-5153
Xlr8ed Transportation,2754 Vickie Drive,Beavercreek,OH,45434,937-427-8441
Custom Transport,1430 Smokey Hollow Rd,Piketon,OH,45661,740-289-4652
Accu - Vac Environmental Services,321 N Church St,New Carlisle,OH,45344,937-325-5777
Butler Trucking,1826 Stivers Ave,Aberdeen,OH,45101,606-798-5321
Kono Logistics,7176 Creek Rd,Williamsfield,OH,44093,440-293-4006
Stallion Trucking,8792 E Casstown-clark Rd,Casstown,OH,45312,937-857-9688
Boling Trucking,109 Ballard St,West Union,OH,45693,937-544-6850
Parker's Trucking,3939 Moore Marathon Rd,Williamsburg,OH,45176,513-625-2629
B G Express,6624 Helwig Dr,Dayton,OH,45424,937-236-4638
A-1 Transport,9370 Cheshire Rd,Sunbury,OH,43074,740-965-8828
Buck Transportation,439 Stewart Ave N W,Massillon,OH,44646,330-478-9248
Kennedy Transport LLC,14990 Lock-two Rd,Botkins,OH,45306,937-693-4814
C M T S Delivery Service,3729 Orchard St,Mogadore,OH,44260,330-628-1702
Eric Mccormack Trucking,7801 W Stree Route 18,Fostoria,OH,44830,419-937-2404
Ross Trucking,999 St Rt 770,Peebles,OH,45660,937-764-0434
M D Glass Trucking,2179 S R 132,Goshen,OH,45122,513-625-6472
Gilbert Trucking,288 Washington Rd,Union City,OH,45390,419-375-0002
Drw Trucking,3220 Pierce Road,Hamersville,OH,45130,937-379-1342
Haskell Trucking,58 Dulton Drive,Toledo,OH,43615,419-474-1992
K & J Transport,6495 Fair Ridge Rd,Hillsboro,OH,45133,937-927-0084
B&n Woods Trucking,6659 State Route 734,Jamestown,OH,45335,937-675-2884
Dutch Transit,11445 Gieb Ave,Hartville,OH,44632,330-877-8434
Hunter Trucking,355 Hupp Rd,Beverly,OH,45715,740-376-9261
M And D Courier,655 Fox Run Road Suite B,Findlay,OH,45840,419-421-0719
Recipprocity Transport,1512 St Rt 534,Geneva,OH,44041,440-228-3241
4d's Trucking,150 S Buffalo St,Cadiz,OH,43907,740-942-4126
Advanced Commercial Transport,926 S Portland,Bryan,OH,43506,419-633-0314
3 Key Trucking,1421 E Whittier Street,Columbus,OH,43206,614-258-2508
M & M Express,5605 West Ridgewood Drive,Parma,OH,44129,440-884-1766
Backus & Sons Trucking,6025 Clover Four Road,Celina,OH,45822,937-451-4277
A To Z Moving,3937 Woodhaven Dr,Toledo,OH,43612,419-478-4574
J & W Express,2755 Brady Lake Rd,Ravenna,OH,44266,330-298-3284
Idealease Of Toledo,5320 Fremont Pike,Stony Ridge,OH,43463,419-244-9541
Deez Trucking,554 State Route 551,Waverly,OH,45690,740-947-4753
James R Brunthaver Trucking,2651 Finefrock Rd,Fremont,OH,43420,419-639-3563
Rtlt Trucking,8180 County Road 14,Waterloo,OH,45688,740-643-2855
Hopper Trucking,912 Hanna Rd,Mansfield,OH,44906,419-526-6318
O A D,1700 Feddern Avenue,Grove City,OH,43123,614-277-1445
Chapman Logistics,6501 Germantown Road Lot 290,Middletown,OH,45042,800-851-8141
J D Trucking,5128 State Route 121,Greenville,OH,45331,937-459-0361
Cheyann Trucking,56 Tup Rd 1123,Proctorville,OH,45669,740-886-6665
Pdq Air Logistics,1601 Thrailkill Rd,Grove City,OH,43123,614-871-6241
Copperhead Trucking,9831 Hardy Drive,Dundee,OH,44624,330-231-0061
Montana Trucking,3770 Cr 170,Fremont,OH,43420,419-334-7327
Jp Transport,1676 Weston Ave,Yougstown,OH,44514,330-788-0255
Quality Forest Products LLC,64804 Siverly Creek Road,Mcarthur,OH,45651,740-596-3000
Gtl Logistics,Rt 4 Box 181-a,Marietta,OH,45750,740-373-6479
Cfs Transport,1572 Brownlee Ave,Youngstown,OH,44514,330-788-1361
L And L Express,8473 Urbana-woodstock Pike,Woodstock,OH,43084,937-605-2665
Rodeheffer Hauling,12674 State Route 49 N,Fort Recovery,OH,45846,937-338-3038
Castle Working Trucks,101 Township Rd 228,Willow Wood,OH,45696,740-867-1605
T A Lounds Trucking,8780 Neptune Dr,Cincinnati,OH,45231,513-521-0758
J Carter Trucking,8897 Desoto Dr,Cincinnati,OH,45231,513-521-2340
Hometown Express,1785 St Rt 28,Goshen,OH,45122,513-722-2387
Rosebud Trucking,82075 Barricklow Road,Cadiz,OH,43907,740-942-8255
Pro-tech Express,1939 Victoria St ,Cuvahoga Falls,OH,44221,412-260-9776
Jka Trucking,218 West Water,New Lexington,OH,43764,740-342-3857
Roma Trucking,48285 Toker Rd,Hopedale,OH,43976,740-946-4544
Terry L Wildermuth Trucking,155 Arnold Ave,Lancasster,OH,43130,740-360-0277
"K S D Trucking, Inc.",3764 Sr 224 Box 95,Greenwich,OH,44837,330-722-6294
J & L Turner Trucking,19067 Parry Hollow Rd,Caldwell,OH,43724,740-732-2734
J Morrison Trucking,1310 Buckingham St,Toledo,OH,43607,419-242-0712
L E Berry Trucking,5661 Monat Dr ,Galion,OH,44833,419-295-4790
Dhanoa Truck Line,3554 Greenwich St,Columbus,OH,43224,201-747-0237
Redneck Express,396 Rhonda Court,Loveland,OH,45140,513-722-0449
Redi Express Delivery,11460 N Durkee Rd,Grafton,OH,44044,440-748-1132
Resource-one,6043 Interstate Circle,Cincinnati,OH,45242,513-247-0175
S & K Trucking Co,342 Oak Manor Ave Ne,Massillon,OH,44646,330-833-2785
Spectrum Freight,9507 Lakeshore Drive West,Huntsville,OH,43324,937-842-7538
Ole Foulk's Farm,3674 Stanhope Kingsville,Kingsvillle,OH,44048,440-224-1639
Teter Transport,6628 Marcy Rd,Pierpont,OH,44082,440-577-1561
Herb Hess Trucking,4032 Teagues South Rd,Arcanum,OH,45304,937-947-1318
T-s Trucking,5433 Elmwood Ave.,Maple Heights,OH,44137,216-659-2500
Valley Moving Service,38012 Flat Rock Rd,Barnesville,OH,43713,740-757-2420
Anthony Parnell Trucking,299 Deerfield Dr,Harrison,OH,45030,513-202-9187
Wesley Community Services,3333 Glenmore Ave,Cincinnati,OH,45211,513-661-2777
Big E Trucking,29 West Dayton St,West Alexandria,OH,45381,937-623-6430
Steve's Auto Parts,103 Perry Hollow Rd,South Point,OH,45680,740-894-5420
Kreger Trucking,206 W Cumberland St,Lewisburg,OH,45338,937-962-4072
T & S Trucking,Rt #2 Box 69a,Lowell,OH,45744,740-896-2594
Blade Trucking,120 Lake Road,Belpre,OH,45714,740-678-2297
Kathy's Trucking,48060 Allegheny Trail,Negley,OH,44441,330-227-3188
Sonic Moving Co,3347 Branning Ave #4,Cincinnati,OH,45209,513-841-2222
Lady V Trucking,11649 Christiansburg Jackson R,St Paris,OH,43072,937-857-0258
Nutter Dump Truck Service,Rt 1 Box 231,Little Hocking,OH,45742,740-989-2729
Worldwide Hotshots,15537,E Liverpool,OH,43920,330-386-6235
K & G Trucking,555 N East Street,Mcclure,OH,43534,419-748-7489
Leasure Trucking,773 State Rt 534,Newton Falls,OH,44444,330-259-1548
Allen Trucking,5199 Bixby Rd,Groveport,OH,43125,N/A
T & D Transportation,1787 St Rt 225,Deerfield,OH,44411,330-671-5188
Access Scioto County Public Transit,601 Eighth Street,Portsmouth,OH,45662,740-353-5626
Et Trucking,8557 Sr 325 N,Vinton,OH,45686,740-446-8677
Stemen And Son Trucking Co,14527 Brodnix Rd,Van Wert,OH,45891,419-238-4972
Peters Trucking,8127 Lauver Road,Pleasant Hill,OH,45359,937-676-8235
Clever Trucking,330 Ethel Avenue,Carlisle,OH,45005,937-746-2489
Doug's Dump Trucks,17865 Miller Rd,Richwood,OH,43344,740-943-5208
P & N Trucking,15 Highland Ridge Rd,Marietta,OH,45750,740-373-9640
Thompson Trucking,56441 Somerton Hwy,Barnesville,OH,43713,740-757-2718
Kuesel Farms,3402 State Rt 281,Deshler,OH,43516,419-438-6491
Rarey Farms Trucking,8847 Cty Rd 175,Kenton,OH,43326,419-673-8522
D & H Trucking,16586 Chapel Rd,Danville,OH,43014,740-599-6209
Geneva Pipeline,4749 North Ridge East,Geneva,OH,44041,440-466-6611
Special Express,6821 Sr #123,Morrow,OH,45152,513-582-1600
C & M Truck Repair,21415 Aurora Rd,Warrensville Heights,OH,44146,216-332-0630
J & F Trucking,6602 Middlesboro Rd,Blanchester,OH,45107,937-783-9749
J-rod Trucking,123 Tpw Rd 1247,Proctorville,OH,45669,740-550-6105
Polecat Express,810 Yates,Toledo,OH,43608,N/A
A & M Trucking,10811 Williams Rd,Gnadenhutten,OH,44629,740-254-4766
Beccc Trucking,423 West Broadway St,New Lexington,OH,43764,740-342-6692
Carolina Truss Systems,1601 Perry Drive Sw,Canton,OH,44706,330-478-6880
Performance One,1961 Chapel Creek Rd,Chillicothe,OH,45601,740-779-3217
Dynamite Transport,3402 Bader Street,Cleveland,OH,44109,216-631-1260
Bluestreak Delivery & Moving,35263 Cooley Road,Grafton,OH,44044,216-347-0162
Jerry A Turner Trucking,9549 St Rt 339,Vincent,OH,45784,740-678-7333
Easy Reliable Shipping,3354 Us 23 North,Delaware,OH,43015,740-369-2959
J & E Mckesson Trucking,125a Zeltman Ave,Strasburg,OH,44680,330-878-0503
P A Express,2201 Wyandot Rd,Bucyrus,OH,44820,419-563-9512
J R Brown Sr Trucking,State Route 821,Caldwell,OH,43724,N/A
"HiLLCrest Food Service, Inc.",2695 E 40th St,Cleveland,OH,44115,216-361-4625
Truly Blessed Trucking Company,13900 Miles,Cleveland,OH,44105,216-244-6375
"Dreher-selden Transportation Services, Inc.",50001 Tr 200,Coshocton,OH,43812,740-622-6301
Hubbard's Greenhouse,1068 Worchester Street,Syracuse,OH,45779,740-992-5776
J H Trucking,8015 Dundee Wilmot Rd Nw,Dundee,OH,44624,330-698-9017
R Pegg Trucking,10720 Carolina Trace Rd,Harrison,OH,45030,513-367-6397
Axel Express Of Ohio,11769 Lawndell Rd Sw,Navarre,OH,44662,330-767-4989
Davcor Trucking,1354 S Coy Rd,Oregon,OH,43616,419-691-0491
J E Sherk Trucking,4959 Sandusky Street,Bucyrus,OH,44820,419-562-1224
P J Smith Delivery,2719 Harrison Ave Nw,Canton,OH,44709,330-455-4249
Cdsi,7737 Reinhold Drive,Cincinnati,OH,45237,513-469-1405
Murphy Brown Transportation,325 Groveland Club Drive ,Cleveland,OH,44110,216-973-1563
L & J Trucking,53945 Boston Rd,Jerusalem,OH,43747,740-757-9208
Jkd Truck Delivery,7412 Cheshire Road,Dayton,OH,45459,937-436-7301
Js Transportation,1022 Ginger Ridge Road,Manchester,OH,45144,937-515-1860
Jeff's Mobile Home Service LLC,10019 Wolfe Road,New Vienna,OH,45159,937-987-2065
Always Towing,1 West Interstate,Bedford,OH,44146,440-439-7100
All American Freight Hauling,7922 Ruff Rd,West Salem,OH,44287,419-853-1153
Todd Trucking,12604 Ward Dr,Chesterland,OH,44026,440-477-5478
Nkc Trucking,9168 Canal Way,West Chester,OH,45069,513-860-2170
Wayne & Family Moving,1415 Chase Avenue,Cincinnati,OH,45223,N/A
North Central Tire,4871 Corporate St Sw,Canton,OH,44706,330-994-0680
Sierra Trucking Company LLC,6710 State Route 42,Mt Gilead,OH,43338,419-362-1100
Teena's Truck And Trailer,5512 Mooreland Ave,Mentor-on-the-lake,OH,44060,440-209-9595
Randy Clark & Son Trucking,291 South 5th Street,Byesville,OH,43723,740-501-1355
"Turtle's Moving & Renovation, Inc.",3665 Coral Gables Road,Cincinnati,OH,45248,513-779-9929
Thunder Auto Transport,1132 London Road,West Jefferson,OH,43162,614-879-7011
Tdm Trucking,19 Willard Ave Ne,Massillon,OH,44646,N/A
Mystic Express,1855 E 2nd St,Defiance,OH,43512,419-290-8687
Wooten's Transport,2810 Conley Rd,Lucasville,OH,45648,740-259-6556
"Compton Transport, Inc.",1732 Fir Ct,Heath,OH,43056,740-403-7100
G A Brown Trucking,207 North Monroe Street,Montpelier,OH,43543,419-485-0171
David's Mobile Home Transit,400 West Main Street,Somerset,OH,43783,740-743-3999
"Rsd Trucking, Inc.",6757 Melridge Drive,Painesville,OH,44077,440-354-8792
Simkey Trucking,4192 Kirk Rd,Youngstown,OH,44511,330-793-2008
Vernon Trucking,730 Reynolds Ave,Grenwich,OH,44837,419-895-1717
John And Theresa Broad Trucking Co,2206 13th Street Ne,Canton,OH,44705,330-484-9100
Leal Transport,1913 Brookhaven Drive,Lima,OH,45805,419-228-5926
Dry Dock Marine Transport,13530 Madison Rd,Middlefield,OH,44062,440-632-5505
Adams Trucking,13338 St Rt 124,Piketon,OH,45661,740-493-1172
D P G Trucking,9185 Trelawney Ct,Cincinnati,OH,45251,513-522-9004
D & R Trucking,5159 St Rt 160,Kerr,OH,45643,740-446-4734
Sheppard Trucking,6901 Beechwood Rd,Hillsboro,OH,45133,937-393-5210
Richards Trucking,16991 Duncan Dr,Glouster,OH,45732,740-753-4040
American Badger Trucking,820 Chaffin Rd ,Akron,OH,44306,330-773-4591
Dennler Motor Delivery,7240 State Route 128,Cleves,OH,45002,513-353-1109
Vulgamore Trucking,518 E Liberty St,Ashland,OH,44805,419-281-0090
Haythorne Logistics,2415 Glenwood,Toledo,OH,43620,419-392-0681
Lounsbury Transportation Co,29800 Harvard Rd,Orange Village,OH,44122,216-360-9351
Jfk Trucking,121 Meadow Ridge Avenue,Mogadore,OH,44260,330-628-0693
Kls Transportation,3787 Laketon Terrace,Northwood,OH,43616,419-697-7592
Cw Transport,3978 Greenwich Rd,Norton,OH,44203,330-336-4621
T-f Express,3991 Three Locks Road,Chillicothe,OH,45601,740-253-1496
S & J Transportation,572 N Main St,Poland,OH,44514,330-757-3399
Mccleese & Halls Mobile Home Transport,10463 Hamer Rd,Georgetown,OH,45121,N/A
J2j Equipment Haulers,3901 Colorado Ave,Sheffield Village,OH,44054,440-949-1910
Winona Mae,218 Coul Street,Mansfield,OH,44902,516-238-0371
Erwin Transport Co,117 South Franklin St,Richwood,OH,43344,740-943-2190
Shrivers Trucking,6407 Fair Ridge Rd,Hillsboro,OH,45133,937-927-0132
Mtk Trucking,28824 Cottrell Road,Frazeysburg,OH,43822,614-284-4136
C & L Transportation,6805 Lima St ,Huntsville,OH,43324,437-686-3295
Transpork,2702 Road H,Leipsic,OH,45856,419-943-3633
Darby Beekman Trucking,5647 Beavers Ridge Road,Peebles,OH,45660,740-493-2706
T & B Auto Sales,9969 Youngstown-pittburgh Rd,New Middletown,OH,44442,330-542-4100
T & J Moving,87600 Bethel Rd,Uhrichsville,OH,44683,740-922-9504
H A T T Transport,2908 Bantas Creek Road,Eaton,OH,45320,N/A
Jethro Hall Express,750 Leonard Street,East Liverpool,OH,43920,303-385-3763
Dms Transport,24724 Lunda Rd,Raymond,OH,43067,614-554-3593
Marshall Trucking,18112 Olympia Rd,Cleveland,OH,44112,216-244-6229
Tomlin Brother Farms & Trucking,220 Riffle Road,West Union,OH,45693,937-544-6047
Rosengarten Trucking,1649 N Perry St,Ottawa,OH,45875,419-523-6758
Sidders Cattle Company LLC,7093 Nine Mile Road,Urbana,OH,43078,937-362-2229
Chris Huff Trucking,12427 Sr 122,Camden,OH,45311,937-787-4377
Petitjean Trucking,1140 Twp Rd 208,Marengo,OH,43334,419-253-3810
Matt Lindemuth Trucking,4013 Kilbourn Road,Arcanum,OH,45304,937-459-0227
Luschek Trucking,6354 Hunt Road,Fayetteville,OH,45118,513-625-3035
L & R Transport,1266 St Rt 96,Ashland,OH,44805,419-289-7889
Buckeye Fast Freight,7620 Bond Street,Glennwillow,OH,44139,440-786-9194
Bartley Trucking,24836 Road H24,Continental,OH,45831,419-516-5453
Ratliff Express,3540 Pleasant Hill Road,Waverly,OH,45690,740-947-7372
D R Trucking,3957 Pettett Dr,Blanchester,OH,45107,513-625-1763
Gmc Transport,5858 County Road 201,Millersburg,OH,44654,330-893-3757
Davco Trucking,671 Moriah Road,Oak Hill,OH,45656,740-682-6474
Vernon Farms,26295 Locust Grove Road,New Holland,OH,43145,740-986-8131
Donald D Shriver Trucking,Sr 26 52251,Jerusalem,OH,43747,740-926-1571
R & B Septic,55987 New Cut Rd,Shadyside,OH,43947,740-671-9024
Liberty Farms,6024 Perry Road,Centerburg,OH,43011,740-625-6697
Cornerstone Transport,5953 Outville Rd,Pataskala,OH,43062,614-283-9259
Ameri-trux,5803 Charles Ave,Parma,OH,44129,440-653-3378
Ken Brown Trucking,2018 Bethel Hygiene Rd,Bethel,OH,45106,513-734-0545
Phil Warren Trucking,3126 Meek Road,Goshen,OH,45122,513-625-5400
S E Troyer Trucking,10687 Irvin Rd,Creston,OH,44217,330-435-6746
A O K Trucking,3797 Biltz Rd,Kent,OH,44240,330-325-8651
Trs Auto Transport,186 S Brinker Ave,Columbus,OH,43204,614-351-8761
Stampede Delivery,459 Charleston Street,Cadiz,OH,43907,740-942-3270
Todd's Trucks,12500 State Route 124,Piketon,OH,45661,740-493-2699
J & R Trucking Co,6699 Hedgeline Court,Bedford Heights,OH,44146,216-786-2916
C D P Trucking,1101 Cable Ave,Columbus,OH,43222,614-895-5517
Dale Guiler Trucking,44396 Fairground Rd,Caldwell,OH,43724,740-732-2721
Euclid Auto Care & Sales,17049 Messenger Rd,Chagrin Fall,OH,44023,330-283-3455
Grimm Trucking,311 Earl Dr,Newark,OH,43055,614-366-7445
Dave's Delivery,8389 Mayfield Rd,Chesterland,OH,44026,216-729-2598
Troyer's Trucking,9632 Hardy Dr,Dundee,OH,44624,330-852-3298
Van-go Express,251 Main Street Suite 9,Wadsworth,OH,44281,330-335-3803
"El Camino Trucking, Inc.orporated",980 N Opfer Lance Rd,Genoa,OH,43430,419-855-4623
"Storer Trucking, Inc.",5805 Sr 247,Hillsboro,OH,45133,513-393-3984
Jasper-bryant Trucking,1421 Dickerson Apt #1,Newark,OH,43055,614-344-6284
Jagers Trucking Company,2525 State Route 218,Gallipolis,OH,45631,614-446-8677
Hinds Trucking,County Rd #19 Box 11,Clark,OH,43812,N/A
White's Trucking,Rt 4 Box 212b,Proctorville,OH,45669,614-886-8515
At Your Service,1702 Queen City Avenue,Cincinnati,OH,45214,513-471-9951
Waynes Auto Service,30 East Main St,Amelia,OH,45102,513-753-7759
R L Miller Trucking,9334 Strasburg-bolivar Road Nw,Strasburg,OH,44680,740-229-2317
D A Nichelson Trucking,18946 Salt Run Rd,Caldwell,OH,43724,614-732-2542
Jared Church Services,11550 Folkstone Dr,Cincinnati,OH,45240,513-851-2296
Superior Service,204 1/2 W Main St,St Clairsville,OH,43950,614-695-2000
Ironton Transport Co,Route 1 Box 419,Ironton,OH,45638,N/A
Bills Limo Service,243 Eberly Ave,Bowling Green,OH,43402,419-352-8103
Long Shot Express,P O Box 104,Utica,OH,43080,N/A
Summit Expedited Freight,7791 Capital Blvd # 8a,Macedonia,OH,44056,216-477-4110
Ron Rothenbuhler Trucking,49975 Sr 78,Clarington,OH,43915,740-458-1167
Express Trucking Service,4303 Williston Rd,Northwood,OH,43619,419-697-0196
Midwest Suspension And Brake,5015 Enterprise,Toledo,OH,43612,419-729-9796
"Action Calibration Service, Inc.",17820 Englewood Dr #13,Middleburg Hts,OH,44130,440-234-9300
Keq Distribution,7700 St Clair Ave,Mentor,OH,44060,216-975-1996
Mustang Delivery,Rt 1 Box 99,Little Hocking,OH,45742,614-989-5514
B & B Transport,9661 Daly Rd,Cincinnati,OH,45231,N/A
Eastern Medical Services,2542 Belmont Ave,Youngstown,OH,44505,330-480-9999
T L Brown Trucking,510 Welch Road,Cutler,OH,45724,740-667-6503
M & W Transportation,12422 State Route 81,Dunkirk,OH,45836,419-759-3810
B & C Trucking,Rt 1 Box 177,Whipple,OH,45788,614-585-2083
Hermes Heavy Haul,728 North Main Street,Marysville,OH,43040,937-644-9989
C C Trucking,1465 Water Ct Se,Canton,OH,44707,N/A
Schwartz Bros,2467 Clover Blossom Ct,Grove City,OH,43123,N/A
Dano's Express Service,5384 Middletown Oxford Rd,Middletown,OH,45042,513-423-3649
King Trucking,495 Beach Rd,Belpre,OH,45714,N/A
Tom's Truck & Trailer,28017 Tracy Rd,Walbridge,OH,43465,419-666-6100
Matthews Trucking,2502 Hiles Road,Lucasville,OH,45648,614-259-2233
First Class Delivery,1004 East Albert,Lima,OH,45801,N/A
Durben Trucking,320 Woodlawn Ave,Zanesville,OH,43702,740-252-8083
Midkiff & Midkiff Trucking,Route 4 Box 138,Proctorville,OH,45669,614-886-7011
"J Y S Trucking, Inc.",309 B Sycamore Glen Drive,Miamisburg,OH,45342,513-847-8586
J & M Trucking,1687 Nebraska Ave,Toledo,OH,43607,N/A
Chungtoon Foodservice,7792 Metric Dr,Mentor,OH,44060,440-255-8155
Tmt Trucking,5626 Woods Ave ,Toledo,OH,43623,419-472-3262
Mathes Trucking,71 25th Street,Massillon,OH,44647,330-833-2723
Ash Trucking Company,185 East Main Street #204b,Orwell,OH,44076,N/A
Scarlett & Gray Scale Service,1438 Hootman Rd,Reynoldsburg,OH,43068,800-427-6421
Clark's Transportation Service,17507 Maple Heights Blvd,Maple Heights,OH,44137,216-662-0302
Service Of Cincinnati,3928 Apple St,Cincinnati,OH,45223,513-542-7336
K & R Trucking Company,4180 Old Springfield Rd,Springfield,OH,45502,513-265-5009
A & E Trucking,386 Aaron Road,Sciotoville,OH,45662,740-776-7502
Edwards Truck Service,716 Marlin St,Youngstown,OH,44502,330-502-8445
Pjb Trucking,2514 Wells Rd,Collins,OH,44826,419-663-2396
On Line Logistics,7632 Hub Parkway,Valley View,OH,44125,216-447-3800
Bobby Lee Transport,Route 1 Box 256a,Ray,OH,45672,614-887-2345
Larrys Trucking,3215 Kinsman Rd,Mesopotamia,OH,44439,216-693-4387
Chris Moran Trucking,28891 Coshocton Rd,Howard,OH,43028,740-427-2391
Crow Express,P O Box 1963,Mansfield,OH,44901,N/A
Core Auto Parts,10863 Grog Run Rd,Loveland,OH,45140,513-677-1990
Southern Refrigerated Express,2125 S County Rd 25a,Troy,OH,45373,937-339-6869
Lawsons Trucking,55319 Sr 681,Reedsville,OH,45772,614-378-6274
Icl,1901 Train Avenue,Cleveland,OH,44113,216-622-0900
My-time Transportation,P O Box 40414,Cincinnati,OH,45240,N/A
All Trucking & Equipment,13889 Ravenna Ave Ne,Alliance,OH,44601,N/A
B P & A Trucking,168 Twp Rd 337,Kitts Hill,OH,45645,740-867-6026
L M O Transportation Services,13356 Auburn Rd,Chardon,OH,44024,N/A
Go Express International,292 E Broadway,Westerville,OH,43081,614-898-0300
J D C Trucking,401 N Indina Ave,Wellston,OH,45692,740-384-3115
Sampsell Transportation,28777 Hille Dr,Millbury,OH,43447,419-838-7252
Cobra Logistics,6410 Eastlake Rd,Cleveland,OH,44142,216-239-0017
R V Transport,187 Applegrove N E Apt# A-9,North Canton,OH,44720,216-966-8348
Dove Carriers,599 New Moon Drive,Columbus,OH,43223,614-445-7997
Runtec Delivery Services,P O Box 461,Brunswick,OH,44212,N/A
Foxx Vending Company,120 Canal,Toledo,OH,43609,419-243-3699
Wild Stallion Express,1119 Fifth Street,Sandusky,OH,44870,N/A
C T Transport,2322 Deerfield Dr,Deerfield,OH,44411,216-947-1806
Joe Bates Sales & Service,12729 Jerry City Rd,Cygnet,OH,43413,419-655-2220
W & W Cartage,94 Tulip Lane,Riverside,OH,45432,937-253-0578
Earth Transport,9840 Harrison Ave,Harrison,OH,45030,513-367-9579
Ashell Industries,4510 E 71st St,Cleveland,OH,44105,216-641-0953
Riverside Auto Sales,401 N Sandusky Ave,Bucyrus,OH,44820,419-562-9443
"Blk Transport, Inc.",1808 Penfield Ct S,Columbus,OH,43227,614-238-0084
Best Trucking Of Columbus,2774 Wallcrest Blvd,Columbus,OH,43231,614-523-0322
Tom Kress Trucking,P O Box 446,North Lima,OH,44452,N/A
Hollon Trucking,110 N Leibee St Apt 8,Middletown,OH,45042,513-424-1065
Nagle Trucking,303 Grandview Drive,Lebanon,OH,45036,513-932-3124
Stat Trucking,2895 Layhigh Road,Hamilton,OH,45013,513-738-4466
Shane-austin Transport,140 Orchard St Po Box 2564,Wintersville,OH,43952,704-342-1427
Gary Kovacic Trucking,1170 Tote Rd,Rock Creek,OH,44084,440-466-0668
Milford Auto Mart,1038 Sr 28,Milford,OH,45150,513-576-6609
Food Snacks Distribution,5602 Bennett Rd,Toledo,OH,43612,419-476-2086
Raneri,13841 East Liverpool Rd,Lisbon,OH,44432,330-385-9263
R & D Trucking,10052 James Rd,Fredericksburg,OH,44627,216-695-6933
M J W Mobile Homes Service,5331 St Rt 7,Gallipolis,OH,45631,614-441-1283
Wm Petraglia Transportation,1908 W Loveland Ave,Loveland,OH,45140,513-683-8541
T N T Express,7647 Bouquet St,Negley,OH,44441,216-426-3212
Oma Trucking,4498 Dayton-xenia Rd,Beavercreek,OH,45432,937-427-9156
Interstate Trucking Service,3944 West 129th St,Cleveland,OH,44111,216-476-1630
P & L Transport,326 W Sugar St,Leipsic,OH,45856,419-943-2460
Hickeys City Haul,777 Stinchcomb Drive,Columbus,OH,43202,614-447-2145
Meade Trucking,4300 Bryenton Rd,Litchfield,OH,44253,216-667-2618
C & J Trucking,Rt 3 Box 116a,Albany,OH,45710,614-669-3419
G&b Trucking Company,4159 Buttercup Road,Carrollton,OH,44615,216-627-2154
"5pm Fleet Service, Inc.",766 Canton Rd,Wintersville,OH,43952,614-264-3113
M & M Truck Services,2464 Seville Road,Wadsworth,OH,44281,N/A
Split Rock Ranch,22498 St Rt 3 South,Loudonville,OH,44842,740-599-9606
Christian Moving & Storage,880 Lafayette Ave,Cincinnati,OH,45220,513-861-4347
Leiningers Delivery & Moving Service,263 W Willow Street,Wauseon,OH,43567,419-335-4177
"K Asher Trucking, Inc.",10941 Shadow Glen Dr,Loveland,OH,45140,513-774-0878
Stroman Trucking Co,14172 Cedar Road,University Heights,OH,44121,216-926-2549
Reiter Bros,16751 Bronze Heights Lane,Caldwell,OH,43724,740-732-6482
Matt Louiso Trucking,813 St Rt 132,Clarksville,OH,45113,513-289-3517
"Jeffers Express Co, Inc.",9591 Roachester Cozaddale Road,Pleasant Plain,OH,45162,513-561-9510
Plycraft,557 West Main Rd,Conneaut,OH,44030,440-593-5211
S & D Transport,5300 Riverside Dr,Cleveland,OH,44135,N/A
Daubenmire Trucking,28255 Logan Hornes Mill Rd,Sugar Grove,OH,43155,740-385-7346
Integrity Transport,2860 Courtright Rd,Columbus,OH,43232,614-599-5723
Good Shepard Trucking,2227 Winton St,Middletown,OH,45044,513-422-2806
K R O P Transportation,4713 Sr 82 Nw,Newton Falls,OH,44444,N/A
Larosa Trucking,10076 Clay Street,Montville,OH,44064,216-474-9607
7 Days Express Delivery,3658 Curtis St,Mogadore,OH,44260,330-628-2891
Tony's Auto Transport,1688 Hebron Rd Lot 1,Heath,OH,43056,614-323-3195
James Martin Trucking,11002 Guard Ln,North Bend,OH,45052,513-353-3238
Morris Trucking,3148 Harris Station Rd,Bainbridge,OH,45612,614-626-7141
Hurley Interstate Transportation,6511 St Rt 366,Huntsville,OH,43324,513-686-3276
White Van Lines,122 Oak Hill Avenue,Youngstown,OH,44502,330-744-8161
Maxwell Trucking,1032 Locust Road,Hillsboro,OH,45133,513-764-1434
Larry Fleak Trucking,1278 Jasper Coil Road,Washington Court House,OH,43160,740-335-5591
Gingerich Trucking,P O Box 307,Castalia,OH,44824,N/A
Doan Milk Cartage,6423 Thompson Clark Rd,Bristolville,OH,44402,330-889-2514
Plainview Farm,27348 Goshen Rd 130,Lakeview,OH,43331,419-568-7541
Homer L Smith Trucking,507 S Lock St,Waverly,OH,45690,740-947-4038
Transwest,2218 West Blee Rd,Springfield,OH,45502,513-325-2939
D T Airfreight,751 Crossroads Ct,Vandalia,OH,45377,606-363-0462
Rock & Roll Trucking,1904 Sherrick Rd Se,Canton,OH,44707,330-452-3327
Jay Hopkins Trucking,Rt 5 Devore St,Cadiz,OH,43907,740-546-3893
Rader Transport,7708 Hills And Dales Rd,Massillon,OH,44646,216-832-0774
Transportation Outlet,5261 W 161,Cleveland,OH,44142,216-857-4920
Kiko Trucking,8164 Ft Laurens Rd,Strasburg,OH,44680,330-878-1179
L & L Trucking,1295 Monroe Hickory Rd,Oak Hill,OH,45656,614-682-6443
Applegate's Auto Service,900 South Sec St,Ripley,OH,45167,513-392-1590
Smiths Trucking,728 Reed Ave,Springfield,OH,45505,937-323-3677
B & W Trucking,213 Pontius Rd,Lower Salem,OH,45745,740-585-2227
Trophy Transportation,3444 St Bernard,Toledo,OH,43613,517-264-1939
"Frame Trucking, Inc.",290 Spaulding Dr,Kent,OH,44240,330-677-9004
Nickell & Sons Trucking,16529 Heiser Road,Berlin Center,OH,44401,330-547-2365
Northern Rail Service,7695 Bond St,Northfield,OH,44067,216-439-7088
Mcguire Trucking,11255 St Rt 4,Mechanicsburg,OH,43044,937-834-2354
T-ray Trucking,7 Monterey Court,Archbold,OH,43502,419-445-6811
S L E M Express,2912 Hillcrest Avenue,Cleveland,OH,44109,216-741-8053
Jay's Transport,5123 Lincoln Highway,Bucyrus,OH,44820,N/A
Last Ride Trucking,7236 St Rt 180,Hallsville,OH,45633,614-655-2128
Wallace Trucking,17216 Stockbridge Ave,Cleveland,OH,44128,216-561-1084
Watson Mh Transporting,1300 Blcoked Dr,Newark,OH,43055,740-928-7766
Likely Trucking,245 W 6th St,Mansfield,OH,44903,419-524-6884
D & L Livestock Hauling,5555 Lewis Ave #123,Toledo,OH,43612,517-486-3802
D & C Enterprises,2865 State Rt 133,Bethel,OH,45106,859-234-8815
J & B Services,772 C R 175,West Salem,OH,44287,419-945-2225
J & M Warner Trucking,5811 Woodville Rd,Northwood,OH,43619,419-265-4073
Wessler Trucking,4279 Lark St #6,Hamilton,OH,45014,513-738-0488
R & W Transport,643 Mckinley Ave Bldg G,Newark,OH,43055,614-349-7499
R & M Movers & Storage,5361 Mirror Lake Drive,Lima,OH,45801,419-227-3665
Hurst Trucking,6592 Raley Rd,New Waterford,OH,44445,330-227-3836
Nelson Auto Wrecking,51118 Rt 541 East,Coshocton,OH,43812,740-622-2566
T L Childs Trucking LLC,7655 Clough Pike,Cincinnati,OH,45244,513-232-3117
Redoak Trucking,8143 State Rt 353,Ripley,OH,45167,N/A
Cenda Transfer,2811 Cincinnati Dayton Rd,Middletown,OH,45044,513-727-9711
Mccowien Trucking,6380 Fenkel Rd,Andover,OH,44003,440-293-5083
Merrill Shriver Trucking,4999 Kerr Rd,Bidwell,OH,45614,740-245-5164
Bill Wood Trucking Co,517 Summit Street,Xenia,OH,45385,937-376-2610
Sanitary Commercial Services,1841 Smith Bridge Rd,Jackson,OH,45640,800-752-6760
Forever Transport Co,5644 Grove Rd,Clinton,OH,44216,330-882-1031
Donco Leasing & Trucking,77425 Freeport Tipp Rd,Freeport,OH,43973,740-658-3386
R E D Systems,5 South Broadway,Trotwood,OH,45426,937-854-0704
Jakes Excavation & Trucking,394 St Rt 552,Waverly,OH,45690,740-947-4159
Wc Trucking,1036 Greenwood Ave,Arkon,OH,44320,330-867-1678
Northmont Service Center,7277 Hoke Rd,Clayton,OH,45315,937-832-5050
Beavers Trucking,119 Meadowlark Dr,Chillicothe,OH,45601,614-772-6669
Kitchen Express,761 Rue Center Court,Cincinnati,OH,45244,513-752-1043
Black Hawk National Transportation,692 Tr 462,Sullivan,OH,44880,419-736-3520
Greens Excavating And Trucking,16946 Cr 1 50,Edon,OH,43518,419-459-4252
Union Express,948 Columbus Ave,Marysville,OH,43040,937-642-4727
Scout Transport,3391 Bruceton Ave,Columbus,OH,43232,614-237-8064
Odc Trucking,2653 Castine Way,Reynoldsburg,OH,43068,216-526-8479
Bonecutter Transfer,6089 County Hwy 22a,Bloomingdale,OH,43910,740-944-1122
Cloverleaf Transportation Co,Po Box 208,Lodi,OH,44254,216-723-5602
O T I,14001 Laurelwood St Nw,Canal Fulton,OH,44614,330-854-1062
Vince Cordy Trucking,597 Martha Drive,Vienna,OH,44473,330-539-1529
Yoho Trucking,3713 Dick Street,Mogadore,OH,44260,330-628-2754
Bill Raines Trucking,1809 Darrtown Rd,Hamilton,OH,45013,513-460-3529
Bill Scarberry Trucking,133 Silver Maple Dr,Delaware,OH,43015,614-474-6534
Smh Farms,252 Walnut St,Ridgeville Corners,OH,43555,419-267-5715
Ross Trucking,3691 West Enon Rd,Yellow Springs,OH,45387,937-767-1202
Shepard Trucking,4410 Old Dutch Road,Manchester,OH,45144,937-549-4280
He Distribution,5403 Wendover Drive,Columbus,OH,43232,614-833-4890
Rhoads Trucking,3894 Pleasant Valley Rd,Dennison,OH,44621,N/A
D & M Trucking,7922 Concord Rd,Eaton,OH,45320,937-456-9775
Jbs Trucking,654 Mitchell Rd,Bainbridge,OH,45612,614-634-2481
Kelly Felger Trucking,7736 Willshire-ohio City Rd,Ohio City,OH,45874,419-965-2223
Hanson's Mobile Home Transport,3492 Old State,Manchester,OH,45144,937-549-8051
Fak Freightways,1015 Valley Belt Road,Brooklyn Heights,OH,44131,216-749-2261
B M W Med Tec,7018 Fairfield Business Dr,Fairfield,OH,45014,513-682-4010
C & H Trucking,7190 Root Road,N Ridgeville,OH,44039,N/A
Dew Trucking,332 Adelite Ave,Dayton,OH,45408,937-837-7318
C A Wolfe & Sons Transportation,87775 New Rumley,Jewett,OH,43986,740-946-3305
Dec Trucking,2435 Kenyon Avenue Nw,Massillon,OH,44647,330-833-0358
Pepperidge Farm Distributor,7306 Erie St,Sylvania,OH,43560,419-882-8891
Drycleaning Operations,3401 Woodville Rd,Northwood,OH,43619,419-697-2782
Blw Trucking,5537 St Rt 128,Cleves,OH,45002,513-738-5242
"Dct Logistics, Inc.",23371 Michelle Drive Unit A,Bedford Heights,OH,44146,440-786-2846
Keystone Automotive Industry,2831 Stanton Ave,Cincinnati,OH,45206,513-961-5500
Daubenmire Auto Parts,30946 Hide-a-way Hills Road,Logan,OH,43138,614-569-4566
C & B Trucking,State Rt 3 Box 117,Albany,OH,45710,614-669-7302
Eigner Transportation,12669 Sr 88,Garrettsville,OH,44231,330-527-2558
Ginnever Bros Trucking,1761 Sr 412,Fremont,OH,43420,419-332-5718
Hot Rods Classic Truck Parts,9625 Milton Carlisle Rd,New Carlisle,OH,45344,937-845-1966
"T And T Transport, Inc.",999 Gultice Rd,Xenia,OH,45385,937-266-8104
Smokey's Delivery Service,134 South Main St,New Athens,OH,43981,614-968-4813
R D Trucking,111 Regency Ct,Covington,OH,45318,937-470-0488
Tlt Trucking,201 Third St Apt 11,Fairport Harbor,OH,44077,440-639-9617
Encore Express,7340 Steppingstone Place,Middletown,OH,45044,513-777-4205
Ricker Trucking,202 Fairview Road,Jackson Center,OH,45334,937-596-6031
Mc Carthy Trucking,8356 Indian Mound Rd,Huber Heights,OH,45424,937-233-6946
Ronald Dykes Trucking,6421 Lake Run Ct,Hamilton,OH,45011,513-470-7424
Westwood Auto Parts,130 S Westwood Ave,Toledo,OH,43607,419-535-1116
Smart Delivery Service,4030 Mt Carmel Tabasco Rd 307c,Cincinnati,OH,45255,513-304-1357
B & V Blevins Trucking,5371 St Rt 320,New Paris,OH,45347,937-437-8012
Jnp Trans,3525 Olde Winter Trail,Poland,OH,44514,330-707-9115
Accent Signs,6610 Corporate Drive,Blue Ash,OH,45242,513-489-7744
Butler Trucking,751 County Rd 5,Adena,OH,43901,614-769-2010
Archbold Agri-services,21450 Co Rd J,Archbold,OH,43502,419-445-0446
Lee S Trucking,25 Clay Street,Wheelersburg,OH,45694,614-446-8677
G Morales Trucking,282 Kremer Hoying Rd,St Henry,OH,45883,419-678-3622
Blancato's Wood Products,9350 County Rd 39,Bloomingdale,OH,43910,740-543-4079
Hamilton Construction Service,1031 Eaton Ave #4,Hamilton,OH,45013,513-868-7527
Jones Trucking Co,1373 Hazelgrove Dr,Cincinnati,OH,45240,513-825-4804
Buroker Trucking,3260 Pisgah Road,Urbana,OH,43078,937-869-0240
T&m Express,4265 Tr 271,Millersburg,OH,44654,330-674-3863
One World Trucking,4328 Woodlawn Drive,Beavercreek,OH,45430,972-636-9995
Jts,1640 W 47th Street,Ashtabula,OH,44004,440-992-2656
Cellserve,5170 Belmont Ave ,Youngstown,OH,44505,330-759-8404
D & G Mobile Home Movers,11130 Bond Rd,Harrison,OH,45030,513-367-4106
North Coast Expedited,6909 Engle Rd # A 10,Middleburg Hts,OH,44130,440-239-1150
A&m Trucking,6893 Waterloo Rd Apt # 10,Atwater,OH,44201,330-947-0445
Veteran Enterprise Trucking,9666 Ridge Ave S E,East Sparta,OH,44626,330-866-3501
Elmirage Express,8-594 Cr G Route 1,Hamler,OH,43524,419-274-7094
J R Trucking,1829 Richard Dr,Mansfield,OH,44905,419-589-4058
Apsi,2620 Centennial Rd #h,Toledo,OH,43617,419-841-3676
Blue Mule Trucking,14274 Sousa Street,North Lawrence,OH,44666,330-854-9605
C D Warner Trucking,91 E 83rd Drive,Denver,OH,43209,303-288-1326
Wt Carriers,2457 Hamilton Ave,Columbus,OH,43211,201-798-4002
Lady Faye Trucking Co,6003 St Rt 235 N,Conover,OH,45317,937-362-4769
Compass Delivery,2124 Needmore Road,Vandalia,OH,45377,937-277-3611
Campbell Farms Trucking,8751 Allen Rd,Hillsboro,OH,45133,937-393-9796
Mark R Lewis Trucking,Waterworks Road,Hopedale,OH,43976,740-937-2350
N B Transport,2624 Washington Ave,Cincinnati,OH,45231,513-851-5354
M P S Trucking,3673 Ostrander Rd,Ostrander,OH,43061,419-563-4237
Duke Trucking,Po Box 307222,Gahanna,OH,43230,614-471-5579
Howard Conley Trucking,1272 Sherborne Rd,Lucasville,OH,45648,740-820-8996
Green Steel Service Center,9405 Futura Pkwy,Tipp City,OH,45371,937-454-9020
"D & D Trucking, Inc.",11823 State Route 113,Florence,OH,44814,440-965-5739
Beavers Trucking,2444 St Rt 48,Lebanon,OH,45306,513-422-7249
"Jd Swift, Inc.",28309 Lincoln Road,Bay Village,OH,44140,440-892-7788
M Hill Trucking,24 Eden Street,Attica,OH,44807,419-426-8020
Clint Perry Transportation,514 N Uhrich Street,Uhrichsville,OH,44683,330-987-5463
G S Cross Country X-press,12541 Cr N,Wauseon,OH,43567,419-923-3005
Michaels Trucking,4974 South Street,Somerdale,OH,44678,330-365-1250
Flatbed Service & Salvage,3496 Woodbine Ave,Hubbard,OH,44425,330-534-8326
Amish Country Farms LLC,8414 Fishler Dangler Rd,Union City,OH,45390,937-968-3483
Northstar Leasing,19 Heritage Dr,Tiffin,OH,44883,419-448-0452
"Jackson's Trucking, Inc.",6068 Crown Rd Nw,Dover,OH,44622,330-602-4631
R S Express,2222 Melrose Drive #112,Wooster,OH,44691,330-264-1456
"Diamond Moving & Storage, Inc.",17851 Englewood Dr Suite F,Middleburg Hts,OH,44130,440-891-4367
Laird & Sons Trucking,6250 Stearns Rd,North Olmstead,OH,44070,000-004-4070
One Guy One Truck,1040 Peony St Nw,Hartville,OH,44632,330-414-9733
B & B Dispatch Services,456 Warwick Lane,Pickerington,OH,43147,614-834-3460
Rjs Trucking,6989 Co Rd K,Delta,OH,43515,419-822-4512
B W Wright,4433 Old Springfield Rd,Vandalia,OH,45402,937-264-0400
Stephenson Transport Service,2986 State Route 131,Hillsboro,OH,45133,937-288-2801
Rudy's Shuttle Service & Tours,1129 Orlando Avenue,Akron,OH,44320,330-867-4439
Action Express,250 Greenwell Ave,Cincinnati,OH,45238,513-922-7205
Schaeffer Transport,912 Johnson Plank Rd,Warren,OH,44481,330-372-2769
Joint Trucking,5929 Heritage Knoll,Fairfield,OH,45014,513-829-2789
R & R Transport,3713 W Enon Rd,Yellow Springs,OH,45387,937-767-7161
Bears Mobile Homes Service,989 Township Rd 309,Chesapeake,OH,45619,740-867-4161
Hooper Trucking,711 N 2nd St,Dennison,OH,44621,740-922-6882
Southern Ohio Rapid Delivery,6628 W Third St,Dayton,OH,45425,937-835-5382
Black Eagle Transfer Company,1753 West Prospect Road,Ashtabula,OH,44004,440-992-2156
B & J Mobile Home Service,6923 C R 189,Millersburg,OH,44654,330-674-7723
Hall Trucking,Rt 1 Box 516,Minford,OH,45653,740-820-3252
Adonai Trucking,2870 Ambarwent Rd,Reynoldsburg,OH,43068,614-501-1545
Interstate Express,4180 Eastern Rd,Doylestown,OH,44230,330-658-2627
Corporate Haulers,1220 Chase St,Cincinnati,OH,45223,513-681-9000
Newsome Trucking,1346 E 26 Ave,Columbus,OH,43211,614-299-9551
Patterson Trucking,1207 Church St,Syracuse,OH,45779,740-992-2646
Mr C's Charter Service,Court Street,Youngstown,OH,44501,330-747-1311
Mccann Construction Co,6491 Beechwood Lane,Hillsboro,OH,45133,937-393-8977
Boring Trucking,10814 Twp Rd 390b,Thornville,OH,43076,740-246-6793
Easterly Farms,2334 Graustark,Wooster,OH,44691,330-695-9904
Kan 2 Trucking,8958 State Road 218,Crown City,OH,45623,740-256-6236
Trk Trucking,3674 Pleasant Rd,Hillsboro,OH,45133,937-466-9263
Turner Transportation,910 Park Avenue East,Mansfield,OH,44905,419-589-8321
Combs Trucking,140 Township Rd 1069,South Point,OH,45680,304-544-7099
J S Horse Farm,13914 Mt Eaton Rd,Doylestown,OH,44230,330-715-0363
Mitchell Transport & Garage,320 London Rd Space 601,Delaware,OH,43015,740-369-8381
R Davis Trucking,2764 Moore,Toledo,OH,43608,419-255-1952
E & E Trucking,865 Township Rd 221,Proctorville,OH,45669,740-886-6147
"Rjr And Associates, Inc.orporated",14320 Sr 511,Oberlin,OH,44074,216-319-6092
R & R Trucking,205 N Johnson St,Wapakoneta,OH,45895,419-738-9877
Oop's Transfer,3475 St Rt 571 W,Greenville,OH,45331,937-316-6099
Rebel Trucking,6542 Putnam Dr,Circleville,OH,43113,614-477-6778
S J Rupe Transport Service,1203 Chateau Ct,Findlay,OH,45840,419-424-1799
Quikpro Express,700 Morse Rd Ste 200,Columbus,OH,43214,614-888-6164
Butler Express Delivery,136 East Second Street,Girard,OH,44420,330-545-4481
Hissam Transport,362 Jessamine St,Zanesville,OH,43702,740-455-3900
Cardinal Express Delivery,5135 Grandin Ridge Rd,Hamilton,OH,45011,502-962-5224
Ararat Express,8897 Walnut Street,West Chester,OH,45069,513-777-4007
Shery's Express,P O Box 26102,Akron,OH,44319,330-785-4408
Pk Moving Services,9507 Maple Dr,Loveland,OH,45140,513-583-0747
Sanchez Trucking,174 Gibbons Street Apt B,Toledo,OH,43609,419-385-7980
"Koglman Trucking, Inc.",12669 Oberlin Rd,Oberlin,OH,44074,440-336-2746
Steve's Mobile Home Services,1241 Goose Cr Rd,Wheelersburg,OH,45694,740-574-6362
Gary Dewine Distributing,625 E Main St,Springfield,OH,45503,937-323-3757
Johnson Tool Distributors,4240 Old Columbus Rd,Carroll,OH,43112,740-756-9202
Jody's Specialized Freight,32 South Cross St,Columbiana,OH,44408,330-482-2791
Rick's Trucking,902 Solida Road,South Point,OH,45680,740-894-0097
"B Maks Trucking, Inc.orporated",3276 Co Rd 5,Delta,OH,43515,419-822-3655
Able Express,3481 State Rt 82,Newton Falls,OH,44444,330-898-6855
Dynasty Transport & Recovery,2004 Commercial Ave,Mingo Junction,OH,43938,740-535-1410
Jlm Trucking,6299 Janice Place,Dayton,OH,45414,937-581-8156
Eagle Freight,6811 Carnegie Avenue,Cleveland,OH,44106,216-881-2737
Clark & Sons Trucking,126 Jefferson St,Dexter City,OH,45727,740-783-2307
Homer's Trucking,555 Sports Street,Fairborn,OH,45324,937-878-8691
Journey,24329 U S Highway 224,Fort Jennings,OH,45844,419-453-3933
P & M Trucking,Rt #1 Box 31a,Flushing,OH,43977,740-968-6098
J & G Sales,324 W Laskey Rd,Toledo,OH,43612,419-476-7771
R L Global Services,600 Gillam Rd,Wilmington,OH,45177,937-382-1494
Dietz Transport Services,6203 Pamela Court,Brook Park,OH,44142,440-239-9982
H S E Trucking,72143 Cooper Rd,Radcliff,OH,45695,740-669-0603
Patterson Trucking,Po Box 453 3rd St,Racine,OH,45771,740-949-1022
Jackson Trucking,3503 N Erie St,Toledo,OH,43611,419-729-4233
L J Dirksen Trucking,5269 Hunter Rd,Greenville,OH,45331,937-548-9290
"Tdj Transportation, Inc.",339 Janicrest Place,Galloway,OH,43119,614-216-6130
Michael Nicely & Son Trucking,6566 Abingdon Hall,Morrow,OH,45152,513-899-9054
Baise Trucking,5220 S Pitchin Rd,Springfield,OH,45502,937-265-5043
Courier Plus Delivery Service,265 Ken Mar Industrial Parkway,Broadview Heights,OH,44147,440-838-4418
Dailey Trucking,34480 C Rockspring Rd,Pomeroy,OH,45769,740-992-2313
D H Trucking,4495 Helen Dr,Columbus,OH,43232,614-837-4675
Twc Trucking,2520 Dogwood Ridge,Wheelsburg,OH,45694,704-532-1144
Keller Trucking,628 Essman Sugar Camp Rd,South Webster,OH,45682,740-778-7206
Basham Trucking,71461 Old 21st Rd,Kimbolton,OH,43749,740-255-5502
Loys Trucking,8645 E 50 N,Ft Recovery,OH,45846,260-726-7460
Imperial Acres Automotive Data,12201 Old Columbus Rd,South Vienna,OH,45369,937-568-0043
Dolittle Truckin,65 Spring Street,Newark,OH,43055,740-323-1716
Meteor Express,6011 Meteor Avenue,Toledo,OH,43623,419-475-6004
Brothers & Brothers Trucking,908 A Chatham Lane,Columbus,OH,43221,614-451-8840
Gibbons Maintenance Service,3031 Mulberry,Toledo,OH,43608,419-727-8146
Milk Wagon Transport,10414 Boyds Corner Rd Nw,Massillon,OH,44647,330-832-4662
Al-haiany Transport,684 Riverview Ste 90,Columbus,OH,43202,614-261-1131
Harmon Trucking,1104 Oak Hill Rd,Cutler,OH,45724,740-525-1892
Alan Peters Trucking,1318 Sr 603,Ashland,OH,44805,419-281-5230
Myron Trucking,7184 State Rt 345 Ne,New Lexington,OH,43764,740-342-4000
R Guenther Trucking,3985 Krause Lane,Hamilton,OH,45014,513-738-1964
E D Brown's Transport,1932 Stateline Road,Fort Recovery,OH,45846,765-621-3885
Griffith Trucking,289 5th St,Clarksville,OH,45113,937-289-4055
Nick Byers Trucking,2235 Measley Ridge Rd,Peebles,OH,45651,937-587-3366
Marshall Trucking,16693 St Rt 152,Toronto,OH,43964,740-544-5799
Dependable Movers,3200 West 65th St Suite 106-a,Cleveland,OH,44102,216-961-8520
Dynatek,5170 Belmont Ave,Youngstown,OH,44505,800-838-3224
J B Reliable Transport,7413 Dartworth Dr,Parma,OH,44129,330-461-6199
Johnston Trucking,14230 Sr 38,Sedalia,OH,43151,740-874-9466
Independent Crusher Service,7265 Seville Road,Seville,OH,44273,216-389-7329
Smith Transit & Recovery Service,5200 E Messner Road,Apple Creek,OH,44606,330-698-0529
Top Dog Transport,4560 Alps Court,Gahanna,OH,43230,614-471-5369
J M C Trucking,3583 West 98th Street,Cleveland,OH,44102,216-310-2154
Reynolds Brothers Trucking,3075 E State Route 55e,Troy,OH,45373,937-339-4048
Nagy Equipment Sales,1444 Lima Avenue,Findlay,OH,45840,419-422-5555
Canter Express,6310 Cheviot Rd Apt 4,Cincinnati,OH,45247,513-471-6492
Pat's Blacktop Service Bay Area Sealcoating,205 N Lallendorf Rd Unit B,Oregon,OH,43616,419-697-1879
Diamond T Transport,Po Box 371,Baltic,OH,43804,419-427-1067
American Van & Storage,18601 Cleveland Pkwy Drive,Cleveland,OH,44135,216-265-7500
Lohr Transport,4869 Trudy Lane,Hamilton,OH,45013,513-738-8789
Light Excavating,3273 Ebenezer Rd,Cincinnati,OH,45248,513-922-2453
Conex Continental Express,43d New Garver Rd,Monroe,OH,45050,877-291-8665
Transauto,1566 Ruth Avenue,Cincinnati,OH,45207,513-281-1680
We'll Go Get Em Transit,1061 Lyden Avenue,Youngstown,OH,44505,330-743-0911
Shawn Williams Trucking,9594 Homestead Dr,Franklin,OH,45005,513-743-8799
Watson Truckline,12158 Seaford Drive,Cincinnati,OH,45231,513-851-4132
Ag Express,7021 So Charleston Clifton Rd,South Charleston,OH,45368,937-462-7590
A C E Trucking,4453 Middle Road,Conneaut,OH,44030,440-594-1479
"Petrich, Moving, Services LLC",584 E6th St,Salem,OH,44460,330-277-8428
T & T Construction Thomas Express,204 E Thrush Avenue,Crestline,OH,44827,419-683-4228
Craters & Freighters Of Toledo,757 Warehouse Rd Ste F,Toledo,OH,43615,419-385-2520
P & T Express,513 Cliff St,Ironton,OH,45638,740-533-3298
Plantation Valley Transport,5857 Free Soil Road,Georgetown,OH,45121,937-375-6911
Char Trucking,21700 Lingrell Road,West Mansfield,OH,43358,937-982-3352
Spud Smith,830 Mobile Drive,Zanesville,OH,43701,740-450-2469
Laudick Trucking,210 N Jefferson St,Delphos,OH,45833,419-692-5617
O'dell Trucking,5667 Cotton Run Road,Trenton,OH,45067,513-726-4008
Md 50 50 Express,427 Kenwood Lane,Trenton,OH,45067,513-988-9855
Lorenzen Transportation Service,6631 Hill Ave.,Toledo,OH,43615,419-340-6169
Short Hauling,05321 County Rd 25,Archbola,OH,43502,419-446-2950
"Thompson And Brautigam Trucking Co, Inc.",615 North Oak Avenue,Sidney,OH,45365,937-492-6562
Unicorn Express,639 Virginia Avenue,Franklin,OH,45005,937-746-6377
Jeffs Mobile Home Transport,16283 C R G,Bryan,OH,43506,419-636-0495
D & T Trucking,Lot 17 E Paris Ct Poplar St,St Paris,OH,43072,937-663-4158
A 1 Cargo & Courier Service,509 N Vandemark Rd,Sidney,OH,45365,N/A
Wilson Trucking,846 County Rd 24,Ironton,OH,45638,740-532-7046
Morris Trucking,4082 Alaska Ave,Norton,OH,44203,330-620-2803
