Company Name,Street Address,Address Locality,Address Region,Postal Code,Telephone
Viktory Trucking,311 Elm St,Woonsocket,RI,02895,401-632-0339
Almeida Transport,1600 Elmwood Avenue,Cranston,RI,02910,401-641-5616
Tmx Transportation,1701 Smith Street Apt 208,North Providence,RI,02911,401-663-0266
Edc Trucking,575 Academy Avenue,Providence,RI,02908,401-265-0960
Pena Distribution,341 Webster Avenue,Providence,RI,02914,401-419-6701
Latham Trucking,38 Easy Street,Wakefield,RI,02880,401-789-7797
Friendship Utilities,425 Angel Street,Providence,RI,02906,401-572-3800
Jeff Botelho Distributors,35 Cole Street,East Providence,RI,02914,401-215-8353
Dur-t-as Trucking,4610 Post Road Apt 15,East Greenwich,RI,02818,216-333-4566
Areli Independant Delivery,43 Star St,Pawtucket,RI,02860,401-725-3789
Sandoval Trucking,12 Montrose St,Providence,RI,02908,401-588-4390
Jra Trucking,55 Leaf St,West Warwick,RI,02893,401-828-6534
Grajeda Trucking,129 Julian St,Providence,RI,02909,401-241-3715
Diaz Transport,17 Garrity St,Pawtucket,RI,02861,401-722-0019
White Line Express,2074 Smith Street Apt 803,North Providence,RI,02911,401-574-6239
Providence Cargo Express,139 Baker Street,Providence,RI,02905,401-383-5122
Advanced Distribution & Warehousing,582 Great Road,North Smithfield,RI,02896,401-767-1773
Rpm Transportation,22 Edith Street,Cumberland,RI,02864,401-692-2288
Benjamin W Stanley Jr,106 Urnma Drive,Cranston,RI,02920,401-467-2693
Elegante Limousine LLC,32 Maribeth Drive,Johnston,RI,02919,401-521-5428
Bruce Cronkite Trucking,62 Lady Slipper Drive,Charlestown,RI,02813,401-595-1240
Latino Discount Distributor,243 Webster Avenue,Providence,RI,02909,401-270-9658
Jess Auto Removel,36 Absalona Hill Rd,Glocester,RI,02814,401-639-9398
Avila Equipment Services,24 Oak Hill Rd,Pascoag,RI,02859,617-947-8319
Gbs,719 River St,Woonsocket,RI,02895,401-762-2880
Sagittarius Transportation,90 Lyon Avenue,East Providence,RI,02914,401-241-9789
Dimara Transportation Services,35 Vaughan St,Providence,RI,02904,508-233-0188
E Whitford Plumbing Service,803 Ten Rod Road,Exeter,RI,02822,401-824-6698
Smoove Moving Compny,1173 Smithfield Avenue,Lincoln,RI,02865,401-241-9656
Rivers Edge Trucking,11 Industrial Lane,Johnston,RI,02919,N/A
Jac Express,628 Park Ave Suite 2e,Cranston,RI,02910,401-461-4177
Steel Transporters,98 Park Avenue,Warwick,RI,02889,401-738-4815
Varela Transport,193 Summit St,Pawtucket,RI,02860,401-305-8161
Trident Services LLC,200 Sweet Avenue,Pawtucket,RI,02861,401-290-7738
Carrier,291 Rand St,Central Falls,RI,02863,305-283-5125
James Caldwell And Son Trucking,300 Dry Bridge Road,North Kingstown,RI,02822,401-639-7949
Reis And Sons Services,909 Wampanoag Trail,East Providence,RI,02915,401-569-5077
Northern Rhode Island Trucking,43 Homecrest Avenue,North Smithfield,RI,02896,401-767-2244
Leatherbee Autobobile Sales & Service,1250 East Main Road,Portsmouth,RI,02871,401-683-6455
J&j Express,281 Admiral Street Suite B,Providence,RI,02908,401-837-3651
J & K Trucking,62 Pomona Street,North Smithfield,RI,02896,401-769-5118
J N A Trucking,172 Walnut Street,East Providence,RI,02914,401-473-5787
"Jo Demers Food Services, Inc.",171 St Augustin St,Woonsocket,RI,02895,401-769-5400
Lima & Sons Disposal Service,130 Arlington Street,East Providence,RI,02914,401-996-6333
Denron Heating Service,310 Wallum Lake Road,Pascoag,RI,02859,401-568-9071
Atlantic Coast Marine Transport,1144a Curtis Corner Rd,Wakefield,RI,02879,401-284-2155
Mccoy Distribution,160 Cornell Road,Tiverton,RI,02878,401-624-1314
Odalys Trucking,16 Curtis Street #3,Providence,RI,02909,401-569-9986
L A D Services,55 Harris Avenue,Lincoln,RI,02865,401-487-5118
J & M Mower Sales & Service,137 Newell Ave,Pawtucket,RI,02860,401-725-8223
"J&l Trans, Inc.",63 Merle St,Warwick,RI,02889,401-489-9478
K&s Trucking,90 Red Maple Terrace,North Kingstown,RI,02852,401-295-8938
V T L Trucking,485 Public Street,Providence,RI,02907,401-533-9646
Drl-transport Company,27 Clair Avenue,Tiverton,RI,02878,401-487-8501
Uc Distributors,185 Princeton Avenue,Providence,RI,02907,401-226-7616
Harold Valle,20 Park St,Johnston,RI,02919,401-688-4284
New England,35 Prosper St,Providence,RI,02904,617-548-1286
Severino's Transport,27 Atlantic Avenue,Providence,RI,02907,401-270-7670
Blanco Express,100 Trask Street,Providence,RI,02907,401-499-2444
"Hernandez Transportation, Inc.",379 Central Street Apartment I,Central Falls,RI,02863,401-663-7903
Walkers Skidsteer Services,490 Klondike Rd,Charlestown,RI,02813,401-322-1908
Varela Delivery Services,204 East St,Pawtucket,RI,02860,N/A
Trans Load America Providence LLC,1 Dexter Road,East Providence,RI,02914,401-438-3000
Jusmar Trucking,38 Morgan Avenue,North Providence,RI,02911,401-233-3274
God Is Power Express,745 Hartford Ave,Johnston,RI,02919,401-432-7854
G & J Trucking,7 Colwell Road,Harrisville,RI,02830,401-568-7658
Wakefield Trucking,1370 Curtis Corner Road,Wakefield,RI,02879,401-789-3469
P&l Trucking,129 Hedley Ave,Johnston,RI,02919,401-286-9483
Aamco Transmissions,85 Cypress Street,Warwick,RI,02888,401-781-1700
Ppa Trucking,64 66 Gallatin Street 1 Fl,Providence,RI,02907,401-225-6723
Standard Transportation And Equipment LLC,95 Rome Avenue,Warwick,RI,02886,401-578-0432
P J Russo Trucking,10 Colwell Drive,Johnston,RI,02919,401-231-6723
"C A P Transportation, Inc.",35 Dolly Pond Road,Exeter,RI,02822,401-295-5224
Ri Repossession And Recovery,21 Sunnyside Avenue,Johnston,RI,02919,401-270-8905
Sousa Trucking,16 Hillside Road,Portsmouth,RI,02871,401-683-2614
Tpb Distributing,63 Pine Hill Road,Johston,RI,02919,401-647-0591
Quonset Transportation Services,147 Sedgefield Road,North Kingstown,RI,02852,401-295-0400
Wardog Trucking,35 Mountaindale Road,Smithfield,RI,02917,401-465-2231
No Limit Moving And Home Delivery,90 Calder Street,Pawtucket,RI,02861,401-617-9396
Difazio Trucking,89 Tweed St,Cranston,RI,02920,401-301-5349
"Od Transport, Inc.",62 Pershing Street,East Providence,RI,02914,401-435-4863
Team V Transport,50 Mill St,Cumberland,RI,02864,401-723-7755
John P Hornig Jr,11 Clinton Street Apt 2,Pawtucket,RI,02861,401-226-3733
Delivery Pros,59 Clark Ave,Pawtucket,RI,02860,401-527-9963
Quality Warehouse And Distribution,12 Chapmans Avenue,Warwick,RI,02886,401-739-0007
Mdm Transport,1314 Bulgarmarsh Rd,Tiverton,RI,02878,401-635-8230
Gcc Moving,690 Devilsfoot Road,North Kingstown,RI,02852,401-932-1965
Woods Septic Services And Trucking,2 Wood Lane,Little Compton,RI,02837,401-592-0047
S&r Logistics,4 Central St,West Warwick,RI,02893,401-615-0916
Kyle Welchman Removal & Delivery,13 Ocean Dr ,L Compton,RI,02837,774-930-3429
A Sorel & Sons Trucking,37 Pershing Avenue,Tiverton,RI,02878,401-624-2405
"Orellana Trucking, Inc.",464 Eddie Boling Hwy,North Misfield,RI,02896,401-787-1888
Bjp Trans,4 Penel Drive,West Warwick,RI,02893,401-828-3155
Ma Ricci Plowing & Trucking,1441 Scituate Avenue,Cranston,RI,02921,401-942-0052
Rms Trucking,10 Yuro Street,East Providence,RI,02915,401-437-2206
L N Transportation,21 Heywood Lane,Johnston,RI,02919,401-226-7978
Bmc,148 Bernon Street,Woonsocket,RI,02895,781-696-6799
"Carmen's Transportation, Inc.",359 Juniper Street,East Providence,RI,02915,401-524-8043
O'brian Warehousing & Logistics,66 Stamp Farm Rd ,Cranston,RI,02921,401-737-0432
Rq Trucking,151 Parade Street,Providence,RI,02907,401-274-1002
Andrew R Jones,573 Main Avenue,Warwick,RI,02886,401-737-1198
Wolf Rock Trucking,327 Arcadia Road,Hope Valley,RI,02832,401-385-9847
D A Campano Trucking,179 Betty Pond Road,Hope,RI,02831,401-822-4551
Tonya's Trucking,204 Mattity Road,N Smithfield,RI,02896,401-413-5458
Epa Transportation LLC,273 Princess Avenue,Cranston,RI,02920,401-641-9956
Mad Transportation,828 Broad St,Providence,RI,02907,401-270-5442
Mjlogistics,122 West Avenue Apt 1,Pawtucket,RI,02860,617-466-2147
Lombardo's,1 Penta,West Warwick,RI,02893,140-182-3746
Vasquez Electro Auto,6 Heath Street,Providence,RI,02909,401-419-8339
Matos Trucking,181 Fountain St,Pawtucket,RI,02860,401-723-9876
Lj Heavy Hauling And Rigging,522 Jefferson Blvd,Warwick,RI,02886,401-681-4500
D G F Trucking,185 Sawmill Rd ,Chepachet,RI,02814,401-780-6763
Lightening Express,1478 Atwood Avenue,Johnston,RI,02919,401-294-7940
Wager Trucking,1064 Narragansett Parkway,Warwick,RI,02888,401-463-9943
Triangle Transport,1 Martha Road,North Smithfield,RI,02896,401-766-2690
Top Shelf Distribution,178 Old Plainfield Pike,Scituate,RI,02857,401-647-5687
Delivery Service,100 Pinegrove Street,Rumford,RI,02916,401-434-3760
Chauffeur Service Of New England,65 Macarthur Blvd,Coventry,RI,02816,401-265-7867
J T M Trucking,31 Star Street,Pawtucket,RI,02860,401-486-9080
Post Road Auto Care,82 Evergreen Avenue,Warwick,RI,02888,401-738-3500
Wgw Transportation,287 School Street,North Kingstown,RI,02852,401-886-4435
E T Forrest Trucking,41 Nate Whipple Hyw,Cumberland,RI,02864,401-405-0030
A Property Services,181 Ausdale Road,Cranston,RI,02910,401-944-8046
Rhodes Transportation,13 Hindle Drive,Hopkinton,RI,02833,401-377-0083
Tiny Trucking,25 Cherry Brook Avenue,North Smithfield,RI,02896,401-766-2816
Angels Trucking,13 Mathew Street,Providence,RI,02908,401-389-7430
B J Mcmanus Truckiing,240 High Street,Cumberland,RI,02864,401-729-4426
Davis Trucking,11 S Angell Street #166,Providence,RI,02906,N/A
Frank And Freda Trucking,157 East Shore Drive,Exeter,RI,02822,401-397-9555
"Rd Tomlinson Trucking, Inc.",1021 Kingstown Road,Wakefield,RI,02879,401-788-9837
J & J Auto Transport,420 Hammet Rd,Coventry,RI,02816,401-392-3286
Robert E Esty Jr Trucking,17 Wood Road,Wyoming,RI,02898,401-440-9988
Ralphs Automotive,540 Fieldville Road Box 12,Claville,RI,02815,401-647-3862
Fig Trucking,699 Church Ave A203,Warwick,RI,02889,401-480-3388
L Thompson Trucking,94 Rock Hill Road,Johnston,RI,02919,401-647-3978
Danny Payne Trucking,39 Plain Street,Pawtucket,RI,02860,401-725-0318
Nelligan Truck Leasing,125 Woonsocket Hill Road,North Smithfield,RI,02896,401-765-5551
L And S Trucking,100 Sandra Lee Lane,Tiverton,RI,02878,401-624-3542
Bakery Distribution,165 Woohaven Road,Woonsocket,RI,02895,401-762-2264
"Randy Johnson, Inc.",99 Dighton Avenue,Portsmouth,RI,02871,401-683-7467
J B Trucking,23 Rockway Street,East Providence,RI,02914,401-640-2931
Network Delivery & Distribution,66 Commercial Way,East Providence,RI,02914,800-966-2151
Z B Service,11 Johnson Street,Warren,RI,02885,401-247-1197
Gabway Transportation,224 Pleasant Stret,Providence,RI,02903,978-532-2167
Fisk Trucking LLC,49 George Washington Hwy,Clayville,RI,02815,401-647-4800
Mike's Transporting,61 Barrett Avenue,North Providence,RI,02904,401-353-5271
Heritage Auto Transport,18 Jullian St,Esmond,RI,02917,401-487-7201
Rob Custom And Accessories,51 Cole Street,Warren,RI,02885,401-247-1071
Checker Cab,71 Derry St,Providence,RI,02908,401-944-2000
Jerry Powers Distributor,108 Fern Way,Tiverton,RI,02878,401-624-8670
Csp Trucking,8 Almond Dr,Johnston,RI,02919,401-764-0114
Limousine Transportation Service,22 Manchester St,Bristol,RI,02809,401-474-3972
Dd Trucking & Excavating,295 Sherman Farm Road,Harrisville,RI,02830,401-568-8612
Lumpy's Trucking,1038 Main Street,Warren,RI,02885,401-247-0622
R D Morriss Trucking,104 Balsam St,Warwick,RI,02888,401-463-8261
Valley Street Auto Sales,466 Valley Street,Providence,RI,02908,401-521-7613
B P Van Gorden Service,379 Farnum Pike,Smithfield,RI,02917,401-231-7975
Mario's Trucking And Training,160 Hillcrest Avenue,Ptovifrnve,RI,02909,401-861-8074
Giardina Transport,68 Scituate Avenue,Johnston,RI,02919,401-641-3722
Frank J Beany Trucking,51 Barrows Street,Providence,RI,02909,401-944-8946
Edwards Trucking,1273 Park Avenue,Woonsocket,RI,02895,401-766-4853
A Marine Services,53 Sherry Avenue,Bristol,RI,02809,401-640-6098
"D & K Distributors, Inc.",21 Peter Street,Warwick,RI,02886,401-739-5969
Sweet Sanitation,674 B Carr's Pond Rd,East Greenwich,RI,02818,401-886-7670
Sasa Auto Sale Body And Service,550 Atwood Avenue,Cranston,RI,02920,401-946-5543
Ferrigan Trucking,637 Danielson Pike,North Scituate,RI,02857,401-647-4375
Stephen's Distributors,265 Don Avenue,Rumford,RI,02916,401-524-3387
Bill's Trucking LLC,592 Pippin Orchard Road,Cranston,RI,02921,401-368-1216
Ute Crane Service,132 B Shun Pike,Jhonston,RI,02919,401-647-5500
S & H Auto Transportation,340 Union Avenue,Cranston,RI,02909,401-942-1713
Ferretti Distributing,247 Farnum Pike,Smithfield,RI,02917,401-949-2631
R E L Service Plumbing & Heating,25 Peppermint Lane,Johnston,RI,02919,401-934-2099
East Cost Boat Hauling,32 Thornapple Rd,Narragansett,RI,02882,401-789-2518
Lem's Express,61 Sprague Avenue,Warwick,RI,02889,401-641-2827
"Paul's Auto Transport, Inc.",100 West Main Road,Portsmouth,RI,02871,401-255-6184
Lisa's Distribution,394 Cass Avenue,Woonsocket,RI,02895,401-769-3902
Faith Transport,60 Anchor ,Providence,RI,02908,401-261-7498
Michael Aldrich Trucking,164 Wilson Ave,Warwick,RI,02889,401-932-6377
Newport Yacht Transport,547 Thames Street,Newport,RI,02840,401-965-8613
Jmf Trucking,174 Warren Ave Apt 1,East Providence,RI,02914,401-265-8638
Capitol Food Distributors LLC,10 Rosario Drive,Providence,RI,02909,401-846-1100
Paul P Lindstrom Trucking,28 Randolph Street,Cranston,RI,02920,401-265-5418
D & L Trucking,612 South Main Street,Woonsocket,RI,02895,401-356-1222
Ac Transportation,99 Magill Street,Pawtucket,RI,02860,401-722-8825
Danis Transportation,115 Amaral Street,East Providence,RI,02914,401-438-8778
Vecchio Distributing,2 Pinecrest Drive,Exeter,RI,02822,401-294-7062
Mullins & Crum Moving & Storage,345 Barton Street,Pawtucket,RI,02860,401-726-4040
J & J Transportation,108 Old Pocaseet Road,Johnston,RI,02919,401-944-4005
Vinny's Trucking,806 Bulgarmarsh Road,Tiverton,RI,02878,401-624-6158
Rfs Trucking,10 Worcester Avenue,Johnston,RI,02919,401-861-0433
Robert Francis,7 Elmgrove Ave,Johnston,RI,02919,401-949-2872
Kim's Trucking,15a Sidney Winsor Road,Chepachet,RI,02814,401-949-5837
East Coast Transit & Warehouse,1 Main Street,Hope,RI,02831,401-828-0069
E Marshall And Sons Trucking,11 Bay Street,Portsmouth,RI,02871,401-683-1263
Carlton Trucking,42 Hamlet Ave,Woonsocket,RI,02895,401-639-7646
Mig Transport,90 Hopkins Avenue,Johnston,RI,02919,401-722-8716
John Kinnel,825 Pontiac Avenue,Cranston,RI,02910,401-946-7141
Louis Lafazia,1308 Atwood Avenue,Johnston,RI,02919,401-942-1476
Pacheco Distribution,181 Gould Ave,Warwick,RI,02888,202-521-1493
J & D Trucking,23 Charles Avenue,Charlestown,RI,02813,401-294-7940
Steven Rossi,5 Pond Avenue,Lincoln,RI,02865,401-725-7758
Colony Truck Center,7 Jefferson Blvd,Warwick,RI,02888,401-467-3800
Txm Trucking,39 Spring Street,Hope Valley,RI,02832,401-539-8558
Dependable Movers,34 Crowell Street,Cumberland,RI,02864,401-726-1206
Seko Worldwide,10 Ross Simons Drive,Cranston,RI,02920,401-463-3550
Borges Trucking,15 Ursula Drive,Bristol,RI,02809,401-253-9989
S And R Transport,9 Ross Simons Blvd,Cranston,RI,02920,401-463-3100
B Pandozzi Transportation,27 Dixie Road,Coventry,RI,02816,401-258-2535
M Sulfaro Trucking,20 Freitas Ln,Forestdale,RI,02824,508-922-1296
Forth Transportation,161 Commonwealth Avenue,Warwick,RI,02886,401-641-3340
Native American Transport,30 Wauregan Drive,Warwick,RI,02888,401-463-3373
Bjb Trucking,59 Bourne Ave,Tiverton,RI,02878,401-624-9735
C K Tall Transport,1338 Snake Hill Road,Chepachet,RI,02814,401-568-8779
Hector Payano,334 Carpenter Street,Providence,RI,02909,401-831-6650
"G Trans Express, Inc.",1230 Post Road #1,Warwick,RI,02888,401-941-9222
J & M Trucking,213 Inman Road,Harrisville,RI,02830,401-639-8677
Roby Express,2 Chaplin Street,Pawtucket,RI,02861,401-723-7821
Anthony Mitchell,103 Brush Hill Road,Providence,RI,02909,401-351-0831
Rfd Trucking,46 Cedar Street,Johnston,RI,02919,401-831-7799
Briggs Trucking,497 South County Trail,Exeter,RI,02802,401-295-8834
Manda Trucking,27 River Street,West Warwick,RI,02893,401-828-4401
E And M Trucking,654 Sandy Lane,Warwick,RI,02886,401-737-2744
Private Truck Of Edward Murphy,88 East Shore Road,Jamestown,RI,02835,401-425-1690
Allstate Movers,71 Erie Street,Woonsocket,RI,02895,401-766-8952
M & R Roberti Trucking LLC,791 Knotty Oak Road,Coventry,RI,02816,401-826-7969
Glenrock Transfer,106 Canonicus Rd,Narragansett,RI,02882,401-792-0944
F Rotondo Trucking,171 Corona Street,Warwick,RI,02886,401-255-9658
A&s Distributors,87 Abbott Street 2nd Fl,Providence,RI,02906,401-751-3628
Buck Hill Auto,798 Hartford Avenue,Johnston,RI,02919,401-944-6481
Cad Courier Service,72 Lexington Avenue,North Providence,RI,02904,401-354-5146
Carpet City Usa,80 Lambert Lind Highway,Warwick,RI,02886,401-732-6380
Randall Trucking,85 Wabun Avenue,Providence,RI,02908,401-351-2985
Midland Waste Services,180 Middle Road,East Greenwich,RI,02818,401-885-5096
Vito's Tow Service,936 Cranston Street,Cranston,RI,02920,401-942-0084
Ken Guilmette,800 Knotty Oak Rd,Coventry,RI,02816,401-821-2401
I F R Trucking,Po Box 403,Block Island,RI,02807,401-466-2977
Coop Trucking,54 Skunkhill Rd,Hope Valley,RI,02832,401-539-7072
"Cahoon Transport, Inc.",24 Matteson St,Coventry,RI,02816,401-821-0219
D & L Trucking,177 Pequot Ave,Warwick,RI,02889,401-738-1658
Atc Lincoln Associates,333 Washington Hwy,Smithfield,RI,02917,800-659-3353
S & L Services,2 A Houde Avenue,Hope Valley,RI,02832,401-539-7170
Scituate Auto Center,141 Danielson Pike,North Scituate,RI,02857,401-647-3885
Northend Septic Service,192 Chestnut Street,Warwick,RI,02889,401-884-1447
"M C L Trucking, Inc.",22nd Pine Tree Ln,Charlestown,RI,02813,401-364-0119
Dhs Services,520 Shake Hill Rd,N Scituate,RI,02857,401-934-0833
Michael's Service Center,128 Mt Pleasnt View Ave B-4,Cumberland,RI,02864,401-658-3283
G E Helliwell Trucking,395 Harkney Hill Road,Coventry,RI,02816,401-397-4291
Cardtrucking,31 Water Street,Johnston,RI,02919,401-943-9152
Tavares Trucking & Excavating,85 Lake Road,Tiverton,RI,02878,401-624-9561
Tri-state Automotive Warehouse,459 Washington St,Providence,RI,02903,401-751-5866
M Duffney Trucking,1800 Mendon Road,Cumberland,RI,02864,401-333-0568
Tri-town Transmissions,468 W Fountain St,Providence,RI,02903,508-399-7719
Ed Major And Son Trucking,305 Cowsett Ave # 1005,West Warwick,RI,02893,508-675-9062
Restaurant Service Co,35 Franklin St,Warren,RI,02885,401-247-1795
Frank's Trucking,4 Long Lane,Warren,RI,02885,401-245-7011
William James Eldridge Trucking,7 Old Kenyon Road,Wyoming,RI,02898,401-792-0623
R L Davis Moving And Storage,211 Potters Ave,Warwick,RI,02886,401-884-2355
S Corry Trucking,126 Massachusetts Avenue,Providence,RI,02905,401-461-8994
Auto Works Plus,22 Monterey Drive,West Warwick,RI,02893,401-822-2611
M & C Trucking,100 Church St,Manville,RI,02838,540-966-2171
"Red Rock Trans, Inc.",112 Haswill St,Warwick,RI,02889,401-738-5256
Hi Tek Enterprises,64 Lakeside Street,East Providence,RI,02915,401-265-7542
David Towing,138 Waterman Ave,Cranston,RI,02910,401-228-6074
Bank Roll Auto Transport LLC,35 Prospect St,Bristol,RI,02809,508-542-1410
F P Landscaping,11 Federal Street,Warren,RI,02885,401-247-4254
Mid-city Wholesale Signs,351 Libertty Lane,West Kingston,RI,02892,401-450-6501
Marshall Haying,163 Central St,Harrisville,RI,02830,401-258-6649
R & C Logistics,1200 Hartford Avenue,Johnston,RI,02919,401-639-7880
Cor''s Distributing,Hedley,Johnston,RI,02919,401-274-4841
Ank Trucking,16 Lockbridge Street,Pawtucket,RI,02860,401-692-6738
Db Landscape Construction,5 Chestnut,East Greenwhich,RI,02818,401-454-9356
Kfg Concrete,6 Cote Court,Coventry,RI,02816,401-269-1163
Gary J Perry Paving,45 Pequot Avenue,Warwick,RI,02889,401-739-4924
P Ialongo Building Company,169 Carpenter Street,Providence,RI,02903,401-383-5585
Cornwell Tools,54 Raccoon Hill Rd,W Greenwich,RI,02817,401-392-3603
Yankee Construction,19 West Lawn Avenue,Pawtucket,RI,02860,401-654-8976
Tiki's Auto Sales,90 Orchard Street,East Providence,RI,02914,401-640-4153
My Brothers Landscaping,85 Stansbury St,Providence,RI,02904,401-516-6661
J&d Contractors,110 Lake Drive,West Greenwich,RI,02817,401-258-2080
Maria G Debrum,90 Lyon Avenue,East Providence,RI,02914,401-241-9789
Quico Auto Repair,57 Samoset Ave,Providence,RI,02908,401-286-3101
Interstate Tree Experts,30 Mullin Hill Rd,Little Compton,RI,02837,860-391-9555
Greenwich Farms At Warwick,75 Minnesota Ave,Warwick,RI,02888,401-737-7222
"Morrone Electric, Inc.",170 Main Street,Westerly,RI,02891,401-596-2102
Destefano Auto Service And Towing,235 New Meadow Rd,Barrington,RI,02806,401-245-6919
Plaza & Son Trucking,60 Rand St,Central Falls,RI,02863,401-617-4580
Howes Recovery,41 Idian Trail,Coventry,RI,02816,401-385-3885
Soares Construction,73 Lake Ave,Tiverton,RI,02878,150-867-9413
Cmg Logistics,7 Morning Way,Cumberland,RI,02864,508-838-1928
Anthony Rego Jr Septic Service,17 Luthur Lane,Portsmouth,RI,02871,401-864-1359
Edgar Construction,123 Randall Street,Pawtucket,RI,02860,401-641-9972
H Flores Transportations,142 Pond St,Pawtucket,RI,02860,401-359-0218
"Giorgio S Gencarelli And Sons, Inc.",43 Trolley Lane,Westerly,RI,02891,401-596-2319
Flood Ford Of East Greenwhich,24 45 South Country Trail,East Greenwhich,RI,02818,401-884-4000
Mediapeel,1 Wellington Road,Lincoln,RI,02865,877-525-6334
D L P Carpentry,4 Maurice Street,Cumberland,RI,02864,401-658-2095
Mt Hope Dock Works LLC,7 Palmer Ave,Warren,RI,02885,508-674-1940
K&a Trucking,47 Bissell Street,Providence,RI,02907,401-390-9270
Ms Distributors,150 Arnold St 1st Floor,Lincoln,RI,02865,813-469-5882
American Seafood Express,1074 Eastmain Road,Middletown,RI,02842,401-595-2465
Escort Limousine Service,1 Tomahawk Trail,Cranston,RI,02921,401-946-5267
"M&g Auto Repair, Inc.",3 Hendricks St,Central Falls,RI,02863,401-727-3600
Cooper & Sons Paving,95 Boyce Ave,Pawtucket,RI,02861,401-724-6400
Trees Plus,16 Farnum Pike,Smithfield,RI,02917,401-338-9239
Munrayos Towing,139 Ophelia Street,Providence,RI,02909,401-536-2970
Island Food Service,19 Bruster Dr,North Kingstown,RI,02852,401-323-2255
Gregg's Commisary,491 Kilvert St,Warwick,RI,02886,401-738-5700
A Cairo Trucking,1903 New London Tpke,West Warwick,RI,02893,401-826-1624
H A Truck,17 Wyatt Street,Providence,RI,02905,978-828-3825
Karen Mansi,231 Child St,Warren,RI,02885,401-749-7189
St Paul Towing,195 Springs Grove Road,Chepachet,RI,02814,401-633-2810
Jnk Trucking,21 Health Avenue,Providence,RI,02908,401-632-3835
D&t Trucking Services,156 Bayview Ave,Bristol,RI,02809,401-253-8596
Boris Transportation,17 Booth Avenue,Pawtucket,RI,02861,401-572-2813
Abbmans Preservation,56 Indian Run Trail,Smithfield,RI,02917,401-228-5869
Romancing The Stone,1170 Bald Hill Road,Warwick,RI,02886,401-615-8188
Westerly Sanitation,10 Old Depot Road,Charlestown,RI,02813,401-596-7554
El Aguila,272 Pocasett Ave,Providence,RI,02909,401-301-8695
M And M Consignment,11 Comstock Parkway,Cranston,RI,02920,401-261-4448
North End Towing,38 Whipple Ave,Smithfield,RI,02917,401-243-3155
L G C Home Improvements And Masonery,365 Larchwood Drive,Warwick,RI,02886,401-263-7651
Tobey Waste & Recycling,150 Colfax Street,Providence,RI,02905,401-228-8553
Porfirio Sandoval,12 Mallard Way,East Greenwich,RI,02818,401-884-2072
A & B Towing,1 Octavie Street Apt 1,Providence,RI,02909,401-536-1809
Luis Estrada,83 South Bend St,Pawtucket,RI,02860,401-475-0377
Daniel K Read Jr,2936 Pawtucket Avenue Apt 316,Riverside,RI,02915,401-473-5242
Jones Trucking,147 Chapin Avenue,Providence,RI,02909,401-273-1067
W B Bliss Trucking,105 Bristol Ferry Road,Portsmouth,RI,02871,401-683-1767
Jose R Toro,2397 Mendon Road,Woonsocket,RI,02895,401-769-1414
T J Kell & Sons,23 Barnes Road,Harrisville,RI,02830,401-568-1445
R Vasquez Towing,219 Webster Avenue,Providence,RI,02909,401-944-4966
Liberty Towing LLC,626 Main St,Pawtucket,RI,02860,401-338-2356
Rojas Towing,33 Harlam Street,Providence,RI,02909,401-946-8907
Everlinn Trucking,3 Whispering Pines,Cumberland,RI,02864,401-692-0816
Martinez Towing,1 Henry Court,Johnston,RI,02919,401-270-0705
Green Recycling & Reuse,761 Great Road Unit 4,North Smithfield,RI,02896,401-255-3444
Abc Auto Salvage And Towing,316-b Greenville Avenue,Johnston,RI,02919,401-353-2100
Willett Ave Getty,732 Willett Ave,Riverside,RI,02915,401-433-0035
Plaza & Son Towing,96 Blackstone Street,Central Falls,RI,02863,401-639-3274
R3l's Towing,96 Blackstone Street,Central Falls,RI,02863,401-787-2754
"Breakdown Towing & Repair, Inc.",158 Chapel Street,Harrisville,RI,02830,401-568-1222
Alsco Of Providence,936 Cranston Street,Cranston,RI,02920,401-432-7104
Pitcher's Garage,2210 Post Road,Wakefield,RI,02879,401-783-7293
P&p Towing,3100 Post Road,Warwick,RI,02886,401-615-8900
Rayline Racing,26 Ridgeside Lane,Tiverton,RI,02878,401-440-6017
Merida Deliveries,33 Monticello Street,Providence,RI,02904,401-617-6330
Dream Bath,58 Wild Rose Drive,Tiverton,RI,02878,401-816-0717
Lenny's Tree Service,101 Hay St,West Warwick,RI,02889,401-447-9501
Caraudiodeals,50 Midnight Court,Saunderstown,RI,02874,866-800-9722
Williams Excavating,66 Warner Lane,Pascoag,RI,02859,401-280-0202
Treasure Island Rums And Spirits,51 Abbott Street # 1,Cumberland,RI,02864,877-500-0202
Palma Transportation,305 Langdon Street,Providence,RI,02904,401-429-8372
J & L Transport,76 Perrin Avenue,Pawtucket,RI,02861,401-724-6867
Gerrys General Maintenance,149 Sweet Ave,Pawtucket,RI,02861,401-265-0968
Cedarwood Csm,4226 Diamond Hill Road,Cumberland,RI,02864,401-333-6164
Rita Towing,336 Manton Ave,Providence,RI,02909,401-751-0918
B & C Towing & Recovery,448 Great Rd,North Smithfield,RI,02896,401-765-2757
Ar Trucking,78 Olo Street,Woonsocket,RI,02895,401-654-9630
"Ksbuilders, Inc.",167 Franklin St,Bristol,RI,02809,401-369-6383
Porter & Porter,41 Fairview Ave,Hope Valley,RI,02832,401-539-2398
Mendoza Fabrication,920 Hill Road,Pascoag,RI,02859,401-440-0764
Jkelly,33 Dean Pkwy,Cranston,RI,02920,401-954-3650
Roadrunner Logistics Group,180 Waterman Avenue,North Providence,RI,02911,401-684-1750
Jc LLC,124 Lenox Avenue,Providence,RI,02907,401-467-5500
Erick Towing,70 Capron St,Providence,RI,02909,401-451-5651
Trimax,627 Metacom Ave,Warren,RI,02885,401-688-7909
Towing,11 Lowel Ave,Providence,RI,02909,401-648-5406
Professional Delivery Services,993 Broad Street,Central Falls,RI,02863,401-287-1921
"Davenports Family Restaurant, Inc.",1070 Mendon Road,Cumberland,RI,02864,401-334-1018
Technical Maintenance,76 Main St,Ashaway,RI,02804,401-377-8355
Jbr Deliveries,41 Allard Street,Warwick,RI,02889,401-261-2029
Rhode Island Truck Rental,155 Amaral St,Riverside,RI,02915,401-640-7888
Renewal By Andersen Of Southern New England,1137 Park East Drive,Woonsocket,RI,02895,401-671-6450
Paparo Farrier Service,55 Elbow Rock Road,Chepachet,RI,02814,401-651-3282
Pjc Carrier,53 Tum-a-lum Circle,Westerly,RI,02891,860-729-2029
B J Transportation,102 Sacred Heart Ave 3 Fl,Central Falls,RI,02863,401-663-2555
Little Owl Transport,19 Patt St 1st Floor,Pawtucket,RI,02860,401-725-0898
Air Ride Transport,320 Owen Ave,Pawtucket,RI,02860,617-671-4350
The Audette Group,11 Helmsman Ave,North Kingstown,RI,02852,401-667-5884
Jmc Rental,35 Whitewood Drive,Cranston,RI,02920,508-369-1841
New England Water Conditioning,764 Nooseneck Hill Rd,West Greenwich,RI,02817,401-392-0199
Jtg Restaurant Services,59 Old River Rd,Lincoln,RI,02865,401-588-2377
Acomm Recovery,86 Vermont Ave,Warwick,RI,02888,401-437-6635
Kings Transportation,55 Robin St,Providence,RI,02908,140-132-7046
Trans Sanchez,615 Plainfield St,Providence,RI,02909,804-475-6681
S Products,63 Ardoene Street,Providence,RI,02907,401-263-8159
International Car Service & Transportation,658 Public St 3rd Fl,Providence,RI,02907,401-545-2549
Home Creations,5187 Flat River Road,Greene,RI,02827,401-862-3339
Tucker Hollow Builders,13 Tucker Hollow Road,Foster,RI,02825,401-647-5260
J&m Cash For Junk Cars,600 George Washington,Lincoln,RI,02865,401-286-5394
Indianrunnner Transport,91 Point Judith Rd,Narragansett,RI,02882,401-258-5463
Hulk's Towing,243 George Waterman Road,Johnston,RI,02919,401-603-7857
Reliable Services Ri,35 Kickapoo Run,Charlestown,RI,02813-3409,401-741-5692
Jcp Trucking,195 Danielson Pike,Foster,RI,02825,860-576-7513
Lopez & Co,22 Elder Street,Pawtucke,RI,02860,401-477-2535
Excavating Company,208 Stony Lane,Exeter,RI,02822,401-294-3317
Indie Cycle LLC,10 A Butter Lane,Charlestown,RI,02813,401-484-8838
Sab Distributions,62 Farm Drive,Cumberland,RI,02864,401-658-1697
Ictdavid Property Management,14 Branch Ave,North Smithfield,RI,02896,401-651-4046
Tru401 Transporting,222 Harrison St,Providence,RI,02907,401-919-1975
Island Car Service,0 Admiralty Dr Number E2,Middletown,RI,02842,401-855-8666
Norm's Tug & Tow,351 Liberty Lane,West Kingston,RI,02892,401-965-4999
Allen's Automotive,28 Seabury Drive,Westerly,RI,02891,401-447-0305
Jelco,53 Wood Avenue,Tiverton,RI,02878,401-624-6550
Jenkins Home Improvemnet,53 Adelaid Drive,Glocester,RI,02814,401-868-8516
Armor Sealcoating,89 Central St,Lincoln,RI,02865,401-692-0930
Paul R Doherty Builder,4 Foster Street,Barrington,RI,02806,401-486-7831
Osp Transport,338 Compass Circle Unit E-3,North Kingstown,RI,02852,401-295-0606
Cat,55 Pawtucket Ave,Rumford,RI,02916,401-489-4391
A And M Trucking,13 Edgemont Avenue,Cumberland,RI,02864,401-338-0453
Chads Quality Tree,179 Shady Valley Rd,Coventry,RI,02816,860-481-9113
Hcmc Movers,158 Magnolia Street,Cranston,RI,02910-2843,401-327-4726
Cas Transportation,326 Webster Avenue,Cranston,RI,02920-7732,401-688-3842
Event Resource Group,60 Alhambra Road,Warwick,RI,02886,401-681-4333
Oxford Motorcars,1080 Main Street,Pawtucket,RI,02860,202-521-1493
"Two Brothers, Inc.",51 Ivy Ave,Cranston,RI,02905,401-347-9272
James M Morgan,34 Old Mountain Road,Richmond,RI,02898,401-539-4262
Sams Asphalt Maintenance,95 Boyce Ave,Pawtucket,RI,02861,401-451-0066
Spiceland,1516 Newport Ave,Pawtucket,RI,02861,401-725-3686
Kcbemax Express,40 Knight St,Central Falls,RI,02863,401-692-5043
Tg Transport,60 Vine St,East Providence,RI,02914,401-487-2973
Captain Hook,157 Sowams Rd,Barrington,RI,02806,508-974-6769
Duffy Transportation,31 Scituate Farms Drive,Cranston,RI,02921,401-595-8218
Paramount Restaurant Supply,101 Main St,Warren,RI,02885,401-247-6500
Westerly Sanitation,10 Old Depot Road,Charlestown,RI,02813,401-596-7554
Allstar Insulation,19 Foch Ave,Providence,RI,02904,401-481-5075
Andrade,96 Cowden St,Central Fall,RI,02863,508-933-0917
"Cruz Logistics, Inc.orporation",1723 Chalkstone Ave,Providence,RI,02909,858-414-0428
David Benn,329 Spring Street,Rockville,RI,02873,904-599-8372
Stanley Chambe Trucking,1915 Smith Street,North Providence,RI,02911,517-507-0612
Snapon Tool Dealer,39 Frigate St,Jamestown,RI,02835,401-345-1872
Velez Car Carrier,594 Weeden Street 2nd Floor,Pawtucket,RI,02860,401-575-7121
"Avg Distribution, Inc.",402 Armistice Blvd,Pawtucket,RI,02861,401-649-9992
J And J Transport,300 Hunt St #3,Central Falls,RI,02863,401-585-0345
"Neway Transport Co, Inc.",15 Fairmount Ave,Johnston,RI,02919,401-521-2224
Western Star,105 Princess Ave,Cranston,RI,02920,202-521-1493
Sunset Stables,1 Twin River Road,Lincoln,RI,02865,401-728-7804
Superior Asphalt,93 Metacomet Ave,Rumford,RI,02916,401-481-9058
Paul Chito Carpentry,58 Forest Ave,Cumberland,RI,02864,401-723-3021
Racer's Equipment Warehouse,111 Commerce Drive,Warwick,RI,02886,401-339-8967
Pat's Pastured,830 South Road,East Greenwich,RI,02818,401-413-9770
Dream Building Craftsman,9 Detroit Ave,Warren,RI,02885,401-347-6719
Jc Transportation,202 Eastwood Ave,Providence,RI,02909,401-742-7492
Jha Transport,143 Old Great Road,North Smithfield,RI,02896,508-278-9946
Kyle James Auto Transport,81 High St,Ashaway,RI,02804,401-269-1136
J & M Trucking,441 Potters Avenue #3,Providence,RI,02907-1620,401-338-1823
Precision Firewood & Logging,785 Kings Factory Road,Charlestown,RI,02813,401-649-2827
Joseph Logistic,164 Sumter Street,Providence,RI,02907,401-536-0753
Byp And Sons,63 Summer Street,Central Falls,RI,02863,401-527-6067
Outkast Truck Sales,222 Lincoln Avenue,Warwick,RI,02888,401-921-3120
Hernandez,441 Potters Avenue - Fl2,Providence,RI,02907-1620,401-580-1170
Avanti Enterprises,7 Tara Drive,North Providence,RI,02904,401-265-5494
Itsnoda Farm,291 Kingston Road,Exeter,RI,02822,401-294-9440
Sani Kam,7 Dexter Road,East Providence,RI,02914,401-431-0411
Walter Trucking,44 Belcourt Avenue,North Providence,RI,02911,401-996-7467
Organicare,24 Sunset Avenue,Wakefield,RI,02879,401-782-6836
Alexander & Sons,23 Lane 8,Warwick,RI,02888,401-339-3076
World Class Auto & Marine Transport & Fuel Delivery,7 Mcgarry Ave,Warwick,RI,02889,401-752-9951
Rodriguez Transportation,407 Manton Avenue,Providence,RI,02909,401-464-1231
Jag Star Trucking,611 Lonsdale Avenue,Central Falls,RI,02863,401-725-4245
R And S Tranportation And Leasing,40 Maxson Hill Rd,Ashaway,RI,02804,401-377-8845
Cat Auto Logistics,55 Pawtucket Ave Bldg 3 Unit 4,Rumford,RI,02916,401-288-3837
"Bayon Market, Inc.",759 Potters Ave,Providence,RI,02907,401-941-8777
R Alba Distribution,40 Mckinley Street,Providence,RI,02907,401-749-2069
Shephards Pallet Recycling,104 Sayles St Apt #312,Woonsocket,RI,02895,401-442-0316
Wildes Trucking,44 Spring St,Wakefield,RI,02879,401-789-4647
Lonngren Shipping Co,358 Robin Hollow Rd,West Greenwich,RI,02817,401-489-1445
Patty Transportation,294 Webster Ave,Providence,RI,02909,401-641-1026
Grk Trucking,4 Carl St,Cumberland,RI,02864,401-585-6080
Naidi Transportation,860 Central Avenue,Pawtucket,RI,02861,401-365-8280
Omega Motor Express,48 Waverly St Apt 1,Providence,RI,02907,508-687-4631
The John Stevens Shop,29 Thames Street,Newport,RI,02840,401-846-0566
"Datop Sprinkler Specialists, Inc.",272 York Avenue,Pawtucket,RI,02860,401-727-2711
E & R Handyman,453 Lake Washington Drive,Chepachet,RI,02814,401-968-9080
Thomas English Muffins,149 Parkwood Drive,Kingston,RI,02881,401-782-8734
Displays2go,55 Broadcommon Road,Bristol,RI,02809,401-247-0333
Igus,257 Ferris Avenue,Rumford,RI,02916,401-438-2200
"Brico, Inc.",2541 Ministerial Road,West Kingston,RI,02892,401-789-1447
Lincoln Fine Ingredients,50 Industrial Circle,Lincoln,RI,02865,401-722-2410
Metro Honda,1880 Hartford Avenue,Johnston,RI,02919,401-553-6000
Shakoori & Son Excavation,1541 Ten Road Road,Exeter,RI,02822,401-439-3127
Lowes Home Impovement Warehouse,1530 Davisville Road,North Kingstown,RI,02852,401-267-6330
Jumpin Jupiter Inflatables,58 Preston Dr,Cranston,RI,02910,401-954-9510
Bonto's Xpress,35 Walker Ave,Lincoln,RI,02865,401-230-4705
Bautista Trucks,99 Gallatin Street,Providence,RI,02907,401-649-5926
Eric's Mobile Mechanics,114 Lyman Ave,Warwick,RI,02888,401-345-3205
Importadora N&n,77 Victoria Ave First Floor,Cranston,RI,02920,417-793-7096
Priority Auto & Marine,4 Hartman Ct,West Warwick,RI,02893,401-644-5413
Jsl Enterprise,141 Centennial Street,Pascoag,RI,02895,000-000-0000
Ne Exterior Cleaning,261 West Wrentham Rd,Cumberland,RI,02864,401-641-8415
Xri,2 Commerce Dr Airport Park,Warwick,RI,02886,401-732-4300
Vanguard Home Medical Equipment,155 Jefferson Blvd Suite A,Warwick,RI,02888,401-468-1300
Daniel Milles,20 Agnes Street,West Warwick,RI,02893,401-823-7162
Cassinos Catering,16 Atwood Avenue,North Providence,RI,02904-3605,401-595-3160
Thomas J Engelhardt,2340 Hartford,Johnston,RI,02863,401-623-6931
"Falcone Electric, Inc.",28 Sandy Pond Rd,Hope Valley,RI,02832,401-364-3391
1st Dominion Transport LLC,230 Orchard St,Cranston,RI,02910,401-780-1728
20/20 Vision Trucking Enterprise LLC,76 Ortoleva Dr Apt 1,Providence,RI,02909,401-633-4000
21st Century Environimental Management LLC Of Ri,275 Allens Avenue,Providence,RI,02905-5003,401-781-6340
"2d Transportations, Inc.",223 Laban St,Providence,RI,02909,401-616-9486
2g Logistics LLC,125 Goff Ave Apt 4301,Pawtucket,RI,02860,401-286-9197
"3 D's Trucking & Diesel Repair, Inc.",17 Columbia Avenue,Lincoln,RI,02865,401-692-6576
30thirty Trucking LLC,45 Wildwood Ave,Providence,RI,02907,401-212-7427
"33 Logistics, Inc.",22 Parsonage St # 233,Providence,RI,02903,401-932-1993
33rd Transport LLC,3 Job St Apt 2,Providence,RI,02904,857-800-6600
Transportation,261 Cowden St Fl 1,Central Falls,RI,02863,774-240-1270
3d Transport LLC,182 Reservoir Ave,Providence,RI,02907,401-241-2965
4 Corners Transport LLC,290 Oakdale Ave,Pawtucket,RI,02860,401-286-6892
4 Lima LLC,32 Campbell Ter,Pawtucket,RI,02860,401-536-1085
4 Runner Express LLC,535 Roosevelt Ave Apt M106,Central Falls,RI,02863,401-574-6145
401 Auto Transport LLC,28 Lynch Street,Providence,RI,02908,401-573-7345
401 LLC,325 Prospect St Apt 21,Pawtucket,RI,02860,401-648-1050
401 Relocation Service,198 Crescent Ave,Cranston,RI,02910,401-603-7905
401 Trucking LLC,247 Killingly St Fl 1,Providence,RI,02909,401-286-2064
4j Company LLC,815 Potters Ave,Providence,RI,02907,516-353-4431
4j Transport LLC,113 Sisson St Apt 1,Providence,RI,02909,787-359-1549
614 Investments LLC,45 Pearl Ave,N Providence,RI,02904-4524,401-226-7597
"6nz Transport, Inc.",93 What Cheer Ave,E Providence,RI,02914,401-286-3677
7 C S Express LLC,47 East Street,West Warwick,RI,02893,401-644-8457
A & E Transportation LLC,64 Bergen St Fl 3,Providence,RI,02908,401-837-7015
A & E Trucking Services LLC,40 Norfolk Street,Cranston,RI,02910-2716,401-345-2064
A & G Distribution Corp,372 Pontiac Ave,Cranston,RI,02910,305-303-9510
"A & H Trucking, Inc.",126 Gansett Ave,Cranston,RI,02910,401-780-0606
A & J Contractors LLC,281 Laurel Hill Ave,Providence,RI,02909,401-413-9395
A & Lt Transport LLC,400 Putnam Pike Ste J Pmb 253,Smithfield,RI,02917,401-255-9826
A & R Logistics LLC,60 Fairlawn Ave Fl 1,Woonsocket,RI,02895,401-663-3912
A & S Transportation Svcs LLC,82 Emmett St,Central Falls,RI,02863,401-617-3964
"A & V Transportation, Inc.",59 Locust Ave,N Providence,RI,02911,401-353-7272
A - 1 Towing And Recovery Corp,5a Eastern Ave,East Providence,RI,02914,401-808-6900
A 1 Foreign Auto Parts,79 Garden Street,Cumberland,RI,02864,401-334-2600
"A 1 Trucking, Inc.",114 Waterman Street,Est Providence,RI,02916,401-626-7633
"A A Medeiros Trucking, Inc.",857 Main Rd,Tiverton,RI,02878,401-625-5349
"A A Wrecking Company, Inc.",R-1307 Hartford Avenue,Johnston,RI,02919-7193,401-351-1188
"A Airline Express Limousine And Car Service, Inc.",164 Miner Road,Saunderstown,RI,02874,401-295-1100
A And J Hauling LLC,265 Princess Ave,Cranston,RI,02920,401-669-7504
A And J Logistic LLC,585 Public St,Providence,RI,02907,401-256-9429
A And M Auto Repair,1335 Chaulkstone Avenue,Providence,RI,02909,401-831-9950
A Andrade And Son Trucking LLC,6 Primrose Lane,North Providence,RI,02904,401-641-5561
A Baffoni Trucking,2 Caddy Street,Johnston,RI,02919,401-232-0018
A C Express LLC,83 Marion Ave,Providence,RI,02905,401-688-6172
"A C Trucking, Inc.",193 Carter Ave,Pawtucket,RI,02861,401-265-4389
A Colasante LLC,1040 Reynolds Rd,Chepachet,RI,02814,401-368-8524
Alejandro Cruz,266 Cowden St Apt 3,Central Falls,RI,02863,401-516-9432
A D E L Transportation LLC,185 Colfax St,Providence,RI,02905,786-303-4086
A E Costa Electrical Contractor LLC,171 Oakland Beach Ave,Warwick,RI,02889,401-226-7171
"A E Transportation, Inc.",861 Central Avenue,Pawtucket,RI,02861-2150,401-749-8250
A G Rigo Trucking,85 Third Beach Road,Middletown,RI,02840,N/A
"A Gervasio Excavation, Inc.",203 Bungy Rd,N Scituate,RI,02857-1007,401-258-1782
"A I Transportation, Inc.",51 Wilbur Ave,Woonsocket,RI,02895,401-766-0989
Blue Sun Super Service,165 Frenchtown Road,North Kingstown,RI,02852,401-884-7177
A J Lopez Trucking LLC,36 Amsterdam St Fl 1,Providence,RI,02909,401-347-7128
"A J Transportation, Inc.",530 Moshassuck Vly Ind Hwy,Lincoln,RI,02865,401-722-0166
"A K Crane Services, Inc.",60 Oak Grove Street,Warwick,RI,02818,401-398-1966
A M Auto Parts LLC,381 Weeden Street,Pawtucket,RI,02860,401-639-7888
A M Ground Transportation LLC,140 Gray St,Providence,RI,02909,646-209-3157
"A Masonry Company, Inc.",14 Log Road,Smithfield,RI,02917,401-231-0300
A Munrayos,137 Ophelia St,Providence,RI,02909,401-536-2970
"A P Fire Systems, Inc.",264 Central Avenue,East Providence,RI,02914,401-640-1962
"A Plus Transportation, Inc.",5 Shipyard Street,Providence,RI,02905,401-467-1299
"A R C Transportation, Inc.",204 Magnolia St,Providence,RI,02909,401-996-5526
A R Capezza Trucking,1188 Plainfield Street,Johnston,RI,02919,401-946-9251
A Salvadore & Son Construction,31 Walker Road,Foster,RI,02825,401-255-2656
"A Star Boat Haulers, Inc.",45 West Allentown Road,Kingstown,RI,02852,401-294-9662
A Star Movers LLC,329 Barton St,Pawtucket,RI,02860-2917,401-487-0546
"A Star Waste Disposal, Inc.",241 Armistice Boulevard,Pawtucket,RI,02860,401-450-2672
A T Cross Company,One Albion Road,Lincoln,RI,02865,401-335-8550
"A Tec Chimney Sweep, Inc.",4 Golden Blvd,North Smithfield,RI,02896,401-309-7137
A To Z Logistics & Transport Services LLC,183 Mineral Spring Ave,Pawtucket,RI,02860,401-226-4731
"A Towing, Inc.",733 Warren Avenue,East Providence,RI,02914,401-434-6700
A Transue Corp,1 Ocean Avenue,Block Island,RI,02807,401-466-5907
A V E S LLC,114 Dora St # 1,Providence,RI,02909,401-263-2555
"A&a Ndukwe Freight, Inc.",34 Captain John Jacobs Rd Apt 401,E Providence,RI,02914,401-317-9793
A&a Truckline LLC,343 Hoxsie Ave,Warwick,RI,02889,401-837-0261
A&d Transport LLC,1160 Smith St Fl 2,Providence,RI,02908,917-724-4564
A&j Transportation LLC,172 Progress Ave Fl 1,Providence,RI,02909,401-286-4310
A&r Trucking LLC,48 Laval St,Woonsocket,RI,02895,401-524-9824
"A-blast, Inc.",703 Metacom Ave,Bristol,RI,02809-5132,401-253-9696
"A-pasco Moving & Storage, Inc.",99 James P Morphy Hwy,West Warwick,RI,02893,800-343-3500
A1 Transport LLC,18 Wesleyan Ave,Providence,RI,02907,941-584-9868
Aa Car Removal,74 Japonica Street,Pawtucket,RI,02860,401-617-5740
Aa Trucking LLC,90 Moore Street,Central Falls,RI,02863,401-996-4272
"Aaa Mobile Ware Housing Co, Inc.",570 Wellington Ave,Cranston,RI,02910,401-941-1000
Aaa Northeast,110 Royal Little Drive,Providence,RI,02904,401-868-6117
Aaa Southern New England,110 Royal Little Dr,Providence,RI,02904,401-868-2000
Aaeje Logistics LLC,118 Church St,Woonsocket,RI,02895,401-999-8904
Aal Snacks LLC,11 Sweetwater Dr,Coventry,RI,02816-8543,401-871-0091
AandlLLC,191 Waldo St,Providence,RI,02909,401-523-1767
State Automotive Warehouse,168 Carpenter Street,Providence,RI,02903,401-331-4303
Abbas Transport LLC,1089 Dexter St,Central Falls,RI,02863,401-548-5358
"Abco Enterprises, Inc.",41 Sylvia Avenue,North Providence,RI,02911,401-353-3124
Abel Desousa,4 Clark Street,Cumberland,RI,02864,401-475-7467
Lima's Auto Body,1657 Main Street,West Warwick,RI,02893,401-821-8385
"Abilene Oil Service, Inc.",1850 Cranston Street,Cranston,RI,02920,401-943-0011
"Able Industrial Sweeping, Inc.",74 Moorland Ave,East Providence,RI,02914,401-434-3440
Abm Enterprises,38 East St,West Warwick,RI,02893,202-521-1493
Above All Trucking,10 Parkview Drive,Johnston,RI,02919,401-831-1269
Abr Transport LLC,265 East Main Road,Middletown,RI,02842,401-849-6109
"Accelerated Freight Line, Inc.",61 South Ferry,Narragansett,RI,02874,401-789-5104
Accent Moving & Storage,1 Tiffany Street,Central Falls,RI,02863,508-285-4735
Accesspoint Ri,21 Plamer Avenue,Cranston,RI,02920,401-942-2388
"Accu-care Supply, Inc.",109 King Phillip Rd,Rumford,RI,02916,401-438-7110
"Ace Construction Co, Inc.",269 Greenville Ave,Johnston,RI,02919,401-301-9569
Ace Holding Corp LLC,87 Centre Of New England Blvd,Coventry,RI,02816,401-434-4630
Ace Transport Limited,103 Glen Road,Woonsocket,RI,02895,401-765-0077
Ace Trucking LLC,56 Anchor Street,Providence,RI,02908,401-712-0957
Acevedo Transport LLC,196 Bellevue Ave,Providence,RI,02907,401-225-4959
"Acs Materials, Inc.",49 Cedar Swamp Road Unit 2,Smithfield,RI,02917,401-473-5108
Act Fast Courier Services,80 Sycamore St,Providence,RI,02909,401-699-6254
Action Based Logistics LLC,26 John St,Johnston,RI,02919,401-954-0082
Ad Logistics LLC,98 Stanwood St,Providence,RI,02907,908-848-7557
"Ad&d Welding And Boiler Works, Inc.",33 Bleachery Ct,Warwick,RI,02886-1201,401-732-5222
Adam Chippo's Distribution,635 St Paul St,North Smithfield,RI,02896,401-309-9612
Adam's Trans LLC,411 Orms St,Providence,RI,02908,401-288-7029
Adan C Rodriguez,19 Dewey St,Providence,RI,02909,401-347-3150
Adc Supports LLC,34 Captain John Jacobs Rd #401,East Providence,RI,02914,617-816-1985
Adla LLC,75 Independence Way Apt 40-114,Cranston,RI,02921,401-463-3383
"Admiral Packaging, Inc.",10 Admiral St,Providence,RI,02940-6025,401-274-7000
Lemery's Contracting Service,261 Harkney Hill Rd,Conventry,RI,02816,401-397-2882
Advance Electrical Corp,33 Appian Way,Smithfield,RI,02917,401-232-5560
Advance Forward Solutions,873 Smith St,Providence,RI,02908,401-654-9318
"Advanced Business Machines, Inc.",11 Powder Hill Road,Lincoln,RI,02865,401-232-7000
"Advanced Carpet Care, Inc.",22 Casperson Ave,North Kingstown,RI,02852,401-331-8650
Advanced Technology Seamless Gutters LLC,340 Kingstown Road,Richmond,RI,02892,401-491-9889
Adventure King LLC,27 Preston Ln,Tiverton,RI,02878,401-624-4776
Aep Services,7 Oakhurst Avenue,North Providence,RI,02911,401-349-5538
"Aep Services, Inc.",66 John St,Johnston,RI,02919,401-228-7190
"Affordable Building And Weatherization, Inc.",245 Quaker Lane #2,West Warwick,RI,02893,401-965-8578
"Affordable Shredding, Inc.",27 First Ave,Wyoming,RI,02832,401-539-7599
"Africo, Inc.",241 Grotto Avenue,Pawtucket,RI,02860,401-255-4589
Ag Delivery LLC,1 Conrad St,Woonsocket,RI,02895,401-678-2487
Ag Express LLC,50 Agnes St,E Providence,RI,02914,401-999-4264
Agg Transport LLC,363 Sayles St Fl 3,Providence,RI,02905,401-497-7010
Agss Services LLC,208 Japonica St,Pawtucket,RI,02860,401-999-4264
"Aguiar Trucking, Inc.",20 Dogwood Drive Bldg 20 Apt 102,West Warwick,RI,02893,401-615-2658
Aguileras Real Estate LLC,113 Gallup St,Providence,RI,02905,401-497-3484
Agustin Lux,27 Harrison Street,Providence,RI,02909,401-263-3203
Ailiannie Truckings LLC,35 Robin Street,Providence,RI,02908-5512,401-200-1719
"Air Flow, Inc.",395 Knotty Oak Road,Coventry,RI,02816,401-828-7633
Airport Car Express,3438 Post Road,Warwick,RI,02886,401-265-5356
Airport Car Express LLC,64 Claypool Dr,Warwick,RI,02886,401-601-8858
Airway Masonry,41 Linton Street,Pawtucket,RI,02861,401-726-5719
Aj Dicenzo Trucking,1166 Douglas Avenue,North Providence,RI,02904,001-353-8394
Aj Oster Of Delaware LLC,457 Warwick Industrial Dr,Warwick,RI,02886,401-739-0800
Aj's Snacks,383 Mattity Rd,N Smithfield,RI,02896-9585,401-692-2156
"Ajf At Your Service, Inc.",128 Charlotte Drive,East Greenwich,RI,02818,401-739-1900
Ajt Express LLC,40 Babcock Street,Providence,RI,02905,401-450-5611
Akonina Trucking LLC,88 Bogman St Apt 2,Providence,RI,02905,401-301-1985
"Al Jacs, Inc.",33 Hemlock St,Providence,RI,02908,401-272-3215
Al Mclaughlin Trucking,434 Woonasquatucket Apt # 12,North Providence,RI,02911,978-838-2903
"Santa's Helper, Inc.",47 Patterson Avenue,Warren,RI,02885,401-245-0414
Alba Home Delivery LLC,111 Wheeler Avenue - Apt 2,Cranston,RI,02905,401-241-0109
A & R Commercial,67 Roy Avenue,Woonsocket,RI,02895,401-766-1919
"Alden, Inc.",177 Farnum Pike,Smithfield,RI,02917,781-534-1936
Sanchez Market,128 Kingwood Ave,Cranston,RI,02920-4240,401-831-5470
Rider Trucking LLC,311 Mendon Ave,Pawtucket,RI,02861,401-868-5863
Alessandro Transportation LLC,74 Lambert St Apt 223,Cranston,RI,02910,941-584-9868
Alex Transportation LLC,31 Colony Rd,Riverside,RI,02915,405-283-0698
Alexander Marquez,21 Carlton St,Cranston,RI,02910,401-304-4610
Alexander Trucking,82 Summit Avenue,East Providence,RI,02914,401-434-6031
Alexander Transport LLC,5 Bennett Ave,Cranston,RI,02920,401-536-0309
Alexi Delacruz Transportation LLC,21 Swan St,E Providence,RI,02914,401-919-6203
"Alfa Carrier, Inc.",1397 Broad St # 1,Providence,RI,02905,401-659-6363
Alfamen Services LLC,111 Freight Street Apt 27,Pawtucket,RI,02860,401-919-3141
Lagerstrom Construction,6488 Flat River Rd,Greene,RI,02827,401-392-0274
"A T Caldarone Co, Inc.",1909 Elmwood Ave,Warwick,RI,02888,401-467-2555
Out On A Limb,15 Hambly Road,Tiverton,RI,02878,401-624-6973
Alfred J Imondi,66 Urban Ave,North Providence,RI,02904,401-623-0173
A Magnone Trucking,511 Pippin Orchard,Cranston,RI,02921,508-885-9331
"Alisson Trucking, Inc.",197 Chapin Avenue,Providence,RI,02909,401-868-7921
All About H2o LLC,1903 Putnam Pike,Chepachet,RI,02814,401-567-7192
"All American Foods, Inc.",One All American Way,North Kingstown,RI,02852,401-294-5455
All Energy Services LLC,401 Walcott St,Pawtucket,RI,02860,401-727-7530
All My Sons Moving & Storage Of Rhode Island LLC,10 Dorrance St,Providence,RI,02903,214-317-2900
All Phase Restoration LLC,204 Leigh Road,Cumberland,RI,02864,401-333-7258
All Seasons Fuel LLC,880 Victory Hwy,W Greenwich,RI,02817,401-283-3835
All Terrain Crane Service,38 Mumford Street,Coventry,RI,02816,401-823-4094
Uspack,874 Charles St,N Providence,RI,02904,401-699-2856
"ALLClean, Inc.",210 Conant Street,Pawtucket,RI,02860,401-335-4477
Alliance Business Products,21 Industrial Drive,Smithfield,RI,02917,401-233-1888
Allison LLC,87 High School Ave,Cranston,RI,02910,401-868-0886
Alloy Holdings LLC,160 Niantic Avenue,Providence,RI,02907,401-353-1740
Allstate Drilling Co,227 Wampanoag Trl,Riverside,RI,02915-2211,401-434-7548
"Allstate Moving Trans, Inc.",278 Douglas Pike,Smithfield,RI,02917,401-489-6885
Allstate Sealcoating,30 Starline Way,Cranston,RI,02921,401-826-2999
Almasroori Trucking LLC,202 East St,Cranston,RI,02920,508-292-2833
Almonte Transportation LLC,151 Cottage St,Pawtucket,RI,02860,401-219-0570
Almonte Trucking LLC,33 Belmont Ave,Providence,RI,02908,401-640-1797
"Alpha Electrical Contractors, Inc.",300 Wampanoag Trail,East Providence,RI,02915,401-434-0227
"Alpha Transport, Inc.",11 Harvest St,Providence,RI,02908,401-261-8090
Alternative Logistics LLC,29 Golden View Dr,Johnston,RI,02919,401-573-0476
Alternative Subsurface Explorations,44 Pole Bridge Road,North Scituate,RI,02857,401-556-2756
"Altrui Bros Truck Sales, Inc.",1100 Warren Ave,East Providence,RI,02914,401-434-3540
Alvaro's Transportation,15 Cliff St Fl 1,Central Falls,RI,02863,401-999-8848
Am Afric International,2 Hollis Street,Providence,RI,02907,401-383-8816
Am All State Interiors Corp,30 Delta Drive,Pawtucket,RI,02861,401-640-8879
Amado's Trucking LLC,5 Kids Way,Pawtucket,RI,02860,401-742-8340
Amaral & Sons,75 Ivy St,E Providence,RI,02914,401-569-6783
Amaral Revite,148 West River St Ste 5,Providence,RI,02904,401-454-6867
"Amco, Inc.",131 Mason Street,Woonsocket,RI,02895,401-766-8700
Ame Trucking LLC,38 Kossuth St Apt 2,Providence,RI,02909,347-961-7380
American Aerial Equipment LLC,1 Fields Point Drive,Providence,RI,02905,401-780-0700
"American Carting Express, Inc.",19 Tartaglia St,Johnston,RI,02919,401-464-5999
American Equipment & Fabricating Corp,100 Water Street,East Providence,RI,02914,401-438-2626
American Insulated Panel,127 Stubble Brook Road,West Greenwich,RI,02817,800-924-2774
American Junk Car Truck Removal,82 Pacific Street,Central Falls,RI,02863,401-359-4988
"American Masonry, Inc.",156 Metacomet Ave,Rumford,RI,02916,401-435-4416
"American Mobile Metal Recycling, Inc.",151 Singleton Street,Woonsocket,RI,02895,508-328-1298
Shred N Go,15 Green Hill Road,Johnston,RI,02919,401-943-0522
American Regal Transport LLC,320 Thames Street 461,Newport,RI,02840,401-470-4584
"American Surplus, Inc.",1 Noyes Avenue,Rumford,RI,02916,401-434-4355
"American Sustainable, Inc.",32 Rhode Island Avenue,Johnston,RI,02919,401-232-0030
American Tool Company,623 Washington Highway,Lincoln,RI,02865,401-333-0111
American Towing & Storage LLC,339 Market Street #9,Warren,RI,02885,401-289-2625
American Transport LLC,Box 8300,Cranston,RI,02920,401-821-6700
"American Transportation Logistics, Inc.",233 Monroe St,Warwick,RI,02888,401-383-4584
Amg Trucking LLC,29 Treasure Road,Narragansett,RI,02882,401-345-6562
"Amici Trucking, Inc.",132 Fletcher Ave,Cranston,RI,02920,401-413-9022
Amity Electric,502 Switch Road,Richmond,RI,02832,401-245-0005
Amix Transport LLC,36 Noxon St,West Warwick,RI,02893,401-615-9970
Amnye Transportation LLC,267 Dora St,Pawtucket,RI,02860,774-201-1500
Amp Enterprises LLC,167 Danielson Pike,Foster,RI,02825-1308,401-641-1948
Amr Deliverys LLC,105 Ethan St Apt 1f,Providence,RI,02909,401-523-7521
Amrod Transport LLC,37 Pine St,Riverside,RI,02915,401-617-6523
Amy's Trucking,108 Beaufort St,Providence,RI,02908,401-865-6093
Amys Trucking LLC,121 Onset St,Warwick,RI,02888,401-243-3280
Anacko Cordage Company,102 Dean Knauss Drive,Narragansett,RI,02882,401-792-3936
Anawan General Contractors,14 Berkley St East,Providence,RI,02914,202-521-1493
"Anb Trans, Inc.",9 Brook Street Apt 20,North Providence,RI,02911,401-484-1756
Anc Ontime Auto Transport And Services LLC,547 Dexter St Apt A,Providence,RI,02907,401-780-1183
"Anchor Fuel, Inc.",55 John Clarke Rd,Middletown,RI,02842,401-619-2222
"Anchor Insulation Co, Inc.",435 Narragansett Park Dr,Pawtucket,RI,02861-4321,401-438-6720
Anchor Waste & Recycling,11 Yale Avenue,Warwick,RI,02888,401-780-9849
Anderson Delivery Svcs LLC,166 Elmdale Avenue,Providence,RI,02909,401-919-4722
"Anderson Motors, Inc.",170 Amaral Street,East Providence,RI,02915,401-434-5900
T & J Transportation,11 Hayes St 2,Providence,RI,02903,774-365-1137
Andres Trucking LLC,109 Summer St,Central Falls,RI,02863,302-494-2073
Andrew Cavanagh,10 N Water St ,Portsmouth,RI,02871-6011,401-787-8725
A Correira & Son Trucking,6 Meadowbrook Road,East Greenwich,RI,02818,401-884-1363
Andrew Tougas,33 Roland St,Cumberland,RI,02864,401-524-3781
Andrews Carriers LLC,300 Hunt St # 3 ,Central Falls,RI,02863,401-585-0345
Andrews Express & Storage,10 Fir St,Newport,RI,02840,401-847-3600
Andys Snacks,877 Brayton Rd,Tiverton,RI,02878,401-625-1927
Angel & Justin Transportation LLC,103 Brush Hill Rd,Providence,RI,02909,401-952-7595
B And B Transportation,1215 Narragansett Blvd,Cranston,RI,02905,800-226-3696
Angel Munoz,616 Weeden Street,Pawtucket,RI,02861,401-867-0023
Angel R Massanet,205 Cottage St,Woonsocket,RI,02895,401-696-4492
"Angel Trucking, Inc.orporated",1282 Hope Street,Bristol,RI,02809,508-336-4272
Angelo Seafood,32 Roma Street,Bristol,RI,02809,401-253-7924
Anirapha Transport LLC,263 Morse Ave,Woonsocket,RI,02895,774-225-1101
Anna Opydo,678 Killingly St,Johnston,RI,02919,401-272-9542
Ant Transportation LLC,245 Lexington Ave,N Providence,RI,02904,401-243-3709
Produce,82 Lexington Ave,Providnce,RI,02907,646-721-3023
R&r Home Delivery,20 Atlantic Ave,Providence,RI,02907,401-403-1440
Bmf Carriers,414 Allen Ave,Wakefield,RI,02879,401-793-6644
Delfarno Truck Brokers,57 Hope Hill Terrace,Cranston,RI,02920,401-946-1987
A D Trucking,1 Tanner Street,Providence,RI,02907,401-421-4715
Anthony J Santurri Jr,675 Middle Road,E Greenwich,RI,02818,401-265-3226
Anthony Muro,3 Laurel St,North Providence,RI,02911,401-368-2110
A Baffoni & Son,58 Putnam Avenue,Johnston,RI,02919,401-233-0044
"Anthony Reis Trucking, Inc.",251 Knollwood Avenue,Cranston,RI,02910,401-437-8007
"Aptdistributors, Inc.",180 Waterman Ae,North Providence,RI,02911,401-263-8425
Antman Transport LLC,46 John St,Westerly,RI,02891,703-909-3323
Batista Cargo,264 Ohio Ave # 1,Providence,RI,02905-2827,401-442-0866
A & W Plastering,87 Central Avenue,East Providence,RI,02914,401-438-8024
Anytime Junk Removal,2211 Hartford Ave,Johnston,RI,02919-1713,401-919-0980
"Anywhere Anytime Auto Transport, Inc.",42 Briarbrooke Lane,Cranston,RI,02921,401-464-6650
Aoe LLC,169 Petteys Ave Apt 1,Providence,RI,02909,401-403-0885
"Ap Transerve, Inc.",71 Hewes Street,Cumberland,RI,02864,401-556-8819
Ap Transportation LLC,73 Althea St Fl 1,Providence,RI,02907,401-837-0335
Apc Construction Trucking,21 Snell Road,Little Compton,RI,02837,401-635-9528
Apc Hauling LLC,2053 Plainfield Pike Apt 2,Johnston,RI,02919,954-242-5496
"Apex Logistics, Inc.",14 Carl Ave,N Providence,RI,02904,401-632-5991
Apex Trucking LLC,59 Ledge St Fl 2,Providence,RI,02904,401-497-0468
"Apple Valley Oil, Inc.",50 Cedar Swamp Rd,Smithfield,RI,02917,401-949-0252
Appleland Orchard LLC,135 Smith Avenue,Greenville,RI,02828,401-949-3690
"Approved Storage & Waste Hauling Ne, Inc.",400 George Washington Highway,Smithfield,RI,02917,914-664-4791
"Apt Distributors, Inc.",329 Westmoreland Ln,Saunderstown,RI,02874,401-369-3094
"Aquidneck Building Movers And Riggers, Inc.",102 Viking Drive,Portsmouth,RI,02871,401-683-4574
"Aquidneck Landworks, Inc.",1015 Aquidneck Avenue,Middletown,RI,02842,401-849-4040
"Aquidneck Lobster Co, Inc.",Bowen's Wharf,Newport,RI,02840,401-846-0106
"Aquidneck Machine, Inc.",52 Aquidneck Dr,Tiverton,RI,02878,401-625-5664
Aquidneck Rail Services,9 Joshua Terrace,Portsmouth,RI,02871,401-864-9009
Aquidnek Island Transportation,658 Windwood Avenue,Tiverton,RI,02878,401-624-1334
Aracena Distribution LLC,372 Pontiac Ave,Cranston,RI,02910,401-660-5948
Arango Trucking LLC,225 Oriole Ave Fl 2,Pawtucket,RI,02860,401-632-9100
Archila Montenegro Transport LLC,19 Hilton Drive,Johnston,RI,02919,401-782-7011
"Ardente Supply Company, Inc.",404 Valley St,Providence,RI,02908-5644,401-861-1324
"Arevalo Trucking, Inc.",262 Providence Ave,Riverside,RI,02915,401-243-5348
"Arevalo Trucking, Inc.",262 Providence Ave,Riverside,RI,02915,401-243-5348
Arlene Trucking,20 Church Ave,Warwick,RI,02889,401-265-0102
Arm Digging Service,11 Packer Street,Pawtucket,RI,02861,401-722-2335
"Armanbell Star Transport, Inc.",1 Glen Meadows Ct,Warwick,RI,02889,401-391-5373
Armando Ricci And Son Corporation,289 Borden Avenue,Johnston,RI,02919,401-273-4488
Armands Service Station,272 Market Street,Warren,RI,02885,401-245-0224
Arpin International Group,4372 Post Rd,East Greenwich,RI,02818,401-885-4600
"Arpin Logistics, Inc.",99 James P Murphy Hwy,West Warwick,RI,02893,800-343-3500
"Arpin Van Lines, Inc.",99 James P Murphy Highway,West Warwick,RI,02893,401-828-8111
Arpm Logistic LLC,106 Verndale Ave,Providence,RI,02905,401-660-4028
"A Way Nurseries, Inc.",565 Joslin Rd,Harrisville,RI,02830,401-568-3701
"Arties Towing Transportation, Inc.",2149 Westshore Rd,Warwick,RI,02889,401-639-1946
"Arts Foreign Car Service, Inc.",1637 West Main Road,Portsmouth,RI,02871,401-683-9539
Artu Colon Transport LLC,573 High St,Central Falls,RI,02863,401-548-5444
As Transportation LLC,218 Wickenden St,Providence,RI,02903,954-909-8899
As Trucking LLC,210 Kenyon Ave,Pawtucket,RI,02861,401-954-6759
"A B Hoxie, Inc.",3810 Old Post Road,Charlestown,RI,02813,401-364-0118
Asp LLC,29 Wild St,Providence,RI,02904,401-678-1548
"Aspects, Inc.",245 Child Street,Warren,RI,02885,401-247-1854
"Asphalt Service, Inc.",70 Burlingame Road,Cranston,RI,02921,401-632-0203
Assassins Productions LLC,275 West Natick Road Suite 400,Warwick,RI,02886,401-721-6197
"Associated Concrete Services, Inc.",22 Iris Lane,North Providence,RI,02911,401-353-3876
"Astro Auto Connection, Inc.",1 Dexter Road,East Providence,RI,02914,401-435-4811
Astro Wrecking Service,60 Tiogue Ave,West Warwick,RI,02893,401-821-1149
Astro Of New England LLC,25 Industrial Drive,Exeter,RI,02822,401-397-8484
Aten Energy Conservation LLC,219 West Park St,Providence,RI,02908,401-277-2836
"Athem Distributors, Inc.",462 Providence Street,West Warwick,RI,02893,401-954-5747
Atlantic Management Group,1151 Aquidneck Ave,Middletown,RI,02842,401-662-5889
Atlantic Motor Freight LLC,604 Devils Foot Rd Apt 6,N Kingstown,RI,02852,844-658-0229
"Atlantic Paper & Twine Company, Inc.",85 York Ave,Pawtucket,RI,02860,401-725-0950
"Atlantic Refrigerated Truck Lines, Inc.orporated",2032 Plainfield Pike,Cranston,RI,02921,401-223-4400
Atlantic Solutions Ltd,436 Fish Rd,Tiverton,RI,02878,401-293-0176
"Atlantic Swimming Pool Filling Service Co, Inc.",60 Progress Street,Lincoln,RI,02865,508-252-9300
Atlantis Comfort Systems Corp,10 Reservoir Rd Unit 1,Smithfield,RI,02917,401-233-2600
Atlantis Marine Corp,147 Aborn Ave ,Warwick,RI,02888-2069,202-521-1493
"Atlas Fabrication, Inc.",775 Hartford Avenue,Johnston,RI,02919,401-861-4911
Atlas Insulation Co,116 Danielson Pike,Scituate,RI,02857,401-647-2500
"Atlas Scaffolding And Equipment, Inc.",80 Gilbane Street,Warwick,RI,02886,401-773-7881
"Ats Equipment Of Rhode Island, Inc.",77 Highland Avenue,East Providence,RI,02914,401-434-7700
"Attentive Military Moving, Inc.",W. Warwick Industrial Park,E. Greenwich,RI,02818,401-828-8111
Atwood Superwash LLC,1217 Atwood Ave,Johnston,RI,02919-4922,401-946-9607
Aei Subsurface,6 Maudsley Avenue,Barrington,RI,02806,401-289-2400
Augusto Transportation LLC,143 Dunnell Ave Apt 1,Pawtucket,RI,02860,423-763-1121
"Aurora Fuel Co, Inc.",191 Pulaski St,West Warwick,RI,02893,401-345-5996
Authentic Upkeeping LLC,70 Charlton Ave,Pawtucket,RI,02860,401-288-8694
Auto City,225 Plainfield Street,Providence,RI,02909,401-946-5400
"Auto Services, Inc.",36 Bertha Avenue,Woonsocket,RI,02895,401-766-3175
Automated Business Solutions,415 Kilvert Street,Warwick,RI,02886,401-732-3000
Automatic Heating Equipment,400 Charles Street,Providence,RI,02904,401-521-8877
Aaa World-wide Travel Service,1035 Reservoir Ave.,Cranston,RI,02910,N/A
Avalon Design Group LLC,643 East Avenue Suite 11,Warwick,RI,02886,401-480-9091
Jld Trucking,45 Ashmont Street,Providence,RI,02905,401-265-3086
Avery Transport LLC,67 Red Brook Ln,West Warwick,RI,02893,401-316-6396
Aviar Logistics LLC,40 Homer St,Providence,RI,02905,401-400-2314
Alex,108 Canton St,Providence,RI,02908,401-467-3960
Axion Business Technologies,832 Dyer Avenue,Cranston,RI,02920,401-438-6622
Ayman Attia,15 Waterview Drive #f,Smithfield,RI,02917,401-885-2131
"Az Carriers, Inc.",840 Smithfield Ave Ste 103,Lincoln,RI,02865,401-305-3502
"Az Carriers, Inc.",310 Bourne Ave Ste 9,Rumford,RI,02916,401-663-0424
Azcona Transportation LLC,233 Garden St,Cranston,RI,02910,862-271-1452
Botelho Distributors,131 Fruit Hill Ave No15,Providence,RI,02911,401-437-8260
Casey's Boat Hauling Service Company,11 Waites Wharf,Newport,RI,02840,401-848-5945
B & L Transport LLC,11 Edwards Rd,Johnston,RI,02919-5003,401-523-0047
"B & R Fournier Construction, Inc.",155 Trenton Street,Pawtucket,RI,02860,401-726-2908
B And D Transport LLC,136 Julian Street,Providence,RI,02909,401-421-2167
B And V Trucking Co,1800 Mineral Springs Avenue,North Providence,RI,02904,401-946-6794
B B & S Treated Lumber Of New England,61 Bonneau Rd,North Kingstown,RI,02852,401-295-3200
B Bradly Transport LLC,95 Laura St,Providence,RI,02907,347-666-5206
"B Deltoro & Sons, Inc.",393 Harris Ave,Providence,RI,02909-1019,401-421-5820
"B G L Associates, Inc.",3657 Post Rd. Suite 5,Warwick,RI,02886,401-739-2459
B H Trailers And Plows LLC,2207 Hartford Ave,Johnston,RI,02919,860-213-1623
"B Hughes Builders, Inc.",87 Hamilton Ave,Barrington,RI,02806,401-245-1761
B I G - T LLC,22 Dante Ave,Johnston,RI,02919,401-332-6377
B M Trucking Services LLC,61 Dewey St,Providence,RI,02909,401-413-5776
B On Time L-a-w Delivery Services,313 Waterman Ave,Smithfield,RI,02917,401-326-2488
B T J Transportation,81 Ardway Avenue,Warwick,RI,02889,401-732-4575
"B V Trucking, Inc.",95 Mineral Spring Avenue,Pawtucket,RI,02860,401-727-0629
Blenheim Newport,303 Valley Rd,S Middletown,RI,02842,421-849-0031
B&b Transportation,403 Atlantic Ave,Warwick,RI,02888,401-390-7632
B&f Trucking LLC,467 Broadway,Pawtucket,RI,02860,401-640-5204
Capitol Ridge At Providence,700 Smith St,Providence,RI,02908,401-521-0090
B12 Enterprise LLC,30 Crossing Dr Apt 203,Cumberland,RI,02864,631-568-7893
B6m Transportation LLC,409 Lonsdale Ave Fl 3,Pawtucket,RI,02860,401-288-8898
Backbone Trucking LLC,65 W Main Rd,Little Compton,RI,02837,401-569-2964
Badwa Trucking LLC,182 Cottage St,Pawtucket,RI,02860,401-999-6987
Baez Transportation LLC,47 Norfolk St,Cranston,RI,02910,401-688-1070
Baffoni Trucking,136 Pole Bridge Road,North Scituate,RI,02857,401-934-2112
Baffonis Poultry Farm,324 Greenville Avenue,Johnston,RI,02919,401-231-6315
"Ballard Mack Sales & Service Of Ri, Inc.",80 Centre Of New England Blvd,Coventry,RI,02816,401-821-4800
"Banneker Industries, Inc.",528 Great Rd Ste 101,N Smithfield,RI,02896,401-534-0027
Baptista Transportation LLC,87 Belmont St,Pawtucket,RI,02860,508-405-5445
Bargain Bins LLC,181 Old County Rd,Smithfield,RI,02917,401-413-3481
Beloved Brother Barrett,4 Bernon St Apt 3,Providence,RI,02908,281-223-0548
Barrett Trucking & Hauling LLC,157 Whittier Ave,Providence,RI,02909,401-368-3383
Family Sweeping LLC,112 Rosemere Road,Pawtucket,RI,02861,401-487-5128
Tomaquag Valley Farm,45 Tomaquag Rd,Bradford,RI,02808,401-377-4427
Bass Express LLC,768 Taunton Ave Apt 2,E Providence,RI,02914,401-338-3847
"Batista Bakery, Inc.",75 Franklin St,Bristol,RI,02809,401-253-9832
Batres & Sequen Transporation LLC,186 Harold St Apt #1,Providence,RI,02908,401-632-2260
Bay Area Mobile Medical LLC,1100 Mineral Spring Avenue,North Providence,RI,02904,401-305-3633
Bay Crane Northeast LLC,15 Whipple Street Building 8,Cumberland,RI,02864,401-334-0006
Bay Distributing Corporation,16 Carol Lane,Narragansett,RI,02882,401-783-6134
Bay Truck And Equipment Sales LLC,340 Jefferson Boulevard,Warwick,RI,02888,401-738-5950
"Bayview Boat Haulers, Inc.",6 Dory Road,Warwick,RI,02886,401-738-4646
Bbc Transportation Service Corp,29 Dunnell Lane,Pawtucket,RI,02852,401-467-5103
Bcq Trucking LLC,73 Glenham St Apt 3,Providence,RI,02907,401-340-7312
Bd Sons Transportation,252 Nausaucket Road,Warwick,RI,02886,401-737-8885
Beacon Shipping Logistics,"65 Meadow St., B",Warwick,RI,02886,401-391-9834
Beagle Snacks LLC,96 Levesque St,Warwick,RI,02886-0750,401-529-8855
Beam Electric LLC,265 Richardson Road,Coventry,RI,02816,401-413-0605
"Bear Trucking, Inc.",143 Holland Street,Cranston,RI,02920,401-946-2274
Beat The Impossible LLC,234 Heather Street,Cranston,RI,02920,508-685-6490
Beausoleil And Sons,621 Park Avenue,Cranston,RI,02910,401-781-7753
"Beck Games, Inc.",883 Waterman Avenue,E Providence,RI,02914,401-435-3232
"Beck's Oil Burner Service, Inc.",2 Anne Drive,Lincoln,RI,02865,401-727-2940
"Behan Bros, Inc.",975 Aquidneck Ave,Middletown,RI,02842,401-846-1516
Belisle Trucking LLC,7 Kern Acre Drive,Johnston,RI,02919,401-231-2274
Bell's Delivery LLC,22 Miller Ave,Providence,RI,02905,774-330-5537
"Bella Transport, Inc.",34r Weaver Street,West Warwick,RI,02893,401-265-7477
Belleforline LLC,193 Park Ave,Cranston,RI,02905,347-584-5583
Ben Harding Global Group LLC,50 Midnight Court,Saunderstown,RI,02874,401-667-0449
Blp Trucking,211 Grove Ave,Warwick,RI,02889,401-572-7539
"Bencosme Enterprise, Inc.",19 Radcliffe Ave,Providence,RI,02908,401-241-3323
"Beneficial Energy Products Co, Inc.",450 West Avenue,Pawtucket,RI,02860-5024,401-726-5724
Ben Blue's Backyard Creations,205 Barbs Hill Road,Greene,RI,02827,401-397-7855
Benn & Sons Water Delivery,160 Ashaway Rd,Bradford,RI,02808,401-377-2561
Bennys,340 Waterman Ave,Esmond,RI,02917,401-231-1000
"Benros Trucking, Inc.",28 Cadorna Street,East Providence,RI,02914,401-639-9291
Beretta Enterprises LLC,56 Greenville Ave,Johnston,RI,02919,401-226-2706
Berger Recycling,126 Front St,Pawtucket,RI,02860-1044,401-723-7240
Berkeley Transportation Company,1 John C Dean Memorial Blvd,Cumberland,RI,02864,401-334-4677
"Berkshire Construction Service, Inc.",183 Knight Street,Warwick,RI,02886,401-737-3434
Berly Brooks LLC,83 Chaplin St Apt 1,Pawtucket,RI,02861,401-616-0382
Bernard H Gabrielsen Jr,243 Matteson Road,Hope,RI,02831,401-633-4733
"Bernardo's Trucking, Inc.",20 N Rose St,East Providence,RI,02914,401-255-0768
"Best Choice Transportation, Inc.",15 Pheasant Hill Lane,Cranston,RI,02921,401-615-3955
Best Efficient Secured Trucking LLC,767 Newport Ave Ste 1,Pawtucket,RI,02861,617-869-6200
Best Way Trucking LLC,100 Carey Ct,Woonsocket,RI,02895,401-924-4732
Better Carrier Corporation,56 Freeway Drive,Cranston,RI,02920,401-437-6544
"Bettez Co, Inc.",30 Mill Street,Hope,RI,02831,401-524-5000
Crum's Trucking LLC,18 Anthony Road,Foster,RI,02825,401-647-4611
"Bfh Trucking, Inc.",483 N Broadway,East Providence,RI,02914,401-255-9012
"Bichun Truck Parts, Inc.",1473 Elmwood Ave,Cranston,RI,02910,401-654-4900
Big 6 Transport LLC,28 Driftwood Dr,Charlestown,RI,02813,860-383-9362
"Big Dogs Transport, Inc.",34r Weaver Street,West Warwick,RI,02893,401-265-7477
Big East Transportation LLC,71 Simmonsville Avenue,Johnston,RI,02919,401-413-9022
Big East Trucking LLC,104 Yorkshire St,Providence,RI,02908,401-660-4749
Big F Trucking LLC,51 Vineyard St,Providence,RI,02907,401-559-0912
Big James Towing,31 Bay Street Apt 2,Portsmouth,RI,02871,401-843-8877
"Big River Transfer, Inc.",15 Perry Hill Road,Coventry,RI,02816,401-397-5503
Big Sisters Fund,1540 Pontiac Ave,Cranston,RI,02920-4472,401-921-2434
Bigjun Trucking LLC,103 Newton St 103 Newton St,Pawtucket,RI,02860,401-692-2888
"Bill Bishops Trucking, Inc.",950 Ten Rod Road,Exeter,RI,02822,401-295-0356
"Bill Rodis Sun Service, Inc.",597 Branch Avenue,Providence,RI,02904,401-831-9174
"Bill Wass Sons Tank Service, Inc.",125 Elder Street,Lincoln,RI,02865,401-727-6418
Bill's Towing LLC,516 Child Street,Warren,RI,02865,401-245-3450
"Bills Auto Parts, Inc.",70 Macondry Street,Cumberland,RI,02864,401-725-1225
Bills Carrier Service,49 Alden Avenue,Warwick,RI,02889,401-738-9135
Bilray Corporation,73 Mill Street,Johnston,RI,02919,401-831-8895
"Bingos Transport, Inc.",440 Eight Rod Way,Tiverton,RI,02878,401-624-6846
Bj & J Truck Service LLC,7 Elvira Street,North Providence,RI,02904,401-263-3509
Bj Logistics,20 White Street,Powtucket,RI,02860,401-834-4221
Jdog Junk Removal & Hauling Ri,28 Preston Dr,Warwick,RI,02886,401-585-7320
Black Jack Disposal LLC,12 Ryan Ave,Cumberland,RI,02864,401-333-9041
Black Rock Corp,1200 Hartford Ave Unit 110,Johnston,RI,02919-7141,401-837-9258
"Black Sheep Transportation, Inc.",40 Ballston Avenue,Pawtucket,RI,02861,401-465-5575
Black Thunder Delivery LLC,186 High St Apt 3,Woonsocket,RI,02895,860-713-9656
"Blackstone River Transport, Inc.",176 Providence St,Woonsocket,RI,02895-5142,401-660-8731
Blackstone Supply Co,100 Whipple Street,Providence,RI,02908,401-421-3470
Blair Trucking LLC,469 Pine St,Providence,RI,02907,401-345-9407
"Blake Enterpises, Inc.orporated",39 Margaret Street,Pawtucket,RI,02860,401-461-3263
Blanco Transportation LLC,835 Manton Avenue,Providence,RI,02909,401-347-4478
Blm Trucking,167 Putnam Ave,Johnston,RI,02919,401-569-4685
Birm,4 West Beach Road,Block Island,RI,02807,401-466-2864
Blue Mile Transport LLC,22 Parsonage Street # 315,Providence,RI,02903,754-264-4460
Blue Sky Group,450 Pavilion Ave Unit 5,Warwick,RI,02888-6036,401-889-2139
Bm Movers,141 Magnolia St,Providence,RI,02909,401-500-4468
Bmps And Son Trucking,30 Notre Dame Street,Central Falls,RI,02863,401-327-2606
Boatlinks Transportation,10 Middle St,N Providence,RI,02911,347-401-4792
Bobs Interstate Transport Extradinaire,116 Canterbury Road,Wakefield,RI,02879,401-783-4736
"Bobs Truck And Auto Center, Inc.",5 Eastern Avenue,East Providence,RI,02914,401-434-6717
Boiler Busters LLC,65 Bay Spring Ave,Barrington,RI,02806,401-383-3227
Bonilla Trucking LLC,61 Laura St Apt 1,Providence,RI,02907,401-405-6270
Bonrepos Shipping LLC,37 Christopher St,Providence,RI,02904,401-230-5190
Bonsd Logistics LLC,2 N View Ter,N Providence,RI,02911,401-230-6479
Bosna Express LLC,100 Carey Court,Woonsocket,RI,02895,401-767-7356
Boss Trucking LLC,685 Social St Apt 113,Woonsocket,RI,02895,401-248-8969
"Boston Port Services, Inc.",100 Tidal Drive,North Kingstown,RI,02852,401-295-5590
Boulevard Express LLC,150 Vandewater St,Providence,RI,02908,401-248-8827
Box Cat Delivery LLC,10 Dorrance St Ste 700,Providence,RI,02903,888-909-5298
"Boydco, Inc.",101 Commercial Way,East Providence,RI,02914,401-438-6900
"Boys 7 Girls Club Of East Providence, Inc.",115 Williams Ave,East Providence,RI,02914,401-434-6776
Bp Express LLC,5 Mountain St,Providence,RI,02903,203-213-7910
Br Services LLC,330 Scrabbletown Rd,North Kingstown,RI,02852,860-230-1554
Br Transportation LLC,83 Pomona Ave,Providence,RI,02908,401-442-1364
"Braddy Enterprises, Inc.",15 Day Street,Pawtucket,RI,02860,401-438-5739
Equiptech,5510 Post Road,Charlestown,RI,02813,401-742-1350
Bravos Express Trucking Co,26 Bowles Court,Pawtucket,RI,02860,401-726-5963
Bravos Trucking,615 Main Street,Pawtucket,RI,02860,401-724-4216
"Breadgirl, Inc.",1 S Glen Dr,Greenville,RI,02828-1913,401-486-1987
A & E Trucking,393 Douglas Pike,N Smithfield,RI,02896,401-766-9881
Gettin Loafy,26 Hamilton Hill Rd,Glocester,RI,02829,860-815-0728
Brewer Street Boatworks Ltd,222 Connell Highway,Newport,RI,02840,401-847-0321
Brewers And Vintners Distributing Ltd,250 High Piont Ave,Portsmouth,RI,02840,401-682-2200
Brewers Supply Group,312 Connell Highway,Newport,RI,02840,401-845-2072
Brian Dailey,122 Keith Ave,Cranston,RI,02910,401-383-1911
Brian E Marinosci,26 Westwood Ave,Cranston,RI,02905,401-808-1545
Bg Landscaping,2 Chester Ave,Bristol,RI,02809,401-297-9183
Brian S Stillson,27 Ledgemont Drive,Warwick,RI,02886,401-615-0509
"Briden Leasing, Inc.",105 Beardsworth Road,Tiverton,RI,02878,774-930-4093
"Briggs Septic Pumping & Excavating, Inc.",150 Stoney Fort Road,Saunderstown,RI,02874,401-783-8104
"Bristol Auto Salvage, Inc.",48 Broadcommon Rd,Bristol,RI,02809-2722,401-253-2490
"Bristol Metal Company, Inc.",58 Broad Common Road,Bristol,RI,02809,401-253-4070
"Bristol Motor Freight, Inc.",275 Thurbers Avenue,Providence,RI,02905,401-476-5103
Bristol Oil Co,10 Center St,Bristol,RI,02809-3607,401-253-8936
Brito Services Co,1800 Mineral Spring Ave Ste 193,N Providence,RI,02904,401-216-9465
J's Broadway Appliance & Tv,47 Cedar Swamp Road,Smithfield,RI,02917,401-949-7800
Broden Millworks And Supply,185 Oliphant Lane,Middletown,RI,02842,401-846-0271
"Brookfield Service, Inc.",929 Providence Street,West Warwick,RI,02893,401-828-4008
The Pool Source,40 Freeway Drive,Cranston,RI,02920,401-461-8700
Brothers Trucking LLC,38 Pumgansett St,Providence,RI,02908,401-654-7914
Brown Family Seafood,83 State Street,Narragansett,RI,02882,401-783-9900
"Brown Moving Co, Inc.",155 Amaral Street Ste B,East Providence,RI,02915,401-434-5100
Brown University,164 Angell Street,Providence,RI,02912,401-863-9481
"Browning Enterprises, Inc.",577 Rocky Hill Rd,North Scituate,RI,02857,401-241-0178
Bruce Services,93 Leigh Road,Cumberland,RI,02864,401-333-6017
Brunelle Trucking And Equipment,31 William S Canning Blvd,Tiverton,RI,02878,401-640-7189
Bruno's Transport LLC,56 Plainfield Pike,Scituate,RI,02857,401-499-4084
Bruzzese Distributor,109 Kimball Street,Providence,RI,02908,401-751-4441
Br's Transport,99 Oriole Ave,Pawtucket,RI,02860,401-315-2848
"Bucks Trucks, Inc.",642 Ten Rod Road,Exeter,RI,02822,401-941-4105
Built To Tow LLC,257 Woodbine St,Cranston,RI,02910,401-428-9797
Bull Bag LLC,400 Putnam Pike,Smithfield,RI,02917,401-942-1476
Bullivant Marine Service,95 Pottersville Road,Little Compton,RI,02837,401-635-2744
Burgos Transportation LLC,50 Osborn St Apt 1,Providence,RI,02908,401-204-7144
"Burrillville Cesspool Co, Inc.",550 Mowry Street,Harrisville,RI,02830,401-568-4666
Busch And Son Trucking,33 Judy Terrace,West Warwick,RI,02893,401-338-8541
"Busters Trucking, Inc.",259 Fuller Avenue,Central Falls,RI,02863,401-726-1372
"Bv Services, Inc.",155 Amaral St,Riverside,RI,02915,401-640-7878
Byleckie Horticultural Services LLC,16 Peirce Street,East Greenwich,RI,02818,401-885-8215
El Quiche Bakery,598 Craston St,Providence,RI,02907-2812,401-383-5335
Byron Avila,72 Memorial Drive,Pawtucket,RI,02860,401-533-7255
C & F Trucking LLC,218 Morin Heights Blvd,Woonsocket,RI,02895,401-309-4446
"C & G Transportation, Inc.",29 Ophelia St,Providence,RI,02909,401-559-2609
C & H Trucking LLC,5 Appleton Street,Cranston,RI,02910,401-639-7605
C & J Trans LLC,1329 Diamond Hill Rd,Cumberland,RI,02864,401-316-9656
"C & L Trucking, Inc.",103 Brown St,Pawtucket,RI,02860,401-616-6490
C & R Trucking LLC,14 Jewell St Apt2,Providence,RI,02909,401-954-5888
C A Trucking,1350 Nooseneck Hill Road,Coventry,RI,02816,401-822-2265
C A Winquist,38 Mallard Cove,Barrington,RI,02806,401-245-1300
"C And K Electric Company, Inc.",166 Doyle Avenue,Providence,RI,02906,401-331-3909
C And L Transportation LLC,740 Douglas Ave,Providence,RI,02908,401-954-5888
C C Distributing Company,119 Hopkins Hill Road,West Greenwich,RI,02817,401-822-6400
C Delfarno Trucking,461 Angell Rd,Lincoln,RI,02865,401-353-0446
C Hernandez Transportation LLC,68 Carr St,Providence,RI,02905,401-212-1124
"C J C Transportation, Inc.",3 Vineland Avenue,North Providence,RI,02911,401-233-3331
C J Movers And Storage LLC,43 Irving Street,North Providence,RI,02904,401-353-1955
"C L Trucking, Inc.orporated",408 Cass Avenue,Woonsocket,RI,02895,401-765-3663
C L Vinagro Corp,2208 Plainfield Pike,Johnston,RI,02919,401-943-7100
C M Auto,43 Sand Pond Road,Warwick,RI,02888,401-732-0938
C M Masonry,82 Fairview Ave,Cumberland,RI,02864,401-727-4730
C M Transportation LLC,94 Wainwright St Apt 3,Providence,RI,02908,401-639-7880
C N Transportation LLC,49 Rand St Apt 2,Central Falls,RI,02863,508-441-2335
C O Equipment Leasing Co,1051 Ten Rod Rd Unit 5a,North Kingstown,RI,02852,401-294-0020
"C P Watson, Inc.",33 Plan Way #8,Warwick,RI,02886,401-732-1666
C Pepin & Son Lumber Co,830 Cumberland Hill Rd,Woonsocket,RI,02895-5638,401-769-8128
"C Place Trucking, Inc.",24 Victory Highway,Chepachet,RI,02814,401-568-2254
"C R Transport, Inc.",36 Terry St,N Providence,RI,02904,401-359-9429
"C Sons Trucking, Inc.",20 Tanner Street,Providence,RI,02907,401-521-7508
"C W Building Movers, Inc.",10 Dunns Corner Rd,Westerly,RI,02891,401-322-7271
"C&c Plastics Company, Inc.",159 Singleton Street,Woonsocket,RI,02895,401-762-0553
"C&j Truck Delivery, Inc.",164 Norwood Ave,Cranston,RI,02905,347-571-3521
Ca Logistics LLC,102 Tiernan Ave,Warwick,RI,02886,401-465-6868
Caban And Son Trucking LLC,825 Pontiac Ave Apt 12104,Cranston,RI,02910,401-692-3317
Cabinet Gallery Ltd,245 Privilege Street,Woonsocket,RI,02895,401-762-4300
Cabreja Express LLC,30 Woodbine St,Cranston,RI,02910-1917,978-601-2585
Cabrera Trucking LLC,125 Progress Ave,Providence,RI,02909,401-837-6756
Cabrera's Srt Commercial LLC,1 Moorefield St Apt 2c,Providence,RI,02909,334-632-5504
Kodiak Cave Cleanout,285 Main St,E Greenwich,RI,02818,401-744-8713
Cajem Transportation LLC,111knollwood Circle,North Kingstown,RI,02852,401-885-0362
"Cal Supply Co, Inc.",259 Macklin Street,Cranston,RI,02920,401-946-1300
"Cala Fruit Distributors, Inc.",506 York Avenue,Pawtucket,RI,02861,401-725-8189
Calcano Trucking,99 Third Ave,Cranston,RI,02910,401-919-5268
"Calco, Inc.",502 Callahan Rd,North Kingstown,RI,02852,401-667-7702
"Calise & Sons Bakery, Inc.",2 Quality Dr,Lincoln,RI,02865-4266,401-334-3444
Calson Corporation,34 Oakdale Avenue,Johnston,RI,02919,401-272-1100
Caluva Transportation LLC,66 Cumerford St Apt 1,Providence,RI,02909,401-536-0422
Calyx Retrofit LLC,21 Spring Green Road,Lincoln,RI,02865,508-639-9595
Camara Excavating LLC,520 Fish Road,Tiverton,RI,02878,401-816-5955
Camden Logistics,3047 E Main Rd Ste 2a,Portsmouth,RI,02871,888-539-9708
Cameron Lupis,315 South Shore Rd,Pascoag,RI,02859,401-533-3087
Davo Transportation,11 Rock Hill Dr,Cranston,RI,02920,401-450-9999
Camo Transportation LLC,311 Mendon Ave Apt 1,Pawtucket,RI,02861,401-663-5662
"Campanale & Sons, Inc.",6 Jennifer Ct,Narragansett,RI,02882,140-178-9387
Campos Transportation LLC,24 Atlantic Ave ,Providence,RI,02907,347-595-7791
Can Transportation,10 Island Ave,Rumford,RI,02916,401-632-5081
Candido Sanchez,958 Centerville Rd,Warwick,RI,02886,N/A
Candy Paula Transportation,18 Sumter Street,Providence,RI,02902,401-219-9748
"Candy Trucking, Inc.",192 Messer St,Providence,RI,02909,401-648-5703
Canela Brothers Transportation LLC,41 Setian Ln,West Warwick,RI,02893,956-884-0204
Canilla Transportation,178 Whittier Ave,Providence,RI,02909,401-219-5468
"Capalbos Waste Services, Inc.",235 Westerly Bradford Rd,Westerly,RI,02891,401-596-8300
Capital Waste Service LLC,35 Stilson Road,Richmond,RI,02898,401-539-8188
Capraro's Express,50 Manning Street,North Providence,RI,02911,401-241-1064
"Carbon Filtration Systems, Inc.",68 Mill Street,Johnston,RI,02919-6251,401-946-7838
"Cardenas Towing Co, Inc.",22 Danielson Pike,Foster,RI,02825,401-647-9607
"Cardiff International Forwarding, Inc.",99 James P Murphy Highway,West Warwick,RI,02893,800-293-2417
Cardoso Transports LLC,55 Ayr St,Central Falls,RI,02863,401-617-4700
"Careers Of New England, Inc.",450 Academy Ave,Providence,RI,02908,401-497-8520
"Cargo Management Group Limited, Inc.",643 East Ave Unit 15,Warwick,RI,02886,617-671-0503
Cargo Transportation LLC,135 Woodward Rd,Providence,RI,02904,401-580-9959
Caribean Transport LLC,29 Greenwich St,Providence,RI,02907,401-499-8001
Carl Brooks,308 Columbus Ave,Pawtucket,RI,02861,404-509-8830
Carl Joyce Transport LLC,33 India Street,Pawtucket,RI,02860,508-400-2647
"Carlin Transportation, Inc.",91 Crestwood Ct,Cumberland,RI,02864,401-333-5504
Cac Distributors,321 Abbott Run Valley Road,Cumberland,RI,02864,401-475-0152
C.d. Carriers,74 Vandewater St Apt 1,Providence,RI,02908,401-301-6471
Carlos E Portillo,51 Tuxedo Ave,Providence,RI,02909,401-499-9842
Carlos M Rivera,57 Cleveland Street,Central Falls,RI,02863,401-617-2392
Carlos R Castillo,577 Cranston Street,Providence,RI,02907,401-427-5745
Carmen's Logistics & Services LLC,510 Child St Apt 403c,Warren,RI,02885,352-870-2679
Carmine Turano,46 Friendship St,Westerly,RI,02891,401-596-7505
Carrier Construction Co,12 Whispering Pines Terrace,West Greenwich,RI,02817,401-385-9773
Carrington Freight,251 Lenox Avenue,Providence,RI,02907,401-941-9101
"Carroll Son Trucking, Inc.",44 Dale Avenue,Cranston,RI,02910,401-467-7357
"Carter Bros, Inc.",188 A Pascoag Main St,Pascoag,RI,02859,401-568-4376
Cartier Carrier Services LLC,36 Erastus St,Providence,RI,02909,401-837-5143
"Cartoco, Inc.",253 Jewett St Apt 1,Providence,RI,02908-4820,401-996-5166
Casimiro Logistics Corp,17 Sprague St Apt 2,Providence,RI,02907,401-649-5151
"Cassisi Brothers, Inc.",31 Oakdale Ave,Johnston,RI,02919,401-258-1011
Castle Express LLC,10 Lindberg Ave,Johnston,RI,02919,401-442-2245
Castle Family Enterprise LLC,489 Greenville Ave,Johnston,RI,02919,401-654-0653
Casyle Facility Maintenance,118 Lincoln Ave,Pawtucket,RI,02861,401-215-5672
Cathedral Corporation,15 Blackstone Valley Place,Lincoln,RI,02865,401-333-1020
Cb Equipment LLC,24 Martin Street,Cumberland,RI,02864,401-265-6597
Cba Trucking LLC,95a Railroad Avene,Johnston,RI,02919,401-231-5646
Cc Express LLC,36 Calder St Apt 2,Providence,RI,02907,401-662-9394
Cc Trucking LLC,281 Farmington Ave,Cranston,RI,02920,401-632-9528
"Ccds, Inc.",824 Victory Hwy,Coventry,RI,02816,401-397-9977
Cck Contractors,47 Rollingwoods Drive,Johnston,RI,02919,401-300-6993
Ccrb Associates LLC,37 Sanderson Road,Smithfield,RI,02917,401-949-3271
Cde Corporation,180 Hartford Pike,Foster,RI,02828,401-647-2052
Cdrg Enterprises LLC,14 Washington St,Central Falls,RI,02863,857-880-6135
Cedar Creek LLC Dana Cushman,54 Diamond Hill Road,Bradford,RI,02808,860-908-6803
Cefas Investment LLC,16 Wisdom Ave,Providence,RI,02908-4534,401-470-9923
"Cei Transportation, Inc.",22e Lark Industrial Parkway,Greenville,RI,02828,401-473-6828
Clipper Seafood,43 Celestial Dr,Narragansett,RI,02882,401-782-8277
Celtic Carriers LLC,60 Hawthorne Pl Apt 23,N Providence,RI,02904,401-480-1397
"Celtic Power Transportation, Inc.",14 Alpine Rdg,Smithfield,RI,02917,401-499-9519
Cemat Delivery LLC,50 Summit St Apt 1,E Providence,RI,02914,401-500-9565
"Central Nurseries, Inc.",1155 Atwood Ave,Johnston,RI,02919-4924,401-942-7511
"Central Paper Company, Inc.",400 Glenwood Avenue,Pawtucket,RI,02860,401-728-6900
"Central Road Side, Inc.",386 Central Ave,Pawtucket,RI,02861,401-641-6414
Central Sanitary Service,29 South Road,Exeter,RI,02822,401-294-9487
Central Transportation And Logistics LLC,146 Tremont St,Centra Falls,RI,02863,401-365-8253
"Centrex Distributors, Inc.",119 Hopkins Hill Rd,West Greenwich,RI,02817,401-397-6100
Century Auto Recovery Services Company,4 Whipple Avenue,Cranston,RI,02920,401-946-1719
"Century Drywall, Inc.",1992 Old Louisquisset Pike,Lincoln,RI,02865,401-333-2140
"Certified Automotive, Inc.",1840 Elmwood Avenue,Warwick,RI,02888,401-941-7006
Certified Diaster Restoration Corp,15 Clarkson Street,Providence,RI,02908,401-351-1911
Cesar Alvarado,303bailey Boulevard,Providence,RI,02905,401-996-7441
Cesar V Cabreja,625 Admiral Street,Providence,RI,02908,401-808-4654
Cgs Express,46 Summit St 46 Summit St,E Providence,RI,02914,401-263-1346
Chace Trucking LLC,110 Carpenter Road,Foster,RI,02825,401-647-2264
Chachis M Transportation LLC,108 Ortoleva Dr,Providence,RI,02909-4910,401-616-6754
Valcourt Heating,410 Fish Road,Tiverton,RI,02878,401-635-8222
Chads Trucking Corp,6 Grant Drive,Coventry,RI,02816,401-821-9497
Chalkstone Supermarket,1050 Chalkstone Ave ,Providence,RI,02908,401-331-1011
Champion Motorsports,230 North Main Street,Woonsocket,RI,02895,401-769-3984
"Chapincito Trucking, Inc.",165 Suffolk Street,Providence,RI,02908,401-413-9342
Chapman Towing,123 Unit St Apt B,Providence,RI,02907,401-751-1916
"Charcal Excavating, Inc.",21 Barbers Ct,West Warwick,RI,02893-1408,401-821-1808
Chariho Oil Service,Po Box 187,Hope Valley,RI,02832,401-539-2900
"Charland Oil Co, Inc.",271 Kenyon Ave,Pawtucket,RI,02861,401-728-1630
"Charles A Collins Jr & Son, Inc.",224 B Central Pike,North Scituate,RI,02857,401-647-2601
C Smith Excavating,34c Smith Lane,Hope Valley,RI,02832,401-539-2810
Charles C Bridges,33 Armington Ave,Providence,RI,02908,401-954-5062
Charles D Kenyon Excavating,71 Old Usquepaugh Rd,West Kingston,RI,02892-1958,401-789-0458
Wottons Auctioneers,116 Vernon Ave,Middletown,RI,02842,401-662-9368
Charles Wright,493 Main St,Hopkinton,RI,02833,860-857-5249
"Charlie's Rubbish Removal, Inc.",280 Dry Bridge Rd,North Kingstown,RI,02852,401-294-2969
Chartier Building Company,9 High Meadow Rd,Little Compton,RI,02837,401-635-8600
Chaudry M Hussain,23 Parker Ave,Warren,RI,02885,401-245-3949
"Cheaper Sweeper, Inc.",64 Blanchard Ave,Warwick,RI,02888,401-463-8286
A-1 Restaurant Supply,221 Admiral Street,Providence,RI,02908,401-421-7030
"Chelsea Transport Leasing, Inc.",285 Valley Street,Providence,RI,02908,401-421-0218
Cherry Alexander Transportation LLC,725 Weeden St,Pawtucket,RI,02860,405-283-0698
Chesapeake Crab Company,37 Carlson Circle,West Warwick,RI,02893,401-828-2519
"Chinese American Mini Market, Inc.",834 Park Ave,Cranston,RI,02910,401-467-7690
"Chips Trucking, Inc.orporated",664 Hazard Road,West Greenwich,RI,02817,401-397-1803
Chiveta Transportation LLC,61 Simmons St Apt 1,Providence,RI,02909,401-481-9675
"Chris Corrigan Moving, Inc.",169 Cowden St,Central Falls,RI,02863,401-722-2422
"Chris Transportation, Inc.",89 Englewood Ave Apt 2,Pawtucket,RI,02860,401-280-0371
Chris Webster Distribution,310 Walcott Street,Pawtucket,RI,02861,401-369-3863
Hazard's Testing LLC,323 James Trail,Richmond,RI,02892,401-539-4098
Cjc Auto Transport,39 A Steere Road ,Chepachet,RI,02814,401-265-3353
Davies Electric,18 Mechanic St,Hope Valley,RI,02832,401-539-7644
Fieldstone Gardens,59 Peckham Road,Little Compton,RI,02837,401-635-2558
Christopher Phillips,13 Hospital Rd,Riverside,RI,02915,401-263-8265
The Ryan Companies,27 Sunnybrook Road,Scituate,RI,02857,508-212-4430
"Christy's Auto Rentals, Inc.",547 Killingly Street,Johnston,RI,02919,401-274-5971
"Chubby Fish, Inc.",29 Andre Ave,Wakefield,RI,02879-1514,401-965-7535
Chupa Chaps LLC,109 Lincoln Ave,Pawtucket,RI,02861,617-893-2182
"Ci Ancora Transportation, Inc.",16 Rangeley Ave,Providence,RI,02908,401-632-7228
Cibao Distributor LLC,52 Farragut Ave Fl 1,Providence,RI,02905,401-660-0405
Cibao Produce,633 Lonsdale Ave Apt 1,Central Falls,RI,02863,401-726-9386
East Coast Auto Transport,375 Wampanoag Trail,East Providence,RI,02915,N/A
"Citizens Auto Body, Inc.",66 Maria Ave,Providence,RI,02919-5317,401-421-1000
"City Foundry Co, Inc.",2585 Pawtucket Avenue,East Providence,RI,02914,401-434-0192
Cj Lannan Trucking,1 Doris Avenue,Bristol,RI,02809,401-253-3507
"Cj Trucking Co, Inc.",43 Audrey Drive,W Warwick,RI,02893,401-823-9036
Cj Trucking LLC,50 Redwing St,Providence,RI,02907,401-572-2628
Cjc Transport LLC,323 Perry Hill Rd,Coventry,RI,02816,401-864-3616
"Cl Auto Sale, Inc.",715 Warwick Avenue,Warwick,RI,02888,401-467-3550
Claflin Medical Equipment,1206 Jefferson Blvd,Warwick,RI,02886,401-732-9150
Clangs Crane Services LLC,70 E Wallum Lake Rd,Pascoag,RI,02859,401-651-2840
Clarissa Transport,216 Wallace Street,Providence,RI,02909,401-946-0045
Classic Junk Removal LLC,641 Baldhill Rd Unit C,Warwick,RI,02886,401-215-5108
"Clean Care Of New England, Inc.",850 Wellington Ave,Cranston,RI,02910,401-941-9111
Clean Environment Service Co,15 Industrial Ln,Johnston,RI,02919,401-943-0100
Clean Up Corp,150 Grove Ave,East Providence,RI,02914,401-327-8464
Clearview Trucking LLC,655 Ten Rod Rd,North Kingstown,RI,02852,401-527-7497
"Clement Rose Excavating, Inc.",35 South Ave,Tiverton,RI,02878-4513,401-624-4427
"Clems Electric Co, Inc.",11 Broadcommon Rd,Bristol,RI,02809,401-253-4043
Clena Sky Transport LLC,71 Bucklin St # 2,Pawtucket,RI,02861,401-771-8951
"Climaco Trucking, Inc.",33 Binford Street Apt 1,Central Falls,RI,02863,617-861-1385
Cloverdale Dairy Farm,2476 Scituate Avenue,Cranston,RI,02905,401-821-8631
Cm Trucking LLC,285 Washington Ave,Providence,RI,02905,401-941-5292
Cmc Transportation Service LLC,123 Jewett St,Providence,RI,02908,401-301-1130
"Cmd Transportation, Inc.",1800 Post Road Suite 17g,Warwick,RI,02886,401-919-9044
Cmo Trucking LLC,16 Lookout Ave,Cranston,RI,02920,401-500-9993
Cna Plastering,3 Abbott Run Valley Rd,Cumberland,RI,02864,401-639-4828
Coast Realty LLC,1 Realty Way,East Providence,RI,02914,401-438-1000
Coast To Coast Logistics LLC,470 Annaquatucket Road,North Kingstown,RI,02852,802-922-2140
"Coast To Coast Transmissions, Inc.",595 Metacom Ave,Warren,RI,02885,401-245-9337
Coastal Corp,35 Tripoli St,Providence,RI,02909,401-383-4997
Coastal Distributors,71 Dexter Street,Pawtucket,RI,02920,401-473-1785
"Coastal Electric, Inc.",64 Halsey Street,Newport,RI,02840,401-849-5656
Coastal Idealease LLC,17 O'keefe Lane,Warwick,RI,02888,401-784-3060
Coastal International Trucks LLC,17 O Keefe Lane,Warwick,RI,02888,401-784-3060
Coastline Property Management LLC,40 Canal St,N Smithfield,RI,02896,401-765-5400
"Cohen Heating Supply Co, Inc.",38 Bath St,Providence,RI,02908-4847,401-751-7200
Coia Sanitation LLC,137 Angell Road,Cumberland,RI,02864,401-333-2555
Colato Transportation LLC,18 Calla St,Province,RI,02905,401-261-2859
"Cole Cabinet Co, Inc.",530 Wellington Avenue,Cranston,RI,02910,401-467-4343
Coletta's Garage,425 Richmond Street,Providence,RI,02903,401-421-3232
"Colfax, Inc.",38 Colfax Street,Pawtucket,RI,02860,401-724-3800
Collado Trucking,147 Reservoir Avenue,Providence,RI,02907,401-632-0680
"Collette Travel Service, Inc.",124 Broad Street,Pawtucket,RI,02860,N/A
Colombia Auto Service Corp,1160 Westminister Street,Providence,RI,02909,401-369-7511
Colonial,30 Mark Dr,N Kingstown,RI,02852,401-261-8208
Colonial Machine,5 Salvas Ave,Coventry,RI,02816,401-826-1883
"Colonial Moving Storage, Inc.",170 Printery Street,Providence,RI,02904,401-722-1700
Help-u-movecom,155 Amaral Street,East Providence,RI,02915,401-434-4630
"Commercial Windows, Inc.",310 Bourne Ave,Providence,RI,02916,774-282-4450
"Commodity Haulers Express, Inc.",342 Compass Circle Unit A4,North Kingstown,RI,02852,401-267-0030
Compass Deli Foods And Provisions,231 Victory Hwy,Pascoag,RI,02859,401-568-4477
Compass Seafood LLC,30 Browning Dr,Charlestown,RI,02813,401-364-3129
Completely Custom LLC,376 Dry Bridge Rd Ste D1,N Kingstown,RI,02852-5239,401-595-2123
Conanicut Marina,1 Ferry Wharf,Jamestown,RI,02835,401-423-7158
Concepcion Chamorro,37 Moorefeld Street,Providence,RI,02909,401-640-8929
"Constant Technologies, Inc.",125 Steamboat Ave,Wickford,RI,02852,401-294-7171
"Construct Oil Company, Inc.",27 Dexter Road,East Providence,RI,02914,401-431-5060
"Construction Equipment Rentals, Inc.",146 Westminster Street,Providence,RI,02905,401-419-4568
"Consumers Moving Company, Inc.",750 Wellington Ave,Cranston,RI,02910,401-785-0152
"Continental Distribution Services, Inc.",65 Quaker Lane,West Warwick,RI,02893,401-252-3112
"Contract Service And Maintenance Co, Inc.",900 Charles St,North Providence,RI,02904-5623,401-524-1523
"Contractors Supply, Inc.",3340 Pawtucket Ave,E Providence,RI,02915 ,401-434-4300
"Contractors Supply, Inc.",3340 Pawtucket Avenue,East Providence,RI,02915,401-434-4300
Cookie Monster Distributing,18 Oaklawn Manor Drive,Cranston,RI,02920,401-946-8823
"Coop Enterprises, Inc.",54 Skunk Hill Road,Hope Valley,RI,02832,508-699-8901
"Copex, Inc.",491 Silver Spring Street,Providence,RI,02904,401-431-1137
"Copley Distributors, Inc.",121 123 Hopkins Hill Road,West Greenwich,RI,02817,401-392-3580
"Coquitas Transportation, Inc.",4 Joy St,Johnston,RI,02919,401-837-2622
Core Business Technologies,2224 Pawtucket Ave,East Providence,RI,02914,401-431-0700
Corelli Transportation,1580 Cranston Street,Cranston,RI,02920,401-942-9467
Cormiers Waste Hauling Systems,109 Rowe Avenue,Warwick,RI,02889,401-732-0445
Jej,23 Atlantic Avenue,Providence,RI,02907,401-265-3692
Corona Transportation LLC,220 Taft St Unit 10,Pawtucket,RI,02860,401-425-1263
Danielson Semedo Correia,62 Laura St Fl 1,Providence,RI,02907,516-451-8332
Correira Bros LLC,222 Jefferson Blvd Ste 200,Warwick,RI,02888,508-558-7522
"Cosco, Inc.",707 Park East Drive,Woonsocket,RI,02895,401-765-0009
Cottrell Bros LLC,35 Main Road,Tiverton,RI,02878,401-624-7720
Cox Communications,9 Jp Murphy Hwy,West Warwick,RI,02893,401-615-1392
"Cpi Oil, Inc.",37 Terry Lane,Chepachet,RI,02814,401-568-8874
"Cr, Inc.",407 Pleasant St,Pawtucket,RI,02860,401-663-8024
Craft Beer Guild Distributing Of Rhode Island LLC,225 Metro Center Blvd,Warwick,RI,02886,401-732-2337
Craft Beer Guild LLC,225 Metro Center Blvd,Warwick,RI,02886,401-305-3830
Craig's Disel Service,52 Brownell Lane,Portsmouth,RI,02871,401-683-6473
Crane Source LLC,180 Marjoram Drive,Cranston,RI,02921,781-585-7777
Crane Transportation Co,149 Selwyn Way,Providence,RI,02908,401-421-7894
Cranston Trucking Co Div Of Cranston Print Works Co,25 Hopkins Hill Road,West Greenwich,RI,02816,401-397-2442
Cranston Brokerage Company,1381 Cranston St.,Cranston,RI,02920,401-397-2442
Cranston Welding Supply Company,1425 Park Avenue,Cranston,RI,02920-6634,401-942-4411
Cranston Windustrial Company,150 Jefferson Blvd,Warwick,RI,02888,401-941-8370
Crawford Transport Service,10a Appian Way,Smithfield,RI,02917,401-413-4796
"Crc Marine Services, Inc.",60 Sea Breeze Lane,Bristol,RI,02809,401-253-0341
Cream Hill Holdings LLC,1637 W Shore Rd,Warwick,RI,02889-4918,401-226-5432
Creole Dreams Transportation LLC,62 Robinson Ave,Pawtucket,RI,02861,401-288-2355
Peoples Moving & Storage,133 Central Street,Warwick,RI,02886,401-737-6000
Cristian Towing LLC,39 Opper St Apt1,Providence,RI,02904,401-301-2362
Cristoline Company,338 Compass Circle Unit C,North Kingstown,RI,02852,401-295-2719
Crmm LLC,407 Pleasant St,Pawtucket,RI,02860,860-815-0728
"Crompton Systems Corporation, Inc.",70 Savoy St,Providence,RI,02906,702-555-5555
Cross Country Logistics LLC,801 Weeden St,Pawtucket,RI,02860-1529,401-345-9224
Crosstown Trucking LLC,57 Bellevue Ave Apt 2,Providence,RI,02907,401-525-4458
Crow Transportation LLC,20 Alto St,Cranston,RI,02920,401-403-6950
Crowley Transport LLC,41 Sharon Dr,Coventry,RI,02816,401-660-5411
"Crown Collision Center, Inc.",180 Broadway,Pawtucket,RI,02860-2205,401-728-8800
Crown Logistics LLC,99 Jeffers St Apt 2,Woonsocket,RI,02895,860-815-0728
Crown Supply Company,26 Silver Spring St,Providence,RI,02904-2539,401-861-6329
Crucey LLC,270 Laurel Hill Ave Apt 1,Providence,RI,02909,401-280-7986
Cruise Carpets,736 Dexter Street,Central Falls,RI,02863,401-724-3989
"Cruz Transit, Inc.",647 3rd Ave,Woonsocket,RI,02895,401-572-4135
Cruz Trucking Service,289 Prairie Ave 1 Floor,Providence,RI,02905,401-499-1459
Crystal Spring Water Company,1259 West Main Rd,Middletown,RI,02842,401-846-0916
Outlaw Trucking,11 Broadcommon Rd Unit 2 - #220,Bristol,RI,02809,401-254-6049
Cs Transport LLC,182 California Ave,Providence,RI,02905,401-451-0757
"Csr Leasing, Inc.",289 Cowesett Avenue Suite 14,West Warwick,RI,02893,401-255-9663
"Ctm Transportation, Inc.",31 Baron Road,Barrington,RI,02806,401-247-2131
"Cullion Excavating, Inc.",270 North Rd,South Kingstown,RI,02880,401-461-1800
"Cumberland Foundry Co, Inc.",West Wrentham Rd,Cumberland,RI,02864,401-658-3300
"Cundo Transportation, Inc.",34 Tweed St,Cranston,RI,02920,646-537-5489
"Cunha Trucking & Moving Co, Inc.",55 Amaral Street,East Providence,RI,02915,401-438-6585
Current Carrier Corp,255 York Ave,Pawtucket,RI,02860,401-728-3150
Curtis Rondeau Trucking,Po Box 3061,Woonsocket,RI,02895,401-226-2814
Custom & Miller Box,25 Almeida Avenue,East Providence,RI,02914,401-431-9006
"Custom Drywall, Inc.",63 Commercial Way,East Providence,RI,02914,401-434-2567
Custom Sealcoating,44 Cadora Ave,Warwick,RI,02886,401-641-7383
"Custom Seamless Gutters, Inc.",260 Pawtucket Ave,Pawtucket,RI,02860,401-726-3137
"Cva Delivery, Inc.",200 Admiral Street,Providence,RI,02908,401-524-8043
Cvs Transportation LLC,1 Cvs Drive,Woonsocket,RI,02895,412-271-7491
Belleville Auto,315 Oak Hill Road,North Kingstown,RI,02852,401-295-0585
D & L Rhody Express LLC,96 Magill St,Pawtucket,RI,02860,401-572-6732
"D & N Equipment Services, Inc.",2131 Plainfield Pike,Johnston,RI,02919,401-943-6315
D & R Automotive,21 Slade St,Pawtucket,RI,02861,401-724-2550
"D & S Heating, Inc.",72 Winthrop Avenue,West Warwick,RI,02893,401-822-4508
D & Y Express LLC,89 Sackett St Fl 1,Providence,RI,02907,401-696-7273
D A Lambert Transport LLC,17 Hurdis Street,North Providence,RI,02904,401-728-8059
"D A S Sound Systems, Inc.",10 Toppa Blvd,Newport,RI,02840-2330,401-847-3741
D Almonte Transportation LLC,36 Steuben St Fl 2,Providence,RI,02909,401-644-0596
D And D LLC,201 Arnolds Neck Road,Warwick,RI,02886,401-737-3441
D And D Refrigerated Transportation,4 Grills Lane,Bradford,RI,02808,401-487-9533
Dannys Appliance,263 Academy Avenue,Providence,RI,02908,401-351-0510
D And L Trucking,153 Cottage Street,Pawtucket,RI,02860,401-475-1468
D And M Transportation Corp,25 Homestead Ave,Warren,RI,02885,774-526-5394
"D B Auto, Inc.",170 Broadway,Pawtucket,RI,02860,401-726-2330
D B Transport,25 Concord Street,Pawtucket,RI,02860,401-722-8005
"D Brown Enterprises, Inc.",159 Fairfax Drive,Warwick,RI,02888,401-941-4029
D C Masonry,185 Warren Avenue,East Providence,RI,02914,401-474-9343
D C Trucking LLC,40 Inez Dr,North Kingstown,RI,02852,401-301-5157
D Costa Electric Co LLC,126 Hobson Ave,East Providence,RI,02914,401-438-1881
"D D Transportation Co, Inc.",800 Carrs Pond Rd,East Greenwich,RI,02818,401-884-1341
D D Trucking,9 Newman Avenue,Rumford,RI,02916,508-336-0999
"D Feole Masonry, Inc.",51 East Hill Drive,Cranston,RI,02920,401-480-6689
D Hill Sons Trucking,33 Laura Street,East Providence,RI,02914,401-434-2521
"D J Looney Warehousing, Inc.",120 Howland Avenue,Eat Providence,RI,02914,508-930-4750
D J S Auto Truck Performance Center,279 Scituate Ave,Johnston,RI,02919,401-943-5150
"D L And Sons Transportation, Inc.",2 Fairmount Ave,Johnston,RI,02919,401-454-6869
"D L Service, Inc.",30 Kowal Ct,Coventry,RI,02816,401-821-0652
"D L Terminals, Inc.",125 Carlsbad Street,Cranston,RI,02920,401-943-6020
"D L Transportation, Inc.",2 Fairmount Ave,Johnston,RI,02919,401-454-6869
"D Lewis & Son, Inc.",252 South Road,Exeter,RI,02822,401-294-9632
D M Antiques,337 North Broadway,East Providence,RI,02916,401-431-1231
D M Trucking Corp,218 Rathbun Street Apartment 3,Woonsocket,RI,02895,401-597-6208
"D N Transportation, Inc.",100 Industrial Drive,North Smithfield,RI,02896,401-762-3337
D Pena Transportation LLC,18 Chaffee St,Providence,RI,02909,347-858-9992
D R Transportation,53 Larkin Avenue,Warwick,RI,02886,401-739-2041
"D Ray, Inc.",118 Staples Road,Cumberland,RI,02864,401-333-1859
D Sanch Trucking LLC,81 Sackett St,Providence,RI,02907,401-556-3077
D T Trucking,3889 South County Trail,Kenyon,RI,02836,001-364-9597
D&a Transportation LLC,106 Gladstone St,Cranston,RI,02920,401-654-0630
D&b Trucking LLC,16 Mary St Fl 2,Central Falls,RI,02863,401-543-0433
Tanglewood Farm,24 Stafford Court,Cranston,RI,02920,401-463-5494
"D&d Metal Works, Inc.",30 Starline Way,Cranston,RI,02921,202-521-1493
"D'allesandro Trucking, Inc.",26 Greenhill Road,Johnston,RI,02919,401-944-2882
D'andrea & Son Transportation,115 Rocky Hill Rd,N Scituate,RI,02857,401-934-0140
"D'libro Excavating, Inc.",5 Daisy Street,West Warwick,RI,02893,401-884-8884
100 Percent Truck,20 Hope St Apt 2,Pawtucket,RI,02860,401-585-1389
"D3 Logic, Inc.",89 Commercial Way,East Providence,RI,02914,401-435-4300
D3kids Logistics LLC,37 Buttonwoods Ave,Warwick,RI,02886,401-662-3245
Da&i Trucking LLC,163 Gray St Apt 1,Providence,RI,02909,401-222-0896
"Dac Auto Transportation, Inc.",148 Winsome Drive,Saunderstown,RI,02874,401-295-7710
Dacosta Br Transportation,422 Weeden St,Pawtucket,RI,02860,401-660-9740
Dale & Co Trucking LLC,118 Dover Ln,Carolina,RI,02812,401-516-8958
Big Boss Trucking,100 Wayne St,Providence,RI,02908,401-390-6844
Damaco LLC,42 Gallatin St Apt 1,Providence,RI,02907,401-688-2433
Dan Sleboda & Son Excavating,171 Whipple Road,Smithfield,RI,02917,401-232-1123
"Dan's Oil, Inc.",66 Hope Avenue,Hope,RI,02831,401-822-4430
"Daneau Trucking, Inc.",63 Bucklin St,Pawtucket,RI,02861,401-723-7759
D Raposo Trucking,250 Indiana Avenue,Providence,RI,02905,401-467-7832
Danys Towing,422 Plainfield Street,Providence,RI,02909,401-261-2410
Daniel J Capuano 111,277kearney Street,Cranston,RI,02920,401-578-3000
Daniel Qvarnstrom,9 Harding Avenue,Riverside,RI,02915,401-437-1743
Sleboda Trucking,171 Whipple Rd,Smithfield,RI,02917,401-265-1481
V And R Snacks,45 Scott Rd,Cumberland,RI,02864,401-475-3018
Danny J Legendre,268 Jillson Ave,Woonsocket,RI,02895,401-356-4039
Danny's Movers,Route 6,Foster,RI,02825,N/A
Dans Transportation,6 Park St,Central Falls,RI,02863,401-359-7266
Darou Salam Trucking LLC,36 Ambrose St,N Providence,RI,02904,917-345-4166
Vineyard Rd Garden Supply,2800 Warwick Ave,Warwick,RI,02889,401-732-2353
"Davenport Transport Service, Inc.",587 Church Street,Warwick,RI,02889,N/A
Dk Enterprises,58 Evergreen Dr,Exeter,RI,02822,401-294-3447
David Arsenault Trucking Company,132 Keechdam Road,Chepachet,RI,02814,401-568-0773
New England Modular,600 Joslin Rd,Harrisville,RI,02830,401-651-9402
David Collado,235 Bourdon Blvd,Woonsocket,RI,02895,401-309-4527
Muvit,209 Cheshire Dr,Cranston,RI,02921,401-465-6427
David Delfino,9 Randall St,Johnston,RI,02919,401-942-5055
David Deluca Sr,1801 Mineral Spring Ave Unit1,North Providence,RI,02904,401-523-0022
David Dexter,625 East Ave,Harrisville,RI,02830,401-413-5329
Sullivans,108 Serrel Sweet Road,Johnston,RI,02919,405-576-3188
David Howard,36 Love Lane,North Kingstown,RI,02852,401-885-4840
Cook Service Company,179 Ashaway Road,Bradford,RI,02808,401-377-8850
D Wilson Trucking,5 Jenny Lane,Bristol,RI,02809,401-254-9692
David Lamontagne,232 Joe Sarle Rd,Chepachet,RI,02814,401-568-5047
Rw Warner Moving & Trucking,1601 Hope Rd,Fiskeville,RI,02823,401-821-0029
David Masterson Upholstering,165 Front Street,Pawtucket,RI,02860,401-724-0290
David Matos,43 Belmont Ave,Providence,RI,02908,401-996-5685
David R Morales,44 Lynch Street,Providence,RI,02908,401-226-9356
Tlr Pools,648 Maple Valley Rd,Coventry,RI,02816,401-397-4080
David W Marshall Jr,6 Anne Rd,Greenville,RI,02828,401-580-7838
Davidangelotti,43 Shippee School House Rd,Foster,RI,02825,401-642-2045
Davies Service Center,1008 Westshore Road,Warwick,RI,02889,401-737-8775
Dawud Abdur Raheem,72 Sterling St,Pawtucket,RI,02860,207-693-8283
Day Trek Transportation LLC,9 Denver Avenue,Cranston,RI,02905,401-781-1400
Dc Relocation,31 W Warwick Ave,West Warwick,RI,02893,401-572-0596
Dcl Transport,425 Carpenter Rd,Hope,RI,02831,401-301-0331
Dcn Transport LLC,5 Farnum Pike,Smithfield,RI,02917,401-212-0668
Dd Transportation,70 Liberty Lane,West Kingston,RI,02829,401-294-2565
De Jesus Transportation,133 Wood Street 1st Floor,Providence,RI,02909,401-641-9137
"De La Cruz Trucking, Inc.",107 Broad St,Pascoag,RI,02859,401-426-8545
De Leon,20 Gentian Avenue,Providence,RI,02908,401-497-4683
De Los Santos Logistics LLC,33 Reardon Ave,Riverside,RI,02915,401-644-1896
"Dean Warehouse Services, Inc.",1 John C Dean Memorial Dr,Cumberland,RI,02864,401-334-4677
"Dean Warehousing Services, Inc.",1 John C Dean Memorial Blvd,Cumberland,RI,02864,401-334-4677
"Dean Warehousing Services, Inc.",15 Hamlet Street,Pawtucket,RI,02861,401-726-8610
American Eagle Transport,1335 Douglas Pike,Smithfield,RI,02917-1117,401-639-5122
"Decastro Builders, Inc.",25 Asylum Rd,Warren,RI,02882,401-255-3329
"Dedicated Transportation, Inc.",108 Old Pocasset Road,Johnston,RI,02919,401-944-4005
Dee King Logistics LLC,1 Princeton Ave Apt 3,Providence,RI,02907,401-659-5405
Deep River Transportation LLC,112 Homestead Ave,N Smithfield,RI,02896,401-965-3089
"Deerfield Trucking, Inc.",5 Keyes Court,East Greenwich,RI,02818,401-884-8159
"Deez, Inc.",53 Venturi Ave,Warwick,RI,02888,203-613-5411
Deez Trucking LLC,354 Waterman Ave,Smithfield,RI,02917,401-569-2851
Dejovi Transportation LLC,2 Randolph St,Cranston,RI,02920,401-588-2699
Del Rosario LLC,207 Mendon Rd,Cumberland,RI,02864,857-350-2314
Delacruz Transportation LLC,3 Mica Ave,Cranston,RI,02920,941-584-9868
Deleon Express LLC,48 King Philip St,Providence,RI,02909,401-215-0902
Delfarno Construction And Freight Forwarding,460 Ocean Road,Narragansett,RI,02882,401-284-3955
Deliver Me LLC,28 Kiley Way,Coventry,RI,02816,401-602-0389
"Delivery Management Services, Inc.",44 A Street,Johnston,RI,02919,401-649-4900
Delivery Marte LLC,24 Atlantic Ave,Providence,RI,02907,401-688-5692
"Deloria Transportation, Inc.",11 First Avenue,Cumberland,RI,02864,401-369-1172
"Delta Electro Power, Inc.",215 Niantic Avenue,Cranston,RI,02907,401-944-8350
Delta Mechanical Contractors LLC,44 Wilclar Street,Warwick,RI,02886,401-737-3500
Delta Transporte Service LLC,135 Woodward Rd,Providence,RI,02904,401-241-9402
Deluca Trucking LLC,72 Tupelo Road,South Kingstown,RI,02879,401-451-2246
Denise Lyons Transportation Management Ltd,67 Mullen Hill Road,Little Compton,RI,02837,N/A
Denise Lyons Transportation Management Ltd,67 Mullen Hill Road,Little Compton,RI,02837,401-635-9569
Dennis F Conte,108 Old Pocascet Road,Johnston,RI,02919,401-258-1598
Green Ocean Freight Broker,16 Lakeview Drive,Greenville,RI,02828,401-949-8660
Dennis Ucci,38 Anchorage Road,Warwick,RI,02889,401-737-2683
Dependable Couriers LLC,22 Parsonage St Ste 177,Providence,RI,02903,401-545-4052
Dependable Expedited Couriers,100 Knight St Apt 3f,Providence,RI,02909,570-702-9642
Dependable Snow Plowing Services LLC,22 Wesleyan Avenue,Coventry,RI,02816,401-821-5529
Derek Ruzycki Distributors,45 Riverdale St ,Providence,RI,02909,401-225-4172
Robert Corio Designs,1263 Hartford Ave,Johnston,RI,02919,401-272-2211
Compton Products Co,1160 Mount Pleasant Rd,Harrisville,RI,02830-1736,401-769-7334
Desnoyers Trucking LLC,9 Eileen Dr,N Kingstown,RI,02852,401-317-0985
Destinations Travel,75 Union Street,Providence,RI,02903,N/A
Deuces Wild Transportation LLC,17 Oswald Street,Pawtucket,RI,02861,401-742-2351
Devilcat Transport LLC,269 High St,Woonsocket,RI,02895,332-250-4702
Dexter Sign Co,70 Waterman Avenue,East Providence,RI,02914,401-434-1200
Df Auto Transportation LLC,54 Carr St,Providence,RI,02905,401-286-7749
"Dial Oil Service South, Inc.",1010 Tiogue Ave,Coventry,RI,02816,401-821-4447
Diamond Trucking Excavation,1 Plainfield Pike,Foster,RI,02816,401-647-5366
"Dias Brothers Masonry & Contractors, Inc.",25 Burgess Ave Apt 2,East Providence,RI,02914,401-434-6621
Dias Semedo Services LLC,106 Pleasant St,Providence,RI,02906,401-678-6546
Dias Transportation,46 Hicks Street,Pawtucket,RI,02860,401-688-7207
Diaz Logistics LLC,15 Ledge St,Central Falls,RI,02863,401-390-7311
Diaz Transport LLC,17 Garrity St,Pawtucket,RI,02861,401-429-9265
Dickson Transportation LLC,36 Steuben St Apt 2,Providence,RI,02909,401-497-0551
Dicola Oil Service Service,31 Glen Road,Cranston,RI,02920,401-467-5906
Diesel Maintenance Services LLC,44 A Street,Johnston,RI,02919,401-649-4900
"Diffley And Daughters Septic Sewer & Drain, Inc.",1855 S County Trail,East Greenwich,RI,02818,401-739-1212
"Difruscia Industries, Inc.",20 Starr Street,Johnston,RI,02919,401-943-9900
"Dig Build, Inc.",85 Railroad Avenue,Johnston,RI,02919,401-641-5553
"Dig Rite Company, Inc.",190 Beaufort Street,Providence,RI,02908,401-952-3396
Alex Auto,226 Park Ave,Cranston,RI,02905,401-941-7076
"Dillabox, Inc.",42 Rosa Rd,Middletown,RI,02842,401-952-5030
Dimascio Brothers Equipment LLC,2416 Plainfield Pike,Johnston,RI,02919,401-260-2000
"Dion Signs And Service, Inc.",1075 High St,Central Falls,RI,02863,401-724-4459
Dionee & Son's Fuel Oil,30 Whitford Street,Coventry,RI,02816,401-821-9266
Dios Es Bueno Trans LLC,37 Moorefield St,Providence,RI,02909,401-640-8929
Direct Deliveries LLC,12 Fairview St,Providence,RI,02908,401-261-8283
"Direct Express Courier, Inc.",101 Higginson Avenue,Lincoln,RI,02865,401-726-8800
"Dirocco Transportation, Inc.",30 Hobson Avenue,North Providence,RI,02904,401-265-4365
"Discovery Productions, Inc.",654 Green End Ave ,Middletown,RI,02842-5644,631-357-0923
"Displays By Garo, Inc.",1200 Hartford Ave,Johnston,RI,02919,401-331-8686
Distribuidora El Paisano Import LLC,601 Hartford Ave,Providence,RI,02909,401-865-6603
"Distribution Management Services, Inc.",372 Greenville Ave,Johnston,RI,02919,401-527-8138
Divine Transporters LLC,46 Regent Ave,Providence,RI,02908,401-419-9048
"Diving Services, Inc.",12 Spur Rd,Foster,RI,02825,401-450-6990
Dj Development Corp,339 Market Street,Warren,RI,02885,401-245-8979
Craters & Freighters,1226 Mendon Road,Cumberland,RI,02864,401-334-3011
Dks Auto,150 Fairfax Dr,Warwick,RI,02888,401-454-9552
Dl Delivery And Logistics LLC,47 Wood Ave Ste 2,Barrington,RI,02806,401-771-8371
Dl Transportation LLC,40 Reservoir Ave,Providence,RI,02907,401-481-5610
Dm Page Transporting LLC,3097 W Shore Rd,Warwick,RI,02886,401-660-3474
Dm Property Services LLC,Purgatory Rd,Exeter,RI,02822,401-524-2585
Dmd Lopes LLC,6 Park St,Central Falls,RI,02863,401-359-7266
"Dmi Auto Trans, Inc.",45 Dahlia Street,Warwick,RI,02888,401-463-9635
Docouto's Transportation,385 Broadway #1,Pawtucket,RI,02860,401-954-3757
Dolmin Rivera,20 Gerald St Apt#2,Pawtucket,RI,02860,401-499-4632
Folco And Son Trucking,107 Fletcher Ave,Cranston,RI,02920,401-265-4573
Dominguez Transportation LLC,163 Parade St Apt 3,Providence,RI,02907,508-287-9862
"Dominic Trucking, Inc.",41 Parker St,Central Falls,RI,02863,973-766-3657
"Donada, Inc.",667 Providence St,Woonsocket,RI,02895,401-769-9811
Dd Snacks,262 Mechanic Street,North Smithfield,RI,02896,401-767-6401
Donald Gordon,972 Main St,Hope Valley,RI,02832,401-524-3051
C D K,203 Douglas Pike,Smithfield,RI,02917,401-480-6207
Hudson Water Transport-,4509 Main Road,Tiverton,RI,02878,401-624-3735
Done Right Automotive Tranportation,158 Hunt St,Central Falls,RI,02863,140-131-6037
Donison Allen,451 Lapham Farm Road,Pascoag,RI,02859,401-486-6907
Tri-town Transport,185 Bay View Ave,Bristol,RI,02809,401-639-0770
Donnellys School Apparel,333 Niantic Ave,Providence,RI,02907,401-942-5202
Dor Trucking LLC,20 Gerald St,Pawtucket,RI,02860,203-466-9644
"Dorman's Auto Center, Inc.",434 Prospect Street,Pawtucket,RI,02860,401-726-6699
Dorothy L Silva,208 Lexington Ave,North Providence,RI,02904,401-578-2528
"Douglas Express Trucking, Inc.",165 Vincent Ave,East Providence,RI,02914,401-226-5655
Doug's Lawn Care,661 Metacom Ave,Bristol,RI,02809,401-225-9297
Douglas Lumber Corp,125 Douglas Pike,Smithfield,RI,02917,401-231-6800
"Dove Ride, Inc.",8 Mount Pleasant Ave,Providence,RI,02908,401-574-6714
"Doyle Transportation, Inc.",169 Rock Ridge Dr Apt A,Woonsocket,RI,02895,401-533-6196
Dr Transportation LLC,94 Mawney St,Providence,RI,02907,401-212-1614
"Dr Trucking, Inc.",84 Berkley St,Providence,RI,02908,401-226-4477
Dragon Logistics LLC,741 Namquid Dr,Warwick,RI,02888,401-487-6963
Drc Logistics,42a Eagle Run,East Greenwich,RI,02818,401-884-3243
Dream Drive Exotics LLC,65 Patterson Ave,Pawtucket,RI,02860,401-475-2901
Dream Team Junk Removal,575 Dyer Ave Apt J164,Cranston,RI,02920-5257,401-567-4873
Driven Moves Logistics LLC,36 Vervena St Apt 2,Cranston,RI,02920,401-601-2039
"Driveways By R Stanley Jr, Inc.",794 Solcum Road,Saunderstown,RI,02874,401-294-1169
"Drl Transport, Inc.",244 Rhodes Ave,Woonsocket,RI,02895,401-692-6268
Droitcour Company,28 Graystone Street,Warwick,RI,02886,401-737-4646
"Dry Bridge Sand And Stone, Inc.",471 Dry Bridge Road,North Kingstown,RI,02852,401-295-2147
Dsb Truck'n LLC,155 Webster Street Apt 1,Pawtucket,RI,02861,401-580-2859
Dt Transport,1053 Broad St,Providence,RI,02905,401-999-0706
Dtm Delivery LLC,41 Parker St Apt 1,Central Falls,RI,02863,401-428-0461
"Dts Trans, Inc.",142a Danielson Pike,Foster,RI,02825,860-428-3747
Dua Logistics,24 Mansfield St,Providence,RI,02908,401-999-0706
Duarte Delivery LLC,48 Comstock St,Pawtucket,RI,02860,401-545-3586
Dudley Fisheries LLC,12 Greene Ct,Westerly,RI,02891,401-603-8530
Dulan,124 Brewster St,Pawtucket,RI,02860-4447,401-580-0101
Dunamis Transportation LLC,27 Kneeland St,Cranston,RI,02905,401-327-3554
"Duquette Trucking, Inc.",30 Jerome Avenue,Warwick,RI,02889,401-732-5707
Durand Delivery LLC,740 Commonwealth Ave,Warwick,RI,02886,516-507-4552
Dwm Courier Service LLC,52 Moorland Ave,Cranston,RI,02905,401-996-1171
"Dyer Excavation, Inc.",13 Yawgoo Pond Road,West Kingston,RI,02892,401-783-6713
"Dyer Trucking, Inc.",19 Prospect St,Cranston,RI,02910,401-461-3772
Dynamic Freight Co,23 Bagley St Apt 1,Pawtucket,RI,02860,401-545-2157
Dynamic Transport,13 Sprague Ave,Cranston,RI,02910,401-378-1367
Dynasty Investments LLC,129 Terrace Ave,Cranston,RI,02920,401-339-4896
"Dz Shipping Transport, Inc.",71 Taft Ave,Providence,RI,02906,401-447-8988
E & E Transportation LLC,1395 Broad St Apt 3,Providence,RI,02905,401-280-8506
"E & G Transport, Inc.",77 Sumter St,Providence,RI,02907,516-444-8639
E & J Transportation LLC,92 Webster St Apt 3,Pawtucket,RI,02861-1018,401-338-7106
E & M Coastal Trucking LLC,6200 Post Rd Trlr 30,N Kingstown,RI,02852,401-410-4488
E & P Day Trips Ltd,Shore Road,Westerly,RI,02891,N/A
"E And G Transport, Inc.",9 John Street,Barrington,RI,02806,401-437-0849
"E Constantini Transportation, Inc.",3 Nutmeg Dr ,Johnston,RI,02919,401-934-1245
"E G T Petro Service Systems, Inc.",274 York Avenue,Pawtucket,RI,02860,401-722-6313
E Garceau Trucking,1211 Douglas Ave # 1,North Providence,RI,02904,401-353-4489
E J Excavating LLC,77 Camara Drive,Portsmouth,RI,02871,401-682-2172
"E M C Trans, Inc.",32 Atkins St,Warwick,RI,02886,401-737-4636
"E Mac Transport Company, Inc.",342 Compass Circle Unit D 4,North Kingstown,RI,02852,401-667-7440
"E Prov Trucking, Inc.orporated",51 Jenks Street,East Providence,RI,02914,401-226-2190
"E W Audet & Sons, Inc.",169 Bay St,Providence,RI,02905-4826,401-467-3510
"E W Burman, Inc.orporated",33 Vermont Avenue,Warwick,RI,02888,401-738-5400
E W Gardner Golf Cars LLC,247 Nooseneck Hill Road,Exeter,RI,02822,401-295-2964
E Z Auto Transport LLC,133 Bacon St,Pawtucket,RI,02860,401-580-0774
E&g Delivery LLC,1030 Greenwich Ave,Warwick,RI,02886-4500,619-787-0211
E&j Contractors LLC,15 Sunset Ave,Providence,RI,02909,401-699-7652
E&j Ramos Transportation LLC,46 Spokane St,Providence,RI,02904,774-225-4458
E&k Logistics LLC,33 Ayrault St,Providence,RI,02908,401-617-9933
"E&s Acoustical Ceilings, Inc.",1763 Plainfield Pike,Johnston,RI,02919,401-421-8899
"E-z Dumper & Trailers, Inc.",21 Rocky Hill Road,Smithfield,RI,02917,401-233-9779
E-z Truck Transport LLC,6 Western Hills Ln Apt 3104,Cranston,RI,02921,401-648-1432
Ea Transportations LLC,66 Appleton Ave,Pawtucket,RI,02860,401-451-5800
"Eagle Auto Transfer, Inc.",87 Elmdale Avenue,Providence,RI,02909,401-286-2016
"Eagle Cornice Co, Inc.",89 Pettaconsett Ave,Cranston,RI,02920-7916,401-781-5978
"Eagle Electric, Inc.",15 Gray Lane Suite 403,Ashaway,RI,02804,401-596-8111
Eagle Laundry,411 Charles St,Providence,RI,02904,401-831-9815
"Eagle Transportation, Inc.",7 Castleton Dr,Cranston,RI,02921,401-942-4545
Eap Logistics LLC,109 Dexter St,Cumberland,RI,02864,401-479-1301
Earl A Spano,90 County Street,Pawtucket,RI,02861,401-644-8653
"Earth Scape, Inc.",6 Circlewood Dr,Coventry,RI,02816-6643,401-826-3400
Earthworks,41 Potter Hill Rd,Westerly,RI,02891,401-864-3649
Lasso Trucking,22 Elton Street,Coventry,RI,02816,401-741-1822
East Bay Movers,132 Bayview Avenue,Bristol,RI,02809,401-253-2438
East Coast Disposal LLC,202 Chase Rd,Portsmouth,RI,02871,401-864-1174
East Coast Freight LLC,24 Joy Street,Providence,RI,02908,401-383-8181
"East Coast Industries, Inc.",881 Curtis Corner Raod,Wakefield,RI,02879,401-788-9360
East Coast Interiors Corp,17 Minnesota Ave,Warwrick,RI,02888,631-543-2186
East Coast Junk Removal LLC,65 Wheeler Ave Fl 1,Cranston,RI,02905,401-545-6571
"East Coast Lighting & Production Services, Inc.",88 Jefferson Blvd Ste D,Warwick,RI,02888,401-467-8780
"East Coast Logistics, Inc.",25 Princess Ave Apt 2,Cranston,RI,02920,401-999-9277
"East Coast Recovery, Inc.",286 Mineral Springs,Pawtucket,RI,02860,401-724-8180
East Coast Trucking,961 Main Street,Hope Valley,RI,02832,401-539-7091
"East Greenwich Oil Co, Inc.",390 Main St,East Greenwich,RI,02818-3606,401-884-2454
"East Greenwich Winair Company, Inc.",289 Kilvert Street,Warwick,RI,02886,401-732-1585
East Providence Siding,105 Chaplin Street,Pawtucket,RI,02861,401-439-8607
"East Providence Towing, Inc.",30 Veterans Memorial Parkway,East Providence Ri,RI,02914,401-435-4444
"East Side Management, Inc.",2050 Plainfield Pike,Cranston,RI,02921,401-943-0005
"Eastbay Transportation, Inc.",9 Newman Avenue,Rumford,RI,02916,508-336-3602
"Eastern Recovery, Inc.",15 Industrial Lane,Johnston,RI,02919,401-270-8905
"Eastern Recovery, Inc.",10a Enterprise Lane,Smithfield,RI,02917,401-270-8905
"Eastland Electric, Inc.",35 Moshassuck Rd,Lincoln,RI,02865,401-334-1931
"Eastman Movers, Inc.",92 New London Turnpike,West Greenwich,RI,02817,401-885-4216
"Eastside Service Center, Inc.",1100 Hope St,Providence,RI,02906,401-421-9100
Eastway Transportation Services LLC,10 Ross Simon Drive,Cranston,RI,02920,401-463-3200
Easy Route Logistics LLC,63 Hope St Apt 1,Woonsocket,RI,02895,401-636-8487
Eaxu Logistic LLC,28 Crown St Fl 1,Central Falls,RI,02863,646-255-7979
Thomsen Foodservice,141 Narragansett Park Drive,East Providence,RI,02916,401-431-2190
Eb Trucking LLC,85 Sunset Ave,North Providence,RI,02911-2054,401-556-1645
Ebo Hauling,82 Winsor Avenue,Johnston,RI,02919,401-949-8069
"Ec Industires, Inc.",7 Samuel Rodman Street,Wakefield,RI,02879,401-788-9360
Ecc Transportation LLC,202 Waldo St,Providence,RI,02909,401-999-1351
"Echo Associates, Inc.",481 Chestnut Hill Road,Chepachet,RI,02814,401-568-8074
Echo Septic Services LLC,481 Chestnut Hill Road,Chepachet,RI,02814,401-568-0200
Ecj Transportation LLC,99 Rugby St Apt H2,Providence,RI,02905,401-479-9167
Eclipse Transportation Corp,25 Homestead Ave,Warren,RI,02885,401-252-1767
Ecm Trucking LLC,285 Washington Ave,Providence,RI,02905,401-855-8353
Eco-turf,191 Shannon Drive,Warwick,RI,02889,401-429-3584
"Ecologic Insulation, Inc.",500 Callahan Road,North Kingston,RI,02852,401-383-1589
Economy Movers,530 Wellington Ave,Cranston,RI,02910,401-467-3525
Ecr Transport,214 Norton Street,Riverside,RI,02915,401-632-0352
Ed & Matt Equipment,316 Greenville Avenue,Johnston,RI,02919,401-233-1310
Ed's Rolloff LLC,15 Centerville Rd,Warwick,RI,02886,401-737-1166
Ed's Transportation LLC,119 Webster Ave Apt 1,Providence,RI,02909,401-497-7695
Eatransportations,66 Appleton Ave,Pawtucket,RI,02860,401-451-5800
Morales Truck Services,55 Marion Avenue,Providence,RI,02905,774-259-7139
Edilvon Transportation LLC,15 Myrtle Street Apt 2,Pawtucket,RI,02860,401-651-0147
Edison Alvarez,18 Lincoln Avenue,Cranston,RI,02920,401-837-3832
Edison Alvarez,18 Lincoln Ave,Cranston,RI,02920,401-837-3832
"Edm Bros Transportation, Inc.",151 Farmington Ave Apt 11,Cranston,RI,02920,401-345-5208
"Edm Transport, Inc.",153 Pond St,Cranston,RI,02910,401-345-5208
Ses Enterprises,32 Hollywood Ave,Warwick,RI,02888,401-781-2375
America Towing Service,6 Lafayaette Ave,Cumberland,RI,02864,774-826-7608
"Edward F Briggs Disposal, Inc.",71 Hopkins Hill Road,Exeter,RI,02822,401-294-6391
"Edward French & Son, Inc.",61 Springbrook Road,Westerly,RI,02891,401-596-8917
Lallo Trucking Co,46 Babcock Road,Westerly,RI,02891,401-596-7446
Edward P Hooper Iii,18 Edison Rd,Cumberland,RI,02864,401-692-0561
"Parkinson Technologies, Inc.",100 Goldstein Dr,Woonsocket,RI,02895-6169,401-762-2100
Faith Line,130 Bourne Ave Apt 1,Rumford,RI,02916,401-696-4809
Edwin Rodriguez,193 New York Ave,Providence,RI,02905,401-332-7102
Edwin Trucking LLC,122 Sumter St Apt 1,Providence,RI,02907,401-282-0168
"Efficient Transportation, Inc.",30 Mill Street,Hope,RI,02919,401-823-7941
Effing Trucking LLC,434 Nausauket Rd,Warwick,RI,02886,401-641-9935
Efrain Granillo,76 Hillwood Street,Cranston,RI,02920,401-228-6295
"Eg & Sons Transportation, Inc.",37 King Philip St,Providence,RI,02909,401-855-2180
Eg Transportation Services LLC,10 Academy Dr,Cumberland,RI,02864,401-477-3070
Egr Trucking LLC,245 Manton St Trlr 302,Pawtucket,RI,02861,401-999-6239
Ei Auto Transport,55 Pawtucket Ave,East Providence,RI,02916,508-316-9245
Eiden Logistics LLC,107 Colfax St Apt 2,Providence,RI,02905,646-932-7774
El Mono Auto,75 Mill St,Johnston,RI,02919,401-616-5851
El Nene Transportation LLC,9 Fletcher Ave,Cranston,RI,02920,401-954-0737
El Triunfo Trucking LLC,170 Silver Lake Ave Ste 1,Providence,RI,02909,401-537-7868
Eladio D Rodriguez Alvarado,672 Atwood Ave,Cranston,RI,02920,401-500-9860
"Elco Painting, Inc.",290 Smith St,North Kingstown,RI,02852,401-295-2201
Electrical Surplus Of New Hampshire,403 Charles St,Providence,RI,02904-2209,401-861-8116
Elena Yanez Management & Services LLC,18 Balmoral Ave,Providence,RI,02908,401-569-5314
Elesemefa Transportation LLC,113 Gallup Street,Providence,RI,02905,786-612-1613
Richardson Trucking,97 Harris Ave,West Warwick,RI,02893,508-863-0424
Eli Trucking LLC,229 Cottage St,Wooncoket,RI,02895,401-633-5563
Wiggill Transportation,26 Lake View Cir,Chepachet,RI,02814,401-626-1233
Elinel Snacks LLC,150 N View Ave,Cranston,RI,02920-4809,203-526-3745
Eliseo Pol Sanchez,981 Cranston St Apt 1,Cranston,RI,02920,401-226-7516
Elite Delivery Corp,40 Superior St,Providence,RI,02907,732-277-4732
"Elite Lifestyle Of Rhode Island, Inc.",163 Escoheag Hill Road,West Greenwich,RI,02817,401-385-3091
"Elite Sky International Ri, Inc.",1604 Elmwood Ave,Cranston,RI,02910,401-941-3850
Elite Trucking Co,48 A South Killingly Rd,Foster,RI,02825,401-397-8240
Elk Logistics & Transportation LLC,65 Essex St,Cranston,RI,02910,786-683-6211
"Elmdale Building Service, Inc.",5 Grandview Avenue,Johnston,RI,02919,401-934-2348
"Elmwood Medical Transportation Services, Inc.",20 Miner Street Suite B,Providence,RI,02905,401-781-1010
Elvias Trucking LLC,38 Green Lane Rd,Pawtucket,RI,02861,857-770-8684
Em Messore,387 Natick Street,Cranston,RI,02921,401-943-6977
"Emanuel Express, Inc.",106 Juniper Drive,West Warwick,RI,02893,401-369-2533
Emanuel Transport LLC,58 Prudence Ave,Providence,RI,02909,401-413-1637
"Emerald Transportation, Inc.",7 Woodmont Court,Barrington,RI,02806,401-569-4833
Emergency Production LLC,387 George Waterman Road Warehouse C,Johnston,RI,02919,401-830-5799
"Emery's Catering Service, Inc.",957 West Shore Road,Warwick,RI,02886,401-732-7683
Ep Trucking,73 Arlington Street,East Providence,RI,02914-4801,401-215-3281
Emin's Trucking LLC,10 John Mowry Rd,Smithfield,RI,02917,401-632-1894
Emmanuel Delivery LLC,83 Burns St,Providence,RI,02904,701-489-6353
Ena Jewelry LLC,45 Dike St,Providence,RI,02909-2807,401-270-7238
Fire Supperssion Group,70 Bacon Street,Pawtucket,RI,02860,800-966-0000
"Energetics, Inc.",2440 Mendon Rd,Cumberland,RI,02864,401-658-0786
Energy Efficient Exteriors LLC,872 Smithfield Avenue,Lincoln,RI,02865,401-207-3805
Engineer Truck Service,788 Reservoir Avenue,Cranston,RI,02910,401-461-1656
"Enow, Inc.",951 North Main Street Unit 1,Providence,RI,02904,401-935-0125
E C Interiors,18 Porters Lane,Portsmouth,RI,02871,401-864-3205
Enzo Trucking LLC,485 Public St,Providence,RI,02907,401-256-9905
"Ep Construction, Inc.",50 Reynolds St,East Providence,RI,02914,401-270-2339
Ep Express LLC,Waller St 30,Providence,RI,02908,401-632-1806
"Epk Construction Services, Inc.",104 Ridge Road,Smithfield,RI,02917,401-232-1286
Eric J Mount Trucking,725 So County Trail,Exeter,RI,02822,401-295-5788
Erica Franco,31 Putnam St,Providence,RI,02909,401-863-0571
Ernie's Freight LLC,161 Courtney Ave,Pawtucket,RI,02861,401-864-6143
E & J Ramos,57 Redwing Street,Providence,RI,02907,401-419-5765
Es & Ms Transportation LLC,104 Mulberry St,Pawtucket,RI,02860,508-383-3926
Escobar Remodeling LLC,38 Valley Street,Cumberland,RI,02864,401-524-8043
"Escobar's Transportation, Inc.",728 Beverage Hill Avenue #33,Pawtucket,RI,02861,401-475-9247
Esemayuscula Trucking LLC,96 Bellevue Ave,Providence,RI,02907,401-327-5171
Espinal Trucking LLC,34 Miller Avenue #1,Providence,RI,02905-1415,401-256-8681
Essential Logistics Corporation,385 Water Street,Portsmouth,RI,02871,901-481-4196
Estevez Deliveries LLC,98 Sassafras Street,Providence,RI,02907,401-644-1970
"Estrada Auto Transport, Inc.",197 Simmonsville Ave,Johnston,RI,02919,401-648-5406
"Estrada Transportation, Inc.",54 Ascham St Apt 1,Providence,RI,02904,401-536-2160
"Estrada Trucking, Inc.",83 Berlin Street,Providence,RI,02908,401-301-0361
E Smith Carpentry,63 Simmons Lane,Tiverton,RI,02878,401-835-8263
Sartini Distributing,17 Gadoury Drive,Cumberland,RI,02864,401-658-4812
Evan Blum,206 Bradford Alton Rd,Bradford,RI,02808,860-344-8576
Evelio Villatoro,21 Tiffany St,Providence,RI,02908,619-779-3718
"Evergreen, Inc.orporated",19 Fox Ridge Drive,Cranston,RI,02921,401-527-2545
"Evergreen Nursery, Inc.",157 Rockwood Avenue,Cranston,RI,02920,401-943-4933
Ew Logistics LLC,85 Pawtucket Ave,Pawtucket,RI,02860,401-257-8334
Excel Royal Trucking LLC,23 Randall St,Cranston,RI,02920,401-545-4869
"Excellent Coffee Co, Inc.",259 East Ave,Pawtucket,RI,02860-3801,401-724-6393
Exclusive Transports LLC,85 Industrial Cir Unit 2105,Lincoln,RI,02865,401-526-4858
"Exeter Auto Repair, Inc.",565 Nooseneck Hill Road,Exeter,RI,02822,401-397-6633
Exotica Line LLC,7 Hope Court,Johnston,RI,02919,860-928-3505
"Export Transportation, Inc.",4 Albert Drive,Johnston,RI,02919,401-232-7317
"Express Carrier, Inc.",12 Hope View St,Coventry,RI,02816,401-821-1987
"Express Gutters, Inc.",503 Power Road,Pawtucket,RI,02860,401-723-4600
Express Recovery Bureau LLC,395 Knotty Oak Rd Ste C,Coventry,RI,02816,401-226-9131
Express Recovery LLC,27 Greene Street,West Warwick,RI,02893,401-954-1779
Express Transportation LLC,9 John St,Pawtucket,RI,02860,401-359-1423
"Extreme Excavation, Inc.",9 Acorn Street,Johnston,RI,02919,401-639-3700
Total Package,437 Broad St,Cumberland,RI,02864,857-350-5492
Ez Pool And Spas LLC,183 Cedar Ave,East Greenwich,RI,02818,401-480-2427
F & J Transport LLC,80 Cotter St,E Providence,RI,02914,401-999-4380
"F B Ahern, Inc.",30 River Avenue,Johnston,RI,02919,401-942-4141
F Pizzo Trucking LLC,90 Libera Street,Cranston,RI,02920,401-523-0706
F Quetta,294 Sayles Avenue,Pascoag,RI,02859,401-568-3964
"F&a Trucking, Inc.",11 June Ave,Cranston,RI,02920,401-588-0706
F&d Trucking LLC,262 Fruit Hill Avenue Apt 5,North Providence,RI,02911,401-696-4298
F&h Trucking LLC,22 Randeau Passage,Westerly,RI,02891,860-839-0744
F&m Transportation LLC,151 Althea St,Providence,RI,02907,401-347-9098
"F&r Modular Movers, Inc.",2674 Hartford Ave,Johnston,RI,02919,401-828-0804
Fabios Welding And Fabrication,148 Fogland Road,Tiverton,RI,02878,401-662-1191
Factory Carpet Outlet Co,25 Esten Ave,Pawtucket,RI,02860,401-723-6996
Fagan Door Corp,390 Tiogue Ave,Coventry,RI,02816-7113,401-821-2729
"Fagundes Trucking, Inc.",2396 Pawtucket Ave,Riverside,RI,02915,401-585-6269
Faith Deliveries LLC,11 Scituate Ave,Johnston,RI,02919,401-256-8887
Faith Transportation,25 Tobey Street Number 3,Providence,RI,02909,401-644-0008
Falcon Trucking LLC,116 Scranton Ave,Warwick,RI,02888,401-316-5765
"Falvey Associates, Inc.",610 Ten Rod Rd,North Kingstown,RI,02852,401-294-0228
Family Logistics Lp,861 Broad St Apt 209,Providence,RI,02907,401-441-1312
Family Trucking,109 Gesler St Apt H13,Providence,RI,02909,407-285-5948
Far Hills Corp,34 Kilburn Avenue,Lincoln,RI,02865,401-728-1567
Eric Wood,1005 Main Street Unit 1220,Pawtucket,RI,02860,401-312-4250
Farouk's Shipping LLC,15 Pinehurst Ave,Providence,RI,02908,864-328-4109
Fast Cat Transportation LLC,160 Betty Pond Rd,Hope,RI,02831,401-451-5749
"Fast Express, Inc.",75 Allston St,Providence,RI,02908,401-659-6967
Fast Lane Auto Transporting LLC,9 Mcguire Rd,N Providence,RI,02904,401-338-1086
Fast-track Transport LLC,51 Lucas St,Pawtucket,RI,02860,401-649-7409
Fc Transportation LLC,36 Adelaide Ave Apt 2,Providence,RI,02907,401-649-7608
Fd Leasing,1 Kane Road,Smithfield,RI,02917,401-353-3406
Fed Rick Veal Co,125 Sutton St,Providence,RI,02903,401-751-9534
Ciampanelli Cons,22 Hardpoint Rd,Cranston,RI,02920,401-480-7385
Felipe Vargas LLC,24 Moorefield Street,Providence,RI,02909-4816,401-497-6912
F J Valentin Trucking,181 Regent Ave,Providence,RI,02908,N/A
Towing,72 Bellevue Ave,Providence,RI,02907,401-996-0730
"Fence America, Inc.",43 Starr Street,Johnston,RI,02919,401-944-5251
Fenexx LLC,114 Dora St,Providence,RI,02909,941-584-9868
Fenix Trucking LLC,52 Gallatin St Apt 2,Providence,RI,02907,401-572-2876
Fenner Septic Service,10 Old Depot Road,Charlestown,RI,02813,401-364-7262
Ferland Corporation,558 Smithfield Avenue,Pawtucket,RI,02861-3810,401-728-4000
Fermin Transportation LLC,40 Herschel St,Providence,RI,02909,305-713-3230
Fernandes Precast Company,356 George Washington Hwy,Smithfield,RI,02917,401-349-4907
"Fernandes Welding, Inc.",319 Hunt Street,Central Falls,RI,02863,401-723-0552
Fernandez Logistic LLC,1157 Elmwood Ave Apt 1,Providence,RI,02907,401-347-8531
Fernandez Trucking LLC,65 Fifth St,E Providence,RI,02914,401-481-0683
"Ferrara Mechanical Services, Inc.",520 Allens Ave,Providence,RI,02905,401-785-4999
Ferreira And Grimo General Contractors,26 Kickemuit Ave,Bristol,RI,02809,401-253-7896
"Ferrucci Hauling, Inc.",61 Lowes Lane,Chepachet,RI,02814,401-569-1683
Festive Tours Ltd,328 Warren Ave.,East Providence,RI,02914,N/A
Fg Transportation LLC,1241 Eddie Dowling Hwy,N Smithfield,RI,02896,401-699-1326
Fgx International,500 George Washington Hwy,Smithfield,RI,02917,401-231-3800
Fiallo Carrier Delivery LLC,397 Douglas Avenue,Providence,RI,02908,401-383-2165
"Figueroa Enterprise, Inc.",1139 Lonsale Ave Apt 1rear,Central Falls,RI,02863,401-365-3260
Final Gift & Angel View,2 Daniels Way,Cranston,RI,02921-3449,401-464-8338
Fine Finish Plastering,96 Cucumber Hill Road,Foster,RI,02825,401-946-7106
