Company Name,Street Address,Address Locality,Address Region,Postal Code,Telephone
Moores Auto Parts LLC,1936 Highway 29 South,Anderson,SC,29624,864-224-9573
Ellison Transport,39 Lester Rd,Williamston,SC,29697,864-847-5971
Parrish 2 Parrish,11 Matilda Ct,Greenville,SC,29611,864-295-6103
Hm Hires Trucking,11825 Low Country Hwy,Olar,SC,29843,803-368-8303
Jam Up Auto Transport,327 Taylor Pond Road,Dorchester,SC,29437,843-462-7900
B R Smith Trucking LLC,1090 Burlington Road,Walterboro,SC,29488,843-908-2184
Campbell Trucking,861 Pine Terrace Drive,Rock Hill,SC,29730,240-246-3948
Anderson Trucking,228 Weeping Cherry Ln,Columbia,SC,29212,803-920-8467
Roshelle Express,1716 Poor Farm Rd,Effingham,SC,29541,843-687-6281
Hunters Freight Company,135 John Street,Harleyville,SC,29448,843-462-2930
Auto Choice Sales & Rentals,3890 Broad Street Ext,Sumter,SC,29154,803-494-8834
Alimony Auto Transports,1228 Milton Street,Hartsville,SC,29550,843-917-4316
J &c Transport LLC,3572 Damascus Chruch Rd,Westville,SC,29175,803-432-1254
S & S Transport,1334 Rutherford Rd,Greenville,SC,29609,864-230-9843
Cayce Transport,304 Bucktail Drive,Irmo,SC,29063,803-407-1766
Dorman's Transport,1424 Huntwood Drive,Conway,SC,29527,843-365-8105
Rogers Transport,425 Glenn Street,Gaston,SC,29053,803-796-5943
L & M Bus Service,409 Thurgood Rd,Goose Creek,SC,29445,843-569-7898
Nct Trucking,6734 Hwy 278,Barnwell,SC,29812,803-300-9336
R C Kelly Trucking,7685 Green Pond Rd,Fort Mill,SC,29707,803-230-9026
S & J Mobile Home Movers,1827 Cupstid St,Cayce,SC,29033,803-351-3312
Oleen Moving,4185 Chitwood Dr,Charleston,SC,29412,843-343-3874
A M Taylor Transport,1601 Longcreek Drive Apt 144,Columbia,SC,29210,803-414-8732
Long Rider Express,670c Hwy 1 South,Lugoff,SC,29078,803-438-0499
R&b Services,22 North Tombee Lane,Columbia,SC,29209,803-622-0874
Cool Breeze Transport,1402 Secessionville Rd,James Island,SC,29412,843-718-6241
Adlo Enterprises,1133 Atomic Rd,Beech Island,SC,29842,803-278-2992
Berkeley Transportation,1190 Ben Barron Lane,Moncks Corner,SC,29461,843-761-8471
Daschund Trucking,92 Riegel Road,Johnston,SC,29832,803-275-2270
Cecchi Transport,2391 Cane Branch Road,Loris,SC,29569,843-365-0914
Ezgo Transport,112 Journey's End Lane,Moncks Corner,SC,29461,843-761-7877
D-force Transport LLC,120 Iken Circle,Goose Creek,SC,29445,843-754-4711
Curtis Equine Transport,1024 Pine Grove Church Road,Sunset,SC,29685,864-868-9751
Import Auto,8040 Asheville Hwy,Spartanburg,SC,29303,864-503-9030
K & R Trucking,2929 Branch Rd,Florence,SC,29505,843-319-7201
Beagle Express,4377 Wheeland Road,Little Mountain,SC,29075,803-945-2399
"Smith, Inc. Trans",1132 Greenhill Rd,James Island,SC,29412,843-330-3046
J&j Transport,9301 Old No 6 Hwy,Santee,SC,29142,803-854-6384
Pearson Trucking,9897 Wylie Rd,Hopkins,SC,29061,803-429-0015
Gibsons Auto Hauling,730 Saint John St,Kingstree,SC,29556,843-267-1510
Herbert Lee Fennell Trucking,1200 Marsh Road,Islandton,SC,29929,843-866-7661
Myers Trucking,1209 Brand St,Florence,SC,29506,843-495-6545
Peewee Transport,1990 Hawthorne Drive Lot 198,North Charleston,SC,29406,843-343-4973
Scott Brothers Transport,207 S Keith St,Timmonsville,SC,29161,000-000-0000
T & A Trucking,5919 Oxford Ct,Mullins,SC,29574,843-464-9899
Richardson Transportation,5 Althea Cir,Sumter,SC,29150,803-883-5203
United Freight,106 Broken Bow Run,Pickens,SC,29671,864-878-9808
Ike's Trucking,315 N Clemson Dr,Barnwell,SC,29812,803-541-6553
Johnny And Trenia Trucking,12 Annietindale Apt 3g,Summerton,SC,29148,803-410-1629
M & J Trucking,15 Kimberlybrook Crt,Mauldin,SC,29662,864-283-6703
Zimmz Hauling,909 Cantey Ct,Spartanburg,SC,29306,864-582-6668
Mckenzie Logistics,344 Delos Rd,Kingstree,SC,29556,843-410-0009
Kandc Trucking,112 Wells Garden Ct,Irmo,SC,29063,803-348-7503
Rcr Auto Sales,1910 West Market Street,Anderson,SC,29626,864-617-1106
Leemar Transport,331 Irby Road,Spartanburg,SC,29301,864-804-1883
Atm Delivery & Transport,204 New Holland Drive,Columbia,SC,29203,803-754-9369
Davis & Son Transport,817 Gum St,Holly Hill,SC,29059,803-496-3404
Collins Transport,3545 Nazarene Church Road,Sumter,SC,29154,N/A
Little Rock Trucking,2730 Tuckaway Road,Rock Hill,SC,29730,803-327-2927
Pja Trucking,809 West Main Street,Walhalla,SC,29691,864-507-6052
T W Raley Trucking,215 Black Creek Church Rd,Mt Croghan,SC,29727,803-288-0562
Sweet Lue Express,6 Stacy Kay Court,Piedmont,SC,29673,864-270-5582
Smalls Trucking Company,155 Public Landing Ln,Yemassee,SC,29945,843-263-9992
Us Transport,1506 Mayfair Terrace,Conway,SC,29526,843-246-2355
Davis Transport,2064 Idlewood Lane,Charleston,SC,29414,843-571-2602
Hendrick Honda Of Charleston,1478 Savannah Hwy,Charleston,SC,29407,843-571-6910
Hurley Transportation,1368 Brighton Avenue,Myrtle Beach,SC,29588,843-283-6213
B & M Transporting,5185 Seymour Road,Dalzell,SC,29040,803-236-4327
N E U Trucking,147 Gator Dr,Goose Creek,SC,29445,843-764-2712
Wagers Transport,1439 Quaker Road,St George,SC,29477,843-542-4282
Zaida Gaige Hauling,24 Camelia Circle,Williamson,SC,29697,864-634-1648
Bravo's Trucking,293 Hickory Street,Allendale,SC,29810,803-686-0881
Green Pro Fuel,170 Pontiac Buisiness Center,Elgin,SC,29045,414-406-2265
Griffin's Trucking,460 Ramah Church Rd,York,SC,29745,704-297-1111
K And C Hauling And Transport,714 Coastal Dr,North Augusta,SC,29841,803-221-6835
Crosby Trucking,1115 Tyler Rd,Walterboro,SC,29482,N/A
Millennium Express,6508 Frontage Rd,Greenville,SC,29605,864-386-1629
Jax Transportation,130 Liberty Lane,Spartanburg,SC,29303,864-327-3676
Carter Transport,1331 Dunmore Court,Clover,SC,29710,803-222-5044
Perry Trucking,312 Gettys Rd,Elgin,SC,29045,803-600-2420
Easy Transports,1415 Juniper Hills Lane,Fort Mill,SC,29707,704-502-4618
Noah's Trucking,349 N E Front St,Mullins,SC,29574,843-561-3119
S&s Expedited Services,2806 Clark St,Columbia,SC,29201,404-451-0750
Sonfox Trucking,3381 High Hill Drive,Little River,SC,29566,843-399-0995
C&m Transport,1512 Winding Ridge Drive,Hartsville,SC,29550,843-307-8737
Brian Leonard,40 Persimmons St,Bluffton,SC,29910,843-757-6330
Abc Express,827 North Windsor Road,Williston,SC,29853,803-266-3522
Lerie Trucking,325 Allspice Rd,Fort Mill,SC,29708,803-547-5369
Crx Express,120 Bradham Avenue,Manning,SC,29102,803-410-2520
Aggressive Auto Transport,215 Altamont Ct,Anderson,SC,29621,864-940-1847
Kinney Trucking LLC,530 Zion St,Clio,SC,29525,843-586-9775
Empire Transport LLC,3575 Maybank Hwy Ste D147,Johns Island,SC,29455,843-754-8599
Glass Logistix,608 Still St,Chester,SC,29706,231-360-9023
Half Moon Haulers,30 Search Lane,Sumter,SC,29153,803-506-4713
Ta Jones Trucking,355 Stewart Rd,Walhalla,SC,29691,864-557-2331
Val-lynn Trucking,8862 Plowden Mill Rd,Alcolu,SC,29001,813-531-1922
Carolina Pride Transport,2473 Greenwood Rd,Rock Hill,SC,29730,803-367-1229
A J Hunt Logistics,88 Hamptonwood Way,Columbia,SC,29209,803-783-9116
Transport Services,1520 Crossland Road,Clover,SC,29710,704-253-0755
Jbx Transportation,11 Sawmill Forrest Drive,Bluffton,SC,29910,866-299-8399
J & L Trucking,1023 Jacobs Road,Greenville,SC,29605,864-422-1568
J T Arnold Trucking,329 Sharpe Ln,Ruffin,SC,29475,843-635-5934
A&g Trucking,256 Otis Road,Pelion,SC,29123,803-397-4089
R & G Trucking,411 Rivers Hill Rd,Pineland,SC,29934,803-346-9963
Ironhorse Transport,37 Wood Duck Ct,Hilton Head,SC,29928,503-607-1088
Cheyenne Trucking,1133 Edgewood Ave,Una,SC,29378,864-285-1916
Mitchell Transporting,1108 Farmhouse Lane,Darlington,SC,29540,843-332-3816
Grumpy's Express,200 Daniel Drive,Anderson,SC,29626,864-964-0508
J & D Trucking,978 Mitchellville Rd,Ridgeland,SC,29936,843-540-3241
Sibert Trucking,1468 Troy West Rd,Mccormick,SC,29835,864-852-0062
Kevin Graham Trucking LLC,98 Kinard Rd,Newberry,SC,29108,803-405-1473
H M Small Trucking,1483 Old Pardue Road,Lancaster,SC,29720,803-285-6390
Apgar Trucking,388 Mcgill Road,Smyrna,SC,29743,803-627-1732
Cf Reliable Transport,118 Waxberry Court,Boiling Springs,SC,29316,864-425-0526
Crossroad Auto,205 Highway 29 North,Anderson,SC,29621,864-376-1144
J Stokes Transport,314 Moses Drive,Darlington,SC,29532,843-687-5812
Faith Trucking,606 West Alder Street,Andrews,SC,29510,845-665-4969
Starr Services Transport,707 Boyer Road,Holly Hill,SC,29059,843-560-2699
Kracker Trucking,804 Elizabeth Street Ext,Honea Path,SC,29654,864-940-6144
Bop Transit,412 N Bouknight Ferry Road,Saluda,SC,29138,803-240-4889
U M E LLC,106 Glen Green Dr,Columbia,SC,29203,803-661-8083
"Recovery, Inc. And Wrecker Service",3239 Bamberg Rd,Orangeburg,SC,29115,803-535-8999
Affordable Recovery Solutions,287 Fox Squirrel Circle,Columbia,SC,29209,706-306-2219
Motor Carrier,21 Getsinger St,Ridgeland,SC,29936,843-645-2500
Vik Transport,142 Slate Dr,Boiling Springs,SC,29316,864-599-9889
Jr's Car Hauling,1474 Ball Park Road,Enoree,SC,29335,864-969-4415
R L Wynn,2638 Norfolk Rd,Lancaster,SC,29720,803-288-3142
Lcr Transport,1053 Wilson Avenue,Summerton,SC,29148,803-857-9189
M Redd Posey Trucking LLC,206 Courtneybrook Trl,Mauldin,SC,29662,864-386-2445
Crs,2607 Woodruff Road Suite E # 331,Simpsonville,SC,29681,888-614-8188
2am Group,201 Commerce Court,Duncan,SC,29334,864-433-8686
H C Trucking,2127 Dolly Rose Dr,York,SC,29745,803-412-4344
J & J Auto Transport,213 Westover Dr,Hartsville,SC,29550,843-332-0287
Pocket Change Haulers,1671 Maize Street,Sumter,SC,29154,803-481-3779
Bear Supplies Distribution,6205 White Horse Road,Greenville,SC,29611,864-346-6037
L H Jackson Trucking,1603 Hampton Dr,Beaufort,SC,29906,843-812-9421
Lloyd Transport LLC,891 Toney Bay Rd,Holly Hill,SC,29059,803-496-7289
Flying H Trucking,289 Louie Hicks Rd,Pageland,SC,29728,843-672-7068
Bo's Truck Repairs LLC,58 Spring Fellow Ln,Taylors,SC,29687,864-609-9211
A & S Trucking,205 Williams Blvd,Florence,SC,29501,843-665-4221
Gent's Trucking,4597 N Highway 41a,Mullins,SC,29574,609-883-0500
Nickel Transport,145 Holcombe Lane,Conway,SC,29527,843-369-2559
Family Tours & Travel,100 South Parler Avenue,St George,SC,29477,843-563-9475
R & S Express,1322 Briar Creek Rd,Estill,SC,29918,803-942-5106
Mcabee Express,211 Bright Morning Ln,Fountain Inn,SC,29644,864-862-6433
N D Sellers Septic Tank Service,2517 Hwy 145 South,Chesterfield,SC,29709,843-623-2649
J & J Trucking,224 Elberta Dr,Lexington,SC,29073,803-957-1919
Jtw Trucking,1332 North Governor Williams Highway,Darlington,SC,29540,843-395-2409
Lumberjack Trucking,360 Windum Drive,Andrews,SC,29510,843-325-5989
"A Plus Auto Sales, Inc.",1507 Hwy 9 E,Longs,SC,29568,843-399-7000
Geneva Transport,1959 Lillie Martin Rd,Summerton,SC,29148,803-478-7769
A & D Transporting,113 Carrie Ln,Gaston,SC,29053,803-422-0910
A & P Trucking,1716 Ashland Rd,Mcbee,SC,29101,843-383-2433
Falcon Transport,609 Rowe St,Orangeburg,SC,29115,803-387-1708
Nicks Auto Sales,4154 Rivers Ave,North Charleston,SC,29405,843-554-9626
Tony Branch Trucking,49 Fox Field Rd,Walterboro,SC,29488,843-893-6813
Parker's Transport,1851 Berrywood Ln,Clover,SC,29710,803-627-6966
M&m Trucking,1151 Brewton St,Estill,SC,29918,803-625-3348
Carolina Auto Carriers,7321 New Cut Rd,Inman,SC,29349,864-641-9163
Outlaw Express,208 Torwood Drive,Columbia,SC,29203,843-393-1645
Carolina Craft Distributors,539 Clemson Rd,Columbia,SC,29229,803-419-4441
Big Daddy Express,1104 Beauvoir Drive,Florence,SC,29505,843-665-4968
Appalachian Sales Group,1327 Miller Road Suite A,Greenville,SC,29607,864-240-2004
Bks Transport Services,1247 Brighton Ave,Myrtle Beach,SC,29588,843-267-3511
Jenkins Trucking,1216 Broad River Rd,Columbia,SC,29210,803-741-8447
Yc Transport,140 Companion Lane,Inman,SC,29349,864-814-1345
Donna Lee Transport,2117 S 5th St,Hartsville,SC,29550,843-332-2657
Sunrise Express,41 Easter Lily Court,Murrells Inlet,SC,29576,843-655-4922
C & J Trucking,1254 Providence Church Road,Pageland,SC,29728,843-672-3297
Transportation,875 Barnwell Rd,Spartanburg,SC,29303,704-698-7375
Dts Transport,2213 Ashland Road,Mcbee,SC,29101,843-383-6699
C & F Transport,25 Freeman Street,Gloverville,SC,29828,803-593-3202
General Hauling,720 East Prince Road,Landrum,SC,29356,864-457-4493
Art Trucking,2002 N Oaks St,Myrtle Beach,SC,29577,843-855-5045
Trinity Trucking,471 Pineland Estates Rd,Pineland,SC,29934,843-726-3359
Gwg Transportation,1710 Saint Paul Church Rd,Clover,SC,29710,803-222-6252
Williams Transport,372 Deer Crossing Rd,Orangeburg,SC,29118,803-534-1440
Positive Image Ii,648 Hampton Circle,North Augusta,SC,29841,803-727-7868
J D Transport,121 Victoria Ln,Branchville,SC,29432,803-747-6390
Big Transportation LLC,380 Meeting House Rd,Gaffney,SC,29341,864-703-2844
Nelsons Transport,122 Brookhaven Dr,Moore,SC,29369,864-590-8698
Tm Trucking,400 Glennwood Dr,Warrenville,SC,29851,803-292-1197
Deliveries Are Us,702 Cornhill Road,Columbia,SC,29210,803-400-3036
T&n Trucking,Route 1 Box 63c,Estill,SC,29918,803-942-1182
Cheyenne Transport,109 Childs Rd,Piedmont,SC,29673,864-752-5973
Gene Carrol Service Center,3915 Rivers Avenue,North Charleston,SC,29403,843-747-8034
Rog Trucking,20 Speer Lane,Travelers Rest,SC,29690,864-322-3115
Kad Yard Service,176 Greenvillage Road,Little River,SC,29566,843-267-5386
Neal Trucking,126 Mattison Drive,Belton,SC,29627,864-338-4001
Robinson Transport,75 Jumper St,Varnville,SC,29944,803-943-1093
Wcs Logistics,107 Joe Wells Rd,Greenwood,SC,29649,864-993-9807
J A Jordan Hauling LLC,767 Fairfield Hill Rd,Blackstock,SC,29014,803-482-4842
Mts,54 Stratton Dr,North Charleston,SC,29420,843-864-0178
Tbc Trucking,2549 Pond Branch Road,Leesville,SC,29070,803-657-4745
Ashley Furniture Homestore,2361 David Mcleod Blvd,Florence,SC,29501,843-656-0600
Amt Trucking,709 Windchime Alley,Mount Pleasant,SC,29464,843-324-8145
Good Shepherd Pet Services,303 Ross Street,Piedmont,SC,29673,864-845-5956
S&s Trucking,678 Old Mcallister Road,Lake City,SC,29560,843-665-4968
Blue Box Freight,208 S Chancelor Dr,Simpsonville,SC,29681,864-248-6565
Tag Transportation,521 Woodrow Rd,Estill,SC,29918,803-842-6607
Purdale Trucking,805 Bay Springs Dr,Sumter,SC,29154,803-340-0310
Sumter Hauling Services,2210 Bethel Church Rd,Sumter,SC,29154,803-934-6150
Wac Trucking,2497 Porter Rd,Cassatt,SC,29032,803-729-8058
Millennium Xpress,6508 Frontage Rd,Greenville,SC,29605,864-386-1629
Wind Storm,868 Old Rail Rd,Camden,SC,29020,803-669-0002
K&l Auto Transport,534 Keene Road,Marion,SC,29571,843-421-6568
Abbott Logistics,2307 Maple Drive,North Augusta,SC,29860,803-202-0899
J&j Hauling,3035 Barnfield Drive,Conway,SC,29526,843-347-7478
Nesmith & Son Trucking,1483 Aimwell Road,Andrews,SC,29510,843-387-5211
W-2 Transfer Company,9033 Fieldstone Trace,Summerville,SC,29485,843-278-1824
Palmetto Farms Transport,5647 Old State Road,Holly Hill,SC,29059,803-539-8334
10 Gc LLC,2010 Westbrook Road,Edgemoor,SC,29712,803-789-5004
D White Trucking,2019 White Lane,Bennettsville,SC,29512,843-479-1156
Rbt,610 Farley Ave,Spartanburg,SC,29301,864-504-4012
Robert's Mobile Service,381 Cane Street,Walterboro,SC,29488,843-538-5649
A & M Auto,9176 Asheville Hwy,Boiling Springs,SC,29316,864-804-8481
Aaa Cartage,195 Ridge Hill Rd,Cross Hill,SC,29332,864-377-1899
Keitt Trucking,555 Indian Road,Bowman,SC,29018,803-290-9584
B&m Auto Transport,3549 Auzzie Court,Mullins,SC,29574,843-423-4962
Angel Lee Trucking,3170 Highway 15 South,Sumter,SC,29150,803-983-8711
Jones Transport,2113 Brant Drive,Dillon,SC,29536,843-774-9538
Jenkins Transportation,2794 Aziza Road,Rock Hill,SC,29732,803-242-4489
Tjmc Trucking LLC,186 Ramsey Road,Winnsboro,SC,29180,803-635-6876
Lw Trucking,1756 Beacon Rd,Lancaster,SC,29720,803-285-0024
Serrano Brothers Transportation,192 Columns Rd,Summerville,SC,29483,843-302-4636
Barry Moree Trucking,33201 Hwy 9,Pageland,SC,29728,843-672-9703
B & R Trucking,2 Taylor St,Beaufort,SC,29906,904-613-1198
J & F Delivery Services,1020 Hamlet Hwy,Bennettsville,SC,29512,843-454-1387
Al Lynch Transportation Service,507 Sherwood Dr,Lexington,SC,29073,803-892-2670
T-bird Trucking,205 Abercorn Way,Simpsonville,SC,29681,864-423-1963
On Time Enterprises,944 Hardwood Lane,Summerville,SC,29483,843-851-0054
Premier Transport,100 Sandra Ave,Greenville,SC,29611,864-236-7387
Pearson Transport,2513 Salmond St,Camden,SC,29020,718-606-5319
Voss Transportation,5439 West Liberty Hiii,York,SC,29745,803-336-4886
Baby Boy Trucking,119 Iroquois Street,Aiken,SC,29801,803-643-9518
Darrells Backhoe Service,3602 Hood Town Road,Sharon,SC,29742,803-927-7636
D Houston Hauling,285 William Thurmond Sr,Clarks Hill,SC,29821,864-333-5578
Those Two Guys Transport,8125 Columbia Road,Swansea,SC,29160,803-874-3456
Top Hat Services & Trucking,7 Woodmont Cir,Greenville,SC,29605,864-325-3864
Williams Expedite,1238 Indiana Rd,Turbeville,SC,29162,843-659-2804
Qzo Carriers,3030 Bashor Road,Conway,SC,29526,843-293-0622
Cavalier Express,2410 E Blackstock Rd,Roebuck,SC,29376,864-576-0861
E H Trucking,622 Pearl Street,Bishopville,SC,29010,803-692-4142
T & A Trucking,1866 Watkins Road,Cassatt,SC,29032,803-424-0866
Falls Express,502 Hwy 418,Simpsonville,SC,29680,864-862-4035
Dixie Trucking,1696 Ficken Road,Early Branch,SC,29916,843-589-7329
A & D Auto Sales,4139 Flint Dr,Lancaster,SC,29720,803-285-6351
East Coast Crane Service LLC,155 Street Rod Lane,Conway,SC,29527,843-397-4172
Lower County Material Transport,428 Night Owl Lane,Conway,SC,29527,843-333-2841
Units Mobile Storage,150 Litton Drive,Lexington,SC,29073,803-356-2007
Rw Steel Service,254 Steele Road,West Columbia,SC,29170,803-356-4950
Gause Trucking,1506 Lambert Ct,Marion,SC,29571,843-423-7847
Putnam Auto Sales LLC,499 Hemlock Dr,Boiling Springs,SC,29316,864-578-1193
Brequan Logistics,233 Anisa Dr,North,SC,29112,803-937-5809
Albemarle Hauling,125 Seafarar Lane,Columbia,SC,29212,803-261-2824
Moreno Trucking,7 Woodland Hills Dr,Bluffton,SC,29910,843-247-9853
Youngs Trucking,105 Sandy Lane,Greenville,SC,29605,864-505-6213
Baker Trucking,120 Caldwell Drive,Florence,SC,29506,843-731-4210
Blackburn Hauling,10 Rosemary Drive,Beaufort,SC,29906,843-846-8615
C&l Transport,1781 Mackton Road,Lamar,SC,29069,843-332-5199
Gaines Automotive,1617 Drexel Lake Dr,Columbia,SC,29223,803-315-0174
Williams Transport,418 Sherwood Road,Allendale,SC,29810,803-702-9083
Time Sensitive Express,205 Roberts Road,Taylors,SC,29687,864-901-4348
Lazy J Farms,1121 Cedar Lane Road,Jefferson,SC,29718,N/A
M & J Transport,3696 N Highway 52,Saint Stephen,SC,29479,843-567-4047
Talbert Transport,148 Branch Drive,Mccormick,SC,29835,706-993-0480
Carolina Express,102 Travis Hill Rd,Moncks Corner,SC,29461,843-899-7616
Hunter Transport,153 Caroway Ct,Spartanburg,SC,29303,864-599-1485
Robert Gardner Trucking,220 Rosenwald Drive,Society Hill,SC,29593,843-861-5870
Benjamin Transporting,1321 Tree Squirrel Ct,Hartsville,SC,29550,843-332-7436
Golston Transport,355 Old Wire Road,West Columbia,SC,29172,803-794-5587
2 B's Trucking,1248 Preschool Lane,Ridgeland,SC,29936,803-361-7115
Harrison Transport,188 Keowee Road,Iva,SC,29655,864-446-8423
K & I Transport LLC,357 Church Road,Little Mountain,SC,29075,803-917-8297
Its Trucking Co,614 St Paul Rd,Dorchester,SC,29437,843-462-2730
Bus Service,222 West Whitner Street,Anderson,SC,29624,864-477-8493
Xpress Transport,483 Jerusalem Branch Rd,Salley,SC,29137,803-564-3032
Progressive Maintenance,25 Renfrew Ave,Travelers Rest,SC,29690,864-834-2033
Bbl Transport,4887 Mel Nunnery Rd,Fort Lawn,SC,29714,803-789-5337
Capital Connections,101 Teal Way,Columbia,SC,29229,877-223-1960
Yoder Trucking LLC,806 Meece Mill Road,Pickens,SC,29671,864-884-4373
Transpro Trucking,115-a South Hampton Road,Lexington,SC,29073,803-404-8669
George Transport,1001 Hickory Lane,Anderson,SC,29624,864-296-3409
Cfi,15 W Ridge Drive,Cleveland,SC,29635,864-965-0641
Rout 1 Transport,3 Patton Rd Lot 4,Greenville,SC,29605,540-966-2174
Km Trucking,8100 Bayfield Road #30h,Columbia,SC,29223,803-546-5577
Floyds Trucking,15 Holly Hill Rd,Woodruff,SC,29388,864-476-7241
E & A Services,531 Manning Rd,Smyrna,SC,29743,864-839-1658
Kayco Express,1054 Chisolm Trail,Scranton,SC,29591,843-992-5677
Swearngan Trucking Co,1881 Land Fill Rd,Mt Croghan,SC,29727,704-320-8620
Jones Transport Line,236 Edinfield Ct,Gaston,SC,29053,803-394-8460
Darrol & Sons Trucking,1250 New Hope Rd,Heaths Springs,SC,29058,803-273-3407
B & B Transport,2573 Methodist Church Road,Marion,SC,29571,843-464-1323
Dna Transport,3686 Center Circle,Ft Mill,SC,29715,877-362-0007
Brogdon Trucking,16 Heritage Ln,New Zion,SC,29111,843-389-0505
Ferrell's Hauling & Grading,2448 Tuckaway Road,Rock Hill,SC,29730,803-328-3550
Lemmons Transport,430 Dan River Rd,Spartanburg,SC,29307,864-463-9519
K & W Trucking,490 Rupe Easler Drive,Spartanburg,SC,29307,856-346-2556
Sandlapper Express,316 Neely Farm Dr,Simpsonville,SC,29680,864-915-7374
Jenkins Trucking,2315 Eden Terrace Apt 203,Rock Hill,SC,29732,704-258-8869
Ledford Distributing Co,625 Braeburn Ct,Duncan,SC,29334,864-801-8930
Dixie Dirt Trucking,2782 Rocky River Road,Heath Springs,SC,29058,803-283-9971
Johnny B Trucking,823 Bluestone Ct,Boiling Springs,SC,29316,908-591-4189
Ace Transport,523 Big Woods Rd,Pineville,SC,29468,202-521-1493
B & T Transport,408 Roberts Rd,Taylors,SC,29687,864-449-4430
T T & T Transportation,445 Beacon Street,Spartanburg,SC,29306,813-495-6673
C & L Express,249 Bay Ridge Drive,Townville,SC,29689,864-276-8091
Hit Express,328 Wilson St,Laurens,SC,29360,864-872-9449
Nanas Big Truck Transport,1344 Driggers Lane,Manning,SC,29102,803-566-6080
Motor Carrier,176 Burns Hill Rd,Liberty,SC,29657,864-843-4873
Shacks Transport,3416 Passmore Rd,Rock Hill,SC,29730,803-980-3055
Mehat Transportation,2120 Pond Branch Rd,Gilbert,SC,29054,803-629-3064
Rinky Dink Express,218 Riverbend Dr,Beech Island,SC,29842,803-634-8821
Lone Wolf Trucking,176 Galloway Dr,Wellford,SC,29385,864-439-9922
Up The Creek Trucking,1226 Shawnee Ln,Smoaks,SC,29481,843-599-3416
Unity Express,2310 Old Edisto Drive,Orangeburg,SC,29115,803-378-6618
Jmi Transportation,553 Lanier Rd,Holly Hill,SC,29059,803-971-9021
Suzie Boy Trucking,2175 Rifle Range Rd,Mt Pleasant,SC,29466,843-971-0614
Sandy Crest Farm,678 Adams Rd,Chesterfield,SC,29709,843-623-7837
J & D Trucking,201 Del Ray Dr,Walterboro,SC,29488,803-312-4302
Best Choice Courier,248 Davis Hite Rd,Leesville,SC,29070,803-657-5293
Jcl Trucking,451 Jenkins Bridge Rd,West Minster,SC,29693,864-647-7200
Davis Trucking,2323 Eden Terrace Apt 102,Rock Hill,SC,29730,803-327-8971
Elite's Transport,151 Pine Circle,Monetta,SC,29105,803-270-8708
S & S Hauling,430 Brandy Lane,Pickens,SC,29671,864-868-4512
Welborn Truck Tire,309 Webb Road,Williamston,SC,29697,864-225-4771
D2 Enterprises,1054 Hwy 49,Laurens,SC,29360,864-871-7163
M Dailey Transport,2384 Cotton Lane,Summerton,SC,29148,803-478-6718
H N Barr Trucking,309a Burgess Street,Lake City,SC,29560,843-699-3773
Platinum Express Trucking,3143 Bass Drive,Holly Hill,SC,29059,803-496-5783
Forward Express,10 Riverwood Road,Greenville,SC,29617,864-344-6818
Otc-owens Trucking Company,117 Mountain Springs Rd,West Union,SC,29696,864-718-7396
M & J Transport,158 Zuber Way,Cowpens,SC,29330,804-878-5180
A M Porterfield Transport,440 Meadow Lake Drive,Columbia,SC,29203,336-470-5166
Curry Trucking,4230 Cedar Run Rd,Heath Springs,SC,29058,803-273-7230
Cassidy Hauling,808 Bayside Rd,Hartsville,SC,29550,843-332-6611
Taylors Custom Properties LLC,882 Stratford Run Drive,Fort Mill,SC,29708,803-367-2850
Wtg Express,9034 Gatewick Court,Myrtle Beach,SC,29579,843-655-0875
"Tdt Logistics, Inc.",100 Atlantic Rd,Hemingway,SC,29554,843-665-4968
B & L Trucking,87 Singleton Ave,Georgetown,SC,29440,843-546-1904
Sims Trucking Co,224 Johnny Williams Road,Kershaw,SC,29067,803-427-4665
Charlies Trucking,123 Teresa Ave,Belvedere,SC,29841,803-278-2169
Anyware Express,7100 Design Street Bldg 600,North Charleston,SC,29418,843-225-6430
Gruber Trucking LLC,265 Old Bell Rd,St George,SC,29477,843-563-1159
Thompson's Transportation,2 Mayo Dr,Greenville,SC,29605,864-232-1649
Fuel Zone LLC,3002 Beauregard Ct,Summerville,SC,29485,843-437-3904
White Truckin,1260 Peru Rd,St Stephens,SC,29479,843-708-3344
Little T' S Transport,1348 Evening Shade Dr,Summerton,SC,29148,803-225-0090
Roadrunner Transporting,1881 Briarwood Circle,Fort Mill,SC,29715,803-548-1421
White River Transport,965 Goodjoin Rd,Campobello,SC,29322,864-641-5443
J & R Trucking,205 Alexander Rd,Greer,SC,29650,864-848-0984
A & G Transport,103 S Spring St,Walhalla,SC,29691,864-710-2385
B & C Trucking,103 Randall Road,Easley,SC,29642,864-616-9804
D B Logistics,500 Bradfield Ct,Lexington,SC,29072,803-996-0935
Allyson's Logistics,1835 Neelys Creek Rd,Rock Hill,SC,29730,803-415-2963
M & M Trucking,1846 Knight Road,Lancaster,SC,29720,803-416-2153
Bennett Road Auto Sales,280 E Bennett Rd,Westminster,SC,29693,864-647-8201
"Vehicle Haul Transporting, Inc.",12 Thomas Circle,Williamston,SC,29697,864-847-8367
Cda Transport,521 Mcphail Dr,Society Hill,SC,29593,843-378-1564
S & B Trucking,3178 Lide Spring Road,Darlington,SC,29540,843-395-0887
Bottom Line Trucking,1218 Todd Rd,Marion,SC,29571,843-423-2106
Buffkin Trucking,1448 Grassy Lane,Conway,SC,29526,843-347-7993
Tambos Express,1255 Darby Rd,Chester,SC,29706,803-581-3265
John Boy Trucking,3013 Byrdtown Rd,Hartsville,SC,29550,843-332-1560
Bryant Trucking,541crowley Hill Road,Society Hill,SC,29593,843-378-3162
Grasshopper Htl,835 Second Avenue,Greenville,SC,29605,864-325-9024
Arnold Trucking,609 S Georgia Ave,Chesnee,SC,29323,864-461-7910
Smurph Express,132 Keenan Ave,Goose Creek,SC,29445,843-209-0003
B Earley Express,2053 Twin Bridge Rd,Gaffney,SC,29341,864-219-1433
Powers Trucking,1343 Farmer Rd,Starr,SC,29684,864-296-5781
M & L Fleming Trucking Co,1503 Sparkman Rd,Manning,SC,29102,803-473-3620
"Jackson Brothers Hauling, Inc.",537 Pelion Road,Pelion,SC,29123,803-894-5107
Heyward Trucking,122 Windy Hill Way,Peidmont,SC,29673,864-360-7421
James F Burgess Trucking,135 Oak Creek Rd,Seneca,SC,29678,N/A
Aus Trucking,106 Janice Ct,Bishopville,SC,29010,803-428-2561
Double J Trucking,401 Golf Rd Apt 303,Summerville,SC,29483,843-824-8576
Auto Transporter,3212 Wexford Way,Lancaster,SC,29720,248-492-4768
Hometown Transportation LLC,1582 Cooper Store Rd,Moncks Corner,SC,29461,843-899-4328
Jme Express,17 Pinecreek Ct,Greenville,SC,29605,864-277-0316
Crowder's Auto Transport,307 Pine St,Edgefield,SC,29824,803-637-4946
Wheeler Trucking,2512 Garris Rd,Scranton,SC,29591,843-389-9681
H & L Transport,1710 St Paul Church Rd,Clover,SC,29710,704-893-2757
T E Passmore Trucking Company,193 Owens Rd,York,SC,29745,803-684-2929
L And J Transportation Service,3542 Savannah Grove Road,Effingham,SC,29541,843-661-6289
Gaskin And Sons Trucking,233 Mckellar Drive,Greenwood,SC,29646,864-227-2648
B A N Transport,1523 Merrie Meadow Ct,Rock Hill,SC,29732,803-370-5231
Piedmont Transportation,119 North Fant St,Anderson,SC,29621,864-226-9157
Evans Auto Sales & Wrecker Service,1207 Holly Ridge Rd,Blacksburg,SC,29702,864-936-7751
Page,40 Easter Lane,Cades,SC,29518,843-598-3827
Kusant Trucking Company,7430 Two Notch Rd,Batesburg,SC,29006,803-657-7676
Cover Us Trucking,1512 North Cashua Dr,Florence,SC,29501,843-665-0636
Anderson Transport,2845 Windham Drive,West Columbia,SC,29170,803-755-2776
Diamond Creek Trucking,40 Old Batson Rd,Tailors,SC,29687,864-292-9912
R & W Haulers,640 Hidden Pond Lane,Bonneau,SC,29431,843-257-4561
Atk Express,899 Iron Ore Rd,Spartanburg,SC,29303,864-582-4388
Carolina Country Trucking,3842 Byrd Road,Conway,SC,29526,843-365-5646
Circle Bar T Grading & Hauling,141 Old Congaree Road,Eastover,SC,29044,803-356-5087
Palmetto Express,142 Shearbrook Drive,Greenwood,SC,29646,864-227-6862
Dari Dan Transport,381 Coon Creek Rd,Pageland,SC,29728,843-680-0934
Quality Express,885 Jordan Creek Rd,Inman,SC,29349,864-949-3867
K & M Trucking,629 Windchester Ave,Norway,SC,29113,803-263-4691
M & A Trucking,101 Amber Lynn Ln,Tamassee,SC,29686,864-944-5222
Tilley Trucking,3765 Indian Mound Rd,Laurens,SC,29360,502-525-0866
Gardner Transport,4585 Hwy 109 S,Chesterfield,SC,29709,843-634-3892
Mullinax Professional Services,198 Mullinax Drive,Gray Court,SC,29645,864-575-4449
Pam's Trucking,1405 Ballentine Drive,Hartsville,SC,29550,843-861-1948
Adams Hauling,994 Whaley Pond Rd,Graniteville,SC,29829,N/A
Wch Pie Trucking,548 Winkys Drive,Lake City,SC,29560,843-373-9453
S Scott Transport,708 Ansley Street,Florence,SC,29505,843-662-7035
Green Farms Trucking,1722 Diles Bay Road,Turbeville,SC,29162,843-659-2713
Phillips Trucking,962 Black Bottom Rd,Liberty,SC,29657,864-303-1586
Elliott Transport,736 Highway 38 S,Bennettsville,SC,29512,843-479-8929
Jesus Is Lord Trucking,204 Grinders Mill Rd,Columbia,SC,29223,803-788-6748
Beverlys Transport,440 Ray Blackley Rd,Inman,SC,29349,704-392-4680
Leonard Sampson Trucking,11 Sam Doyle Dr,St Helena Island,SC,29920,352-425-1035
T And R Transport,518 Sandy Hill Drive,Dillon,SC,29536,843-774-9819
A&k Auto Sales & Leasing,2820 Laurens Rd,Greenville,SC,29607,864-234-9977
J P L Trucking,1950 Thoroughfare Branch Rd,Cassatt,SC,29032,803-425-6548
Doby Trucking,6917 Choppee Road,Georgetown,SC,29440,843-325-7267
Gladden Trucking,1012 Loop Road,Bennettsville,SC,29512,843-479-8293
Hopeland Trucking,1417 Wilcox Avenue,Gaffney,SC,29341,864-487-0059
Sanders Trucking,1054 Knottingwood Dr,Lancaster,SC,29720,803-283-1865
E D Trucking,90 Sanders Road,Pageland,SC,29728,843-672-3507
Carolina On-site Tanker Service,698 Martin Hills Road,Blacksburg,SC,29702,864-839-2923
Mobil Transport,876 Calvary Church Rd,Neeses,SC,29107,803-682-2599
Faith Transport,124 Farmington Road,Columbia,SC,29223,803-600-7007
Dobbs Trucking,2973 Old Chappells Ferry Rd,Saluda,SC,29138,803-275-2239
Major & Major's Trucking,2405 Grinkley Court,Port Royal,SC,29935,843-298-2578
Grady Gulledge Trucking,1138 Rambling Road,Ruby,SC,29728,843-634-5081
Brantley Transportation,145 Silverstone Ct,Marion,SC,29571,843-423-7319
Brannons Auto Transport,185 Ponder Lane,Taylors,SC,29687,864-895-3484
Hammerhead Transportation,1901 Elderberry Lane,Ridgeway,SC,29130,803-408-0104
Hughey Farms,5469 Henderson Hill Road,Chesnee,SC,29323,864-461-4624
American Hunter Transport,192 Longsight Ln Apt 106,Rock Hill,SC,29730,803-329-3246
Southern Auto Transport,697 Buckhorn Court,Catawba,SC,29704,803-324-5609
Bd Mac,220 Kirby Rd,Pacolet,SC,29372,864-621-4098
Pickard Transport LLC,134 Grace Street,Lexington,SC,29072,803-600-9409
Moore Trucking,125 Moore Hill Lane,Prosperity,SC,29127,803-364-0992
M V Shaw Trucking,105 Windy Road,Gilbert,SC,29054,704-883-9466
Hill's Wrecker,591 W Main St,Moncks Corner,SC,29461,843-761-8709
Mccrays Trucking,270 Vista Lane,Lynchburg,SC,29080,803-437-2927
D-lane Trucking Co,248 Tram Rd,Columbia,SC,29210,803-238-0758
Lamar Touring,1407 Eagle Landing Blvd,Hanahan,SC,29406,843-532-5651
A & M Transport,279 C E Stewart Road,Clover,SC,29710,803-628-0141
Perrin's Towing,113 Spring Meadow Drive,Mccormick,SC,29835,864-852-3007
Sam Trucking,54 Hugh Rd,Mayesville,SC,29104,803-428-2952
Ironhorse Motorcycle Transport LLC,694 Myrtle Ridge Drive,Conway,SC,29526,843-234-0256
Smith Trucking,316 Old Sudlow Lake Road,North Augusta,SC,29841,803-594-9501
T & R Enterprises,5740 Mt Carmel Road,Walterboro,SC,29488,843-538-2320
Mccraw's Transport,145 Douglas Heights Drive,Gaffney,SC,29341,864-488-0628
Williams Backhoe & Hauling,122 Wymans Road,Hemingway,SC,29554,843-558-7115
Elks Trucking Co,61 Taco Lane,Pageland,SC,29728,843-672-9761
Transport One,128 Cedar Vale Drive,Lexington,SC,29072,803-996-9023
Lawson Carriers LLC,4932 Buffalo West Springs Hwy,Pauline,SC,29374,864-427-4738
J & D Auto Express,24072 Highway 151,Mcbee,SC,29101,843-335-6332
Pennington Transport,663 Wilkinsville Hwy,Gaffney,SC,29340,864-489-9206
A & A Trucking,39 Woody Hill Circle,Yemassee,SC,29945,843-908-1575
Tiger Trucking LLC,984 Clover Hill Rd,Walterboro,SC,29488,843-844-8316
C & S Trucking,6610 Meadow Prong Rd,Effingham,SC,29541,843-346-5068
Cc Trucking,1336 Ridge Rd,Greenville,SC,29607,864-458-9555
Blanton Transport,421 Goretown Loop,Loris,SC,29569,843-877-2720
Carter's Transport,110 Woodhaven Drive,Darlington,SC,29532,843-393-8914
E & L Logistics,700 South Cashua # 9c,Florence,SC,29501,843-661-6274
Slaters Tire And Toeing Service,1955 Sumter Hwy,Bishopville,SC,29010,803-428-4616
J C Franklin Transportation,1052 Mosteller St,Clover,SC,29710,704-968-5750
3 K Trucking,82 Pelican Lane,Varnville,SC,29944,803-943-4237
Mr Tech Safety Services,2004 Whitehall Rd,Anderson,SC,29625,864-231-7999
Collins Enterprises,2001 Burns Bridge Rd,Anderson,SC,29625,864-965-8023
Riley Express 1,11159 Burton Ferry Hwy,Allendale,SC,29810,803-584-3774
Freeman & Sons Trucking Co,2272 Mancke Drive,Rock Hill,SC,29732,803-984-4479
Zorn Trucking,805 Wellington Road,Barnwell,SC,29812,803-300-2427
Cfw Trucking,6229 Rosedale Court,Mullins,SC,29574,N/A
E D Brown Transport LLC,146 Rahway Rd,Goose Creek,SC,29445,843-367-8102
Mighty Rooster Transport,1121 Power Line Road,Lugoff,SC,29078,803-438-4075
Palmetto Logistics,1128 Lee Circle,West Columbia,SC,29169,803-309-9229
Ebj Trucking,902 Gadsden Loop,Walterboro,SC,29488,803-549-7853
Beaufort Trucking,923 John Eddye Road,Cassatt,SC,29032,803-425-4775
4-l Trucking,234 Possum Trot Rd,Blacksburg,SC,29541,843-373-1132
Action Transport,111 East Church Street,Saluda,SC,29138,864-445-7238
Player Enterprise,935 Bullfrog Lane,Sumter,SC,29153,803-481-3216
C H Trucking,406 Whitehall Road,Greenwood,SC,29646,864-992-2277
Pascaleola Farms,379 Flat Shoals Rd,Salem,SC,29676,864-885-8304
Brown Trucking,955 Deerfield Road,Hardeeville,SC,29927,843-784-3866
Grays Trucking,4155 Steep Bottom Road,Estill,SC,29918,803-943-5605
Chamberlain & Sons Trucking,208 Possume Hollow Dr,Greenwood,SC,29646,706-592-6254
Tripp Trucking,3795 Hwy 23,Monetta,SC,29105,803-685-7035
Jam Trucking,213 Mcdowell Ct,Latta,SC,29565,843-752-6129
Sergeys Express,280 Mitchel Rd,Inman,SC,29349,N/A
James Mims Trucking,108 Hunters Run,Edgefield,SC,29824,803-637-6090
Aleman Milton J,5340 Moorefield Memorial Highway,Liberty,SC,29657,864-313-3800
Sonnys Trucking,1877 Brentwood Drive,Orangeburg,SC,29115,803-536-1431
B & K Express,230 Spring Estates Drive,Liberty,SC,29657,864-907-2143
S & J Trucking,1213 Gray Rd,Lake City,SC,29560,843-659-6923
Waters Trucking,325 Hope Rd,Spartanburg,SC,29304,864-487-1322
Flemings Trackhoe Service,1614 Fairs Road,Due West,SC,29639,864-378-1185
Curtis Blakley Transportation,18 Pinedale Dr,Greenville,SC,29609,864-232-6740
Skiba's Trucking,3050 Penson Drive,Conway,SC,29527,843-504-5273
Twt Trucking,7510 Black River Road,New Zion,SC,29111,803-473-3515
Broughton Trucking,1075 Peru Rd,St Stephens,SC,29479,843-567-2228
R W Metts Transport,9521 Highgate Rd,Columbia,SC,29223,803-736-4509
Jp Trucking,3075 Lucknow Road,Bishopville,SC,29010,803-428-2675
Freddie Bullock Trucking,183 Eva Welch Lane,Jefferson,SC,29718,843-658-7081
Kmc Trucking,100 Hookston Way,Irmo,SC,29063,803-466-8738
T Express Co,61 Satterthwaite Dr,Barnwell,SC,29812,803-541-0855
Anp Automotive,113 Plum Creek Lane,Greensville,SC,29607,864-525-9092
Blackwell Trucking,904 Chestnut Ridge,Mccormick,SC,29835,706-401-0982
Cross Country Trucking,266 Daniel Morgan School Road,Gaffney,SC,29341,864-461-3672
"Bush Enterprise, Inc.",204 First St,Hardeeville,SC,29927,843-784-2306
Mitchell Trucking,1200 5th Ave North Apt 1006,Surfside,SC,29575,843-458-6843
Calhoun Trucking,1689 Secession St Ext,Abbeville,SC,29620,864-366-4050
Blackwell Trucking,1296 Jeff Drive,Manning,SC,29102,803-478-2770
T Allen Trucking,3776 Mayfield Drive,Conway,SC,29526,843-369-1013
James M Mims Jr Trucking,275 Samuel Diggs Rd,Trenton,SC,29847,803-275-2184
P B Transportation,2572 Fairview Road,Leesville,SC,29070,803-894-7821
Bama Trucking,1729 Hillcreek Road,Darlington,SC,29532,843-413-9686
Gabriel Express,31 Altacrest Drive,Greenville,SC,29605,864-299-9196
B & M Trucking,4353 Bradford Circle,Myrtle Beach,SC,29588,843-236-1512
E M Trucking,2830 Concord Church Rd,Allendale,SC,29810,803-584-6035
Rnj Trucking,117 Salem Street,Mayesville,SC,29104,803-453-5000
J Gillette Trucking,615 Brownstone Dr,Beech Island,SC,29842,706-726-8540
Southern Cross Transport Transportation,261 Mcswain Rd,Chesnee,SC,29323,864-461-9370
J & G Trucking LLC,621 Blackstone Dr,Myrtle Beach,SC,29588,843-236-1280
Wayne Manley Trucking,512 Roe Road,Greenville,SC,29611,864-483-7317
A & C Trucking,2930 Mw Rickenbaker Rd,Manning,SC,29102,803-478-4512
Hyman Farms Trucking,2527 Triple Crown,Florence,SC,29505,843-665-6843
J H Smith Express,94 Dryden Ave,Piedmont,SC,29673,864-277-0929
M & M Trucking,909 Barr St,Lake City,SC,29560,843-598-9617
Jta Transport,503 A Miles Street,Bennettsville,SC,29512,843-439-2634
Lusk Trucking,252 Flat Rock Road,Walhalla,SC,29641,864-903-2845
Mortise Trucking Company,264 Horseshoe Bend Dr,Darlington,SC,29532,843-968-4589
Triple J Transport,270 W Rambo Road,Rock Hill,SC,29730,803-329-8215
Carolina Transport,1211 Andrews Mill Rd,Lamar,SC,29069,843-326-5046
Dellinger's Trucking,265 Bondale Drive,Spartanburg,SC,29303,864-266-0896
Graham' Services,264 Waycross Cir,Sumter,SC,29153,803-464-6166
Jesus Is Lord Transportation,419 Glover Rd,Pineville,SC,29468,843-367-8924
"Trinity Transport, Inc.",1710 Raccoon Road,Mayesville,SC,29104,803-428-6089
Vincent Grimmage & Sons Trucking,21 Honey Hill Street,Georgetown,SC,29440,843-546-1978
24 Express In - Arthur Lubin,214 E Main St,Dillon,SC,29536,866-387-3663
Baker Truck Parts,1200 White Horse Rd,Greenville,SC,29605,864-277-9479
Hfc Trucking,2919 Highway 65,Conway,SC,29526,843-365-2606
Sdl,317 W. Phillips Dr,Greer,SC,29652,877-867-1709
R & D Trucking,1210 Daisy Rd,Loris,SC,29569,843-756-2460
S & M Transport,1412 Bent Tree Court,Hartsville,SC,29550,843-339-9836
Jacobs Transport,1100 Charter Oak Dr,Taylors,SC,29687,864-444-1288
Shotgun Express,1301 Lutsen Dr,Easeely,SC,29642,864-324-3060
Harvest Transportation,1975 Central Park Road,James Island,SC,29412,843-406-1800
Davis Trucking,1364 Old York Road,Chester,SC,29706,803-581-7490
Platinum Transport,3987 Possum Corner Rd,Walterboro,SC,29488,843-893-4094
Brandy Baker Trucking,2782 Rocky River Road,Heath Springs,SC,29058,803-285-0731
Lsj1 Trucking,562 Keene St,Estill,SC,29918,843-465-0508
Chapman Trucking,622 Evergreen Lane,Walterboro,SC,29488,843-538-8111
Thompson Hauling,1387 Old Puckett Road,York,SC,29745,803-684-4466
Danny Hodge Trucking,545 Fire Hill Rd,Walterboro,SC,29488,843-866-2028
Hummingbird Trucking,406 Scuppernong Road,Barnwell,SC,29812,803-541-6825
Southern Motorsports,673 Teardrop Lane,Bonneau,SC,29431,843-834-4230
Sisco LLC,127 French Collins Rd,Conway,SC,29526,877-224-9283
Grizzly Transport,234 Melton Rd,Liberty,SC,29657,864-843-6266
"Rdc Trucking, Inc.",1531 Oxner Road,Newberry,SC,29108,803-537-1958
Mark I Moving & Storage,8 Cartee Ave,Greenville,SC,29605,864-269-7659
C & D Trucking,1109 Bacon Rd,Aiken,SC,29805,540-448-3252
Fw Transportation,1745 Level Green Church Rd,Bennettsville,SC,29512,843-439-1374
Davis Transport,804 Boyer Rd,Holly Hill,SC,29059,803-496-3404
Leon Chapman Trucking,9425 Hwy 52 South,Society Hill,SC,29593,843-378-0123
Lne Express,3865 Congruity Road,Gable,SC,29051,803-495-4295
Rlb Trucking,340 Miller Road,Batesburg,SC,29006,864-980-0889
Ttl Transport,127 Companion Lane,Inman,SC,29349,864-599-7314
Scuffletown Cycle,206 Howard Dr,Simpsonville,SC,29681,864-963-4266
Cruzer Express,9226 Teals Mill Rd,Cheraw,SC,29520,843-537-7956
Contract Distribution Services,119 Hatteras Lane,Simpsonville,SC,29680,864-444-2041
Jen Transport,1848 Bon Rea Drive,Rock Hill,SC,29730,803-366-0907
D & D Trucking,127 Mt Calvery Church Road,Spartanburg,SC,29302,864-597-9136
Hyatt Trucking,1858 Mirage Lake Rd,Latta,SC,29565,843-632-0748
Pickens County Trucking,111 Liberty Drive,Pickens,SC,29671,864-878-9460
Crsw Logistics,251 Forest Drive,Fort Mill,SC,29715,803-547-4644
Tony's Transport Service,4416 Davison Road,Ravenel,SC,29470,843-729-5225
3rd Choice Trucking,3703 Southborough Rd Apt 16c,Florence,SC,29501,843-669-2588
Cooper Transportation,2193 Hwy 1 South,Elgin,SC,29045,803-438-1331
L B Trucking Headquarters,416 Applewood Rd,St George,SC,29477,843-563-2936
Baxley Trucking,167 Woodtrail Lane,Gaston,SC,29063,803-521-6911
Beam Trucking,915 Mana Dr,Sumter,SC,29154,803-494-2414
Liberty Trucking,6832 Bells Hwy,Ruffin,SC,29475,843-538-2052
Pinckney Transport,206 Alydar Court,Summerville,SC,29483,843-330-2015
Merritt Trucking,137 Brian Court,Batesburg,SC,29006,803-685-5438
Govan Trucking Company,3445 W Mcconnells Hwy,Sharon,SC,29742,803-487-2769
Morris Trucking Company,932 Central Road,Olanta,SC,29114,843-699-5155
Jsj Express,116 Elrod Drive,Belton,SC,29627,864-221-3584
Middle Willow Transport,1080 Middle Willow Rd,Norway,SC,29113,803-707-1954
Lewis Trucking Co,1375 Hampton Avenue,Aiken,SC,29801,803-648-1142
All South Auto Transport,1302 Lime Tree Lane,Moncks Corner,SC,29461,843-899-2397
Lori Morgan LLC,1210 Champion Ferry Rd,Gaffney,SC,29341,864-839-5165
Vima Express,424 S Purple Mountain Ln,Boiling Springs,SC,29316,864-599-1904
Carolina Recovery Service LLC,4707 Hwy 24,Anderson,SC,29625,864-354-8764
S B & Kids Trucking,407 Jackson Street,Clinton,SC,29325,864-325-0405
Vtek Transportation,980 Spring Valley Rd,Inman,SC,29349,209-620-0091
Lucas Transport,2217 E Home Ave,Hartsville,SC,29550,843-857-4351
L & J Trucking,5797 Westmore Land Road,Conway,SC,29526,843-365-2539
On Time Delivery,153 A Landmark Dr,Taylors,SC,29687,864-268-6640
Evans Express,9 Barclay Dr,Travelers Rest,SC,29690,864-834-1903
Murray S Transport,1822 Fairlawn Ct,Rockhill,SC,29732,803-366-1889
Richard Green Trucking,888 Bryan Drive,Orangeburg,SC,29115,803-516-9994
Dc True Hauling Co,123 B Wendy Way,Summerville,SC,29485,843-530-6088
Wiggins Trucking,863 Camp Buddy Rd,Ridgeville,SC,29472,843-835-8843
Jlb Transport,142 Woodvale Circle,Columbia,SC,29203,803-735-9984
Roger Oliver Trucking,Rt 1 Box 219,Jefferson,SC,29718,843-658-7129
Ernest Truckings,567 Indian Creek Drive,Ruffin,SC,29475,843-866-2362
Action Enterprises Trucking,1720 Wadel Stinson Rd,Lancaster,SC,29720,803-285-8548
Noble Trucking Company,137 Waterford Drive,Columbia,SC,29203,803-735-7690
Two Men And A Truck Of Greenville,#4 Airport Road,Greenville,SC,29607,864-294-6683
Givens & Son Trucking,914 Sumter St,Fairfax,SC,29827,803-632-2365
G J J Trans,375 Boy Scout Road,Gaston,SC,29053,803-791-5489
Abm Transport,2622 Porter Rd,Cassatt,SC,29032,910-755-3304
L C Trucking,202 Campanella Drive,Columbia,SC,29203,803-622-3197
Maracle Trucking,Highway 301 North,Ulmer,SC,29849,803-584-5863
Auto Pro's,119 South Oakland Ave,Rock Hill,SC,29730,803-366-3336
Scotts Wrecker Service,111 Boswell Road,Roebuck,SC,29376,864-574-8531
Small Express,408 Torrington Road,Eutawville,SC,29048,803-492-3469
D J Cain Trucking,3790 Garlen Rd,Edgemoor,SC,29712,803-366-0869
Trentyl Transportation,655 Tree Land Drive,Ladson,SC,29456,843-797-1620
Classy Transport,317 14th Ave N,Surfside Beach,SC,29575,843-357-8203
Steve Bloser Trucking LLC,10 Selkirk Dr,Charleston,SC,29414,843-571-1999
Rapid Mobile Home Transport,107 Kimble Dr Unit J,Simpsonville,SC,29680,864-243-5875
Lewis Trucking,2895 Hwy 9 Bus West,Loris,SC,29569,843-756-0822
Trimline Mobile Home Services,400 Holiday Street,Pelzer,SC,29669,N/A
Richards & Son Trucking,112 Brooke Ct,Greenwood,SC,29649,864-941-3342
Beauford Trucking,23 Left Link Rd,Abbeville,SC,29620,864-446-2131
T L Burgess Transport,1811 Leadmine St,Gaffney,SC,29340,864-489-3860
F Green Jr Trucking,2480 Clements Ferry Rd,Wando,SC,29492,843-881-2647
"H Johnson Trucking, Inc.",1628 Steadfast Street,Columbia,SC,29203,803-754-0782
Kersey Trucking,114 Pocosin Road,Latta,SC,29565,843-752-7967
W T Trucking,235 Larkspur Road,Columbia,SC,29212,803-732-2237
Hcd Trucking,3502 Sc Highway 304,Blackville,SC,29817,803-284-5138
Hard Times Express,242 Velda Dr,Union,SC,29379,864-426-1851
Lazy W Transport,1718 Hubb Kelley Rd,Cassatt,SC,29032,803-428-6879
Fogle & Son's Trucking,119 Milwaukee Ct,Santee,SC,29142,803-854-3601
Moorer & Sons Trucking,209 Cross Field Rd,Gaston,SC,29053,803-445-1600
S & K Auto Sales,314 S Norris Dr,Norris,SC,29667,864-639-8190
Rainwater Trucking,172 Ashton Place,Ridgeland,SC,29936,843-717-4009
Steve Hudson Trucking,406 S Pearl Street,Pageland,SC,29728,803-475-8378
Diffin Trucking,4680 Cane Branch Road,Walterboro,SC,29488,843-844-7203
Page Trucking,2130 Brant Drive,Dillon,SC,29536,843-774-9089
H & A Hauling,Rt 3 Box 251,Ridgeland,SC,29936,843-717-2633
Kelly Trucking,Po Box 612,Bowman,SC,29018,803-829-1000
Maple Transportation,7 Golfair Ct,Sumter,SC,29154,803-773-9320
Albertson Transport,819 Zion School Rd,Easley,SC,29642,864-905-6414
Web Trucking,27 Fisk Lane,Lodge,SC,29082,843-866-7936
Jammar Transport,416 Bagwell Road,Piedmont,SC,29673,864-859-6684
Po Farmer Trucking,40 Mercury Court,Walterboro,SC,29488,843-538-2546
Polatty Trucking,2765 Old Chapples Ferry Road,Saluda,SC,29006,864-993-5365
Pepe Trucking LLC,324 Catalina Ct,Rock Hill,SC,29730,803-329-9973
Smooth Operator Trucking,725 Radical Rd,Sumter,SC,29153,803-773-9289
D & D Trucking,1165 Paralyn Drive,Lexington,SC,29073,803-206-5634
Frasier Trucking Company,782 Kent Rd,Georgetown,SC,29440,843-546-3470
Mitchell Trucking,14538 Low Country Hwy,Ruffin,SC,29475,843-866-7624
F L Moore Trucking,680 Oneal Road,Fairfax,SC,29827,803-632-3018
P & P Trucking,2545 Dexter Street,Blackville,SC,29817,803-284-4651
Burgess Trucking,1052 Bragdan Rd,Lake City,SC,29560,843-389-7082
Hinkle Trucking,171 Tom Fripp Road,St Helena,SC,29920,843-575-4558
S D Trucking,1094 Hubert Baxley Rd,Mullins,SC,29574,843-423-5411
Billy Williams Trucking,4577 Willow Springs Road,Conway,SC,29527,843-397-9704
D&g Express Trucking,140 Castleville Ct,Lexington,SC,29073,917-680-6591
Larry Catoe Trucking,2742 Plyler Mill Road,Lancaster,SC,29720,803-286-7284
Unique Transport,1000 Watermark Pl #501,Columbia,SC,29210,803-765-0142
Bobby H Beasley Transport,1609 Mckenzie Rd,Mcbee,SC,29101,843-335-8556
Albertson Trucking,1525 Anderson Highway,Easley,SC,29642,864-855-0128
Stilinger Farms,513 Todd Creek Road,Neeses,SC,29107,803-535-3379
Commercial Equipment Logistics Company,302 Wilson Creek Rd,Iva,SC,29655,864-348-2614
Columbia Paint & Automotive,821 Pepper St,Columbia,SC,29209,803-776-9964
Wayne's Mobile Home Service,1021 Chipley Rd,Greenwood,SC,29646,864-223-5198
Hailey's Transportation,1635 Fair Haven Road,Columbia,SC,29210,803-242-2904
Rt Trucking,2256 Sidneys Road,Walterboro,SC,29488,843-324-1927
R&k Transport,3524 Howell Rd,Rock Hill,SC,29732,803-325-1572
Greer Trans Svc,Rt 2 Box 544 B,Manning,SC,29102,803-473-3465
Columbia Transport,2237 Hillbeck Dr,Columbia,SC,29210,803-798-2967
Larry Canady Trucking,103 Nimitz,Walterboro,SC,29488,843-538-6934
Mcdaniel Auto Transport,109 Shands Rd,Pauline,SC,29374,864-583-2016
Ray Trucking,299 Caines Landing Rd,Conway,SC,29526,843-907-8614
J J Dennis & Sons Transport,702 Hester Store Rd,Easley,SC,29640,864-855-3904
Cameron Trucking,4858 Mamie Rd,Nichols,SC,29581,843-526-3593
Cj's Trucking,Rte 1 Box 113-t,Pageland,SC,29728,843-672-2788
Jrl Trucking,1104 Glenn Forest,Greenville,SC,29607,864-286-9773
Dc Transport,323 Arp Way,Inman,SC,29349,864-384-9799
Byers Transport,429 Andrews Street,Hemingway,SC,29554,843-558-2580
Tinsley Trucking,585 Plainview Drive,Spartanburg,SC,29307,864-579-7397
S O S Trucking Co,1211 West Main St,Bennettsville,SC,29512,843-479-9651
Lil Fox Express,1731 Nursery Hill Road,Columbia,SC,29212,803-781-4110
J & N Transport,1005 Jessamine Dr,Hartsville,SC,29550,843-383-8490
Gilford Trucking,206 Live Oak Drive,Orangeburg,SC,29115,803-531-1484
"M & R Construction Services, Inc.",286 Edge Water Drive,Inman,SC,29349,864-592-5966
Barrett Transport,602 Brooks Road,Mauldin,SC,29662,864-288-2929
W & G Trucking,5519 Colonial Drive,Columbia,SC,29203,803-786-0433
Heyward Trucking,5981 Fireman Dr,Ravenal,SC,29470,706-796-9612
L & B Trucking,Rt 1-27b Hwy 163,Allendale,SC,29810,803-584-7322
Parker Express,606 W 4th St,Easley,SC,29640,864-918-3650
Jones Trucking Co,4365 Great Falls Hwy,Richburg,SC,29072,803-482-4871
Log Hauling,122 Acres Court,Pickens,SC,29671,864-878-6961
Alls Transport,1605 Appleton Road,Allendale,SC,29810,803-584-1041
Winburn Trucking,2468 Ousleydale Road,Hartsville,SC,29550,843-332-7650
Mccalister And Sons Trucking,750 Liberty Lane,Aiken,SC,29801,803-640-7955
Martin's Trucking,4867 Pee Dee Hwy,Conway,SC,29527,843-397-1029
Glennco Carriers,1246 Fort Drive,Hanahan,SC,29406,256-468-6373
Tree Scaper,20 Lavington Road,Charleston,SC,29407,843-225-8733
J & M Express LLC Of Lexington,7140 Platt Spring Road,Lexington,SC,29073,803-894-6499
Heinsohn Trucking,2884 Reservationrd,Rock Hill,SC,29730,803-366-9779
Grant Trucking,132 Louise Dr,Pendleton,SC,29670,864-646-9613
Miller Trucking,401 Little Pond Rd,Easley,SC,29640,864-855-5117
American Grading & Transport,204 John Deere Ln,Easley,SC,29640,864-855-0095
Harris Trucking,119 Coster Rd,Travelers Rest,SC,29690,864-895-8102
Scat Trucking Company,Rt 2 Box 35b,Kingstree,SC,29556,843-382-3427
Thomas Transport,559 South Hood Street,Olanta,SC,29114,843-659-8101
Jones Trucking,494 Elm Street,Bamberg,SC,29003,800-687-5684
W & D Trucking,2024 Apple Blossom Road,York,SC,29745,803-628-0691
Canteen Trucking,577 Bruorton Rd,Hemingway,SC,29554,843-558-2699
H & J Trucking,217 Sutters Mill Dr,Piedmont,SC,29673,864-299-0293
Dually Transport,206 Lauren Flynn Drive,Anderson,SC,29626,864-303-9227
Major Transports,72 Martin Luther King Jr Dr,St Helena Island,SC,29920,843-838-4825
S And L Trucking,154 Schroder St,West Union,SC,29696,864-638-2244
Edwin A Fowler Trucking,103 Meadow Green Dr,Piedmont,SC,29673,864-269-4772
D W Cross Trucking,5101 Old Leesburg Rd,Hopkins,SC,29061,803-727-5503
T K Trucking,3521 Fork Shoals Rd,Simpsonville,SC,29680,864-243-5003
Cam Trucking,Po Box 602,Lancaster,SC,29721,870-672-7469
Elizabeth Express,337 Doversville Highway,Darlington,SC,29540,843-665-4968
Walker Trucking,14 Pine Creek Ct,Greenville,SC,29605,209-462-3216
O Neals Trucking,23 Clippership Loop,Windsor,SC,29856,803-648-8681
M & M Trucking,2429 Seagull Lane,Columbia,SC,29203,803-786-6032
W B Trucking Co,722 Farmbrook Rd,Lancaster,SC,29720,803-285-6274
S D L Trucking Company,4357 Cheviot Dr,Charleston,SC,29418,843-767-2902
Flash Transport,1160 Foster Grove Rd,Chesnee,SC,29323,864-814-6560
Wm Etheredge & Sons,620 Shiloh Rd,Saluda,SC,29138,864-445-8839
C & C Express Trucking,155 Dunkenfield Road,Vance,SC,29163,803-492-9247
T&k Truck Lines,6436 Savannah Highway,Neesees,SC,29107,803-247-2388
D & K Trucking Co,202 South Colie Loop Drive,Cheraw,SC,29520,843-537-5482
Glenn & Glenn Trucking,8009 Springflower Rd,Columbia,SC,29223,803-699-0304
Hunter Brothers,780 Edisto Street,Orangeburg,SC,29115,803-535-4691
Maple Ridge General Contractor,390 Turpin Road,Inman,SC,29349,864-472-9430
B W S Specialized Transport,1853 Asbury Road,Pacolet,SC,29372,864-809-6281
Adolphous Transport,208 Crestmore Drive,Columbia,SC,29209,803-776-9593
Marvins Trucking,490 Ball Park Road,Barnwell,SC,29812,803-541-0304
Bush Trucking LLC,406 Mixon Corner Road,Fairfax,SC,29827,803-632-1290
Quality Mobile Home Movers,1011 Sunset Drive,Latta,SC,29565,843-752-9032
Klaus Express,400 Roe Rd,Greenville,SC,29611,864-295-0589
Yarbough Express,3521 Cains Mill Rd,Sumter,SC,29154,803-481-9074
Williston Transportation,61 Satterthwaite Dr,Barnwell,SC,29812,803-541-0855
Clinton Trucking,3343 J S Gaston Rd,Richburg,SC,29729,803-789-3157
J & J Truckinng,384 N Metts Street,Saint George,SC,29477,843-563-3312
W A Davis Trucking,266 Little Country Road,Ward,SC,29166,864-993-4206
Four Way Trucking,5133 Pee Dee Ln,Murrells Inlet,SC,29576,843-651-0207
"Wcs, Inc.",24 Ravenglass Way,Blythewood,SC,29016,803-699-1783
Southern Boy Express,127 Osprey Nest Ct,Blythewood,SC,29016,803-695-9921
J T S Transport,1622 Central Road,Lake City,SC,29560,843-659-8502
Jaciki Trucking Co,306 Bloomfield Ct,Moore,SC,29369,864-587-9048
Redcliffe Trucking LLC,14 Sims Wood Rd,Aiken,SC,29803,803-827-0394
Moose Transport,214 Froman Drive,Summerville,SC,29483,888-268-1739
Bracey Trucking,1005 E Harrison St,Dillion,SC,29536,843-774-9966
R C Auto Transport,2505 Green Street Road,Darlington,SC,29532,843-395-6093
Family Transport,2308 W Sumter St,Florence,SC,29501,843-260-5375
Dwg Trucking,18 Junada Drive,Travelers Rest,SC,29690,864-834-1157
W & S Trucking,1980 Pudding Swamp Rd,Turbeville,SC,29162,843-659-4854
Hardin Trucking,2651 Rocky Creek Rd,Chester,SC,29706,803-377-7231
Rb's Mobile Home Transport,114 Branham Lane,Bishopville,SC,29010,803-428-5319
Pace Trucking Company,Lot # 32 100 Associate Drive,Easley,SC,29642,864-356-4424
Berry D's Trucking,790 Toatley Rd,Winnsboro,SC,29180,803-635-4070
Ernest Pearson Trucking,1096 Mcdowell Street,Manning,SC,29102,803-473-4783
G E T Transport,2707 Monza Tr,W Cola,SC,29170,803-359-4836
Mills Transport,112 Karen Ct,Boiling Springs,SC,29316,864-599-5032
Ray's Moving & Toting Service,Rte 3 Box 41,Kingstree,SC,29556,843-382-5915
B & B Trucking,404 N Coit Street,Florence,SC,29501,843-667-3978
Southern Gateway Transport,157 Stratton Drive,North Charleston,SC,29420,803-760-1746
Andy Tyre Trucking,3684 Cimmeron Rd,Lancaster,SC,29720,803-286-4142
Bengy's Trucking,34 Saphire Lane,Barnwell,SC,29812,803-259-4545
Middleton Trucking,215 Julius Lane,Yemassee,SC,29945,843-844-8606
S & T Trucking,288 Rodeo Drive,Eutawville,SC,29048,803-492-7083
Stevens Transport,313 Lee Mcabee Rd,Boiling Springs,SC,29316,864-599-0214
Bradshaw Truck Lines,1879 Springsteen Road #210,Rockhill,SC,29730,803-524-5380
Tihs Haulers,8869 Sc Hwy 34,Newberry,SC,29108,803-276-3690
J O M Trucking,1201 Mayoak Circle,Columbia,SC,29229,803-699-6109
Thunder Mountain Transport,680 S Toby Creek Rd,Barnwell,SC,29812,888-521-9553
Saxby 1 Trucking LLC,6916 Buckhorn Rd,Ravenel,SC,29470,843-889-3538
Nate Trucking,2653 Ferrara Drive,North Charleston,SC,29405,843-566-9688
G & T Transport,951 Cambridge St,Sumter,SC,29150,803-452-6123
Satellite Papa LLC,308 76th Ave N Suite 1,Myrtle Beach,SC,29572-4284,843-449-8735
Solomon Trucking,Po Box 1734,Estill,SC,29918,800-378-0836
Brown's Trucking,973 W Cox Ferry Road,Conway,SC,29526,843-234-0918
Hardee Boys Trucking,6846 Persimmon Rd,Aynor,SC,29511,843-365-2323
Woods Mobile Home Transport,254 Sunny Drive,Gaston,SC,29053,803-796-0442
A T Stewart Transport,1207 Shadowood Dr,Spartanburg,SC,29301,864-787-1651
Lumbee Trucking Co,350 Old Fish Camp Rd,Spartanburg,SC,29385,864-574-7800
Greg Nix Trucking,523 Baker Street,Blackville,SC,29817,803-300-0435
Big Bear Transport,408 Wood Field Drive,Piedmont,SC,29673,864-295-9844
The Point,128 Alston Rd,Beaufort,SC,29902,843-522-3576
Little Trucking,111 Fowler Street,Fountain Inn,SC,29644,803-622-1193
J & J Trucking,5576 White Plain Church Rd,Pageland,SC,29728,843-337-5919
A T S Trucking,2062 Sunshine Rd,Lancaster,SC,29720,803-285-2948
Abney's Trucking,2404 Denny Hwy,Saluda,SC,29138,864-445-9892
Circle Transportation,7153 Lone Oak Rd,Spartanburg,SC,29303,864-503-0877
Brewer's 4x4,208 Vega St,Inman,SC,29349,864-641-4517
Bb Zak's Trucking,P O Box 5282,Anderson,SC,29623,864-964-6960
Williams Trucking,162 Stormy Ln,Walterboro,SC,29488,843-538-4309
Branko Transport Co,2805 Anderson Road,Greenville,SC,29611,864-430-3443
Russell's Hauling & Construction,104 Myers St,Fort Mill,SC,29715,803-242-9735
"Bazil Transport, Inc.",3389 High Hill Dr ,Little River,SC,29566,843-458-0862
Front Line Automotive,9239 Us Highway 321 South,Blythewood,SC,29016,803-714-0545
E T T,6549 Enterprise Rd,Myrtle Beach,SC,29588,843-241-2619
Dk Trucking,136 Bridge Road,Cottageville,SC,29435,843-835-8003
Dixie Trucking,306 Silver Bluff Road,Aiken,SC,29803,803-642-9242
Miles Trucking,1758 Auburn Drive,Sumter,SC,29154,803-897-2296
Robinson And Son Trucking,262 Lakeshore Dr,Aiken,SC,29801,803-649-5477
Mizell's Trucking & Equipment,181 Clark Lane,Dorchester,SC,29437,843-462-2361
Lampley's Transport,Route 1 Box 224 A,Ruby,SC,29741,843-634-6118
D & L Trucking,1180 Chastain Rd,Liberty,SC,29657,864-843-3754
Mejesstin Hauling Co,16 N Greenwood Ave,Ware Shoals,SC,29692,864-456-7498
Csra Auto Electric,1219 Augusta Rd,Warrenville,SC,29851,803-232-0102
Darby & Son Trucking,527 Columbus Road,Georgetown,SC,29440,843-546-1077
Burton's Trucking Company,414 Audey Drive,Beech Island,SC,29842,803-827-9393
J & J Graham & Sons Trucking,76 Corner Avenue,Salters,SC,29590,843-387-6111
Carolina Construction And Services,4600 Lamar Hwy,Timmonsville,SC,29161,803-269-3510
Amen Trucking,Rt# 1 Box 222 A,Pageland,SC,29728,843-672-2781
Williams Trucking Co,470 Phillips St,Lake City,SC,29560,843-374-9767
R & L Trucking,461 Dupre Road,Mcclellanville,SC,29458,843-887-3528
Stroman Trucking,832 Brodie Rd,Leesville,SC,29070,803-532-7800
Bradley Transport,246 Bradley-myers Lane,Ulmer,SC,29849,803-584-4824
Curtis Transport,230 Cherry Drive,Cheraw,SC,29520,843-537-0322
Dc Express,38 North Crossing Court,Columbia,SC,29229,803-865-0928
Harold C Riggs Trucking,900 Calks Ferry Road,Lexington,SC,29072,803-359-3595
Quillen Trucking,426 N Firetower Rd,Florence,SC,29506,843-662-5611
Dustins Trucking,56 Walling Rd,Islandton,SC,29929,843-866-7833
H & M Trucking,12 Railroad Street,Ruby,SC,29741,843-634-5585
J R Sharpe Hauling,2350 Black Creek Road,Walterboro,SC,29488,N/A
Kirby's Automotive,122 Outreach Church Lane,Cheraw,SC,29520,843-537-6367
Kelleys Trucking,399 Galloway Store Rd,Hartsville,SC,29550,843-383-6191
J & P Transportation,14311 Hwy 20,Belton,SC,29627,864-338-7055
E & P Transport,2685 Industrial Ave,North Charleston,SC,29405,843-554-0187
Ac Crane Service,1072 Ot Wallace Blvd,Monks Corner,SC,29461,843-200-2762
Cab Trucking,480 Salem Road,Bennettsville,SC,29512,843-544-7622
Herbert Hiers Jr Trucking,621 Bee Drive,Walterboro,SC,29488,843-893-2297
"Mere Trucking, Inc.",502 Fire Hill Road,Watterboro,SC,29488,N/A
Otis Lockhart Trucking,45 Tiny Grove Ln,Pageland,SC,29728,843-672-5694
Johnson's Trucking,2719 Little Bethel Road,Green Sea,SC,29545,843-756-0305
Prayer Feather Transport,841 Clay Bottom Rd,Swansea,SC,29160,803-568-3695
Jb Trucking,P O Box 422 Pratt St,Holly Hill,SC,29059,803-496-0327
B & E Trucking & Livestock,2272 Senic View Road,Hickory Grove,SC,29717,704-546-7011
Leviner Transport,533 Clark St,Cheraw,SC,29520,843-537-3778
Allison's Produce,1019 Cherokee Ave,Gaffney,SC,29340,864-488-2178
Lees Trucking,230 Diamond Branch Road,Johnsonville,SC,29555,843-380-1770
T & M Trucking,4 Pryor Rd,Taylors,SC,29687,864-244-3319
La Johnson & Son Express,1137 Colonial Rd,Clover,SC,29710,803-222-6530
Johnson & Johnson Auto Transport,506 Dennis Blvd,Varnville,SC,29944,803-943-5148
Jrj Smith Trucking,Rt 1 Box 95b,Early Branch,SC,29916,843-717-2453
J M H Transport,443 Oakdale Dr,Hartsville,SC,29550,843-383-6921
Myers Trucking,5436 Hwy 174,Adams Run,SC,29426,843-810-1501
James & Gus Trucking,6930 Hwy 29 N,Pelzer,SC,29669,864-947-2595
Foreman Trucking,8065 Atomic Rd,Jackson,SC,29831,803-471-3312
B & G Transportation,3828 Highway 321,West Columbia,SC,29172,803-739-4687
Lesesne Trucking,205 Dyson St,Manning,SC,29102,803-435-4690
Tomsic Trucking,26 Parris Rd,Cowpens,SC,29330,864-463-1122
A & M Trucking Company LLC,203 Cantrell Drive,Chesnee,SC,29323,864-461-1946
Sarah's Son Trucking,114 Palmetto St,Sumter,SC,29150,803-773-4162
Kmag,811 Plantation Point Drive,North Augusta,SC,29860,803-613-1694
Wig Trucking,103 Luray Dr,Greenville,SC,29617,864-525-7177
J & S Trucking Co,68 Line St,Charleston,SC,29403,843-577-5111
Robert's Trucking,216 Stone Drive,Aiken,SC,29801,N/A
Russell Trucking Co,502 South Garden St,Winnsboro,SC,29180,803-712-9385
Apartment Movers Etc,447 N Hanover St,Charleston,SC,29403,843-718-0146
J O T Logistics,3125 Russell Road,Blackstock,SC,29014,803-581-8677
Mike Kirbys Auto Sales,203 Kelly Rd,Union,SC,29379,864-427-7005
Collins Construction & Transport,2207 E Cherokee St,Blacksburg,SC,29702,864-505-6211
Cave Transportation Services,820 Marble Lane,Barnwell,SC,29812,803-259-7917
Lm Transportation LLC,5 Swan Court,Columbia,SC,29203,803-786-0330
Nesbitt's Trucking,Route 2 Box 241 Goodwin Road,Smoaks,SC,29481,843-562-8552
Red's Kbc Trucking,130 Eubanks Farm Road,Inman,SC,29349,864-472-2722
On The Move Trucking Company,2448 Gallowaytown Rd,Hartsville,SC,29550,843-857-0398
R G & J Hauling,270 May River Road,Bluffton,SC,29910,843-757-5733
Ronnie's Moving Service,123 Marlboro Drive,Greenville,SC,29605,864-277-6311
Timber Line Trucking,4655 Sc Hwy 34,Pomaria,SC,29126,803-276-2514
Douglas Backhoe & Dozer Service,1399 Hwy 52 North,Cheraw,SC,29520,843-537-0801
Mtn Transport,932 Mineral Springs Rd,Darlington,SC,29540,843-395-5960
Hollywood Transport & Equipment,5074 Bock Rd,Hollywood,SC,29449,843-437-0818
Curtis Auto Transport,247 Pearsontown Rd,Moore,SC,29369,864-576-8811
Freedom Heavy Haulers,5404 Bens Court,Conway,SC,29527,843-397-5925
Buck Kinsey Trucking,72 Tika Street,Walterboro,SC,29488,843-893-4142
Segura Trucking,2397 Jones Swamp Rd,Walterboro,SC,29488,843-538-5809
Murray Trucking,1932 Kingstree Hwy,Manning,SC,29102,803-473-7197
Harvest Time Transportation,709 Riverland Drive,Charleston,SC,29412,843-406-1800
Chris Carter Trucking,324 Dicks Hill Lane,Walterboro,SC,29488,843-538-7255
Pronto Delivery Company,2283 Cabe Rd,Clover,SC,29710,704-361-1807
O'neal's Trucking,700 Wheatfield Dr,Darlington,SC,29540,843-393-9808
Hullo Trucking,216 N Lemacks Street,Walterboro,SC,29488,843-542-2662
Cade Trucking,1686 Batchelor Street,West Columbia,SC,29169,803-796-9304
Wm Trucking Co,3397 Olanta Hwy,Olanta,SC,29114,843-260-4227
Running For You,106 Vine Hill Rd,Greenville,SC,29607,864-567-0031
L&b Trucking,112 Quincey Lane,Darlington,SC,29540,718-399-2909
"Ross And Sons Trucking, Inc.",902 Chalk Bed Road,Graniteville,SC,29829,803-442-9593
Chavis Transport,113 Lou Rose Lane,Moncks Corner,SC,29461,405-283-0698
Outlaw Trucking,128 Pine Bay Drive,St Stephen,SC,29479,843-567-4243
R C Medlock Trucking,620 Mount Zion Road,Spartanburg,SC,29303,864-444-8256
Get-er-done,185 Parkwood Dr,Spartanburg,SC,29301,864-316-9802
Thompson Trucking,3563 Mallett Road,Manning,SC,29102,803-473-7704
A-and-s Logistic Trucking,908 Rhett Court,Florence,SC,29505,N/A
E P A Transportation,135 Ryan Dr,Goose Creek,SC,29445,843-979-8230
Gti,2468 Melville Road,Charleston,SC,29406,843-928-4141
Nita's Mobile Home Transport,131 Peckleton Rd,Orangebury,SC,29115,803-531-5798
Rds Express,204 Greeneedle Road,Columbia,SC,29229,803-479-7964
Wes Stewart Trucking,230 Cobb Rd,Pelzer,SC,29669,864-423-8668
Kinlaw Trucking,89 Macedonia Road,Hardeeville,SC,29927,843-784-6332
Leon D Phillips,456 Longpoint Rd,Mt Pleasant,SC,29465,800-673-6389
Dtc,1213 Old Church Road,Cordesville,SC,29434,843-336-4123
Jaja Trucking,336 Chocolate City Road,Estill,SC,29918,803-625-9548
T & G Trucking,1467 James Martin,Manning,SC,29102,803-473-0134
T J Transport,P O Box 11,Olar,SC,29843,803-793-7789
Harpers Auto Service,6206 Savannah Hwy,Ravenel,SC,29470,843-869-4301
Abs Trucking Division,#7 Sunbelt Business Park,Greer,SC,29650,864-449-0682
Blessing Delivery Service,514 Thompson Ave,West Columbia,SC,29169,803-794-4051
Wilson Trucking Co,452 Graham Road,Lake City,SC,29560,843-394-2652
J & S Trucking Company,110 Tinsley Lane,Eutawville,SC,29048,803-492-4983
Southern Auto Transport,2308 Goldbug Ave,Sullivans Island,SC,29482,843-883-3114
Mighty Mouse Trucking,407 Windy River Rd,Boling Springs,SC,29316,864-494-3692
J & J Trucking,1648 North Douglas St,Florence,SC,29506,843-669-2509
Southern Express,9700 Dorchester Rd,Summerville,SC,29485,843-229-3900
Red Trucking,586 Georgemill Rd,Society Hill,SC,29593,843-378-3326
Fennick Trucking,126 North Highway 52,Moncks Corner,SC,29461,843-761-6041
Abp Auto Transport,854 Old Sheldon Church Rd,Yemassee,SC,29945,843-476-6941
T & T Trucking,1472 Lockwood Circle,Alcolu,SC,29001,803-505-6134
Sims Trucking,7706 Raccoon Road,Manning,SC,29102,803-410-2021
James W Brown Trucking,6930 Hwy 29 North,Mauldin,SC,29669,864-275-4255
Jenkins Rodriguez,1344 Clover Hill Rd,Green Pond,SC,29446,843-844-2472
B L Chambers & Sons,196 Black Creek Church Road,Pageland,SC,29727,843-658-7411
Vogel Equipment LLC,5139 Shirley Road,Ft Lawn,SC,29714,803-320-4049
Southern Transport,1512 Congaree Rd,Hopkins,SC,29061,803-776-6192
Webster Transportation,253 Sherrard Road,Iva,SC,29655,864-296-9650
Nac Transport,163 John D Livingston Dr,Neeses,SC,29107,803-247-4237
Taylor & Son Trucking,623 Mt Pleasant Rd,Monetta,SC,29105,803-685-5390
Thomas Trucking Co,2815 Liberty Drive,Florence,SC,29501,843-413-0496
Ps Easler Transport,333 Rc Thompson Rd,Chesnee,SC,29323,864-590-1526
Southern Transport,193 Wren Wray Rd,Blacksburg,SC,29702,864-839-9740
Davis Trucking,262 Smoak Rd,Dorchester,SC,29437,843-563-9550
Gunn's Trucking,565 Purity Road,Chester,SC,29706,803-374-0134
Ronald L Martin Trucking,1113 Woodstone Court,Latta,SC,29565,843-752-7160
J & J Trucking Co,5052 Old Two Notch Rd,Leesville,SC,29070,803-604-9815
Davis Trucking Co,407 Parnell St,West Columbia,SC,29169,803-446-7961
Shippers Support Group,781 Eason Rd,Mt Croghan,SC,29727,704-219-7850
J & W Trucking,319 Lavadale Rd,Eutawville,SC,29048,803-492-7203
"Patel Trucking, Inc.",3070 South Main Street,Allendale,SC,29810,803-584-3200
Big Jo Trucking,140 Lupine Cir,Norway,SC,29113,803-263-5247
Coopers Trucking,2017 Bishop Drive,Sumter,SC,29153,301-204-1688
W S Brown Trucking,3478 Highway 301 North,Manning,SC,29102,803-473-7400
P T M Trucking,4427 Blossom St,Columbia,SC,29205,803-466-1577
Frank's Transport Service,110 Mistywood Dr,Elloree,SC,29047,N/A
J & J Trucking,537 Mcgraw Road,Cowpens,SC,29330,864-461-8328
Fast Trac Trucking,7092 C Howard St,Spartanburg,SC,29303,864-542-0544
Res Allen Trucking,110 Setter Ln,Summerville,SC,29485,843-871-7463
Woods Transport,254 Sonny Drive,Gaston,SC,29053,803-796-0442
C-g Trucking Co,1725 Hwy 25n,Travelers Rest,SC,29690,864-834-1244
Andrews Transport,220 Lindsey Ridge Rd,Lyman,SC,29365,864-801-9119
Triple D Trans,5218 Bible Church Rd,Boiling Springs,SC,29316,864-814-1968
R & A Trucking,890 Patch Drive,Spartanburg,SC,29302,864-266-6470
Rocky Potts & Sons Trucking,107 Ramelias Drive,Summerville,SC,29483,843-875-0249
Freeman Trucking,1116 Jeter St,Edgefield,SC,29824,803-637-6787
Neeley Transport,109 Robinhood Rd,Elgin,SC,29045,803-419-2670
Construction,1483 Mathis Rd,Rock Hill,SC,29732,803-366-8012
Thomas Trucking,1858 Lucknow Road,Bishopville,SC,29010,803-432-9668
L & D Trucking,820c Hart Street,Heath Springs,SC,29058,803-273-3366
Gaither Trucking,121 Greene St,Winnsboro,SC,29180,803-622-0213
Turner Transportation,200 Parliament Dr,Columbia,SC,29223,803-712-0137
Face Trucking,206 Daniel Drive,Anderson,SC,29626,864-225-0289
R Transport,309 Louise Ct,Lexington,SC,29073,803-804-3033
Truman Express,800 S Main St C-3 ,Greer,SC,29650,864-968-2617
Roadmaster Trucking,34 Riding Ridge Court,Ridgeway,SC,29130,803-337-8809
"Skinner's Farm & Trucking, Inc.",6270 Highway 357,Campobello,SC,29322,864-472-5292
Eudy Motor Carriers,1674 Caille Court,Fort Mill,SC,29708,N/A
Adams Trucking,953 Phillips Road,Walterboro,SC,29488,843-538-4903
Palmetto State Lenders Service Co,3318a Earle E Morris Jr Hwy,Piedmont,SC,29673,864-295-9800
Shuler Trucking,104 Delaware Drive,Orangeburg,SC,29115,803-534-7971
Jim's Camper Trailer Relocation Services,157 Thornbird Road,Cowpens,SC,29330,864-488-3990
Antiques Express LLC,137 A President St,Charleston,SC,29403,843-853-3104
Mackie Hauling,229 Edgewood Drive,North Augusta,SC,29841,803-279-0943
Kds Trucking,405 Meadowbury Drive,Columbia,SC,29203,803-754-1932
Triple T Services,3648 Ole Alston Ave,Conway,SC,29526,843-397-7198
"O'callaghan Cable Services, Inc.",1015 Riddle Mill Rd,Clover,SC,29710,803-831-0745
L & L Trucking,1112 Burns Bridge Rd,Anderson,SC,29625,864-287-4622
Lmc Trucking,1094 Barnhill Ln,Alcolu,SC,29001,803-473-5285
Keller Trucking,305 Mustang Drive,Spartanburg,SC,29307,864-579-2666
Rivers Express,4085 Berrys Mill Road,Greer,SC,29651,864-895-2291
Mick Dotson Trucking,151 Vonda Drive,Lexington,SC,29073,803-603-0518
Brown's Trucking,107 Forest Drive,Bennettsville,SC,29512,843-479-0475
C & N Jones Motor Carrier,812 Patriot Pkwy,Rock Hill,SC,29730,803-980-5976
Timmons Trucking,2228 Jeffords Road,Pamplico,SC,29583,843-493-1946
Wayne's Transport,108a Vermont Road,West Columbia,SC,29170,803-606-2315
Enlow Trucking,21 Ropehorse Rd,Johnston,SC,29832,803-275-1659
Dawe House Transportation,112 Cely Road,Easley,SC,29642,864-295-8638
Marty Dorn Trucking,626 Mt Olive Road,Saluda,SC,29138,864-227-3866
Snowman Express,146 Rustic Lane,Ruffin,SC,29475,843-562-2961
It's Trucking,104 Sophia Lane,Hemingway,SC,29554,843-558-3526
K & L Transport,1613 Willis Drive,Hartsville,SC,29550,843-383-6328
Ivanhoe Logistics,83 Remount Lane,Walterboro,SC,29488,843-538-7323
Haulin' Mule Transport,131 Mellard Drive,Goose Creek,SC,29445,843-797-3468
Foster Trucking,568 Asbury Rd,Pacolet,SC,29372,864-902-9573
All White Glove Services,1612 Plantation Dr,Hardeeville,SC,29927,843-379-2204
Taylor Trucking,81 Park Avenue,Estill,SC,29918,803-625-4475
H & K Auto Transport,1204 Country Lane,Hartsville,SC,29550,843-332-4784
Cc & D Trucking,4 Duffie Court,Columbia,SC,29229,803-699-7136
Second Look Trucking,107-b King Street,Summerville,SC,29483,843-926-2469
J & E Trucking,377 Farr Rd,Cope,SC,29038,803-539-0903
Salkehatchie River Transport,6960 Farrells Rd,Branchville,SC,29432,803-245-7758
B & G Transport Co,39 Brasington Street,Cheraw,SC,29520,843-537-7679
Kape Intermodal Logistics,4639 Rivers Avenue,North Charleston,SC,29405,843-747-5273
T Howell Transportation,1104 Devenger Road,Greer,SC,29650,864-627-5040
Trucker's Xpress,Route 2 Box 527,Ridgeland,SC,29936,843-726-3793
J D & K Trucking,10 Hudson Drive,Spartanburg,SC,29303,864-583-7850
Don Phillip Transportation,1133 Lloyd White Rd,Clover,SC,29710,803-222-2792
"R & V Hauling, Inc.",52 Ginger Lane,Kingstree,SC,29556,843-382-3826
Sanders Trucking,9057 Old Orangeburg Rd,Estill,SC,29918,803-625-0625
B & P Trucking,861 Peach Festival Rd,Gilbert,SC,29054,803-892-4023
R & M Express,2876 Barnfield Dr,Conway,SC,29526,843-347-1409
Jw Martin Trucking,700 Martin Dr,Anderson,SC,29624,864-296-5281
Faith Trucking,508 East Mcgregor Street,Pageland,SC,29728,843-672-9689
Boatwright Trucking Co,1320 High Hill Road,Darlington,SC,29532,843-395-6877
Macshade Tree Transplanting,370 Loblolly Street,Walterboro,SC,29488,843-549-6000
K & B Transport,3876 Champion Road,Rock Hill,SC,29730,803-817-3964
Service Transport,5441 Summerton Hwy,Manning,SC,29102,803-478-3414
R & E Express,336 Red Fox Lane,Chesnee,SC,29323,864-814-2866
Blue Moon Express Specialized,10 Lee Street,Lyman,SC,29365,510-932-7990
Holsenback Trucking,431 Hamelin Rd,Aiken,SC,29805,803-648-2794
Brewington Carriers,92 Aorport Drive,Hemingway,SC,29554,843-558-7427
Pool Surfaces,3550 Highway 51,Fort Mill,SC,29715,704-373-2529
Pinckney Trucking,11820 Augusta Highway,Walterboro,SC,29488,843-538-7817
S And N Trucking,1411 Hwy 243,Townville,SC,29689,864-287-1244
Gary R Haynes Trucking,315 Vinewood,Piedmont,SC,29673,864-845-4525
H P Freight,400 St Mark Rd,Taylors,SC,29687,864-268-2552
Nalley & Sons Trucking,693 Richie Rd,Fountain Inn,SC,29644,N/A
Cfc Transport,930 Shipmaster Ave,Myrtle Beach,SC,29579,843-236-0621
Terry G Johnson Farm & Trucking,1385 Prison Camp Rd,Campobello,SC,29322,803-472-8811
Jam Transportation,848 Brunson Springs Road,Galivants Ferry,SC,29544,609-728-2588
K & W Trucking,1013 S Main St,Darlington,SC,29532,803-665-7260
Ace Express,200 Woodruff Road,Greenville,SC,29606,803-676-0555
R E Bell Trucking,Po Box 385,Norway,SC,29113,803-263-4102
Choice Trucking Co,404 Parnell St,West Columbia,SC,29169,803-796-6996
Terry Mann Trucking,32 Terrain Drive,Greenville,SC,29605,803-277-2925
Hi-tech Trucking Co,246 Piney Trail Rd,Liberty,SC,29657,N/A
D&c Truck & Trailer Service,674 Old Canaan Rd,Spartanburg,SC,29306,803-573-7254
Shaw Trucking,1511 Why 38 South,Bennettsville,SC,29512,803-479-3160
K & C Transport,Shrine Club Rd,Newberry,SC,29108,803-276-6219
W & S Transportation,116 B Oak Crest Drive,North Charleston,SC,29461,N/A
Carquest Distribution Centers,9031-a Farrow Road,Columbia,SC,29203,803-419-6882
Miller Trucking,Rte #4 Box 389,Saluda,SC,29138,803-445-8279
Elrod's Trucking,304 Silver Court,Piedmont,SC,29673,864-269-6518
Hot Shot Courier Service,6046 Swinging Tree Lane,York,SC,29745,803-366-9271
Phillips Trucking,Rt 2 Box 257,Lake City,SC,29560,803-389-7670
Tiger Express,508 Scuffletown Rd,Simpsonville,SC,29681,803-297-5872
Porter's,3950 Myrtle Beach Highway,Sumter,SC,29153,803-495-3500
F & F Transportation Co,4450 Parris Bridge Road,Spartanburg,SC,29303,N/A
P T Trucking,900 Rector Road,Belton,SC,29627,803-269-8938
J & W Trucking,Rr 1 Box 532-c,Waterloo,SC,29384,N/A
Zanders Trucking Company,1624 Double Branch Road,West Columbia,SC,29171,N/A
J K & K Trucking Co,1595 Teal Marsh Rd,Charleston,SC,29412,803-762-4878
Chad Rodgers Trucking,Rt 2 Box 185-d,Batesburg,SC,29006,803-532-2423
Austin Trucking,169 Broad Acres Rd,Bishopville,SC,29010,803-484-6694
J R Williams Enterprises,4055 North Rd,Orangeburg,SC,29115,803-531-3031
R & J Trucking,108 Hunter Rd,Simpsonville,SC,29681,803-963-7822
Freightworks,969 St James Ave,Summerville,SC,29483,803-873-9928
Corley Trucking,Route 3 Box 93,Batesburg,SC,29006,803-532-3021
Hardie Mobile Home Movers,1457 South Live Oak Dr,Moncks Corner,SC,29461,803-761-3758
Allen Trucking,P O Box 38,Sycamore,SC,29846,803-632-3086
Samuel Trucking,Rt 1 Box 147,Brunson,SC,29911,N/A
Herring & Sons Transportation,2109 Gallowaytown Rd,Hartsville,SC,29550,803-332-9168
A & M Trucking,Rt 1 Box 1084,Saint Matthews,SC,29135,803-655-5267
Buck Transport,625 Mc Donald Circle,Cheraw,SC,29520,843-537-3026
T J Express,261 Phillips Farm Rd,Gaffney,SC,29341,803-489-6785
Delta Coastal Trucking Company,505 Broad Street,Sumter,SC,29150,800-267-6067
Genes Trucking,403 Live Oak Street,Conway,SC,29527,843-248-5963
Walter M Lyons Trucking,Rt 1 Box 381,Ruffin,SC,29475,803-562-8631
Todd's Trucking,573 W White Oak Dr,Johnsonville,SC,29555,803-386-2120
Gallaher Trucking,221 Triple J Lane,Bennettsville,SC,29512,803-479-8434
Boland Express,Rt 1 Box 41c,Ware Shoals,SC,29692,N/A
Carolina Bus Co,119 Tyler Lane,Wando,SC,29492,803-744-1639
Gerald's Automotive,216 Edwards St,Latta,SC,29565,843-752-7728
Chris Williams Trucking,300 Grove St,Walterboro,SC,29488,803-538-3389
Amp Trucking,121 Kinsey St,Walterboro,SC,29488,803-893-3287
Billy Young Trucking,2516 Minus Lane,Effingham,SC,29541,843-665-8801
Vickers Wrecker Service,2135 Columbia Rd Hwy 321,Blackstock,SC,29014,803-385-5747
Barndo Trucking,140 Liberty Hall Rd,Goose Creek,SC,29445,843-532-8800
Auto Effey,520 Broad River Drive,Beaufort,SC,29902,803-525-1425
Lcr Trucking,Rt 1 Box 74b,Yemassee,SC,29945,803-726-4306
Haynes Trucking,418 Stone Road,Williamston,SC,29697,803-947-9247
Same-day Transport Company,297 Delee Cir,Dorchester,SC,29437,803-563-2166
A & S Trucking,Rt 2 Box 114 F,Walterboro,SC,29488,803-538-4316
M & M Trucking,Rt 1 Box 153 M,Allendale,SC,29810,803-584-7198
Landrum Trucking,232 Bondale Dr,Spartanburg,SC,29303,803-578-3588
M & C Trucking,Rt 1 Box 376,Marion,SC,29571,803-759-2682
Howard Mccray,Rt 1 Box 72b-1,Mt Croghan,SC,29727,843-672-2151
Dtc,Rt 3 Box 1212d,Saint Matthews,SC,29135,803-823-2140
Alton Pelt Auto Sales,215 Lake Grove Dr,Darlington,SC,29532,803-395-2267
George R Davis Trucking,Rt 1 Box 1084,Saint Matthews,SC,29135,803-655-5267
Inmco Trucking,2584 Center Rd,Timmonsville,SC,29161,843-346-3292
Archie's Auto Sales,3035 Mt Gallant Rd,Rock Hill,SC,29732,803-366-5046
G W Bowie Trucking,203 Old Augusta Road,Greenville,SC,29605,N/A
Bookert Bros Trucking Co,1915 Henderson Street,Columbia,SC,29201,N/A
G T Robinson Truck,137 Rhonda Road,Orangeburg,SC,29115,803-535-3902
William M Towne Trucking,170 Duncan Lane,Barnwell,SC,29812,803-259-5702
Coleman's Trucking,8 Amgi Dr,Woodruff,SC,29388,803-476-2454
Truck 4 U,1027 Lindler Drive,West Columbia,SC,29170,803-356-1618
J P Trucking,1304 Salem Rd,Scranton,SC,29591,803-389-6394
John W Zeigler Trucking,106 Hampton St,Blackville,SC,29817,803-284-3628
B & N Distributors,4167b Mica Drive,Little River,SC,29566,803-249-4569
S & W Trucking,Rt 1 Box 36,Yemassee,SC,29945,803-521-9220
J A Express,707 South Firetower Rd,Florence,SC,29506,803-662-0065
Hot Shot Delivery,P O Box 813,Mauldin,SC,29662,N/A
G & W Trucking,Rt 5 Box 634,Ridgeland,SC,29936,803-726-3589
H T G Trucking,717 Gum St,Allendale,SC,29810,803-584-4713
Alton Pelt Auto Sales,Rt 1 Box 1034,Mcbee,SC,29101,843-335-5722
"Woodchip Transportation, Inc.",393 Handsmill Hwy,Rockhill,SC,29732,803-366-3381
Mcgraws Trucking,Rt 1 Box 6 - B,Estill,SC,29918,803-625-3196
Hamilton Trucking,6427 Edmund Highway,Lexington,SC,29073,803-755-2035
K-lynn Trucking,1788 West Sellers Road,Sellers,SC,29592,843-752-4685
Distribution Services,404 N Main St,Fountain Inn,SC,29644,803-862-6691
Jks Transport,2233 Hillside St,Orangeburg,SC,29118,803-534-4205
Derrick Smith Trucking,310 Watson St,Marion,SC,29571,803-423-5688
Easter Bartlette Mobile Home Movers,1130 Craig Rd,Sumter,SC,29153,N/A
Hawkinberry Auto Sales,2905 Cherokee Ave,Gaffney,SC,29340,803-488-9103
Quik Draw Express,111 Fletcher St,Greenville,SC,29611,803-232-5580
Prospector Transportation,5000 Northmill Ct,Lake Wylie,SC,29710,803-831-7852
D & J Trucking,276 Watersprings Rd,Orangeburg,SC,29118,803-531-4268
R & J Hauling,2294 Carver School Road,Cope,SC,29038,803-534-8263
Mcknight Trucking,Rt 1 Box 218,Nesmith,SC,29580,803-382-9126
Gilco Carrier Co,Rte 3 Box 739,Ridgville,SC,29472,803-835-8256
Acme Auto - Wrecker Service,Hwy 17 North,Hardeeville,SC,29927,803-784-3279
Gadsden Trucking Company,732 Kent St,Mt Pleasant,SC,29464,N/A
Winchester Express Services,3910 Loyd Reid Rd,Lancaster,SC,29720,803-286-8440
Taylor Trucking,137 Broad Mouth Ch Rd,Homea Path,SC,29654,864-369-6921
Dameron Trucking,309 Sharon Lane,Easley,SC,29640,803-855-6007
Gunnells Transport,Hwy 301,Ulmer,SC,29849,803-584-1741
Ron Worley & Sons Trucking,1555 Baracada Rd,Walterboro,SC,29488,803-538-8933
W Taylor Trucking Company,323 John Taylor Lane,Walterboro,SC,29488,803-538-2522
Flash Expedite Service LLC,68 Roseborough Rd,Lugoff,SC,29078,803-438-2740
Happy Hollow Transportation,P O Box 411,Due West,SC,29639,N/A
Cook's Transportation Services,257 Woodland Ave,Inman,SC,29349,864-472-9325
K B Trucking,P O Box 400,Clover,SC,29710,N/A
B & L Transport,1015 Woodbine Dr,Orangeburg,SC,29115,803-539-9291
Corbin Trucking Service,319 Rice Mill Drive,Myrtle Beach,SC,29588,843-293-9275
Jimmy Folk Trucking,22537 Heritage Hwy,Blackville,SC,29817,803-383-2166
Anaconda Farms,2 Regis Court,Charleston,SC,29407,843-571-6825
R & R Transport,1120 Blakehy Court,West Columbia,SC,29170,803-791-7892
Total Automotive Car Sales,1622 Georgia Ave,North Augusta,SC,29841,803-279-2000
D & A Trucking,1206 Hubert Baxley Road,Mullins,SC,29574,843-423-7231
"Vail Companies, Inc.",403 Bentley Court,Columbia,SC,29210,617-734-3368
D & S Trucking,Rt 3 Box 135b,Dillon,SC,29536,N/A
J & J Trucking,453 Beacon St,Spartanburg,SC,29306,803-542-1155
G&g Trucking,Rt 3 Box 90,Chesterfield,SC,29709,N/A
Fast Cat Express,1107 Cormac Court,Florence,SC,29505,843-665-0239
Owens Trucking,369 Timberlake One Circle,Seneca,SC,29678,803-972-3785
A & B Trucking,3308 South Main,Anderson,SC,29624,N/A
Mickens Trucking,113 Genell Road,Knightsville,SC,29484,843-873-4070
S & S Trucking,1431 Roddy Rd,Campobello,SC,29322,803-472-5997
M T Trucking,243 Jets Landing Rd,Abbeville,SC,29620,864-446-7646
Emerson Freight Systems,781 Eason Road,Mt Croghan,SC,29727,N/A
Boling Mobile Home Transporters,404 Creekside Drive,Inman,SC,29349,803-578-7155
Wright & Sons Transport,606 Fourwind Road,Holly Hill,SC,29059,803-496-3019
Pilot Freight Services,555 Brookshire Rd,Greer,SC,29651,864-801-0332
W A Trucking,Rt 2 Box 186-xa,Fairfax,SC,29827,803-584-1076
T & R Trucking,316 Longwood Drive,Lexington,SC,29073,N/A
Jr And D Trucking,Rt 1 Box 557,Round O,SC,29474,803-835-8809
Smith Trucking,1638 Hunters Chapel Rd,Bamberg,SC,29003,803-245-6171
W L Bess Jr Trucking,Route 4 Box 407a,Pageland,SC,29728,803-672-6309
Jrj Smith Trucking,Hwy 278 Grays,Early Branch,SC,29916,803-726-4101
M&h Trucking,Rte 1 Box 96 C,Martin,SC,29836,803-584-0524
Big Tyme Trucking,9484 Charleston Hwy,St George,SC,29477,843-563-5090
Quality Used Homes & Transporting,2578 Hwy 378,Conway,SC,29567,803-397-3971
Pna Express,308 Frontage Rd,Piedmont,SC,29673,803-845-6079
Bradleys Mobile Home Service,475 Lower Lee Sch Rd,Mayesville,SC,29104,803-428-6762
John F Brant Trucking,306 Shady Grove Road,Ulmer,SC,29849,803-584-2294
White Transport,255 Victor Hill Road,Greer,SC,29673,864-230-7951
Herman Brown Trucking,206 South Hood Street,Olanta,SC,29114,843-373-0104
Barton Bait Distributors,726 Good Springs Rd,Aiken,SC,29801,803-648-1653
Rickie A Benton Trucking,Route 3 Box 177 Hwy 15 N,Walterboro,SC,29488,803-538-8183
Miller Trucking,3187 Hwy 151,Pageland,SC,29728,843-672-2167
Mcgill Trucking Co,4075 Washington Road,Mullins,SC,29574,843-275-7889
Big Daddy & Sons Trucking,Po Box 21,Ehrhardt,SC,29081,803-267-2191
Roger Dye Trucking,2928 Shadeland Circle,Florence,SC,29501,803-629-8525
Tommy Sinclair Trucking,West Pine Vill Dr Lot 10,Myrtle Beach,SC,29578,803-236-2308
Carter Trucking,1003 Green Sea Rd S,Loris,SC,29569,803-756-7865
M & M Transportation,1182 Edgefield Road,North Augusta,SC,29841,803-278-3338
Mixon Brothers Trucking,Us 17 Hwy,Jacksonboro,SC,29452,803-484-4156
C & K Transport Services-logistics,405 Mc Neary St,Prosperity,SC,29127,803-364-1747
Still Automotive Company,1363 Atomic Road,North Augusta,SC,29841,803-279-7472
Williams Trucking,501 Dixon St,Marion,SC,29571,843-423-4245
Little Bit's Trucking,582 Mt Pleasant Rd,Monetta,SC,29105,803-685-7882
Florence Mobile Home Movers,2717 Arthur Road,Florence,SC,29505,803-665-7774
C & H Trucking,Highway 601 North,Hampton,SC,29924,803-943-4479
Brothers In Law Hauling,750 Windsor Rd,Windsor,SC,29856,803-266-5171
Toby's Toeing Service,Hwy 21 Bypass & National Road,Orangeburg,SC,29115,803-533-4359
Jacobs Trucking,110 Blue Bird Loop,Conway,SC,29526,803-365-3213
Fore Trucking,Route 2 Box 212k,Latta,SC,29565,803-423-0112
Doris S Haynes Carriers,418 Livingston Rd,Pomaria,SC,29126,803-276-4347
Jdc Trucking,4270 Ernest Scott Rd,Kershaw,SC,29067,803-475-2014
S & M Sales,539 Dalton Rd,Marietta,SC,29661,864-230-0313
Small Engine Sales & Service,213 Salley's Lane,Blythewood,SC,29016,803-691-1655
Williams Transportation,609 Rooster Ridge Road,Estill,SC,29918,803-625-4297
John D Richey Trucking,500 Martin Dr,Anderson,SC,29624,803-296-3211
Belue Trucking,725 Landrum Mill Rd,Landrum,SC,29356,803-457-7198
Mobley Trucking,121 Sax Way,St Stephen,SC,29479,843-567-3467
Dennis White Trucking,1072 Bayview St,Holly Hill,SC,29059,803-496-9170
I C U Services,107 Mccall Lane,Easley,SC,29640,864-855-9529
C & C Mobile Home Movers,2764 Hugo Rd,Conway,SC,29527,803-397-0103
U Save Movers And Usm Brokerage,1444 Pocahontas Drive,Mt Pleasant,SC,29464,803-884-7208
Jett Trucking Co,Rt 1 Box 168,Hamer,SC,29547,803-841-2501
United Food Service,4280 N Blockstock Rd,Spartanburg,SC,29301,864-587-1402
D P Maintenance Service,133 Triple D Drive,Pickens,SC,29671,864-878-2183
Bo-ro Express,426 Irvin Jumper Road,Gaston,SC,29053,803-939-9209
D & R Trucking,143 Cobblestone Rd,Ridge Spring,SC,29129,803-685-6138
H & X Trucking Co,Route 1 Box 510,Saint Matthews,SC,29135,803-874-4709
Young's Trucking,121 Pickrum St,Allendale,SC,29810,803-625-4037
Randall P Austin Transport,120 Holland Dr,Belton,SC,29627,864-345-1311
Clardy Trucking Co,4664 Clardy Lane,Myrtle Beach,SC,29577,803-236-7456
Gene C Trucking,Cedar Grove,Chester,SC,29706,803-385-3090
P S C Grading & Backhoe Service,254 Milkyway,Greer,SC,29651,864-801-0170
Riley's Mobile Transport,2705 Ezell Ct,Sumter,SC,29150,803-481-7169
Simmons Trucking,664 Spanish Wells Road,Hilton Head,SC,29925,843-681-9595
Ronson Transportation Company,412 N Main St,Bamberg,SC,29003,803-245-0926
Jerrod Trucking Service,90 Forrest Drive,Jackson,SC,29831,803-827-1557
Harper Trucking,313 West Deef Road,Timmonsville,SC,29161,803-678-9214
John Breland Trucking,1529 Low Country Hwy,Ruffin,SC,29475,843-566-2176
"Mat, Inc.",108 Calhoun Dr,Cheraw,SC,29520,843-537-2157
Randys Trucking,Prince William Road,Hampton,SC,29924,803-943-3502
Smalls Trucking,4423 Maybank Hwy,Wadmalaw Island,SC,29487,803-559-2365
Kelly's Trucking,113 Wisewood Circle,Greenwood,SC,29646,N/A
Dixie Mobile Home Movers,8 Curtis Rd,Greenville,SC,29611,864-295-2050
Hard To Handle Trucking Company,1520 Rockway Drive,Florence,SC,29501,803-669-3927
Spiveys Wrecker Service,7860 C Dorchester Rd,North Charleston,SC,29418,843-760-1996
Gnb Carriers,402 18 1/2 St,Sullivans Island,SC,29482,843-883-1000
J E Platt Trucking,Rt 3 Box 135,Mullins,SC,29574,803-464-0812
L T Motor Carriers,Rt 3 Box 1036,Summerton,SC,29148,803-478-2755
Brodus Ii Transportation,Route 1 Box 65-c,Martin,SC,29836,803-259-2371
P & B Trucking,1000 Windsor Shore Apt 240,Columbia,SC,29223,803-736-1647
Cheyenne Trucking,3346 Kershaw Hwy,Westville,SC,29175,803-475-7284
Adams Moving,845 Pine Creek Drive,Greenville,SC,29605,803-233-0744
B C Trucking,1508 E Effingham Hwy,Effingham,SC,29541,803-629-8645
Poole's Backhoe Service,122 Etta Drive,Pickens,SC,29671,864-859-8652
"Risher Mining And Trucking, Inc.",146 Browntown Road,Harleyville,SC,29448,843-462-7717
Mjr Trucking,Rt 1 Box 487,Lake City,SC,29560,803-389-7095
Day Trucking,Route 1 Box 1147x,Cross Hill,SC,29332,864-998-4194
R & R Transportation,217 Murphy Road,Belton,SC,29627,864-338-0968
Lyles Trucking,1951 Bunkerhill Road,Elgin,SC,29045,803-834-5003
Dewayne Kirkland Trucking,Rt 2 Box 57-r,Bamberg,SC,29003,803-267-2241
Reggie Alexander Transport,6 Zenobia Ln,Yemassee,SC,29945,803-812-1869
Walnut Farm Transportation,1412 H Brittany Dr,Florence,SC,29501,803-629-8578
Pearce's Trucking,209 Dogwood Avenue,Bennettsville,SC,29512,843-479-9722
Johnny's Trucking,Rt 1 Box 152 D,Maysville,SC,29104,803-453-5403
"R & L Trucking, Inc.",174 Grasshill Road,Estill,SC,29918,803-943-6008
Windbrook Van Lines,750 Executive Center Drive,Greenville,SC,29615,864-213-4444
Stanley Motors Auto Transport,104 Savannah Rnd,Summerville,SC,29485,843-871-6274
Twh Trucking,124 Deerwood Drive,Hartsville,SC,29550,843-332-7736
Ashley Motor Freight,431old Trolley Road,Summersville,SC,29485,803-857-7555
Poppas Pride Trucking,432 Wilderness Trail,Liberty,SC,29657,864-855-8023
M K Bridge Trucking,5280 Pierce Rd,Ridgeville,SC,29472,843-835-2697
K & J Transport,2926 Boyd Rd,Manning,SC,29102,803-473-9353
John Livingston Trucking,32 Sunshine Point,Prosperity,SC,29127,803-364-2071
K-t Trucking,Rt 1 Box 192-x,Barnwell,SC,29812,803-793-3942
Southwest Sales,1333 Oakcrest,Columbia,SC,29223,N/A
Robinson Express,Hwy 521 - Rt 3 Box 154,Andrews,SC,29510,803-354-9268
E N B Trucking,219 Queen Ann Lane,Liberty,SC,29657,864-855-9015
B & W Trucking,Highway 601,Estill,SC,29918,803-625-2180
E Grant Trucking,Rt 2 Box 147-2,Johnston,SC,29832,803-275-2870
Merritt's Trucking,4368 Greensea Rd,Aynor,SC,29511,803-365-9907
Sellers Trucking,106-b Center St,Cheraw,SC,29520,803-921-0664
Winn's Auto Sales,1608 E River St,Anderson,SC,29624,864-224-0992
Harbor & Lake Boat Transport,205 St James Ave #114,Goose Creek,SC,29445,843-572-4571
Adlt Trucking,Hwy 63,Islandton,SC,29929,803-866-2995
J L Dyson Transport,12 York St,Florence,SC,29506,N/A
Ml & L Trucking,1118 Cannon Bridge Rd,Cordova,SC,29039,718-469-9358
Mobile Home Movers,734 Windsor Rd,Windsor,SC,29856,803-266-4969
G Metz Express Co,Po Box 614 Kenley Rd,Irmo,SC,29063,803-407-2987
Blackwell Transport,4787 Indian Branch Rd,Lamar,SC,29069,803-332-6882
Summit Home Health Care,299 East Grrenville Street,Anderson,SC,29621,864-224-2224
Coles Trucking,1693 Jones Rd,Kershaw,SC,29067,803-475-2288
B W Smith Jr Trucking,6975 Geranium Rd,Conway,SC,29527,843-397-6909
Ole Faithful And Hope Transporters,3035 A Kelsey Creek Rd,Spartanburg,SC,29302,864-582-6433
Wilkes Trucking Co,1070 Hwy 385,Bennettsville,SC,29512,803-479-2934
"Mbw Trucking, Inc.",4639 E National Cementary Rd,Florence,SC,29506,803-665-7401
Terry's Auto Sales,908 Southfield St,Inman,SC,29349,864-472-4275
Michael Smith & Son Trucking,Rt 2 Box 18 R,Bamberg,SC,29003,803-245-3739
Jmb Transportation,2237 Lide Springs Rd,Darlington,SC,29540,803-393-0017
Farley Automotive Transport,242 Franklin St,Spartanburg,SC,29303,864-630-6039
Boot Hill Trucking,Hwy 25 Bus & 252,Ware Shoals,SC,29692,864-905-4894
Mashburn Trucking,9071 North Tigerville Road,Travelers Rest,SC,29690,864-895-7914
Broughton Trucking,204 Mike St,Walterboro,SC,29488,803-538-8583
Import Auto Parts,1617 4th Ave,Conway,SC,29526,803-248-4885
David Mcleod Trucking,240 Quail Run Rd,Loris,SC,29569,803-756-5199
E & S Trucking,201 Horseshoe Dr,Goose Creek,SC,29445,803-797-1897
Robert's Mobile Home Service,2264 Baybreeze Drive,Hamer,SC,29547,803-774-4144
Clm Trucking,30 Delaware Rd,Goose Creek,SC,29445,843-574-1791
"Dunn & Sons Auto Sales And Repair, Inc.",5921 Edmund Hwy,Lexington,SC,29073,803-955-0803
Hagy Trucking Company,160 Clifford Road,Inman,SC,29349,864-578-8613
R G Transport,318 Park St,Bisphopville,SC,29010,803-484-6356
Eddie Gardner Trucking,1611 Wire Road,Aiken,SC,29801,803-648-6602
Southern Mobile Home Movers,Po Box 41 Sardinia Crossroads,Gable,SC,29051,803-473-3640
Champion Transportation,1080 Bexley Street,North Charleston,SC,29405,843-745-0803
M P S Trucking,Hwy 39 Main St,Monetta,SC,29105,803-685-7750
Sherman Trucking Company,8019 Ole Bellamy Dr,Conway,SC,29527,843-397-2606
M B K Transportation,308 Cooper Rd,Piedmont,SC,29673,864-220-0740
South Atlantic Transportation Co,667 Whiteville Road,Moncks Corner,SC,29461,843-761-9618
Edward Risher Trucking,1152 Risher Mountain Road,Walterboro,SC,29488,843-539-1069
R C H Trucking Services,207 B West Main St,Taylors,SC,29687,864-268-9567
Stanton Levermore Trucking,1751 Norwood Lane,Florence,SC,29506,843-260-6918
Wilson Grading & Hauling,2024 Holbrook Road,Fort Mill,SC,29715,803-547-5603
Liberty Motor Trucking,4801 White Horse Rd,Greenville,SC,29611,864-220-9600
Whitehead,255 Farmington Rd,Summerville,SC,29483,843-851-4300
Randy Turner Auto Sales,130 N Moore St,Duncan,SC,29334,864-949-8888
Maloney Trucking Co,Rte 2 Box 837,Ruffin,SC,29475,803-866-7500
H & H Transport,Rt 2 Box 696,Cheraw,SC,29520,803-537-1906
Eastern Equine Express,3508 Cherrywood Rd,Florence,SC,29501,843-679-5502
Eva Trucking,2301 Anderson Farm Road,Florence,SC,29501,803-393-6597
"G & B Singleton Trucking Company, Inc.",12 Gumtree Lane,Lobeco,SC,29931,803-846-8170
Hanna Transport,2591 Vox Highway,Johnsonville,SC,29555,803-386-2576
Bryant Trucking,1438 Methodist Ch Rd,Marion,SC,29571,843-423-6072
Delivery Plus,24 Brentwood Drive,Greenville,SC,29609,864-271-0098
Aultman Transport,Neely Feery Rd,Hickory Tavern,SC,29645,864-575-2322
"Baby Boy Trucking Co, Inc.",129 Viola Lane,Cross,SC,29436,803-753-2502
Able Services,57 Legacy Lane,Fountain Inn,SC,29644,864-325-1554
Key Transport,3346 Dublin Rd,North Charleston,SC,29420,800-899-4870
Leshan Auto Sales,72028 Bypass S,Anderson,SC,29624,864-261-8060
Barnes Refrigerated Transportation,P O Box 87,Marietta,SC,29661,864-836-3230
Dixie Too Auto Parts,7915 Valley Falls Rd,Spartanburg,SC,29303,864-503-3888
Tanda Trucking,105 Rail Road Ave,Yemassee,SC,29945,843-589-8709
All Together Express,235 Hollydale Dr,Seneca,SC,29678,864-888-8699
Blake's Truck Co,617 York Street,Camden,SC,29020,803-432-8822
C A T Trucking,35 Hunt St,Yemassee,SC,29945,803-589-8178
Keith's Trucking,403 Camel Rd,Iva,SC,29655,864-348-7413
Ferguson Trucking,1219 Orange Branch Rd #104,Charleston,SC,29407,803-556-0624
J L Pride Trucking Co,116 Stillfield Dr,Moncks Corner,SC,29461,803-899-2646
Br Hauling,123 Hillsdale Street,Gaffney,SC,29340,864-489-4320
Bennett Trucking & Transfer,4495 Peach Orchard Rd,Rembert,SC,29128,803-499-9121
Cody Express,150 Hope's Trail,Gaffney,SC,29341,864-488-2105
Maywood Trucking,542 Aultman St,Orangeburg,SC,29115,803-531-5257
Moore's Trucking,Route 1 Box P164-b,Mayesville,SC,29104,803-453-5340
Carl Mascia Trucking,109 Traders Station Road,Summerville,SC,29483,803-871-6599
B & D Trucking,174 Wedgewood Dr,Blacksburg,SC,29702,864-839-2124
Sunshine Trucking,109 Tap Harley Rd,Swansea,SC,29160,803-568-2013
Ladson & Sons Trucking,138 Bernice Road,Eutawville,SC,29048,803-492-9994
Carsense Transportation,34 Ramapo Ct,Simpsonville,SC,29681,864-297-9985
J A C Express,3421 Bentwood Lane,York,SC,29745,803-831-8887
Gainey Trucking,116 Stanley Cr,Darlington,SC,29540,803-395-9862
Mf Drake Transport LLC,1535 Westferry Xing,Myrtle Beach,SC,29575,843-650-6287
Kenneth & Sons Trucking,1205 Sally St,Hampton,SC,29924,803-943-5087
Mills Mobile Home Service,102 Young Rd,Starr,SC,29684,864-296-0632
Roam Transport,509 West Centenial Street,Clinton,SC,29325,864-833-4554
Gaymon Trucking,1630 Guignard Parkway,Sumter,SC,29150,803-775-4701
T R Wilson Trucking,Rt 1 Box P146,Mayesville,SC,29104,803-453-5687
Mb Express,2811 Cains Mill Road,Sumter,SC,29154,803-495-3666
Gibson Trucking,2320 Arlen Road,Manning,SC,29102,803-406-5053
Dependable Auto Transport,504 Antioch Place,Columbia,SC,29209,803-776-9999
"J & K Trucking Of Sc, Inc.",1624 1/2 Central Road,Lake City,SC,29560,803-659-8502
Pb Trucking,610 Singleton Rd,Anderson,SC,29625,864-333-5018
D & V Trucking,3769 Horse Pen Bay Rd,Aynor,SC,29511,803-358-1046
New Life Truck Service,206 Old Orchard Road,Greer,SC,29650,864-505-4110
Blue Goose Trucking,5774 Taxahaw Rd,Lancaster,SC,29720,803-285-3973
Manley Trucking,514 Roe Rd,Greenville,SC,29611,864-220-5274
T & T Hauling,124 Freida Rd,Lexington,SC,29073,803-359-5808
Moody Trucking,Rt 1 Box 140,Mullins,SC,29574,803-464-7033
Sanders Trucking,Hwy #69,Barnwell,SC,29812,803-259-0641
Williams Trucking,332 Wildol St,Holly Hill,SC,29059,803-496-7126
Fincher Trucking,3175 Clinzo Feemster Road,Hickory Grove,SC,29717,803-925-6801
Jw Campbell Trucking,50 Corona Court,Sumter,SC,29153,803-983-0488
Gardens Corner Wrecker Service,6 Charleston Hwy,Gardens Corner,SC,29945,843-846-3347
A & T Lawn & Shrubb Service,2572 New Cut Church Rd,Lancaster,SC,29720,803-283-1059
Holloman Transport,3015 Cato Road,Florence,SC,29505,843-662-6905
Anthony Jackson Trucking,3524 W John Paul Jones Rd,Timmonsville,SC,29161,803-346-9705
Pro Distributing,3011 W Montague Ave,Charleston,SC,29414,843-729-8379
T-bo Trucking,1115 East Campground Rd,Quinby,SC,29506,803-665-4965
Kinnard Trucking,1386 Broken Circle,Chester,SC,29706,803-385-2971
J & G Trucking,1341 Paradise Drive,Sellers,SC,29592,843-752-6400
Key Trucking,230 Rock Hill Road,Saluda,SC,29138,N/A
Cainhoy Trucking,1184 Hyway 33,Wando,SC,29492,803-991-1375
J O Lowder,7871 Kingstree Hwy,Manning,SC,29102,803-473-2673
Keller Trucking Co,1115 Babydoll Ln,Bonneau,SC,29431,843-257-4096
Suger Bear Hauling,403 White Oak Way,Marietta,SC,29661,864-836-8724
B & R Trucking,1654 Whitehall Road,Yemassee,SC,29945,843-844-7245
Cod Transport,5754 Chaplins Landing Road,Hollywood,SC,29449,843-714-1169
Hammertime Hauling,1240 Parris Road,Rock Hill,SC,29732,803-324-4974
K & K Trucking,313 N Maple St,Summerville,SC,29483,803-871-7019
E M T Transport,317 Morris Rd,Aiken,SC,29801,803-642-5293
Robinson Transportation,165 Latham Lane,Easley,SC,29640,864-859-5577
Myatt Trucking,2225 B Taylor St,North Charleston,SC,29406,803-747-6789
D & S Perry Transport,8 Woodward St,Woodruff,SC,29388,864-476-8711
Clover Mobile Home Service,4166 Broad St Ext,Sumter,SC,29150,805-435-8768
T & M Transport Co,1711 Penderboro Road,Marion,SC,29571,843-423-2333
M & M Freight Service,116 Able Street,Greer,SC,29651,864-968-0234
Randy S Trucking,308 Gandy Drive,Hartsville,SC,29550,803-383-4392
Padgett Trucking,31 Tennessee Walker Lane,Trenton,SC,29847,803-663-1039
K & K Trucking,7765 Legare Road,Edisto Island,SC,29438,803-851-3153
International Movers,7259 Cross Park Dr,North Charleston,SC,29418,843-760-2501
"Pine Log Trucking, Inc.",742 Pine Log Rd,North Augusta,SC,29841,803-593-8005
J F Lucas Trucking,108-a Lyall St,Bennettsville,SC,29512,803-479-0314
Harris Trucking,9160 Monticello Road,Columbia,SC,29203,803-786-0050
Harris & Co Trucking,3000 Prost Rd,York,SC,29745,803-628-0326
Rad Express,2305 G Highway 378,Conway,SC,29527,803-249-2092
J & P Carriers,3986 Hwy 11,Travelers Rest,SC,29690,864-836-8737
Wesley Fletcher's Road Service,Box 634,Taylors,SC,29687,864-268-4049
D & B Trucking,398 Davidson Rd,Clover,SC,29710,803-222-4718
Durant Trucking,1572 Lockwood Cir,Alcolu,SC,29001,803-473-5759
Badger Trucking,Route 1 Box 51,Martin,SC,29836,803-584-5179
Billy Nelson Trucking,Route 6 Box 1635,Manning,SC,29102,803-473-4435
Ron's Wrecker Service,540 Brown Kennedy Rd,Woodruff,SC,29388,864-969-3778
Larry's Transport,219 Floyd Circle,Easley,SC,29640,864-269-0070
Poor Boy's Wrecker Service,1456 Mt Vernon Rd,Fort Lawn,SC,29714,803-789-3805
T P's Trucking,Rt 4 Box 137,Kingstree,SC,29556,803-382-8181
L & J Transport,211 Lodge Pole Rd,Ladson,SC,29456,803-553-6476
Wayne Jones Trucking,333 Mullinax Circle,Blacksburg,SC,29702,864-839-1435
Investment Delivery Service,1031 Wisteria Dr,West Columbia,SC,29169,803-926-0500
Kc Express,27 Mill Street,Pelzer,SC,29669,864-947-6852
Huckabee Auto Sales,533 Cheraw St,Bennettsville,SC,29512,803-479-8464
L & L Trucking,5618 Flat Rock Road,Iva,SC,29655,864-348-7311
Abe's Way Trans,231 Mallard Dr,Summerville,SC,29483,843-851-3270
Hudson Transport,Rt 1 Box 595 B,Mullins,SC,29574,803-464-4824
B-b Transport,14 Woodside Ave,Greenville,SC,29611,864-235-4354
Raysor Trucking,1333 Oak Grove Road,Bamberg,SC,29003,803-245-5805
Halls Transport,3309 Woodburn Dr,Florence,SC,29506,843-669-9089
Danny Bazzle Trucking,884 Peurifoy Rd,Walterboro,SC,29488,843-549-6630
Cooks Trucking Co,223 West Dogwood Drive,Mullins,SC,29574,803-392-1129
Holman's Trucking,220 Wren Drive,Bamberg,SC,29003,803-245-1744
L & S Services,137 Summerhill Drive,Columbia,SC,29203,803-691-5931
Pearson Trucking Company,1205 Quail St,Bennettsville,SC,29512,843-479-7459
Bennefield Auto Group,5328 A Wade Hampton Blvd,Taylors,SC,29687,864-470-5338
American Dream Trucking Co,426 Hasband Lane,Cross,SC,29436,803-492-3665
Cam & Jam Trucking,125 Brookstone Rd,Santee,SC,29142,803-854-5123
Lil' Joe's Transport,1320 South Main Street,Anderson,SC,29624,864-224-7711
A & J Trucking,Rte 7 Box 14 Hha,Manning,SC,29102,803-435-8530
Ricky L Cromer Trucking,513 Gilbertson Drive,Spartanburg,SC,29303,864-591-1451
Branch Trucking,1037 Lincoln Park Dr,Eastover,SC,29044,803-353-3187
Triple S S S Trucking Co,546 Lloyd Rd,Johns Island,SC,29455,803-559-3321
Deliverance Trucking,10419 Old Highway Six,Vance,SC,29163,803-492-3241
Tucker Trucking,Rte 1 Box 38,Ridgeville,SC,29472,803-873-3880
D M Trucking,2740 Jamestown Rd,Camden,SC,29020,803-428-5092
Boones Transport,Rt 1 Box 291-b,Mullins,SC,29574,803-464-4078
Evans Trucking,Rt 2 Box 182-b,Kingstree,SC,29556,843-382-8125
Richard O Stinson Trucking LLC,1653 Stinson Rd,Lancaster,SC,29720,803-287-4183
Brewer Trucking,113 Shefford Ct,Greer,SC,29650,864-244-2081
Cannon Trucking,4014 Woodlawn Dr,Loris,SC,29569,843-756-3155
Dant'e Express Company,8 Old Bath Lake Road,Burnett Town,SC,29816,803-594-9730
Bobby Kerr Trucking,Rt #1 Box 164-a,Ware Shoals,SC,29692,864-861-3713
Means Transportation Service,660 Clearwater Rd,Landrum,SC,29356,864-457-3387
Durant Trucking,1448 Wallace Road,Pinewood,SC,29125,803-452-5388
B & D Trucking,1116 Cannon Bridge Rd,Cordova,SC,29039,718-693-1971
Clifton Trucking,1133 Slyvia Hicklin Dr,Chester,SC,29706,803-377-3424
Cm&s Carriers,2685 Industrial Ave,North Charleston,SC,29405,843-745-0107
Houston Crowder's Wrecker Service,3747 Rivers Avenue,Charleston,SC,29405,843-747-4744
Tom Larry's Trucking,P O Box 145 Off Anderson Road,Ridge Spring,SC,29129,803-685-6111
Padgett Specialty Trucking,3543 Hunter Oak Lane,Johns Island,SC,29455,843-559-2267
Heyward Coleman Trucking,329 Bouknight Ferry Rd,Saluda,SC,29138,864-445-8845
Priester Trucking,71 Haymakers Lane,Walterboro,SC,29488,843-538-7426
Hyman Logistics,2814 Francis Marion Road,Florence,SC,29506,843-629-0540
Liberty Moving & Storage,1200 Inman Rd,Wellford,SC,29385,864-439-6683
Jones Brothers Trucking,13607 Low Country Hwy,Ruffin,SC,29475,843-866-7585
Youngblood Express,789 N Confederate Avenue,Rock Hill,SC,29730,803-327-9907
"Wee Hauler's, Inc.",9227 Wilson Blvd,Columbia,SC,29203,803-754-4279
K & A Truck Leasing,148 Roark Rd,Blacksburg,SC,29702,804-936-9182
Dts Express,41 Princeton Road,Goose Creek,SC,29445,843-735-4049
B & B Transport,540 Foremost Dr,Lexington,SC,29073,803-955-9022
Hugheys Mobile Home Movers,409 8th Street,Gaffney,SC,29340,864-487-7009
M & L Trucking,2084 Wildcat Creek Rd,Rock Hill,SC,29730,803-309-3654
S & S Courier Service,127 Spring Rd,Lexington,SC,29073,803-791-4618
Hunter Transport,1820 Society Hill Rd,Darlington,SC,29532,843-393-9867
Capricone Aquarius Express,1320 Hampton Dr,Summerville,SC,29483,843-875-5632
City To City Trucking Co,810 Meeting Street,Charleston,SC,29403,843-722-3551
Bright Trucking,18 Jacob Mckie Rd,Trenton,SC,29847,803-663-0337
K & A Transport,3603 Pinewood Dr,Loris,SC,29569,843-756-7689
Mclawhorn Trucking,1805 Central Ave,Summerville,SC,29483,843-873-8217
S & H Transport,6205 Lyons Lane,Longs,SC,29568,843-399-7720
Rothenburg Trucking,137 Mr Cash Dr,Cowpens,SC,29330,864-463-2737
Busy Bee Trucking Co,117 Pinewood St,Ladson,SC,29456,843-821-8460
Sonic Newsome Of Florence,2199 David Mcleod,Florence,SC,29501,843-662-8711
Garrett Transport,390 Forest Rd,Enoree,SC,29335,864-969-2904
Wmb Trucking,Rt 1 Box 170,Allendale,SC,29810,803-584-1326
A & J Branham Trucking,1040a Sessions Rd,Elgin,SC,29045,803-438-3081
Dorough Trucking,1890 Glens Bay Rd,Murrells Inlet,SC,29575,843-650-7121
Bratsos Trucking,855 Croft Jones Rd,Chesterfield,SC,29709,843-623-5619
A K Trucking,3237 Agean Lane,York,SC,29745,803-831-5918
Miller Trucking,202 Fairmont Drive,Greenville,SC,29605,864-277-6066
Gibson Trucking Co,7125 Highway 97,Smyrna,SC,29743,803-789-3938
D & A Trucking,445 Coley Todd Rd,Little Mountain,SC,29075,803-345-9809
Red Sky Trucking,1522 Perrin Dr,N Myrtle Beach,SC,29582,843-361-5586
Transglobal Trucking,320 Winningham Road,Saint George,SC,29477,843-563-8916
Mcmillan Trucking,792 Jennings St Ext,Allendale,SC,29810,803-584-4813
Ron's Transport Service,142 Horseshoe Road,Fountain Inn,SC,29644,864-862-5075
Midland Mobile Home Transport,320 Lee Drive,Summerton,SC,29148,803-478-8750
Three D Trucking,664 Katie Bridge Drive,Walterboro,SC,29488,843-844-8303
E & R Trucking,1043 Highway 905,Conway,SC,29526,843-369-1955
S & S Trucking,1751 Stinson Road,Lancaster,SC,29720,803-285-3455
T & D Express,2829 Hart Rd,Clover,SC,29710,803-684-7664
Fab Freight,2107 River Rd,Piedmont,SC,29673,956-381-9923
C & S Trucking,23 Sky Lane Road,Ridgeway,SC,29130,803-337-2449
D A R T Distributors,2312 Old Altman Road,Conway,SC,29526,843-347-2354
Jamie A Johnson Trucking,680 Mt Beulah Road,Windsor,SC,29856,803-645-4737
Can-do Trucking & Carting,629 Wren Road,Lexington,SC,29073,803-794-5586
Cheatham Trucking,203 Courtney Road,Trenton,SC,29847,803-275-3501
Howard Arnette Trucking,1624 Old Hamer Road,Hamer,SC,29547,843-841-9400
Keith Anderson Hauling,199 Ward Rd,Lugoff,SC,29078,803-438-1905
J & M Mobile Home Service,250 Baynes Creek Road,Gray Court,SC,29645,864-575-2877
Tlc Trucking,875 Hadwin Circle,Brunson,SC,29911,803-625-5770
"A P B, Inc. - Waste Hauling Division",4503 Poinsett St,North Myrtle Beach,SC,29597,843-272-7187
Willie's Wrecker & Mobile Home Service,571 New Bridge Road,Mccoll,SC,29570,843-523-5256
Loving's Transport,2097 Swift Creek Rd,Hartsville,SC,29550,843-857-9175
God S Property Trucking,3113 Palmetto Place,Fort Mill,SC,29716,704-609-3784
Larrelyn & William Shipping Services,125 George Wigfall Rd,Cross,SC,29436,843-753-3231
Tee Pee Trucking,Cherry Point Ctr Hwy 110 Ste C,Ridgeland,SC,29925,N/A
R K M Auto Sales,1839 West Cherokee Street,Blacksburg,SC,29702,864-839-2929
Cheyenne,300 Boswell Road,Columbia,SC,29203,888-419-1047
Dry Creek Digging,3844 Hoke Rd,Heath Springs,SC,29058,803-285-7670
Brad Mccormack Transportation Company,341 Rawls Drive,Leesville,SC,29070,803-604-0297
S & A Trucking,Rt 1 Box 109-m5,Ruby,SC,29741,843-634-3878
Williamson Trucking,1613 Sugar Hill Rd,Dillon,SC,29536,843-841-9460
M 3 K Transportation,200 Woodruff Road,Greenville,SC,29607,864-286-3124
Stevens Trucking,1742 Hwy 9 East,Longs,SC,29568,843-399-8319
Mcclennon Trucking,1206 Seaboard Road,St Stephen,SC,29479,843-825-6279
Strouds Auto Transport LLC,1530 Whippoorwill Rd,Hartsville,SC,29550,843-383-8983
Hustle Up Transport,61 Champagne Ave,Andrew,SC,29510,843-221-7446
F T Transportation,331 Tucapau Rd,Duncan,SC,29334,864-486-8455
Reeves Trucking Company,801 Cromwell Lane,Walterboro,SC,29488,843-538-6638
Capers Trucking,Route 2 Box 177,Greeleyville,SC,29056,843-426-2577
Long Haul Trucking,28 Purina Drive,Hemingway,SC,29554,843-558-2857
Briggman Trucking,1236 St Matthews Road,Swansea,SC,29160,803-568-4340
Daystar & Company Trucking,201 Perry Hill Rd,Easley,SC,29640,864-859-2234
Phillips Auto Sales And Service,24810 Low Country Hwy,Ruffin,SC,29475,843-562-2190
Msc Trucking,197 Berea Ln,Bethera,SC,29430,843-336-4275
S & J Trucking,14 Pine Creek Court,Greenville,SC,29605,864-295-6407
Don Corley Ft Transportation,331 Tucapau Road,Duncan,SC,29334,864-486-8455
Ew Express Services,156 Thrugood Dr,Greenville,SC,29607,864-286-0664
Byrd Transport,172 B Rt 1,Ehrhardt,SC,29081,803-267-4308
Davis Trucking,790 Toatley Road,Winnsboro,SC,29180,803-712-6937
C&a Trucking,2616-a Two Notch Road,Lexington,SC,29072,803-808-2208
Pro Auto Motors Trucking,3704 1/2 River Drive,Columbia,SC,29201,803-779-1189
Sweetwater Trucking,1182 Edgefield Road,North Augusta,SC,29841,803-278-2810
Jay's Charter Service,112 Morgan Street,Rowesville,SC,29133,803-534-9541
Republic Waste Services Of Hh,109 Josephine Drive,Burton,SC,29903,843-524-1485
F & R Transportation Services,1324 Country Square Drive,Columbia,SC,29212,803-397-5734
Swittenburg Trucking,669 Quaker Road,Newberry,SC,29108,803-276-3693
Williamson Trucking,2643 Penderboro Road,Marion,SC,29571,843-423-4488
Champion Movers,175 Hepp Lane,Rock Hill,SC,29730,803-325-1994
Around The Town Movers,2865 Fellowship Road,Williston,SC,29853,803-266-2153
Intracoastal Transport & Intracoastal Electric,250 Cain Wilson Road,Conway,SC,29526,843-365-6786
N & G Trans,Highway 292,Inman,SC,29349,864-472-5965
B C Trucking,316 Tall Pine Dr,Fountain Inn,SC,29644,864-862-0708
Rj's Trucking,4193 South O Katie Hwy,Hardeeville,SC,29927,843-784-5963
Best Auto Sales,4427 Savannah Highway,North,SC,29112,803-247-2378
George White Trucking,8 Crystal Street,Seabrook,SC,29940,843-846-8180
Acme Trucking,Hwy 17 N,Hardeeville,SC,29927,843-784-3279
D & L Trucking,Rt 2 Box 130c,Bamberg,SC,29003,803-245-4984
W L Brodus Transport,1099 Washington,Aiken,SC,29805,803-652-3787
T & E Trucking,1009 Eutaw Rd,Eutawville,SC,29048,803-492-3299
L & M Mobile Home Movers,1313 Deerwood Ct,Rock Hill,SC,29730,803-327-9345
Ole' Moe's L'il Truck,610 Holly Grove Rd,Blacksburg,SC,29702,864-839-9888
Robinson Trucking,1055 Easley Highway,Pelzer,SC,29669,864-844-1617
Triple 777 Transportation,Po Box 342,Summerville,SC,29484,843-871-9048
Circle 'h' Trucking,1307 E Calhoun Rd,Belton,SC,29627,864-338-4556
Ricky Sheppard Trucking,41 Turkey Trot Road,Williamson,SC,29697,864-847-7823
Coyote Transport,118 Maple St,Bath,SC,29816,N/A
E F Thompson,313 Lake Becky Rd,Mountain Rest,SC,29664,864-638-8622
Gene Parker & Son Trucking LLC,610 Old Pireway Rd,Conway,SC,29528,843-365-5790
Marcon Transportation,200 Bentree Lane #b5,Florence,SC,29501,843-317-9251
Tyndall Trucking,2135 Oakland Road,Hamer,SC,29547,843-774-5975
Ats,Po Box 86,Bennettsville,SC,29512,843-479-0781
Big Mac's Auto Carrier,Rt 1 Box 225,Mcbee,SC,29101,N/A
Carter Trucking,8285 Jeffries Hwy,Walterboro,SC,29488,843-538-7432
Pds Parts Delivery Systems,2800 Two Notch Rd,Columbia,SC,29204,803-254-4000
Dickerson Transport,Route 3 Box 296,Summerton,SC,29148,803-478-5358
Advanced Mobile Home Service & Transport,2415 Satelite Circle,Conway,SC,29526,843-369-2100
Trevier Transportation Systems,806 Bindon Lane,Simpsonville,SC,29680,864-275-8536
Small's Mobile Home Movers,2284 Hwy #1 N,Cassatt,SC,29032,803-713-3489
R & M Transport,108 Stallings Road,Greenville,SC,29611,864-269-6157
Chambers Trucking,2907 Plainview Road,Anderson,SC,29626,864-226-6308
Elite Auto Transport,313 E Market St,Timmonsville,SC,29161,843-346-0279
Andrew J Smith Trucking,406 Royal Palm Blvd Apt 104,Charleston,SC,29407,843-766-5259
R & M Trucking,1384 Cooks Landing Rd,Hardeeville,SC,29927,407-925-2505
"Elite Trucking & Hauling, Inc.",311 Lake Ave,North Augusta,SC,29841,803-202-1165
Performance Transportation,2636 Dawson Dr,Chester,SC,29706,803-581-1175
Seegars Trucking Company,S11 9th Street,Mcbee,SC,29101,843-335-5844
Dale Thigpen Trucking,Route 1 Box 711,Lake City,SC,29560,843-389-3711
Kay Trucking,290 Coates Road,Inman,SC,29349,864-472-8817
East Sumter Transport,414 Boots Branch Rd,Sumter,SC,29150,803-495-8062
Rogers Trucking,211 School Street,Ridgeville,SC,29472,843-875-2258
D T C Transportation Services,135 Interstate Blvd Suite 4,Greenville,SC,29615,864-553-1353
Evans Trucking,Route 3 Box 43 A5,Chesterfield,SC,29709,843-623-7365
Campbell Trucking,33 Wespanee,Charleston,SC,29407,843-766-4153
Still Truckin,545 Still Road,Barnwell,SC,29812,803-259-5699
Harris Transport,8036 Burdell Drive,Columbia,SC,29209,803-783-6675
Mcclarys Trucking,224 Creek Dr,Florence,SC,29506,843-665-6719
J & S Trucking,387 Buckboard Rd,Wagener,SC,29164,803-564-3888
T D S Trucking,1184 Williston Rd,Aiken,SC,29803,803-652-6184
J & M Trucking,3562 Legacy Rd,Lancaster,SC,29720,803-286-8683
Holden Trucking,111 Colonial Drive,Easley,SC,29642,864-850-0285
Cypress Hauling,Rt 5 Box 313,Manning,SC,29102,803-478-7773
Jerry's Trucking,7032 Shady Grove Rd,Conway,SC,29527,843-358-3218
Ownes Service Center,400 West Mann Street,Walhalla,SC,29691,864-638-3892
M & R Gutter Service,1900 Southridge Ln,Fort Mill,SC,29708,803-547-7417
Thomas & Howard Transportation Co,209 Flint Lake Rd,Columbia,SC,29223,803-788-5520
Cox Wood Preserving Co,860 Cannon Bridge Rd,Orangeburg,SC,29116,803-534-7467
"Tri State Auto Crushers, Inc.",513 West N 3rd St,Seneca,SC,29678,864-882-3119
Straus-frank Company Carquest Distribution Center,9031-a Farrow Road,Columbia,SC,29203,803-419-6882
Chavis Moving & Storage Company,265 Bay Pines Road,Beaufort,SC,29906,843-846-2627
Gaffney Trucking,442 Hall Spencer Road,Catawba,SC,29704,803-514-5194
Brewer Trucking Company,Highway 57 South,Dillon,SC,29536,803-774-7136
Stanley Davenport,119 Ronnie Dr,Greenwood,SC,29649,864-229-0920
W&w Trucking,Rt 5 Box 183,Darlington,SC,29532,803-393-9072
Dat Trucking,3937 Highway 321,West Columbia,SC,29172,803-791-9242
Goodwin Transportation,715 Broadway School Rd,Belton,SC,29627,864-225-0750
L H Jackson,1603 Hampton Dr,Beaufort,SC,29906,843-846-6422
Lex Taylor Trucking,1327 Old Richburg Rd,Chester,SC,29706,803-581-5063
R H M Trucking,3007 Hodge Drive,Burton,SC,29902,803-846-9333
"J B Green Trucking, Inc.",399 Fowler Circle,Greenville,SC,29607,864-277-4063
Ernies Wrecker Ser,8 Belvue School Rd,Travelers Rest,SC,29690,864-242-0557
Davis Trucking,208 Ashford St,Chester,SC,29706,803-581-5247
Kirby Trucking,1326 N Matthews Road,Lake City,SC,29560,843-389-7893
Ronald Spivey Trucking,3664 Hughes Gasque Rd,Aynor,SC,29511,843-365-3233
Gantt Trucking,111 Reece Mill Rd Box 494,Pickens,SC,29671,803-878-2929
Quicks Trucking,Hwy 15-401 South Society Hill,Bennettsville,SC,29512,843-439-0601
Grubbs Trucking,Route 2 Box 49,Blackville,SC,29817,803-284-1919
Scruggs Wrecker Service,8 Lake Drive,Greenville,SC,29611,864-269-5335
Dons Truck & Trailer Sales D & R Trucking,5950 Jefferson Davis Hwy,North Augusta,SC,29841,803-279-1340
Fred Barnhill Trucking,2204 Methodist Church Rd,Marion,SC,29571,803-423-1195
Posey Transport,Freemans Bridge Road,Marietta,SC,29661,803-836-6766
Motorsports LLC,Po Box 1366,Greer,SC,29652,864-848-0200
Bearden Trucking Company,1055 Park West Blvd,Greenville,SC,29611,864-295-9880
Bankair Commuter Airlines,2406 Edmund Road,West Columbia,SC,29170,803-822-8832
J W Means Truck Lines,1702 Bluebird Ln,Columbia,SC,29204,803-600-1777
Ray Rodgers Trucking LLC,1800 Willis St,Batesburg,SC,29006,803-532-6085
"Port Royal Oil Co, Inc.",1704 S Ribaut Road,Port Royal,SC,29935,803-525-1102
Knox Trucking,110 June Drive,Lexington,SC,29072,803-356-3422
Michael Anderson Trucking,1550 Woodrow Neal Road,Lancaster,SC,29720,803-313-9736
Sadisco South,2419 West Sumter Street Extension,Florence,SC,29502,843-669-2021
Adams Trucking,164 Dave Adams Rd,Union,SC,29379,864-427-0816
Evans Charter Services,111 Harvard Drive,Greenville,SC,29605,N/A
Olin Mcgarity Trucking,404 Churchwood Drive,Simpsonville,SC,29681,N/A
Hollingsworth Trucking,1603 Hwy 86,Piedmont,SC,29673,803-845-6714
Boyce Trucking Co,Racoon Road 1 Mi East Of 401,Mayesville,SC,29104,803-453-6226
Towne Trucking Co,20 Swift Lane,Barnwell,SC,29812,803-259-5975
Hepburn Trucking,Rt 2 Box 523a,Bennettsville,SC,29512,803-479-2431
Service Farm Supply Center,Rr 2 Box 128,Aynor,SC,29511,803-358-3441
Double G Transportation,4020 Fairview Rd,Leesville,SC,29070,803-657-3387
Careys Auto Transport,1017 Pocket Rd,Darlington,SC,29532,843-393-6148
Tyler Trucking,Rt 1 Box 122,Conway,SC,29526,803-365-2909
She Express,9112 Greenville Hwy,Spartanburg,SC,29301,803-574-6900
Db & J Trucking,Rt 1 Box 525,Varnville,SC,29944,N/A
E L Tisdale & Son Trking,2381 Thurgood Marshall Hwy,Kingstree,SC,29556,843-372-0821
Suggs Transport Co,107 Richard Avenue,Darlington,SC,29532,803-393-8929
Hepburn Trucking Co,188 Miles Lane,Bennetsville,SC,29512,843-454-1864
E Devore Trucking,207 Driftwood Road,Cross Hill,SC,29332,864-992-4409
Youman`s Garage & Wrecker Service,Hwy 17a,Yemassee,SC,29945,803-589-2270
E J Horton Used Cars & Transport,P O Box 206,Mcbee,SC,29101,803-335-8477
Woody's Transfer Co,Carter Street,Timmonsville,SC,29161,803-346-3521
R & G Trucking,Rt 3 Speer Ln,Travelers Rest,SC,29690,864-610-0356
J P Trucking,109 Papoose Court,Pineville,SC,29468,843-567-3642
Continental Auto Sales,106 Allendale Circle,Anderson,SC,29624,803-225-1883
"B R Owens, Inc.",892 Ruby Shoals Rd,Westminster,SC,29693,803-647-6472
Randolph Transport,801 Church St,Laurens,SC,29360,N/A
"Earnhardt Trucking, Inc.",1724 Old Switzer Rd,Moore,SC,29369,803-576-6115
Jacks Bait Distributors,125 Jacks Drive,Pickens,SC,29671,803-868-9364
Energy Systems & Services,108 Shiloh Ln,Greenville,SC,29607,803-963-1283
R C Xpress,140 E Farrell Dr,Woodruff,SC,29388,864-621-7143
Horton's Used Cars,3801 West Old Camden Road,Mcbee,SC,29101,843-383-4622
Bob Oldham Trucking,509 Browning Road,Gaffney,SC,29341,704-435-6834
Herd & Morse Trucking Co,Po Box 354,Ninety Six,SC,29666,N/A
B & B Transportation,27269 Hwy 151,Mcbee,SC,29101,803-335-8850
"Thrift Bros Lumber Co, Inc. And Triple R Co, Inc.",111 Toccoa Hwy,Westminster,SC,29693,864-647-2353
Marshall Transport Co,1101 Albright Rd,Rock Hill,SC,29731,803-327-7144
Mcneal Trucking,4375 Hwy 162,Hollywood,SC,29449,843-324-5572
L J Kelly Trucking,1475 Roddy Road,Campobello,SC,29322,803-472-2722
Watson Trucking,Rt 11 Box 45,Sumter,SC,29150,803-428-3585
Gillispie & Son Trucking,1074 Jones Swamp Road,Walterboro,SC,29488,843-538-8245
Felder Trucking,1043 Lincoln Avenue,North Charleston,SC,29406,803-744-7090
Crawford Truck Lines,Rt 4,Rains,SC,29589,N/A
Varnadore Trucking,128 Betty Blvd,Lexington,SC,29073,N/A
Wink's Auto Engines & Garage,109 W Moore St,Anderson,SC,29624,803-296-1834
On-time Transportation Services,Po Box 8191,Greenwood,SC,29646,N/A
Dream Maker Tours,S C Hwy 56 & I 26,Clinton,SC,29325,864-833-4456
Pete Stevens Mobile Home Movers,1981 West Old Camden Road,Hartsville,SC,29550,843-332-1008
Telligman Cartage Xpress Tcx,843 Waldsmith Drive,Chester,SC,29706,803-385-3809
W A Stewart Trucking,3373 Strait Road,Rock Hill,SC,29730,803-328-2831
Walters Transport,315 Walters Morris Drive,Seneca,SC,29678,864-886-9911
Roberts Trucking,Route #1 Box 15a,Early Branch,SC,29916,803-589-2430
Stuart's Oil Service,161 S Hammett Rd,Greer,SC,29651,864-879-0556
Interstate Trucking,1311 E Washington St,Dillon,SC,29536,N/A
R W Gordon Trucking,902 Bayne Wood Lane,Fort Mill,SC,29715,803-548-1854
Beasley Motor,1541 Mckenzie Rd,Mcbee,SC,29101,843-335-8740
Car Doctor Auto Sales & Service,4371 Wade Hampton Blvd,Taylors,SC,29687,803-244-6468
Heatherly Bros Auto Parts,10418 Augusta Road,Pelzer,SC,29669,803-243-3523
Modern Tire Service,750 Anderson Street,Belton,SC,29627,803-338-7069
Pruitt Auto Sales,207 Wall Rd,Boiling Springs,SC,29316,864-578-3812
Buck's Frame & Alignment & Auto Sales,433 Truex Road,Leesville,SC,29070,803-657-5855
Ed Prince Mobile Home Moving,Route 1 Box 533,Laurens,SC,29360,803-682-9369
Fruit Haulers Express,123 Bridle Lane,Moncks Corner,SC,29461,N/A
B & B Auto Sales,3795 North Hwy 14,Greer,SC,29651,803-895-4702
Walters Transport,8761 Bucknell Dr,Charleston,SC,29406,803-873-7392
Pitts Express,709 St Peters Church Rd,Chapin,SC,29038,803-945-7169
C & J Auto Sales,1305 S Main,Fountain Inn,SC,29644,803-862-6701
Moses Trucking Co,Rr 1 Box 88-c,Kinards,SC,29355,803-833-0610
Jim Mook Trucking,179 George Brown Road,Pelion,SC,29123,803-822-8550
Vrl Trucking,Rr 1,Silverstreet,SC,29145,803-276-4435
Kenny's Trucking,2603 Broad Drive,Florence,SC,29505,803-661-5743
Belanger's Tire Service,Rt 1 Box 87,Vance,SC,29163,803-496-3020
Carlton Trucking,1511 Kimberly Dr,Hartsville,SC,29550,803-332-3145
Mintons Garage & Sales,270 East Main St,Pacolet,SC,29372,803-474-2581
Nelson Trucking Co,3221 Rockhouse Rd,Greenwood,SC,29646,864-746-6056
Bing Transport,254 Liberty Street,Estill,SC,29918,803-625-3227
Paul Hannah Trucking,Main & Bingham Street,Olanta,SC,29114,843-396-4408
"Die Cutting Service Cutting Pads, Inc.",115 Wood St,Rock Hill,SC,29730,803-324-8822
Brown Trucking,104 Westpointe Dr,Greenwood,SC,29646,803-227-9316
Leviner Wrecker Service,78 Powe St,Cheraw,SC,29520,803-537-1449
Ruby Wrecker Service,Route 1 Box 173,Ruby,SC,29741,803-634-6285
Big D Transport,233 Sherwood Drive,Lexington,SC,29073,803-720-4571
West Coast Auto Sales,101 Tabitha Ct,Anderson,SC,29625,803-231-6225
Lewis Trucking,2209 Fairview Rd,Leesville,SC,29070,803-894-5778
R & L Trucking,403 Oak Drive,Belton,SC,29627,803-338-5608
Tuebow Trucking,693 Hughes Rd,Johns Island,SC,29455,N/A
Truck Supply Co,5835 Two Notch Rd,Columbia,SC,29223,803-754-9022
Stewart Trucking,1109 Faraway Dr,Columbia,SC,29223,803-787-3627
Duo-cane Trucking Co,Rr 1 Box 557-c,Varnville,SC,29944,803-943-9315
Collins Sign Co,409 S Washington Ave,Greenville,SC,29611,864-295-3496
Roscoe's Trucking,1608 Morningside Dr,Hartsville,SC,29550,843-383-5000
Mcclain Campbell Trucking,219 Brookshire Rd,Goose Creek,SC,29445,843-270-2385
E & R Trucking,Rt 3 Box 739,Saint Matthews,SC,29135,803-874-3177
Mitchell Steel Service,7758 Bluff Road,Gadsden,SC,29052,803-353-8100
Allan's Wrecker Service,510 Sims Chaple Road,Spartanburg,SC,29306,864-585-6436
Eagle Industrial Company Express,3444c Ruther Ford Road,Taylors,SC,29687,803-292-2312
Phillips Trucking,Route 2 Box 137,Lodge,SC,29082,803-866-2493
"Palmetto Scale, Inc.",1467 Old Dunbar Rd,West Columbia,SC,29172,803-755-6630
Meredith Trucking,1500 Edge Park Rd,Clover,SC,29710,803-222-7287
B & R Trucking Co,12 Wildcat Lane,Burton,SC,29906,803-846-4093
R & D Trucking,Rt 1 Box 163-e,Jefferson,SC,29718,803-658-3934
W A Brown Trucking,100 Highland Forest Drive D-3,Greenwood,SC,29646,864-943-0049
Taylor's B P Service,200 S Harper St,Laurens,SC,29360,000-984-6414
"Craven's Auto & Truck Parts, Inc.",1526 Atomic Rd,North Augusta,SC,29841,803-279-9351
D & B Trucking,1411 Tupelo Ridge Rd,Elgin,SC,29045,803-438-4293
Morris Transportation Services,833 Old Stone Church Rd,Clemson,SC,29631,803-654-4970
Jones Trucking,Rte 1 Box 117a Hwy 321,Norway,SC,29113,803-263-4578
Forest Beach Svc Station,64b New Orleans Rd,Hilton Head Island,SC,29928,803-785-6305
Hardin's Auto Transport,1765 Sumter Hwy,Bishopville,SC,29010,N/A
Mathis Trucking,281 Mathis Rd,Bishopville,SC,29010,803-428-5358
Mcknight Trucking,118 Ponderosa Drive,Union,SC,29379,864-674-6770
Graystone Trucking,151 S Greenwood Ave Ext,Ware Shoals,SC,29692,N/A
Raybird Sign Services,110 Mayo Road,Ridge Spring,SC,29129,803-685-7733
"Piedmont Bandag, Inc.",Rt 1 County Line Rd,Cowpens,SC,29330,803-463-3212
R & R Trucking,1257 Ridgespring Hwy,Ward,SC,29166,864-445-3483
Bentley Transportation,120 Hiott Circle,Walterboro,SC,29488,803-538-2820
Hoffman Farms Trucking,Rr 1 Box 272,Lake City,SC,29560,803-659-3366
Garrens Auto Sales,Hwy 178,Pickens,SC,29671,803-878-4000
Powers Mobile Home Transporter,141 Fine Rd,Spartanburg,SC,29303,864-503-0685
Tee Hamby Wrecker Service,2260 So Highway 101,Greer,SC,29651,803-877-4986
"Port Marine, Inc.",657 Long Point Rd,Mount Pleasant,SC,29464,803-849-9433
Al's Wrecker Service,214 Hillcrest Circle,Anderson,SC,29624,803-226-4830
Bethea Backhoe Service,778 Muckerman Rd,Bennettsville,SC,29512,803-479-8613
C & C Moving And Transporting,#6 Cambridge Avenue,Charleston,SC,29405,803-745-0515
Jimmie's Trucking Co,Rt 5 Box 811,Chester,SC,29706,N/A
National Transport,119 Brown Lee Street,Hemingway,SC,29554,803-558-5143
Stickey & Son Trucking,1175 Red Hill Rd,Camden,SC,29020,803-432-9933
Countryside Distributor,Route #3 Box #375,Timmonsville,SC,29161,803-662-4420
Mark Tate Trucking LLC,Po Box 760,Inman,SC,29349,864-804-0450
Bailey Trucking,2270 Toxaway Dr,Sumter,SC,29154,803-773-1296
H & W Enterprises,6309 Fairview Rd,Batesburg,SC,29006,803-657-5407
Inabinett Trucking,2769 Rum Gully Road,Islandton,SC,29929,843-893-8853
Tony Garrett's Auto Sales,1127 North Pleasantburg Drive,Greenville,SC,29607,803-268-4679
Ez Trucking,115 Decker Court,Moncks Corner,SC,29461,843-554-7800
"Ardis Trucking, Inc.",559 Hillsboro N W,Orangeburg,SC,29115,803-533-0158
Diamond Transportation,6175 Hwy 17 N,Awendaw,SC,29429,843-225-4816
K & M Heartfield Trucking,3343 Augusta Hwy,Gilbert,SC,29054,803-776-2841
Economirer Body Shop & Wrecker Service,102 Kingston Rd,Pelzer,SC,29669,803-947-1658
Eagle Transport,2249 Airport Road,Pageland,SC,29728,704-219-9933
Williams Trucking,390 Millcreek Dr,Clarkhill,SC,29821,803-646-6047
