Company Name,Street Address,Address Locality,Address Region,Postal Code,Telephone
C & T Trucking,604 E 4th Street,Canton,SD,57013,605-553-6277
Code Blue Trucking,24037 N Main,Presho,SD,57568,605-639-8919
Firefly Transport,508 Trail Drive,Box Elder,SD,57719,605-301-4738
Larson Trucking,11411 Mahto Rd,Mc Laughlin,SD,57642,605-823-2182
B And M Trucking,47742 174th Street,Clear Lake,SD,57226,605-874-2942
James Dean Trucking,145 N 5th Ave,Lake Andes,SD,57356,605-487-7692
Vanderwerff Trucking,34278 249th St,Chamberlain,SD,57325,605-682-8917
D & L Nelson Trucking,43190 231st St,Howard,SD,57349,605-772-4136
Schenecker Trucking,323 30th St Nw,Watertown,SD,57201,605-886-5655
Jt Logistics,19739 Prairie Ridge Rd,Spearfish,SD,57783,605-717-0355
Vollmer Trucking,39428 158th St,Mellette,SD,57461,605-887-3350
Jl Trucking,29554 113th St,Pollock,SD,57648,605-230-0372
Auto Rons Auto Sales,525 N Weber Ave,Sioux Falls,SD,57103,605-271-5333
Crandall Trucking,47245 134th Street,Wilmot,SD,57279,320-760-0447
Guthmiller Trucking,1522 S Grant St,Aberdeen,SD,57401,605-380-3826
A&j Distributing,1011 8th Ave Ne,Aberdeen,SD,57401,605-262-0576
Mattison Trucking,301 N 1st Ave,Revillo,SD,57259,605-880-1558
6 D's Express,28110 369th Ave,Platte,SD,57369,605-337-2654
P & M Transportation,5680 Hwy 79 S,Rapid City,SD,57701,605-341-1120
Gugat Trucking,48349 W Authier Rd,Jefferson,SD,57038,605-966-5432
Knudson Trucking,1015 Main St,Armour,SD,57313,605-724-2918
Sjk Trucking,321 N Hazel Ave,Irene,SD,57037,605-263-0317
Double S Trucking,21012 Sd Hwy 45,Miller,SD,57362,605-853-2301
B & L Transportation,24882 465th Ave,Colton,SD,57018,605-446-3997
A & L Trucking,1308 Nellie St,Sturgis,SD,57785,605-490-2596
D Bar 7 Trucking,14987 Antelope Flats Drive,Box Elder,SD,57719,605-923-4184
Patterson Trucking,708 2nd Ave,Kadoka,SD,57543,605-430-3570
Mjb Trucking,311 17th Avenue,Tyndall,SD,57066,605-201-2578
Brian Siedschlag,310 E Garfield,Gettysburg,SD,57442,605-765-9529
C & S Trucking,42046 256th St,Alexandria,SD,57311,605-239-4904
Jerad Engels Trucking,3001 Sioux Conifer Rd,Watertown,SD,57201,605-886-6112
Plains Trucking,33606 272nd St,Gregory,SD,57533,605-830-0419
Ks Trucking,31840 294th St,Colome,SD,57528,605-842-9088
Lazy J Bar S Ranch & Trucking,422 Logan Ave,Gregory,SD,57533,605-835-8357
Buchholz Trucking,22940 11 Mile Rd,Philip,SD,57567,605-859-2386
Forerunner Freight,621 High St,Lake Andes,SD,57356,605-680-4324
Rittberger Trucking,13152 Yparilla Rd,Newell,SD,57760,605-580-1064
Milo Klein Jr,33540 287th Steet,Dallas,SD,57529,605-830-2309
Fawcett Farms & Trucking,20369 346th Ave,Ree Heights,SD,57371,605-943-5562
Heilman's Trucking,1023 N Summit Ave,Sioux Falls,SD,57104,605-212-6273
Stegenga Trucking,4001 W 88th St,Sioux Falls,SD,57108,605-271-1691
Moerike Trucking,34964 285th St,Burke,SD,57523,605-775-2350
A & S Express,2704 E 8th St Apt 202,Sioux Falls,SD,57103,605-231-9101
Djk Hauling,11807 Ranch Road,Sturgis,SD,57785,605-641-1934
Nelson Deliveries,309 E Prairie Drive,Lennox,SD,57039,605-647-2151
Amende Trucking,3708 W Chicago St,Rapid City,SD,57702,605-721-5598
Cutler Trucking,610 N Washington St,Groton,SD,57445,605-397-8544
M N M Trucking,503 Carr St,Colome,SD,57528,605-842-1153
Scherr Oil Wolf Oil,502 Main St,Mobridge,SD,57601,605-439-3244
Dakota Discount Auto Sales,4828 Heights Dr,Rapid City,SD,57702,605-343-2265
J & J Trucking,11092 S Cave Hills Rd,Buffalo,SD,57720,605-375-3791
An Slm Partnership,5301 W Utica Pl,Sioux Falls,SD,57107,605-232-9374
Beaner Farms,3408 E 10th St Lot 7,Sioux Falls,SD,57103,970-440-6695
Lekat Services,1312 Parkview Blvd,Brandon,SD,57005,605-271-8158
Jonathan Otter Trucking,36487 162nd St,Cresbard,SD,57435,605-598-4331
All In Trucking,203 Park Blvd,Hurley,SD,57036,605-660-3369
Thunderhawk Trucking,220 Thunderhawk St,Lemmon,SD,57638,605-374-3881
T Danielson Trucking,304 Lawrence,Belle Fourche,SD,57717,605-892-2761
Valley View Transfer,30491 446th Ave,Volin,SD,57072,605-660-6472
Black Beard Express,101 3rd Ave,Martin,SD,57551,605-685-1012
Tci Tours,1014 S Grandview Ave,Sioux Falls,SD,57103,605-261-2394
Death Row Transportation,201 S Cardinal Dr,Brandon,SD,57005,605-929-6568
Scott Trucking,804 6th Ave,Wilmot,SD,57279,605-938-4241
Bowden Farms,16205 Us Hwy 83,Gettysburg,SD,57442,605-765-9429
J W Construction,211 W Pleasant,Elk Point,SD,57025,605-351-8440
Fitzpatrick Trucking,24939 421st Ave,Alexandria,SD,57311,605-239-4868
White Knuckle Express,2852 Nugget Gulch,Rapid City,SD,57702,605-342-3557
Harkin's Backhoe Service,13437 Stoney Creek Trail,Sturgis,SD,57785,605-347-2324
Maloney Trucking,43167 279 St,Freeman,SD,57029,605-925-7061
Paul Oldenkamp Trucking,1740 Northstar Ave,Pierre,SD,57501,605-869-2483
V & H Trucking,202 S Allen Ave,Colman,SD,57017,605-534-3323
Fitzgerald Ranch,22574 202nd St,Milesville,SD,57553,605-209-0421
Hanson Ag Services,46886 138th St,Wilmot,SD,57279,605-938-4163
Beck Trucking,6100 Southside Dr,Rapid City,SD,57703,605-393-2503
Ericksen Trucking,43650 181st St,Hazel,SD,57242,605-628-2513
Mountain Valley Trucking,3643 Reder Street,Rapid City,SD,57702,605-343-1577
Nellie B Trucking,31398 241st St,Kennebec,SD,57544,605-869-9650
Eli Mobile Home & Setup Service,1100 East 8th Street,Yankton,SD,57078,605-665-3608
Sunfire Firefighting Service,24629 Iron Mountain Road,Keystone,SD,57751,605-666-4406
Davis Trucking,20736 395th Avenue,Huron,SD,57350,605-354-4400
Glenn Folk Trucking,14487 479th Ave,Milbank,SD,57252,605-432-4086
Chief Transportation,Hc 49 Box 165,Porcupine,SD,57772,605-455-2591
Wendt Transport,6831 Polk St,Black Hawk,SD,57718,605-390-1843
Tobi Trucking,111 South 1st Avenue,Letcher,SD,57359,605-248-2654
Baker Trenching,2041 Vista Hills Place,Spearfish,SD,57783,605-642-4946
J&j Truck & Autobody,1513 East Philadelphia St,Rapid City,SD,57703,605-348-6802
River Bottom Trucking LLC,13496 285 Ave,Mobridge,SD,57601,605-845-7384
Socom Transportation,502 E Pleasant St,Elk Point,SD,57025,605-356-2359
Porter Farm Trucking,20424 Sd Hwy 47,Highmore,SD,57345,605-852-2554
C-j Cattle Co Trucking,27328 459th Ave,Chancellor,SD,57015,605-647-5717
Engelstad Trucking,326 Main St,Astoria,SD,57213,605-832-2721
Doug Mahrt Trucking,23852 346th Ave,C Hamberlain,SD,57325,605-734-6305
Of Trucking,28762 475th Ave,Beresford,SD,57004,605-987-2103
K T Trucking,907 Ziebach Lot 91,Belle Fourche,SD,57717,605-210-0057
Rick Moen Trucking,11721 457th Ave,Sisseton,SD,57262,605-698-9077
S H Gustafson Trucking,613 Meier St Apt A,Spearfish,SD,57783,605-641-0226
"Dan Jensen Trucking, Inc.",300 East Field Ave,Roslyn,SD,57261,605-486-4707
Jdi Trucking,102 Charger Ave,Hayti,SD,57241,605-783-3787
D&s Trucking,805 E Indiana St,Rapid City,SD,57701,605-343-2622
S&l Trucking,111 Custer St Lot 205,Belle Fourche,SD,57717,605-645-2576
Smoke,47449 258th St,Renner,SD,57055,402-340-1287
Hillberg Trucking,301 River Oak St,Brandon,SD,57005,605-582-7517
Tierra Portfolio Services,45926 273rd St,Chancellor,SD,57015,605-647-0532
D & F Truck And Auto Electric,1950 Rand Road,Rapid City,SD,57769,605-341-7010
Miles Kunze Trucking,970 Simmons Ave Se,Huron,SD,57350,605-350-8789
Lakeview Auto,West Highway 12,Waubay,SD,57273,605-947-4902
Delta Delivery,900 North Blauvelt,Sioux Falls,SD,57103,605-371-6407
Rlt Trucking,17197 St Paul St,Redfield,SD,57469,605-472-1156
R & S Transport,22551 Potter Rd,Rapid City,SD,57702,605-341-2137
Chief Industrial Equipment Services,48185 260th Street,Corson,SD,57005,605-941-3625
Innovative Management Solutions,3900 N National Ave,Sioux Falls,SD,57104,605-336-3795
T & K Transport,4002 S 2nd Ave,Bowdle,SD,57428,605-285-6336
L & L Trucking,309 Slant St,Wakonda,SD,57073,605-267-0016
Cls Services,1840 Tranquil Trail,Rapid City,SD,57701,605-381-2154
Duane Pankratz,44130 279th St,Freeman,SD,57029,605-925-7611
Just Hotshotting,10930 Us Hwy 12,Mclaughlin,SD,57642,605-354-2265
Todd A Swensen Trucking,101 Iowa St,Wakonda,SD,57073,605-267-2205
Hilmer Trucking,413 S Janklow,New Underwood,SD,57761,605-391-4178
Casey D Olson Trucking,527 3rd St,Bradley,SD,57217,605-784-3205
J & D Trucking,422 Rice Street,Gregory,SD,57533,605-830-2706
Hiles Auto Transport,1234 Elkhorn St,Belle Fourche,SD,57717,605-723-9907
Jw Delivery,246 E Meade St,Rapid City,SD,57701,605-718-0331
Heesch Trucking,10481 475th Avenue,Rosholt,SD,57260,605-537-4364
All Star Trucking,27787 Ranch Dr,Hot Springs,SD,57747,605-833-2026
Flying T Transportation,20315 451st Avenue,Arlington,SD,57212,605-983-5802
Interlink Shuttle And Travel Services,23 West Main St Suite 1b,Vermillion,SD,57069,605-658-1658
Hard Luck Hauling,14845 465th Ave,South Shore,SD,57263,605-290-3098
Tiede Trucking,27991 Sd Hwy 37,Parkston,SD,57366,605-928-3152
Hawk Trucking,23601 Long Valley Rd,Long Valley,SD,57547,605-343-5601
Nelson Transportation,14813 479th Ave,Milbank,SD,57252,605-432-4163
Veit Trucking,1 N Thunder Butte Rd,Dupree,SD,57623,605-466-2650
Six Gun Trucking,804 Sunnyside Ave,Valley Springs,SD,57068,605-757-7175
Backes Company,12791 Truman Rd,Black Hawk,SD,57718,605-716-7771
Seeley Trucking,307 3rd Ave,Chester,SD,57016,605-489-2330
S & J Transport,840 N Spruce St Lot 84,Rapid City,SD,57701,605-390-8716
Loeb Transport Co,415 9th Ave S,Faulkton,SD,57438,605-216-4668
T And S Express,28128 307th Ave,Winner,SD,57580,605-842-2718
Wolds Trucking,11386 County Road 10,Sisseton,SD,57262,605-698-3264
R&a Trucking,193 Juniper Rd,Parker,SD,57053,605-297-2098
J & D Transport,1831 Skyview Lane,Brookings,SD,57006,605-692-2740
Eaton Trucking,Box 573,Faith Sd,SD,57626,605-967-2761
Filter Express,934 E Birch Ave,Mitchell,SD,57301,605-292-0631
Longhorn Express,1152 21st,Huron,SD,57350,605-352-0781
Country Farm Service,48294 U S Hwy 14,Elkton,SD,57026,605-542-7000
Palmer Trucking,309 7th Ave Se,Clark,SD,57225,605-532-3593
Nick Meier Trucking,202 4th St,Roscoe,SD,57471,605-287-4270
Dt & T,806 First Street,Lesterville,SD,57040,605-660-2998
Baysinger Trucking,3907 Sherry Ct,Rapid City,SD,57703,605-716-2085
"Curran Transportation, Inc.",513 S Railroad,Jefferson,SD,57038,605-966-5814
Bratland Trucking,205 Riley Stree,Valley Springs,SD,57068,605-757-6684
D & Rj Trucking,3220 Lazelle St,Sturgis,SD,57785,605-720-1145
Herren Trucking,10340 W Hwy 14,Spearfish,SD,57783,605-642-7012
C & R Trucking,20456 437th Ave,Desmet,SD,57231,605-854-0109
Brass Trucking,5312 W 52nd,Sioux Falls,SD,57106,605-362-6206
K C Trucking,22051 Hwy 34,Miles Ille,SD,57553,605-544-3434
Roger Nordhus,42749 177 Street,Clark,SD,57225,605-532-4801
Watson Trucking,1705 Hope St,Sturgis,SD,57785,605-390-2590
R & L Trucking,210 W Richard Ave,Salem,SD,57058,605-425-2155
Fieber Trucking,155 E Evanston St,Goodwin,SD,57238,605-795-3881
Van Eaton Trucking,11330 Valley 1 Road,Belle Fourche,SD,57717,605-490-3893
Roger Salo Trucking,2403 Bunker Dr,Aberdeen,SD,57401,605-225-3647
Hasvold Trucking,1004 S Center Apt 3a,Flandreau,SD,57028,605-573-2089
B N F Trucking,721 9th St,Sturgis,SD,57785,605-720-5454
Bryan's Crane Service,1209 Evans Loop,Hot Springs,SD,57747,605-745-3322
Dick's Service,25343 Us Hwy 385 South,Custer,SD,57730,605-673-4432
Custom Cartage,25827 475th Avenue,Renner,SD,57055,605-332-6959
River Bottom Trucking,140 W 5th St,Redfield,SD,57469,605-460-1481
J L Mehlhaff Trucking,28305 415th Avenue,Tripp,SD,57376,605-935-6335
Hunter Transportation,1216 Ridge Rd,Mitchell,SD,57301,605-996-2577
Dennis Gehring Trucking,24360 Us Hwy 12,Mcintosh,SD,57641,605-273-4530
Skljoldal Trucking,901 1st Avenue Nw,Lemmon,SD,57638,701-376-3597
Kimball Trucking,1718 11th Ave,Belle Fourche,SD,57717,605-723-4045
L Swift Trucking,Hc 83 Box 35,Firesteel,SD,57633,605-488-0010
Jamey Jensen Trucking,20763 461st Ave,Bruce,SD,57220,605-695-0532
Sand Hills Trucking,41095 102nd Street,Hecla,SD,57446,605-994-2327
Johnson Trucking,12th Franklin,Burke,SD,57523,605-775-2485
Bk Trucking,12894 395th Ave,Bath,SD,57427,605-226-3734
Lekness Trucking,45032 Bia800,Sisseton,SD,57262,605-742-4207
Neilan Transport,13940 446th Ave,Waubay,SD,57273,605-947-4198
89 Express,1002 E Main St,Wilmot,SD,57279,605-938-4861
Schnabel Trucking,42842 268th St,Emery,SD,57332,605-284-2356
Minder Trucking,1327 E Kemp,Watertown,SD,57201,701-388-0403
Chums Laferty Trucking,24740 Hedog Rd,Parmelee,SD,57566,605-747-2081
Xit Transportation Co,4099 Terry Dr,Rapid City,SD,57703,605-716-9702
Porks Trucking,411 W Walnut,Sisseton,SD,57262,605-228-5241
K & K Express,1900 West 23 Rd,Mitchell,SD,57301,605-995-1492
Thunder Valley Trucking,Hcr 49 Box 113,Porcupine,SD,57772,605-430-7841
Sly's Aircraft Service,27480 Airport Road,Platte,SD,57369,605-337-2334
Hine Transport,Box 382,Wessington Springs,SD,57382,605-539-9202
Hilltop Trucking,601 S Sertoma Ave,Sioux Falls,SD,57106,605-339-9876
Jacobsma Trucking,1000 E Mickelson Rd,Hartford,SD,57033,605-528-3513
A & W Transfer,28046 371st St,Geddes,SD,57342,920-915-3341
B Zz C To C Transport,3431 Fairhaven Dr,Rapid City,SD,57702,605-430-0170
Juliano Trucking,11979 Us Highway 16 West,Custer,SD,57730,605-517-1052
Hicks Brothers Farms,47688 145th St,Milbank,SD,57252,605-237-0867
P & K Express,931 Wood Ave,Rapid City,SD,57701,605-393-1743
Scott Trucking,1835harmony Heights Ln Apt 303,Rapid City,SD,57702,605-716-7268
Turtle Creek Farms,37789 189th Street,Tulare,SD,57476,605-596-4367
Spencer Transportation,957 Dudley St,Sturgis,SD,57785,605-347-4490
Mclaughlin Trucking,12722 Watson Parker Road,Hill City,SD,57745,605-574-4113
River Bottom Trucking,38520 130th St Lot # 73,Aberdeen,SD,57401,605-229-3830
Penny Express,29826 408th Ave,Avon,SD,57315,605-286-3682
F & S Trucking,45624 110th Street,Sisseton,SD,57262,605-742-0227
Tyler Pickard Trucking,22511 465th Ave,Rutland,SD,57057,605-586-4243
Osl Trucking,47266 152 St,Twin Brooks,SD,57269,605-949-1200
Garden Creek Trucking,102 S Dartmouth,Newell,SD,57760,605-456-1924
Roeber Trucking,17889 372nd Ave,Redfield,SD,57469,605-472-1188
B & B Express,933 Summit St,Belle Fourche,SD,57717,605-892-3304
Dream Home Delivery,1726 Mesa Dr,Rapid City,SD,57702,605-342-3556
Double H Trucking,12847 393rd Ave,Aberdeen,SD,57401,605-226-3707
Nixon Trucking,825 National St,Belle Fourche,SD,57717,605-723-6023
Dakota Key Trucking,701 Jackson Street,Belle Fowche,SD,57717,605-723-7702
Stange Farms,501 E 14th Ave,Groton,SD,57445,605-397-4533
Garrett Trucking,15 4th St,Dupree,SD,57623,605-365-5471
Dakota West Trucking,15 North State Street,Aberdeen,SD,57401,605-226-3200
Peterson Trucking,27149 475th St,Harrisburg,SD,57032,605-743-2028
T N S Express,1321 Lac Qui Parle St,Gary,SD,57237,605-272-2276
Midwest Transport,27711 314th Ave,Winner,SD,57580,605-842-2980
Wilhelm Trucking,617 12th Ave S,Faulkton,SD,57438,605-598-6202
Cwach Spraying,36712 Hoffman Lane,Platte,SD,57369,605-337-3456
Cristal Trucking,1025 S Wayland,Sioux Falls,SD,57103,605-332-4125
Berndt Farm Equipment,41032 302nd,Avon,SD,57315,605-286-3233
Dan Haggberg Trucking,3612 Northview,Spearfish,SD,57783,605-642-3538
Prime Auto Sales,1608 S Park Ave,Sioux Falls,SD,57105,605-335-1463
Len's Scrap & Trucking,210 Broadway Ave,Lake City,SD,57247,701-678-3319
Hogan Auto Carriers,616 Sheridan Lake Rd #317,Rapid City,SD,57702,605-341-2410
Strong Trucking,4836 Mountain Springs Ct,Rapid City,SD,57702,605-342-0505
Modern House Mover,630 Westwind Dr,Box Elder,SD,57719,605-923-4309
Ars Trucking,19489 448th Ave,Lake Norden,SD,57248,605-785-3434
Car Dealer,11440 302nd Avenue,Mound City,SD,57646,605-955-3310
Fonder Trucking,Rr1 Box 40,Sisseton,SD,57262,605-652-4579
Scott Fitzgerald Trucking,5 1/2 M S Hwy 73,Philip,SD,57567,605-859-2866
Jbw Trucking,Hc 2 Box 76b,Martin,SD,57551,605-685-2069
J L T Trucking,1823 West Main,Rapid City,SD,57702,605-388-8961
Mark Dimond Trucking,Hc1 Box 120a,Wood,SD,57585,605-452-3466
L & W Transport,333 Circle Drive,Box Elder,SD,57719,605-342-6405
Ballinger Trucking,28620 480th Ave,Canton,SD,57013,605-987-3332
Geuke Trucking,111 E 5th Avenue,Redfield,SD,57469,605-472-0491
Anderberg Trucking,704 E Elder,Canton,SD,57013,605-764-3448
Eaton Trucking,101 Anna Ave,Vale,SD,57788,605-456-1648
Td Transport,38390 W Hwy 12,Aberdeen,SD,57401,605-226-0695
Stredde Trucking,39276 268th Street,Corsica,SD,57328,605-770-6771
Transportation Components Co,4001 N Cliff Avenue,Sioux Falls,SD,57104,605-334-4001
Thurston Transportation,40235 130th Street,Groton,SD,57445,605-397-2403
Adkinson Trucking,908 Spartan Drive,Spearfish,SD,57783,605-722-0738
Neal Rogers Trucking,19834 Ranch Road,Enning,SD,57737,605-985-5523
High Plains Auto & Trailer Sales,3325 Sturgis Road,Rapid City,SD,57702,605-355-8800
J K Johnson Trucking,919 F Ave,Pollock,SD,57648,605-889-2529
Siegling Digging Service,37290 203 St,Wessington,SD,57381,605-458-2233
Robbins Transportation Group,1105 East Cherry St,Vermillion,SD,57069,417-861-3649
Reinert Trucking,Rr 1 Box 173,Vale,SD,57788,605-456-2606
Brians Custom Cars,43683 285th St,Freeman,SD,57029,605-925-7899
J & T Trucking,440 East 8th St,Corsica,SD,57328,605-946-5580
Tailfeathers Trucking,1801 Douglas Ave,Yankton,SD,57078,605-668-2780
Tony Larson Trucking,103 S Harrison St,Gettysburg,SD,57442,605-765-2612
Sun Services,31084 407th Ave,Avon,SD,57315,605-286-3939
Adesa Sioux Falls,46893 271st Street,Tea,SD,57064,605-368-5364
Anderson Trucking,101 Elm Box 52,Henry,SD,57243,605-532-5884
Howards Service,204 N 2nd St,Aberdeen,SD,57401,605-229-0111
High Plains Trucking,104 12th Ave Ne #6,Aberdeen,SD,57401,605-229-7565
D & T Trucking,816 17th Ave Ne,Aberdeen,SD,57401,605-262-1022
H & H Trucking,1917 Hawthorn Ct,Sturgis,SD,57785,605-720-6021
Stiklestad Trucking,606 Main St,Claremont,SD,57432,605-294-5273
Magee's Mobile Home Transport,1411 4th Ave Sw,Watertown,SD,57201,605-886-7884
Riggin Flight Service,310 Southshore Dr,Mina,SD,57451,605-432-5753
Kaiser Hay Co,218 E 4th St,Winner,SD,57580,605-842-2632
Bretzman Trucking,600 W 9th St,Dell Rapids,SD,57022,605-428-4800
Gallagher Trucking,417 S Haademy St,Lennox,SD,57039,605-644-9031
Colton Rail,4238 N Alaska Dr,Sioux Falls,SD,57107,605-321-3797
D & R Field Services,6799 Carol Ct,Blackhawk,SD,57718,605-787-9071
U2 Trucking,17638 Pleasantview Dr,Red Owl,SD,57787,605-985-5559
Jay Jandreau Trucking,22224 Sd Hyw 1806,Fort Pierre,SD,57532,605-223-9589
Select Auto Sales,11750n Hwy 79,Summerset,SD,57718,605-343-7505
Cadman Trucking,396 Emmanuel St,Cavour,SD,57324,605-599-2831
Campbell Trucking,12808 S Thunder Road,Mobridge,SD,57601,605-848-6892
Hartsel Trucking,46650 Us Hwy 14,Brookings,SD,57006,605-693-4363
Eppard Trucking,28 E Main St,Mellette,SD,57461,605-887-3339
Willie Neels Trucking,504 E 10th St,Dell Rapids,SD,57022,605-428-3372
Bourk Enterprises,20578 310th Ave,Blunt,SD,57522,605-962-6127
Vernon Thorson Trucking,706 Two Rivers St,Fort Pierre,SD,57532,605-223-9026
Baumeister Trucking,10580 230th Ave,Watauga,SD,57660,605-524-3441
Steve Rossow Trucking,14117 396th Ave,Stratford,SD,57474,605-225-8385
E & J Trucking,47715 205th St,White,SD,57276,605-629-4851
Sterner Trucking,46031 253rd St,Hartford,SD,57033,605-528-6467
Great Plains Moving & Storage,2265 Old Hwy 14 W,Huron,SD,57350,605-352-6738
Maher Trucking,6197 62nd Ave Sw,Morristown,SD,57645,701-522-3314
Sas Express,719 W 4th St,Canton,SD,57013,605-764-5925
Neal Wetzler Trucking,4016 Sherry Ct,Rapid City,SD,57703,605-721-7363
The Oil Company,25330 Yellow Eagle Rd,White River,SD,57579,605-452-3436
Char Trucking,30470 481st Avenue,Alcester,SD,57001,605-934-2951
Mid Plains Backhoeing & Transport,30668 Sd Hwy 34,Pierre,SD,57501,605-222-1772
Stephens Trucking,719 E 1st St Apt 2,Redfield,SD,57469,605-472-1551
Holloman Trucking,3608 Champion Dr,Rapid City,SD,57701,605-343-3807
Gilbert Brothers Trucking,18907 391st Ave,Hitchcock,SD,57348,605-266-2152
Wayne Starr Trucking,413 Garfield,Willow Lake,SD,57278,605-625-3507
P & M Transport,248 Curtis St,Rapid City,SD,57701,605-342-8973
Mathison Trucking,1022 E 1st St,Webster,SD,57274,605-345-3770
Pat Haley Distributing,4508 Windsor Way Circle,Sioux Falls,SD,57106,605-361-9798
Cs Ma Trucking,18084 457th Ave,Castlewood,SD,57223,605-793-2200
Carlson Trucking,43460 240th St,Canova,SD,57321,605-523-2466
Romming Trucking,215 Main St,Barnard,SD,57426,N/A
Six Gun Trucking,1306 12th Ave Sw,Watertown,SD,57201,605-881-1733
Ronning Trucking,Box 13,Barnard,SD,57426,605-329-2557
Jakes Trucking,1001 Vermillion St,Centerville,SD,57014,605-552-2542
"Ralph Weber Trucking, Inc.",305 W State St,Montrose,SD,57048,605-359-6756
Mueller Trucking,6 West Rt 18,Batesland,SD,57716,605-288-1849
Stacken Trucking,26360 430th Ave,Emery,SD,57332,605-449-4315
Green Trucking,22819 Gateway Dr,Box Elder,SD,57719,605-754-6971
J & L Trucking,380 Willow Ave,Aplena,SD,57312,605-342-8101
Black Hills Mobile Home Transport,238 Mockingbird Dr,Box Elder,SD,57719,605-923-4004
Loebs Trucking,12801 385th Ave,Aberdeen,SD,57401,605-229-1678
Berkner Auto Parts,47380 152nd St,Twin Brooks,SD,57269,605-432-5282
Tony Moser Trucking,917 3rd Ave Sw,Aberdeen,SD,57401,605-725-5531
Prestige Auto Sales,1920 North Avenue,Spearfish,SD,57783,605-642-1900
Dragon Wagon Express,20070 Nine Mile Rd,Sturgis,SD,57785,605-490-2922
Shrewsbury Trucking,480 Custer Ave Ne,Huron,SD,57350,605-354-1628
Kessler Trucking,35360 116th St,Leola,SD,57456,605-439-3562
Twin Pine Trucking,12866 Glenham Rd,Glemham,SD,57631,605-762-3442
Keller Livestock Hauling,14015 376th Ave,Mina,SD,57462,605-622-3288
Kurschat Trucking,1002 7th Ave,Britton,SD,57430,605-881-6512
Connexo,305 E Elk St,Rapid City,SD,57701,605-341-1447
L & D Transport,716 Willow St,Spencer,SD,57374,605-246-2702
"Kleins Housemoving, Inc.",1012 Logan,Gregory,SD,57533,605-835-9922
J & M Nedved,41791 Cleveland Road,Tyndall,SD,57066,605-589-4100
Carlson Trucking,606 Oak St,Summit,SD,57266,605-398-6581
Opland Trucking,305 S Jefferson,Sioux Falls,SD,57104,605-376-5777
Varilek Trucking,31895 282nd St,Colome,SD,57528,605-869-2406
Lone Wolf Express,608 2nd Avenue,Tulare,SD,57476,605-450-0031
Schell Trucking,408 Ash,Hecla,SD,57446,605-994-2636
Klinghagen Trucking,1118 6th Ave,Belle Fourche,SD,57717,605-723-4729
Phillips Trucking,1118 22nd St Ne,Watertown,SD,57201,605-884-0428
Martin Trucking,1 Mile N Of Us212 On Whitehorse Rd,Ridgeview,SD,57652,605-733-2271
Steves Trucking,300 E Elm Ave Apt #128,Flandreau,SD,57028,605-530-0874
Leon Hanten Trucking,46548 176th St,Goodwin,SD,57238,605-886-6647
Moss Trucking,1701 N Jessica,Sioux Falls,SD,57103,605-334-3052
Floyd Patterson Trucking,19 Emma Street,St Onge,SD,57779,605-642-2463
Tat Trucking,222 East Park Avenue,Howard,SD,57349,405-426-2772
Ford Family Trucking,1520 S Lloyd,Aberdeen,SD,57401,605-225-9258
Lariat Express,101 Ave D Ports St Apt 3,Martin,SD,57551,605-685-1113
3 Lee Trucking,401 Vilas,Hermosa,SD,57744,605-255-4638
Meyer Trucking,41282 177th St,Raymond,SD,57258,605-532-3566
Sunset Refridgerated Express,1003 Rosilee Lane,Rapid City,SD,57701,605-348-6854
Mick Tennant Trucking,Box 18,Gettysburg,SD,57442,605-768-2516
Robinson Car Carrier,23756 Arena Dr,Rapid City,SD,57702,206-390-4229
Stillwater Trucking,110 Washington St,Scotland,SD,57059,605-583-2712
Ron's Service & Repair,38608 123rd St,Westport,SD,57481,605-226-2558
Plains Equipment Service,1104 3rd St,Garretson,SD,57030,605-594-6704
Peter Klaudt Trucking,12620 Doris Dr,Blackhawk,SD,57718,605-716-4725
Pj Trucking,5900 W Misty Glen Pl,Sioux Falls,SD,57106,308-520-0890
Autoworks,819 E North,Rapidcity,SD,57701,605-341-9700
Devo Truxz,302 Dakota Street,Rosholt,SD,57260,701-889-1536
Belle Auto Sales,1901 5th Avenue,Belle Fourche,SD,57717,605-892-6929
Hurst Transportation,261 W Juniper,Menno,SD,57045,814-418-2763
Bronson Transport,511 E 26th St,Sioux Falls,SD,57105,605-338-5049
Redlin Trucking,607 2nd Ave South,Clear Lake,SD,57226,160-587-4582
S & M Enterprises,205 North State Ave,Wessington Springs,SD,57382,605-539-1507
Sogn Trucking,47976 295th St,Hudson,SD,57034,605-984-2139
Nuhome Mobile Home Transport,5700 Wren Place,Sioux Falls,SD,57107,605-334-9446
"H3 Trucking, Inc.",711 S Lake Ave,Sioux Falls,SD,57104,605-338-4477
Osborn Trucking,613 Illinois Ave Sw,Huron,SD,57350,605-352-5200
Jezek Trucking,195 N Main St Box 85,Kaylor,SD,57354,605-583-4440
Reliable Tree & Trucking,13910 Neck Yoke Rd,Rapid City,SD,57702,605-341-3277
Loper Trucking,208 W Rogers St,Bison,SD,57620,605-244-7196
Dave's Trucking,110 E Center St 844,Madison,SD,57042,503-880-5242
Maynard Yule Trucking,12658 Us Hwy 212,Nisland,SD,57762,605-257-2247
Hemmingson Farms,47233 285th St,Worthing,SD,57077,605-372-4591
Dakota Trucking,12581 342nd Ave,Roscoe,SD,57471,N/A
Loeb Trucking,Rr1 - Box 158,Watertown,SD,57201,605-886-3862
Kevin Johnson Trucking,215 Babik St,Hoven,SD,57450,605-948-2151
Redfield Livestock Express,802 W 5th St #3,Redfield,SD,57469,605-472-1012
Lee Devries Trucking,46316 Us Hwy 18,Davis,SD,57021,605-238-5556
F&m Trucking,Rr3 - Box 156,Groton,SD,57445,605-395-6456
Lone Wolf Trucking,113 Stage Road,Ft Pierre,SD,57532,605-223-9719
Brewer Trucking,1603 East Tallent,Rapid City,SD,57703,605-719-9592
Hagan Trucking,39500 146th Street,Stratford,SD,57474,605-395-6428
Tewskbury Trucking,305 N 2nd Ave,Ferney,SD,57439,605-395-6471
Berstein Trucking,609 W 4th St,Faith,SD,57626,680-967-2955
Mutsch Harvesting And Trucking,36353 164th St,Rockham,SD,57470,605-472-3142
Fendrich Trucking,1209 E 4th Ave,Mitchell,SD,57301,605-425-2097
Kubal Trucking,Rr 1 Box 76,Lesterville,SD,57040,605-583-4307
Daryl Haar Trucking,3092 4th Avenue,Bowdle,SD,57428,605-285-6427
Wittnebel Trucking,Rt1 - Box 195,Revillo,SD,57259,605-623-4546
Extruding Oil & Meal From Soybeans,4745 Railroad Ave Se,Aberdeen,SD,57401,605-725-6111
Boska Trucking,306 Summer St,St Charles,SD,57571,605-654-2356
Sargent Trucking,945 40th Street Sw,Watertown,SD,57201,605-886-7217
Mo-rok Zander Trucking,P O Box 466,Scotland,SD,57059,N/A
Mtm Trucking,P O Box 856,Edgemont,SD,57735,N/A
Anderton Farms,1545 Brandon Dr,Vermillion,SD,57069,605-547-1098
Hicks Trucking,27569 248th Avenue,Norris,SD,57560,605-462-6050
Jacobson Trucking,45632 287th St,Hurley,SD,57036,605-238-5584
Schlaht Trucking,39104 150th Street,Mellette,SD,57461,605-228-4653
Jm Blare Trucking,106 Artesian Street,Fruitdale,SD,57717,605-892-6399
Rodney Smidt Trucking,21068 Pleasant Valley Dr,Sturgis,SD,57785,605-347-4418
Maurer Bros Harvesting,13649 358 Avenue,Ipswich,SD,57451,605-426-6027
Gilbertson Trucking,701 South 14th Street,Aberdeen,SD,57401,605-229-1710
Urevig Transport Services,5517 N Cliff Ave,Sioux Falls,SD,57104,N/A
M & D Transport,1515 E St St Patrick Lot 269,Rapid City,SD,57701,N/A
4-ace's Trucking,207 W 2nd Ave,Herreid,SD,57632,605-437-2333
Ade Transport,109 Main Street,Jefferson,SD,57038,605-966-5291
Fischbach Trucking,39060 148th St,Mellette,SD,57461,605-887-3210
K & G Trucking,603 E 4th Ave,Miller,SD,57362,605-853-3830
Eagle Auto,502 S Cliff,Sioux Falls,SD,57101,605-334-6968
Sparky's Mobile Home Transport,6009 West Foxdale,Sioux Falls,SD,57107,605-334-0519
Bollinger Trucking,3061 Jolly Lane,Rapid City,SD,57701,605-393-2000
Wade Trucking,41624 112th St,Amherst,SD,57421,605-448-5453
Larry Kauer Trucking,222 Washington St,Winner,SD,57580,605-840-9284
Dakota West Trucking,Hc 1 - Box 30,Wanblee,SD,57577,605-462-6541
Tupper Trucking,Truck Route Road,Kimball,SD,57355,605-778-6211
Jb Trucking,611 W 7th St,Webster,SD,57274,605-345-4097
Allen Carlson Trucking,28319 466th Ave,Lennox,SD,57039,605-759-1674
Dv Truck Line,145 N 2nd Ave,Lake Andes,SD,57356,605-487-7689
"Wc Hurst Trucking, Inc.",4900 Country Road,Rapid City,SD,57701,605-342-1239
Lessert Trucking,29613 206th Avenue,Martin,SD,57551,605-685-3639
D & L Transportation,630 E 5th Ave,Redfield,SD,57469,605-460-0268
Crawford Trucking,48324 258th St,Brandon,SD,57005,507-673-2467
Thunder Livestock,10850 Sourdough Rd,Belle Fourche,SD,57717,605-892-2228
Glanzer Trucking,Po Box 365,Wagner,SD,57380,605-661-3706
Chopping Trucking,Po Box 164,Ipswich,SD,57451,605-426-6314
Ritchie Mobile Home Transport,23648 Busted Five Ct,Rapid City,SD,57702,605-787-9661
"Pioneer Service, Inc.",Business Loop I90 404 W 5th St,Murdo,SD,57559,605-669-2919
D & D Trucking,327 Broadway Ave Ste 6,Yankton,SD,57078,605-668-0141
Cheyenne River Trucking,Po Box 1472,Eagle Butte,SD,57625,605-964-6050
H Bar D Trucking,Rr 1 Box 72 A,Custer,SD,57730,605-673-3955
Midnite Express,Rr2 - Box 60,Belle Fourche,SD,57717,605-892-4517
Van Dis Trucking,12451 Hazelrodt Cutoff,Custer,SD,57730,605-673-5620
Brown Trucking,26975 S Sundowner Avenue,Sioux Falls,SD,57106,605-368-5350
Byrne Trucking,29916 Robin Road,Martin,SD,57551,605-685-2095
Steve Anderson Trucking,26011 482nd Avenue,Brandon,SD,57005,605-582-6158
Mcbride Trucking,209 21st St Se,Huron,SD,57350,605-352-8507
Bowen Trucking,19051 Sd Hwy 79,Vale,SD,57788,605-456-2236
Hanzlik Trucking,16969 Hwy 34,Union Center,SD,57787,605-985-5921
Fast Truckin,7400 W 22nd St,Sioux Falls,SD,57106,605-357-8244
Don Tanner Trucking,205 S Mannston,Gettysburg,SD,57442,605-765-2846
Merritt Trucking,25220 Sidney Crk Dr,Custer,SD,57730,605-673-3226
Woerth Transport,115 Cambell St,Rapid City,SD,57701,605-342-6707
Docken Trucking,301 S Montana St,Mitchell,SD,57301,605-990-5203
Kluck Ranch Trucking,13951 199th St,Vale,SD,57788,605-347-4473
Frank Goc Trucking,1514 S Hwy 83,Ft Pierre,SD,57532,605-223-2890
Four Winds Express,Rt 1 - Box 34,Strandburg,SD,57265,605-676-2447
Garys Marine Center,135w 2nd Street,Tea,SD,57064,605-332-9131
Diamond Transportation Services,26117 466th Ave,Hartford,SD,57033,605-528-3254
Lundberg Trucking,29974 Greenfield Road,Beresford,SD,57004,605-957-4212
Dalane Cornell Trucking,410 Mcgoigen Rd,Spearfish,SD,57783,605-642-7804
Buchholz Trucking,40959 294th St,Tripp,SD,57376,605-935-6599
Butterfield Transport,11675 W Paradise Dr,Hill City,SD,57745,605-574-4978
Mark Rus Trucking,30537 481st Ave,Alcester,SD,57001,605-934-2607
Circle C Trucking,1910 Baldwin St,Sturgis,SD,57785,605-347-4696
Swenson's Transport,Rr 2 Box 33,Webster,SD,57274,605-486-4836
Davis Auto,4502 Horse Creek Road,Rapid City,SD,57702,605-348-7800
Taylor Farm & Truck,48432 227 St,Flandreau,SD,57028,605-997-3679
Cats And More,517 Damview Rd,Box Elder,SD,57719,605-255-4887
Garrett Trucking,111 S 1,Dupree,SD,57623,605-964-8793
Merrill Trucking,340 N 23rd St,Hot Springs,SD,57747,605-745-4002
Tom Tines Trucking,17880 Baseline Rd,Wasta,SD,57791,605-798-2162
Clarence Wilson Trucking,Rr 1 Box 32,Brandt,SD,57218,707-839-0149
Kayjo Trucking,11344 Nevada Gulch Rd,Lead,SD,57754,605-785-3732
Front Row Transport,1214 N 3rd Street,Aberdeen,SD,57401,605-225-2448
Materials Transport,16282 455th Avenue,Watertown,SD,57201,605-886-0961
Schmeichel Trucking,107705 Rr,Mclaughlin,SD,57642,605-848-1595
Two B Trucking,48329 - 259th St,Brandon,SD,57005,605-334-9278
Punch's Backhoe Service,11718 Shady Drive,Custer,SD,57730,605-673-3367
Barbee Trucking,526 E 5th Ave,Redfield,SD,57469,605-460-2436
West Express,514 S Newton Pl,Sioux Falls,SD,57106,605-334-9278
Jacobsen Trucking,16829 Hwy 79 N,Newell,SD,57760,605-866-4497
Joachim Trucking,110 S Byrne Ave,Agar,SD,57520,605-258-2781
Gene's Ag Service,21328 401 Ave,Huron,SD,57350,605-352-1466
Fossum Trucking,28655 480th Ave,Canton,SD,57013,605-987-2909
Dinges Trucking,722 W Avenue N,Madison,SD,57042,605-256-0364
Gesinger Trucking,General Delivery,Ridgeview,SD,57652,605-334-9278
Old Red's Trucking,Rr 2 Box 210,Montrose,SD,57048,605-363-5167
Baloun Trucking,100 Boynton Ave,Lennox,SD,57039,605-647-5960
Aj Trucking,4506 West 12th St Lot 13,Sioux Falls,SD,57107,605-940-4677
Dunlap Distributing,Rr 1 Box 133,Centerville,SD,57014,605-563-2921
Tumbleweed Transportation,504 Jana Place,Sioux Falls,SD,57106,605-338-1531
Triple K Trucking,Hc 76 Box 22,Parade,SD,57625,605-964-1978
Burley Trucking,Center Street,Amherst,SD,57421,605-448-2924
Van Hoorn Transport,901 E Bell Ave,Milbank,SD,57252,605-432-6094
R & R Trucking,14957 393rd Ave,Mellette,SD,57461,605-887-3254
L & M Trucking,Hc 53 Box 6,Allen,SD,57714,605-455-2580
Arcuri Trucking,6075 W 4th St,Bowdle,SD,57428,605-281-1316
Aamber Transport,302 6th St,Eureka,SD,57437,605-284-2210
South Dakota Hay & Freight,21810 372nd Ave,Wessington,SD,57381,605-458-2536
Gordon Hoover Trucking Co,1510 Cedar St,Sturgis,SD,57785,605-390-7218
Mike's Service,Rr 1 Box 40,Trent,SD,57065,605-428-3145
High Noon Trucking,Po Box 188,Hot Springs,SD,57747,605-341-2919
Krog Trucking,2011 Waldron Street,Fort Pierre,SD,57532,605-224-4287
Triple Digit Express,100 E 9th St,Hartford,SD,57033,605-528-3722
H D I Trucking,46564 176th St,Goodwin,SD,57238,605-886-6380
Woodward Trucking,Hwy 212,Dupree,SD,57623,605-365-5385
Jerry W Becker Trucking,P. O. Box 31,Martin,SD,57551,605-685-6145
Krueger & Company,21913 389th Avenue,Alpena,SD,57312,605-849-3335
Tvinnereim Transportation,1416 S Merton,Aberdeen,SD,57401,605-225-4699
K & K Trucking,902 E 6th Street,Webster,SD,57274,605-345-4493
Casjens Trucking,13614 342 Ave,Roscoe,SD,57471,605-285-6474
"Barb Lund Trucking, Inc.",6408 E Quartzite Dr,Sioux Falls,SD,57110,605-338-3852
Gaikowski Trucking,136 Terry Dr,Webster,SD,57274,605-345-4897
Brandt Trucking,Po Box 1517,Mccook Lake,SD,57049,712-277-0912
M & M Transporting,P O Box 731,Black Hawk,SD,57718,605-787-6380
Larry Ihde Trucking,38952 145th St,Warner,SD,57479,605-229-0901
Sorensen & Son Transportation,112 E Turner St,Irene,SD,57037,605-269-2410
Nftx,44490 204th St,Lake Preston,SD,57249,605-847-4491
Terry Larson Trucking,203 Main St,Langford,SD,57454,605-493-6768
Brand Harvesting & Trucking,16356 353rd Ave,Faulkton,SD,57438,605-598-6250
Spur Trucking,31486 191st St,Blunt,SD,57522,605-852-2533
Konotopka Trucking,Hwc1 Box 42,Martin,SD,57551,605-685-6238
Tri County Ag Service,106 First Street,Lesterville,SD,57040,605-364-7530
Dave Bunde Trucking,1918 Richard Place,Sioux Falls,SD,57103,605-338-1052
Johnvil Enterprises,23144 Swift Horse Rd,Kadoka,SD,57543,605-462-6209
Hogan Trucking,12940 194th St,Vale,SD,57788,605-490-1541
Auto Express,116 E Rose Street,Elk Point,SD,57025,605-356-2253
T & C Kruger Trucking,21462 390th Avenue,Alpena,SD,57312,605-883-4646
Hotshot Service,7904 Terry Ave,Black Hawk,SD,57718,605-786-1302
Don Gayken Trucking,4016 W 93rd St,Sioux Falls,SD,57108,605-359-1179
Spirit Hill,45817 105th St,New Effington,SD,57255,605-637-5550
Double D Enterprises Ltd,22819 335th Ave,Ft Thompson Sd,SD,57339,605-261-4795
A L S Express,18640 350th Avenue,Miller,SD,57362,605-730-2526
Sisseton Auto Sales,210 E Hickory,Sisseton,SD,57262,605-698-4453
Rco Enterprises,29812 436th Ave,Utica,SD,57067,605-661-9630
M I K Trucking,48272 291st St,Hudson,SD,57034,605-987-5045
Ray Clements Trucking,780 Maple Ave,Wolsey,SD,57384,605-456-1540
Bertram Trucking,32259 Us Hwy 18,Colome,SD,57528,605-842-1737
Valburg Ag Service,Hcr 78 Box 448,White River,SD,57579,605-259-3134
Hills Brake & Equipment,3815 Beale St,Rapid City,SD,57709,605-343-2812
Kappenman Trucking,3024 South 7th Avenue,Bowdle,SD,57428,605-285-6689
L & T Trucking,18703 Nova Place,Union Center,SD,57787,605-985-5483
Wynia Trucking,13087 Fall River Rd,Hot Springs,SD,57747,605-745-6285
Bullert Auto Transport,120 E 7th Ave,Webster,SD,57274,605-345-4179
Wagner Distributing,922 Ridgecrest Dr,Vermillion,SD,57069,605-624-7565
Maier Trucking,21850 103 Street,Morristown,SD,57645,605-524-3217
Mills Distributing,104 6th Avenue,Brandon,SD,57005,605-582-6704
Payer Truck Line,519 Front Ave Se,Wagner,SD,57380,605-384-3545
Greg Schaaf Trucking,902 2nd Street,Britton,SD,57430,605-448-2455
Fiedler Trucking,310 West Mill St,Glenham,SD,57631,605-762-3284
Dawaine Haar Trucking,815 6th Avenue Ne,Aberdeen,SD,57401,605-225-6267
Herrboldt Trucking,2303 Douglas,Yankton,SD,57078,605-665-6169
C & M Trucking,223 7th Ave Sw,Watertown,SD,57201,605-886-2754
Walth Trucking,1303 S 8th Street,Aberdeen,SD,57401,605-225-7908
Sogn Trucking,48368 293rd Street,Hudson,SD,57034,605-984-2139
Houck Trucking,P O Box 482,Mobridge,SD,57601,N/A
Heiter Trucking,330 N 3rd St,Emery,SD,57332,605-449-4706
Philip Livestock Express,220 Henry Ave,Philip,SD,57567,605-859-2169
Quint-c-acres,38552 165th St,Ashton,SD,57424,605-472-2134
Bill Desy Trucking,27613 467th Ave,Lennox,SD,57039,605-647-2993
H&r Distributing,5517 N Cliff,Sioux Falls,SD,57101,507-825-5204
Steve Schipper Trucking,310 S Center,Flandreau,SD,57028,605-997-5151
Moen Trucking,Box 146,Colton,SD,57018,605-446-3460
"Harmon Trucking Company, Inc.",4719 Gateway Circle,Sioux Falls,SD,57107,605-543-5998
Howie Trucking,Howie Lane,White Owl,SD,57792,605-985-5440
"Yauney Trucking, Inc.",39650 Us Hwy 14,Huron,SD,57350,605-350-3260
3dm Trucking,28451 382nd Avenue,Lake Andes,SD,57356,605-337-9529
Peters Trucking,106 Birch Street,Wagner,SD,57380,605-384-3185
Kruse Grain Company,211 Sherwood Ave,De Smet,SD,57231,605-854-3156
Blacksten Trucking,416 N Edmunds,Mitchell,SD,57301,605-995-5037
Houseman Trucking,300 South 6th Avenue,Lake Andes,SD,57356,800-822-4331
Charity Wagon Trucking,21523 Us Hwy 281,Virgil,SD,57379,605-280-4361
Wise Trucking,1113 S Courtland,Chamberlain,SD,57325,605-734-6645
Melvin Polzin Trucking,Rr 1 Box 131,Estelline,SD,57234,605-873-2841
Cem Trucking,41340 257th St,Mitchell,SD,57301,605-359-5339
Kron Trucking,2204 N Ellis Rd,Sioux Falls,SD,57107,605-332-6801
Rpj Trucking,Rr1 - Box 9,Renner,SD,57055,605-339-1353
Wood Trucking,21 N 9th Avenue,Belle Fourche,SD,57717,605-892-3055
Double L Express,Country Acres Trailer Court,Yankton,SD,57078,605-665-0118
Bridge City Transportation,1019 So Lawson,Aberdeen,SD,57401,605-262-1152
L & J Log Hauling,720 5th Street,Spearfish,SD,57783,605-642-5093
Mahrt Trucking,109 E Main St,Oacoma,SD,57365,605-234-5753
Roger Allen Trucking,29 20th St Sw,Watertown,SD,57201,605-753-6326
Charles Mcmanus Trucking,1213 S Main,Chamberlain,SD,57325,605-734-5728
Central Prairie Express,307 East Berry/hwy 20,South Shore,SD,57263,605-756-4358
E & J Trucking,118 S Allen Box 166,Colman,SD,57017,N/A
Billy Jay Express,1120 Spencer St,Gregory,SD,57533,605-830-2564
"Larson Trucking, Inc.",2959 East Hwy 12,Mobridge,SD,57601,605-845-2357
Live Bottom Trucking,E Hwy 14-box 558,Huron,SD,57350,605-352-5943
H & N Trucking,45512 166 St,Watertown,SD,57201,605-886-9476
J W Nowitzki Trucking,1641 Ames No 2,Spearfish,SD,57783,605-642-3719
Ritter Trucking,904 S Washington St #3,Aberdeen,SD,57401,605-955-3349
Ray Sellner Trucking,604 Garfield,Ree Heights,SD,57371,605-943-5584
Goodman Trucking,306 N Grace St,Chamberlain,SD,57325,605-734-6700
Pfaff Trucking,30150 368th Ave,Fairfax,SD,57335,605-654-2350
Johnson Trucking,11152-213th Ave,Keldron,SD,57634,605-524-3332
Dave Aune Trucking,Rr1 - Box 103,Mission Hill,SD,57046,605-665-6604
Dead Animal Service,Rr2 - Box 179,Rosholt,SD,57260,605-537-4255
Keith L Swearingen Trucking,104 Hickory,Langford,SD,57454,605-493-6566
Brandin Iron Trucking,212 Splitrock,Brandon,SD,57005,605-582-3961
"Doyle Trucking, Inc.",20172 437th Ave,Desmet,SD,57231,605-847-4186
Hanson Trucking,11814 461st Ave,Sisseton,SD,57262,605-698-7833
Gary Smikrud Trucking,301 Dougan Ave Box 69,Oacoma,SD,57365,605-889-2449
Xlx Press Transportation,580 18th St Se,Huron,SD,57350,605-350-2174
Hanson Trucking,1748 Junction Ave,Sturgis,SD,57785,605-347-3551
Cadman Trucking,768 Dudley St,Sturgis,SD,57785,605-837-2700
G Hoffman Trucking,Hc - Box 6,Bowdle,SD,57428,605-285-6829
Fox's Electronic & Tower Service,2607 Willow Avenue,Rapid City,SD,57701,605-341-7683
Lau Trucking,15120 455th Ave,Summit,SD,57266,605-398-6207
Isaac's Trucking & Implement,Box 296,Faith,SD,57626,605-967-2874
Al Kolb Trucking,6200 S Mogen Ave,Sioux Falls,SD,57108,816-387-3283
Deloof Trucking,405 N Needles,Brandon,SD,57005,605-582-2245
"D&m Transport, Inc.",3108 N Cypress Pl,Sioux Falls,SD,57104,605-331-4590
Jungers Trucking,Rr 1 Box 359a,Redfield,SD,57469,605-472-0246
Carlson Trucking,1501 S Airport Rd,Pierre,SD,57501,605-224-6100
Hoglund Transport,12067 429th Ave,Langford,SD,57454,605-493-6512
Dc Trucking,Lot 1- 25638-475th Ave,Renner,SD,57055,605-543-5278
Martin Trucking,1980 Country Rd Lot 90,Rapid City,SD,57701,605-415-0092
Locken Trucking,100 Main St,Isabel,SD,57633,605-466-2458
Cemetery Services,18512 Us Hwy 85,Belle Fourche,SD,57717,605-892-4827
Rice Trucking,301 Cambell St,Rapid City,SD,57701,605-342-2242
Thunder Livestock Express,29699 Deer Lane,Martin,SD,57551,605-685-6592
Steve Baum Trucking,1400 4th Ave Nw,Watertown,SD,57201,605-886-5187
Bad River Express,902 W Cedar,Fort Pierre,SD,57532,605-223-2629
Hageman Trucking,113 N Section Line,Howard,SD,57349,605-772-4351
Roberts Construction,44084 Sd Hwy 28,Bryant,SD,57221,605-628-2544
Lockhart Mobile Home Transport,12698 E Cascade Mountain Rd,Hot Springs,SD,57747,605-745-6800
D & D Rentals,851 Catron Blvd,Rapid City,SD,57709,605-341-0595
Vandersnick Trucking,42608 219th St,Carthage,SD,57323,605-354-0100
Ross Collins Trucking,1860 Lombardy Dr,Rapid City,SD,57701,605-342-2705
Regional Transport & Distribution,Box Aa,Edgemont,SD,57735,605-662-6644
Dakota Transformers,1000 W Elm Ave,Flandreau,SD,57028,605-997-3971
Flatland Express,25098 412th Ave,Mitchell,SD,57301,605-996-1138
M F D Transportation,Box 3,Gary,SD,57237,N/A
Mewes Trucking,14407 Taron Ct,Rapid City,SD,57701,605-852-2053
Lerseth Feed Service,47219 307th St,Beresford,SD,57004,605-253-2301
Magic Acre Farm,710 W Anton Ave,Flandreau,SD,57028,605-997-2918
Wrangler Trucking,Rr 1 Box 451,Belle Fourche,SD,57717,605-347-4263
Peterson Trucking,Landmark St,Eagle Butte,SD,57625,605-964-4544
Westin Septic Service,904 E Main,Elk Point,SD,57025,605-351-7867
E C Bullis Trucking,Rr 4 Box 130,Sioux Falls,SD,57107,N/A
Northstar Express,800 N Shepherd Ave,Sioux Falls,SD,57103,605-376-7091
Real Mccoy Trucking,8703 Dunsmore Rd,Rapid City,SD,57702,605-348-2159
L & K Moving,1403 9th S W,Aberdeen,SD,57401,605-225-9216
Steve's Auto,16451 444 Ave,Florence,SD,57235,605-758-2565
Glen Van Dyke Grain Service,311 West Park Ave,Flandreau,SD,57028,605-334-9278
Landis Trucking,26919 Sd Hwy 20,Trail City,SD,57657,605-845-2835
Talbotts Honey Transportation LLC,100 South Bradford,Kimball,SD,57355,605-778-6427
Myron Trucking,31398 457th Ave,Meckling,SD,57044,605-624-8248
Dakota Freightways,240 Railroad Street,Brookings,SD,57006,605-697-7101
Aberdeen Truck Terminal,2 N Dakota Street,Aberdeen,SD,57401,605-225-4260
Petersen Trucking,25383 405th Ave,Mitchell,SD,57301,605-996-4643
Lorenz Trucking,Rr 1 Box 450,Belle Fourche,SD,57717,N/A
Jim Olson Trucking,1116 Columbus St D,Rapid City,SD,57701,605-381-1298
Leon Beitelspacher Trucking,13415 326th Ave,Bowdle,SD,57428,605-964-7514
Medearis Trucking,Hc 1 - Box 20,Wood,SD,57585,605-452-3341
Thomas Trucking,404 West Willow,Presho,SD,57568,605-895-2447
Doland Transport,202 Main St S,Doland,SD,57436,605-635-6172
Larry Rand Trucking,426 East 2nd Street,Parker,SD,57053,605-297-3193
Jerry Engels Trucking,512 S Broadway,Watertown,SD,57201,605-882-2934
Parsons,108 Commerical N,Blunt,SD,57522,605-962-6204
D & T 'dyn-o-mite' Moving,2501 S Villanova Ave,Sioux Falls,SD,57106,605-361-0440
D & G Farms,14073 353 Rd Ave,Roscoe,SD,57471,605-426-6539
Bunch Interstate Trucking,721 Dewey,Spencer,SD,57374,605-246-2474
Wow Transport,19436 Us Hwy 85,Belle Fourche,SD,57717,605-642-2721
Grabow Truck Sales,14772 Sd Hwy 15,Milbank,SD,57252,605-432-4726
Cornelius Trucking,P O Box 1642,Pine Ridge,SD,57770,605-867-5609
Propane Express Plus,906 Main St,Rapid City,SD,57701,605-923-6093
P & S Trucking,1800 W 7th Street,Mitchell,SD,57301,605-996-8588
Blaede Trucking,21 Pine St,Custer,SD,57730,605-673-4748
Second Chance Auto,Rr3 - Box 172c,Sioux Falls,SD,57106,605-368-2914
N & M Trucking,1116 Woodburn,Spearfish,SD,57783,605-642-1699
Martin Trucking,28040 Us Hwy 34/14,Fort Pierre,SD,57532,605-223-2704
Red Rock Express,48411 Red Rock Road,Valley Springs,SD,57068,605-582-6715
Taylor Trucking,3908 E 7th Street,Sioux Falls,SD,57103,605-335-8968
Jed Trucking,109 N 3 Rd,Crooks,SD,57020,605-543-5469
Hansen Trucking,45836 223rd St,Nunda,SD,57050,605-586-4213
Kling Ranch,Rr 1 Box 412,Belle Fourche,SD,57717,605-892-2246
Martin Trucking,Blvd Rd Rr 3,Ridgeview,SD,57652,605-733-2421
Evans Trucking,1537 W Farley,Sturgis,SD,57785,605-347-3584
Erickson Trucking,26613 462 Ave,Hartford,SD,57033,605-526-4405
Huff Trucking,Po Box 91,Wessington Springs,SD,57382,605-539-1192
Sph Hotshot,1208 8th Avenue,Belle Fourche,SD,57717,605-723-4245
Terry Gray,2601 S Minnesota Ave Suite 105,Sioux Falls,SD,57105,605-323-5163
Great Plains Transport LLC,Po Box 453,Bath,SD,57427,605-380-5846
Sell Trucking,29921 269th St,Carter,SD,57580,605-879-2415
Dz Trucking,22886 Sd Hwy 45,Gann Valley,SD,57341,605-293-3205
G & S Farm,41404 224th St,Artesian,SD,57314,605-772-5160
Canaday Granite Surfaces,3449 W Rapid St,Rapid City,SD,57702,605-381-7141
Moe Farms,24505 422nd Ave,Alexandria,SD,57311,605-239-4711
Loniie Hawthorne Trucking,702 W 3rd St,Dell Rapids,SD,57022,605-212-7024
Hilltop Feeders,46756 152nd St,Twin Brooks,SD,57269,160-543-2417
Circle V Trucking,30384 278th St,Winner,SD,57580,605-879-2017
Bohlmann Excavating And Trucking,12039 Lonely Boy,Deadwood,SD,57732,605-578-9760
Robert Jahner Trucking,13650 Busted Five Lane,Rapid City,SD,57702,605-431-2608
Cts,1205 N Fir Pl,Sioux Falls,SD,57107,605-941-7302
"Groundwater, Inc.",717 E Woodlawn Dr,Sioux Falls,SD,57105,605-271-0494
Aniway Fruit & Produce,12646 Dana Rd,Hot Springs,SD,57747,605-745-5812
Dh Custom Baling,1119 Copper Mtn Rd,Brookings,SD,57006,605-430-1496
Chisum Hofer Trucking,1171 Simmons Ave Se,Huron,SD,57350,605-350-1296
Heart K Trucking,19594 Whitewood Valley Rd,Whitewood,SD,57793,605-645-7241
Potratz Contracting Services,105 N Hwy 105 Lot 9,North Sioux City,SD,57049,712-898-6028
Rl Construction & Design,23851 Hwy 385,Hill City,SD,57745,605-574-9550
North Hills Recycling Center,10870 Us Highway 212,Belle Fourche,SD,57717,605-722-1807
"H & K Oil, Inc.",1207 E Hwy 50,Yankton,SD,57078,605-665-2531
"Gossard Dirtwork, Inc.",22014 New Underwood Road,New Underwood,SD,57761,605-754-6760
A-tech Sewer,5737 8th Ave Sw,Watertown,SD,57201,605-886-4225
Ironman Construction,41702 Hwy 52,Tyndall,SD,57066,605-464-8951
Porter Ranch,Box Z,Edgemont,SD,57735,605-662-7934
C & L Farms,15038 481st Ave,Milbank,SD,57252,605-432-6746
Bottoms Up,25989 482nd Ave,Brandon,SD,57005,605-582-2938
Easton Ranch,38278 238th Street,Wessington Springs,SD,57382,605-539-9051
Rinehart Trucking,43772 268th St,Bridgewater,SD,57319,605-729-2725
Absolute Transport,208 4th Street,Hosmer,SD,57448,605-252-0059
Christensen Real Estate,408 Pine Ave,Presho,SD,57568,605-895-5263
Dgj Trucking,5901 W Silver Valley Dr,Sioux Falls,SD,57106,605-770-6466
Z Coil Pain Relief Footwear,1800 W 41st,Sioux Falls,SD,57105,605-338-0180
Truck World Of Sioux Falls,1000 E Walnut St,Sioux Falls,SD,57103,605-330-8661
7 N Ranch,16144 Lily Cr Rd,Faith,SD,57626,605-748-2012
Freshstart,2726 First Ave,Spearfish,SD,57783,605-722-5850
Captains Commodity Carriers,2532 S Center Ave,Sioux Falls,SD,57105,605-728-6990
The Fence Company,4244 1/2 Canyon Lake Drive,Rapid City,SD,57702,605-342-3021
K L F Trucking,28911 420th Ave,Scotland,SD,57059,605-690-0115
Pearsonl Services,204 S Oak Ridge Rd,Brandon,SD,57005,605-376-0790
Sales Rep,2011 South Minnesota Ave,Sioux Falls,SD,57106,605-331-1404
N S Trucking,2232 S Purdue Ave,Sioux Falls,SD,57106,605-212-6877
Kruse Trucking,1009 Mulberry St,Yankton,SD,57078,605-665-3767
Twenty X Express,20031 398th St,Huron,SD,57350,605-350-3568
Dc Farms,47835 229th St,Flandreau,SD,57028,605-997-2593
Wolf Creek Enterprises,18236 438th Ave,Vienna,SD,57271,605-628-2544
Rc Drake,514 Americas Way Pmb 2590,Box Elder,SD,57719,307-286-0228
J & I Farms,22945 402nd Ave,Woonsocket,SD,57385,605-796-4941
K & H Sales,2012 Cedar St,Yankton,SD,57078,605-661-2357
Runaway Livestock,450 Lonetree Road,Belle Fourche,SD,57717,605-641-4010
Et,121 State St,Irene,SD,57037,605-677-7370
Activetrans,4700 E 6th St Num 304,Sioux Falls,SD,57110,605-595-8036
Taylor Trucking,2304 S Jefferson Ave,Sioux Falls,SD,57105,605-496-5879
Labrier Ranch,24694 268th Ave,Murdo,SD,57559,605-669-2606
Mead Lumber,113 West Main Street,Vermillion,SD,57069,605-624-2655
Mead Lumber,102 N Main,Winner,SD,57580,605-842-3388
Mead Lumber,2409 Broadway Avenue,Yankton,SD,57078,605-665-9651
Opp Forage LLC,401 5th St,Eureka,SD,57437,605-284-5224
Hatheway Trucking,266 East Rr St,Draper,SD,57531,605-669-3302
Mark Meier,24882 397th Ave,Mount Vernon,SD,57363,605-630-0240
Sign Service & Supply,10040 Pioneer Avenue,Rapid City,SD,57702,605-342-5008
Black Hills Connections,23165 Justice Lane,Rapid City,SD,57703,605-718-9518
B & M Transportation,3700 S Westport Ave #4076,Sioux Falls,SD,57104,605-310-7916
Dave's Salvage,21734 445th Ave,Oldham,SD,57051,605-482-9620
Bowar Transportation,834 N Columbia Cir,Sioux Falls,SD,57103,605-360-5494
T H E Trucking,30821 424th Ave,Tabor,SD,57063,605-464-0139
Weber Body Shop,604 7th Avenue,Britton,SD,57430,605-448-2398
Iron Cloud Trucking,Box 172,Porcupine,SD,57772,605-441-2914
Mw Towing & Automotive Services,114 Douglas Ave,Yankton,SD,57078,605-668-9177
Four K's Trucking,26437 456th Ave,Humboldt,SD,57035,605-231-0561
R & R Farms & Trucking,103 N 7th Ave,Woonsocket,SD,57385,605-933-2018
Triple P Trucking,507 Lincoln Dr,Alcester,SD,57001,605-934-2310
Vm Trucking,1907 E 33rd St N,Sioux Falls,SD,57104,605-212-1905
T & S Transport,320 9th Ave Sw,Aberdeen,SD,57401,605-290-6619
Beldin Trucking,409 Boxelder St,Valley Springs,SD,57068,605-757-6369
D & R Grain Hauling,900 N Harlem,Sioux Falls,SD,57104,605-366-4062
Schaffer Farms,3103 6th Ave,Selby,SD,57472,605-649-6377
Jim Paisley,12677 Eden Rd,Whitewood,SD,57793,605-645-2539
Dukes Services,12376 Pony Express Place,Custer,SD,57730,605-673-5779
Ark Express,606 1st St,Lesterville,SD,57040,605-364-7355
Bulldog Transport,47049 152nd St,Twin Brooks,SD,57269,605-432-7876
"Bed Rock Contracting, Inc.",Pobox 1402,Huron,SD,57350,605-352-0785
Transport Solutions Xpress,1702 6th Ave Sw,Aberdeen,SD,57401,605-725-5522
Falls Nusery,1801 West 70th Street North,Sioux Falls,SD,57107,605-335-7245
Clint Montgomery Trucking,10626 Sourdough Rd,Belle Fourche,SD,57717,605-210-3512
Jlj Farm And Truck,1608 S Monticello Ave,Sioux Falls,SD,57106,605-376-3208
Lake City Transport,1037 4th St Ne Apt 2,Watertown,SD,57201,605-753-5554
Tri State Utilities,27871 471st Ave,Worthing,SD,57077,605-360-6667
Repairs Andices Serv,46447 183rd St,Castlewood,SD,57223,585-765-5050
P Jennings Asphalt,1601 Mt Rushmore #326,Rapid City,SD,57701,817-798-9914
Reese Trucking,27086 Mueller Pl Ste West,Sioux Falls,SD,57108,605-368-9872
J Christensen Transport,"Rural Route #2, Box 324",Yankton,SD,57078,605-661-0174
Sunshine Towing,3226 W Fairgrounds Loop Rd,Spearfish,SD,57783,605-642-9095
Lazy H Ranch,20389 295th St,Martin,SD,57551,605-685-2048
Wittenberg Wood Products,28335 426th Ave,Olivet,SD,57052,605-387-5167
M Bar M,25543 374th Ave,White Lake,SD,57383,605-249-2665
Terry Bertram Trucking,310 W Sixth St,Colome,SD,57528,605-840-1251
Aces High Towing,2203 Seger Drive,Rapid City,SD,57701,605-388-3469
Jdk Trucking,31770 475th Avenue,Elkpoint,SD,57025,605-356-3131
Andersons Towing,6200 West 12th Street,Sioux Falls,SD,57107,605-339-6199
Johnson Livestock Relocation,34590 282nd St,Burke,SD,57523,605-775-2176
Kelley Trucking,923 10th Ave Lot 5,Belle Fourche,SD,57717,605-723-1525
Hove Transport,10756 Halle Rae Lane,Belle Fourche,SD,57717,605-431-6647
American Trucking,112 East Center St Suite 787,Madison,SD,57042,517-507-0612
Eddie Wood Enterprises,997 Hwy 105 N,N Sioux City,SD,57049,712-204-7118
Johnson Seamless Gutter,413 Burleigh St,Yankton,SD,57078,605-260-0694
Rock Bottom Industries,180 Beaver Beach Road,Utica,SD,57067,605-665-2372
Auto Works,819 E North St,Rapid City,SD,57701,605-341-9700
Seedpartners,1716 Torrey Pines,Brookings,SD,57006,605-480-2965
L B Ranch,22654 151st Ave,Box Elder,SD,57719,605-381-6756
Tegantvoort Honey,18506 483 Ave,Gary,SD,57237,605-876-2951
Matt Johnson Trucking,100 N 1st St,Groton,SD,57445,605-397-4430
Kl Deliveries,909 W 15th Street,Yankton,SD,57078,100-555-1000
Maas Trucking,1842 Westminster Ave,Watertown,SD,57201,605-881-0244
A-lanes,27095 Deer Hollow Court,Harrisburg,SD,57032,605-759-6543
Custom Concrete LLC,110 N Rockford Rd,Pierre,SD,57501,605-280-1646
Crazy Cruizer,207 E Summit St,Lead,SD,57754,605-645-9958
Key Kargo,514 Americas Way 4155,Box Elder,SD,57719,910-581-2347
Hh Trucking,25941 440th Ave,Canistota,SD,57012,605-770-2110
Lehman Trikes Usa,125 Industrial Dr,Spearfish,SD,57783,605-642-2111
Kinsella Trucking,2251 E Hwy 14,Pierre,SD,57501,605-222-9616
Scott's Trucking,15332 485 Ave,Milbank,SD,57252,605-237-1111
Gores Trucking,812 Walnut St,Springfield,SD,57062,605-369-2031
Beskow Trucking,1112 176th Street,Bemis,SD,57238,605-520-0187
Keith Baker Trucking,18685 Sd Highway 79,Newell,SD,57760,605-645-9360
All State Transport,4013 W 92nd St,Sioux Falls,SD,57108,605-275-0723
Ronald D Blachford,43804 206th St,Desmet,SD,57231,605-854-9160
Dakota Pc Warehouse,115 Gateway Drive,North Sioux City,SD,57049,605-232-1003
Adair Drilling,1414 Bennett Ave,Martin,SD,57551,605-685-2083
Michlitsch Farms,11564 434th,Lake City,SD,57247,605-448-5422
Northstar Express,4700 E 6th St Apt 306,Sioux Falls,SD,57110,605-400-4600
Smoken Dakota Kennels,46573 269th St,Sioux Falls,SD,57106,605-201-1200
Ms Trucking,2101 E 31st St N,Sioux Falls,SD,57104,605-400-4336
Performance Windows & Exteriors,4704 Butte Ct,Rapid City,SD,57703,605-716-1785
Eric's Auto,6042 Terra Ct,Black Hawk,SD,57718,605-430-5259
Allure Trucking Company,2506 N Evy Avenue,Sioux Falls,SD,57107,605-275-2179
Rwf Trucking,3841 N Gemini Dr,Sioux Falls,SD,57104,605-868-1642
Highland Hauling,526 E Hudson St Apt 3,Spearfish,SD,57783,605-645-5516
T And A,222e Park Ave,Howard,SD,57349,605-772-5274
Combined Pool And Spa,3520 S Western Ave,Sioux Falls,SD,57105,605-334-6659
Schindler Family Farms,32880 241st St,Reliance,SD,57569,605-473-5410
D & E Transport,333 Polk St,Winner,SD,57580,605-842-1170
Ketzner Welding,1730 Green Meadows Dr,Piedmont,SD,57769,605-858-0834
Black Beard Trucking,101 3rd Street,Martin,SD,57551,605-685-6655
Sky Ranch,Hcr 64 Box 6,Timber Lake,SD,57656,605-865-3620
Hardcore Customs,11597 Sica Hollow Rd,Sisseton,SD,57262,605-880-9301
Verhulst Bikes N Trikes,11090 W Hwy 44,Rapid City,SD,57702,605-415-2795
Beds & Beds,3508 W 41st Street,Sioux Falls,SD,57106,605-362-7711
Windy Ridge Ranch,21674 487 Ave,Elkton,SD,57026,605-542-3251
Zoomfix Llp,416 Augustana Ave,Harrisburg,SD,57032,605-941-7479
Herrmann Trucking,405 Noid St,Canton,SD,57013,605-595-2546
Boss Oil Field Services LLC,20892 Sd Hwy 44,Interior,SD,57750,605-381-6627
Sagebrush,20514 437th Ave,De Smet,SD,57231,605-203-0161
Jake Herrig,530 Elm St Apt 74,Vermillion,SD,57069,507-227-4228
Brent Thompson Feedyard,21883 Sd Hwy 13,Elkton,SD,57026,605-690-8856
Good Earth,28318 466th Avenue,Lennox,SD,57039,605-376-0819
Brulehof,47553 319th St,Elk Point,SD,57025,605-356-3001
"Hlavka, Inc.",725 S Phillips Ave,Sioux Falls,SD,57104,605-988-7032
D & L Trailer Sales,305 Hillview Dr,Box Elder,SD,57719,605-923-5178
Baumberger Excavating,105 N Main,Trent,SD,57065,605-428-4572
Performance Horse & Hay Ranch,43668 Sd Hwy 25,Roslyn,SD,57261,605-486-4245
Edwards Signs,107 S University Street,Vermillion,SD,57069,605-868-1165
Tmj Distributing,600 East 29th,Yankton,SD,57078,605-660-2893
Open Range Trucking,18205 Opal Rd,Opal,SD,57758,605-748-2490
Temptations Food,925 Katherine St,Vermillion,SD,57069,605-868-0706
Bdct,204 Meadowlark,Pierre,SD,57501,605-222-6205
Concrete Raising Service,47027-272 St,Tea,SD,57064,605-351-6164
1st Choice Executive,927 E 8th St,Sioux Falls,SD,57103,605-521-2999
Cts Trucking,371 E 1st Street,Parker,SD,57053,605-351-9934
Demeester Welding & Fabrication,604 Saint Gregory St,Harrisburg,SD,57032,605-940-7219
Wills Dryer And Kilm LLC,31738 468 Av,Burbank,SD,57010,605-670-1066
Jeff Yexley Trucking,42886 157th Street,Bradley,SD,57217,605-784-3010
Baier Farms,27704 399th Ave,Delmont,SD,57330,160-577-9202
Muller Farms,28571 459th Ave,Davis,SD,57021,605-351-0891
Roger Willard,46316 249th Street,Colton,SD,57018,605-446-3822
Wilson Grain Farms,12870 Bighorn Road,Sturgis,SD,57785,605-347-5584
Ceplecha Trucking,28997 215th Ave,Martin,SD,57551,605-441-0317
Knutson Trucking,19192 136th Ave,Vale,SD,57788,605-858-8020
Advanced Asphalt Services,47073 Us Hwy 18,Lennox,SD,57039,608-395-9291
Gant Mineral Company,25846 320th Ave,Hamill,SD,57534,605-842-3490
Wolles Mfg LLC,47060 245th,Dell Rapids,SD,57022,605-941-5200
Degrey Trucking,21448 Catfish Place,Pierre,SD,57501,605-222-8496
Lb Timber,1530 Mcdermott Rd,Spearfish,SD,57783,307-751-0351
W-s Trucking,27401 Oral Rd East,Oral,SD,57766,605-424-2589
Kvmansheim Bros LLC,32330 282nd St,Colome,SD,57528,605-840-4926
Dakota Hills Trailer Sales,13052 Fall River Rd,Hot Springs,SD,57747,605-745-7047
Ac Transport,4400 W Custer Ln,Sioux Falls,SD,57106,605-201-2815
Northern Hills Golf Car,3214 E Fairgrounds Lp Ste B,Spearfish,SD,57783,605-645-2808
Dakota Tank & Containment LLC,2323 3rd Ave Se,Aberdeen,SD,57401,605-225-1680
Dagwood Trucking,37221 Us Hwy 212,Redfield,SD,57469-5300,605-472-0557
Box Canyon Honey Company,24674 Outback Trail,Hermosa,SD,57744,605-255-5635
Caravan Express,611 N 1st St Apt 1,Aberdeen,SD,57401-2704,605-216-6937
Anderson Trucking,320 Iowa St,Centerville,SD,57014,605-661-5527
Swenson Trucking,305 2nd Ave S,Clear Lake,SD,57226,605-651-0071
Double T Trucking,8020 Blucksberg Dr,Sturgis,SD,57785,605-939-6162
Black Hills Patrol,807 Columbus Street Suite 4,Rapid City,SD,57701,605-342-1147
"United Tent And Convention, Inc.",46975 Mindy St,Tea,SD,57064,605-213-0094
R & P Express,29950 446 Ave,Volin,SD,57072,605-665-7049
Sam Heine Well Company LLC,3111 Shiptons Rd,Yankton,SD,57078,605-689-2600
Kr Trucking,46801 184th St,Clear Lake,SD,57226,605-874-2856
Handy Andy,1512 N Conifer Pl,Sioux Falls,SD,57107,605-988-4931
Us Transport,512 N Walts Ave,Sioux Falls,SD,57104,605-354-2159
Used Cars Dealership,46952 Monty Street Suite 3,Tea,SD,57064-0566,605-651-2271
Two Buckets,7301 W Prairie Rose St,Sioux Falls,SD,57107,605-366-6573
Outlaw Cattle Company,907 S State St #2,Aberdeen,SD,57401,605-228-2902
Walth Trucking,1303 S 8th St,Aberdeen,SD,57401,605-226-1264
Legacy Transport,7335 Wedgewood Drive,Black Hawk,SD,57718-6600,307-689-1010
Rhobet,4217 East 12th Street,Sioux Falls,SD,57103,517-507-0612
John Gamber Trucking,12925 Lohre Rd,Peever,SD,57257,605-228-3073
4t Cattle Ted Souvignier,803 E 2nd Str,Canton,SD,57013,605-660-3962
Block Trucking,3208 Joplin Lane,Rapid City,SD,57701,352-536-3664
Ast,4013 W 92nd St,Sioux Falls,SD,57108,605-929-3157
Mobile Mechanic,110 East Lincoln St,Beresford,SD,57004,605-957-5331
Landeen Haying,46767 301,Beresford,SD,57004,605-300-0041
Innovative Adjusters,727 Arrow Ave Ne,Watertown,SD,57201,605-868-3023
Kd Sindjeu,518 Duluth Ave #104,Sioux Falls,SD,57104,605-310-6736
Poet Big Stone,48416 144th St,Big Stone,SD,57216,605-862-7902
3 Point Trucking,800 3rd,Bridewater,SD,57319,605-999-7657
Gff Trucking,18446 357th Ave,Millder,SD,57362,860-815-0728
Poet Biorefining,40509 247th Street,Mitchell,SD,57301,605-996-1686
Iron Ranch Mfg,46293 Us Hwy 212,Watertown,SD,57201,605-520-0021
Badnation Ranch,29034 Sd Hwy 53,Wood,SD,57585,605-280-7314
Pettis Family Trucking LLC,400 S Sneve Ave #2,Sioux Falls,SD,57103,605-496-8668
Ch Trucking,37932 133rd St,Aberdeen,SD,57401,605-290-3361
Prairie Cartage,213 Third Ave S,Clear Lake,SD,57226,585-943-0257
Smi,700 E 48th St N,Sioux Falls,SD,57108,605-335-8600
J & D Enterprises,315 Second Avenue Se,Watertown,SD,57201,605-886-6900
Dakota West Trucking,802 5th Ave East,Mobridge,SD,57601,605-845-5028
J & D Enterprises,16590 455th Ave N,Watertown,SD,57201,605-886-6900
Putnam Business,46923 271st,Tea,SD,57064,605-759-3989
C & D Enterprises,1008 Howard St #157,Rapid City,SD,57701,605-584-2812
C M T Enterprises,3604 W Main St,Rapid City,SD,57702,605-343-1553
Harvey Enterprises,25827 460th Avenue,Humboldt,SD,57035,605-528-7370
Greg Halvorson Trucking,210 Railway St,Kennebec,SD,57544,N/A
Claussen Ranch,971 Creekside View Ln,Rapid City,SD,57701,605-388-3970
White Trucking,11310 455th Ave,Sisseton,SD,57262,605-698-4269
Larson Ranch,12475 426th A Avenue,Langford,SD,57454,605-493-6588
A & S Trucking,40038 James Road,Groton,SD,57445,605-228-8130
"Dakota Sandblast & Paint, Inc.",24043 463rd Avenue,Chester,SD,57016,605-489-2264
Millar Ranch,20659 Arikara Place,Pierre,SD,57501,605-280-3851
Circle Arrow Ranch,42360 193rd St,Willow Lake,SD,57278,605-625-3602
Stevens Harvesting & Trucking,110 10th Ave S,Faulkton,SD,57428,605-216-6860
Klm Exco,205 State St,Spearfish,SD,57783,605-645-1863
Jeff Ecker Transportation,202 Effie Ave,Twin Brooks,SD,57269,605-228-7446
Thiry Trucking,36933 252nd St,White Lake,SD,57383,605-213-6051
Tri State,25438 470th Ave,Crooks,SD,57020,605-359-0918
C Bar C Trucking,2855 Jolly Lane,Rapid City,SD,57703,605-484-4947
Erickson Trucking,103 Anchor Drive,Yankton,SD,57078,605-660-4155
Ideal Lee Loaded Trucking,1225 Harmony Circle,Spearfish,SD,57783,605-641-4941
Moonshine Trucking,211 East Clark St,Montrose,SD,57048,605-951-4274
Villmow Trucking,40513 Middle St,Mitchell,SD,57301,605-299-6573
G & R Transportation,914 Blue Ridge Rd Apt 3,Dell Rapids,SD,57022,605-321-5571
Kc Sammons Trucking,24570 Us Hwy 14,Midland,SD,57552,605-843-2199
Use As Farm Truck,240 161st Street,Garretson,SD,57030,507-597-2020
Geditz Trucking,708 4th Ave,Ipswich,SD,57451,605-377-3066
Hillside Trucking,45827 133rd St,Wilmot,SD,57279,605-938-4334
Ast Express,1536 S Frederick Dr,Sioux Falls,SD,57105,605-929-5287
Clear Trucking,30430 449th Ave,Volin,SD,57072,605-660-6019
Ken & Violet Zoss,707 W Chestnut St,Vermillion,SD,57069,605-659-4022
J & M Trucking,113 Main St,Langford,SD,57454,605-493-6727
Mw Express,431 Wisconsin Ave Nw,Huron,SD,57350,605-412-0040
Dz Transport,512 N Walts Ave,Sioux Falls,SD,57104,605-809-1445
Gold Carrier LLC,8016 W Browning St,Sioux Falls,SD,57106-7799,605-321-0922
A-max Trucking,415 S Maple,Watertown,SD,57201,605-881-3651
Mogck Trucking,111 E Maple,Parkston,SD,57366,605-645-8531
Insley Ranch,21081 Cheney Road,Creighton,SD,57790-6403,605-457-2244
Ladner Excavating & Trenching,11541 Ridley Rd,Saint Onge,SD,57779,605-645-9296
Tri-state Furnace And Vent Cleaning,44671 262nd Street,Canistota,SD,57012,605-296-3021
Neugebauer Welding LLC,720 1st Street,Scotland,SD,57059,605-583-4855
Floor To Ceiling,1205 Broadway Ave,Yankton,SD,57078,605-665-9728
Midland Publishing And Printing Co,203 S 3rd St,Milbank,SD,57252,605-432-1000
"Lottery Services, Inc.",3609 Marson Manor Cir,Sioux Falls,SD,57103,605-339-3046
The Window Shop,40809 465th Street,Ethan,SD,57334,605-227-4422
Lykken Hillview Farm,47345 307th Street,Alcester,SD,57001,605-253-2847
Trosper Tools LLC,832 Brookside Dr,Jefferson,SD,57038,712-490-2062
Lewis And Clark Ford,316 Capitol St,Yankton,SD,57078,605-664-2000
Iott's Green House And Gardens,48720 225th Street,Ward,SD,57026,605-997-2816
Louie's Cleaning & Disaster Restoration,314 Canby St,Vermillion,SD,57069,605-624-2485
Brozik Trucking,28677 Sd Highway 47,Gregory,SD,57533,605-830-2664
Summer's Attic,829 S Spring Ave,Sioux Falls,SD,57104,605-332-3466
Boar Wheel Company,27689 Us Hwy 385,Hot Springs,SD,57747,605-745-4722
Andrew,27395 381st Ave,Harrison,SD,57344-5300,605-884-6238
Thorstenson Ranch,12980 Cedar Rd,Selby,SD,57472,605-649-6262
"Baby Town, Inc.",3109 S Carolyn Avenue,Sioux Falls,SD,57106,605-361-8636
Schmitz Recycling,131 Sw Lake Drive,Arlington,SD,57212,605-521-5036
Master Blaster Master Burn,25782 Dawson Ave,Sioux Falls,SD,57107,605-543-5800
"Lacey Well Drilling, Inc.",47582 240th St,Dell Rapids,SD,57022,605-428-5979
Kv Welding,19183 Wetz Road,Vale,SD,57788-3025,605-456-1668
Schmidt Farm,48406 174th Street,Gary,SD,57237,605-272-5380
Hove's,46973 298th Street,Beresford,SD,57004-6251,605-957-4315
Rude's Home Furnishings,409 Main Avenue,Brookings,SD,57006-1935,605-692-4422
Rosies Trucking,33275 478th Ave,Jefferson,SD,57038-6819,712-281-2513
Rolling Hills Trucking,850 Rocky Rd,Rapid City,SD,57701,605-787-4283
Midwest Fresh Express,700 Quartzite Ave,Dell Rapids,SD,57022,605-428-4800
Timmy Time Trucking,36839 286th St ,Geddes,SD,57342-6635,605-491-4683
Lc High Plains Transport,809 Carleton Cir,Vermillion,SD,57069-1120,605-675-9088
133 Logistics LLC,35 W William St,Hazel,SD,57242,605-956-0682
"18 Wheeler Truck & Trailer Sales, Inc.",3201 Beale St,Rapid City,SD,57703,605-737-7861
"2 Guys On The Move, Inc.",3310 N Potsdam Ave,Sioux Falls,SD,57104,605-366-6683
2 Rivers Express LLC,205 Astrachan Ave Apt 3,Volga,SD,57071,515-513-3770
281 Transport LLC,17531 Us Hwy 281,Redfield,SD,57469,605-472-3510
3 B Services LLC,313 E Prairie St,Castlewood,SD,57223,605-793-2177
"3 C Of Brookings County, Inc.",48081 196th St,Astoria,SD,57213,605-832-3851
"3 Ds Trucking, Inc.",10425 394th Avenue,Frederick,SD,57441,605-377-3368
3 North LLC,14515 485th Ave,Big Stone Cty,SD,57216,605-862-6085
Demos Towing,854 5th Ave,Belle Fourche,SD,57717,605-641-5194
"4 Bar Transport, Inc.",20544 407th Ave,Huron,SD,57350,605-352-0602
4-brothers Transport LLC,5804 W 51st St,Sioux Falls,SD,57106,605-988-4330
48 State Association,106 N Veterans St,Flandreau,SD,57028,602-516-8500
4 J Trucking,30028 469th Ave,Beresford,SD,57004,605-957-4608
5d Transport,33720 164th St 33720 164th St,Seneca,SD,57473,605-436-6291
6 Mile Creek LLC,1619 30th St,Brookings,SD,57006,605-693-2058
605 Logistics LLC,2609 N Sweet Grass Ave,Sioux Falls,SD,57107,605-310-8954
605 Transport,27113 Independence Ave Ste A,Sioux Falls,SD,57108,605-251-3185
69trucking LLC,1428 5th St S,Brookings,SD,57006,708-940-3508
6oh5 Trucking LLC,317 W Sunnydale Rd,Box Elder,SD,57719,605-430-4243
7777lee Pawlowski,358350 221st,Gann Valley,SD,57341,605-293-3294
88transport LLC,504 N Broadway,Watertown,SD,57201,605-520-9688
A & B Welding Supply Co,914 E Chicago St,Rapid City,SD,57701-1740,605-343-5365
A & L Contractors LLC,3122 East Fairground Loop,Spearfish,SD,57783,605-642-3305
A & R Towing & Recovery,2040 East King Ave,Chamberlain,SD,57325,605-734-5523
A & S Transportation LLC,3017 N Francis St,Yankton,SD,57078,605-661-9349
"A 1 Drilling & Blasting, Inc.",12043 Coyote Ridge Road,Deadwood,SD,57732,605-578-1991
"A 1 Express Delivery Service, Inc.",3525 Ivy Avenue,Rapid City,SD,57701,605-341-2224
"A A Express, Inc.",1015 9th Avenue N,Brandon,SD,57005,605-582-2402
"A A Trucking, Inc.",9530 Sheridan Lake Road,Rapid City,SD,57702,605-341-4016
A B Prairie Auto,111 West 4th Street,Hosmer,SD,57448,605-283-2292
A Bar K Trailer Sales,1003 East Rice Street,Sioux Falls,SD,57103,605-335-8934
"A H Truck Salvage, Inc.",2858 Flack Lane,Rapid City,SD,57703,605-343-7116
A J Omara Group LLC,36 Deer Run Circle,Mccook Lake,SD,57049,605-242-4742
"A J Transportation, Inc.",15033 Sd Hwy 15,Milbank,SD,57252,605-432-9346
"A J Trucking, Inc.",5112 E 28th St,Sioux Falls,SD,57110,605-371-3636
A M Yardworks LLC,150 Rupp St,Hermosa,SD,57744,605-431-9204
A Martell Trucking LLC,908 Bill Baggs Rd Lot 7,Yankton,SD,57078,786-352-9386
A Plus Hauling LLC,1051 Park St 1051 Park St,Sturgis,SD,57785-2317,605-390-2520
A Plus Trucking LLC,39393 149th St,Mellette,SD,57461,605-887-3208
"A S B College Fund, Inc.",706 E 10th 3t,Dell Rapids,SD,57022,605-428-5512
A To B Trucking LLC,120 S Yellowstone Dr,Brandon,SD,57005,605-366-2937
A&a Trucking LLC,2601 E 8th St Apt 208,Sioux Falls,SD,57103,605-400-3836
A&a Logistics LLC,1015 9th Avenue,Brandon,SD,57005,605-582-2403
A&d Transportation Services LLC,4012 S Pisidian Ave,Sioux Falls,SD,57110,605-838-8246
A&g Trucking LLC,808 W Bailey St Apt 3,Sioux Falls,SD,57104,605-951-7365
A&h Trucking,7909 W Wilson Drive,Sioux Falls,SD,57106,605-743-4361
A&l Transport LLC,6001 S Cliff Ave Apt 107,Sioux Falls,SD,57108,816-872-6519
A&l Xpress LLC,105 S Main Ave,Presho,SD,57568,605-769-1891
A&w Services LLC,514 Americas Way # 19743,Box Elder,SD,57719,800-227-1210
A+plus Trucking LLC,39393 149th St,Mellette,SD,57461,605-887-3208
A-1 Carrier LLC,101 S Reid St Ste 307,Sioux Falls,SD,57103,786-603-8427
A-1 Pumping & Excavating LLC,25878 480th Ave,Brandon,SD,57005,605-582-6301
Kube Portable Storage,4900 N National,Sioux Falls,SD,57103,605-339-2747
"A-1 Sewer And Drain, Inc.orporated",22497 Elk Vale Rd,Rapid City,SD,57701,605-388-0889
"A-model Express, Inc.",706 Bill Baggs Road,Yankton,SD,57078,605-665-0909
Aaa Supply,24 7th Ave Sw,Aberdeen,SD,57401,701-500-2392
"Aamot Trucking, Inc.",47323 292nd St,Beresford,SD,57004,605-957-4238
Foothills Transportation,10568 Main St,Piedmont,SD,57769,605-381-0780
Mailloux Trucking,2033 12th Ave,Belle Fourche,SD,57717,605-723-0414
Aaron Michael Dahl,47142 188th St,Estelline,SD,57234,605-881-3632
Norton Trucking,105 Highway 47 North,Reliance,SD,57569,605-680-1704
Aaron Shockey,10698 Northern Hills Lane,Spearfish,SD,57783,605-642-5981
Double A Hauling,4307 S Banyan Ave,Sioux Falls,SD,57110,605-351-3733
Abbott Transport LLC,28431 Gobbler Lane,Smithwick,SD,57782,406-478-9852
Abcko Hauling LLC,41 W. Hwy 14 #172,Spearfish,SD,57783,N/A
Abel Freight Express,2817 S Glendale Ave,Sioux Falls,SD,57105,605-521-2368
Abel Trucking,31017 Apple Tree Rd,Tabor,SD,57063,308-539-7081
"Abeln Trucking, Inc.",40344 134th St,Groton,SD,57445,605-397-8113
Aberdeen Healthcare,1700 North Highway 281,Aberdeen,SD,57401,605-225-7315
Abernathy Trucking,5 Lester Lane,Spearfish,SD,57783,605-722-3783
Abernathy Trucking LLC,35062 224th St,Gann Valley,SD,57341,605-293-3420
Absolute Productions LLC,46881 274th Street,Lennox,SD,57039,605-368-2430
"Absolute Towing Recovery, Inc.",2303 Seger Drive,Rapid City,SD,57701,605-342-8685
Abz Trucking LLC,1113 Kingsbury St Apt 1,Belle Fourche,SD,57717-1958,701-770-7079
Academy Pork Llp,35820 273rd St,Platte,SD,57369,605-337-2630
Accelerators LLC,1104 E Cherry St # 144,Vermillion,SD,57069,817-471-7518
"Ace Excavating, Inc.",5011 S Glenview Rd,Sioux Falls,SD,57108,605-338-6781
"Ace Neon Signs & Service, Inc.",403 N Kiwanis Ave,Sioux Falls,SD,57104,605-336-7031
"Ace Trans, Inc.",519 W 22nd St Ste 100,Sioux Falls,SD,57105,605-789-5636
"Ace X-press, Inc.",808 Agate Ave,Brandon,SD,57005,605-582-7890
Acker Logistics LLC,3601 W Hughes Pl,Sioux Falls,SD,57108,605-496-5634
Acme Pallet,915 Clark St,Rapid City,SD,57701,605-348-8638
"Action Brokers, Inc.",208 West 9th Street,Sioux Falls,SD,57117,N/A
Alt Custom Farms,23128 408th Ave,Forestburg,SD,57314,605-770-8512
Boggs Trucking,111 Crook St,Custer,SD,57730,605-673-3059
Geppert Trucking,25504 424th Ave,Alexandria,SD,57311,605-239-4451
Adam Hartley Trucking LLC,16671 437th Avenue,Henry,SD,57243,605-532-3831
Monson Trucking,424 N Lloyd St,Aberdeen,SD,57401,605-380-1464
Aw Trucking,313 Wheelock St,Hudson,SD,57034-0257,712-551-6969
Adams Thermal Systems,47920 East 5th Street,Canton,SD,57013,605-764-1100
Adco Of South Dakota Ltd,4609 West 38th St,Sioux Falls,SD,57106,605-362-9415
Bn Transport,7805 W 48th St,Sioux Falls,SD,57106,605-789-0606
Advanced Moving,47140 243rd St ,Dell Rapids,SD,57022,605-333-6000
Arms LLC,152 Douglas Rd,Box Elder,SD,57719,605-391-3358
Adventure Transport LLC,1106 Omaha St,Belle Fourche,SD,57717,605-381-2280
Lincoln,420 N Jenny Ave,Tea,SD,57064,941-584-9868
Affordable Trees By Tony LLC,8020 Blucksberg,Sturgis,SD,57785,605-939-6162
After Dark Trucking LLC,811 Pine St,Springfield,SD,57062,605-661-4991
"Ag Opportunities, Inc.",1919 West Cherry,Vermillion,SD,57069,605-624-6240
Ag Systems West,609 West 9th Street,Winner,SD,57580,515-338-0359
"Agan Drywall Supply, Inc.",2609 S Carolyn Ave,Sioux Falls,SD,57106,605-361-6210
"Agan Drywall Supply Rapid City, Inc.",2444 Emerson Lane,Rapid City,SD,57701,605-341-6210
Agland Coop,115 S First,Parkston,SD,57366,605-928-3381
Agrat2 LLC,1000 N Mary Ave,Tea,SD,57064,605-212-3476
Dakota Farm Service,306 4th St,Hecla,SD,57446,N/A
Agricare Nutrition LLC,1801 N Cliff Ave,Sioux Falls,SD,57103,605-334-6723
"Agsource, Inc.",55 Dakota Ave N,Huron,SD,57350,605-353-9546
Agtegra Cooperative,908 Lamont Street South,Aberdeen,SD,57401-5155,605-883-4317
Agventure Scherrs Seed LLC,13464 335th Ave,Roscoe,SD,57471,605-287-4170
"Aiit Transport, Inc.",3200 N Galaxy Ln,Sioux Falls,SD,57107-2005,605-332-1119
Aimasa Transport LLC,1800 S Stephen Ave Apt 6,Sioux Falls,SD,57103,605-254-1459
Air Land Freight LLC,2415 Creek Dr,Rapid City,SD,57703,605-341-2101
"Ait Transport, Inc.",804 N Mayfield Pl,Sioux Falls,SD,57107,605-553-8668
Aj Tower Services LLC,1222 Pasque Cir,Yankton,SD,57078,605-660-1789
Ajar Family Farm LLC,503 E Wold,Veblen,SD,57270,605-738-2155
"Aker Agency, Inc.",722 14th Street,Sturgis,SD,57785,605-347-4950
Aker Woods Company,14347 Mahaffey Dr,Piedmont,SD,57769,605-390-6515
Al's Concrete,30325 360th Ave,Bonesteel,SD,57317,605-842-6217
Dakota Service,214 Front Street,Brookings,SD,57006,605-692-7545
Al Trask,21125 Dalzell Rd,Elm Springs,SD,57791,605-515-0631
Al's Trucking,46553 Sd Hwy 44,Lennox,SD,57039,N/A
"Aladdin Financial, Inc.",300 N Dakota Ave Suite 116,Sioux Falls,SD,57104,605-951-9005
Alan Aspaas,47520 258th,Renner,SD,57055,605-941-7889
Aughenbaugh,21024 421st Avenue,Iroquois,SD,57353,605-546-2485
Truck It,18966 Brown Ave,Estelline,SD,57234,605-361-7246
Groom Trucking,43455 114th St,Lake City,SD,57247,605-520-2165
Alan Otterstrom,40588 Tiede Place,Mitchell,SD,57301,605-999-5208
"Rasmussen Trucking, Inc.",45535 291st,Viborg,SD,57070,605-326-5506
Mt Vernon Honey Company,104 S Main,Mt Vernon,SD,57363,605-236-5569
Mnm Trucking,27753 Sd Highway 11,Canton,SD,57013-5528,605-743-4305
Wieseler Trucking,19870 363rd Ave,St Lawrence,SD,57373,605-853-2875
Zieg Trucking Co,22470 Bennett Road,Rapid City,SD,57701,605-343-4055
Z & S Dust Control,22470 Bennett Rd,Rapid City,SD,57701,605-343-4055
Pond Trucking,Old Sawmill Rd,Custer,SD,57730,605-673-2970
Albert Richardson,37632 286 Th Street,Geddes,SD,57342,605-680-2103
A&y,908 Bill Baggs Rd Lot 7,Yankton,SD,57078,305-988-3706
"Albrecht Trucking, Inc.",43484 218 Th St,De Smet,SD,57231,605-854-3489
Aldrich Trucking,24354 Sd Hwy 19,Madison,SD,57042,605-321-5542
Av Transportation,715 N Shawnee,Sioux Falls,SD,57103,605-310-2188
Eagle Express,701 North Colton Road,Hartford,SD,57033,605-359-7837
Alex Monich,704 Shawnee,Sioux Falls,SD,57103,605-376-7167
S & A Logistics,1305 N Cleveland #12,Sioux Falls,SD,57103,605-376-4447
Alex Trucking,4201 E 12th St Apt 7,Sioux Falls,SD,57103,605-360-7182
Startransauto,6609 W 66th St,Sioux Falls,SD,57106,605-359-1215
Blackpipe Trucking,20951 Hisle Rd,Martin,SD,57551,605-441-4355
Aliaksandra Trucking LLC,2710 Wilkie Dr,Rapid City,SD,57702,920-904-6560
"All Nations Transportation Services, Inc.",5608 W Meridian Pl,Sioux Falls,SD,57106,605-376-4243
All State Transport LLC,4013 W 92nd St,Sioux Falls,SD,57108,605-809-5762
"All States Concrete Cutting Sd, Inc.",47062 98th Street,Sioux Falls,SD,57108,202-521-1484
All Ways Trucking LLC,309 E 20th St,Sioux Falls,SD,57105,605-521-4125
Allegiant Logistics LLC,3916 N Potsdam Ave # 395,Sioux Falls,SD,57104,714-412-3485
Allen Duprel Ranch,Hc75 Box 436,Sturgis,SD,57785,605-347-4324
A Bar K,25432 478th Ave,Garretson,SD,57030,605-594-6321
Schoenfish Trucking,28255 431st Ave,Menno,SD,57045,605-387-5521
Walth Trucking,1303 South Eighth Street,Aberdeen,SD,57401,605-226-1264
Ammi,1111 N Cliff Ave,Sioux Falls,SD,57103,605-338-7021
Changing Lanes Transportation Brokers,1533 Nw 2nd St.,Madison,SD,57042,605-427-1016
"Allstar Logistics, Inc.",2220 E. 54th St. North,Sioux Falls,SD,57104,605-357-0008
"Allstar Transportation Services, Inc.",2220 East 54th Street North,Sioux Falls,SD,57104,180-041-6782
Sunshine Logistics,121 Fisk Avenue,Newell,SD,57760,605-456-2947
Al Smith Transportation,121 Fisk Ave,Newell,SD,57760,605-456-2947
Alpena Coop Service,831 Main St,Alpena,SD,57312,605-849-3341
Alpha Quality Logistics LLC,4825 Hickock Trl,Rapid City,SD,57702,605-519-8124
"Alphabet Logistics, Inc.",401 E 8th St Ste 214 Pmb 7062,Sioux Falls,SD,57103,520-838-1338
"Alpine Trucking, Inc.",11517 Nemo Rd,Rapid City,SD,57702,605-343-7726
Alpine Truss LLC,27709 Tschetter Ave,Olivet,SD,57052,605-928-7430
Als Body Shop,202 N Dakota St,Milbank,SD,57252,605-432-6032
Alt Carriers LLC,506 S Main Ave,Hartford,SD,57033,605-951-8491
"Alt Transport, Inc.",3200 Galaxy Ln,Sioux Falls,SD,57107-1516,605-332-1119
"Alternaty, Inc.",101 South Reid St Ste 307,Sioux Falls,SD,57103,843-421-8677
Alton Palmer Trucking LLC,1212 Oregon St,Rapid City,SD,57701,605-343-6042
Uptown Eleven Enterprise,3205 W 43rd St Apt 20,Sioux Falls,SD,57106,480-241-0003
Am Trucking LLC,414 Jefferson St,Vermillion,SD,57069,712-899-7139
Amani Trans,631 W 11th St,Sioux Falls,SD,57104,702-680-5540
"Amb Express, Inc.",941 N Bullet Place,Sioux Falls,SD,57103,605-553-8680
"American Used Oil, Inc.",46122 268th St,Chancellor,SD,57015-6702,605-526-4060
American Colloid Company,10881 Us Hwy 212,Belle Fourche,SD,57717,605-892-3237
D & D Trucking,7227 W 35th Street,Sioux Falls,SD,57106,605-334-9278
"Americlean, Inc.",4905 Auburn Ct,Vermillion,SD,57069-4905,888-593-9229
Amerissudn LLC,705 N Cleveland Ave Apt 208,Sioux Falls,SD,57103,605-740-0594
Amie & Lasso Trucking LLC,5811 W. Christopher Pl Apt 15,Sioux Falls,SD,57106,605-332-5802
Ampray Trucking LLC,809 N West Ave Apt 219,Sioux Falls,SD,57104,605-941-5590
"Amtech Automotive Equipment, Inc.",2100 S Acacia Cir,Sioux Falls,SD,57106,605-359-7886
Anders Logistics Agency LLC,504 1st St,Union Center,SD,57787,605-985-5394
"Anders Trucking, Inc.",504 1st Street,Union Center,SD,57787,605-985-5394
"Anderson Brothers, Inc.",314 Dakota,Rosholt,SD,57260,605-537-4838
Anderson Industries,200 South Harrison Street,Aberdeen,SD,57401,605-725-5208
"Anderson Oil, Inc.",108 N Lincoln Avenue,White,SD,57276,605-629-4011
"Anderson Superior Products, Inc.",1201 Ellis Road,Yankton,SD,57078,605-661-2200
Andrew Aman,12063 335th Ave,Hosmer,SD,57448,202-521-1493
Strom Trucking,24114 449th Ave,Madison,SD,57042,605-256-2146
Andrew E Ashley,570 Mcguigan Rd,Spearfish,SD,57783,508-509-5678
A J S Rypairs,13082 Cattail Pl,Sturgis,SD,57785,605-347-5480
Andrew J Mark,29023 457th Ave,Viborg,SD,57070,712-441-5920
Andrew N Lehr,306 N Broadway St,Roscoe,SD,57471,605-287-4787
Skinner Trucking,45804 290th Street,Viborg,SD,57070,605-326-4869
Andrew T Holland And Ernest A Christensen,24467 448th Ave,Montrose,SD,57048,605-363-5001
Andrewsanford,20431 Polo Creek Ln,Spearfish,SD,57783,605-641-1936
Andy Williams Trucking LLC,103 S Egan Ave,Madison,SD,57042,605-480-6892
Anliker Trucking LLC,1/2 Mile Into Mcpherson County,Leola,SD,57456,605-358-8081
Jalar Transportation,5208 S Woodwind Ave,Sioux Falls,SD,57108,605-367-1015
Tones Trucking,16837 373rd Ave,Zell,SD,57469,605-460-0186
Pingrey Trucking,1041 Main St,Centerville,SD,57014,605-552-1015
R & R Trucking,14875 Jackie Lane,Rapid City,SD,57703,605-393-2127
Sanderson Trucking,11957 Sd Hwy 1804,Glenham,SD,57631,605-762-3430
T S Trucking,207 3rd Avenue,Trent,SD,57065-0770,605-310-4613
Studer Trucking,11910 235th Ave,Isabel,SD,57633,605-848-1407
Painted Pony Express,13449 Ghost Canyon Rd,Hermosa,SD,57744,513-340-3763
Antrim Trucking,211 S 5th Ave West,Faith,SD,57626,307-680-6577
"Ao Express, Inc.",22945 402nd Ave,Woonsocket,SD,57385,605-770-5600
Apiary Industries LLC,1430 Haines No 227,Rapid City,SD,57701,605-415-4934
"Appalachian Express, Inc.",39231 108 Street,Frederick,SD,57441,605-271-4925
Araiza Trucking LLC,1215 176th St,Goodwin,SD,57238,605-520-9487
Arb Trucking LLC,437 Geiman Drive,Hill City,SD,57745,605-877-5646
Archibald Brothers Transportation,10400 Sd Hwy 75,Lodgepole,SD,57640,605-564-4000
Roberts Trucks,12335 Whitewood Service Rd,Sturgis,SD,57785,605-347-5260
Arctic Fox Furnace,44037 182nd St,Hazel,SD,57242,605-880-5030
Ardell Sayler,6255 Southside Drive,Rapid City,SD,57703,605-393-2098
Arden Hanson,31726 473 Ave,Elk Point,SD,57025,605-356-2992
"Area, Inc.",410 Jay Headley Ave,Lake Norden,SD,57248,605-785-3855
"Arends Trucking, Inc.",1104 Nellie Street,Sturgis,SD,57785,605-347-3651
Arevalo Transport LLC,2050 Hwy 14 E #2,Huron,SD,57350,605-461-2186
Arevalo Truck Lines LLC,510 Nebraska Ave Sw,Huron,SD,57350,605-350-7559
Argaw Biru,3108 E 12th St,Sioux Falls,SD,57103,402-919-9067
Gannett Publishing Services,200 S Minnesota Ave,Sioux Falls,SD,57117,605-331-2399
Henstra,25145 487th Ave,Sherman,SD,57030,605-594-3461
Arlen Hatle,13395 Sd Hwy 73,Meadow,SD,57644,605-788-2968
Stange Trucking,622 N Sanborn Blvd,Mitchell,SD,57301,605-996-5001
Arlington Haulers Feed & Trucking,201 N 1st St,Arlington,SD,57212,605-983-5469
Frost Transportation,26160 Reed Ct,Canistota,SD,57012,605-906-4499
Armor Mobile Welding And Services LLC,610 Lake View Drive,Mccook Lake,SD,57049,605-232-3992
"Armstrong Extinguisher Service, Inc.",2609 South Highway 79,Rapid City,SD,57701,605-341-3473
Roebuck Trucking,12975 Sd Hwy 1804,Glenham,SD,57631,605-762-3249
"Arnold Bros, Inc.",10363 Hwy 65,Mc Intosh,SD,57641,605-273-4497
Arnold Hunt Trucking,48357 154th Street,Milbank,SD,57252,605-432-4727
Arnold Trucking LLC,30213 258th Avenue,Saint Francis,SD,57572,308-672-1869
"Arrow Head Express, Inc.",39231 108 Street,Frederick,SD,57441,605-271-4925
Arrow N Trucking,20633 162 St,Faith,SD,57626,605-490-1822
"Arrow Public Transit, Inc.",111 4th Street West,Lemmon,SD,57638-1414,605-374-3189
"Arrow Truck Line, Inc.",815 10th Str Nw,Watertown,SD,57201,605-886-3760
Arrowhead Transport LLC,307 S Highland Ave,Sioux Falls,SD,57103,605-359-4843
Arthur Daniels Trucking,12276 Buffalo Berry Lane,Sturgis,SD,57785,605-347-5633
Kotalik Farms,30866 428th Ave,Tabor,SD,57063,605-664-2472
"Arts Auto Care, Inc.",812 East 10th St,Sioux Falls,SD,57103,605-338-0224
"Artz Equipment, Inc.",38399 Us Hwy 12,Aberdeen,SD,57401-9536,605-225-2985
"Artz Soft Water Service, Inc.",417 Main Ave S,Brookings,SD,57006,605-692-4541
Artz Trucking LLC,118 Commercial Ave Ne,Wolsey,SD,57384,605-450-0656
Asa Lee Hicks Jr,28450 226th Ave,Martin,SD,57551,605-685-6317
Ashley Dummann,45743 149th Street,Summit,SD,57266,605-695-6440
Sioux Falls Kitchen & Bath,27063 Henry Place,Sioux Falls,SD,57108,605-368-9684
Audette Enterprises LLC,1550 Seger Dr Lot 99,Rapid City Sd,SD,57701,605-484-5398
Anderson Trucking,17821 Opal Road,Opal,SD,57758,605-748-2444
Crowley Transportation,19515 Crooked Oaks Rd,Saint Onge,SD,57779,605-639-5450
"Aune Trucking, Inc.",300 West Main Street,Irene,SD,57037,605-263-3568
Austin And Jackie Transport LLC,5715 S Bahnson Ave Unit 3,Sioux Falls,SD,57108,515-423-1270
Austin Berwald,47143 196th,Toronto,SD,57268,605-690-3319
Austin Keith Stephens,606 N3rd St,Beresford,SD,57004,605-484-2513
"Auto Locators, Inc.",307 Joplin Avenue,Hot Springs,SD,57747,605-745-4024
Auto Trac,502 Turney Ave,Fairfax,SD,57335,605-654-9056
Auto Venue Transport LLC,3135 E Colorado Blvd,Spearfish,SD,57783,605-642-1428
"Automatic Vendors, Inc.",1090 Moose Dr,Sturgis,SD,57785,605-347-8700
"Automotive Company, Inc.",Box 230,Isabel,SD,57633,605-466-2112
Automotive Equipment Spec,46898-273 St,Tea,SD,57064,605-368-2020
"Automotive Services, Inc.",2306 N Westport,Sioux Falls,SD,57107,605-335-3838
Av Trucking,4801 E 3rd Street,Sioux Falls,SD,57110,605-261-4519
Avera Mckennan Hospital,1325 S Cliff Ave,Sioux Falls,SD,57105,605-322-7497
Awasa,801 N Eagle Pl,Sioux Falls,SD,57107,605-626-6442
"Axtell Trucking, Inc.",203 W Broadway Ave,Pierre,SD,57501,605-224-7151
Az Trucking LLC,118 Ealvord Ave,Artesian,SD,57314,605-248-2521
Azt Transportation LLC,200 Ash Street,Box Elder,SD,57719,970-702-4265
B & B Ag Lines LLC,1000 W 4th Ave,Humboldt,SD,57035,605-363-3417
B & B Auto Sales,532 Main Ave South,Brookings,SD,57006,605-692-7010
"B & B Equipment, Inc.",28754 Western Rd,Pierre,SD,57501,605-224-6727
B & B Golfcars,7313 W Leah St,Sioux Falls,SD,57106-4526,605-595-8985
B & B Recycling LLC,36784 275th Street,Platte,SD,57369,605-469-6302
B & B Transportation LLC,612 N Twin Towers Cir,Sioux Falls,SD,57103,605-759-7810
B & B Trucking And Logistics LLC,110 East Center Street Suite 2053,Madison,SD,57042,850-624-0500
B & B Trucking LLC,29308 346th Ave,Herrick,SD,57538,605-775-2741
"B & D Trucking Co, Inc.",2133 3rd St Sw,Huron,SD,57350,605-215-1061
"B & E Trucking, Inc.",3401 S Fairhall Avenue,Sioux Falls,SD,57106,605-361-3401
B & K Express LLC,612 N Congress St,Aberdeen,SD,57401,605-281-0219
B & P Trucking LLC,407 Windsor St,Volin,SD,57072,605-267-2201
B & R Trucking,137 S Spruce St,Parker,SD,57053,605-360-5059
"B And E Concrete, Inc.",1705 8th Ave Ne,Watertown,SD,57201,605-882-4854
"B B Foundation Service, Inc.",1210 Creek Drive,Rapid City,SD,57703,605-355-6953
B C & D Trucking LLC,45117 164th St,Watertown,SD,57201,605-886-7299
B D Fencing And Recycling,503 Thunderbird Court,Box Elder,SD,57719,605-390-8603
B D Trucking,140 South Lake Drive,Arlington,SD,57212,605-983-5645
Dimmitt Trucking,20582 Chesley Rd,Pierre,SD,57501,605-945-3204
"B Double J, Inc.",45587 177th St,Watertown,SD,57201,605-886-2784
"B Haulin, Inc.",44653 New Hope Road,Hayti,SD,57241,605-783-2229
"B K Trucking, Inc.",27440 460 Avenue,Chancellor,SD,57015,605-647-2347
B Peck Trucking LLC,8913 Ridge Trl,Sturgis,SD,57785,605-490-9912
"B W Trucking, Inc.",23812 Sd Hwy 19,Madison,SD,57042,605-256-3621
B&a Paulsen,29622 470th Ave,Beresford,SD,57004,605-957-5020
"B&b Auto Salvage, Inc.",1515 E Philidephia,Rapid City,SD,57703-1792,800-925-8733
B&b Crane Service,3124 Palmer Dr,Rapid City,SD,57702,605-390-2070
B&b Express LLC,2012 W Brookings St,Sioux Falls,SD,57104,605-553-0511
B&b United Transportation LLC,524 S Lyons Ave,Sioux Falls,SD,57106,605-323-5883
B&c Transport LLC,901 S Lake Dr,Watertown,SD,57201,605-530-1722
B&g Brokerage LLC,433 Se 12th Street,Madison,SD,57042,605-256-3543
B&g Transportation LLC,433 Se 12th St Ste 101,Madison,SD,57042,605-256-9105
B&n Transportation LLC,920 S Colleen Ln,Sioux Falls,SD,57106,605-937-3511
"B-4 Transport, Inc.",904 W 23rd,Yankton,SD,57078,605-665-0661
B4 Transport,Rr2 - Box 307,Yankton,SD,57078,605-665-0661
Babile Transportation LLC,4304 E 18th St Apt 107,Sioux Falls,SD,57103,605-360-9928
Bachman Transport LLC,18814 Fruitdale Rd,Belle Fourche,SD,57717,605-210-0174
"Bachmann Bros Bee Farm, Inc.",31313 277th Street,Winner,SD,57580,605-842-0469
Bad Bully LLC,25 1st Ave Sw Ste A,Watertown,SD,57201,605-204-9744
Bad Lands Liquified,47219 Sd Hwy 34,Colman,SD,57017,605-534-3206
Bad Nation Trucking LLC,29034 Sd Hwy 53,Wood,SD,57585,605-280-8352
"Bader Trucking, Inc.",505 Crescent St,Mobridge,SD,57601,605-845-7420
"Badger Oil, Inc.",300 E Main,Badger,SD,57214,605-983-5412
Badger Trucking LLC,305 East South Street,Badger,SD,57214,605-983-5116
Crane Service,822 Van Buren Street,Rapid City,SD,57701,605-348-4397
Badlands Trucking,4553 Hogan St,Rapid City,SD,57703,719-281-8994
Badume Trucking LLC,1107 N Lincoln Ave,Sioux Falls,SD,57104,605-521-0697
Baete Forseth Hvac LLC,4700 N Northview Ave,Sioux Falls,SD,57118,605-336-0545
"Bailey Metal Fabricators, Inc.",807 N Rowley,Mitchell,SD,57301,605-996-4306
Bailey Trucking,1613 Sharp Dr,Rapid City,SD,57703,605-871-4193
"Baker Timber Products, Inc.",13536 South Hwy 16,Rapid City,SD,57702-7401,605-348-8338
Baker Transport LLC,2220 Vista Hills Place,Spearfish,SD,57783,512-775-8943
Balance Transportation LLC,20953 Maitland Rd,Lead,SD,57754,605-717-0833
Baldwin Ag LLC,35942 300th St,Bonesteel,SD,57317-5319,605-830-1354
Baldwin Farm And Trucking LLC,35943 300th St Ste1,Bonesteel Sd,SD,57317,252-809-2105
Bali Transport LLC,1301 W Omaha St Ste 224,Rapid City,SD,57701,605-718-8697
Ballard Trucking,1430 Williams Pl,Buffalo Gap,SD,57722,605-833-2063
Balster Trucking LLC,23872 361st Ave,Gann Valley,SD,57341,605-430-0608
Bannwarth Trucking LLC,512 S Park Cr,Crooks,SD,57020,605-789-9503
"Bar Box Bar Ranch, Inc.",Hc 64 Box 136,Timber Lake,SD,57656,605-890-0830
Bar Ja Ranch,27151 479th Ave,Harrisburg,SD,57032,605-743-5287
Northland Brokers,910 N. Main St.,Aberdeen,SD,57401,605-225-1743
Barentu As Trans LLC,308 N Foss Ave,Sioux Falls,SD,57110,605-876-2544
"Bargain Bytes, Inc.",705 East 48th Street N,Sioux Falls,SD,57104,605-275-0400
Barneys Used Cars,2700 N Cliff Ave,Sioux Falls,SD,57104,605-338-7041
Baroque Advantage LLC,22635 Gisi Rd,Rapid City,SD,57701,416-678-4313
Barret Marshall,45491 204th St,Arlington,SD,57212,605-695-2528
Barry Bork,766 20th Avenue,Valley Springs,SD,57068,507-755-6531
Rube Trucking,438499 Northside Dr,Lake City,SD,57247-6147,605-380-3498
Bartling Trucking,East Highway 18,Burke,SD,57523,605-775-2741
Bart Johnson,16565 483rd Ave,Revillo,SD,57259,605-623-4464
Bartlett Express LLC,Hc 83 Box 29,Firesteel,SD,57633,605-270-9680
Bartlett Trucking LLC,Hc 83 Box 29,Firesteel,SD,57633,605-865-3627
"Bartz Grain Farms, Inc.",Lots 2 & 3 Of Chambers Outlots,Roberts Co,SD,57219,605-694-2844
Beloit Feeders,47845 280th St,Canton,SD,57013,605-940-4490
Bau Oil Services Corp,4301 W 57th St Ste 131,Sioux Falls,SD,57108,605-362-6630
"Baumann Lumber, Inc.",1223 Sale Barn Road,Fort Pierre,SD,57532,605-223-9762
"Baumgartners Electric, Inc.",1601 W 1st St,Sioux Falls,SD,57104,605-336-2889
Bawek Trucking LLC,40320 176th Street,Doland,SD,57436,605-635-6459
Bbk LLC,425 N 9th Ave,Brandon,SD,57005,507-290-2883
Bc Distributions LLC,2304 S Mary Beth Ave,Sioux Falls,SD,57106,605-321-6268
"Bd Enterprises, Inc.",701 N Mayfield Pl,Sioux Falls,SD,57107,712-540-4236
Bd Hauling LLC,417 N Liberty Ave,Madison,SD,57042,605-291-9551
Be Bop Bobi Long Haul,515 Nw 6th St,Madison,SD,57042,605-480-1633
Bear Force Trucking,309 9th St,Hudson,SD,57034,605-984-2603
Beau Cunningham,113 8th Curve,Aberdeen,SD,57401,605-290-7878
Beck Motor Company,1905 N Garfield,Pierre,SD,57501,605-224-5912
Becker Trucking LLC,31327 459th Ave,Meckling,SD,57069,605-624-6922
"Beckford Trucking, Inc.orporated",119 S Summit Ave Apt 16,Sioux Falls,SD,57104,605-595-2380
"Beds By Design, Inc.",2720 S Louise Ave,Sioux Falls,SD,57106,605-371-2337
"Beef Products, Inc.",891 Two Rivers Drive,Dakota Dunes,SD,57049-5391,605-217-8000
Beers Trucking LLC,40 Stone Dr,Wall,SD,57790,605-279-2340
"Beld Trucking, Inc.",19364 441st Ave,Bryant,SD,57221,605-628-2420
"Bell, Inc.",609 Algonquin St,Sioux Falls,SD,57104,605-332-6724
Custom Sales,48128 330th Str,Jefferson,SD,57038,605-966-5747
Ben Spaans,625 S Dakota Ave,Corsica,SD,57328,605-946-5739
Ben Vandenberg,17341 226st Owanka,Owanka,SD,57767,605-430-8432
"Benchmark Foam, Inc.",401 Pheasant Ridge Dr,Watertown,SD,57201,605-886-8084
"Benedict Trucking, Inc.",3806 Paradise Ridge,Spearfish,SD,57783,605-642-3650
Benjamin Crick,42891 Us Hwy 18,Menno,SD,57045,605-387-5303
Grizzly Trucking,31284 Sd Hwy 19,Vermillion,SD,57069,605-624-6000
Oldenkamp Trucking,904 Rear S Hwy 273,Kennebec,SD,57544,605-869-2369
Benjamin Waxdahl,23403 481st Ave,Flandreau,SD,57028,605-864-1993
Benjamin Waxdahl Matthew Waxdahl,101 S Crescent St,Flandreau,SD,57028,605-997-2467
Bennett Bakley,23126 290th Street,Tuthill,SD,57574,605-685-6831
Bennett Transportation,14462 139th Place,Piedmont,SD,57769,605-716-3709
Baker Trucking,18333 Sd Hwy 79,Newell,SD,57760,605-456-2742
Bent River Transport LLC,325 6th St Se,Watertown,SD,57201,605-881-7362
Berg Trucking LLC,27723 Elbow Canyon Rd,Edgemont,SD,57735,605-890-0207
Bergan Trucking LLC,20076 450th Ave,Arlington,SD,57212,605-203-1365
Bergen Transport LLC,31704 Bergen Ave,Meckling,SD,57069,605-670-1720
"Berkner's Excavating & Gravel, Inc.",W Hwy 12,Milbank,SD,57252,605-432-6991
Bernard Trucking,48134 332nd St,Jefferson,SD,57038,712-898-9522
Bernie A Jark,680 N 3rd Ave,Stratford,SD,57474-0446,605-395-6597
Bertus Trucking LLC,30334 408th Ave,Avon,SD,57315,605-286-3305
Besler Gravel And Trucking LLC,13908 Bixby Rd,Bison,SD,57620,605-244-5600
"Besler, Inc.",5401 Circle Dr,Black Hawk,SD,57718,605-787-6030
"Beyond Concrete, Inc.",48351 145th St,Big Stone City,SD,57216,605-270-9718
"Bh Express, Inc.",46110 276th St,Chancellor,SD,57015,605-647-3372
"Bht, Inc.",127 Jamison Dr,Ft Pierre,SD,57532,605-223-2419
"Bibbs Brokerage, Inc.",2900 E. Rice Street,Sioux Falls,SD,57103,605-338-0053
"Bibbs, Inc.",2900 East Rice Street,Sioux Falls,SD,57103,605-338-0053
Bickett Trucking,109 North Leslie Avenue,Oldham,SD,57051,605-482-8443
"Bickles Truck & Diesel, Inc.",633 Industrial St,Belle Fourche,SD,57717,605-723-3553
Bierman Transportation LLC,510 Hickory St,Avon,SD,57315,605-999-2672
Bierschbach Equipment & Supply,1101 S Lyons,Sioux Falls,SD,57106,605-332-8701
Bievers Bulk Sales Co,110 Neosho Street East,Iroquois,SD,57353-0097,605-546-2151
Big Bubba's Hauling LLC,3736 Wolf Dr,Spearfish,SD,57783-1548,605-269-1773
Big Country Travel,"201 E. Sioux, P.o. Box 901",Pierre,SD,57501,N/A
Big Dawgz Transport LLC,1498 Dakota Ave S,Huron,SD,57350,502-352-8014
Big George Trucking LLC,1702 Walnut St,Yankton,SD,57078,907-978-0152
Big J Transport LLC,960 N Cliff Ave Apt 108,Sioux Falls,SD,57103,206-474-8729
Big O Trucking LLC,25215 464th Ave,Hartford,SD,57033,605-528-7436
Big Rig Hd LLC,4115 W Newcomb Street,Sioux Falls,SD,57106,605-359-6022
"Big Trucks, Inc.",3900 N National Ave,Sioux Falls,SD,57104,605-336-3795
Bih Trucking LLC,7209 W 65th Street,Sioux Falls,SD,57106,605-940-4128
Snakeyed Trucking,109 3rd Ave,Faith,SD,57626,605-430-2547
Langer 1 Trucking,245 Bengal,Rapid City,SD,57701,605-342-0291
Slick Willie Trucking,2518 171th Street Northwest,Clark,SD,57225,605-532-3794
Bill Kayser Trucking,26991 Southeastern Ave,Sioux Falls,SD,57104,605-351-5956
Le Brun Trucking,18714 N Hwy 85,Belle Fourche,SD,57717,605-641-4838
"Motion Unlimited Enterprises, Inc.",6180 S Highway 79,Rapid City,SD,57702-8467,605-348-7373
Paulton Enterprises,10666 Pass Creek Rd,Edgemont,SD,57735,605-673-4641
Rawhide Trucking,312 Nw 1st St,Madison,SD,57042,605-291-9285
Ritter Transportation,13056 Lincoln Tarken Lane,Piedmont,SD,57769,605-787-5169
Bill Soulek,500 N Broadway,Delmont,SD,57330,605-779-2081
Thrun Trucking,217 W Sheridan,Summit,SD,57266,605-398-6374
"Bill Wagner Welding, Inc.",217 Cardinal Dr,Brandon,SD,57005,605-582-2269
Bill Zoss Trucking,40510 237th St,Letcher,SD,57359,605-248-2348
Bill's B Distribution Company,6421 W 53rd St,Sioux Falls,SD,57106,605-362-6008
Bills Country Repair LLC,47808 174th St,Clear Lake,SD,57226,605-874-2845
Martin Trucking,18313 Winter Road,Faith,SD,57626,605-985-5418
Birkel Dirtwork Excavation LLC,34170 292nd St,Burke,SD,57523,605-775-2052
Bishop Trucking LLC,10198 200th Ave,Lemmon,SD,57638,605-374-5115
Bison Express LLC,4105 West Mesa Pass,Sioux Falls,SD,57106,605-362-9193
Bison Grain Company,17855 Sd Hwy 20,Bison,SD,57620,605-244-5266
Bgc Brokerage,Highway #20,Bison,SD,57620,605-244-5266
"Bison Transportation, Inc.",4105 West Mesa Pass,Sioux Falls,SD,57106,605-275-6560
"Bison Trucking, Inc.",43314 215th St,Desmet,SD,57231,605-854-3266
Bits N Bytes LLC,1003 W 11th St,Sioux Falls,SD,57104,605-339-4784
Seidel Trucking,503 E Carr St,Bison,SD,57620,605-244-7788
Bk Trucking LLC,304 Maple St,Aurora,SD,57002,605-693-3717
Bko,4002 Valley West Drive,Rapid City,SD,57702,605-490-2480
"Blachowske Truck Line, Inc.",400 East Redwood Blvd,Brandon,SD,57005,605-582-6666
Black Canyon Transport LLC,19787 438th Ave,Erwin,SD,57233,605-847-4127
Black Gold Oil Patch Services LLC,6970 Nameless Cave Rd,Rapid City,SD,57702,605-348-2718
Black Hills Business Source LLC,732 Jackson Boulevard,Rapid City,SD,57702,605-343-1494
Black Hills Corporation,625 9th Street,Rapid City,SD,57701,605-721-2632
Black Hills Gas Resources,625 9th St,Rapid City,SD,57701,605-721-2381
Black Hills Corporation,625 9th Street,Rapid City,SD,57701,605-721-2632
"Black Hills Hardbanding, Inc.",20260 Butte Dr,Whitewood,SD,57793,605-209-6165
Spearfish Trucking,204 Cottonwood Dr,Spearfish,SD,57783,605-722-5927
"Black Hills Home Delivery, Inc.",2209 Mount Rushmore Rd,Rapid City,SD,57701,605-342-4122
Black Hills Mail Carriers LLC,902 Fairview Street,Rapid City,SD,57701,605-341-1892
Black Hills Metal Buyers LLC,2015 5th Street,Rapid City,SD,57701,307-287-5588
Black Hills Monument Co,19274 Us Hwy 85,Belle Fourche,SD,57717-9009,605-892-2384
Black Hills Overhead Doors LLC,4604 Sturgis Road,Rapid City,SD,57702,605-787-4703
Cornerstone Renewal,2002 Harney Drive,Rapid City,SD,57702,605-348-4643
"Black Hills Power, Inc.",625 9th Street,Rapid City,SD,57701,605-721-2381
Black Hills Receptions & Rentals LLC,10400 West Hwy 44,Rapid City,SD,57702,605-342-8888
Black Hills Timber Equipment LLC,11817 Timber Ridge Lane,Whitewood,SD,57793,605-578-2003
Black Hills Transport LLC,19162 High Pines Lane,Belle Fourche,SD,57717,605-892-3755
Black Jack Livestock LLC,1209 Winchester Dr,Pierre,SD,57501,605-220-6676
Black Stack Trucking LLC,1327 E Park St,Pierre,SD,57501,605-224-1133
Blackgold Capital LLC,4825 Hickock Trl,Rapid City,SD,57702-9721,818-522-1006
Blackhawk Masonry LLC,432 E Deerfield Circle,Dakota Dunes,SD,57049,605-422-0077
Blackhawk Transport LLC,7890 Terry Ave,Black Hawk,SD,57718,347-528-4148
Blackshirt LLC,1619 30th Street,Brookings,SD,57006,701-389-1156
Blaha Gravel,30652 399 Ave,Wagner,SD,57380,605-384-3114
"Blake Dede, Inc.",2425 S Shirley Ave,Sioux Falls,SD,57106,605-362-0223
Huber Trucking,203 Cornell Ave,Elkton,SD,57026,605-542-6221
Blane Hanson & Sons,206 N Maple St,Viborg,SD,57070,605-957-5235
Blankenship Meier Painting,701 N Derby Lane,N Sioux City,SD,57049,712-255-9197
Blankenshipmeier Painting,701 North Derby Lane,North Sioux City,SD,57049,202-521-1484
Blessed Trucking LLC,2719 S Theodore Ave,Sioux Falls,SD,57106,773-621-6889
Blockchain Logistics LLC,405 E 12th St Apt 206,Sioux Falls,SD,57104,701-651-0917
Blom Feed Yards,38425 275th St,Corsica,SD,57328,605-770-4489
Blue Creek Trading LLC,15366 472nd Ave,Twin Brooks,SD,57269,605-924-0493
Blue Devil Express LLC,44095 212th St,Lake Preston,SD,57249,605-860-8724
Bluespring Services LLC,519 W 22nd St Ste 100,Sioux Falls,SD,57105,954-736-0293
Blum Trucking LLC,18143 484th Ave,Gary,SD,57237,218-731-2404
Blunt Trucking LLC,24034 428th Ave,Canova,SD,57321,605-770-5863
"Bmlkjm Global, Inc.",101 S Reid St Ste 307,Sioux Falls,SD,57103,605-731-6802
"Bms, Inc.",301 W Custer,Gettysburg,SD,57442,605-765-2592
Bo Sharp,22802 Us Hwy 18,Martin,SD,57551,605-685-3337
"Bob Curtis Trucking, Inc.",North County Road,Winner,SD,57580,605-842-0500
Dysart Trucking,5304 Landsdown Drive,Sioux Falls,SD,57106,605-361-0571
Lee Ranch,810 Dakota Ave N,Wessington Springs,SD,57382,605-539-0299
Robinson Farm,17718 398th Ave,Frankfort,SD,57440,605-472-0924
Russman & Daughters Trucking,47458 137th St,Wilmut,SD,57279,605-310-9725
"Bob's Piano Service, Inc.",1020 E 41st St # 200,Sioux Falls,SD,57105,605-336-3633
"Bobkat Express, Inc.",802 S 2nd Ave,Sioux Falls,SD,57104,605-338-2978
"Bobs Candy Service, Inc.",1119 West 9th St,Yankton,SD,57078,605-665-3294
"Bobs Gas, Inc.",4 3rd St Ne,St Lawrence,SD,57373,202-521-1493
Bobs Quick Move And Haul Service,27095 Trail Ridge Ct,Harrisburg,SD,57032,605-838-9314
Bochek Stock Farm,18272 438th Ave,Vienna,SD,57271,605-628-2039
Bochman Trucking,41101 307th St,Tyndall,SD,57066,605-589-3408
Double B Trucking,22941 Buzzard Butte Rd,Long Valley,SD,57547,605-381-6968
Killin Time Trucking,10301 Two Tone Ridge,Belle Fourche,SD,57717,605-210-0529
Boe Winburn Trucking,412 Oak St,Houghton,SD,57449,605-885-7933
Boesl Trucking LLC,7500 N Kings Trail Pl,Sioux Falls,SD,57104,605-271-0438
"Boever Farms, Inc.",48635 228th St,Flandreau,SD,57028,605-997-2790
Bolle & Son Trucking,39381 263rd St,Stickney,SD,57375,605-661-5730
"Bolt Companies, Inc.",911 W Boulevard,Rapid City,SD,57701,605-718-5673
Bolton Ranch LLC,29807 327th Ave,Dallas,SD,57529,605-835-9751
Bon Homme Colony,31232 Colony Road,Tabor,SD,57063-6503,605-463-2422
"Bon Homme Yankton Electric Assn, Inc.",134 S Lidice St,Tabor,SD,57063,605-463-2507
Bonnie Burke,700 North Main,Isabel,SD,57633,605-466-2226
Boomsma Trucking LLC,19226 Us Hwy 281,Hitchcock,SD,57348,605-266-2798
Boots & Roses Transport LLC,300 East Main St,Hermosa,SD,57744,860-815-0728
Borus LLC,1223 S Dunham Circle,Sioux Falls,SD,57106,605-728-5517
Boss Transportation LLC,101 S Reid St Ste 307,Sioux Falls,SD,57103,605-252-7392
Bot Transportation LLC,26062 Ashley St Unit 15,Hartford,SD,57033,332-600-3979
Bottum Brothers Partnership,37306 187th St,Tulare,SD,57476,605-472-0629
"Boucher Transportation, Inc.",202 North Chris Street,Worthing,SD,57077,605-372-8359
"Bowar Transportation Services, Inc.",4204 South Cathy Ave.,Sioux Falls,SD,57106,605-361-6389
"Bowers Trucking, Inc.",28207 Hwy 281,Armour,SD,57313,605-724-2305
Holiday Enterprises,16120 227th Street,New Underwood,SD,57761,605-754-6908
"Boydston Trucking, Inc.",601 E Pine St,New Underwood,SD,57761,605-754-6906
"Boyer Ford Trucks Sioux Falls, Inc.",2101 E Benson Rd,Sioux Falls,SD,57104,605-336-6100
Benson Hay Company,48475 254th St,Garretson,SD,57030,605-594-6666
Circle B Transport,213 Kansas Street,Wakonda,SD,57073,605-267-3009
Brad Chicoine,1705 Arnold Palmer,Elk Point,SD,57025,712-253-2613
Christensen,112 W Turner St,Irene,SD,57037,605-359-9010
Gartner Trucking,201 A Street,Interior,SD,57750,605-433-5423
Brad Jurgensen,47705 255th Street,Garretson,SD,57030,605-338-2153
Mcnary Trucking,25942 408th Ave,Mitchell,SD,57301,605-996-8776
Brad Minor,23777 461a Ave,Wentworth,SD,57075,605-480-4172
Gerlachs Recycling,25582 458th Ave,Humboldt,SD,57035,605-359-4377
Centerville Ag,46212 301 Street,Centerville,SD,57014,605-563-2532
Brad Vanderwal Trucking LLC,21493 464th Avenue,Volga,SD,57071,605-826-4346
Brad W Vreugdenhil,48036 309th St,Alcester,SD,57001,605-565-2982
Braden Enterprises LLC,4512 S Tribbey Trl,Sioux Falls,SD,57106,605-251-1974
Bradley Brenner,215 2nd Ave West,Bristol,SD,57219-2022,605-492-3633
Quist Enterprises,221 8th Ave Se #1,Aberdeen,SD,57401,605-216-2068
Brad Folsland,21748 442 Ave,Oldham,SD,57051,605-482-8589
Bradley Joseph Klopstad,305 Columbia St,Harrisburg,SD,57032,507-530-4290
Bradley Kleinhans,2 Miles North 4 East,Alcester,SD,57001,605-547-2102
"Brandner Brothers Trucking, Inc.",1103 Main St N,Herreid,SD,57632,605-437-2384
Brandon Bierman Trucking,205 E Main St,Mansfield,SD,57460,605-228-1363
P & M Transportation,1002 Ziebach St,Rapid City,SD,57703,605-593-7371
Brandon Hubert Acker,2116 E 2nd St,Sioux Falls,SD,57103,605-310-6608
Brandon Lumber Company,403 Main Street,Brandon,SD,57005,605-582-3252
Brandon Putnam,308 S Pearl,Elkpoint,SD,57025,605-661-6588
Zeisler Trucking,30155 354th Avenue,Saint Charles,SD,57571,605-654-2363
Brands Farm,25461 481st Avenue,Garretson,SD,57030,605-594-6470
"Brandsrud Transport, Inc.",201 Oak Street,Henry,SD,57243,605-237-4797
Brandt Kustom Hauling LLC,720 Sixth Street,Hudson,SD,57034,860-815-0728
Branon Landmark,1272 Trail Ridge Rd Apt A,Brookings,SD,57006,605-690-9226
Brassfield Trucking LLC,23585 158th Ave,New Underwood,SD,57761,608-481-7993
Brat,303 Howard St,Bonesteel,SD,57317,605-842-6176
Braun Farms,48724 252nd St,Garretson,SD,57030,605-594-3104
Gerald Braun Trucking,3 W Main Street,Warner,SD,57479,605-225-4897
"Brazell Trucking, Inc.",21 Pine St,Custer,SD,57730,605-786-3436
Breeding Trucking,36640 155th St,Cresbard,SD,57435,605-324-3349
Buising Trucking,2007 Prospect Ave,Aberdeen,SD,57401,605-725-0065
Brent Combs,27957 333rd Ave,Dallas,SD,57529,605-830-2291
Brent Klipfel,12777 Richmond Lane,Aberdeen,SD,57401,605-225-1784
Brent Swaney,809 W 2nd Ave,Miller,SD,57362,605-204-0139
Brent Veurink,520 E 10th St,Platte,SD,57369,605-337-2260
Brent Weber Livestock,27650 Allard Road,Long Valley,SD,57547,605-462-6015
Bret Fliehs,39865 137th Street,Groton,SD,57445,605-397-8299
Brett Guptill,27321 Allen Rd,Interior,SD,57750,605-515-3869
Hf Trucking,29297 Us Hwy 183,Colome,SD,57528,605-842-1074
"Bretts Spray Service, Inc.",18531 303rd Ave,Onida,SD,57564,605-258-2743
Brewer Trucking LLC,703 Holly Rd,Pierre,SD,57501,605-391-5241
Retriever LLC,27469 Sd Hwy 45,Platte,SD,57369,605-337-2583
Brian Chicoine,32650 480th Ave,Elk Point,SD,57025,605-966-5271
Brians Repair,800 Main St,Tyndall,SD,57066,605-661-3927
Lakodia Farm,45117 237th St,Madison,SD,57042,605-270-2419
Brian Drusch,6000 N Swanson Dr,Sioux Falls,SD,57107,605-212-5100
Dubbelde Trucking,46332 280th St,Lennox,SD,57039,605-321-2909
Feilmeier Trucking,43175 Sd Hwy 50,Yankton,SD,57078,605-660-0936
Brian Jensen Trucking,340 Main St,Centerville,SD,57014,605-660-6265
Jxt,16069 Engelhart Lane,New Underwood,SD,57761,605-209-1468
Brian Kuhlman,17725 449th Ave,Watertown,SD,57201,605-882-3858
Brian Lintvedt Trucking,29718 Hwy 248,Presho,SD,57568,605-895-2148
Antrim Trucking,1010 E St,Edgemont,SD,57735,605-841-1118
Oakleaf Auto Transport,26208 463rd Ave,Hartford,SD,57033,605-528-6718
Tennant Trucking,510 W Garfield,Gettysburg,SD,57442,605-765-2829
Bw Trucking,42513 256th St,Alexandria,SD,57311,605-239-4490
B Z Welding,17533 464 Th Ave,Watertown,SD,57201,160-588-6465
"Brick Transport, Inc.",721 S State St,Aberdeen,SD,57401,605-226-8890
"Bridge City Auto, Inc.",802 Broadway,Yankton,SD,57078,605-665-1596
Bridgewater Quality Meats LLC,301 Main St,Bridgewater,SD,57319,605-729-9440
"Britton Lumber Home Center, Inc.",767 Vander Horck,Britton,SD,57430,605-448-5282
"Broadway Chrysler Dodge Jeep, Inc.",2720 Broadway,Yankton,SD,57078,605-665-8033
Brockhouse Trucking LLC,46682 268th Street,Sioux Falls,SD,57106,605-361-7122
Brockwood Trucking LLC,303 Windsor Ave,Volin,SD,57072,605-760-9856
Broken Bridge Livestock LLC,14780 Sd Hwy 34,Sturgis,SD,57785,605-347-2251
Darren Nelson Trucking,3604 W Hovland Ave,Sioux Falls,SD,57107,605-271-2600
Brookings Auto Mall,2323 E 6th St,Brookings,SD,57006,605-692-6315
"Brooks Constructions Services, Inc.",27081 Sundowner Ave,Sioux Falls,SD,57106,605-368-5447
Brosnan Farms Trucking LLC,1752 Mcdonald Drive,Huron,SD,57350,605-352-7728
Brother Trucking LLC,4700 E 6th St Apt 204,Sioux Falls,SD,57110,605-400-4600
"Brouwer Enterprises, Inc.",4800 N Velocity Ave,Sioux Falls,SD,57104,605-333-0620
"Brouwer Transportation, Inc.",4800 N Velocity Ave,Sioux Falls,SD,57104,605-333-0620
Brown,45447 298th St,Irene,SD,57037,605-263-3944
"Brown Enterprises, Inc.",927 E 8th St,Sioux Falls,SD,57103,951-252-5222
"Brown Sons Excavating, Inc.",706 E 10th St,Dell Rapids,SD,57022,605-212-0901
"Brown Trucking, Inc.",47070 246th St,Dell Rapids,SD,57022,605-334-9278
Brubakken Trucking LLC,903 7th Ave,Britton,SD,57430,605-237-1850
Bruce Demers Trucking LLC,201 Boyd St,Colome,SD,57528,605-842-3667
Dubois Trucking,47056 305th St,Beresford,SD,57004,605-957-5709
B C Fales Trucking,20236 127th Ave,Whitewood,SD,57793,605-347-4162
Bruce Granquist,47550 Sd Highway 20,Milbank,SD,57252,605-676-2520
Krumbach Trucking,45872 271st Street,Parker,SD,57053,605-941-8450
Bruce Nelson Harvesting,43283 172nd St,Clark,SD,57225,605-532-5240
Ochsner Trucking,212 2nd Ave W,Herreid,SD,57632,605-437-2792
Bruce Pody,41328 240th St,Artesian,SD,57314,605-527-2510
Bruce Rath Trucking,13107 Homer Smith Road,Piedmont,SD,57769,605-787-5993
Bruce Schwarz,43076 Lakeport Rd,Yankton,SD,57078,605-665-5205
B & D Trucking,16223 445th Ave,Florence,SD,57235,605-758-2999
Stockwell & Sons Implement,45628 265th St,Humboldt,SD,57035,605-363-3628
Wooden Shoe Livestock,32971 263rd Street,Hamill,SD,57534,605-840-0653
Votroubek Trucking,2625 Lookout Mountain Road,Spearfish,SD,57783,605-642-4752
Owner Operator,314 East Main St,Castlewood,SD,57223,605-237-4486
Bruce Williams Trucking,4701 W 14th Pl,Sioux Falls,SD,57106,605-484-7053
Brueggeman Brothers,18480 358th Ave,Miller,SD,57362,605-853-3200
Bruttys Underground Sprinklers,3700 Pleasant View Dr,Brookings,SD,57006,605-693-2961
Neugebauer Trucking,600 S Main,Dimock,SD,57331,605-928-3280
Homan Brothers Partnership,17455 482nd Ave,Gary,SD,57237,605-874-3388
Bryan Industries LLC,925 N Roosevelt Ave,White River,SD,57579,605-899-1237
Bryan Schipper,48153 231th St,Flandreau,SD,57028,605-997-3676
Bj Farms,30845 470th Ave,Beresford,SD,57004,605-670-9115
Btd Enterprises LLC,1430 Samco Rd Ste 2,Rapid City,SD,57702,605-791-0470
"Btl Services, Inc.",400 East Redwood Blvd.,Brandon,SD,57005,507-238-4784
"Buckley Trucking, Inc.",30643 286th St,Winner,SD,57580,605-842-0951
"Hanisch Trucking, Inc.",6700 West 9th St,Sioux Falls,SD,57107,605-334-9543
Buffalo Chip Campground LLC,20622 131st Ave,Sturgis,SD,57785,605-347-9000
Buffalo Chip,23734 455th Ave,Madison,SD,57042,605-906-0244
Buffington,Hc 89 Box 314 A,Hermosa,SD,57744,N/A
Builders Choice LLC,1212 N Norbeck,Vermillion,SD,57069,605-658-3200
"Building Products, Inc. Of South Dakota",1500 Industrial Ave N,Sioux Falls,SD,57104,605-336-3460
"Bull It Angus, Inc.",22951 356th Avenue,Gann Valley,SD,57341,605-293-3470
"Bulldog Recovery, Inc.",8504 W Walnut,Sioux Falls,SD,57107,605-201-8961
Bullroar Trucking LLC,35305 257th St,Pukwana,SD,57370,605-933-0881
"Bullrush Trucking, Inc.",12300 451st Avenue,Sisseton,SD,57262,605-345-3589
"Bullseye Custom Cabinetry, Inc.",1015 S Hillside Drive,Sioux Falls,SD,57110-3995,605-978-1959
Bullseye Honey,19541 450th Avenue,Lake Norden,SD,57248,605-785-2120
"Bunjer Trucking, Inc.",805 S Main Ave,Colton,SD,57018,605-446-3252
"Bunker Transport, Inc.",121 S Egan Ave,Madison,SD,57042,605-256-9294
Burgers Trucking LLC,309 S Main Ave,Colton,SD,57018,605-446-3800
"Burnham, Inc.",29605 314th Avenue,Winner,SD,57580,605-557-3289
Burns Trucking LLC,46811 253rd Street,Baltic,SD,57003,605-543-5787
Buss Trucking LLC,375 Feeney Ave,Claire City,SD,57224,605-237-0749
Busser Farms,24634 458th Avenue,Colton,SD,57018,605-446-3908
Busser Trucking LLC,45712 245th St,Colton,SD,57018,605-351-4412
Bussmus Trucking LLC,24973 404th Ave,Mitchell,SD,57301,605-770-0205
Butzer And Sons LLC,47825 296th St,Albester,SD,57001,712-294-4130
"Bwc Express, Inc.",46685 Hwy 38,Sioux Falls,SD,57107,605-528-6257
"By Logistics, Inc.",620 N Main St,Redfield,SD,57469,605-472-3800
Byler And Sons Exteriors,40807 265th St,Ethan,SD,57334,605-770-7477
Byrain Boes,34104 Us Hwy 18,Burke,SD,57523,605-830-0887
Provencial Trucking,104 Hiefer Dam Road,Rosebud,SD,57570,605-747-4614
C & A Larson Trucking,19732 Prairie Ridge Rd.,Spearfish,SD,57783,605-642-4969
C & A Transport LLC,605 Dakota Ave North,Huron,SD,57350,405-283-0698
"C & C Hauling & Construction, Inc.",2300 Willowdale Road,Yankton,SD,57078,605-668-0939
C & K Brokerage LLC,25174 453rd Ave,Montrose,SD,57048,605-363-5042
C & M Hi-way Service LLC,1308 18 Av Se,Watertown,SD,57201,605-886-9266
C & M Transport,4328 N Alaska Dr,Sioux Falls,SD,57107,605-321-3797
"C & S Transportation Services, Inc.",214 Capitol,Yankton,SD,57078,605-760-3183
C And R Transport LLC,611 S Jay St,Aberdeen,SD,57401,605-252-6514
C B Trucking LLC,1824 Rushmore Street,Rapid City,SD,57702,605-484-2937
C Bob Edgerton,25719 Sd Hwy 79,Fairburn,SD,57738,605-515-3877
"C C Trucking, Inc.",16887 Sd Hwy 89,Hot Springs,SD,57747,605-665-5975
C Dillon Digging,717 W 1st Ave,Lennox,SD,57039,605-743-4763
C Haensel Trucking LLC,46225 Hwy 38,Hartford,SD,57033,605-528-3731
"C L H, Inc.",16231 443rd Ave,Florence,SD,57235,605-758-2526
"C L Trucking, Inc.",914 9th Curve,Aberdeen,SD,57401,701-260-9065
C Larson Trucking LLC,39655 Larson Rd,Columbia,SD,57433,605-396-2346
"C Needs, Inc.",225 S Lincoln,Canton,SD,57013,605-987-2626
"C S Distribution, Inc.",7408 W 15th St,Sioux Falls,SD,57106,605-366-4792
C S Express LLC,41375 240th St,Artesian,SD,57314,605-933-0994
C&s Transport LLC,433 Lien Ave,Harrisburg,SD,57032,605-728-9675
"C-magic, Inc.",3400 N 9th Ave,Sioux Falls,SD,57104,605-595-2067
C A Trucking,482 W 12th St,Winner,SD,57580,605-842-1232
"Cable Communication Services, Inc.",7200 Shadowland Court,Black Hawk,SD,57718,605-341-6317
Dakotaland Homes,1028 S Lyons Ave,Sioux Falls,SD,57106,605-335-8122
"Calhoon Ranch, Inc.",31222 262 Street,Ideal,SD,57541,605-842-0552
Call Power Washing More,12874 Cattail Drive,Aberdeen,SD,57401,605-228-4167
Callahan Trucking LLC,23209 457th Ave,Madison,SD,57042,605-270-9933
Cd Case Trucking,11323 Horse Haven,Belle Fourche,SD,57717,307-851-8437
Pies Trucking,805 Pine Street,Summit,SD,57266,605-398-6300
Calvin Tebbel,305 Dakota Sw,Doland,SD,57436,605-635-6352
C V Trucking,223 N Fuller Ave,Fulton,SD,57340,605-630-8348
Howard Trucking,511 West Norton,Salem,SD,57058,605-421-8480
Cameron Farm,28971 447th Ave,Viborg,SD,57070,605-327-0034
Cam,24020 Nowlin Rd,Midland,SD,57552,605-843-2835
"Cammack Ranch Supply, Inc.",16948 Sd Hwy 34,Union Center,SD,57787,605-985-5591
Campbell Supply Company,1526 N Ind Ave,Sioux Falls,SD,57104-0258,605-331-5470
Campbell Transport LLC,301 E Maple,Harrisburg,SD,57032,605-743-5994
Portable On Demand Storage Pods,3701 S Western Avenue,Sioux Falls,SD,57105,605-274-8151
Culligan Of The Northern Hills,3335 East Colorado Blvd,Spearfish,SD,57783,605-644-0966
Capital Group Logistics LLC,41 W Highway 14 Ste 137,Spearfish,SD,57783,605-305-4288
Capitola Trucking LLC,18248 Hillside Lane,Doland,SD,57436,605-635-6363
Caribbean Truck LLC,2500 Douglas Ave Apt 12,Yankton,SD,57078,786-659-6693
Ets Transport,12712 Troxell St,Nemo,SD,57759,605-578-1187
C J Express,17993 Opal Rd,Opal,SD,57758,605-490-9968
Carl Orlyn Evenson,29770 419th Ave,Scotland,SD,57059,605-583-2885
Carl V Carlson Company,26088 466th Avenue,Hartford,SD,57033,605-528-3530
"Carls Trailer Sales, Inc.",10958 Us Hwy 212,Belle Fourche,SD,57717,605-892-4032
"Carmalee, Inc.orporated",401 E 8th St Suite 214,Sioux Falls,SD,57103,540-322-6290
Carmody Truck Lines LLC,23932 454th Ave,Madison,SD,57042-7235,228-346-1885
Shkinder Trucking,800 S Cliff Ave 801,Harrisburg,SD,57032,605-929-9387
Carpenter Ben Trucking,41 W Hwy 14,Spearfish,SD,57783,605-641-2992
Carpentier Trucking LLC,2310 N Foster Street,Mitchell,SD,57301,605-996-5306
Shippernetcom,520 West 10th Street,Sioux Falls,SD,57104,888-828-7447
Carryup LLC,412 N Foss Ave,Sioux Falls,SD,57110,605-251-7034
Carter Haase Trucking,29439 296th St,Clearfield,SD,57580,605-557-3489
Horner Grain & Trucking,820 Hubbard St,Hudson,SD,57034,605-984-2176
Cary A Heiser,25189 Wapiti Rd,Hermosa,SD,57744,605-255-4317
Tines Trucking,17691 Elm Springs Rd,Elm Springs,SD,57791,605-798-2111
Casey Brazell,Rr 1 Box 74c,Custer,SD,57730,605-673-4317
Casey Gross Trucking,19661 414th Avenue,Yale,SD,57386,605-354-7060
Casey Kettleborough,222 E Park Ave,Howard,SD,57349,605-291-9732
Steele Transport,314 Doolittle St,Rapid City,SD,57701,605-858-4104
C T Hinman Trucking,26393 297th Ave,Carter,SD,57580,605-208-0193
Casey Trucking LLC,10090 194th Ave,Lemmon,SD,57638,605-374-9720
Cbm Food Service,2219 E Benson Rd,Sioux Falls,SD,57104,605-335-0825
Catron Land Company,12941 S Camp Crook Rd,Camp Crook,SD,57724,605-797-4538
"Cb, Inc.",11853 Sd Hwy 20,Buffalo,SD,57720,605-375-3755
Dejong Farms & Feedlot,41894 218th Street,Iroquois,SD,57353,605-546-2420
Cd Transport LLC,436 W 5th Street,Crooks,SD,57020,605-595-2285
Cdl Trucking LLC,27427 402nd Ave,Parkston,SD,57366,605-928-7260
Cedar Estates Lp,28658 201st St,Pierre,SD,57501,605-224-6007
Cedardale Enterprises LLC,34595 Elm Creek Rd,Chamberlain,SD,57325,605-726-3163
Cedar Grove Colony,36926 266th St,Platte,SD,57369-7103,605-337-2404
Cemetery Memorial Services LLC,7100 W Tweed Trail,Sioux Falls,SD,57106,605-941-4473
"Centipede Trucking Co, Inc.",3855 S Hwy 79 #100,Rapid City,SD,57701,605-348-6348
Central Mountain Transport LLC,25125 403rd Ave,Mitchell,SD,57301,605-995-1375
Central Plains Industries LLC,42989 Us Highway 212,Clark,SD,57225,605-532-3829
Central Valley Dairy Supply LLC,711 N 9th Avenue North,Brandon,SD,57005,605-582-3269
Century Blasting Service LLC,13123 Tilford Road,Piedmont,SD,57769,605-347-2163
"Century Business Products, Inc.",1011 East 15th Street,Sioux Falls,SD,57104,605-335-7367
Brosnan Transport,1053 Alma Street,Rapid City,SD,57701-7925,605-791-1797
Lee Trucking,828 E 7th Ave,Redfield,SD,57469,605-302-0029
Shotgun Transfer,742 4th Ave Sw,Watertown,SD,57201,916-730-4774
Collins Trucking,6299 E Hwy 44,Rapid City,SD,57703,605-390-3029
Duffy Trucking,310 W 3rd St,Colome,SD,57528,605-842-2519
Chad Koehn,410 221str,Ward,SD,57026,507-825-3310
Olson Ranch,23798 Sd Hwy 45,Kimball,SD,57355,605-680-0218
Chad Price,17921 Fox Ridge Rd,Red Owl,SD,57777,N/A
C Q Hauge Trucking,12888 384th Ave,Aberdeen,SD,57401,605-225-8376
Ramsey Trucking,23295 Hilltop Dr,Philip,SD,57567,605-859-2170
Chad Tennant Trucking,5125 Turtle Lane,Spearfish,SD,57783,605-645-5900
Chad Wieczorek,209 N 6th St,Stickney,SD,57375,605-770-3042
Chad Wosje,45877 218th St,Volga,SD,57071,605-826-4366
Chalktaw-kinshaw LLC,810 W Clark St,Vermillion,SD,57069,310-739-2214
Champion Windows,1110 W 41st St,Sioux Falls,SD,57105,605-274-2708
Chaos LLC,615 Commercial Ave Se,Highmore,SD,57345,605-870-1103
Chapin Trucking LLC,46269 146th St,Marvin,SD,57251,605-398-6160
Charity Transport,201 Main St,Hayti,SD,57241,605-783-3296
Larsen Trucking,224 W Henry,Freeman,SD,57029,605-925-4778
Brewer & Sons,333 Circle Drive,Box Elder,SD,57719,605-923-7641
Commodity Carriers,P. O. Box 444,Murdo,SD,57559,N/A
Charles Baker Trucking LLC,103 Main Street,Murdo,SD,57559,605-669-2100
Charles Ericksen,48591 256th St,Garretson,SD,57030,605-254-4654
C & W Farms,41272 287th St,Tripp,SD,57376,605-935-6009
C Jensen Trucks,1308 E Crestview,Sioux Falls,SD,57103,605-359-6608
Charles Nygard,Township Rd Of Hwy 11,Alcester,SD,57001,605-565-3430
Oddson Harvesting,207 Cedar Street,Brandon,SD,57005,605-553-8038
Colt Trucking,104 1st Street,Henry,SD,57243,605-695-0217
Samuelson Transportation,1980 Segar Dr Lot 13,Rapid City,SD,57701,605-209-8246
Charlie Dean Trucking,304 Burlington St,Lake Norden,SD,57248,605-277-6828
"Charles Trucking, Inc.",2027 S Dakota Ave,Sioux Falls,SD,57105,605-978-0854
Chuck-n-truck,4716 East 4th Street,Sioux Falls,SD,57110,605-334-5597
East West Motor Express,1705 Morningside Dr.,Rapid City,SD,57701,605-341-5970
Korzan Farms,35421 253rd St,Kimball,SD,57355,605-778-6821
"Charlie Russman Trucking, Inc.",14849 474th Ave,Twin Brooks,SD,57269,605-432-6514
"Chase Drilling, Inc.",25748 Cottonwood Ave,Sioux Falls,SD,57107,605-543-5582
Childers Pumping Service,28221 Homestead Rd,Edgemont,SD,57735,605-662-7703
Chiller Farms Trucking,13155 River Loop Road,Vale,SD,57788,605-838-0998
C & A Trucking,31019 471st Ave,Beresford,SD,57004,605-957-5301
Chris Besler Trucking LLC,19314 Helmer Rd 19314 Helmer Road,Saint Onge,SD,57779,605-892-5044
Chris Burke LLC,1001 Chester Lane,Yankton,SD,57078,605-321-8340
Heartland Paper Co,808 West Cherokee,Sioux Falls,SD,57104,605-336-1190
Chris Nickeson Trucking,305 Chestnut St,Langford,SD,57454-2119,605-290-7969
First Line Apparatus Training LLC,1223 12th Ave Ne,Watertown,SD,57201,605-880-2759
Chris Waldner And Sons Construciton,40306 207th Street,Huron,SD,57350,605-352-2197
Christensen Distributing,2300 E Sioux Street,Sioux Falls,SD,57103,605-332-4330
"Christianson Trucking, Inc.",2134 Lakeview Lane,Gary,SD,57237,507-829-4810
Christopher Fix Trucking,35528 163rd St,Faulkton,SD,57438,605-380-2575
Christopher Grubl,13663 Alkali Road,Sturgis,SD,57785,605-347-3319
Christopher J Rabe,48448 145th Street,Big Stone City,SD,57216,605-949-1953
Christopher Janssen,318 N Chicago,Madison,SD,57042,605-256-3566
New Hope Farm,30723 444th Ave,Mission Hill,SD,57046,605-661-7417
Christopher Schanning,18327 Sd Hwy 22,Gary,SD,57237,605-272-2288
Christopher Sieh Trucking LLC,36169 118th St,Leola,SD,57456,605-216-0854
Poo Bear Express,173 St,Faith,SD,57626,605-739-3951
"Christy Lumber, Inc.",814 W Highway 14 & 34,Fort Pierre,SD,57532,605-223-2544
"Chuck And Katie Nold, Inc.",15207-331 Ave,Onaka,SD,57466,605-447-5834
Todd Trucking,205 N 9th St,Onida,SD,57564,605-258-2419
Cimpls LLC,1000 Cattle Drive,Yankton,SD,57078,605-665-1665
Circle H Livestock Express LLC,47545 275th St,Harrisburg,SD,57032,605-254-2169
Circle P Ranch,38650 210th St,Wolsey,SD,57384,605-350-4304
"Circle S Carriers, Inc.",27426 482nd Ave,Canton,SD,57013,605-743-2241
"Cjw Trucking, Inc.",10909 Chimney Canton Rd,Piedmont,SD,57769,605-484-0754
Dale Trucking,23005 Sd Hwy 73,Philip,SD,57567,605-859-2121
Ck Trucking LLC,1838 6th St Ne,Watertown,SD,57201,605-520-4945
Ckh Transportation LLC,107 Lakeview Cir,Wentworth,SD,57075,605-291-2518
Cl Shed Transport LLC,323 Buffalo St,Elkton,SD,57026,507-215-0702
Young Trucking,304 W Menth,Hartford,SD,57033,605-528-6712
Clark Community Oil Company,400 1st Ave E,Clark,SD,57225,605-532-3691
Clark County Farmers Elevator Co,100 S Commercial St,Clark,SD,57225-1732,605-532-3111
"Clarke Machine, Inc.",23303 435th Ave,Howard,SD,57349,605-772-4164
Clarks Field Service LLC,1515 5th Ave Suite 102,Belle Fourcle,SD,57717,605-723-0132
"Classgaard Services, Inc.",13053 Lincoln Tarken Lane,Piedmont,SD,57769,605-786-5033
Classic Enterprises Ltd,400 2nd St,Hudson,SD,57034,605-984-2432
