Company Name,Street Address,Address Locality,Address Region,Postal Code,Telephone
Ownbey's Transport,2805 Old Freewill Road,Cleveland,TN,37312,423-715-0230
Xpect Xpress,4031 Wood Birch Cove,Memphis,TN,38115,901-366-1652
Mxb Trucking,10430 Juneau Way,Collierville,TN,38017,901-690-1788
Carl Freeman Trucking,5969 Hwy 31w,Portland,TN,37148,615-202-8000
Berkline,One Berkline Drive,Morristown,TN,37813,423-585-1797
K & B Trucking,5664 Orebank Road,Kingsport,TN,37664,423-765-9020
Dollar Transport,802 Hurricane Hills Drive,Waynesboro,TN,38485,931-722-9304
Pruitt Trucking,2777 White Oak Church Rd,Morristown,TN,37813,865-475-8856
Collins Auto Center,1040 Lynn Garden Dr,Kingsport,TN,37665,423-578-8347
R P King & Sons Trucking Co,5751 Highway 230,Lyles,TN,37098,931-670-7580
Chasen Auto Transport,1253 Hwy 70 W,Lenoir City,TN,37771,865-368-0648
Hazpro Medical Waste Services,3913 Atkins Dr,Nashville,TN,37211,615-315-5545
Automotive Plus,188 Anderson Village Lane,Gainesboro,TN,38562,931-704-3204
K & E Trucking,722 County Road 130,Athens,TN,37303,423-745-5631
8 Point Trucking,5666 Tucker Road,Collegedale,TN,37315,423-421-5921
Craig's Trucking,195 Sunnyside Dr,Brighton,TN,38011,901-475-0614
Gmed Services,417 Barkley Court,Antioch,TN,37013,615-594-0338
Harris Grain Transportation,869 Co-op Drive,Halls,TN,38040,731-836-9301
Boulevard Transport,144 Reynolds Hills,Rogersville,TN,37857,423-272-9311
Lg Transport,412 Fifth St,Lawrenceburg,TN,38464,931-231-5256
Laney Logistics,144 Leedy Lane,Jonesborough,TN,37659,423-753-0637
Yahshua Trucking,2861 Old Britain Circle,Chattanooga,TN,37421,423-421-9515
Randy Wilson Trucking,60 Holder Road,Grand Junction,TN,38039,731-764-6593
Turner Trucking,250 Danny Dr,Jasper,TN,37347,423-605-0313
Jwte,1321 Murfreesboro Rd Suite 320e,Nashville,TN,37217,615-934-5094
Td Trucking,4113 Overton Crossing,Memphis,TN,38127,901-357-5240
Bna Express,1008 Kiser Ave,Hendersonville,TN,37075,615-822-7433
Seamans Transport,3860 Sycamore Creek Rd,Woodbury,TN,37190,615-563-4758
Thoroughbred Moving And Storage,1630 Robert C Jackson Drive,Maryville,TN,37801,865-544-1044
Mercedes Bryant Cesar Transportation,4921 Top Notch Loop,Memphis,TN,38125,901-751-6650
Reid's Transportation,5101 Citation Ct,Mount Juliet,TN,37122,615-400-8366
Express Auto Transport,726 Holland Ridge Dr,La Vergne,TN,37086,615-428-7433
Bsk Trucking,2187 North Springs Road,Red Boiling Springs,TN,37150,615-699-1200
First Choice Trucking,4663 Garden Walk Lane,Memphis,TN,38128,901-552-4428
Shoemaker's Equipment Service,3343 Old Greenbrier Pike,Springfield,TN,37172,615-384-1999
Laquart Transportation & Logistics,4554 Webb Road,Murfreesboro,TN,37128,615-497-7920
Richard L Selby Transport,3117 Coal Bank Rd,Sparta,TN,38583,931-935-3000
Clm Freight Lines,5209 Linbar Dr Ste 602,Nashville,TN,37211,615-834-9470
Hamilton Trucking,2215 Hwy 31 E,Gallatin,TN,37066,615-663-5014
Kendall J Thompson Trucking,1243 Presley Ridge Road,Scotts Hill,TN,38374,731-549-2495
P & M Environmental LLC,1440 Hayshed Rd,Charlotte,TN,37036,615-405-5764
Olson Trucking,1750 S Jefferson Ave,Cookeville,TN,38502,931-260-2919
D2 Logistics,5626 Hillview Drive,Brentwood,TN,37027,615-373-0916
The Transporter,155 Oaklawn Estates Road,Paris,TN,38242,731-641-9937
Tenn Tex Express,135 Bob White Drive,Jamestown,TN,38556,931-337-9146
Acr Trucking Company,24 Brushwood Cove,Jackson,TN,38305,731-217-4294
Yugo's Auto Transport,692 Cattlemans Drive,Lenoir City,TN,37772,865-816-0548
Sunrise Freight,160 Cloninger Lane,Strawberry Plains,TN,37871,865-850-1367
Cagle Trucking,205 Blackwell Drive,Hohenwald,TN,38462,931-796-2920
Express Signs,403 Cherokee Street,Kingsport,TN,37660,423-246-3100
Devil Dogs Transport,1010 Boling Rd,Seymour,TN,37865,865-388-7578
Robert E Fields Trucking,134 Dock Fields Road,Roan Mountain,TN,37687,423-213-2241
C And O Transport,141 Sunny Acres Road,Jonesbourgh,TN,37659,423-557-2894
Ervin Trucking,305 Peak Lane,Goodspring,TN,38460,931-363-2272
T & R Transport,1368 Concord Rd,Westport,TN,38387,731-986-0730
East Tennessee Auto Auction,195 Joe R Mccrary Rd,Fall Branch,TN,37656,423-348-8419
Stan French Express,7469 Penngrove Ln,Fairview,TN,37062,731-614-3784
D & L Trucking,617 Hobbs Rd,Altamont,TN,37301,931-692-2011
Je Transport,5914 S New Hope Rd,Hermitage,TN,37076,615-319-6666
Gary Gifford Trucking,6610 Clarksville Highway,Joelton,TN,37080,615-876-0768
Blount Wrecker Service,1209 East Broadway Ave,Maryville,TN,37804,865-983-2436
Tyler Williams Transport,2062 Allen Ridge Drive,Sevierville,TN,37876,423-586-1076
Bean Station Auto Sales & Wrecker,974 Hwy 25e,Bean Station,TN,37708,865-993-5913
Carroll Truck And Equipment Repair,330 Pc Carroll Ln,Tazewell,TN,37879,423-526-2518
Lp Farm & Trucking,408 Otter Creek Road,Winfield,TN,37892,423-569-2848
Drc Carriers,3754 Tinker Hollow Road,Pigeon Forge,TN,37863,865-428-7241
Carter Trucking,895 Stonedoor Rd,Beersheba,TN,37305,931-692-2930
Noor Trucking Line,1930a Laurinda Dr,Nashville,TN,37217,615-638-0055
D Logistics,2185 Chelsea St,Memphis,TN,38108,901-481-7997
T J Laney Trucking,762 Glendale Rd,Jonesborough,TN,37659,423-753-8790
Middle Tennessee Transport,2530 Pollard Rd,Walling,TN,38587,931-256-6828
Lone Wolf Express,313 13th Street,South Pittsburg,TN,37380,423-774-9930
Deverell Transport,709 Union Road Se,Cleveland,TN,37323,423-472-1647
J C Delivery,349 Dawn Drive,Cedar Hill,TN,37032,931-278-0276
Gibson Transportation,15 Prokesh Road,Leoma,TN,38468,931-629-6907
Orton Auto Sales,1204 South Main,Columbia,TN,38401,931-490-1877
C & G Trucking,3480 Coconut Ridge Road,Smithville,TN,37166,615-597-4499
Scott Trucking,1636 Holly Hill Drive,Germantown,TN,38138,901-366-5473
Grace Trucking,7330 Remagen Lane,Knoxville,TN,37920,865-243-7015
Walters Trucking,6664 Hester Rd,Springfield,TN,37172,615-384-7775
Isaac Aaron Deliveries,551 D Harvey Road,Graysville,TN,37338,423-255-7207
Gizmo Trucking,497 Bancroft Chapel Road,Kingsport,TN,37660,423-343-7790
Express Medical Transporters - Emt,3755 Cherry Road,Memphis,TN,38118,901-531-6590
J And M Trucking,2954 Greer Rd,Goodlettsville,TN,37072,615-485-6135
Cardoso Transport,3181 Cumberland Hills Cir Nw,Cleveland,TN,37312,423-337-6053
Hoskins Trucking,9304 Oak Street,Ooltewah,TN,37363,423-910-0057
Transcorps Distributors,4084 Spring Hollow Dr,Memphis,TN,38115,901-484-7507
Triple T Truckin,325 Cropper Ridge Road,Red Boiling Springs,TN,37150,615-699-4626
Franklin's Coach & Tours,1680 Orr Street,Memphis,TN,38108,901-461-7278
M & M Trucking,75 Mt Zion Cemetery Loop,Savannah,TN,38372,731-412-9282
Southern Trucking,150 Reservoir Road,Petros,TN,37845,865-228-7461
Williams Transportation Services,888 Kerr Apt 12,Memphis,TN,38106,901-859-0121
Mc Daniel Trucking,2822 Tipple Road,Tracy City,TN,37387,931-592-6577
Kingsway Transport,379 Riverview Drive,Johnson City,TN,37601,423-282-2266
Bobbalou Trucking,211 Freeman Road,Tazewell,TN,37879,423-626-5314
Krh Trucking,477 Shawanee Rd,Harrogate,TN,37752,423-869-0511
Deberry Trucking,3969 Mill Branch Rd,Memphis,TN,38116,901-619-9686
Construction Equipment Services,298 Agency Creek Lane,Decatur,TN,37322,423-334-4523
J & R Express,207 Justwood Lane,Hohenwald,TN,38462,931-796-3372
Pryor Transport,819 Rickman Monterey Hwy,Rickman,TN,38580,931-267-5329
Gwinn Trucking,608 Pine Orchard Road,Butler,TN,37640,423-833-7002
Garcia Transport,2009 Layman Road Apt#72,Athens,TN,37303,423-506-0649
Mcdaniel Trucking,651 Brakebill Ave,Memphis,TN,38116,901-396-6698
Foggy Mountain Express,2515 East 43rd Street Suite F,Chattanooga,TN,37407,423-821-8044
White Line Transport,5 Milan Hwy,Humboldt,TN,38343,731-618-2575
Billy Voiles Trucking,3099 Gatewood Ford Road,Jamestown,TN,38556,931-879-9570
Twin D Auto Sales,221 Mckinley Church Road,Johnson City,TN,37604,423-928-3363
Oliver Logistics,1318 Venus Drive,Nashville,TN,37217,702-237-0399
Stevens Transport,847 Sandra Way,Kodak,TN,37764,865-465-7743
Brandon's Trucking,44 Uptonville Road,Mercer,TN,38392,731-424-4058
L&l Auto,334 Vine St,Savannah,TN,38372,731-607-6321
Bivens Backhoe And Mowing Services,1061 Austin Springs Road,Dukedom,TN,38226,731-469-9404
Cha Tile Distributors,5039 Us Hwy 411 S,Maryville,TN,37801,865-643-6062
Myles Trucking Company,2268 Knob Creek Rd,Columbia,TN,38401,931-380-0204
K Trachos Motor Transport,5205 Luann Drive,Antioch,TN,37013,615-810-7505
Roberts Trucking Line,1819 Mountain Drive,Sevierville,TN,37876,865-621-0781
Galeer Express,552 Brooksboro Terrace,Nashville,TN,37217,615-589-1249
Reed Transportation,2031 Sparkman Road,Cumberland Furnace,TN,37051,931-289-5395
"T&c Delivery Service, Inc.",204 Lauren Dr,Rogersville,TN,37857,423-345-0246
Ccr Transport,4407 Flynns Cove Rd,Crossville,TN,38572,931-260-5789
Cricket Express,5965 Isaac Huddleston Road,Cookeville,TN,38506,931-252-0463
Buck's Moving & Storage,2369 Covington Pike Suite 101,Memphis,TN,38128,901-266-7129
Deciated Trucking,405 Whispering Meadows Drive,Oakland,TN,38060,901-465-7188
Holley's Hauling,6004 Shallow Ford Road,Chattanooga,TN,37421,423-667-3945
Por Flor Trucking,137 Cockatiel Way,Parrotsville,TN,37843,865-322-0220
Cb Logistics,3873 Voltaire Ave,Memphis,TN,38128,901-388-6727
Central American Food,1960 Fort James Cir,Antioch,TN,37013,404-903-8530
"C Premier Transport, Inc.",4813 Northdale Drive,Memphis,TN,38128,901-337-1320
Pannell Trucking,10468 Columbia Highway,Lynnville,TN,38472,931-292-3992
Supply Dock Carriers Trucks,1804 Foster,Memphis,TN,38114,901-238-1571
Rife Hauling,1008 Old Newport Hwy,Dandridge,TN,37725,865-397-0973
Roth Transport,5619 Nickle Rd,Knoxville,TN,37921,865-740-6630
Johnson Trucking,3213 Sailmist Point,Antioch,TN,37013,201-934-3375
Carter Trucking,1492 Peavine Firetower Road,Crossville,TN,38571,931-267-6323
Sallee Trucking,2563 Oak Knob Road,Lafayette,TN,37803,615-666-5651
Southern Express,445 Harding Industrial Drive,Nashville,TN,37211,615-405-2976
Blace Trucking,1780 Curve Nankipoo Road,Ripley,TN,38063,731-635-7730
"Turf Transport, Inc.",311 Hill Circle,Dunlap,TN,37327,423-949-6255
Rush Auto-tow,240 State Street,Greeneville,TN,37743,423-586-1076
Murrell Trucking,604 S Union Street,Bolivar,TN,38008,731-658-0285
White Knight Xpress,9113 Woodpark Ln Apt D,Knoxville,TN,37923,865-256-6919
Montgomery Interstate Carriers,115 Judith Drive,Knoxville,TN,37920,865-388-9401
Hf Transport,5480 Wood Ridge Cove,Arlington,TN,38002,901-435-6272
Pods,10155 Gallows Point Dr,Knoxville,TN,37931,404-841-0485
M S Transportation,7100 Country Walk Dr,Cordova,TN,38018,901-644-4922
Juanauto2,1514uppermiddlecreekrd,Sevierville,TN,37876,865-428-1113
Barbwire Express,230 Rankin Road,Hartsville,TN,37074,615-772-6756
Mcgee's Delivery Service,219 Sue Ellen Drive,Lavergne,TN,37086,615-586-9424
Mckinnley Properties,411 W21,Chattanooga,TN,37408,423-762-4781
"Tempo Auto Sales, Inc.",3742 Hwy 70 W,Dickson,TN,37055,615-740-8879
Trand Transportation Express,181 Tusculum,Antioch,TN,37013,615-582-4543
C & S Hauling,37 Springview Dr,Jackson,TN,38305,731-217-9226
Tennessee Recovery Services,529 East 52nd Street,Chattanooga,TN,37410,423-531-1163
Gnl Transportation,4895 Fernbrook Dr,Memphis,TN,38118,901-369-0537
Refrigerated Cargo Express,4054 Lacewood Drive,Memphis,TN,38115,901-515-8797
Jag Trucking,336 Rooster Roost,Good Springs,TN,38460,931-363-8701
O'daniel Trucking,801 Woodword Ave,Athens,TN,37303,423-453-0557
Jb Trucking,1255 Windwood Farm Loop,Middleton,TN,38052,731-376-2420
Division Seven,3060 Emerald St,Memphis,TN,38115,901-415-0284
Cravens Carriers,6325 Sunnywood Drive,Antioch,TN,37013,615-831-9884
John Adkins,521 Stone Mill Rd,Jacksboro,TN,37757,N/A
Taylor Trucking,104 Tower Way,Allardt,TN,38504,931-879-8385
Cepheus Transport,173 Mcniel Drive,Murfreesboro,TN,37128,615-278-6661
Highland Rim Tractor,1333 Louisville Hwy,Goodlettsville,TN,37072,615-859-5037
T&t Trucking,230 Fellers Cove Rd,Mosheim,TN,37818,423-438-9275
Williams Transport Services,452 Maggie Mack Lane,Sevierville,TN,37862,865-428-1494
Rd Transport,87 Hickory Hollow Pl,Antioch,TN,37013,615-972-6192
Mkb Trucking,7858 Fallstone Rd,Memphis,TN,38125,901-315-9266
Charlie Boy Logistics,306 Gatewood Dr,Murfreesboro,TN,37129,423-544-0274
Dawgworks,12142 Bettis Road,Georgetown,TN,37336,423-595-2273
Securetronics,200-a Weakley Lane,Smyrna,TN,37167,615-223-7503
Dixie Dog Express,9991 Idaville Rd,Atoka,TN,38004,901-829-5330
Gladneyice Express Freight,904 East Drive,Memphis,TN,38108,901-458-6639
Lickety Split Couriers,2435 Whitten Rd #104,Memphis,TN,38134,901-363-6744
Tc Express,149 Scattered Acres,Dyer,TN,38330,731-692-2107
Cj Trucking,217 Linda Ave,Sparta,TN,38583,931-738-9155
Maples Transportation,260 Dogwood Rd,New Tazewell,TN,37825,865-585-1362
Tucker Transportation,9038 Reading Cv,Cordova,TN,38016,901-413-6824
Viper,735 Carlton St,Brownsville,TN,38012,N/A
Auto Advantage,121 Tutor Lane,Hohenwald,TN,38464,931-796-3405
Dayze Express,145 Old Union Rd,Kingston,TN,37763,865-242-4021
Trail Rider Express,485 Dogwood Ln,Henderson,TN,38340,731-989-2973
Rj Services,445 Apache Trl,Cleveland,TN,37312,423-479-8226
Ken Cathey Trucking,244 Bandy Road,Ashland City,TN,37015,615-207-6139
Swafford's Paint And Auto Repair,1400 S Cedar Ave,South Pittsburg,TN,37380,423-837-0002
Keller Transport,316 Browns Road,Lafayette,TN,37083,615-633-1700
Jia Trucking,630 South Sayler Street,Greeneville,TN,37745,423-234-0015
Transport Logistics,4377 Trinity Peytonsville Rd,Franklin,TN,37064,615-791-0620
Keepin' It Delivered Transport,2864 Culleoka Hwy,Culleoka,TN,38451,931-626-1644
Ritchey's Bus Service,931 Big Creek Rd,Madisonville,TN,37354,423-442-9546
"Tkt, Inc.",1100 Mtn Valley Road Hwy 131,Thorn Hill,TN,37881,865-767-2656
Jcj Expedited Services,100 East 28th Street,Chattanooga,TN,37410,423-756-9100
Holts Trucking,295 Glencoe,Memphis,TN,38109,901-785-3232
Macauley Trucking,1746 Connecticut Ave,Knoxville,TN,37921,865-851-7395
Smith Trucking,361 Quail Road,Covington,TN,38019,334-671-2851
B&k Home Delivery,507 Bradburn Village Circle,Antioch,TN,37013,615-686-5402
Freeman Trucking,94 Jan Street,Halls,TN,38040,731-693-0632
Element Of Surprise Trucking,60 W Norwood Ave,Memphis,TN,38109,901-214-6684
Tipton Trucking,1105 Browns Ferry Rd,Chattanooga,TN,37419,423-400-3028
Rpm Transport,1707 Fielden Store Rd,New Market,TN,37820,865-475-1002
H & S Hauling,758 Egypt Rd,Bluff City,TN,37618,N/A
Mfs Transportation,820 Lower Brownsville Road,Jackson,TN,38301,731-422-3888
Matthew Leach Trucking,797 North Main St,Dyer,TN,38330,731-693-4592
Mb Transport,2280 Hyndsver Road,Martin,TN,38237,770-990-3525
Memphis Transportation And Trucking,3637 Philesdale,Memphis,TN,38111,901-288-8593
Quality Transport,611 Confederate Circle,Old Hickory,TN,37138,615-773-7308
National Transportation Alliance,8245 Tournament Dr Suite 155,Memphis,TN,38125,901-255-8528
Hill Billy Trucking,2071 Mousetail Rd,Parsons,TN,38363,731-847-2846
Adamson Transport,2898 Beaver Rd,Munford,TN,38058,951-907-3515
Rapid Roadway Commerce,2664 Crest Park Road,Knoxville,TN,37912,865-673-0511
Humphrey Haulin,4402 Chestnut Ridge Road,Columbia,TN,38401,615-495-1695
J M S Express,228 West Fork Rd,Pleasant Hill,TN,38578,937-478-9876
D C & A Car Hauling,1908 Hwy 39 E,Englewood,TN,37329,423-333-7965
Auto Transport Company,230 Ski Mountain Road,Gatlinburg,TN,37738,865-456-5667
Standean Transportation,133 Bart Greene Drive,Johnson City,TN,37615,423-282-2799
Jon Brooks Trucking,1483 Ragan St,Memphis,TN,38106,901-946-3453
Goforth Express,107 Pettit Cabin Road,Spencer,TN,38585,931-946-2030
Phillips Logging & Trucking,7201 New River Hwy,Devonia,TN,37710,423-324-2379
Jeff Porter Enterprises LLC,3995 Pulaski Hwy,Lawrenceburg,TN,38464,931-762-2071
Brooks Trucking,126 Hugh Price Rd,Whitesburg,TN,37711,423-235-5796
Brothers Transport,200 Prosperity Drive Suite 216,Knoxville,TN,37923,865-824-1290
Bdr Transport,5036 Aspen Woods Cove,Arlington,TN,38002,901-381-5122
B & E Trucking,5236 Longmeadow Drive,Memphis,TN,38114,901-438-4988
T Marie Refrigerated Transport,4675 Old Lebanon Dirt Road G-92,Mount Juliet,TN,37122,615-887-5666
H & H Transport,485 Cole Rd,New Tazewell,TN,37825,606-302-3190
T & H Bobcat & Transport,1088 N Old Grey Ridge Road,Maryville,TN,37801,865-233-4820
Excel Trucking,4387 Richwood Place,Memphis,TN,38125,901-737-9840
Ack Services,105 Loxley Lane,Murfreesboro,TN,37127,615-410-7539
Hughes Distributing,7 Moccasin Ct,Johnson City,TN,37604,423-926-7418
Flint Mountain Trucking,1764 Hwy 352,Flag Pond,TN,37657,423-743-8499
Lmc Transport,4121 Log Cabin Lane Apt B,Cookeville,TN,38506,931-537-3722
P & A Trucking,8113 Laurel Bend Drive,Memphis,TN,38125,901-624-1230
Morris Trucking,105 Thornton Road,Holladay,TN,38341,931-225-8018
007 Express,107 Rambling Road,Nashville,TN,37217,615-839-2105
Reids Transport,273 Joel Rd,Oliver Springs,TN,37840,330-581-5647
Law Truckin,206 Ponder Gap Road,Ten Mile,TN,37880,865-717-0588
Hillbilly Haulin,7703 Janeway Hollow Rd,Bulls Gap,TN,37711,423-721-5379
Mpc Express,1217 Mary Jane Ave,Memphis,TN,38116,901-219-3305
Ryan Trucking,54 Butternut Ridge Rd,Crossville,TN,38571,931-787-9588
Kevin Hill Trucking,2009 West Holmes Road,Memphis,TN,38109,513-218-0689
Nationwide Freightlines,115 Hazel Path Suite 4,Hendersonville,TN,37075,615-447-1424
2 Way Express,3647 Stonetrace Circle,Memphis,TN,38135,901-383-7728
Wise Guy Trucking,2616 Patrick Avenue,Maryville,TN,37804,865-228-1360
K & W Transport,2917 N Hinton Rd,Clarksville,TN,37043,931-362-9363
Celada's Transportation,505 Dunailie Drive,Nashville,TN,37217,615-360-6951
Boling Trucking,312 Keener Road,Seymour,TN,37865,423-586-1076
Serious Enterprise,1011 North Second Street,Nashville,TN,37207,615-650-7416
Street Shows,605 N Main St,Medina,TN,38355,731-426-3332
Bts Express,305 Rosemary Lane,Shelbyville,TN,37160,931-488-1931
Semper Fi Haulers,153 Jenkins Road,Cleveland,TN,37312,423-790-0177
T & G Trucking,1301 Jackson Pond Cir,Cordova,TN,38018,901-491-2281
Customer Critical Services Tn,684 Piccadilly Row,Antioch,TN,37013,615-361-3613
Oconnor Motor Express,330 Doc Norton,Walland,TN,37886,865-201-9756
Perry's Expedited Freight Service,3513 Newsom Road,Whiteville,TN,38075,731-518-8577
All Coast Trucking,2078 Bohemia Cove,Cordova,TN,38016,901-785-6107
Quicksilver Transport,1028 Milton Vick Road,Ashland City,TN,37015,770-205-0218
Cook & Cook Trucking,3758 Legacy Dr,Springfield,TN,37172,615-881-6059
F Beason Trucking,7098 Hook Ridge Road,Monroe,TN,38573,931-823-2593
Hand Backhoe Dozer Service,4455 Lake Road,Woodlawn,TN,37181,931-647-3698
Anderson Trucking,1100 Old Clarksville Pike,Pleasant View,TN,37146,615-746-6968
Edwards Trucking,159 Penile Court,Decherd,TN,37324,931-247-2950
Sos Express Services,450 Itawamba Rd,Collierville,TN,38017,901-861-9622
Top Billing Driver Placement Service,9 Music Square South,Nashville,TN,37203,615-297-2771
J&r Trucking,624 Neely,Bolivar,TN,38008,731-659-2815
S & T Farming And Trucking,328 Tom Mc Corkle Rd,Bath Springs,TN,38311,731-549-3047
Advanced Trucking,6129 Babelay Rd,Knoxville,TN,37924,865-850-9146
Charles Battenslag Trucking,2313 Ingleside Road,Donelson,TN,37214,615-883-6189
Laney Trucking,2843 Carters Valley Rd,Church Hill,TN,37642,423-765-7811
Bogle Transport,122 Cockatiel Way,Parrotsville,TN,37843,865-603-1329
Pork Chop Express,213 Blueberry St,White House,TN,37188,615-498-1107
Sydney Group,2567 Prime Way Ste 101,Knoxville,TN,37918,865-232-1752
Rsm Express Delivery,1006 Sawyers Drive,Murfresboro,TN,37129,678-852-3663
Tsw Trucking,4130 Barnstable Cove,Memphis,TN,38125,901-338-8272
M.a.brinkley Family Trucking,409 Bybee Branch Rd Apt. E6,Mcminnville,TN,37110,931-474-3017
Davis Trucking Services,3574 Boxtown Rd,Memphis,TN,38109,901-496-6477
Duncan Charter And Tours,2901 Barneys Lane Ne,Cleveland,TN,37323,423-614-7806
R & D Trucking,400 Shepherd Hollow,Indian Mound,TN,37079,931-627-4225
R W Copeland Trucking,7315 Yager Drive,Moscow,TN,38057,209-471-4130
Daniels Trucking,148 Harris Rd,Englewood,TN,37329,423-519-8807
Boone Trucking,1114 Lamont Court,Clarksville,TN,37042,800-226-3696
Charles Hollon Trucking,320 Baker Rd,Tracy City,TN,37387,931-592-3210
Miller Trucking,170 High Street,Pulaski,TN,38478,931-363-6447
Cj Transport,1443 Union Camp Road,Lafayette,TN,37083,405-283-0698
R&j Express Transport,7214 Alexandria Dr,Murfreesboro,TN,37129,615-417-1472
Eze Trucking,1396 Hwy 114 W,Bath Springs,TN,38311,731-733-0348
Us Express Transport,143 Turnpike Road,Madisonville,TN,37354,865-809-2167
King James Trucking,1109 Old North Kentucky Street,Kingston,TN,37763,423-586-1076
Skydog,13090 Sneed Point,Lyles,TN,37098,612-799-5214
Koi Expedited,3801 Ringgold Road,East Ridge,TN,37412,423-645-6098
Production Transportation,1138 N Germantown Pkwy Suite 101 #326,Cordova,TN,38016,901-494-9073
Tjz Transport,112 Orlando Drive,Chattanooga,TN,37415,423-870-6838
B&b Trucking,7701 Strawberry Plains Pike,Knoxville,TN,37924,865-567-1295
Kdk Transport,239 Frog Pond Cemetary Road,Lafayette,TN,37083,615-666-5316
Circle B Trucking,255 Hilldale Road,Midway,TN,37809,423-552-1324
Equipment Service & Repair,519 Cook Road,Portland,TN,37148,615-636-4213
T&t Trucking,131 Nicole Street,Morrison,TN,37357,931-635-2402
R And S Carrier Service,482 Millwood Road,Nashville,TN,37217,615-635-3860
Grimwood Trucking,2352 Lapaloma,Memphis,TN,38116,901-282-6079
M & M Auto,3546 Highway 421,Bristol,TN,37620,423-878-3350
Denton Transport,8044 Franks Ferry Rd,Walling,TN,38587,931-657-8803
Nnn Trucking,151 County Road 758,Riceville,TN,37370,423-462-2557
R5 Trucking,523 County Road 442,Athens,TN,37303,423-744-8397
Eaton And Son,241 Buncombe Road,Blountville,TN,37617,423-323-4902
Babi Blu Express,4130 Silver Leaf Road,Memphis,TN,38115,901-289-5334
Rush Automotive,109 Peirce Street,Elizabethton,TN,37643,423-543-6100
A&s Truck Brokers LLC,283 Lake View Drive,Bluff City,TN,37618,423-391-7120
Hyperactive Motorsports,846 Dinah Shore Blvd,Winchester,TN,37398,931-962-4646
We-be-trucking,1060 Seay Rd,Adamsville,TN,38310,731-412-9421
Bill Manning Trucking,265 Pillowville - Gleanson Rd,Gleason,TN,38229,731-648-9254
Gaylor Excavating & Hauling,305 East Central Ave,Lafollette,TN,37766,423-562-2500
B & J Enterprises,5680 Hwy 194,Rossville,TN,38066,901-238-5525
Rick And Mike Trucking,4899 Gadwall Dr W,Memphis,TN,38141,901-218-5070
L&c Deliveries,405 Tuckahoe Drive,Madison,TN,37115,615-419-0204
Suddath Relocation Systems,3317 Charlotte Avenue,Nashville,TN,37209,615-292-5541
Titanium Transportation,237 Greenwood Dr,Lebanon,TN,37090,615-812-9457
Asbury Trucking,264 Friendship Dr,Bristol,TN,37620,423-878-7577
Ferguson Farms And Trucking,1178 Fosterville Road,Bell Buckle,TN,37020,615-233-5135
Elite Transport,9289 Old Jackson Ridge Rd,Rockvale,TN,37153,615-274-3737
Rose Farms,149 Hartmantown Road,Jonesboro,TN,37659,423-753-0640
Direct Trucking,3449 Brookedge Ln,Collierville,TN,38017,901-864-6721
M & M Trucking,3355 West Union Rd,Millington,TN,38053,901-573-3709
May Brothers Automotive,6807 Lee Hwy,Chattanooga,TN,37421,423-894-3907
Arletha Weaver,5000 Lochlomond Dr,Memphis,TN,38116,901-481-1849
L & L Movers,621 Staley Street,Murfreesboro,TN,37129,615-867-4473
Arnett Trucking,330 Andy Arnett Road,Roan Mountain,TN,37687,423-772-0070
C & L Express,11 Shores Lane,Pleasant Shade,TN,37145,615-774-3634
Langley Motor Freight,1565 Blackburn Fork Rd,Cookeville,TN,38501,931-644-9194
Gary Spears Trucking,176 City Lake Lane,Livingston,TN,38570,931-403-0255
Big Tow,798 Kings Lane,Tullahoma,TN,37388,931-455-0590
Equipment Expressz,63 Mathis Crossing,Milan,TN,38358,731-686-7750
Parker Auto Sales,6012 Ringgold Road,East Ridge,TN,37412,423-893-9391
Mallard's Backhoe Service,319 Gordon Rd,Dyersburg,TN,38024,731-285-8918
Dsh Trucking,1110 Cordova Club Drive,Cordova,TN,38018,901-230-8690
Cave Cove Trucking,499 Cave Cove Road,South Pittsburg,TN,37380,423-883-6480
Kandl Trucking,380 North Centerpoint Rd,Portland,TN,37148,615-326-9041
J N L Farms,P O Box 23,Stewart,TN,37175,931-920-4598
Da Silva Transportation Services,2108 Debbie Ln,Lavergne,TN,37086,N/A
D & L Transport,320 County Road 849,Etowah,TN,37331,423-781-7038
Davis Farms,1812 Slim Bray Road,Cookeville,TN,38506,931-432-1005
Eternity Transportation,7116 Adams Dr,Fairview,TN,37062,615-266-2238
Sanford Logistics,665 W Dumplin Valley Road,Jefferson City,TN,37760,423-586-1076
Hoggtown Express,246 Meadow Greene Ln Apt F,Gordonsville,TN,38563,615-774-3844
John Yokum Trucking,128 Watauga Valley Church Road,Elizabethton,TN,37643,423-474-2151
Blackstone Trucking,1310 Lee Brown Road,Bon Aqua,TN,37025,615-412-3711
Courtesy Transportation,3795 Old Getwell Road,Memphis,TN,38118,901-367-1907
Buffalo Valley Trucking,16035 Dennys Lane,Buffalo Valley,TN,38548,931-858-2971
Csc Trucking,7896 Dayton Mountain Hwy,Dayton,TN,37321,423-570-9345
Cooper & Son Transportation,1907 Crestview Dr,Columbia,TN,38401,931-380-9040
Bailey Contracting,169 Forest Ridge Drive,Harriman,TN,37748,423-369-2876
Nomad Transport,1950 Silvercity Road,Russellville,TN,37860,423-586-7931
In The Wind Enterprises,726 Pollard Rd,Kodak,TN,37764,865-932-1582
Crouch Trans,131 Short Street,Morrison,TN,37357,931-668-0174
D & T Trucking,7910 Old Lee Highway,Ooltewah,TN,37363,423-894-9494
Bowling Trucking,930 Jurgins Rd.,Robbins,TN,37852,423-627-4673
Powell & Sons Crane Rental,215 River Hills Drive,Nashville,TN,37210,615-883-3900
Allen Trucking,4333 Dupont St,East Ridge,TN,37412,423-704-4058
Bich Stats Trucking,1429 Mud Spring Hollow,Lobelville,TN,37097,931-922-0903
Joes Mobile Home Transporting LLC,129 Champion Dr,Cleveland,TN,37312,423-614-4965
Auto2auto,981 Industrial Park Rd,Columbia,TN,38401,931-490-6531
Hotshot Hustlers,1040 Mt Moriah Road,Somerville,TN,38068,901-485-4930
J & H Trucking,3655 Westport Road,Huntington,TN,38344,731-986-9575
River City Transport,2634 West Park Dr,Murfreesboro,TN,37129,615-785-9294
Lost Creek Trading Company,619 East Madison Ave,Athens,TN,37303,423-745-2675
Daniel Talley Trucking,6485 Country Oaks Circle #83,Memphis,TN,38115,901-795-0041
S & S Express,1185 St James Road,Greeneville,TN,37743,423-552-0467
Payne & Rowan Transport,200 Belle Lake Drive,Nashville,TN,37221,615-662-0589
"N E A L Trucking, Inc.",4221 Old Forrest Road,Memphis,TN,38125,901-309-2417
Flyin W Transport,9404 Finger Leapwood Road,Bethel Springs,TN,38315,731-610-6638
Nashville High Lift,522a 39th Ave No,Nashville,TN,37209,615-742-9999
R & T Trucking,295 Walnut St,Savannah,TN,38372,731-926-3853
Deakins Mail Contracting,306 Scott St,Athens,TN,37303,423-744-0543
Moffitt Trucking & Trading,180 Kristan Lane,Mcminnville,TN,37110,931-668-3180
Rpm Trucking,918 Oak Street,Manchester,TN,37355,931-224-3973
Dillards Backhoe Service,195 Oak Dr,Portland,TN,37142,615-325-4226
R P Trucking,1175 Billy Parchman Road,Erin,TN,37050,931-289-4763
"Dougs Auto Sales, Inc.",2400 Hwy 49e,Pleasant View,TN,37146,615-746-3684
Hume Trucking,1203 Lake Rd,Dyersburg,TN,38024,731-287-7608
Gts Refreshments,2029 Brookside Lane,Kingsport,TN,37660,423-578-8188
T & T Hauling,160 S Lincoln Road,Fayetteville,TN,37334,256-508-2424
Tct Transport,3440 General Carl W Stiner Hwy,Lafollette,TN,37766,423-586-1076
Cfi Express,110 N Wilson St,Dresden,TN,38225,731-364-5577
Carr & Son Hauling,5946 Edmondson Lane,Knoxville,TN,37918,865-556-2930
Rons Moving & Hauling,1212 Navy Drive,Knoxville,TN,37920,865-973-0698
Trent Auto Sales And Repair,326 N Shepherd Drive,Bulls Gap,TN,37711,423-235-4477
Jenkins Auto Transport,107 Empson Dr,Greenbrier,TN,37073,615-643-6352
Vip Moving And Storage Of Tennessee,200 W 12th St,Columbia,TN,38401,931-388-0557
Jb Transport,1161 John Oliver Rd,Mcminnville,TN,37110,931-808-6399
A & D Auto Transport,624 Redbud Circle,Manchester,TN,37355,931-273-2307
La-rail Trucking,2213 Hwy 59 S,Covington,TN,38019,901-476-7206
On The Way Trucking LLC,2020 Labelle Street,Memphis,TN,38114,901-315-6726
T And M Trucking,2370 Simmons Rd,Pikeville,TN,37367,423-881-3604
Creative Moving,47 Sun Hill Rd,Dunlap,TN,37327,931-215-0010
Brian Crouch Trucking,15 Bobwhite Lane,Paris,TN,38242,731-697-6934
Sonja Transportation,17 Thistledown Circle,Jonesborough,TN,37659,423-677-5846
J D Howard Trucking,236 Wade Hampton Lane,Decaturville,TN,38329,731-549-2925
Zack Courier Service,143 Cherry Bottom Road,Caryville,TN,37717,865-389-4723
Rawhide Express,2654 Holttown Rd,Newport,TN,37821,423-237-4505
Exhibitor Source,144 Bain Drive Suite 100,Lavergne,TN,37086,615-287-9800
Shane Hall Trucking,85 Dr Williams Drive,Michie,TN,38357,731-689-3494
Marty's Trucking,8403 Summers Park Lane,Soddy Daisy,TN,37379,423-847-8654
C J Express,105 Rock Creek Rd Suite 4,Erwin,TN,37650,423-743-3044
Har Trucking,4965 Harvest Park,Memphis,TN,38125,901-864-6773
A & C Services,550-a Airport Rd,Gallatin,TN,37066,615-394-9491
Air Express Freight Company,2158 Hollywood Drive,Jackson,TN,38305,731-256-8000
Three And One Transport,535 Goshen Rd,Winchester,TN,37398,931-967-0782
Starlight Logistics,860 Pinewood Circle,Morristown,TN,37814,614-604-4420
M P O Transport,107 County Road 283,Niota,TN,37826,423-351-1492
Bobby Burroughs Construction Co,7828 Moses Road,Hixson,TN,37343,423-843-3727
Yarber Transport,476 Dry Branch Road,Laurel Bloomery,TN,37680,423-727-4206
R C Trucking,4495 Highway100,Whiteville,TN,38075,731-254-9671
Corbin Farms,254 Shoally Branch Road,Leoma,TN,38468,931-852-4397
Forshee Trucking,408 Grapevine Ave,Madison,TN,37115,615-419-0373
Mccartney Produce Company,211 Fentress Street,Paris,TN,38242,731-642-2362
Crm Enterprise,154 Woodland Heights,Elizabethton,TN,37643,423-213-5555
Inc Transport,2918 Main St,Surgoinsville,TN,37873,423-345-3274
St Joseph Milling,503 N Main Street,St Joseph,TN,38481,931-845-4111
C M Transport,111 King Lane,Clinton,TN,37716,865-730-6480
Gone Again Trucking,1725 Janets Way,Dandridge,TN,37725,865-484-0859
Marine Contractor,248 Pinecrest Rd,Jacksboro,TN,37757,865-256-9839
Sparky's Machinery Movers,4027 Kellys Ferry Rd,Chattanooga,TN,37419,423-821-5806
Lb Express,321 S Pauline Ste 5,Memphis,TN,38104,901-523-0305
L & M Trucking,1031 Love Road,Morrison,TN,37357,931-728-4733
Tri States Distributing,2520 Plum Street,Nashville,TN,37207,615-262-0022
J L Birt Trucking,101 Largo Ct,Rockvale,TN,37153,423-364-6558
Double J Trucking,289 Hudson Rd,Piney Flats,TN,37686,423-797-0149
Jennings Transport,18 Hix Road,Gordonsville,TN,38563,615-683-6278
Eden Trucking,1715 Jackson St,Chattanooga,TN,37406,423-504-8496
Hood Trucking,1953 Dancyville Rd,Stanton,TN,38069,731-432-0356
On Time Trucking,2296 Edith Nankipoo Road,Ripley,TN,38063,731-635-6009
Chattanooga Air Freight,2813 Dodson Ave,Chattanooga,TN,37406,423-892-7445
Blue Ridge Transport,403 Locust Street,Halls,TN,38040,731-413-8272
Bet,319 Hurst Road,Speedwell,TN,37870,423-290-7760
Robinson Auto Sales,147 County Rd 656,Athens,TN,37303,423-744-0844
H&w Transportation LLC,3874 Viscount Ave Suite 210,Memphis,TN,38118,901-795-5093
T & D Gas Services,3151 Leadvale Rd,White Pine,TN,37890,865-674-2855
Bates Trucking,9314 Ooltewah-georgetown Road,Ooltewah,TN,37363,423-344-8814
James Carden Trucking,101 Swafford Cemetary Rd,Georgtown,TN,37336,423-559-9697
Jag Ltl Express,7297 Murfreesboro Hwy,Manchester,TN,37355,931-723-4494
Express Svc Co,1604 Castleberry Ave,Chattanooga,TN,37412,423-499-1270
Tim Looper Trucking,1616 Dry Hollow Road,Monterey,TN,38574,931-445-3560
K-pax Transport,1064 Artie Harris Rd,Ashland City,TN,37015,615-574-0202
Mickeys Auto Transport,1751 Hwy 11e,Jonesborough,TN,37659,423-753-7344
Homer's Kwik Lube Auto Repair & Collison Center,1657 South Shady St,Mountain,TN,37683,423-727-4848
Bolton Auto Sales,5410 Summer Ave,Memphis,TN,38134,901-385-6300
Sandra Holder Trucking,7955 Steven Franklin Dr,Bartlett,TN,38133,901-377-8258
D&t Xpress,5182 Forest Oasis Ln,Bartlett,TN,38135,901-297-3712
Eben-ezer Transport LLC,6908 Lee Highway,Chattanooga,TN,37421,832-499-0486
Williams Trucking,203 South Young Street,Sparta,TN,38583,931-316-3289
Mcgee Live Stock,27 Volunteer Drive,Petersburg,TN,37144,931-659-9217
S & B Trucking,2198 Bear Creek Rd,Collinwood,TN,38450,931-724-5501
Transport Expediting Service,3922 Yorktown Road,Chattanooga,TN,37416,423-580-4448
"Fcs Tranport, Inc.",119 S Main St Suite 500,Memphis,TN,38103,901-322-4335
Wilkins Trucking,4433 Bingham St,Murfreesboro,TN,37129,615-893-8031
Two Men And A Truck,1656 N Shelby Oaks Dr Suite 9,Memphis,TN,38134,901-937-0123
Radem Trucking,3725 Campground Rd,Munford,TN,38058,901-837-7792
Brightway House Movers,2110 Ballplay Road,Madisonville,TN,37354,423-442-4436
J & D Qualls Wrecker Service & Repair,2242 Murfreesboro Highway,Manchester,TN,37355,931-728-1694
Wright Transport,1014 Birmingham Hwy,Chattanooga,TN,37419,423-825-5217
Suzette Express,7227 Big Horn,Crossville,TN,38572,931-200-9149
M & M Trucking,75 Mt Zion Cemetary Loop,Savannah,TN,38372,731-412-9203
Ricketts Enterprises,975 Mt Ararat Rd,Darden,TN,38328,731-845-5767
S & D Trucking,2387 Garrett Ball Road,Gates,TN,38037,731-413-8917
Walton Transport,4829 Valley Von Way,Arlington,TN,38002,901-488-7500
Specialty Vehicle Sales And Service,1137 Bristol Highway,Elizabethton,TN,37643,423-543-2510
Harness Trucking,1122 Old Williamsport Pike,Columbia,TN,38401,931-840-0658
Plow Boy Trucking,2254 S Grundy Quarles Hwy,Gainesboro,TN,38562,931-268-6912
Duvall Trucking,318 Bill Mauk Rd,Chuckey,TN,37641,423-257-2644
Tracy Bowen Trucking,304 Collins Road,Portland,TN,37148,615-325-9296
B & D Auto Transport,230 Ingle Hollow Road,Sevierville,TN,37876,865-363-6488
Christopher Truck Lines,3675 New Getwell Rd Suite 2,Memphis,TN,38118,901-331-8581
Total Scope Construction Services,5560 Hwy 19 East,Hampton,TN,37658,423-725-2106
Bt Express Trucking,4284 Nicholas Cove,Millington,TN,38053,870-400-0242
Alexander Trucking,3805 W Fork Creek Rd,West Moreland,TN,37186,615-666-5939
Christophers Trucking,5036 Short Mountain Hwy,Smithville,TN,37166,615-971-4507
Badly Bent Trucking,1084 County Rd 316,Niota,TN,37826,423-334-4293
Rabbit's Mobile Home Transport,575 Hurricaine Creek Rd,Lynchburg,TN,37352,931-247-1038
Hughes Transport,915 Urssery Rd South,Clarksville,TN,37040,931-302-0057
Tommy G's Auto Transport,1958 Flatwoods Road,Lebanon,TN,37090,615-500-0712
Titan Waste Services,506 Interstate Blvd,Nashville,TN,37224,615-251-0103
Enterprise Commerical Trucks,209 Seaboard Lane,Franklin,TN,37067,615-771-5699
Edw Trucking,5022 Harvest Park Drive,Memphis,TN,38125,901-759-0378
Blue Arrow Express,211 Love Road,Sevierville,TN,37862,419-438-2920
M J H Hauling & Trucking,175 Southern Lane,Tazewell,TN,37879,606-269-3261
T & T Trucking,551 Otter Creek Rd,Winfield,TN,37892,423-569-9302
Kevin's Horse Transportation,2226 Grey Ridge Road,Maryville,TN,37801,865-982-1339
Green Fleet,166 Parker Lane,Whiteside,TN,37396,615-469-2378
Denton Trucking,1217 Muddy Loop Road,Dandridge,TN,37725,865-397-9367
Beaty Enterprise,810 Mitchell Lane,Jamestown,TN,38556,931-879-7637
J C's Hauling Services,9555 State Route 78 South,Ridgley,TN,38080,731-446-7667
Black Velvet Transportation,219 Roxbury Court,Jefferson City,TN,37760,865-940-1146
R L Wilson Trucking,4571 Elkins Dr,Centerville,TN,37033,931-994-9085
R & K Trucking,516 Shipley Rd,Manchester,TN,37355,931-728-9420
Rusty Stubblefield Trucking,23 Spring Street,Sherwood,TN,37376,931-598-9091
Sky's Transport,150 Kd Lane,Maynardville,TN,37807,865-992-3344
J And K Livestock Transportation,109 South Hatton Ave,Lebanon,TN,37087,615-524-2950
D&d Transportation,2965 Teauge Store Rd,Somerville,TN,38068,901-413-2590
Allen Cable,1309 Colliers Bend Rd,Charlotte,TN,37036,202-521-1493
Cagle Trucking & Excavating,918 New Bethel Road,Dayton,TN,37321,423-775-4222
Gilley Transportation,1181 New Stansbury Road,Turtletown,TN,37391,423-548-6111
Hankins Auto Transport,116 Cherry Lane,Mcminnville,TN,37110,931-474-1898
Hee Haul,2515 E 43rd St Suite E,Chattanooga,TN,37407,423-821-8044
Bee Line Express LLC,2218 Hickory Lane,Pigeon Forge,TN,37863,704-562-8048
B B & B Trucking,125 Armory Ln,Savannah,TN,38372,731-607-5881
D-r Hauling,305 Gaffney Road,Bristol,TN,37620,423-968-3538
Mustang Express Trucking LLC,517 Callie Ave,Gallatin,TN,37066,615-525-4978
J H F Transportation,25 Walter Stuart Loop,Whiteville,TN,38075,731-254-2049
Fox Expedited Service,3515 E Newberry Lane,Memphis,TN,38115,901-679-0401
Waldron's Trucking,55 Mike Bryant Rd,Petersburg,TN,37144,931-652-0348
Stanton Trucking Co,3224 Mexico Dr,Nashville,TN,37218,615-244-4530
Flat Top Mountain Trucking,234 Bowman Cemetary Rd,Soddy Daisy,TN,37379,423-332-5296
Custom Cargo Carriers,2515 Goose Creek Bypass,Franklin,TN,37064,615-794-9870
Superior Transportation,1323 Mercury Dr,Nashville,TN,37217,615-995-5337
Jeff's Express,127 Goodson Ave Apt 4,Chattanooga,TN,37405,865-253-2274
R & T Transport,880 Tyne Gray Rd,Afton,TN,37616,423-639-9642
T & M Trucking,2855 Clinton Highway,Powell,TN,37849,865-292-9563
First Class Transportation,368 Blackberry Hill Rd,Silver Point,TN,38582,931-319-2190
Triple D Transport,25 Ford Road,Leoma,TN,38468,931-332-1275
C & D Trucking,160 Cuel Lane,Jellico,TN,37762,606-261-4328
Y & R Trucking,3075 Pine Allee Cove,Memphis,TN,38115,901-365-8893
Volunteer State Transport,1575 Dixon Branch Rd,Sevierville,TN,37876,865-963-5911
Hogue Trucking,564 Salisbury Road,Halls,TN,38040,731-836-5416
F & F Transfer,6802 Lindal Rd,Knoxville,TN,37931,865-539-0790
Matthews Express,2945 Lakeland Dr,Nashville,TN,37214,615-818-0369
Move It Now Of Chattanooga,5950 Shallowford Rd Suite A,Chattanooga,TN,37421,423-296-8900
W A Backer Trucking,5000 Old Paris Murray Road,Paris,TN,38242,731-642-3629
R & F Transportation,2301 Mike Maxwell Road,Cookeville,TN,38506,931-432-5722
Bogdan Havrylovych ,3709 Buffat Mill Rd,Knoxville,TN,37914,503-560-2186
Gentry Transport,2490 Happy Hollow Road,Parrottsville,TN,37843,423-623-0882
Chariot Freightway,6125 Sudbury Ln #203,Memphis,TN,38119,901-282-7583
Danny Ward Trucking,454 Sullivan,Memphis,TN,38109,901-345-5112
Eagle Trucking,850 Richards Rd Apt F-16,Antioch,TN,37013,615-482-5805
Anaruma Transport,3445 Hawks Ridge Road,Columbia,TN,38401,951-805-7412
Bobbitt Trucking,5388 Airways Blvd,Memphis,TN,38116,901-491-8420
Tri State Express,101 W Unaka Ave Suite 5,Johnson City,TN,37601,423-262-8433
M & S Express Carrier,4357 Airport Rd,Springfield,TN,37172,615-384-2109
Davis Trucking,1599 Sutton Meadow Ln,Cordova,TN,38016,901-270-6672
Shstransport,10167 Short Mountain Hwy,Smithville,TN,37166,615-796-9277
Pennies And Sense,4003 Hwy 43 N,Ethridge,TN,38456,931-829-2134
Dp Trucking,129 Sunny Acers,Elizabethton,TN,37643,423-543-1783
Marden Expedite,2212 Pennyhill Place,Spring Hill,TN,37174,615-300-5262
Peggy Moss,1285 Old State Line Rd,Saulsbury,TN,38067,731-212-1442
Sallee Transport,3146 Oak Knob Road,Lafayette,TN,37083,615-666-2022
Ronnie Deel Courrier Service,220 Paramount Dr,Bristol,TN,37620,423-968-5523
Darson Transport,4223 Sunnyslope Dr,Memphis,TN,38141,901-283-8958
Cronan Trucking,2346 Horns Creek Road,Old Fort,TN,37362,423-338-9855
Bubby Trucking,2591 Bunches Chapel Rd,Parsons,TN,38363,731-847-2468
Luke's Trucking,1750 Hwy 25-70 West,New Market,TN,37820,941-809-3741
Dj Hood Trucking,112 Third Avenue North,Loretto,TN,38469,931-853-6262
Elk River Specialized,14 Plada Heights,Fayetteville,TN,37334,931-433-5745
Briggs Transportation,154 Clyde White Road,Elizabethton,TN,37643,423-474-2831
Trailer Convoys,1418 East Sevier Ave,Kingsport,TN,37664,423-245-0409
Done Deal Transportation,3601 Millington Road,Memphis,TN,38127,901-496-3129
D L D Transportation,4410 Blackburn Mountain Road,Sparta,TN,38583,931-260-7620
Greeneville Wrecker And Repair,191 Moser St,Greeneville,TN,37745,423-638-9974
Easter's Transport Service,1864 Orchard Park Dr,Murfreesboro,TN,37128,615-848-0700
Montgomery And Carter Logistics LLC,3480 Kirby Rd,Memphis,TN,38115,901-268-7970
Winters Trucking,2851 Hwy 421 North,Mountain City,TN,37683,423-727-0249
Mr B's Auto Sales,5430 Highway 41,Jasper,TN,37347,423-942-8818
Reed Transport,3685 Hwy 43 South,St Joseph,TN,38481,931-845-4590
Max Trucking,2109 Bit Ln ,New Market,TN,37820,865-300-7600
Waylon Jeffers Trucking,1019 Slaven Lane,Oneida,TN,37841,423-569-5000
Jc Transportation,6510 Lake Valley Dr,Memphis,TN,38141,901-219-3821
Calhoun Trucking,2972 Dearing Cv,Memphis,TN,38118,901-949-1076
Tennessee Truck,5433 Village Garden Dr,Ooltewah,TN,37363,423-238-3693
Kross Auto Transport,340 Grigsby Hollow Rd,Kingston,TN,37763,865-748-1341
Jenkins Transport,116 Turkey Creek Hwy,Carthage,TN,37030,615-735-9671
Am Pm Trucking,3744 Alibi Court #3,Memphis,TN,38115,901-367-0887
Flatbranch Express,Rt 1 Box 2184,Monteagle,TN,37356,931-581-4358
B & M Auto Wrecker Service,531 Finley Street,Dyersburg,TN,38024,731-287-7013
Glenns Express,210 Laurel Av,South Oittsburg,TN,37380,423-802-2921
Nelson Trucking,1829 Bear Springs Wy,Sevierville,TN,37862,865-453-8213
Dff Trucking,1922 Raccoon Valley Road,Heiskell,TN,37754,865-938-1676
Jr's Trucking,810 Washington Avenue Apt 207,Memphis,TN,38105,901-521-8321
O R Bennett Trucking,3982 Bates Pike,Cleveland,TN,37323,423-715-6140
Gk Construction,5067 Halls Hill Pk,Murfreesboro,TN,37130,615-867-4227
Moon Trucking,100 Country View Way,Newport,TN,37821,423-623-8785
John Kelley Trucking,1377 Lawrenceburg Highway,Waynesboro,TN,38485,931-722-6449
Tdy Transport,1012 Old Hwy 70 East,Camden,TN,38320,731-584-5576
Ratliff Parcel Service,6867 Kingham Cove,Memphis,TN,38119,901-218-4001
G E Z Trucking,1135 Highway 163,Calhoun,TN,37309,423-336-1553
B & B Hauling LLC,176 Adams Ln,Jellico,TN,37762,423-784-1505
Kilby Stone Yard,221 Tower Road,Grandview,TN,37337,423-365-2593
Scorpion Trucking,3202 Washington Pk,Knoxville,TN,37917,865-228-7425
Sullivan Truck Lines,1983 Chinquapin Grove Road,Bluff City,TN,37618,423-538-9088
Martina Enterprise,3521 Valley View Hwy,Sequatchie,TN,37374,423-421-3841
BullsgapexpressLLC,14055 West Andrew Johnson Highway,Bulls Gap,TN,37711,423-235-6335
Stephen Byrd Trucking,505 Lacey Dr,Strawberry Plains,TN,37871,865-933-9280
Chattanooga Auto Transport,2815 B Walker Rd,Chattanooga,TN,37421,423-421-1250
Perry Tyree Farms LLC,236 Tyree Road,Trenton,TN,38382,731-559-4405
C B Transportation,604 Seaford Court,Smyrna,TN,37167,615-220-8849
Tinsley Transportation,2722 Mclemore Rd,Franklin,TN,37064,615-791-5505
Johnstone Trucking,104 Morella St,Kenton,TN,38233,731-749-6634
Charlie's Service Center,Po Box 869,Blountville,TN,37617,423-323-1770
Danny Moore Trucking,210 Randolph W,Decatur,TN,37322,423-334-5114
Cozy Cabin Construction,510 Wilson Newby Rd,Mcminnville,TN,37111,931-580-0083
Transnav Tech Logistics,5547 Maumee Cove,Memphis,TN,38125,901-755-6941
Cla Transport,683 John Burch Rd,Dunlap,TN,37327,423-447-2970
M R Gardner Trucking,4673 Clarksville Pike,Nashville,TN,37218,615-876-9828
G & A Trucking Service,4833 Hodge Rd,Memphis,TN,38109,901-785-4880
H&d Service Station,321 Billie Ridge Road,Jamestown,TN,38556,931-879-8359
Mike Walden Trucking,152 County Rd 270,Niota,TN,37826,423-568-2340
T&m Distributing LLC,1572 C South Maple Avenue,Cookeville,TN,38506,931-526-1117
Bills Trucking,1376 Waterville Rd,Hartford,TN,37753,423-237-2727
"Avs, Inc.",415 Jones Street,Decatur,TN,37322,423-334-3013
Ramsey's,545 East Hill Rd,Jasper,TN,37347,423-939-0427
Hayes & Sons Trucking,909 Hillmont Camp Rd,White Bluff,TN,37187,615-797-4190
Rebel Transport Service,3969 S Davy Crockett Pkwy,Morristown,TN,37813,423-317-0655
Jim Harrison Transport,2508 Boysenberry,Bartlett,TN,38134,662-401-8436
Mike Barretts Automotive And Wrecker Service,1551 West College St,Murfreesboro,TN,37129,615-890-8607
Crossed Roads Transport,2951 Charlestowne Place,Memphis,TN,38115,301-553-1944
Ed's Trucking And Tractor Work,3233 Old Lowes Ferry Rd,Louisville,TN,37777,865-379-8983
Aeroexpedited,1938 Fairfield Pike,Shelbyville,TN,37160,931-224-5207
Scottie Howard Trucking,232 Farris Road,Crossville,TN,38571,931-456-9568
Jaj Trucking,6326 Winchester,Memphis,TN,38115,901-546-8164
Hot Shot Courrier,368 Willie Pickens Road,Covington,TN,38019,901-476-5103
Trivette Auto Empire,104 Trivette Private Drive,Elizabethton,TN,37643,423-502-9610
Johnny Brock Trucking,174 Metcalf Ln,Tazwell,TN,37879,606-664-3937
Wesley Trucking,4775 Harvest Knoll Ln,Memphis,TN,38125,901-752-8405
B C Floyd Auto Transport,3445 East Gov John Sevier Hwy,Knoxville,TN,37914,865-654-7252
City Service Station,203 Hwy 51 South,Covington,TN,38019,901-476-6823
Browns Automotives,1102 Riverside Drive,Nashville,TN,37206,615-227-7666
D M Trucking,450 Perkins St,Decherd,TN,37324,931-962-4359
R & S Trucking,2203 Warner Bridge Rd,Shelbyville,TN,37160,931-619-3137
Pachecos Trucking,574 Inez Dr,Smyrna,TN,37167,818-438-4315
Campbell Trucking,110 Phillip Nave Rd,Elizabethton,TN,37643,423-543-4475
Bennett's Trucking,Hcr 76 Box 10,Coalmont,TN,37313,931-592-2398
Erskin Farm & Wood,3306 Old Hwy 13 S,Linden,TN,37096,931-589-5109
Powers Express,5851 Bethel Rd,Pulaski,TN,38478,931-424-3864
Allen Holt's Grave Service,1540 Walker Rd,Newport,TN,37821,423-623-4124
"Mainstream Transportation, Inc.",5126 Malone Road,Memphis,TN,38118,800-726-1223
Ship To Shore Auto,5900 Highway 58,Harrison,TN,37341,423-344-5900
Buckeye Specialty Service,1697 Benton Young Rd,Cookeville,TN,38501,931-526-4050
Dj Auto Transport,3734 Hickman Rd,Kodak,TN,37764,865-684-3361
Harding Trucking,223 Corinth Rd,Mount Juliet,TN,37122,615-443-1242
Welchance Trucking,5432 Village Garden Drive,Ooltewah,TN,37363,423-238-9961
Joshua Trucking,995 Forrest Ave,Memphis,TN,38105,901-650-3929
Lisy Corp,2536 Forest View Dr,Antioch,TN,37013,615-366-2071
Painting Unlimited Plus & Transporting,1879 Dixie Lee Circle,Lenoir City,TN,37772,865-986-7868
Guthrie Trucking,26 Owen Rd,Brighton,TN,38011,901-837-7467
Sam Johnson Trucking,136 E Brushy Valley Rd,Powell,TN,37849,865-947-8800
"Hinch Livestock, Inc.",5057 Old Spencer Rd,Pikeville,TN,37367,931-265-5702
Klass Wrecker Service,1103 Congress Parkway,Athens,TN,37303,423-744-9057
Mountaineer Transport,115 Magnolia Circle,Dunlap,TN,37327,423-949-5577
J-g Trucking,106 Joy Lane,Greenbrier,TN,37073,615-643-0254
Tommys Auto Sales,740 West Main Street,Hendersonville,TN,37075,615-822-3770
Trt Carriers,8295 Tournament Dr #150,Memphis,TN,38125,901-794-2225
Big Mikes Trucking,3436 Kirkwood Road,Clarksville,TN,37043,931-647-7421
Ag-tech Farm Services,6527 Gamaliel Rd,Red Boiling Springs Road,TN,37150,615-699-3457
Newport Transport,513 6th Street,Newport,TN,37821,423-623-0962
Morrison Transport,1000 Muddy Creek Road,Spring City,TN,37381,423-365-5830
Whitson's Wrecker Service,2934 Beulah Church Rd,Arrington,TN,37014,615-395-0062
Rolen Trucking,251 Rolen Rd,New Tazewell,TN,37825,423-626-9786
Knc Transmission Parts,650 Jamestown Road,Cookeville,TN,38501,931-528-2873
M And C Transport,2004 Wirily Lane,Cordova,TN,38016,901-757-4991
J & C Trucking,1025 Mickey Circle,Dyersburg,TN,38024,901-373-8312
Pappys Hauling,303 Powell St,Woodbury,TN,37190,615-563-2009
Early Bird Transportation,3804 Blue Jay,Memphis,TN,38116,901-859-9875
Howe Trucking,5130 South York Hwy,Grimsley,TN,38565,931-863-4787
D & K Farms,405 Henderson Dr,Paris,TN,38242,731-407-4235
Aedc Auto Village,4814 Hillsboro Hwy,Hillsboro,TN,37342,931-596-3080
L & M Express,7491 Juniper Ridge,Memphis,TN,38125,901-758-0029
C & D Courier,563 Byron,Memhis,TN,38109,901-398-4279
Discount Tow Service,5315 N Watkins,Memphis,TN,38127,901-485-5736
Sherrill,304 Madison St,Manchester,TN,37355,931-723-3367
Mobil Transportation,601 Spring St,Memphis,TN,38112,901-725-1588
A And K Trucking,2600 Poplar Avenue Suite 6 D,Memphis,TN,38112,901-406-9129
"Gadd Trucking, Inc.",310 S Parkdale Ave Suite A,Chattanooga,TN,37411,423-718-8799
Double Tt Express,7894 Chestnut Bluff,Halls,TN,38040,731-836-7705
G M Express,322 Epley Rd,Newport,TN,37821,423-625-0761
K And W Express,7126 W Andrew Johnson Hwy,Mosheim,TN,37818,423-422-9300
Cip Technical Services,1844 Pinestraw Ln,Knoxville,TN,37932,865-670-9181
Cathy Waldo Trucking,202 Strader Waldo Lane,Spring City,TN,37381,423-365-9945
Harold Taylor Trucking,2600 Ironwood Dr Se,Cleveland,TN,37323,423-472-7843
H Johnson Trucking,675 Daus Mountain Road,Palmer,TN,37365,931-779-2012
Wagner & Sons Trucking,2120 Mosby Road,Oakland,TN,38060,901-465-1614
Hee Haul,861 Oak Street,Chattanooga,TN,37403,423-332-4425
Whitewater Auto Sales,Hwy 411 North,Ocoee,TN,37361,423-338-1350
T J Transport,1150 Vultee Blvd C108,Nashville,TN,37217,615-818-6619
Studsvick Logistics,485 West Trigg Ave,Memphis,TN,38106,901-507-8062
Bodean Xpress,999 Totty's Bend Loop,Duck River,TN,38454,931-729-9306
Carson Trucking Co,1127 Leatherwood Rd,Oneida,TN,37841,423-215-1783
Hoover Trucking,7127 Hoover's Gap Rd,Christiana,TN,37037,615-542-2093
Road Runners Express Delivery,7175 Skidmore Ct,Memphis,TN,38119,901-737-7389
Btb Transport,4887 Valley Von Way,Arlington,TN,38002,901-828-1762
Steve Szabo Transport,172 Monza Lane Nw,Cleveland,TN,37312,423-336-8288
Eagle Mobile Home Transporters,6464 Beard Rd,Primm Springs,TN,38476,931-682-2569
Asap Delivery Service,3260 Northbend Circle,Alcoa,TN,37701,865-573-6319
Nashville Auto Auction,8400 Eastgate Boulevard,Mount Juliet,TN,37122,615-773-3800
Double M Express,148 Shady Lane,Church Hill,TN,37642,423-357-5301
Lawhorn Mobile Home Service,555 Shellmond Rd,Jasper,TN,37347,423-942-5357
Walking In The Light Auto Transport,1715 Mingle Avenue,Knoxville,TN,37921,865-406-8532
Jim Hinton Transportation,524 Pee Dee Branch Rd,Cottontown,TN,37048,615-504-5672
Apache Transport,3718 Tarsus Road,Palmyra,TN,37142,931-326-5300
Nelson Farms,2547 Cold Springs Rd,Mountain City,TN,37683,423-440-9278
Performance Auto Sales,440 B County Rd 442,Ahtens,TN,37303,423-745-7460
Jeff Davis Trucking,492 Raccon Valley,Powell,TN,37849,865-945-1780
Aa& A Trucking Comp,141 Neese Drive Apt K-1,Nashville,TN,37211,615-833-5635
Salem Transport,562 Cunningham Rd,Belvidere,TN,37306,931-967-1123
Sark Logistics,1009 South Briarcliff Circle,Maryville,TN,37803,865-981-7407
Mercury Transportation Solutions,917 Tennessee Blvd,Lebanon,TN,37087,615-444-0203
Ardmore Trucking Company,1222 Ardmore Highway,Taft,TN,38488,931-425-6713
Get 'r Done Trucking,430 Mitchell Rd,Greenfield,TN,38230,731-235-3383
Clark Trucking,3546 Clark Rd,Memphis,TN,38115,901-795-4941
Tim Fryar Trucking,1017 East 38th Street,Chattanooga,TN,37407,423-867-9160
Mustang Performance & Transport,609 Tuckahoe Road,Kodak,TN,37764,865-933-2814
Thompson Transportation,2277 Primm Lane,Murfreesboro,TN,37129,615-890-8117
K & J Sellars Trucking,103 Ambassador Lane,Powell,TN,37849,865-945-1796
Gregg's Express,3065 St James Road,Greeneville,TN,37743,423-638-1558
Quality Storage Barns,5644 Hwy 11w,Rogersville,TN,37857,423-272-6465
Garrison Trucking,1945 Jewett Rd,Grandview,TN,37337,423-365-2816
Wood Trucking,4740 Highway 431 North,Springfield,TN,37172,615-512-3897
Op Transport,6131 Rain Tree Dr,Memphis,TN,38115,405-326-3545
Dee Transportation,7510 Quicksilver Cove,Memphis,TN,38125,901-486-9489
Unity Transportation Services,1509 Mabry Mill Cv,Cordova,TN,38016,901-755-2256
3-l Trucking,249 County Rd 271,Niota,TN,37826,423-568-2258
Rad Express,105 Holden,Somerville,TN,38068,901-465-5477
Freebird Trucking,1851 Euchee Chapel Road,Spring City,TN,37381,423-365-6421
East Tennessee Trucking,620 Patterson Rd,Harrogate,TN,37752,423-869-5013
Middle Tennessee Transportation,115 B East Market Street,Fayetteville,TN,37334,931-438-8335
Dewayne Garrett Trucking,2717 Turkey Pen Rd,Maryville,TN,37803,865-681-3031
Jtl Trucking,255 Goddard Drive,Greeneville,TN,37745,423-638-1893
Swinford Trucking,1321 Harvey Rd Ne,Cleveland,TN,37312,423-476-7779
Rock Hauling Trucking,5401 Stephen Forest Cove,Memphis,TN,38141,901-649-0132
Maw Trucking,62 Brazil School Road,Trenton,TN,38382,731-559-4131
Anointed Trucking,8896 Plantation Place Cove,Cordova,TN,38018,N/A
Superior Electrical & Manufacturing,820 Binfield Road,Maryville,TN,37801,865-977-7294
M & E Trucking,1163 Laurel Road,Clinton,TN,37716,865-457-8555
Isaacs Transport,156 Huntland Road,Jonesborough,TN,37659,423-913-1363
T & L Trucking,147 Spruce Lane,Gatlinburg,TN,37738,865-654-7822
Gary's Repair & Auto Sales,2336 W Trent Vly Rd,Sneedville,TN,37869,423-733-8548
Against All Odds Trucking,7469 Penn Grove ,Fairview,TN,37062,731-506-9538
Stewart Trucking,215 Berryhill Road,South Pittsburg,TN,37380,423-837-3011
A Sweethearts Limousine And Transportation Comp,428 Water Oak Drive,Seymour,TN,37865,865-397-5466
Kizzars Automotive,Hc71 173c Leggett Rd,Graysville,TN,37338,423-554-4249
Vip Luxury Moving & Storage,200 West 12th Street,Columbia,TN,38401,931-388-0557
Mike Mccoy Trucking,712 Concord Cades Road,Trenton,TN,38382,731-855-3159
Elliott Trucking,241 New Clear Branch Rd,Lake City,TN,37769,865-426-8586
Linoli Services,11650 Baileyton Road,Greeneville,TN,37745,423-234-2492
J&b Escort & Delivery Service,108 Fairlawn,Johnson,TN,37601,423-926-2371
Wolfe Trucking,197 Trigonia Road,Greenback,TN,37742,865-679-2339
R & E Trucking,2878 Ralston Rd,Martin,TN,38237,731-514-1288
One Step Trucking,6541 Hwy 438w,Linden,TN,37096,931-593-3096
Reece Trucking,341 Spence Road,Halls,TN,38040,731-656-2368
Marlow Trucking,12661 Scott Highway,Helenwood,TN,37755,423-569-9710
Payne Trucking,4433 Castle Heights Dr,Memphis,TN,38141,901-864-7012
Burdine Transportation,6655 Marshall Dr,Morris Chapel,TN,38361,731-687-3626
Miller Freight,711 Church St,Troy,TN,38260,731-536-6263
"Tommy's, Inc.",3045 Mullins Rd,Byrdstown,TN,38549,931-864-6759
Victory Trucking Line,3400 Brownbark Drive,Memphis,TN,38115,901-335-1211
Basse Towing,5210 Hungerford,Memphis,TN,38115,901-649-8916
Jcp Trucking,3138 Fishing Ford Rd,Petersburg,TN,37144,931-659-0101
Johnson's Trucking,8498 Lutts Rd,Lutts,TN,38471,931-724-6741
Cook Trucking,152 S Front Street,Rockwood,TN,37854,865-354-4301
S & S Transport,145 State Garage Road,Jamestown,TN,38556,931-879-5757
R&d Automotive,1244 Bristol Hwy,Elizabethton,TN,37643,423-791-3344
Dallas Trucking Co,420 Richland Cr,Gallatin,TN,37066,615-230-2263
Genesis Transportation,2105 Albany Drive,Franklin,TN,37067,N/A
H & D Logistics,602 A Eastanallee Rd,Athens,TN,37303,423-507-1666
A Crow & Sons Moving Company,5455 Perryman Road,Chapel Hill,TN,37034,615-497-4609
Sisco Farms,1515 Hartsville Pk,Gallatin,TN,37066,615-452-4287
D & R Truck Repair,1429 Monterey Dr,Loudon,TN,37774,865-458-9910
Performance Trucking,3096 Knight Ln Apt 107,Memphis,TN,38115,901-605-6987
Marks Trucking,156 Buddy Market Road,Iron City,TN,38463,931-724-5449
Donnie's Transport,6448 Hwy 11e,Piney Flats,TN,37686,423-202-3050
Bruce Cline Trucking,7878 Melton Rd,White House,TN,37188,615-672-8127
Spencer Auto Sales,239 College St,Spencer,TN,38585,931-946-3276
"Royce Trucking, Inc.",512 Holly Springs Cemetery Rd,Huron,TN,38345,731-450-0019
Destiny Transportation,5800 Waterstone Oak Way,Memphis,TN,38115,901-365-1706
Contract Express Freight,11216 Cashmere Woods Drive,Arlington,TN,38002,901-373-7924
Duffy's A D K,985 Dunbar Road,Decaturville,TN,38329,731-549-3682
Jeanette's Trucking,1205 Sycamore Drive,Manchester,TN,37355,931-728-2588
Atlantic Enterprises,427 County Road 166,Athens,TN,37303,423-507-0996
K & T Trucking,366 Moore St,Ripley,TN,38063,731-635-0128
Hicks Delivery,159 Carr Hollow Rd,Elizabethton,TN,37643,423-791-5288
Car Smart Auto Sales,11 Wildwood Avenue,Cleveland,TN,37311,423-472-1395
The Moving Man,322 Moon Ln,Decherd,TN,37324,931-968-1000
Mountain Top Transportation,726 Cotter Road,Pikeville,TN,37367,423-881-3778
Rockin J Trucking,1525 Mcbroom St,Jamestown,TN,38556,931-879-8488
B & J Trucking,1752 Wellwood Rd,Bells,TN,38006,731-784-1991
Atlas Transportation,35 Petty Gap Rd,Woodbury,TN,37190,615-848-3604
E & E Transport,255 Teddy Bear Way,Counce,TN,38326,731-689-3443
Bolin Trucking,8380 Hwy 641 N,Camden,TN,38320,731-593-5441
Henley Trucking,2217 Winchester Hwy,Hillsboro,TN,37342,931-596-3635
Hedge Transportation,4300 Shangri La Drive,Knoxville,TN,37914,865-523-1128
Boonescove Farms Trucking,6295 Old Snapps Ferry Road,Limestone,TN,37681,423-348-8148
Norris Trucking,117 Joan Ann Dr,Elizabethton,TN,37643,423-543-8051
Mitco Transport LLC,249 Highway 58,Cumberland Gap,TN,37724,423-869-3056
Tk Trucking,180 Arthur Rd,Cumberland Gap,TN,37724,423-869-8274
Mcalexander Transportation,3050 Price Rd,Moscow,TN,38057,901-466-7750
Taylor Trucking,1478 Calvert Court W,Gallatin,TN,37066,615-452-7422
M J Express,1630 Maplewood Apt 7,Memphis,TN,38108,901-331-5905
Arrane Logistics,2832 Hoitt Ave,Knoxville,TN,37917,865-523-1774
L O L Express,9712 Clearwater Dr,Knoxville,TN,37923,865-691-7760
S & S Auto Transport,559 Friendship Eaton Rd,Friendship,TN,38034,731-677-2900
Woodley Trucking,4265 Beechcliff Lane,Memphis,TN,38128,269-759-4873
Hull Trucking,910 Barney Holt,Jamestown,TN,38556,931-879-3456
Andy B Collier Express,1201 Meeks Cemetery Road,Burns,TN,37029,615-337-0879
Elbert Smith Trucking,117 Norris Dr,Tazewell,TN,37879,423-626-9554
Sunshine Farms,404 Pennlyn Avenue,Cumberland Gap,TN,37724,606-302-1901
Kingdom Transportation,4566 Covington Pike,Bartlett,TN,38135,901-283-3575
Three Brothers Trucking,651 Brakebill Ave,Memphis,TN,38116,901-396-6698
C W Spade Trucking,460 Pearman Road,Cumberlad Gap,TN,37724,423-869-0076
D J Trucking,550 Hwy 69 South,Savnnah,TN,38372,731-925-1505
Charlies Auto Sales,231 W Bockman Way,Sparta,TN,38583,931-836-2793
Moore Express Delivery Services,1970 Tammwood Drive,Memphis,TN,38116,901-338-2274
Move Your Car,507 High Point Terrace,Memphis,TN,38122,901-378-8400
Ford's Trucking,2625 Short Mountain Road,Smithville,TN,37166,615-597-1730
Bowers Wrecker Service,809 N Main St,Greeneville,TN,37745,423-620-4094
C & K Trucking,123 Moss Estates Road,Moss,TN,38575,931-258-4413
Thompson Trucking,2520 Clifton Turnpike,Waynesboro,TN,38485,931-676-3701
D M E Express,1509 Jacobs Ave Sw,Cleveland,TN,37311,423-867-8936
D & D Trucking,206 Sequoyah Trail,Hendersonville,TN,37075,877-766-1677
L & B Trucking,7972 Pinewood Rd,Nunnelly,TN,37137,405-283-0522
Gray Enterprises,4450 Roberts Creek Road,Waverly,TN,37185,931-296-9943
Windy Acres Trucking LLC,455 Jonestown Rd,Summertown,TN,38483,931-829-2414
Mackey's Trucking,5093 Haleville,Memphis,TN,38109,901-332-6371
Ronnie Nave Trucking,603 1/2 Allen Avenue,Elizabethton,TN,37643,423-542-0586
After Hours Trucking,10071 W Green Cemetary Rd,Bon Aqua,TN,37025,931-670-1960
Donders Trucking,384 Vernon Winton Rd,Hillsboro,TN,37342,931-596-4635
B V Trucking,3065 Brookdale St,Memphis,TN,38118,901-340-7306
Shipley Sales & Transport,1750 Hwy 27-70 W,New Market,TN,37820,865-484-1717
K C Transportation,169 Coleman Harvey Lane,Shelbyville,TN,37160,614-402-6941
Dry Hollow Farms,439 Shepherd Hills Road,Cookeville,TN,38501,931-526-5691
Soddy Trucking,1144 Red Bud Road,Soddy Daisy,TN,37379,423-332-9802
Klh Trucking,1180 S Mcdonald Rd,Mcdonald,TN,37353,423-503-5568
Bedrock Transport Company,6025 Stage Rd,Memphis,TN,38134,901-596-6242
Adkins Transportation,1292 Martin Lane,Lafollette,TN,37766,423-566-9486
Tjs,630 South Sayler Road,Greeneville,TN,37745,423-620-0674
T & K Hauling,2885 E Wood Street,Paris,TN,38242,731-644-3111
Myrick Trucking,1210 Preacher Drive,Counce,TN,38362,731-607-6158
Lsj Xpress,1515 Straightway Avenue,Nashville,TN,37206,615-456-1064
Bullet Transport,5405 Mccahill Rd,Chattanooga,TN,37415,423-580-9844
Newberry Trucking,2144 Austin Road,Lafayette,TN,37083,615-666-4741
D & L Trucking,5063 Fort Henry Drive,Kingsport,TN,37663,423-239-2631
Carothers Carriers,1631 Center Pointe Drive,Murfreesboro,TN,37130,615-355-8724
Direct Express,4200 Lamar Ave 101,Memphis,TN,38118,901-375-1770
S & B Trucking,1709 Jonesboro Rd,Erwin,TN,37650,423-743-8203
W E Assemble,3222 Dewine Street,Knoxville,TN,37921,865-523-8642
Top Tenn Trucking,225 Horny Head Creek Road,Parsons,TN,38363,731-733-6656
Raz,8525 Shingle Oaks Dr,Cordova,TN,38018,901-921-6689
Clearwater Trucking,373 Hopkins Bridge Rd,Unionville,TN,37180,931-294-5792
Davenport Trucking,3320 Pulaski Hwy,Lawrenceburg,TN,38464,931-762-4841
Bkl Trucking,656 Clinch Mountain Rd,Eidson,TN,37731,423-944-3222
Tlh,7000 N First St,Milan,TN,38358,731-686-0815
"Story Distributing, Inc.",1105 Buffalo Rd,Lawrebceburg,TN,38464,931-762-2664
Randall Brandon Trucking,4598 Murfreesboro Hwy,Manchester,TN,37355,931-668-3696
Adkins Trucking,689 Redbud Ln,Sevierville,TN,37876,865-789-0028
Volunteer Movers,1637 South Cumberland St,Morristown,TN,37814,423-317-3388
Dreamworks Trucking,349 Leach Medley Rd,Speedwell,TN,37766,423-907-1975
Farragut Transport,12704 Coral Reef Circle,Knoxville,TN,37922,865-696-8551
Mac's Late Freight,1320 Washington Ave,Etowah,TN,37331,423-263-1875
Smalley's Portable Buildings,1339 Edmenson Rd,Clarksville,TN,37040,931-980-0389
Kephart Transportation,1211 Railroad Bed Rd,Collinwood,TN,38450,931-242-7544
Strait Up Logistics,535 Hogan Branch Rd,Goodlettsville,TN,37070,615-851-0011
Butler Auto Sales,180 Claude Matherly Road,Butler,TN,37640,423-768-2742
B & D Trucking,217 Johnson Road,Hixson,TN,37343,423-842-0271
Tgtt Running Good Trucking,8360 Westfair Circle S,Germantown,TN,38139,901-494-6743
Ww Ltd Hardee Distributing,1822 Lela Lane,Chattanooga,TN,37421,423-510-8916
Roadrunner Hauler Express,9206 Iron City Road,Iron City,TN,38463,931-306-8909
Woodard's Backhoe Service,19 Blanche Circle,Taft,TN,38488,931-425-6133
Hatikva Farm And Contract Services,596 New Stansbury Road,Turtletown,TN,37391,423-496-4050
American Direct Distributing,5830 Mt Moriah St#16,Memphis,TN,38115,901-547-7770
Fox-haul LLC,80 Camelot Drive,Camden,TN,38320,731-584-7075
Royal Transport,1001 Rio Avenue,Gallatin,TN,37066,623-764-4247
N & H Auto Transportation,252 Devlin Dr,Antioch,TN,37013,615-477-9536
Big D Trucking,4455 Chambers Chapel Rd,Arlington,TN,38002,901-867-5467
Coast To Coast Transport,10470 Laura Lee Line,Knoxville,TN,37922,865-249-8984
B & B Logistic Services,1120 Richard Lee,Hermitage,TN,37076,615-230-6285
Lil 'taz Trucking,8720 Sevierville Pike,Knoxville,TN,37920,865-389-8712
Logisticial Solutions,10360 Hwy 70 Suite # 1,Lakeland,TN,38002,901-867-3200
Flannery Auto Transport,1109 Mattoxtown Rd,Lawrenceburg,TN,38464,931-762-6644
Git Around Trucking,917 Huff Bend Lane,Ten Mile,TN,37880,423-334-1692
Bell Cartage Company,1792 Kimbrough Road,Germantown,TN,38138,901-603-2908
East Tennessee Trucking,7217 Ponds Inlet Ln,Powell,TN,37849,865-947-6424
Netgain Transportation,812 Summer Hills Court,Kingsport,TN,37663,615-469-7962
Fisk Transportation,891 Cherokee Road,Halls,TN,38040,731-836-9230
Tennessee West,906 Barbrow Rd,Dunlap,TN,37327,423-949-5464
Donelson Express,4501 Guy Ct,Old Hickory,TN,37138,615-754-7257
Double D Land And Livestock,225 Anthony Lane,Shelbyville,TN,37160,931-684-8835
Triple D Farms,5 Boomer Lane,Fayetteville,TN,37334,931-433-2743
Skymont Trucking,121 Cabbage Patch Road,Altamont,TN,37301,931-692-3906
E R T,3875 Lonesome Pine Rd,Savannah,TN,38372,731-925-5703
Tbbm Transport,4240 Section Line Road,Union City,TN,38261,731-884-1239
Hotshot Enterprises,3401-1 W Market St,Johnson City,TN,37604,423-232-9380
Chipman Brothers Trucking,718 Longmire Road,Rutledge,TN,37861,865-828-3442
Rgp Transportation,445 Dove Valley,Collierville,TN,38017,901-853-3902
Terry L Woody Trucking,138 Morgan Branch Road,Roan Mountain,TN,37687,423-772-3596
Baker Trucking,8008 Sue Drive,Ooltewah,TN,37363,423-899-5467
Be Trucking,2215 Sticky Ridge Road,Reagan,TN,38368,901-549-9222
Simonds Trucking,4070 Lynncrest Dr Ne,Cleveland,TN,37323,423-728-5582
Cole Hauling,4440 Hwy 157,Union City,TN,38261,731-538-3186
Triple J Transportation,Route 1 Box 4772,Bean Station,TN,37708,423-767-2341
Armstrong & Son Trucking,188 Morris Rd,Covington,TN,38019,901-476-3813
"Riverside Detail & Automotive, Inc.",600 S Parkway E,Memphis,TN,38106,901-942-0100
T's Carpet Sales & Service,130 Blue Friday Rd,Gray,TN,37615,423-477-5855
Stoney Fork Trucking & Farm,5569 Stoney Fork Road,Caryville,TN,37714,423-324-2724
A & M Trucking,1588 Barnes Ct,Memphis,TN,38106,901-737-7946
Tn Transport,814 North Broadway,Portland,TN,37148,615-325-4461
Brian Cox Trucking,808 Dry Creed Road,Jonesborough,TN,37643,423-753-2003
Last Chance Trucking,30 Gary Cove,Somerville,TN,38068,901-465-7767
D&l Express,3302 Patricip Ellen,Memphis,TN,38133,901-382-1714
Abra Express Delivery,2317 Morning Vista Drive,Memphis,TN,38134,901-383-9923
Irwin Marine Transport,1506 English Avenue,Maryville,TN,37804,423-982-2981
Bess Trucking,2159 Locke Bend Rd,Mcminnville,TN,37110,931-668-7178
Bond Transport,3505 Tall Oaks Cir,Memphis,TN,38118,901-362-1454
Silver Trucking,3017 Reed Springs Road,Sweetwater,TN,37874,423-351-9212
Rita's Express,7474 Hwy 52e,Lafayette,TN,37083,615-666-7619
First Responder Freight,6413 Dunleigh Dr #101,Bartlett,TN,38135,901-596-3690
Kitts Wrecker Service,719 Broadway Drive,Bean Station,TN,37708,865-993-4856
Irwin's Marine Transport,1506 English Avenue,Maryville,TN,37804,423-982-2981
S & S Farms & Transportation,50 Windswept Dr,Crossville,TN,38571,931-484-5648
Dgt Trucking,151 Cross Creek Road,Maynardville,TN,37807,865-992-1169
Jeb Trucking,315 West Florida Avenue,Union City,TN,38261,901-885-8261
Le Quire Transport,2638 Us Hwy 411 South,Maryville,TN,37801,865-681-2633
Newborn Trucking,5235 Baptist Hill Rd,Collinwood,TN,38450,931-724-9660
Auto Shoppe Wrecker Service,2210 South Ranch Road,Murfreesboro,TN,37129,615-890-6097
Townsend Auto Hauling,4616 Pine St Apt 805,Chattanooga,TN,37416,423-899-2146
Express Freight Via Memphis,3389 Clearbrook Street,Memphis,TN,38118,901-848-4664
The Hauling Company,1140 Skipper Creek Road,Hornsby,TN,38044,901-376-2633
L & Tb Trucking,1646 Slimp Branch Rd,Mt City,TN,37683,423-727-1366
Geovel Trucks,4777 Bethleham Road,Walland,TN,37886,423-977-7684
Stoker Transport,9607 Barbee Rd Lot 91,Soddy Daisy,TN,37379,423-843-3308
Mumpower Trucking,254 Booher Rd D-1,Bristol,TN,37621,423-502-9021
Mallard & Son Transport,65 Mellon Dr,Camden,TN,38320,901-584-9483
Abh Trucking,1144 Locust Gap Road,Mountain City,TN,37683,423-727-8284
Pleasants Auto Enterprises,11874 Highway 67 West,Butler,TN,37640,423-768-2264
Hicks & Sons,6501 Rutledge Blvd,Knoxville,TN,37924,865-546-2352
Black Knight Express,3969 Sequatchie Mountain Rd,Sequatchie,TN,37374,423-942-6191
Cody Delivery,605 Catawba Avenue,Clinton,TN,37716,423-463-9503
Kee's Trucking,1160 Ledsinger Rd,Huntingdon,TN,38344,901-986-9856
Action Enterprises,1954 Buck Daniels Rd,Culleoka,TN,38451,931-840-5313
Jenkins Trucking Company,165 Cheairs Cove,Grand Junction,TN,38039,901-764-3363
Newbaker Transport,204 Wind Song Dr,Helenwood,TN,37755,514-370-5682
Henson Trucking,Hcr 65 Box 600,Danglo,TN,37327,423-949-6486
Be Logistics,177 West Main Street,Hendersonville,TN,37075,615-824-1962
Harris Hauling & Consulting,898 Brownlee,Memphis,TN,38116,901-332-8831
S & K Trucking,2619 Shipe Town Rd,Mascot,TN,37806,865-933-0023
Holbrook Movers,477 Petty John Road,Kingsport,TN,37664,423-288-3600
Amt Express,313 Thornton Dr,Franklin,TN,37064,615-791-2521
J And S Trucking,2172 Carolina Ave,Bristol,TN,37620,423-538-8611
R & K Trucking,565 Heidle Rd,Wartburg,TN,37887,423-346-2787
"L & M Services, Inc.",1022 Dozier Place,Nashville,TN,37216,615-226-0386
S & H Trucking,2000 Nuckolls Rd,Bolivar,TN,38008,901-658-6684
Little Huckleberry Creek,260 Elora Road,Elora,TN,37328,931-625-0435
Vince Lombardi Transportation,325 Dogwood Pl Nw,Cleveland,TN,37312,423-728-2266
Harvey Hitt Trucking,2807 Sandlin Rd Sw # 5,Decatur,TN,37322,615-898-0035
J & H Trucking,403 Sharps Creek Rd,Bristol,TN,37620,423-878-3886
Doughboy Equipment Service,112 Angela Drive,Maynardville,TN,37807,865-992-8127
Eddie Gardner Trucking,141 Shipley Rd,Church Hill,TN,37642,423-357-3932
Poor Boy Logistics,5022 Hugh Woodard,Springfield,TN,37172,615-384-2897
Mullican & Son Trucking,3940 Smithville Hwy,Mcminnville,TN,37110,931-668-3551
Ray's Auto & Truck Sales,4635 Hwy 51 Bypass S,Dyersburg,TN,38024,731-287-7952
Lynworth Trucking,1419 Windsor Ave,Bristol,TN,37620,423-764-3126
Watauga Auto Enterprises,324 West 4th Ave,Watauga,TN,37694,423-543-4320
Jackie Dishman Trucking,9727 Lakeside Rd,Harrison,TN,37341,423-344-4900
Red Express,133 Old Westmoreland Rd,Portland,TN,37148,615-325-5739
Big Dog Trucking,214 So Polk Street,Tullahoma,TN,37388,931-455-3002
C & D White Trucking,6238 Brenda Ct,Harrison,TN,37341,423-344-2956
J & A Transportation,2125 New Cut Rd,Columbia,TN,38401,931-619-6094
Hill's Truck Service,215 Highway 79 South,Gibson,TN,38338,731-787-6333
Parker Wrecker Service,431 Jack Thomas Dr,Manchester,TN,37355,931-728-9459
E & T Trucking,Rt 1 Box 647,Turtletown,TN,37391,423-496-9192
Hollenbeck Transport,2025 Fairlawn Drive,Greeneville,TN,37743,423-638-7848
Jimbo's Backhoe Service,192 Christmasville Rd,Trenton,TN,38382,901-855-4972
Bromley Mobile Home Service,135n Elm St,Adamsville,TN,38310,901-632-3148
M & C Bus Service,3902 Peach Street,Chattanooga,TN,37406,423-894-0424
Ls Bus Service,4111 Sweet Street,East Ridge,TN,37412,423-629-5205
Mclain Auto Sales,202 Timberridge Rd,Rogersville,TN,37857,423-823-7282
Spartan Land,8821 Mill Run Drive,Knoxville,TN,37922,865-769-8655
K R D Trucking,109 Clay St,Bristol,TN,37620,423-652-2270
Puckett's Auto Sales,5100 Hwy 19e,Hampton,TN,37658,423-725-5016
B & B Recycled Auto Parts,4008 N Thomas St,Memphis,TN,38127,901-357-5331
Mule Train Express,638 A East Brushy Valley Rd,Powell,TN,37849,865-384-1900
Steve Eslinger Backhoe Service,1399 Candies Cr Rd Sw,Mcdonald,TN,37353,423-479-2609
Allison Trucking,2906 Williams Bend Road,Knoxville,TN,37932,865-919-1517
Mobile Transport,132 Old Watkins Rd,Crossville,TN,38555,931-484-6713
"Cole Automotive, Inc.",626 Ridge Rd,Gatlinburg,TN,37738,865-654-4991
Rock Island Express,961 Rock Island Road,Rock Island,TN,38581,931-686-2977
Vision Transportation,2607 Brick Church Pike,Nashville,TN,37207,615-271-2400
Patricial Ann Dean,5318 Lexie Cove,Memphis,TN,38116,901-406-8322
D & A Trucking,797 E Mclemore,Memphis,TN,38106,901-774-1503
Goff's Trucking,718 Sharps Fery Rd,Newbern,TN,38059,901-627-2838
D & R Trucking,3226 Aquarius Avenue,Memphis,TN,38118,901-936-7229
Debord Trucking,Rt 3 Box 402,Pikeville,TN,37367,423-881-3422
Vpl Express,3373 Steve Rd #5,Memphis,TN,38111,901-743-2329
Hogan Bus Service,Route 3 Box 129,Decatur,TN,37322,423-334-9521
M & M Hauling,2341 David Crockett Hwy,Winchester,TN,37398,931-962-1684
Stewart Trucking,4235 Hwy 22,Clarksburg,TN,38324,731-986-0055
Halsell Trucking Co,2856 Cordell,Memphis,TN,38118,901-360-0295
Mulch Express,336 Poplar View Pkwy #2,Collierville,TN,38017,901-861-5003
T C B Trucking,2819 Emory La #49,Johnson,TN,37604,423-928-4380
Rushing Transportation,1325 Harrington Rd,Scott Hills,TN,38374,901-967-1691
S M Trucking,7090 Manslick Road,Cordova,TN,38018,901-565-3100
Evans Auto Sales,3937 Harrison Pk,Cleveland,TN,37311,423-473-8930
Mosheim House Movers,530 Weems Chapel Road,Mosheim,TN,37818,423-422-4864
Vandergriff Trucking Company,375 Mallory Drive,New Tazewell,TN,37825,423-626-5442
Brunson Trucking,1960 Rock Springs Rd,Columbia,TN,38401,931-388-2095
Lakeway Concrete Service,2012 Raven Road,Morristown,TN,37814,423-581-1020
Direct Deliveries,6835 Hwy 22 S,Lexington,TN,38351,901-967-1733
A & R Trucking,7566 Charlotte P K,Nashville,TN,37209,N/A
"Southwestern Beverage & Distributing, Inc.",7625 - 7635 Appling Ctr Dr,Memphis,TN,38133,901-272-9648
Mtl Logistics,5135 Covington Way,Memphis,TN,38128,662-449-0468
J & T Transport,415 Water Street,Speedwell,TN,37870,423-566-5535
Wagon Wheel Express,303 Daytona Place,Elizabethton,TN,37643,423-543-5679
Reed Trucking,275 Walt Reed Rd,Grandview,TN,37387,423-365-4721
Backhoe Dozer Bushhog And Gardening Service,8131 Hancock Rd,Chattanooga,TN,37416,423-855-1456
Beep Beep Transport,4501 Spring Lake Rd,Chattanooga,TN,37415,423-875-8457
West Trucking,Rt 3 Box 189-8,Decatur,TN,37322,423-334-1201
J & B Transportation,1451 Pearcy St,La Vergne,TN,37086,615-793-7720
King Trucking,176 Millard Dr Nw,Cleveland,TN,37312,423-473-0406
Kz Transport,1556 Vinton Ave,Memphis,TN,38104,901-726-4351
Nanda's Etc,805 South Highland,Memphis,TN,38111,901-458-4044
Cloud Trucking,5244a Hwy 31e,Westmoreland,TN,37186,615-644-4989
James L Davenport Trucking,72 Mc Quade Circle,Mcminnville,TN,37110,931-939-3299
David's Transport,409 Mcghe Lane,Jacksboro,TN,37757,423-562-9301
Triple S Trucking,272 Summers Hill Road,Sunbright,TN,37872,423-628-2260
"Platinum Transportation, Inc.",6732 Shoreline Cr,Memphis,TN,38141,901-368-9111
T & J Trucking,1885 Wall St #8,Memphis,TN,38134,901-937-4116
A & A Trucking,306 Ridge Road,Lancing,TN,37770,423-346-6834
Shugart Bus Service,1332 Village Green Drive,Hixson,TN,37343,423-842-2370
Spud Express LLC,197 Picadilly Lane,Gray,TN,37615,423-477-5830
Adams Group Transportation,7975 Long Drive,Chattanooga,TN,37421,423-894-0020
Garrens Trucking,942 Mebane Rd,Oakland,TN,38060,901-466-9702
Ward Mobile Home Movers,199 Jade Lane,Dayton,TN,37321,423-775-4474
Travis Auto Transport,8059 Niles Ferry Rd,Greenback,TN,37742,865-856-4028
Charlie T's Transport,603 Crestwood Dr,Tullahoma,TN,37388,931-393-4987
T N T Trucking,105 Loop Road,Trenton,TN,38382,731-855-1105
D C Trucking,600 Moffitt Rd,Rock Island,TN,38581,931-686-2994
Alec And Evans Trucking,8024 Boston Lane Apt-a,Hixson,TN,37343,423-842-0337
Yates Trucking,204 Black Oak Ridge Rd,Seymour,TN,37865,865-609-9122
Shyann Trucking,P O Box 575 White City Cir,Tracy City,TN,37387,931-592-8212
Wild Wolf Express,4696 Old Pierce Road,South Fulton,TN,38257,901-477-7765
Kephart Truckin,425 West Tn St,Collinwood,TN,38450,931-724-5513
Reliable Logistics,4213 Yale Rd,Memphis,TN,38128,901-377-2836
Steve's Auto Transport,811 Tennal St,Athens,TN,37303,423-746-0553
Dependable Brakes Of Tennessee,112 Ben Lomond Drive,Mcminville,TN,37110,931-815-2057
Weaver Trucking,600 Mill Dam Rd,Sneedville,TN,37869,423-733-9284
M & B Trucking,928 Pine Crest Road,Jacksonboro,TN,37757,423-562-1530
Chambers Transportation,438 H Heaton Rd,Elizabethton,TN,37643,423-542-4179
Barnes Express,2510 North John B Dennis Hwy,Kigsport,TN,37660,423-737-8356
Ricky Trucking,4970 Warren Road,Oakland,TN,38060,901-465-4487
T B Express,611 Francis Corner,Mount Juliet,TN,37122,615-419-0582
Midsouth Express Mobility,4636 Boyce Road,Memphis,TN,38117,901-685-5370
David Spurgeon Trucking,1672 Alpine Dr,Sevierville,TN,37876,865-428-6990
B&w Y-12 LLC,Bear Creek Road,Oak Ridge,TN,37831,865-574-6376
Baker Freight Systems,5639 Highway 27,Chattanooga,TN,37405,423-658-0897
Tailored Freight Logistics,4100 15th Avenue,Chattanooga,TN,37407,423-413-2122
Forerunner Trucking,4162 Rianwood Apt1,Memphis,TN,38116,901-346-7465
B'gahl Transport,453 Old Sweetwater Rd,Sweetwater,TN,37874,423-337-4701
Floyds Bus Service,1528 John Ross Road,East Ridge,TN,37412,423-867-9439
Boogedy Trucking,209 Elmer Walker Rd,Jonesborough,TN,37659,423-913-0292
Abel Trucking,4275 Portersville Road,Atoka,TN,38004,N/A
M & K Transportation,4221 B F Goodrich,Memphis,TN,38118,901-794-7474
Davis Trucking,3723 Alvin York Hwy,Whitwell,TN,37397,423-658-6866
Jones Auto Transport,207 Nancy Drive,Cleveland,TN,37323,423-614-5347
Grover Collins Bus Service,228 Montlake Road,Soddy Daisy,TN,37379,423-843-0018
Nick & Son Express,1908 W Raccoon Valley Rd,Hieskell,TN,37754,865-938-4529
R G Nix Trucking,495 Alice Ducan Lane,Estille Springs,TN,37330,931-962-4222
Houston Trucking,155 Fred Houston Lane,Tazewell,TN,37879,423-626-7416
Patrick A Jones Trucking,5964 Owens Chapel Road,Springfield,TN,37172,615-384-2631
Tlc Trucking,212 Stone Door Rd,Beersheaba Springs,TN,37305,931-692-3298
C & R Hot Shot,840 Lazenby Dr,Somerville,TN,38068,662-280-4999
Express Delivery Service,2789 Arbor Lane,Memphis,TN,38133,901-409-0528
Fowler Transports,4242 Highway 57 East,Michie,TN,38357,731-610-5304
Jerry Henley Trucking,Highway 41,Pelham,TN,37366,931-467-3720
N B A Express,796 Jaybird Rd,Morristown,TN,37814,423-586-8900
B & B Logistics,1693 Ragan St,Memphis,TN,38106,901-774-6936
Grace Transportation,706 Hickory Dr,Knoxville,TN,37912,865-687-7907
Sweeney Transport,3080 Lipscomb Road,Springfield,TN,37172,615-384-4897
Lemley Expedite,8304 Austin Peay Hwy,Millington,TN,38053,901-829-2554
Auto Driveaway,333 South Gallatin Road,Madison,TN,37115,615-870-0900
Mccoy Trucking,710 White Ave,Henderson,TN,38340,731-427-0625
Morton Transportation,306 Happy Top Rd,Grandview,TN,37337,423-452-0019
Grace Trucking Co,110 Camden Road,Parsons,TN,38363,731-847-3963
Dbr Trucking,941 Cloyds Church Rd,Greenback,TN,37742,859-806-4598
P & P Enterprises,163 Payne Rd,Tellico Plains,TN,37385,423-253-7007
Donnie Palmore Logging,3625 Edd Ross Rd,Cedar Hill,TN,37032,615-696-8329
Go Trans,157 S Parkway East,Memphis,TN,38106,901-332-3993
C&i Delivery,184 Mildenhall Rd,Blountville,TN,37617,423-279-3972
Slim's Truck Repair,114 Truckers Lane,Manchester,TN,37355,931-723-3966
Tank Dog Trucking,725 Parkdale,Memphis,TN,38116,901-336-7543
Whitakers Trucking,138 Buckeye Ln,Dayton,TN,37321,423-570-2329
Over The Road Trucking,1590 Jared Dr,Kingsport,TN,37660,423-247-6040
Ashley Logistics,220 James Street,Gallatin,TN,37066,615-230-1605
Bmt Trucking,242 Wartrace Road,Springfield,TN,37172,615-382-2195
American Food Service,735 Florence Rd,Savannah,TN,38372,731-925-2200
Bluff City Transportation,12612 Bragg Drive,Eads,TN,38028,901-466-0450
Boutwell Trucking,2123 Possun Ridge,Nunnelly,TN,37137,931-996-9246
Arnold Expedited Services,374 Quail Street,Huntingdon,TN,38344,731-986-5990
Gerald Britt Trucking,134 E Wadsworth Circle,Oak Ridge,TN,37830,865-919-6785
Little Eagle Express,2104 Brownstone Way,Knoxville,TN,37924,855-229-1291
John Layne Trucking,136 Gum St,Tracy City,TN,37387,913-592-6652
Mark Raitch Trucking,190 Gunstocker Rd,Georgetown,TN,37336,423-339-1587
Wolfe Trucking & Produce,432 Park Road,Sevierville,TN,37862,865-573-4267
G L Trucking,P O Box 3311,Cordova,TN,38088,901-373-3949
R & B Truck Lines,740 Ford Hollow Road,Hartsville,TN,37074,615-688-4242
Turner's Trucking,5736 Galen Rd,Lafayette,TN,37083,615-666-8680
Bridges Trucking,5357 Bradley Ridge Cove,Memphis,TN,38125,901-624-3243
Aaa Services,4900 Centennial Blvd,Nashville,TN,37208,615-255-8280
Dragon Carriers,1116 Polk Avenue,Nashville,TN,37210,615-256-4336
Cj Trucking,113 Tnt Lane,Coalfield,TN,37719,865-435-3564
Tmr Transport,289 Nave Hollow Loop,Elizabethton,TN,37643,423-474-3792
G & T Trucking,4827 Somerville Road,Crossplains,TN,37049,615-934-2277
Tim Glover Trucking,1075 Lexington Highway,Loretto,TN,38469,931-853-6099
T & T Movers,206 Roadway Dr Se,Cleveland,TN,37323,423-593-9314
M & B Trucking,437 Wildcat Hollow Rd,Hohenwald,TN,38462,931-796-1090
Rickie Carroll Trucking,405 Garrison Rd,Hohenwald,TN,38462,931-786-5436
J & M Transportation,4880 Chambler,Memphis,TN,38128,901-385-9557
Donald Sweat Trucking Co,2241 Humboldt Lake Rd,Gadsden,TN,38337,901-784-5488
Packs Auto Transit,Rr 3 Box 927,Sparta,TN,38583,931-946-3162
Turnbow Trucking,165 Nottingham Circle,Hohenwald,TN,38462,931-796-3506
Woodland & Son Trucking,4565 Old 59 Dr,Mason,TN,38049,901-465-3128
Miller Trucking,3550 Old Hwy 48,Clarksville,TN,37040,931-387-2097
Getting It Done Trucking,886 Marigold Place,Cookeville,TN,38501,931-303-3224
Tst Transportation,364 Pioneer Haven Rd,Mcminnville,TN,37110,931-668-5402
Grace Brothers Express,2323 Hillsboro Rd,Franklin,TN,37069,731-847-9756
Rjm Trucking,5913 Friddell Rd,Harrison,TN,37341,423-870-1754
Sain & Son Express Co,434 Mitchell St,Bolivar,TN,38008,731-658-6390
Stephen's Lumber,157 Blackburn St,Dayton,TN,37321,423-570-1011
Chris And Trish Cobb Trucking,360 Dean Lane,Harrgate,TN,37752,606-248-7762
Rockin' J Trucking,319 Dotson Rd,Lafayette,TN,37083,615-666-8444
Tinchers Trucking,5430 Cash School Rd,Enville,TN,38332,901-688-5449
M & M Movers,5760 Valley View Hwy,Whitwell,TN,37397,423-942-6151
Pay Load Transportation,2703 Overhill Circle,Nashville,TN,37214,615-872-7242
M & T Trucking,P O Box 66,Sardis,TN,38371,901-858-2355
Clark Trucking,131 Quinn Circle,Nashville,TN,37210,615-874-0613
R & Rtrucking,2366 Scott Hwy,Winfield,TN,37892,423-569-9753
Bratton Transportation,3445 East Henderson Way,Clarksville,TN,37042,931-552-5333
Lewis Durm Logistics,180 Hooks Lane,Cookeville,TN,38501,931-267-4500
Casey Transport,4100e Bennett Road,East Ridge,TN,37412,423-867-5003
Neal's Transport,107 Ravyns Way,Maynardville,TN,37807,865-992-0183
Devore Trucking,4495 Jernigan Rd,Somerville,TN,38068,901-465-3832
Ekr Transport,4417 E Richmond Shop Rd,Lebanon,TN,37090,615-453-1165
Banks Trucking,307 9th Ave South,Decherd,TN,37324,931-968-9262
B & H Trucking,133 Ash Drive,Baxter,TN,38544,931-858-0137
"Galaxy Remote Recording Services, Inc.",1508 Harlem Street,Memphis,TN,38114,901-726-5000
Lenoir City Transport,9128 Solway Ferry Rd,Oak Ridge,TN,37830,865-927-5921
Des Expediting,P O Box 461,Gordonsville,TN,38563,615-683-4161
Randy Bilyeu Trucking,1002 W Hwy 25/70,New Port,TN,37821,423-613-9677
H Distributors,63 Lindgergh Ave,Winchester,TN,37398,931-967-8089
J & L Farms,5445 New Harmony Rd,Hartsville,TN,37074,615-688-2020
Terry Bullard Trucking,151 Old West Point Rd,Smithville,TN,37166,615-597-9654
Glenn Lackey Trucking,334 Overlook Dr Apt 2,Seymour,TN,37865,865-771-2103
James Threet Trucking,2201 Livingston Hwy,Jamestown,TN,38556,931-879-8542
Lemmons Trucking,4596 Hwy 77,Newbern,TN,38059,N/A
Hauling Freight,Hwy 18,Bolivar,TN,37101,901-376-8652
Copeland Trucking,143 Dogwood Ln,Oneida,TN,37841,423-569-9623
Cleveland Auto Mall & Truck,2050 South Lee Hwy,Cleveland,TN,37311,423-614-8822
"Lanier Transfer, Inc.",2950 Fleetbrook Drive,Memphis,TN,38116,901-366-4689
R & R Transport,56 Carpenter Dr,Michie,TN,38357,731-239-9852
C N B Transportation,1296 Milestone Cr,Collierville,TN,38017,901-861-6901
Bear Trucking,34570 Hwy 104 South,Sardis,TN,38371,731-858-2526
Bobby Bolen Trucking,3727 Baugh Rd,Ardmore,TN,38449,931-468-2681
Bud Marler & Sons Construction,623 Westview Rd,Chattanooga,TN,37415,423-875-0085
Ownby Truck Lines,4617 Gill Crest Dr,Knoxville,TN,37938,865-925-2752
Tennessee Cowgirl Express,165 Webster Lane,Clinton,TN,37716,865-463-8484
"Classtrans, Inc.",3475 Mcgavock Pike,Nashville,TN,37217,N/A
Memphis Express,1991 Belmar,Memphis,TN,38109,901-490-0329
Hajile Auto Transport,3401 Campbell Street Ste 1003,Chattonooga,TN,37406,423-629-4244
J&h Trucking,423 N Broadway,Portland,TN,37148,615-325-9521
Sisters Trucking,367 New Midway Road,Kingston,TN,37763,865-376-2030
Bucksnort Trucking,3133 Claude Road,Only,TN,37140,812-875-3419
Russum Trucking,428 Oak Cove,Collierville,TN,38017,901-604-1504
Sheppard's Auto Sales,1408 W Broad,Cookeville,TN,38501,931-520-7089
Michael Hill Trucking,1500 Mifflin,Jackson,TN,38301,901-424-3449
Jr Dehart Trucking,169 Buckor Ditch Road,Greenfield,TN,38230,731-235-0718
Jackie Bledsoe Trucking,620 Sumac Rd,Pulaski,TN,38478,931-363-6320
Jbtrucking,2627 Gideon Rd,Greenbrier,TN,37073,615-643-9469
Lewis And Son Farms,8287 Forked Deer Road,Gates,TN,38037,731-836-5677
Chattin Trucking,117 Hubert Brown Circle,Gainsboro,TN,38562,931-268-9591
T & L Trucking,268 Choctaw Ln,Sparta,TN,38583,931-935-8898
S & D Trucking,1568 Old Smithiville Rd,Mcminnville,TN,37110,931-939-3423
Jennings Trucking,1000 W Market St,Fay,TN,37334,931-433-0869
Strawberry Trucking,109 S Woodale Road,Knoxville,TN,37924,865-933-2454
Rushing Trucking Service,207 George Street,Martin,TN,38237,731-588-0227
Mitchell-scott Conveyance Service,2042 Northport Rd #3,Cordova,TN,38018,901-757-5298
A&g Trucking,201 Mt Moriah St,Whiteville,TN,38075,731-254-8729
Bates Bulldozer Service,220 Smith Ellis Rd,Hilham,TN,38568,931-823-1423
Sammy Sizemore Trucking,1300 S Buffalo Street,Ewrin,TN,37650,423-743-6601
J & M Transport,315 Short Lane,Bean Station,TN,37708,865-300-0699
Bristol Septic Tank Service,508 Jackson Street,Bristol,TN,37620,423-764-9442
B&d Trucking,1174 Taylor Road,Ripley,TN,38063,731-635-1450
Thomas L Turner Transportation,5913 Holston Hills Rd,Knoxville,TN,37914,865-523-5028
C & C Trucking,224 Cemetery Road,Winfield,TN,37892,423-569-6619
Chisum Trail Trucking,341 Blue Sky Dr,Manchester,TN,37355,931-728-5576
Dennis And Teri Tingley Trucking,730 Frank Martin Rd,Shelbyville,TN,37160,217-251-6661
B K Automotive,163 Country Path Hwy 25/70,Newport,TN,37821,865-509-7600
Jackson Trucking,2960 Cordell,Memphis,TN,38118,909-795-5353
B & J Cattle Co,18948 Hwy 127 N,Dunlap,TN,37327,423-949-6501
Newport Auto Sales,112 Douglas Anenue,Newport,TN,37821,423-625-1306
M G Trucking,3946 Windsor Ave,Knoxville,TN,37919,865-637-7316
Stewart Transport,1226 Stewart Rd,Huntland,TN,37345,931-469-7927
Taylor Truckers,4605 Birdsong Ferry Cv,Memphis,TN,38118,901-367-1821
Unlimited Transportation,724 Hazelwood Rd,Memphis,TN,38109,901-553-3426
R & L Trucking,344 Peachtree Street,Nashville,TN,37210,615-781-4912
Jto Distribution,6214 Bonny Oaks Dr,Chattanooga,TN,37416,423-240-0811
All Points International Transport Service,1527 South Ave,Memphis,TN,38106,901-315-5684
T & C Trucking,216 Rivermont Dr,Mcminnville,TN,37110,931-939-2281
Sessions Trucking,6554 Winchester Road #189,Memphis,TN,38115,901-355-2588
Mcclerking Trucking Ii,1225 Rock Springs Rd,Wildersville,TN,38388,731-986-9493
S&w Trucking,239 Terrapin Ridge Rd,Livingston,TN,38570,931-823-6194
King Trucking,1465 Gin Rd,Michie,TN,38357,662-287-3869
2t Trucking,5385 Hwy 641 S,Paris,TN,38242,731-363-7899
J & J Trucking,987 Co Rd 218,Niota,TN,37826,865-745-2517
Tnt Trucking,P O Box 712,Mcewen,TN,37101,931-582-6317
Golliday Trucking,1898 Gooch Rd,Memphis,TN,38109,901-785-3813
Rod Williams Trucking,325 Overlook Drive,Jamestown,TN,38556,931-879-5385
Music City Boat Haulers,6201 North New Hope Rd,Hemitage,TN,37076,615-874-2099
Bell Transfer,3167 Creekwood Lane,Lakeland,TN,38002,901-388-5725
Anew Cannonburgh Moving & Storage,855 A West College St,Murfreesboro,TN,37129,615-907-8102
Linda Jessee Trucking,695 Nashville Pike #122,Gallatin,TN,37066,615-230-1697
Ram Express,108 Hillcrest Lane,Kingston,TN,37763,865-376-2920
Kevin Rector's Stone Hauling,1846 Jewett Rd,Grandview,TN,37337,423-365-5691
Robinson Trucking,451 Co Rd 82,Athens,TN,37303,423-745-0020
Ingrum Trucking,4009 Glenrose Dr,Columbia,TN,38401,931-381-5947
R E Williams Trucking,8099 Old Jackson Ridge Road,Rockvale,TN,37153,615-274-3899
Mickey Truck,3113 Miser School Rd,Friendsville,TN,37737,865-995-2689
Sexton Trucking,222 Vance Dr,Helenwood,TN,37755,423-663-2952
R & R Trucking,8821 Hwy 111,Byrdstown,TN,38549,931-864-7891
Jett Trucking,211 Dale Terrace,Clarksville,TN,37042,931-648-3141
Terry Trucking,390 Marion Marcum Rd,Oneida,TN,37841,423-569-1702
Roy T Barbre Trucking Co,7730 Greenbair Rd,Talbott,TN,37877,865-475-1117
Car Hauler,299 Linden Dr,Cleveland,TN,37320,423-473-4279
Ltd Trucking,3304 Bonneville Cir,Chattanooga,TN,37419,423-825-5826
Stone Transportation,20 State Route 22a South,Jacks Creek,TN,38347,731-983-5583
Williams Trucking,2031 Jamie Drive,Memphis,TN,38116,N/A
Patchen Trucking,7890 Cedar Forest Rd,Lebanon,TN,37090,615-286-2754
Scott Trucking,1031 E Hwy 11 E,Jefferson City,TN,37760,865-475-2730
Et Transport,1321 South White Station Rd,Memphis,TN,38117,901-490-3000
Mcclain Trucking,1338 Mccord Hollow Rd,Hohenwald,TN,38462,931-796-3503
Foxes Trucking,215 Old Jonesboro Rd,Afton,TN,37616,423-639-4564
Rutherford Trucking,9925 Smoky Row Rd,Strawberry Plains,TN,37871,865-932-9489
M J Hauling,161 Longfield Rd,Lake City,TN,37769,865-426-6828
Double A Trucking,171 Aj Armes Rd,Lancing,TN,37770,423-965-3753
Byrd Express Trucking,875 Ball Rd,White Pine,TN,37890,865-674-6614
Boling Transport,1070 Timber Ridge Rd,Bluff City,TN,37618,423-538-6272
Who Me Trucking,1610 Rose Street,Springfield,TN,37172,615-384-6207
Trucking Jim,5666 Carter Creek Pike,Thompson Station,TN,37179,615-599-9777
Roger's Food Service,765 Liberty Church Road,Kingsport,TN,37663,423-239-9860
Rhinehart Trucking,372 Waterloo Road,Lawrenceburg,TN,38464,931-762-3555
Safeline Trucking,1200 Willow Bend Rd,Clarksville,TN,37043,931-647-3951
Brian Hill Trucking,6662 Withers Circle,Talbott,TN,37877,423-626-1259
J&d Trucking,197 Hartsville Pike,Carthage,TN,37030,615-735-6583
Webster Truckng,748 S Main,Whitwell,TN,37397,615-664-3233
B B G Trucks,2130 Harmon Creek Rd,Eva,TN,38333,731-584-6190
Stevens Bus Service,101 Shelly St,Deckerd,TN,37324,931-964-5294
Hatfield Mobile Home Transport,320 Fawn Trail Drive,New Tazewell,TN,37825,423-626-6902
Caj Trucking,4465 Round Mountain Rd,Jamestown,TN,38556,931-879-8003
Holder Transport,842 Belvoir Terrace,East Ridge,TN,37412,423-468-3047
Southern Boyz Transport,347 Edwin Street,Nashville,TN,37207,615-228-0166
R & C Trucking,25 Bilbrey Rd,Jamestown,TN,38556,931-879-7056
Stafford Carriers LLC,389 Bains Rd,Hillsboro,TN,37342,931-596-2940
Watkins Trucking,243 E Trigg St,Memphis,TN,38106,901-775-9557
D & R Trucking,Rt 1 Box 106 B Gillian Lane,Blaine,TN,37709,770-966-1368
Hti,1145 Kansas St,Memphis,TN,38106,901-947-6694
Ellis Trucking,114 W Trinity Lane,Nashville,TN,37207,615-262-9090
Kenny Yates Trucking,144 Britton Road,Kingston,TN,37763,865-376-4633
H-d Hauling,5086 Rocky Ford Rd,Arlington,TN,38002,870-672-7469
Sammie Rudd Trucking,4021 Graceland Dr,Memphis,TN,38116,901-332-8433
Abc Express,600 S Anderson St,Tullahoma,TN,37388,931-455-8774
M & L Express,470 Doughill Rd,Bon Aqua,TN,37025,615-412-3343
R And S Trucking,2644 Highway 46 S,Dickson,TN,37055,615-740-8868
Quality Auto Sales,3820 Broadway,Knoxville,TN,37917,865-688-5222
Marion Trucking,Hwy 27,Winfield,TN,37892,606-354-9427
Ace Auto Recovery,4018 Dodds Ave,Chattanooga,TN,37407,423-867-5178
Wilson Trucking,4929 Edith Nankipoo Rd,Ripley,TN,38063,731-612-1300
Nabors Trucking,1042 Mcgregor Ln,Cookeville,TN,38501,931-528-2770
Quality Wrecker Service,240 N Pruitt Rd,Greeneville,TN,37745,423-638-4441
Little Creek Trucking,2019 Sanford Dr,Mount Juliet,TN,37122,615-754-6891
Jabb Trucking,5095 Eagleville Pk,Chapel Hill,TN,37034,931-364-4073
Boyd Trucking,1076 Old Mack Rd,Clarksville,TN,30740,931-503-8128
Steve Likens Trucking,6806 Rocky Mound Road,Westmoreland,TN,37186,615-644-5420
Outlaw Trucking,167 Hackler Lane,Jellico,TN,37762,423-784-1650
Herron&son Trucking,5548 Mcminnville Highway,Smithville,TN,37166,615-597-4869
J&s Transport,1531 Hwy 77,Paris,TN,38242,731-641-0602
Johnson Trucking,4562 Chuck Ave,Memphis,TN,38118,901-375-0167
Dp Trucking,2223 Chambliss Rd,Pleasant View,TN,37146,615-351-9950
Mclemores Trucking,165 Mclemore Rd,Tellico Plains,TN,37385,423-836-0905
J Miller Trucking,603 Spring St,Philadelphia,TN,37846,865-458-1438
Buonocore Trucking,112 Joyce Ave,Chattanooga,TN,37415,423-876-9659
A & L Trucking,3350 Halltown Rd,Hartsville,TN,37074,615-374-3120
Phillips Farms,560 Monterey Highway,Livingston,TN,38570,931-823-8919
Edd Lee Trucking,81 Ramey Road,Crossville,TN,38555,931-484-8126
G & S Trucking,1400 Madison St,Shelbyville,TN,37160,931-680-4470
H & H Home Movers,151 Coldwater Creek,Taft,TN,38488,931-438-2581
Smokin Gun Trucking,5017 Whitworth Rd,Memphis,TN,38116,901-367-5977
Wilkerson Trucking,945 Hwy 412 & Lennie Clark Rd,Friendship,TN,38034,731-677-4278
Iron Horse Trucking,4386 York Hwy,Hilham,TN,38568,931-268-6558
Steve Purcell's Wrecker Service,2586 Highway 43 South,Leoma,TN,38468,931-852-2519
Tilley Trucking,393 Poplar Corner Rd,Trenton,TN,38382,731-824-3771
J & B Trucking,9615 Blue Springs Pkwy,Mosheim,TN,37818,423-586-1076
Hodge Trucking,Rt 1 Box 3232,Bean Station,TN,37708,770-966-1368
Minor Bulldozer Service,1183 Ardmore Highway,Taft,TN,38488,931-425-6458
Littrell Mobile Home Service,7623 Whitten School Road,Iron City,TN,38463,931-829-4063
Lockhart Trucking,206 Webb Rd,Livingston,TN,38570,931-823-0899
R And G Trucking,8 Park City Heights Dr,Fayetteville,TN,37334,931-433-4683
L H Trucking,4870 Beaver Creek Rd,Mason,TN,38049,901-294-3041
Danny Sandlin Trucking,201 E Palestine Ave Apt B1,Madison,TN,37115,615-519-2463
Volunteer Fast Freight,1005 E Red Bud Dr,Knoxville,TN,37920,865-755-4696
D & H Distributors,786 Browns Branch Rd,Hampton,TN,37658,423-725-4724
Gls Trucking,155 Persimon Lane,Greeneville,TN,37745,423-234-0402
Lindy's Pumping Service,5219 Benjestown Rd,Memphis,TN,38127,901-353-3433
Davis Trucking Co,313 E Walden St,La Follette,TN,37766,423-563-0889
Johnny Miller,214 North Turner Dr,Sparta,TN,38583,931-738-7633
"Commerce Trucking, Inc.",3993 Long Creek Rd,Memphis,TN,38125,901-624-9841
B & B Trucking,2164 Shelton Rid Rd,Collinwood,TN,38450,931-724-5388
Stewart Trucking,4294 Brick Church Pike,Whites Creek,TN,37189,615-876-3901
5 M Transfer,2115 Montvale Rd,Maryville,TN,37803,865-982-1106
Turtle Trucking,6671 Hwy 76 East,Springfield,TN,37172,615-643-1876
Ramsey Trucking,215 Atkinson Rd,Jamestown,TN,38556,931-863-5923
V & B Wrecker Service,1021 Dozier Place,Nashville,TN,37216,615-226-2804
Bj Farms,8736 Majors Road,Knoxville,TN,37938,865-278-0777
M & M Trucking,1064 South Hwy 340,Parrottsville,TN,37843,423-623-1141
Rockin Stock Express,501 Brown Street,Celina,TN,38551,931-243-3729
Great Day Trucking Service,214 Cedar Hills Dr,Clinton,TN,37716,865-457-9672
T L Mcclendon Trucking,434 Valley Brook Trail,Whitwell,TN,37397,423-658-6662
B B Hauling,7612 Mouse Creek Rd Nw,Cleveland,TN,37312,423-336-8575
Walden Trucking,329 County Rd 264,Niota,TN,37826,423-568-2811
Cross Trucking,15570 Hygh East,Bolivar,TN,38008,N/A
Sullivans Trucking,6490 Livingston Hwy,Celina,TN,38551,931-823-6399
C & B Trucking,345 Oak Grove Rd,Gray,TN,37615,423-477-4879
Lindley Trucking,1177 Mcwilliams Road,Covington,TN,38019,334-671-2851
C & H Express,3995 South Davy Crockett Pkwy,Morristown,TN,37813,423-587-0619
Harbay Express,530 Nubia Road,Westmoreland,TN,37186,615-888-4038
J & C Trucking,4434 Hwy 297,Jellico,TN,37762,423-912-0207
T & T Trucking,76 Alexander Springs Rd,Ethridge,TN,38456,931-796-6575
Conner Transportation,3800 Copper Ridge Road,Knoxville,TN,37931,865-670-0348
East Tennessee Auto Brokers,200 Green Valley Drive,Johnson City,TN,37601,423-283-0471
Adams Transport,508 N Cherokee St,Jonesborough,TN,37659,423-913-1677
Fuller's Auto Transport,164 Cochise Dr Se,Cleveland,TN,37323,423-476-5387
Gary W Wall Trucking,1236 Southern Parkway,Clarksville,TN,37040,931-503-0726
Newby,766 Southside Drive,Mcminnville,TN,37110,405-283-0698
Professional Refurbishing Services,524 Bj's Landing,Estill Springs,TN,37330,931-649-5016
G&e Trucking,233 Haywood St,Dayton,TN,37321,423-775-5189
Jerry Russell Trucking,370 Maddox Rd,Savannah,TN,38372,731-925-8219
Mcadams Trucking,6944 Carthage Hwy,Lebanon,TN,37087,615-403-8491
Falcon Freight,Box 138a Rte 2,Linden,TN,37463,775-359-5886
Mz Transportation,10354 Stable Cove,Memphis,TN,38105,901-751-2763
Taz,168 Bradley Road,Leoma,TN,38468,931-852-4526
Pdc Trucking,1052 B Morton St,Shelbyville,TN,37160,931-639-2487
Jiffy Delivery,2845 Farrisview Blvd,Memphis,TN,38118,901-452-1487
Ronald Jean Trucking,533 Corders Crossroads Rd,Fayetteville,TN,37334,931-433-3520
Matt's Diesel Service,Rt 1 Box 35,Ten Mile,TN,37880,423-618-1845
Bolanos Trucking,3110 Kenneth St,Memphis,TN,38128,901-266-4907
Hicks & Paris Trucking & Excavating,237 S Cunningham Rd,Seymour,TN,37865,865-573-5571
B Bar Transport,307 Bonnalynn Drive,Hermitage,TN,37076,615-942-7146
Johnnie Taylor Express Co,6535 Birch Walk Dr,Memphis,TN,38115,901-367-0348
Dc Transport,229 Copper Branch Ln,Decaturville,TN,38329,731-852-2074
Freight Relocation Specialist,251 James Gordon Outlaw Rd,Indian Mound,TN,37079,931-232-5025
Brainerd Wrecker Service,711 Airport Road,Chattanooga,TN,37421,423-855-1547
Circle T Carriers,748 Pleasant Grove Road,Limestone,TN,37681,423-257-4502
Southern Harvest Trucking,1924 Summer City Rd,Pikeville,TN,37367,423-447-7489
Ralph's Auto Sales,816 Hwy 13 South,Collinwood,TN,38450,931-724-4610
Lookout Auto Care Products,512 Bitsy Ln,Chattanooga,TN,37415,423-877-1311
Mari Express,3275 Remington Trace Apt 204,Memphis,TN,38125,901-756-2898
Hammond Transportation,2977 Walnut Rd,Memphis,TN,38128,901-601-0271
Benson Trucking Co,3518 Knight Road,Memphis,TN,38118,901-362-1924
Mobile Home Transport,610 West End St,Mcminnville,TN,37110,931-473-9389
C A & J Trucking,200 Wildgrove Ct,Antioch,TN,37013,615-641-2671
Thurman Trucking,172 Dogwood Lane,Dayton,TN,37321,423-570-1362
Dc Logistics,101 Circle Drive,Sweetwater,TN,37874,423-337-3822
D & M Trucking,4270 Holland Dr,Lenoir City,TN,37772,865-986-9291
Lazy J Trucking,2024 Blue Well Rd,Lebanon,TN,37090,615-286-1649
Dunford Trucking,501 Danby Circle,Lebanon,TN,37090,615-444-2642
Mize Trucking,732 Belvoir Ave,Chattanooga,TN,37412,423-605-5185
Thrasher Farms,440 Coffee Magee Road,Lawrenceburg,TN,38464,931-762-1884
Thunder Road Express,600 Glenpark Dr,Nashville,TN,37217,615-366-7195
Horton Trucking Company,2120 Lebanon Pike #63,Nashville,TN,37210,615-469-7894
Thompsons Backhoe & Dumptruck,6898 Old Highway 31e,Westmoreland,TN,37186,615-644-3261
Taylor's Auto Repair,5238 Murfreesboro Rd,La Vergne,TN,37086,615-793-6083
Cargo Express Trucking,2288 Gunbarrel Rd Suite 111108,Chattanooga,TN,37421,866-857-3666
Tim Posey Moving Service,214 Savannah Ridge Trail,Cleveland,TN,37323,423-472-8649
Midtown Express,2630 Roane State W Hwy 4,Harriman,TN,37748,706-375-4431
Mzm Express,212 Willow Brook Dr,Bluff City,TN,37618,423-538-7101
Washam Trucking,165 S Ridgeview Avenue,Luttrell,TN,37779,865-997-3207
Eddies Body Shop And Wrecker Service,514 Emory Street,Harriman,TN,37748,865-882-6474
Flat Top Express,7443 Conner Whitefield Road,Ripley,TN,38063,731-635-2172
Sonshine Express,108 Castleton Ct,Kingsport,TN,37760,423-349-0612
Barrett Transport,24 South Barksdale,Memphis,TN,38104,901-725-9725
Ets,1056 Old Highway 109,Gallatin,TN,37066,615-452-5215
U Need A Transport,3690 Stone Trace Circle,Bartlett,TN,38135,N/A
B & B Trucking,484 Walnut Lane,Dyersburg,TN,38024,731-287-8291
Duncan Trucking,8123 Mahan Gap Road,Ooltewah,TN,37363,423-344-6283
Willis Trucking,910 Westchester Dr,Madison,TN,37115,615-865-2529
Freeman Trucking,1562 Sweetwater- Vonore Rd,Sweetwater,TN,37874,423-337-9302
Mc Trucking,4981 Hwy 431 North,Springfield,TN,37172,615-384-1412
Macab Transportation,1292 Gateway Drive,Memphis,TN,38186,901-550-3810
Martin Express,1907 Landmark Lane,Murfreesboro,TN,37128,615-896-7610
Fran-c Trucking,1366 Westfield Rd,Dickson,TN,37055,615-414-2601
Wright's Trucking,2009 Lake Rd,Greenbrier,TN,37073,N/A
Scott Trucking,117 Tony's Lane,Mcminnville,TN,37110,931-668-8501
R O Trucking,7220 Hillshire,Memphis,TN,38133,901-484-3482
K & M Septic Tank & Grease Trap Service,310 Providence Road,Fayetteville,TN,37334,931-438-9934
Sanders Trucking LLC,725 Industrial Rd,Halls,TN,38040,731-836-5887
Bussey's Trucking,1721b Pleasant Grove Road,Westmoreland,TN,37186,615-420-0128
Eagle Trucking,309 Spring Street,Carthage,TN,37030,615-735-6236
Priority Auto Sales,1535 West Andrew Johnson Highway,Greeneville,TN,37743,423-639-6965
L & A Trucking,1723 Myrna Lane,Memphis,TN,38117,901-553-4230
Wright's Farm,52 Old Homestead Hwy,Crossville,TN,38555,931-707-9731
J Bear Trucking,2685 Chapel Hill Road,Mckenzie,TN,38201,901-948-0245
J W Delivery,190 Carey Rd,Hartsville,TN,37074,615-374-3941
B & D Trucking,5009 Livingston Highway,Celina,TN,38551,931-243-2408
Rock City Garage Rock City Auto Sales & Parts,648 Lebanon Hwy,Carhtage,TN,37030,615-735-1515
A J Ware Trucking,7381 Palgrave Ln,Memphis,TN,38125,901-753-5071
B J Ham Trucker,3628 Prospect Church Rd,Apison,TN,37302,423-910-0101
Atkins Transportation,502 Texas Hollow Rd,Luttrell,TN,37779,865-310-0418
Little River Transport,534 Bryan Gribble Rd,Sparta,TN,38583,931-761-4050
Hanner Trucking,1675 Main St,Altamont,TN,37301,931-692-2481
Tri-county Tire & Service Center,105 Mahoney Rd,Oliver Springs,TN,37840,865-435-7259
Morris Trucking,179 Liberty Rd,Wartburg,TN,37887,423-346-3897
Ark Express,407 Southwood Park Place,Nashville,TN,37217,615-360-2049
Dh Waldo Trucking,21 Mary Lane,Grandview,TN,37337,423-365-5088
B & N Trucking,1512 Ryan St,Chattanooga,TN,37404,423-322-2478
Joe's Express Transport,210 Portland Ave,Allardt,TN,38504,931-879-8762
Bishop Trucking,134 Freedon Rd,Mount Pleasant,TN,38474,931-829-2194
Roberts Trucking,1038 Public Wells Rd,Martin,TN,38237,730-884-9993
Circle J Trucking,792 Curtis Rd,Brighton,TN,38011,901-475-6220
Skip Thompson Service,1164 Lakeview Manor Rd,Springville,TN,38256,731-593-0553
B & C Trucking,182 Johnson Rd,Harrogate,TN,37752,423-869-9390
Long Haul Express,1306 Fate Rankin Rd,Jefferson City,TN,37760,865-475-2639
Mullins & Williams Trucking,2035 Raleigh La Grange Road,Rossville,TN,38066,901-850-8925
Ivy Delight Trucking,4566 Lakeuista Dr,Memphis,TN,38128,901-289-6548
Moore Machinery Sales,127 Milan Arsonel Highway,Milan,TN,38358,731-723-1424
Greenlite Trucking,106 Canterbury Road,Oak Ridge,TN,37830,865-482-5846
Collins Garage & Wrecker Service,208 Collins Road,Oliver Springs,TN,37840,865-435-0823
Bobby Thomas Auto Garage & Wrecker Service,375 Rivers Landing Road,South Pittsburg,TN,37380,423-837-8357
Richesin Trucking,724 Oakland Rd,Sweetwater,TN,37874,423-337-3228
Adventist Community Services,850 Conference Drive,Goodlettsville,TN,37072,615-859-1391
R D Welch Trucking,30 Sunnyside Rd,Greenville,TN,37743,423-798-0078
Lee Z Hall Trucking,1409 10th Ave No Apt B,Nashville,TN,37208,615-259-3318
Dj Trucking,1742 Hwy 411s,Etowah,TN,37331,423-545-4643
T Daniels Trucking,1416 Marrick Dr,Soddy Daisy,TN,37379,423-332-3847
R Y R Transport,3010 Ashwood Cove,Memphis,TN,38118,901-547-0435
Mary Wintjen Trucking,2598 Joe Dillon Road,Michie,TN,38357,731-632-0438
J & R Trucking,453 Holston Mt Rd,Elizabethton,TN,37643,423-547-0609
J Woody Trucking,418 South High St,Sweetwater,TN,37874,423-337-7990
Tnt Trucking,415 Lebanon Hwy,Carthage,TN,37030,615-735-8400
Blue Max Transport,802 W Jackson Blvd,Jonesborough,TN,37659,423-913-1000
Brewer Transport,786 Fox Hunter Rd,Maynardville,TN,37807,865-992-0178
Canales And Sons Trucking,107 Kelsie Circle,Lebanon,TN,37087,615-444-8028
Tbm Express,2325 Herrondale West Rd,Henry,TN,38231,770-235-6717
Acc Autotransport,1806 Fleming Valley Lane,Knoxville,TN,37938,865-256-2513
Starlight Trucking,1531 Barnett Rd,Henry,TN,38231,731-697-1716
Igor Trucking,300 E Webster St Aprt J4,Madison,TN,37115,615-860-5201
Expedited Express,1779 Bringle Rd,Covington,TN,38019,901-475-3502
Hulgan's Wrecker Service & Body Shop,1787 Rhea County Hwy,Dayton,TN,37321,423-775-3460
J & J Express,13049 N Nopone Valley Rd,Decatur,TN,37322,423-334-1086
"Hbl, Inc.",3421 Range Line Rd Apt 1,Memphis,TN,38127,901-252-7451
Shoulders Wrecker Service,120 Erica Terrace,Carthage,TN,37030,615-735-0511
Chevy Truck Country,108 Weaver Drive,Dickson,TN,37055,615-441-2781
Triumph Transportation,234 Carriage View,Clinton,TN,37716,865-457-3525
Thompson Auto,213 Rockingham Road,Gray,TN,37615,423-477-1965
"Whites Trucking, Inc.",4157 Harsh Cr,Memphis,TN,38127,901-489-3424
Tds Express,6116 Nails Creek Rd,Seymour,TN,37865,865-983-9729
Williams Wrecker Service,825 Pleasant View Drive,Dandridge,TN,37725,865-397-9155
J Reynolds Trucking,2970 Ugly Creek Rd,Duck River,TN,38454,931-224-4884
Archey Trucking,524 Wimbley Rd,Estill Springs,TN,37330,931-596-4532
E E E Trucking,1708 Auburn Lane,Columbia,TN,38401,931-840-9898
Life Carriers,468 N Crest Rd,Chattanooga,TN,37404,423-899-9227
Garrett's Wrecker Service,2111 N Main St,Shelbyville,TN,37160,931-684-7639
Slrtrucking,4890 Helene Street,Memphis,TN,38117,901-683-1961
Wilson Trucking,473 Adam Hollow Lane,Pioneer,TN,37847,423-784-8334
Garrison Trucking,141 Jaynes Dr,Halls,TN,38040,731-836-9246
Apple Moving & Storage,2564 Covington Pike,Memphis,TN,38128,901-373-5355
Watson Transportation Co,3183 Mountain Terrace,Memphis,TN,38127,901-353-4233
Abindago Trucking,105 Main St,Niota,TN,37826,523-568-2042
Bucky's Rollback Service,4219 Old Asheville Hwy,Flag Pond,TN,37657,423-735-0659
Hall's Garage,110 Hwy 27,Whitwell,TN,37397,423-658-9311
Payne's Garage,330 Gold Road,Jasper,TN,37347,423-942-2220
Hall Trucking,Rt 2 Box 202,Rutledge,TN,37861,865-767-2496
Wilson Trucking,1469 Campbell Rd,Mountain City,TN,37683,423-727-6874
T R T Transport,652 Palmer Lane,Roan Mountain,TN,37687,423-772-0073
Arnco Trucking,503 Cumberland Gallery Street,New Tazewll,TN,37824,423-626-0160
Chandler Trucking,28245 Broad St,Hollow Rock,TN,38342,731-586-4619
Ferguson Paving & Hauling,3520 Hwy 421,Bristol,TN,37620,423-878-6435
Brian Stricklin Trucking,4112 Ebenezer Rd,Reagan,TN,38368,731-614-7411
Daniel Debes Trucking,115 Blacks Ferry Loop ,Clinton,TN,37716,865-719-2755
Clemons Wrecker Service,153 Cookeville Hwy,Carthage,TN,37030,615-735-1520
Beasley Trucking,2101 Hwy 641 S,Camden,TN,38320,731-584-0731
Service First Transportation,4632 Setter Ct,Nashville,TN,37207,615-642-3300
V And L Trucking Co,1128 Highland Ave,Jasper,TN,37347,423-421-8542
Ron Johnson Trucking,369 South Hood Rd,Lawrenceburg,TN,38464,931-766-1179
Terry Robertson Trucking,41 Scott St ,Friendship,TN,38034,731-677-2825
Rhodes Transport,75 Short Rd,Petersburg,TN,37144,931-433-0026
C J Transportation,233 Red Hill Rd,Taft,TN,38488,931-425-6980
D & E Trucking,29 Davenport Road,Humboldt,TN,38343,731-298-9808
Jdf Trucking,5895 Hickory Commons,Memphis,TN,38141,901-368-9592
Family Auto Center,793 Keith Valley Rd Se,Cleveland,TN,37323,423-473-9691
Jesse's Auto Sales & Repair,190 Dewey Dugger Rd,Johnson City,TN,37601,423-926-7648
Get R Dunn Trucking,152 Dunn Hill,Speedwell,TN,37870,423-869-8289
Earth Movers,124 River Rock Drive,Copperhill,TN,37317,423-496-1824
G&g Trucking,3225 April Ln,Cookeville,TN,38506,931-432-1824
Willie's Auto Service,314 South Military St,Loretto,TN,38469,931-853-4309
Roadhound Logistics,3518 Woodbridge Dr,Nashville,TN,37217,615-399-5198
Saw Transports,7363 Kingsland Dr,Memphis,TN,38125,901-757-3902
"J&a Wrecker Service, Inc.",975 Jackson Avenue,Memphis,TN,38107,901-523-2600
Paul Winegar's Garage,278 E Carters Valley Road,Kingsport,TN,37660,423-245-8420
Refrigerated Transport,1504 Vultee Blvd,Nashville,TN,37217,615-726-1431
Chris Prince Trucking,1337 Southport Road,Mount Pleasant,TN,38474,931-379-9484
Wayne Robertson Trucking,68 Castellaw Rd,Alamo,TN,38001,731-656-2164
Carl's Wrecker Service,236 Oakmont Drive,Crossville,TN,38555,931-484-0134
R & J Truck Lines,1265 Old Newport Hwy,Sevierville,TN,37876,N/A
Barnes Trucking,4310 Bull Rud Road,Ashland,TN,37015,615-259-0820
C W Christian Auto Transport,10700 Bon Aqua Church Road,Bon Aqua,TN,37025,615-446-8303
Billy's Auto Shop Parts,6142 Hwy 14 South,Brighton,TN,38011,901-476-2165
David E Cobbins Trucking,51 Sanders St,Leoma,TN,38464,931-852-2286
Bell Trucking,395 Smith Hollow Rd,Greeneville,TN,37743,423-639-7325
Mw Trucking,1115 Feathers Chapel,Somerville,TN,38068,N/A
Savage Trucking,5020 Crab Orchard Cove,Memphis,TN,38125,901-281-5495
J & M Movers,2409 Beach Creek Rd,Rogersville,TN,37857,423-272-7180
Tommy Chambers Trucking,456 Lakeland Drive,Dover,TN,37058,931-801-4965
Rapid Transfer,354 S Washington St ,Maryville,TN,37804,865-273-1028
H M Trackhoe & Dozer Service,483 Rocky Springs Rd,Jackson,TN,38313,731-423-4540
C J Motors,1333 Grassey Creek Road,Copperhill,TN,37317,423-496-1045
Borden Trucking,2567 Chisholm Road ,Iron City,TN,38463,931-724-5333
Byrd S Trucking,290 Odeva Byrd Road,Huntsville,TN,37756,423-663-2864
J & S Logistics,718 Forkner Chapel Rd,Sweetwater,TN,37874,423-337-7094
Cale Freight Services,410 Scruggs Rd,Chattanooga,TN,37412,N/A
A & A Trucking,1387 Hoo Doo Rd,Beech Grove,TN,37018,931-273-2649
Jerry's Trucking,1037 Eli Rd,Bon Aqua,TN,37025,615-412-3308
Best Wrecker Service,1730 Woodline Avenue,Knox,TN,37917,N/A
S & T Trucking,1405 Woods Ferry Rd,Gallatin,TN,37066,615-452-2281
Robert Calloway Trucking,1175 Hill Dr,New Market,TN,37820,N/A
Cheymar Transport,230 Quillen Shell Road,Greenville,TN,37745,423-972-9016
"Nunn Transportation, Inc.",5353 Heritage,Memphis,TN,38115,901-541-9412
Re Trucking,855 Ridge Lake Blvd Ste 500,Memphis,TN,38120,901-271-8830
Cold And Hungry Trucking,115 Garman Loop,New Johnsonville,TN,37134,931-535-3263
Southern Transport LLC,1655 37th Street,Cleveland,TN,37912,423-473-2827
Skd Express,447 Hideaway Ridge Circle,Sevierville,TN,37862,865-774-8596
D & H Trucking,685 Highway 57 East,Grand Junction,TN,38039,N/A
Andrews Recovery Service,2007 E 28th St,Chattanooga,TN,37407,423-827-0034
Country Roads Trucking,494 Co Rd 188,Decatur,TN,37322,423-744-9878
Bristol Wrecker Service,101 Blackley Rd,Bristol,TN,37620,423-764-4016
O'connor Trucking,1400 Ragsdale Ln,Pulaski,TN,38478,931-334-1976
Heath Trucking Co,522 Big Bend Road,Strawberry Plains,TN,37871,865-933-8402
William Davis Freight,125 New Hope Rd,Greeneville,TN,37745,423-639-6898
Larry Sellers Trucking,110 Christian Chpl Rd,Cedar Grove,TN,38321,731-986-9090
J & J Movers,45 Thornburg Lane,Limestone,TN,37681,423-234-4243
Mike's Auto Sales & Salvage,78 Adair Rd,Leoma,TN,38468,931-556-3090
D & H Truck,685 Hwy 57 W,Grand Junction,TN,38039,901-878-1765
Express Mattress,2250 Wilma Rudolph Blvd,Clarksville,TN,37040,931-906-8077
R & B Transport,245 Thomas St,Kingsport,TN,37660,423-246-8474
Flat Top Express,5173 Herndon Road,Graysville,TN,37338,423-554-4591
Pendergrass,59 Meadow Ln,Pikeville,TN,37367,423-447-6920
Wrecker Service,7933 Woodford Ln,Germantown,TN,38138,901-754-8779
T & C Wrecker Service,634 Poga Rd,Butler,TN,37640,423-768-3395
C G C Cooper Transport,4983 Barton Wood Dr,Memphis,TN,38141,901-360-1606
Mccrary Heavy Hauling,989 Vesta Rd,Lebanon,TN,37090,615-945-3154
Blue Hauling Company,1690 Dorrie Lane,Memphis,TN,38117,901-848-5417
Smith Family Trucking,3813 St Elmo Ave,Memphis,TN,38128,901-386-6709
K & B Trucking,118 Lime Kilm Rd,Burns,TN,37029,615-446-7575
Bennett Trucking,4677 Bennett Hollow Rd,Thompson Station,TN,37179,615-790-9919
Melson Trucking,340 Melson Way,Olive Hill,TN,38475,731-412-8460
James Howe Hot Rod Expediting,142 Hollow Dr,Crossville,TN,38571,931-456-1584
Mizer Station Express,3101 Ralph Phelps Rd,Louisville,TN,37777,865-995-9108
D & D Specialty Transport,220 Mullican St #2,Mcminnville,TN,37110,931-212-1194
R & Y Transport,3414 Country Almond Way,Murfreesboro,TN,37128,615-525-8968
Lambdin Trucking,185 Sled Creek Rd,Duff,TN,37729,423-784-7645
Arnold Gerding Trucking,129 Rosebud Road,Cumberland Gap,TN,37724,606-499-3486
Rion Freight,15345 Hwy 18 S,Bolivar,TN,38008,731-658-2800
Courtney Thompson Trucking,4705 Ashcroft Dr,Memphis,TN,38125,901-628-6872
Bailey Auto Transport,293 - B Rockingham Road,Gray,TN,37615,423-791-0062
Douglas Transport,2760 Smith Heaven,Memphis,TN,38114,901-396-0388
Young Trucking,130 Thumb Rd,Henning,TN,38041,731-738-0344
Willard Smith Trucking,568 Gilbert Road,Pikeville,TN,37367,423-881-3070
Ray Martin Trucking,410 Old Viola Rd,Mc Minnville,TN,37110,937-408-8884
Mike's Mauto Repair,155 Holly Grove Rd,Covington,TN,38019,N/A
B & L Trucking,Hcr 77 Box 23,Beersheba Springs,TN,37305,931-692-3748
Conway Trucking,815 Hwy 104,Saltillo,TN,38370,731-687-3373
Jd Talley Transportation,6942 Barter Dr,Harrison,TN,37341,423-994-1495
Lyle Trucking,121 60th Avenue North,Gruetli-laager,TN,37339,931-779-3929
Williams Trucking,310 Watlington Rd,Jackson,TN,38301,731-608-4422
Burris Trucking,228 Heritage Circle East,La Vergne,TN,37086,615-415-8108
Dan Waldron Trucking,2268 W Broad St,Cookeville,TN,38501,931-520-0794
Jackson Transport,7010 Nature Trail Blvd,Knoxville,TN,37931,865-607-1212
Elj Transport,410 Blackberry Trail,Cumberland Gap,TN,37724,423-869-7914
K And D Transport,1060 Woodland Ridge,Cordova,TN,38018,901-309-5588
Lisa Mucelli,2155 Lumpkin Branch,City,TN,37683,423-797-0362
Stanley Houston Trucken,115 Timberlake Wildersville Rd,Lexington,TN,38351,731-968-6870
T & J Trucking,464 Springdale Drive,Bristol,TN,37620,423-878-5994
Dnc Transport,212 Willowbrook Dr,Bluff City,TN,37618,423-967-5111
Pritchetts Body Shop & Auto Sales,6017 S York Hwy,Clarkrange,TN,38553,931-863-5078
D & K Transport,3291 Fox Gate Dr,Memphis,TN,38115,901-566-5577
John Somich Trucking,5531 Highway 11-e,Piney Flats,TN,37686,423-534-5257
"Hm Transport, Inc.",240 Mayfield Drive Suite 203,Smyrna,TN,37167,270-293-6554
Tenn Top Trucking,402 Shelby St,Clarksville,TN,37042,931-216-3615
All Star Automotive & Truck Repair,2013 S Kelly Street,Chattanooga,TN,37404,423-698-6900
Orion Distribution,5115 Ooltewah Ringgold Rd,Ooltewa,TN,37363,423-238-4144
P & H Trucking,7431 Dogwood Dr,Knoxville,TN,37919,865-694-8265
Donny's Wrecker Service,11599 Old Baxter Road,Silver Point,TN,38582,931-858-5165
Nomadic Ways,1143 Coconut Ridge Rd,Smithville,TN,37166,615-597-5299
A Elmi,850 Richards Rd Apt J-6,Antioch,TN,37013,615-668-0591
P & D Housemovers,3205 Kellys Ferry Rd,Chattanooga,TN,37419,423-821-6932
Sells Used Cars & Auto Repair,3909 Rickman Road,Rickman,TN,38580,931-498-3991
Prince Trucking,108 Higdan Ln,Old Fort,TN,37362,423-338-0953
Randy's Backhoe Service,Route 1 Box 3438,Mountain City,TN,37683,615-727-8071
Floyds Trucking,1410 Floyds Rd,Sevierville,TN,37876,865-255-3796
Mac's Rollback Service,16587 Dodson Branch Highway,Cookeville,TN,38501,615-858-7333
Robert Vaughn Trucking,602 Church Street,Tiptonville,TN,38079,901-253-6630
Hunter Transportation,Rt 10 Box 213,Sparta,TN,38533,615-657-5337
Printer's Delivery,1509 South Smith St,East Ridge,TN,37412,615-954-1140
Jays Trucking,221 Shubert Rd,Hohenwald,TN,38462,615-796-4094
Sanders Trucking,7174 Edith Nankipoo Rd,Ripley,TN,38063,731-635-2030
Craft Transfer Company,310 N Main,Middleton,TN,38052,731-376-1306
Nyk Logistics Americas Eta Division,8295 Tournament Dr #150,Memphis,TN,38125,901-794-2225
D R S Express,7508 Graves Lane,Corryton,TN,37721,865-687-6079
Eastdale Amoco And Wrecker Service,630 Shallowford Rd,Chattanooga,TN,37411,615-629-9125
Lmc Leggett,3400 Ivy Rd,Eads,TN,38028,901-465-7204
B & J Trucking,3080 Old Well Rd,Morrison,TN,37357,913-939-3582
Don Harold Trucking Co,1790 Murrell Rd,Rossville,TN,38066,901-853-6125
L & W Trucking,Rt 1 Box 448-b,Jamestown,TN,38556,615-879-3427
Hoffman Express,11790 Macedonia Road,Arlington,TN,38002,901-867-3602
Hard Time Trucking,30 Old Turkey Creek,Humboldt,TN,38343,901-787-6548
K C Company,384 Oakland Road,Sweetwater,TN,37874,423-337-7775
A S A P Express Delivery,2508 Mount Moriah Suite C-558,Memphis,TN,38115,901-367-2877
Quality Express,3213 Rifle Range Rd,Knoxville,TN,37918,615-971-6800
D Warren Trucking,1750 Millbranch Pk Dr S Apt 1,Memphis,TN,38116,901-332-2568
Covered Wagon Express,211 Bright Avenue,Carthage,TN,37030,615-254-3075
Campbell Trucking,710 Little John Cove,Levergne,TN,37086,615-793-3625
K & J Trucking,1495 Douglas Dam Rd,Sevierville,TN,37862,865-428-1160
R H Transport,134 Mccorry St,Jackson,TN,38301,901-935-7650
Tennessee Western Services,903 Biffle Rd,Newbern,TN,38059,731-627-1110
Eddie Dent,131 Morningside Dr,Soddy Daisy,TN,37379,423-332-4591
Rawls Enterprises,4930 Betts Road,Greenbrier,TN,37073,615-310-3027
"Wray's Delivery Service, Inc.",2783 Elmore Park Road,Bartlett,TN,38134,901-373-3159
Sullivan Trucking,20 Tater Road,Taft,TN,38488,615-433-6919
Chattanooga Steel Transport,1850 West Polymer Drive,Chattanooga,TN,37421,N/A
Team Auto Transport,2241 Broomfield Rd,Cleveland,TN,37323,615-478-5587
"Mds Logistics, Inc.",1797 Florida St,Memphis,TN,38109,901-775-0410
Simmons Packing Moving & Freight Services,5341 Mt View Rd #194,Antioch,TN,37013,615-423-9480
Thermo Dynamic Transportation,P O Box 97,Ten Mile,TN,37880,423-334-5618
Highland Plaza Exxon,4004 Hixson Pike,Chattanooga,TN,37415,423-877-4800
A & D Freight Service,Route 6 Hyde Road,Ripley,TN,38063,901-635-2074
Dav's Mobile Home Service,R1 Box 40,Paris,TN,38242,901-642-6106
C & M Transport,Rt 3 Box 240,Camden,TN,38320,901-584-2605
Jim Connell Co Specialized & Heavy Hauling,205 E Church St,Lexington,TN,38351,731-968-0303
Auto Brokers,Hwy 43 No,St Joseph,TN,38481,615-845-4105
Hill's Wrecker Services,1785 Baldwin,Memphis,TN,38127,901-354-2965
Browns Charter Service,2026 Tammwood,Memphis,TN,38116,901-398-7617
Davids Mobile Home Service,Rt 9 Box 195a,Rogersville,TN,37857,615-272-5638
Byrge Mobile Home Transport,1947 Niggs Creek Rd,Oneida,TN,37841,423-569-2632
Butler Transports,1586 Lakefield Rd,Selmer,TN,38375,901-645-6029
Shuttle One,3712 Ringgold Rd Suite 354,Chattanooga,TN,37412,180-062-2085
Chastain Trucking Company,935 Inman St E,Cleveland,TN,37311,615-479-9558
Nanlee Trucking,321 Adcock Hollow Rd,Harriman,TN,37748,865-435-0474
Joe Hibbs Grading & Hauling,6190 So Pitts Mtn Road,South Pittsburg,TN,37380,423-837-8933
E & B Truck Lines,1901 Cumberland Heights Road,Clarksville,TN,37040,931-551-8787
Daleon Trucking,620 Deery St,Shelbyville,TN,37160,615-684-8375
Memphis Accessory Distributors,2811 Farrisview Blvd,Memphis,TN,38118,901-360-8065
"Bradley Steel, Inc.",2010 Old Harrison Pike,Cleveland,TN,37311,615-479-8030
Jeff Suttles Trucking,428 Industrial Dr Sw,Cleveland,TN,37311,423-473-6773
"Airborne Moving & Storage, Inc.",1011 North Hollywood Street,Memphis,TN,38108,901-681-0959
Cwc Trucking Co,105 Sims Road,Wartrace,TN,37183,615-389-6967
Michaels & Matthews Trucking,308 Haynes St,Lebanon,TN,37087,N/A
Blalock Auto Sales,1224 Nashville Hwy,Lewisburg,TN,37091,615-359-0308
R&s,302 Oaks Road,Ethridge,TN,38456,931-964-2623
T & T Trucking,590 Hannis Road,Bolivar,TN,38008,901-658-3613
Heisey Trucking Company,5890 Ogden Road,Dayton,TN,38321,N/A
Volunteer Crane Service,2115 W Main,Union City,TN,38261,731-885-7633
T & O Superior Movers,5070 Holly Ridge Dr,Memphis,TN,38118,N/A
Triple D Trucking,Rt 3 Box 148,Tazewell,TN,37879,616-626-7798
Tess Trucking,5957 Congress Lane,Harrison,TN,37341,615-344-7057
Progressive Trucking Co,39255 Hwy 69,Milledgeville,TN,38359,731-687-7235
Just Truck In,Hwy 64 East,Crump,TN,38327,N/A
Davis Auto Transport,2048 Woodvale Street,Cleveland,TN,37311,615-478-3349
A Plus Couriers And Aircraft Services,308 Edmonson Circle,Brentwood,TN,37027,N/A
West Knoxville Truck,11904 Hwy 70 E,Lenoir City,TN,37772,865-986-1800
"Lsk Trucking, Inc.",215 Court St 3d Natl Bank Bldg,Sevierville,TN,37862,615-453-7864
B-line Trucking,193 Dogwood Lane,Shelbyville,TN,37160,931-759-7764
B & B Trucking Contractors,3120 20th Street Ne,Cleveland,TN,37312,N/A
Around Town Tire & Trucking,400 West Alcy,Memphis,TN,38109,901-775-7785
F D Hitt Trucking,110 West Unaka Ave,Johnson City,TN,37604,615-975-0262
H & N Auto Transport,Rt 1 Box 107 Benton Station Rd,Benton,TN,37307,615-338-8003
Friendly Auto Sales & Ser,3317 E Stone Dr,Kingsport,TN,37660,615-288-7719
Don Arkon Enterprises,215 Woodland St,Nashville,TN,37213,615-256-8721
Shuttle Express Of Memphis,2093 Thomas Rd 5,Memphis,TN,38134,901-373-9660
"Billy Joe Royal Transportation, Inc.",40 Music Square East,Nashville,TN,37203,615-259-4985
Delta Movers,5231 Shelborne Circle 10,Memphis,TN,38134,901-385-0955
Sherman Express Co Shaw & Sons,909 Montrose Ave,Nashville,TN,37204,615-383-2893
Star Carriers,1222 Ridge Circle Rd,Joelton,TN,37080,813-439-7691
Seafood Express,12630 Old Hickory Blvd,Nashville,TN,37013,615-641-1972
Triangle B Trucking,2385 Hwy 49,Pleasant View,TN,37146,615-746-4617
Wapiti Custom Coach Leasing,125 Old Shackler Island Rd,Hendersonville,TN,37075,615-824-4094
Walden Trucking,837 W Willson Street,Niota,TN,37826,423-568-2968
Mayes Lumper Service,2726 Henegar Street,Knoxville,TN,37917,615-637-1559
"Adk Trucking Company, Inc.",107 Space Park North,Goodlettsville,TN,37072,615-859-6030
Hot Shot Express,60 Ancil Way,Savannah,TN,38372,901-925-5755
Mcbee Trucking,327 Buford Mcbee Rd,Sewanee,TN,37375,615-598-9849
Associated Business Services,104 A S Front St,Memphis,TN,38103,901-346-1941
International Movers Company,3924 Winchester Road,Memphis,TN,38118,901-363-1914
Lucas Trucking,Rt 1 Box 4890,Bean Station,TN,37708,615-272-0925
Sierra Delivery Service,P O Box 4475,Cleveland,TN,37320,615-479-3480
B And L Transport,P O Box 729,Celina,TN,38551,N/A
Case Mobile Home Movers,2175 Roundtop Rd,Alexandria,TN,37012,615-223-9161
Hodge Trucking,505 Webb Mill Bridge Road,Hornsby,TN,38044,731-658-5094
Angies Auto Service,413 Hill Top Dr,Athens,TN,37303,615-745-5311
Anderson Trucking,233 Henley Cove Road,South Pittsburg,TN,37380,615-837-8056
M & M Transport,P O Box 515,Sequatchie,TN,37374,N/A
Tim's Ford Trucking,84 Swafford Lane,Winchester,TN,37398,931-967-1186
Full Service Delivery,3003 Delrose Drive,Knoxville,TN,37914,865-524-5925
Happy Mountain Transport,229 Happy Mountain Rd,Gainesboro,TN,38562,N/A
Ireland Valley Transportation,845 S Lee Highway,Cleveland,TN,37311,N/A
Corndog Express,4551 N Ravenwood Dr,Chattanooga,TN,37415,N/A
E M Trucking Co,303 Hale Street,Bristol,TN,37620,423-764-4370
D & P Auto Transport,1708 37th Street Se,Cleveland,TN,37312,N/A
R Davis Trucking,11222 Meadowview Rd,Georgetown,TN,37336,423-961-2170
Thompson Transportation,Rt 1 Box 178,Benton,TN,37307,615-338-8900
B J T Trucking,3703 Dickerson Pk #9,Nashville,TN,37207,615-868-3441
Les Wrecker Service,6221 Hwy 58,Harrison,TN,37341,615-344-7700
Service By Air,2882 Barris Drive,Memphis,TN,38132,901-398-6284
Tuckassee Express,2479 Nonaville Rd,Mount Juliet,TN,37122,502-483-2979
Tsi,7894 Winchester Rd Suite 300,Memphis,TN,38125,901-854-7484
Ceo Transport,7807 Hickory Ridge Rd,Mount Juliet,TN,37122,615-443-3389
Sp & J Trucking,1 Milligan Cole Road,Trenton,TN,38382,731-414-7542
R & B Trucking,Rt 2 Box 128,Lynchburg,TN,37352,615-759-5885
Starfire Transportation,Rt 2 Box 129 A,Harrogate,TN,37752,615-869-0037
Blankies Mobile Home Services,695 Wixtown Rd,Westmoreland,TN,37186,615-666-5839
Tac,210 Shipp Avenue,Chattanooga,TN,37410,N/A
Ramsey Trucking,P O Box 506,Sharon,TN,38255,N/A
"Baker Trucking, Inc.",Cedar Fork Rd,Tazewell,TN,37879,423-626-6867
I-440 Wrecker Service,340 Oriel Ave,Nashville,TN,37211,N/A
F & F Trucking,1421 Compton Road,Murfreesboro,TN,37130,615-904-8682
Tolbert's Trucking,635 Aspire Lane #108,Memphis,TN,38111,901-774-8961
D And R Trucking,1504 W 48th St,Chattanooga,TN,37409,615-821-1317
C&k Auto Sales & Wrecker Service,2206 West Elk Avenue,Elizabethton,TN,37643,423-542-3735
Petersen's Wrecker Service,169 E Carolina,Memphis,TN,38126,901-527-4331
R W Lynn Transport,Lot 24 Factory Lane,Gallatin,TN,37066,N/A
Pegasus Express,5200 Maryland Way Ste 335,Brentwood,TN,37027,615-221-6420
Kenny's Auto Sales,695 Lauderdale Memorial Hwy Nw,Cleveland,TN,37312,423-559-0883
Holt's Wholesale Cars & Trucks,301 Greenwood Circle,Madisonville,TN,37354,615-442-2336
Robert Hatton Hot Shot Transport,101 Tyree Springs Ct Lot 2,Hendersonville,TN,37075,615-824-3556
Trinity Trucking LLC,5216 Memorial Blvd,Kingsport,TN,37664,423-288-2969
Lady's Smoke Express,638 Gourdneck Cove Rd,South Pittsburg,TN,37380,615-837-2071
Curtis Auto Parts,3003 Highway S,Athens,TN,37303,423-745-2013
Kastle Transportation Services Limited Liberty Co,3661 Brainerd Rd Ste 302,Chattanooga,TN,37411,615-629-7880
Koon Trucking,684 Highway 259,Portland,TN,37148,615-446-7349
Moore Or Less Trucking,180 County Road 570,Englewood,TN,37329,N/A
J E T Trucking,2702 Trelaway Drive,Clarksville,TN,37043,615-358-9501
"Ron's Millwright Service, Inc.",1122 Forest St,Greeneville,TN,37743,423-636-8663
Phillips Trucking LLC,177avecor Dr,Vonore,TN,37354,423-884-2394
Gcw Transport,5716 East A J Hwy,Russellville,TN,37860,615-581-4441
Mann's Used Cars Wrecker Service,2100 Hwy 70 E,Jackson,TN,38305,731-424-2173
Walter L Clay Transport,1032 County Road 267,Niota,TN,37826,423-745-6310
440 Transport,350 Woodycrest Ave,Nashville,TN,37210,N/A
P & C Trucking,1568 Old Smithville Rd,Mcminnville,TN,37110,931-473-2485
Holt's Trucking,122 William Holt Rd,Iron City,TN,38463,931-724-5895
Walker Farms,442 Raymond Road,Smithville,TN,37166,615-597-5292
"Harvard Industries, Inc.",415 Robert Henderson Road,Sevierville,TN,37862,423-428-0168
Cox Wrecker Service,2041 S 25 E,Tazewell,TN,37879,423-626-3774
Moore Transportation Company,675 Foster Rd,Adamsville,TN,38327,816-229-5791
Bowen's Auto Transport,755 Gray Road,Hohenwald,TN,38462,931-796-0125
Ken's Trucking,2226 Melrose Road,Brighton,TN,38011,901-476-9220
Bill Brooks Trucking,1108 Yoakum St,New Tazewell,TN,37825,N/A
Special Kay Transportation,308 Helen St,Tullahoma,TN,37388,615-393-6079
M & H Auto Sales & Service,1399 W Jackson Blvd,Jonesborough,TN,37659,615-753-2202
Garrison's Specialized Hauling,657 Netherlands Dr,Hermitage,TN,37076,615-885-3114
Sells Auto Sales,426 N Main St,Jamestown,TN,38556,931-879-1165
Greer Trucking,388 Campbell Dr,Cookeville,TN,38501,931-526-2890
S & S Carrier,3545 Glendale Rd,Savanah,TN,38372,731-607-5527
T & J Trucking,462 Old Highway 27,Winfield,TN,37892,423-569-4908
Cbc,4600 Bonnieway Drive,Chattanooga,TN,37411,423-493-9934
His Way Transport,250 Old State Road,Madisonville,TN,37354,423-442-1918
C M Jones Trucking,1561 Springfield Highway,Goodlettsville,TN,37072,615-491-6650
Watercraft Transport,3727 Big Springs Road,Maryville,TN,37801,865-983-6169
Dannys Auto Sales,276 Jim Town Rd,Jonesborough,TN,37659,615-753-8816
Ase Trucking,445 Christy Dr,Counce,TN,38326,901-689-5387
Walker Trucking,1004 Humble Dr,Cookeville,TN,38501,931-528-8555
Time Counts Delivery,4550 Whitefield Conner Rd,Ripley,TN,38063,731-671-5333
Whittington Trucking Co,1485 Catalina Rd,Memphis,TN,38111,901-745-3449
Harry Russell Trucking,228 Piney Ave,Piney Flats,TN,37686,423-538-8871
D & B Carpet Express,133 Bart Green Rd,Johnson City,TN,37615,423-282-2799
Damron Of Tennessee,1520 So Church St,Murfreesboro,TN,37130,615-893-8290
Wood Brothers Trucking,131 Upper Hensley Lane,Dayton,TN,37321,423-570-0848
Beachy Trucking,Clarence Barham Rd Box 285,Bethel Springs,TN,38315,901-934-4653
Mid-state Transfer,6308 Flint Gap Road,Knoxville,TN,37914,423-525-5158
Lsg Sky Chefs,815 Hangar Lane,Nashville,TN,37217,615-366-2433
George Walker Trucking,333 Cal Griffith Ln,Robbins,TN,37852,423-627-2091
Plainview Dairy,1231 Mccarter Road,Lawrenceburg,TN,38464,931-762-3217
Greg & Helen Farm & Trucking,Rt 5 Box 67-b,Pikeville,TN,37367,423-447-6238
N T C,3451 Maxey Rd,Cedar Hill,TN,37032,615-746-4091
C & S Trucking,1569 Golf Club Ln,Clarksville,TN,37043,615-647-4075
Dickerson Transportation,2109 Wilder Street,Chattanooga,TN,37406,423-629-8875
Marcum Trucking,167 Valley Glade,Cumberland Gap,TN,37724,423-869-4948
Choice Express,302 Suttles Rd,Dayton,TN,37321,423-775-7726
M & M Trucking,1420 Stonebrook Ste 7,Memphis,TN,38116,901-357-0044
Weeks Trucking,R 1 Box 129,Pocahontas,TN,38061,901-645-7203
Chris Manley Backhoe Service,42 Quick School Rd,Fayetteville,TN,37334,615-433-3194
Eddie's Autos,2035 Highway 11-e,Jonesborough,TN,37659,423-753-4186
Harris Trucking,3311 Christine Gardens South,Memphis,TN,38118,901-362-0481
