Company Name,Street Address,Address Locality,Address Region,Postal Code,Telephone
C K Transport,36 East 100 South,Summit,UT,84772,435-590-8477
Omp Trucking,3411 S 5020 W,Salt Lake City,UT,84120,213-272-6728
John Irwin Trucking,7890 So 1000 East,Sandy,UT,84094,801-568-2675
Aslan,4388 S Highland Drive Apt 1,Salt Lake City,UT,84124,801-278-0518
Jps Auto Transport,60 North State Street,Scipio,UT,84656,435-758-2693
Destination Transportation,1905 W 4700 S Apt 132,Salt Lake City,UT,84118,801-450-9785
Ferrin Square Transport,1535 W490n,Saint George,UT,84770,435-668-7584
Black Gold Services,1630 E 2450 S 34,Saint George,UT,84790,435-619-4652
Goliath Trucking,5498 W Heath Ave,Kearns,UT,84118,801-824-1448
Grace Transport,88 North 300 West,Fielding,UT,84311,435-720-2365
"Cv Transport, Inc.",609 N 700 E,Washington,UT,84780,435-229-6159
J B Simmons Trucking,4535 West 1700 South,Syracuse,UT,84075,801-726-6143
Elite Transporters,695 East 1870 North,Orem,UT,84097,801-318-9976
S Signature Trucking,2269 S 150 W,Clearfield,UT,84015,801-820-5463
Lavulo Transportation,958 Alton Drive,North Salt Lake,UT,84054,801-529-6384
Babel Express,13898 S 300 E # 4,Salt Lake City,UT,84115,909-452-9143
Wabash Of Utah,2305 South 5510 West,West Valley City,UT,84120,801-978-7976
Boem Transport,3805 W Moreland Cir,West Jordan,UT,84084,801-654-2432
Produce Express LLC,557 South 600 West,Salt Lake City,UT,84101,801-364-4437
Lc Services,592 E Main Street,Grantsville,UT,84029,801-550-4515
Double T Trucking,146 E 300 N,Bountiful,UT,84010,801-390-9821
Pitcher Service And Repair,565 South 920 West,Hurricane,UT,84737,435-862-5289
Jolley Brothers Transport,285 North 600 West,Richfield,UT,84701,435-896-8141
Left Lane Lowrider,91 West 100 South,Central Valley,UT,84754,435-896-8021
Slash E Trucking,2830 East 3500 S,Delta,UT,84624,435-253-1225
Homeland Trucking,131 East Navajo Dr,Blanding,UT,84511,435-678-2577
Jobsite Trucking,2095 E 10 S,Saint George,UT,84790,435-668-4581
Desert Sands Trucking,1705 S Sandhill Rd,Orem,UT,84058,801-226-4186
C W Hauling,3417 South 10460 E,Fairview,UT,84629,435-427-9915
M H Transport,8260 Hoover St,Midvale,UT,84047,619-210-4230
Jbz Express,780 Gawaine Street # 353,Salt Lake City,UT,84054,801-738-0599
Gz Express,737 W 1960 N,Clinton,UT,84015,N/A
Estrada Transport,955 No Jefferson Ave,Ogden,UT,84404,801-786-9345
El Indio Transportation,8719 So 620 East #9,Sandy,UT,84070,801-856-3562
Blazing Ace Transport,2167 S Tu Ee Trail,New Harmony,UT,84757,435-865-5861
Turtlin On Transportation,5 West King Street Lot 21,Altamont,UT,84001,801-452-3435
247 Equipment Services,12183 S 2920 W,Riverton,UT,84065,180-140-3398
Michael Burke Authorized Distributor For Matco Tools,1471 E 1800 S,Saint George,UT,84790,435-688-8777
Maddog Express,135 E 975 S,Layton,UT,84041,801-644-5411
Velocity Container & Storage,1605 W 1450 S,Springville,UT,84663,801-491-9444
Bill Via Trucking,1670 Lake St,Ogden,UT,84401,801-392-8511
Del Transport,1399 W 2100 S,Ogden,UT,84401,941-806-8546
Chj Transport,3625 West Spring Vista Dr,West Valley City,UT,84120,801-856-3237
Uucon,1544n 180e,Tooele,UT,84074,435-830-1126
Beefy Trucking,865 No Pehrson Lane,Monticello,UT,84535,435-220-0695
S & M Express,6522 S Castleford Drive,West Jordon,UT,84084,801-967-0306
S And V Trucking,2773 West 7550 South,West Jordan,UT,84084,801-569-3176
Hard-man Trucking,4260 North 5000 West,Roosevelt,UT,84066,435-353-4223
Ava Transport,189 North 300 East #7,Provo,UT,84606,801-691-4241
Whitaker Trucking,622 Holiday Drive,Brigham City,UT,84302,435-723-1869
H B Frye Trucking,4698 S 3500 W,Spanish Fork,UT,84660,801-798-0869
Twilight Expresss,4100 South 663 West,Murray,UT,84165,816-752-3710
Triple B Trucking Ing,4007 So 5200 West,West Valley City,UT,84120,801-964-4071
Pepes Transport,6171 Vine Field Ln,Murray,UT,84121,801-931-1617
Performance Transport,2365 South Highway 40,Heber City,UT,84032,435-654-2712
Michael Karr Transport,1030 E 300 N,Beaver,UT,84713,435-438-5164
J N D,2350 South 1480 West,West Valley City,UT,84119,801-833-1294
4-all Field Service & Repair,6851 South Larabrook Way,West Jordan,UT,84084,801-694-3739
Mountain Oilfield Services,257 S 300 W,Vernal,UT,84078,435-789-4774
John's Septic Service,401 South Center,Enterprise,UT,84725,435-878-2316
Intermountain Peak Transport,8001 Norwood Rd,Cottonwood Heights,UT,84121,801-230-6722
Big 9 Transport,4401 N 250 W,Ogden,UT,84414,801-781-0362
E I R Trucking,209 East 300 South,Blanding,UT,84511,435-678-3915
Right Way Express,701 North Park Shadows Circle,Bountiful,UT,84010,801-556-7989
Benson Motor Carriers,1154 E Silver Mesa Circle,Sandy,UT,84094,801-739-8300
Tamarack Trucking,620 W 350 N,Salina,UT,84654,435-896-0958
Four Diamonds Express,3532 W 1025 N,Layton,UT,84041,801-774-7579
Angel Mijares,675 S Canyon View Drive,Elk Ridge,UT,84651,562-860-1147
Dekk Transport,140 So Green River Blvd,Green River,UT,84525,612-290-9028
Gines Transportation,2157 Theresa Cv,West Vallet,UT,84119,801-739-3801
J & G Transportation,5344 Sunshine Dr,Salt Lake City,UT,84120,801-969-5869
Bear Mountain Transport,409 E 200 N,Spring City,UT,84662,801-891-3918
Mr Transport,1240 W Uzona Ave,Hildale,UT,84784,435-212-6153
3 Lucky Cards,1918 W 600 N,Salt Lake City,UT,84116,801-949-7631
Kokopelli Tours,2124 Sego Lily Drive,Sandy,UT,84092,801-733-4637
Executive Care Service,1053 Taylors Park Circle,Taylorsville,UT,84123,801-269-4566
Screamin' Eagle Express,396 Lakeview Ave,Tooele,UT,84074,801-381-1644
Sweet Home Industrial Trucking,615 East Oakleaf Drive,North Salt Lake,UT,84054,801-836-2956
Cdl Trucking,75 W 400 N,Huntington,UT,84528,435-687-5274
Nds Media,1725 East 1450 South Ste 340,Clearfield,UT,84015,801-927-4000
Zion Logistics,3841 Adams Ave,South Ogden,UT,84403,801-745-7373
Mc Trucking,170 4th Street,Ogden,UT,84404,801-920-9371
Irizarry Trucking,3259 Patrick Dr,Magna,UT,84044,801-661-6462
Najeras Services,685 Emery St,Salt Lake City,UT,84104,801-680-2108
Katco,1520 S 910 W,Lehi,UT,84043,801-850-4435
Dj Rocks Express,2935 South 3600 West,West Valley City,UT,84119,801-440-6687
Herrecas Trucking,5353 W Peggy Lane,West Valley City,UT,84120,801-205-0629
Widdison Auto Service,5295 South 5500 West,Hooper,UT,84315,801-985-3627
Bj Transport,1158 S Prospect St,Salt Lake City,UT,84104,801-859-9566
Beehive Transportation Systems,1381 Richards St,Salt Lake City,UT,84115,801-474-2002
Sundance Construction And Development,2938 West Country Classic Dr,Bluffdale,UT,84065,801-455-8401
Aq Transportation,1451 W 650 S,Orem,UT,84058,801-225-4642
Mule Train Freight Company,1699 North Great Basin,Saint George,UT,84770,435-215-3779
Aquia West Trucking,1114 South Hwy 91,Nephi,UT,84648,435-623-0538
Myco Trucking,901 S Redwood Road,Woods Cross,UT,84087,801-296-0700
Harris Trucking,364 W 1900 N,Layton,UT,84041,801-775-0870
Brugman And Santos Trucking,4939 South 5415 West,Kearns,UT,84118,801-982-9630
D Baslee Trucking,9993 E 6000 N,Lapoint,UT,84039,435-247-2052
Industrial Casters,346 West 3000 South,Salt Lake City,UT,84115,801-487-2123
Springer Trucking,5278 E 200 N,Fort Duchesne,UT,84026,435-722-4007
Tm Trucking,559 North Vista Drive,Wendover,UT,84083,801-809-8727
Farmers Express,595 S Oak Dr,Woodland Hills,UT,84653,801-423-1653
R W S Trucking,2466 West 7200 North,Honeyville,UT,84314,435-279-8146
Transwest Transport,3413 W 10235 So,South Jordan,UT,84095,801-446-8844
Stl Trucking,3760 W 3015 S,West Valley City,UT,84120,801-957-1530
Doc & Sons,315 N Meadow Dr,Dammeron Valley,UT,84783,435-986-9435
T's Trucking,59 Timberlakes,Heber City,UT,84032,435-785-8559
Todd Holcomb Transportation,4482 W 1650 N,Plain City,UT,84404,801-732-2871
Hullinger Trucking,5000 W 1500 S,Roosevelt,UT,84066,435-722-0231
Tnt Express,565 N Sir Patrick,Salt Lake City,UT,84116,801-949-7631
Woodruff Trucking,954 16th St # 72,Ogden,UT,84404,801-393-2589
H A Express,1896 Homestead Farm Ln #4,West Valley City,UT,84119,559-347-4764
Go Mama Trucking,836 West 1075 South # 201,Brigham City,UT,84302,435-237-1991
Miller's Hotshot Service LLC,1785 E 4000 S,Vernal,UT,84078,435-789-2894
Eagle Freight Line,3888 N 2180 W,Erda,UT,84074,801-372-1295
Two Man Movers,777 West 1700 South,Salt Lake City,UT,84104,801-924-1564
Apex Service,115 West 2700 South,Salt Lake City,UT,84115,801-487-9866
S & J Distributing,13940 S 4000 W,Bluffdale,UT,84065,801-253-2548
Sun Trucking,7678 S Union Park Ave,Midvale,UT,84047,801-916-9656
E & D Transport,159 North 1380 West,Pleasant Grove,UT,84062,801-369-9294
Jfk Transportation,5442 West 3400 South,West Valley City,UT,84120,801-955-6151
Jensen's Glacier Food Service,695 West 1800 North,Logan,UT,84321,435-752-2249
Jac Harward Trucking,270 North 400 East,Salina,UT,84654,435-529-3316
Tri State Diesel,282 West Old Church Rd,Toquerville,UT,84774,435-627-1889
Atm Express,9868 Flint Dr,Sandy,UT,84094,801-381-9129
Cdb Transport,2216 West Bonanza Cir,South Jordan,UT,84095,801-302-1259
Aim Enterprises,20 N Main Street Ste 107,Saint George,UT,84770,435-229-4811
The Transporter Of Oregon,3240 South 7900 West,Magna,UT,84044,435-619-4643
Servicemaster Professionals,550 South Main Suite 102,Brigham City,UT,84302,435-734-9899
Cruz Trucking,2030 Liberty Ave,Ogden,UT,84401,801-392-2076
Nickee Transport,2691 South 3500 West,Taylor,UT,84401,801-791-3663
Tdp Trucking,220 West 400 South,Minersville,UT,84752,435-691-0836
Carlos Espinoza & Sons Trucking,3352 River Villago Ln 822,West Valley City,UT,84119,702-927-2624
M D Delivery,2371 Sugar Place,West Jordan,UT,84088,801-674-2026
Papa Don Trucking,95 North 100 West,New Castle,UT,84756,435-439-5794
Unidos Trucking,4587 South 4800 West,West Valley City,UT,84120,801-635-6224
King Trucks,4952 Barton Park Dr,West Jordan,UT,84084,801-634-7725
Burke Transportation,416 South 975 East,Layton,UT,84041,801-430-3818
Low Book Auto Sales,590 North State Street,Lindon,UT,84042,801-922-9191
Tdc Trucking,629 E 1850 N,North Ogden,UT,84414,801-686-1281
Garrett & Sons Trucking,2534 North Hwy 89,Panguitch,UT,84759,435-531-1982
L C Robins Trucking,2945 South 1800 East,Heber City,UT,84032,435-654-1865
Mcarthur Trucking & Residential Services,4348 West 5850 South,Hooper,UT,84315,801-430-6162
Kathys Transportation,4599 South Sunstone Rd Apt 313,Salt Lake City,UT,84123,801-263-3799
Devon Trucking,1060 North 4500 West,West Point,UT,84015,801-920-9649
Castle Valley Hot Shot Services,200 E 95 S,Wellington,UT,84542,435-613-0283
K C Services,1093 Main Canyon Road,Wallsburg,UT,84082,435-640-7914
Mangum Septic Service,225 North Bluff Street Suite 12,Saint George,UT,84770,435-628-6053
Rl Mills Enterprises,1197 E 540 N,Spanish Fork,UT,84660,801-921-9757
Hewitt And Sons Trucking,7563 South 2480 West,West Jordan,UT,84084,801-566-4324
Gorilla Trucking LLC,6058 S Jordan Canal Rd,Taylorsville,UT,84118,801-574-1420
Wiebe Truck'n,607 West 1450 North Circle,Cedar City,UT,84720,435-586-6180
Snow Monster Transport,1814 N 2750 W,Clinton,UT,84015,801-985-0262
Potter Trucking,23500 W Hwy 35,Duchesne,UT,84021,435-848-5550
Lou Ann Trucking,5944 West 1000 S,Cedar City,UT,84720,435-865-5915
Philco Services,1976 E 5850 S,S Ogden,UT,84403,801-589-8694
Dale Brown Trucking,1881 South 1100 East,Blanding,UT,84511,435-678-4056
Hoffman's Field Service Repair,4388 W Courtney Court,West Jordan,UT,84088,801-554-8697
Nish Rock,20025 North 5200 West,Plymouth,UT,84330,435-458-2134
Graham Transportation,4033 W 9580 S,South Jordan,UT,84095,801-201-2612
Jones Transport,380 S 1500 W,Lehi,UT,84043,801-687-4323
Falcon Trucking,564 East 4050 South #9l,Salt Lake City,UT,84107,801-654-7391
J R Transportation,3845 Arabian Way,Enoch,UT,84721,435-867-1989
Edwin Trucking,369 West 4900 South Apt 3,Washington Terrace,UT,84405,801-475-4371
Esterbrook Trucking,2184 Long Court,West Jordan,UT,84088,801-556-2721
Lewis Hotshot Service,253 S 100 W,Fairview,UT,84629,435-469-0039
Jordan Pacific,6853 S 5820 W,West Jordan,UT,84084,801-968-8380
Steve Roberts Trucking,P O Box 338,Redmond,UT,84652,435-529-2253
Don Newman Trucking Company,325 Columbia,East Carbon,UT,84520,435-888-4439
Garces Distribution,964 S 200 W #4,Salt Lake City,UT,84101,801-884-2716
R D Ames Transport,1700 N Main # 44,Cedar City,UT,84720,435-267-2411
Delgado Trucking LLC,340 W 920 S #61,Provo,UT,84601,801-638-5766
Looking Glass Limo Service LLC,155 W Center St,Moab,UT,84532,435-260-2689
Tsl Trucking,169 West Center Street,Levan,UT,84639,435-623-2403
"Scenic Canyons Recreational Services, Inc.",1066 E 11600 N,Richmond,UT,84333,435-258-2605
Bt Trucking,1690 Lake St,Ogden,UT,84401,801-927-7402
Krk Hot Shot,4402 West 25 South,West Point,UT,84015,801-773-4427
Green River Trucking,53 Sage Dr,Orem,UT,84097,801-225-3735
Christensen Auto Transport,2121 N 800 East,North Logan,UT,84341,435-512-0636
Mabior Jr Trucking,1454 South 300 East,Salt Lake City,UT,84115,801-979-4807
Chuck Jones & Son Trucking,575 Wasatch Dr,Layton,UT,84041,760-963-5439
Fitz Trucking,1004 West 180 South,Hurricane,UT,84737,435-635-3126
Tintis Forever,1175 West 975 South,Clearfield,UT,84015,801-825-1383
American Transport,960 West 2600 North,Layton,UT,84041,801-866-2434
Wild Hogs,801 North 3550 West,Layton,UT,84041,801-614-5106
Farmer Transportation,2078 Katies Way,Clearfield,UT,84015,801-820-5054
D & J Transportation,770 South 400 East #61,Brigham,UT,84302,435-723-2716
K & K Crane Trucking,186 East 200 South,Centerfield,UT,84622,435-528-7624
Kaisar Auto Sales,3946 S Main Street,Salt Lake City,UT,84107,801-288-2886
Three Feathers Express,118 North 1228 West,Cedar City,UT,84720,801-763-5060
Mj Enterprises,205 South Mtn View Lane,Monroe,UT,84754,435-896-3727
Canyon Express,2597 West 3600 North,Cedar City,UT,84720,435-586-6516
Hinds Transport,3552 South 4960 West,West Valley,UT,84120,801-414-8782
A Plus Transport,351 West 170 South,La Verkin,UT,84745,435-635-5801
Roger Nelson & Sons,75 South 1600 East,Tremonton,UT,84337,435-257-5292
Smoking Guns Express,410 South 200 West,Beaver,UT,84713,435-421-1603
Brad T Braegger & Son,2901 Maplewood Way,Saint George,UT,84790,435-652-9817
Brugman & Ramirez Transport,5470 Silvertip Drive,Kearns,UT,84114,801-403-9341
Secured Hauling,5177 S 500 E,Vernal,UT,84078,435-790-6266
"S & Mc Auto Transport, Inc.",1827 North 1775 West,Farr West,UT,84404,801-791-1230
Slovex,3340 S 1570 E,Salt Lake City,UT,84106,801-891-1148
Lamb's Transport,2770 North 1000 East,North Logan,UT,84341,435-752-9158
Dlt Carriers,284 North 725 West,Orem,UT,84057,801-222-9069
Mishek Transportation,Sevier River Ranch Lot #1,Nephi,UT,84648,801-554-3623
L & D Transportation,2139 N. 1450 E,Layton,UT,84040,903-736-1158
K L Tune Trucking,1905 West 4700 South #436,Salt Lake City,UT,84118,801-971-8817
Rissas Rigs,1450 North Washington Blvd #89,Ogden,UT,84404,801-791-5546
Brooking Transport,545 North 260 West Circle,Saint George,UT,84770,435-668-7198
Lightning Transport,412 North 700 East,Payson,UT,84651,801-592-3557
"Lazy G Trucking, Inc.",3305 South Hwy 23,Wellsville,UT,84339,435-787-2169
D & C Enterprises,1590 North 1500 West,Provo,UT,84604,801-375-4471
The Grandfather Trucking,1535 West Bridge Road,Provo,UT,84601,801-592-0061
Julieanne Transport,250 East 200 South,Orem,UT,84058,801-225-8141
Walter L Jones Trucking,1157 South 780 West,Payson,UT,84651,801-465-4180
J & K Services Express LLC,3738 West 2340 South Suite E,Salt Lake City,UT,84120,801-908-7708
Childs Transportation,47 South 100 East,Gunnison,UT,84634,435-528-3635
N D N Truck,3770 North 800 West,Pleasant View,UT,84414,801-985-0991
Kjar Bros Trucing,290 West 100 South,Manti,UT,84642,435-835-5527
Bearz Trucking,2129 Ficus Wya,Eagle Mountain,UT,84043,801-427-1076
Ronald L Penn Logistics LLC,1218 W Kimman Lane,Taylorsville,UT,84123,801-266-0852
"Ramon & Delon Transport, Inc.",457 Cedar St,Tooele,UT,84074,435-843-1337
G & J Transport,396 Lakeview Ave,Tooele,UT,84074,801-381-1644
Night Owl Transportation,2406 South 3270 West,Salt Lake City,UT,84119,801-254-6407
T&j Transport,3846 South 5600 West,West Valley City,UT,84120,801-964-8628
Bs Trucking,345 North 100 East,Manila,UT,84046,435-784-3688
Segamex Trucking,3216 S Sugar Bowl Ln,West Valley,UT,84128,801-502-9916
Gledhill Trucking,876 East Factory,Garland,UT,84312,435-257-1260
Reliance Communications Services,1280 West Utah Ave,Hildale,UT,84784,435-874-2800
Trails West,280 West 200 North,Richfield,UT,84701,435-896-7235
Iron Dog Transport,1185 N Mountain Rd,Ogden,UT,84404,801-737-2858
Legacy Freight Services,155 West 300 North,La Verkin,UT,84745,435-635-5848
Jll Service,488 East 9000 South,Sandy,UT,84070,801-352-7140
Little Creek Mtn Ranch LLC,1614 N Applevalley Dr,Hurricane,UT,84737,435-877-1014
Pumpkin Express Trucking,1843 Katrina Ct,Layton,UT,84040,801-603-3910
Big S Carrier,2985 Shoreline Dr,West Valley,UT,84120,801-906-0101
D & P Oilfield Transport,1587 West 1000 South,Vernal,UT,84078,435-781-1744
Empey Transport,4635 West 5500 North,Bear River,UT,84301,435-279-2410
Diamond Corp,1453 South 760 West,Provo,UT,84601,801-343-0911
Bearcat Trucking,1520 North State Street,Provo,UT,84604,801-373-9608
Moskovia Trans,715 East Scott Ave,Salt Lake City,UT,84106,801-913-4135
"C L Trucking, Inc.",6818 South Pine Rock Circle,Salt Lake City,UT,84121,801-599-1241
Tlb Trucking,259 N 100 E,Payson,UT,84651,801-362-7613
G M Gonzalez Trucking,3052 S 7200 W,Magna,UT,84044,801-598-0437
Torgersen Transport,1904 N Rocky Ford Dr,Sigurd,UT,84657,435-633-3570
Desert Transport,1086 South Main #102b,Saint George,UT,84770,435-574-1112
Tholian Valley Transportation Co,11245 Glen Croft Lane,Sandy,UT,84070,801-571-6843
Chase N Cassadi Fast Freight,7509 West Mountain Top Road,Herriman,UT,84065,801-243-4945
Prompt Trucking LLC,695 South 1st East,Bountiful,UT,84010,801-809-4268
Lola's Trans,5487 W Grantham Lane Unit 201,West Valley City,UT,84120,801-815-8860
"Poulsen Auto Image, Inc.",710 North Main,Smithfield,UT,84335,435-764-3180
Spencer Trucking,1690 North 700 West,Mapleton,UT,84664,801-489-6174
Bosworth Trucking,14285 N 4400 W,Garland,UT,84312,435-279-0414
Carballo Trucking,51 North 300 East Suite 3,Parowan,UT,84761,435-477-8003
Silverado Trust,965 N Juniper Ave,Hildale,UT,84784,435-874-2461
W S Godoy Express,340 West 2400 South,Clearfield,UT,84015,801-807-8555
Edwards Transportation,478 Stonehedge Drive #5a,Salt Lake City,UT,84107,801-502-9302
Kaos Logistics,2491 N Highway 89,Pleasant View,UT,84404,801-388-6657
Yoakum Trucking,4027 South Castle View Dr,West Valley City,UT,84128,970-739-0590
Ramsay Trucking,1400 West North Temple # 556,Salt Lake City,UT,84116,360-430-5243
Sandoval Bros,1935 W Red Angus Dr,Salt Lake City,UT,84116,801-575-5362
T L P Trucking,5150 West 4820 South,Kearns,UT,84118,801-963-1702
"Montana Transportation, Inc.",1433 S 150w,Payson,UT,84651,801-592-5896
Bailey Finau Transportation,5672 Sarah Jane Drive,Kearns,UT,84118,801-502-9896
K W Transport,310 South 800 West,Salina,UT,84654,801-330-8865
Basic Transport,95 E 200 N,Wales,UT,84667,435-436-8973
Two Of A Kind,4977 So 2625 East,Vernal,UT,84078,435-781-0544
Parkinson Trucking,1950 North Hwy 357,Beaver,UT,84713,435-310-0163
Short Creek Station Transportation,1045 North Carling Street,Hildale,UT,84784,435-627-7055
R & B Perez Trucking,5277 Midland Drive,Roy,UT,84067,801-985-3404
Ctr Truck Co,5014 Murray Blvd #d2,Murray City,UT,84123,801-879-7023
Big Daddy Trucking,13847 South Steve Ln,Herriman,UT,84065,801-573-9266
Clc Trucking,1345 North 2100 West,Monroe,UT,84754,435-527-1887
Slw Trucking,3918 West Hazy Way,West Jordan,UT,84084,801-347-0523
J & T Trucking,166 E 600 N,Hurricane,UT,84737,435-879-9190
Hotshot Express,3866 West Salinas Drive,Riverton,UT,84065,801-509-0431
Jmr Transportation Services,1188 West 1420 North,Orem,UT,84057,801-221-5465
Rocky Mountain Express,765 Lakeview,Stansbury Park,UT,84074,435-843-0769
Ged Transport,1806 East Glider Lane,Sandy,UT,84093,801-574-9642
Chase Air Transportation LLC,1810 Milestone Dr Suite A,Salt Lake City,UT,84104,801-975-8005
J And J Trucking,5285 W 20400 N,Plymouth,UT,84330,435-458-3904
Stevens Trucking,4285 Driftwood Lane,Enoch,UT,84720,435-421-9084
Caporal Transportation Services LLC,1027 N Main Suite 57,Cedar City,UT,84721,435-865-1494
M S Trucking,3838 Bobwhite Way,West Valley City,UT,84120,801-553-6342
Computer Shoppe,840 North Twin Lakes Drive,Saint George,UT,84770,801-446-9450
Stinson Well Services,80 West Main,Price,UT,84501,435-637-8570
Ck Construction,1981 South Painter Lane,Ogden,UT,84401,801-731-0717
America Hot Shots,2439 S Highland Dr,Salt Lake City,UT,84106,801-631-0844
Dayuso,3190 South Thorpe Creek Road,West Valley,UT,84128,801-910-4152
Vasquez Trucking,969 South White Sands Drive,Washington,UT,84780,435-632-9769
Cedar Rock Livestock & Trucking,3410 W 7000 N,Delta,UT,84624,435-864-1975
Moores Trucking,1224 N Jefferson,Ogden,UT,84404,801-782-4565
Reliable Transport,3655 South 700 West,Salt Lake City,UT,84119,801-268-6500
Git-r-done Hotshots,6782 North 10900 East,Lapoint,UT,84039,435-790-4525
Jade Transport,7101 West Appaloosa Drive,West Valley City,UT,84128,801-981-8647
Outlaw Transportation,45 W 200 S,Richmond,UT,84333,435-258-5372
E F S Trucking,1780 West 9000 South #242,West Jordan,UT,84088,801-699-2461
Pacific Intermountain Express LLC,5254 Cove Canyon,Park City,UT,84098,801-973-7322
Quarter Circle E Welding,1015 S 1500 W,Vernal,UT,84078,435-789-4748
Leo Trucking,2925 Burdock Dr,West Valley City,UT,84128,801-968-4755
Mc Trucking,290 E 300 S,Heber,UT,84032,435-654-2227
Norsemen Transport,2246s 750 E,Bountiful,UT,84010,801-718-4973
Taras Lojik Dba Tlw Auto,1761 South Main,Salt Lake City,UT,84115,801-463-1916
Roca Trucking,6186 W Milden Lane,West Valley,UT,84128,801-969-3598
Minjarez-hancock Trucking,387 W 300n,Salina,UT,84654,435-249-4088
Howling Wolf,133 North 4850 West,Westpoint,UT,84015,801-807-8584
Nessen Trucking,535 West Pipesprings Dr,Kanab,UT,84741,435-668-3557
Tlo Auto Transport,5347 South 2150 West,Taylorsville,UT,84118,801-518-7328
Flying N Trucking,778 W 2180 N,Lehi,UT,84043,801-766-8370
Sharkit Transport,5057 South Alex Street,Kearns,UT,84118,801-968-3883
Diamond F Transport,269 E 4775 S,Ogden,UT,84405,801-392-5395
Drag On Transport,120 S 100 W,Lewiston,UT,84320,435-994-0982
Dragon Express,424 Elm St #2,American Fork,UT,84003,801-492-1310
Brinkerhoff Trucking,255 N 100 E,Glendale,UT,84729,435-648-2577
"Tapia Trucking, Inc.",1901 North 1500 East,Roosevelt,UT,84066,435-725-2888
Ejc Transport,765 N Homestead Ave,Hildale,UT,84784,801-372-8445
Dj Transport,822 East 8475 South,Sandy,UT,84094,801-256-0924
Kendrick Enterprises,1056 South 400 East,Trenton,UT,84338,435-563-0088
Dye-no-myte Trucking,140 West 900 North,Helper,UT,84526,435-472-8634
Liquid Transport,Rr 2 Box 2615,Roosevelt,UT,84066,435-722-8741
Chavez & Reed Trucking,136 Dooley Court,Salt Lake City,UT,84102,801-533-2883
Minnick Trucking,2413 Se Coal Creek Road,Price,UT,84501,801-972-6033
Costill Trucking,6911 S Coneflower Ct,West Jordan,UT,84084,801-982-1532
Kadlec Transport,2794 E Westerling Way,Salt Lake City,UT,84121,801-943-7586
B & K Express,165 West 3030 South,Salt Lake City,UT,84115,801-281-0273
Tomahawk Transport,759 North 400 West,Centerville,UT,84014,801-972-6033
Freedom Transport,6293 South Wakefield Way,Kearns,UT,84118,801-957-8473
Double Jackal Express,1202 North 250 West,Layton,UT,84041,801-725-1040
Ttc Transport,98 West 300 South,Providence,UT,84332,801-209-0061
"Desert Inn, Inc.",197 E 100 N,Hanksville,UT,84734,435-542-3241
Whitaker Transfer,622 Holiday Dr,Brigham City,UT,84302,435-723-1869
J-bird Trucking,462 Jay Street,Kaysville,UT,84037,801-547-1801
P And K Morrow Transportation,1325 West 240 North,Salt Lake City,UT,84116,435-764-7077
Chavez Trucking,624 Kershaw Street,Ogden,UT,84403,801-317-4457
M J Trucking,105 North 100 East,Circleville,UT,84723,435-590-7092
Horse Thief Trucking,712 East Nichole Way,Erda,UT,84074,435-843-7571
Sast,492 North Old Highway 91,Hurricane,UT,84737,435-874-2490
Hi - Guera,1000 North 375 East,Harrisville,UT,84404,801-528-8182
J & C Trucking,5687 W Dawn Vista Road,West Jordan,UT,84084,801-597-0495
High Country Hot Shots,1867 East Ryan Park Ave,Sandy,UT,84092,801-599-4104
Rusa Trucking,1316 S 400 E #de,Saint George,UT,84770,435-628-2528
L & D Trucking,North Highway 191,Monticello,UT,84535,435-587-2906
Trademarx Transportation Services,5351 South 5420 West,Kearns,UT,84118,801-969-8463
Bell Trucking,65 South 200 West,Springville,UT,84663,801-489-9617
Gabrielsen Trucking,679 E Draper Heights Way,Draper,UT,84020,801-971-7040
R L Gordon Trucking,973 W 770 So,Provo,UT,84601,801-785-7270
Rebel Trucking,1309 East 1250 South,Saint George,UT,84709,N/A
Wolfie Lewis Truck,578 East 1700 South,Salt Lake City,UT,84105,435-640-7798
S & B Trucking,2071 Arthur Drive,West Jordan,UT,84084,801-785-7270
Dudley Do-right Trucking,77 So 100 East,Smithfield,UT,84335,435-757-4392
Pinnacle Transport,34 Grover Street,Layton,UT,84041,801-540-3404
Alpine Transport,1550 W Trinniman Lane,Lehi,UT,84043,801-766-8690
R And T Transport,83 East 2350 North,Lehi,UT,84043,801-766-6266
Bailey Trucking,294 Quick St,Grantsville,UT,84029,435-884-0179
Purple Sage Trucking,475 East Jessop Avenue,Hildale,UT,84784,435-557-0583
D Hansen Autowrecking,2340 S 5700 W,West Valley City,UT,84128,801-972-6905
Tm Transport,470s 300 E,Brigham City,UT,84302,435-734-2688
Black Diamond Transportation Black Diamond Limited Liability,4925 W 2150 N,Plain City,UT,84404,801-731-1397
Nicolson Trucking,11370 E 15900 N,Mt Pleasant,UT,84647,801-785-7270
Dlpt,517 N 5575 W,Cedar City,UT,84720,435-586-1415
Ray Carpenter Trucking,1949 S Main St,Nephi,UT,84648,801-785-7270
King Trucking,216 So 600 W,Fountain Green,UT,84632,435-445-3389
J&s Trucking,1399 W 2100 S Spc 86,Ogden,UT,84401,801-430-7845
B & W Trucking,107 North Main Street,Bountiful,UT,84010,801-296-6880
High Calibur Trucking,3275 Chapparral Dr,Saint George,UT,84790,435-673-3429
H & C Trucking,462 S 750 E,Orem,UT,84097,801-370-9894
Thomas Transportation,234 East 1800street #f,Clearfield,UT,84015,801-775-9619
His Trucking,4805 West 1257 South,Cedar City,UT,84720,435-586-4527
Westwind Logistics,9932 Eden Crest Rd,South Jordan,UT,84095,916-727-5222
Tango Trucking,15 West 700 North,Orem,UT,84057,801-765-1943
Verdmont Truck,1425 W 800s,Salt Lake City,UT,84104,801-326-7073
Usa Transport Express,11602 S. Redwood Rd Unit #210,South Jordan,UT,84095,801-208-2622
Alan Dawson Trucking,97 South 100 East,Mona,UT,84645,801-250-0134
Lewis And Clark Transport,542 N 300 E,Hurricane,UT,84734,435-680-4051
Redneck Express,4026 Kingvalley Street,West Valley City,UT,84128,801-982-1041
Silver Wolf Trucking,11812 South 3200 West,Riverton,UT,84065,801-253-3711
"Craigs Routsabout Service, Inc.",5053 South 4625 East,Vernal,UT,84078,435-781-1366
Aj Logistics,13000 So 1300 E,Draper,UT,84020,801-571-8621
Expotrek Logistics,1871 South 4800 W,Salt Lake City,UT,84104,801-973-4575
Caussway Freight Transport,111 S 1200 E,Lehi,UT,84043,801-768-8787
D&d Enterprise,1078 S 900 E,Spanish Fork,UT,84660,801-253-9933
Double M Carriers,99 West Main Street,Lehi,UT,84043,801-768-4454
K & M Moving,2129 N Forest Circle,Cedar City,UT,84720,435-279-7382
Tailele Trucking,3330 South 7780 W #c,Magna,UT,84044,801-785-7270
Dial Trucking,524 35th Street 1st,Ogden,UT,84403,801-394-2889
Canfield Trucking,855 W Main St,Tremonton,UT,84337,435-257-3515
Saak & Sons Trucking,454 E Elise Street,Sandy,UT,84070,N/A
Ammex Trucking,3085 Quincy,Ogden,UT,84403,801-391-8114
Gallup Transport,2016 S 620 W,Lehi,UT,84043,801-789-4148
Frontier Rodeo And Hauling,801 N Harrisville Rd,Harrisville,UT,84404,801-786-0351
Custon Trucking & Transport,569 West 550 North,West Bountiful,UT,84010,801-295-0089
J T Express,1375 North 200 East,Spanish Fork,UT,84660,801-798-9847
Watts Trucking,1650 South 1100 West,Woods Cross,UT,84087,801-566-3227
Bluebelle Transport,244 West 300 South,Provo,UT,84601,801-373-6920
Cec Environmental Services,595 N 1250 West Suite 4,Centerville,UT,84014,801-295-3833
Express Deliveries,811 Windflower Lane,Sandy,UT,84070,801-550-6403
R & M Trucking,550 S 2100 W,Vernal,UT,84078,435-789-3128
"Jeffrey Hill Trucking, Inc.",432 No Angel St,Kaysville,UT,84037,801-546-6654
Gem Valley Transport,513 W 1060 N #1,Logan,UT,84341,435-755-8443
Dorantes Brothers Trucking,819 W 400 N,Salt Lake City,UT,84116,801-785-7270
Dwight M Angus Trucking,340 S 200 W Box 246,Levan,UT,84639,435-623-5614
Ming Express,333 S 760 W,Hurricane,UT,84737,435-635-5152
Oscar's Produce,548 W 600 South,Salt Lake City,UT,84101,801-531-1864
B C Rock,2970 West 3650 South Apt #13,West Valley City,UT,84119,801-414-2322
Mike Hardy Trucking,429 East 400 South,Kanah,UT,84741,435-644-3309
Motion Picture Services,1518 East Kayscreek Drive,Layton,UT,84040,801-499-9630
Copper Star Trucking,784 South River Road Number 158,Saint George,UT,84790,435-703-3739
S R M Transport,88 N Main St,Laverkin,UT,84745,435-635-3647
Cj Bar Trucking,1869 North 270 West,Tooele,UT,84074,435-843-7598
M & V Transportation,5945 West Drybone Circle,Kearns,UT,84118,N/A
Hurricane Express,921 N Sky Mountain Ct,Hurricane,UT,84737,303-475-4308
Mm Trucking,75 North Main Street,Fayette,UT,84630,435-528-5870
Mike Thornton Trucking,186 North 300 East,Parowan,UT,84761,435-477-8634
Sheep Man Express,Hc 69 Box 111 County Road,Randlett,UT,84063,435-545-2395
"R Sierra Trucking, Inc.",2058 S 400 E,Kaysville,UT,84037,801-451-4864
Cooper Trucking,1098 W 1250 N,Saint George,UT,84770,435-229-5228
Wood Trucking,2005 North 1600 East,Beryl,UT,84714,435-439-5501
Steve Parish Trucking,25 S 700 E #2,Salt Lake City,UT,84102,801-359-5879
Faulkner Trucking,1352 Winter Qtrs Trnil,Dameron Valley,UT,84783,435-574-0580
Connie L Trucking,280 W 100 N 65-6,Roosevelt,UT,84066,435-722-3702
Star Material Transport,4013 W 13400s,Riverton,UT,84065,801-282-3721
Paspuel Transport Enterprises,544 N Beverly Ave,Orem,UT,84057,801-763-5060
Morts Auto,1430 Gibson Ave,Ogden,UT,84404,801-399-9794
Venus Transportation,2771 South 7200 West,Magna,UT,84044,801-252-1344
Waller Transportation,3178 Copper Cove Cir,Magna,UT,84044,951-830-8721
S N R Trucking,1932 W 450 N # 87,Provo,UT,84601,N/A
Two Men And A Truck,1632 West 2650 South,Ogden,UT,84401,801-621-0078
Undercover Transport,800 N Lund Hwy,Cedar City,UT,84720,702-591-8817
Launch Pad Hot Shot Express,1649 South 3050 West,Vernal,UT,84078,435-790-2071
Mikey's Trucking,418 E 200 N,Manti,UT,84642,435-835-4274
Icy Peaks,1411 West 950 North,Provo,UT,84604,801-377-9339
Lazy K Transport,251 East 970 North,Hurricane,UT,84737,435-635-5069
Double M Transport,108 S Valley Rd,Saint George,UT,84771,435-879-2621
Quickshot,1780 W 9000 So # 150,West Jordan,UT,84088,801-550-1396
Fast Transportation,3244 New Mark Dr,West Valley City,UT,84128,405-283-0698
Rising Star Transportation Co LLC,1594 West 2700 South,West Valley,UT,84119,801-972-8294
B & H Trucking,2966 S Hawker Ln,Salt Lake City,UT,84128,801-250-2448
St George Motor Cars,543 North Blutt Street,Saint George,UT,84770,935-634-0150
Lone Peak Crane Service,4860 Country Club Drive,Highland,UT,84003,801-756-5939
Tumbleweed Trucking Tumbleweed Transportation,1276 West 1480 North,Orem,UT,84057,801-764-0210
Generations Trucking,3790 South 4000 West,West Valley,UT,84120,925-437-8571
Nilsson Transport,192 North Grant Ave,American Fork,UT,84003,801-756-1931
Timber Wolf Trucking,1348 South Washington Rear,Ogden,UT,84404,775-635-2696
Rfc Transport LLC,1185 N 910 E,Orem,UT,84097,801-225-6919
"Franks Westates Services, Inc.",1304 South 1200 East,Vernal,UT,84078,435-789-1698
Direct Delivery Courier,1337 W 11030 S,South Jordan,UT,84095,801-631-0178
Jpony Express,2060 Churchwood Drive,Tooele,UT,84074,187-725-1229
James Trucking,900 Kents Lake Rd,Beaver,UT,84731,702-296-9132
Martinez Trucking,53 East 100 South,Hyrum,UT,84319,435-245-6630
Show-n-go Trucking,5323 W Legacy Hill Dr,West Jordan,UT,84084,801-679-1855
Cap Transport,2902 Quail Circle,Saint George,UT,84790,435-688-0514
Chc Express,1547 South Bridle Path Loop,Lehi,UT,84043,801-787-0307
Lloyd Transportation,284 35th St,Ogden,UT,84401,801-394-1861
Summit Transport,1571 S Parkway Ct,Saratoga Springs,UT,84043,801-766-0626
Sign Master Service,3538 W 3100 S,West Valley,UT,84119,801-974-5583
Short Haul Express,6667 Nottingham Cir,West Jordan,UT,84084,435-735-2201
Dobson Trucking,671 W 4400 S Trlr #68,Riverdale,UT,84405,801-589-8771
Dan's Tire Service Of Vernal,2075 South 1500 East,Vernal,UT,84078,435-789-8104
Don's Transport,1621 Calvo Drive,Salt Lake City,UT,84119,801-455-5316
Mojoe Trucking,4061 W 3860 South,West Valley City,UT,84120,801-230-0869
Express Road Service,400 So 390 West,Fillmore,UT,84631,435-743-4485
D-n-d Logistics,9688 South 2810 West,South Jordan,UT,84095,801-446-7216
Chuuk Trucking,2967 S Burdock Dr,West Valley,UT,84128,801-967-3519
Wharton Trucking,2330 N 380 W,Lehi,UT,84043,801-331-6807
Xpress Trucking,260 West Main St,Vernal,UT,84078,435-789-1011
Rice Trucking,5355 South 700 East,Ogden,UT,84405,801-725-3695
Western Pride Transport,108 North Main Suite E,Richfield,UT,84701,435-979-0666
"Dave Stevens & Sons Trucking, Inc.",1448 N 1500 W,Clinton,UT,84015,801-589-6054
Two Dreamers Trucking,1080 West 3300 South Apartment J1124,Salt Lake City,UT,84119,801-718-9209
J'n J's 20 Mule Team Trucking,400 N 700 W,North Salt Lake,UT,84054,801-292-1466
Assurance Trucking,681 East 1650 South,Orem,UT,84097,801-427-3291
Kc Crane Excavation & Trucking,6788 N Hwy 91,Smithfield,UT,84335,435-563-5902
Grays River Trucking,640 N Democrat Alley,Kamas,UT,84036,435-783-2635
Mendez Trucking,5955 West 3280 South,West Valley City,UT,84128,801-968-8786
New Age Transportation,615 N Beverly Ave,Orem,UT,84057,801-372-7213
K S & W Transportation,2628 Brinker Ave,Ogden,UT,84401,801-554-7411
Peak Transport,2340 So 3270 W,Westvalley City,UT,84119,801-977-8108
Todd West Trucking,1098s 4375w,Cedar City,UT,84720,435-559-0517
Hodges Trucking Company,294 W 200 S,Tooele,UT,84074,801-560-4780
Kennedy Brothers Transportation,280 North 400 East,Wellington,UT,84542,180-837-2823
Main Street Autopley,1840 North Main,Logan,UT,84321,801-750-5555
George Transportation,160 South Main,Oak City,UT,84649,801-836-7106
Dan Newman Express,1636 Pioneer Road,Salt Lake City,UT,84104,801-973-2032
Trav's Transport,182 N Main,Leeds,UT,84746,435-632-7146
Out Of Business Last Filing,7991 Showcase Ln,Sandy,UT,84094,801-563-1266
"Frontier Wellhead Services, Inc.",1179 East Hwy 40,Vernal,UT,84078,435-789-1003
Howell Trucking,195e300n,Ferron,UT,84523,435-590-0413
Duane L Hansen Trucking,15505 South Camp Williams Road,Bluffdale,UT,84065,801-254-7363
Cool Trans Refrigerated Hauling,4395 West Courtney Court,West Jordan,UT,84088,801-550-5914
"David Murray Trucking, Inc.",269 E 4000 S,Vernal,UT,84078,435-789-2553
G Peatross Trucking,117 North 1300 West,Salt Lake City,UT,84116,801-201-0047
A & R Trucking,5650 West 4100 South #171,West Valley,UT,84128,310-766-4171
Gas Truckin,1780 W 9000 S Suite242,West Jordan,UT,84088,801-554-3136
Simonson Trucking,419 W 1150n,Cedar City,UT,84720,435-865-1042
Robert Gotchy Logistics,4338 South 5780 West,West Valley City,UT,84128,801-244-7756
C W Transport,305n 300 W,Beaver,UT,84713,435-438-5530
Alexander Trucking,2877 South Cassell Street,West Valley City,UT,84119,801-599-9174
Triple D Trucking,60 W 200 N,Henefer,UT,84033,435-336-2435
"C & R Direct, Inc.",207 So 650 W,Payson,UT,84651,801-592-1986
E W S Transportation,4146 W Teton Estates Dr,West Jordan,UT,84088,801-350-1982
Primo Trucking,1544 S 990 W,Provo,UT,84601,801-836-4647
Moffat Trucking Sales,37 East Central Ave,Salt Lake City,UT,84107,801-262-8600
"Eec Trucking, Inc.",1700 S 300 E Building A16c Freeport Center,Clearfield,UT,84016,801-776-5855
Macaw Express,1245 North 6450 West,Cedar City,UT,84720,801-388-0545
Custom Application Service LLC,16010 North 4000 West,Fielding,UT,84311,435-230-1093
Intermoutian Fire Service,3840 South 4700 West,West Haven,UT,84401,801-430-1928
Lion Heart Transport,3235 South 7900 West,Magna,UT,84044,801-414-1031
P & Z Transportation,2227 New Castle Drive,Sandy,UT,84093,704-252-2955
D W Hardy Transportation,60 East Center,Panguitch,UT,84759,801-676-2342
C & T Trucking,9960 N 11600 W,Thatcher,UT,84337,801-854-3816
T L Clawson Trucking,67 South 3200 West,Layton,UT,84041,801-544-9006
"Tammer Freight, Inc.",1534 W Sunset,W Valley,UT,84119,801-974-0957
Doug Cook Trucking,280 So Main,Pleasant Grove,UT,84062,801-785-7270
S K M Transport,2254 N 700 W,Lehi,UT,84043,801-768-0623
Little Creek Trucking,333 S Dugway Rd,Paragonah,UT,84760,435-477-8915
Frank C Kirmeier Transportation,5108 W Fuchsia Cr,West Jordan,UT,84084,801-966-9938
Kg Livestock,3108 So Vernal Avenue,Vernal,UT,84078,435-789-4145
Jon Durrant Trucking,136 S 100 W,Moroni,UT,84646,801-436-8120
Express Welding Supply Co,1836 East Tramway Dr,Sandy,UT,84092,801-572-1187
Lucky B Of Utah,2741 S Midland Dr,Ogden,UT,84401,801-399-2900
Bunce Transportation,935 East 3000 North 98,Layton,UT,84040,801-771-8265
Kd Trucking,5523 South 5475 West,Kearns,UT,84118,801-231-5753
"Mares Trucking, Inc.",412 West 2300 South,Bountiful,UT,84010,801-295-4865
Trans West Xpress,1751 West Fortune Road,Salt Lake City,UT,84104,801-973-2650
Battle Creek Trucking,655 E 200 So,Pleasant Grove,UT,84062,801-785-7270
Future Trucking,1391 W Red Lodge Rd,Washington,UT,84780,N/A
Turner Trucking,2770 North 2200 West,Salt Lake City,UT,84116,801-444-0555
Tibbetts Trucking,Rt 1 Box 61,Genola,UT,84655,801-972-6033
Luigi Movie Transportation,3356 S 700 E,Salt Lake City,UT,84106,801-485-9184
K C Trucking,634 South 800 West #33,Payson,UT,84651,808-465-4998
Seko Air Freight,5080 Amelia Earhart Drive,Salt Lake City,UT,84116,801-355-7733
Greg Lesher Transport,483 W Center St,Hinckley,UT,84635,801-864-2086
Western Film Services,76 S Main #21,Moab,UT,84532,801-259-3344
Smith Trucking,3082 N 4100 W,Cedar City,UT,84720,801-867-8424
J E Smith Transport,1584 Sweetgum Circle,Saint George,UT,84770,801-652-0352
Act Transportation,232 West Center Street,North Salt Lake,UT,84054,N/A
Roadlink Transportation,298 24th Street Ste 430,Ogden,UT,84401,N/A
3-d Trucking,P O Box 1104,Delta,UT,84624,801-864-3711
"Lee's Trucking, Inc.",Riverview Trailer Pk Space #28,Montezuma Creek,UT,84534,801-651-3084
Just In Time Trucking,615 East Main,Lawrence,UT,84528,801-972-6033
Timberline Express,1331 E 500 So,Salt Lake City,UT,84102,N/A
Mh Trucking,1080 East Hwy 40,Vernal,UT,84078,435-789-9611
"Gardiner Trucking, Inc.",4339 So 500 East,Vernal,UT,84078,435-789-7408
Salt Lake Shuttle,1535 East Water Lane,Sandy,UT,84093,N/A
Jim Melton Trucking,P O Box 26453,Salt Lake City,UT,84126,N/A
R F W Transport,574 S Terrace Cr,Washington,UT,84780,801-673-5949
C&d Transport,8100 West Twain Circle,Magna,UT,84044,801-250-3508
R & K Trucking,Po Box 515,Tooele,UT,84074,801-882-7963
Myron Hammon,P O Box 603,Centennial Park,UT,84784,928-875-8852
Van Holten Transportation Services,11591 Terendale Lane,Sandy,UT,84092,801-572-3544
Kirgan Transportation,1st East Iron & O'conner,Eureka,UT,84628,801-433-6823
Terry Trucking,224 East Leadville Row,Eureka,UT,84628,435-433-6885
Tonya Lyn Trucking,Hcr 78 Box 10,Milford,UT,84751,435-691-1746
Sly Trucking,4030 W 2300 N,Corinne,UT,84307,801-744-0901
C R Bojanski Trucking,1016 North 750 West,Clinton,UT,84015,801-776-0558
R C Andreasen & Sons,504 W 400 South,Brigham City,UT,84302,801-723-2117
B & H Trucking,62 North 3rd Street,Tooele,UT,84074,801-882-8516
Bill Nikolaus Trucking,2144 Hafen Ln,Santa Clara,UT,84765,520-536-4095
Shoestring Trucking,4053 South 1950 West,Salt Lake City,UT,84119,N/A
Tim Anderson Trucking,300 W 4000 South,Vernal,UT,84078,801-789-7032
Neil Brown Trucking,625 West 120 North,Orem,UT,84057,801-226-1454
Wyatt Trucking,7012 South 2310 West,West Jordan,UT,84084,N/A
Carl Pehrson Trucking,140 N Church,Eureka,UT,84628,801-433-6689
Abc Auto Sales,219 W St George Blvd,Saint George,UT,84770,801-628-3847
Paul Green Trucking,106 N Duckspring Dr,Moroni,UT,84646,435-436-8556
S And B Transport,13265 N 5400 W,Garland,UT,84312,801-257-3942
Sterrett Trucking,1061 South 600 West,Tremonton,UT,84337,801-257-3805
Sorrels Trucking,490 E 400 So,Enterprise,UT,84725,801-878-2226
Bar B Horse Transportation,240 W Apple,Grantsville,UT,84029,800-426-6160
Jack Evan Chynoweth,5765 North 1955 West,Saint George,UT,84770,801-652-1350
Cindy Jones Trucking,3242 W Coventry Pk Dr,West Valley,UT,84119,801-973-4675
W G Lawrence Trucking,7154 North 3000 West,Delta,UT,84624,801-864-4641
Rocking W Transport,11 North Main,Meadow,UT,84644,435-842-2214
Golden Eagle Express,1735 West Fortune Road,Salt Lake City,UT,84104,801-975-9611
D B Trucking,615 E Strighill Dr,Wahington,UT,84780,435-668-1038
Here & There Transport,1165 E 500 N,Lehi,UT,84043,801-361-5373
Gsl Transportation,740 West 1000 South,Richfield,UT,84701,801-896-1858
Atf Trucking,6346 W 3670 So,West Valley City,UT,84120,801-957-9904
Derek Kay Trucking,775 E 200 N,Nephi,UT,84648,801-623-0936
J & K Transport,3740 S 4565w,West Valley,UT,84120,801-964-6124
Buffalo Runner,3273 South 7730 West,Magna,UT,84044,N/A
Powder Horn Trucks,126 So Matterhorn Dr,Alpine,UT,84004,801-756-6804
7 Ms Trucking,1955 East 100 North,Wellington,UT,84542,801-637-8637
No Procastination Transport,76 North 300 East,Kanarraville,UT,84742,801-865-9546
Oberg Transport,13472 Hwy 198,Payson,UT,84651,801-754-3553
M J Trucking,254 North Carbon Avenue,Price,UT,84501,435-650-1118
Intermountain Transportation,945 North Redwood Road,North Salt Lake,UT,84054,801-533-0057
Sparrow Transportation,434 Vickie Lane,Clearfield,UT,84015,801-773-6525
Norton Trucking,805 Larkspur Rd,Saint George,UT,84790,801-628-6705
Double P Transport,2775 West 4500 South,Oasis,UT,84624,435-590-1883
Desert Sun Transportation,1502 West 9th South,Salt Lake City,UT,84104,801-973-8198
Cmt,9616 S Candle Tree Lane,Sandy,UT,84093,801-942-4957
Western Pacific Transport,172 West 9400 South,Sandy,UT,84070,801-561-0551
Melvin L Brown Trucking,95 North 200 East,Joseph,UT,84739,801-527-4020
Reyes Trucking,969 North 1200 W,Farwest,UT,84404,801-668-2313
"Wade's Field Service, Inc.",659 North 800 West,Cedar City,UT,84720,435-867-4564
Ludlow Trucking,265 North 100 West,Payson,UT,84651,801-763-5060
Eliason Transport,200 S 400 W,Fountain Green,UT,84632,801-436-8446
Alan & Barbara Milliner Trucking,251 So Beacon Hill Dr,Coalville,UT,84017,435-336-2698
Goodrich Trucking,4035 North 11415 West,Bluebell,UT,84007,435-454-3203
Pm Trucking LLC,7740 No 2400 West,Amalga,UT,84335,435-563-5838
Mobile Home Transporters,1485 West 400 South,Hurricane,UT,84737,435-635-7451
Grh Transport,417 S Main,Monticello,UT,84535,801-587-2955
Mountain West Trucking,3490 Kathy Avenue,West Valley City,UT,84119,801-972-6033
M Denning Trucking,241 North 300 West #1,Saint George,UT,84770,801-657-3704
Eliason Trucking,425 West 500 South,Nephi,UT,84648,888-379-4554
C K Transport,740 North 400 East,Lehi,UT,84043,801-766-8808
Dave's Automotive,1580 S 40 W,Kanab,UT,84741,801-644-2230
Tiz Trucking,495 E 400 S,Saint George,UT,84770,801-785-7270
Horseman Int Transport,1078 S 900 E,Spanish Fork,UT,84660,719-784-4864
Mccabe Trucking,3816 East Butterfield Road,Eagle Mountain,UT,84043,801-641-4326
Tonka Trucking,44 W 625 North,La Verkin,UT,84745,801-635-5633
C & D Transport Services,968 Mccormick Way,Layton,UT,84041,801-544-9934
Stm Transportation,730 South 480 West,Tremonton,UT,84337,805-238-3545
L D Thomas Transportation,5070 South 525 West,Ogden,UT,84405,801-479-5128
Kj & A Transport Leasing LLC,13912 South 2700 West,Riverton,UT,84065,801-254-6722
"Adobe Trucking Co, Inc.",3561 South Sunrise Road,West Valley City,UT,84119,801-977-9078
B & H Transport,541 29th Street,Ogden,UT,84403,801-394-1031
Clifford Johnson Transport,3481 Se Coal Crk Rd,Price,UT,84501,801-637-0394
Ron Leeper,10575 N Hy38,Deweyville,UT,84309,801-257-7123
Kota Transport,5098 South 1050 East,Riverdale,UT,84405,801-774-0061
Tom's Truck,2709 Holiday Ranch Loop Road,Park City,UT,84060,801-649-4193
Jim Grundie Trucking,625 Vanburen,Ogden,UT,84404,801-621-3194
Edwards Trucking,125 South 2nd East,Oak City,UT,84649,N/A
Lc Transport,Hwy 50 Mccormick Rd Ccc Farms,Holden,UT,84636,801-864-2356
L T S Transportation,96 W 200 N,Nephi,UT,84648,435-623-5051
Silveira Truck Lines,1597 West 7470 South,West Jordan,UT,84084,801-561-9754
Cove Creek Trucking,1665 E 1200 N #85,Mount Pleasant,UT,84647,435-462-0223
B & C Farms,870 S 400 W,Nephi,UT,84648,435-623-2809
M & M Trucking,672 Esat 800 North,Ogden,UT,84404,801-782-5386
Bayola Trucking LLC,12198 S Joseph View Lane,Draper,UT,84020,801-785-7270
Shaw Trucking,432 South 950 East,Orem,UT,84097,801-225-1009
Jkf Trucking,4391 West 5700 South,Kearns,UT,84118,801-963-5816
Navojoa Express,10365 Hwy 89,Axtall,UT,84621,602-677-8937
Tom Warner Trucking,270 West 300 South,Fillmore,UT,84631,435-743-6222
G & R Trucking,345 East 200 North,Fairview,UT,84629,435-427-9465
American Interstate Transport,920 South 2100 West,Vernal,UT,84078,435-789-3748
Swensen Trucking,325 East 300 South,Millville,UT,84326,801-753-1410
Utah Trails Transportation,1799 Hwy 89 E,Kanab,UT,84741,435-644-2539
Myers Trucking,35 N Center Street,Goshen,UT,84633,801-667-2009
3-d Transportation,5073 S Jolly St,Taylorsville,UT,84123,801-972-6033
Tucker Trucking,65 East 300 N,Fairview,UT,84629,435-427-3799
K & T Transport,7560 W Tam Dr,Magna,UT,84044,801-250-7498
Nancy Key Transportation,4858 Cherry Wood Lane,West Valley City,UT,84120,801-352-1955
Wm Brandt Trucking,237 North Old Highway,Monticello,UT,84535,435-587-9945
Intermountain Power Service Corporation,850 West Brushwellman Road,Delta,UT,84624,435-864-4414
P G Heavy Equipment Sales,3411 E 8125 So,Salt Lake City,UT,84121,801-641-5774
American Services,502 S 1200 W,Orem,UT,84058,801-224-9211
Walters Trucking,440 S 1300 W,Pleasant Grove,UT,84062,801-785-7270
S & L Trucking,117 S 400 E #78,Mount Pleasant,UT,84647,801-785-7270
Leany Trucking,1888 West 5870 North,Saint George,UT,84770,435-674-5781
Milk-king Farms Trucking,1015 South 2000 West,Delta,UT,84624,801-864-2463
Jeff Jolley Trucking,7665 W 3210 S,Magna,UT,84044,801-250-9048
Big Red Transportation,3028 N 2175 E,Layton,UT,84040,801-771-5404
R & R Custom Hauling,890 N 2200 W,Lehi,UT,84043,801-785-7270
Pt Transport,1100 South Hwy 89-91 #33,Logan,UT,84321,801-972-6033
Rocking R Trucking,1765 North 7000 West,Hinckley,UT,84635,435-864-3351
Marsh Trucking,342 East 160 North,American Fork,UT,84003,801-763-5396
Frontier Service,485 N Resevoir Rd,Escalante,UT,84726,435-826-4876
Herbert Trucking,245 North 200 West,Monroe,UT,84754,435-527-3183
Damaro Trucking,40 E 300 S,American Fork,UT,84003,801-785-7270
Pease's Automotive,291 North Main St,Leeds,UT,84746,435-879-2475
Ivie Transporting,4596 N Canyon Road,Pleasant Grove,UT,84062,801-808-6977
Swart Trucking,42 N 3820 W,Hurricane,UT,84737,435-635-2950
S & T Transport,Po Box 26453,Salt Lake City,UT,84126,N/A
Homer Trucking,275 East 200 South,Willard,UT,84340,435-723-0822
Barnes Transportation,900 Century Drive #44a,Ogden,UT,84404,801-393-0325
Irish Trucking,633 N 800 E,Mapleton,UT,84664,801-785-7270
LLC Transportation,991 W State St #33,Hurricane,UT,84737,435-874-2022
Katy Trucking,5135 W 4170 South,Salt Lake City,UT,84120,N/A
Roundabout Trucking,2600 S Chesterfield,West Valley City,UT,84119,801-973-6103
Wasatch Moving,261 South Centennial Drive,North Salt Lake City,UT,84054,801-294-6468
Harris Trucking,3569 S 4400 W,West Valley,UT,84120,801-955-0163
F Man Transportation,7165 South Callie Dr,West Jordan,UT,84084,801-567-0969
Tillack Trucking,83 West 100 North,Duchesne,UT,84021,435-738-2442
Far West Trucking,90 S 300e #3,St George,UT,84770,435-218-6829
Deals On Wheels,1976 West 200 North,Logan,UT,84321,435-753-1033
Melton Trucking,6220 South Castleford Drive,West Jordan,UT,84084,801-966-5044
Crist Trucking,1028 South Regency Road,Cedar City,UT,84720,435-865-9043
Bullet Trucking,2161 E 40 N,Saint George,UT,84790,435-634-9892
Mccullough Transport,1002 Sunberry Drive,Murray,UT,84123,801-265-9290
"J T C Transport, Inc.",548 S 3600 E,Heber,UT,84032,801-972-6033
Christiansen Trucking,1260 N 800 W,Provo,UT,84601,801-763-5060
Davis Transport,852 North Wasatch,Payson,UT,84651,801-465-1509
Melina's Distributing,1372 W 1800 N,Clinton,UT,84015,801-779-4444
Shupe's Trucking,4 Orchard Way,Moab,UT,84532,435-259-3491
"D & L Trucking, Inc.",239 Pingree Ave,Ogden,UT,84404,801-392-3886
Tom's Trucking,435 North 450 West,Santaquin,UT,84655,801-754-0254
Rdj Transportation,695 N 500 W #16,Saint George,UT,84770,435-673-2688
Crtstal's Trucking,360 Polk Avenue,Ogden,UT,84404,801-621-3982
Ruco Trucking,180 S 200 E,Washington,UT,84780,435-674-4859
Unified Trucking,1525 South 4944 West,Cedar City,UT,84720,801-785-7270
Mark Peay Trucking,484 East 200 North,Orem,UT,84097,801-369-8222
Cargo Auto Transport,388 East 750 South,Farmington,UT,84025,801-451-7855
Diamond P Transport,20 E 500 South,Gunnison,UT,84634,435-528-7710
Pilot Transport Coast To Coast,9192 S 300 W,Sandy,UT,84070,801-255-6000
Twin Rock Trucking,3695 Alabama Avenue,West Jordan,UT,84084,801-969-1025
Triple C Trucking,360 N 500 E,Nephi,UT,84648,435-623-8226
G S L Transportation,740 West 1000 South,Richfield,UT,84701,435-896-1858
Lee Hughes Trucking,168 West 400 North,Heber,UT,84032,435-654-2726
R J Trucking,2853 West 4200 South,Roy,UT,84067,801-540-3654
Olson Transportation,560 North 400 West,Smithfield,UT,84335,435-563-0506
Country Rock Trucking,274 W 500 S,Logan,UT,84321,435-755-7141
Richard M Barney Trucking,1089 W Putters Circle #1111,Taylorsville,UT,84123,801-263-7894
All Pro Moving Services,1260 West Temple North,Salt Lake City,UT,84116,801-596-3260
Sunburst Express,95 S 100 W,Richfield,UT,84701,801-972-6033
R & K Trucking,194 West 3rd South,Ephraim,UT,84627,435-283-4098
Big Bear Transport,3164 W Summer St,West Jordan,UT,84084,801-232-7130
King's Trucking,1372 South Sandhill Drive #2,Washington,UT,84780,435-628-8235
J & W Transport,8062 W Breeze Dr,Magna,UT,84044,909-736-9604
Target Airfreight,3225 W California Avenue,Salt Lake City,UT,84104,801-978-9274
Conder Trucking,540 East 300 North,American Fork,UT,84003,801-756-6229
Kyles Automotive,375 North Park St Suite A,Saint George,UT,84770,435-652-0924
"Rocks & Stuff, Inc.orporated",746 South 300 West,Salem,UT,84653,801-636-5667
Paloma Trucking,42 North 800 West,Salt Lake City,UT,84116,801-596-1767
Cecon,4225 W Nike Dr Ste C,West Jordan,UT,84088,801-280-2327
T W T Tom & Wanda Transport,598 West 1425 Apartment G,Layton,UT,84041,801-728-4993
Mtd Express,924 West 130 North,Orem,UT,84057,801-785-7270
Don Clark Trucking,3420 West 3800 South,West Valley City,UT,84119,801-967-0630
Destination Outbound Transportation Academy,2020 Industrial Circle,Salt Lake City,UT,84104,801-886-3225
Adams Family Trucking,4048 South 1300 East Number 5,Salt Lake City,UT,84124,801-262-9214
Colledge Transport,324 West 200 North,Santaquin,UT,84655,N/A
J & L Trucking,1073 E 740 N,Saint George,UT,84770,435-673-4120
Thong Trucking,4016 South Edith Grove Lane,West Valley City,UT,84120,801-968-7626
Montys Trailer Service,11573 South Kestrel Rise Road,South Joran,UT,84095,801-361-1437
All Resort Express,1821 Sidewinder Road #126,Park City,UT,84060,435-658-9711
Bob's Auto Shop,644 S 1500 W,Vernal,UT,84078,435-789-0134
Superior Excavating,981 N Industrial Park Dr,Grantsville,UT,84029,435-884-5036
Box N Mail Warehouse,7836 S 700 E,Salt Lake City,UT,84070,801-255-3625
Ctb Transportation Services,580 West Hale,Moab,UT,84532,435-259-4318
J & M's Transmission,855 S University Ave,Provo,UT,84601,801-378-3222
Lance D Smith Trucking,2955 Alder Circle,Saint George,UT,84790,N/A
Stubbs Brothers Transportation,2842 East 1500 South,Vernal,UT,84078,435-789-0452
Allstates Transport Services,29000 White Rocks Road,Roosevelt,UT,84066,435-353-4092
Haskie Transport,11367 S 1300 E,Sandy,UT,84094,801-557-8278
Desert Dust Trucking,P O Box 293,Manila,UT,84046,435-784-3507
Brandon Wright Trucking,3612 South 5100 West,Hooper,UT,84315,801-915-6029
Big R Trucking,12911 North 54oo West,Garland,UT,84312,435-257-5131
Kuhn Trucking,8385 Mccune Court,West Jordan,UT,84088,801-280-9978
Tlc Transport,1236 North 1390 West,Saint George,UT,84770,435-634-0870
Jj Wold Transportation,10908 S Jordan Gateway,S Jordan,UT,84095,801-541-4677
Rc Trucking,55 W Adams Ave,Pleasant Grove,UT,84062,801-785-7270
Ttsc,4361 Morris Street,Salt Lake City,UT,84119,801-968-4733
Eliason Hotshot Trucking,158 E 1530 N,Tooele,UT,84074,801-972-6033
Moss Transport,1349 W 100 N,Hurricane,UT,84737,435-635-5351
Bott Trucking,691 East 1775 North Number E,Lehi,UT,84043,801-768-9405
S&j Trucking,7351 S Catalpa Rd No 112c,Midvale,UT,84047,801-565-1039
Double J Express Hauling,590 E Midvalley Rd,Cedar,UT,84720,435-586-8532
Muttley Trucking,2017 East Rolling Knolls Way,Salt Lake City,UT,84121,801-944-3861
G & B Trucking,7538 Washington Road,Magna,UT,84044,801-972-6033
On Time Trans,99 N Meadow Dr,Pine Valley,UT,84781,435-574-4921
Western Interior Services,2438 So 2570 West,West Valley,UT,84119,801-973-8255
Ws Trucking,7526 East 7200 South,Jensen,UT,84035,435-781-6120
C & J Trucking,2037 W Stone Creek Dr,West Valley City,UT,84119,801-244-7108
Bill Servis Trucking,6282 West Thor Way,West Valley City,UT,84128,801-963-2190
"Jensen Trucking Co, Inc.",1490 W 200 S,Lindon,UT,84042,801-785-5306
V & W Distributors,64 East 3300 South,Salt Lake City,UT,84115,N/A
"Dairy Distributors, Inc.",10 W 10 North St,Logan,UT,84321,N/A
Farnsworth Trucking,765 E 1600 N St,Orem,UT,84057,801-225-0424
J & I Trucking,General Delivery,Centerfield,UT,84622,N/A
Reed Trucking Co,Po Box 2,Sandy,UT,84070,N/A
"House Movers, Inc.orporated",6825 N 400 W,Smithfield,UT,84335,435-563-3361
Kraus Transit,48 West 300 North,Mona,UT,84654,405-283-0698
Kay A Bundy Trucking,611 East 300 South,Saint George,UT,84770,801-673-3303
Chambers Trucking,2696 Canyon Cove Circle,Saint George,UT,84790,435-634-0735
V & L Transport,Rfd No 1 Box 160,Logan,UT,84321,N/A
Hooper Transportation,5600 S 5900 W,Hooper,UT,84315,801-773-0450
Donald Pascuzzo Trucking,3570 South 700 East,Salt Lake City,UT,84106,801-652-4951
Flinders Trucking,1343 South State Street Ste 220,Salt Lake City,UT,84115,801-486-4514
Transdyne Corporation,5456 Edgewood Dr,Salt Lake City,UT,84117,801-977-1175
Vanco Trucking Co,2597 California Avenue,Salt Lake City,UT,84104,801-975-2672
Bill R Downs Trucking,P O Box 877,Roosevelt,UT,84066,307-382-3454
Manning Co Trucking,875 E Center Po Bx 3425,Logan,UT,84321,N/A
Hutchinson Oil,8137 South State Street,Midvale,UT,84047,801-561-4251
Huntsman Trucking,15 E 1200 S 18,Beryl,UT,84714,435-439-5381
Maxam,5505 S 900 E Suite 300,Salt Lake City,UT,84117,801-233-6000
Smartway Express,218 N 2200 West,Salt Lake City,UT,84116,801-364-0650
"World Transportation Services, Inc.",415 North Neil Armstrong Road,Salt Lake City,UT,84116,801-355-7040
R L Lancaster Enterprises,8427 South 2200 West,West Jordan,UT,84088,801-255-3993
S & E Trucking,3232 Directors Row,Salt Lake City,UT,84104,801-965-1821
Dhy Transport,245 North 500 West,Hyrum,UT,84319,801-753-3007
J R Lawrence Trucking,1635 S Empire Rd,Salt Lake City,UT,84104,801-973-4338
Dunn Oil Transportation,542 S0uth 2165 West,Salt Lake City,UT,84104,801-913-9366
Bob Hellander Trans,11120 Sandy Creek Dr,Sandy,UT,84094,406-642-3129
Rmm Sales Service & Leasing,26 West 4070 South,Salt Lake City,UT,84107,801-558-9585
D T Bradshaw Trucking,3917 S Cheryl Dr,West Valley City,UT,84119,N/A
Silver Wing Trucking,880 W 150 No,American Fork,UT,84003,801-785-0351
Ray's Muffler Service,94 North 400 West,North Salt Lake,UT,84054,801-296-2033
Nolan's Transport Company,134 Pellinore,North Salt Lake,UT,84054,N/A
Andy Sparks Trucking,P O Box 277,Ferron,UT,84523,N/A
Russell Auto Transport,3600 West Center P O Box 1142,Provo,UT,84603,N/A
"Atkin Livestock Trucking, Inc.",1950 East Washington Dam Rd,Washington,UT,84780,801-628-1757
Larry Pasco Trucking,11989 South 3600 West,Riverton,UT,84065,801-573-2215
Trails West Trucking,1330 E St James Lane,Saint George,UT,84770,801-673-8985
Cooper Brothers Transport,1064 E 3300 S #b,Salt Lake City,UT,84106,N/A
Bob Bruce Transportation Co,Po Box 33208,Orem,UT,80241,N/A
"Thurston Transportation, Inc.",300 E 2500 N #9,North Logan,UT,84321,435-753-1000
Alderson Trucking,Main Street P O Box 694,Price,UT,84501,N/A
Winterton Transportation,714 W Hwy 40,Roosevelt,UT,84066,435-722-2729
Valgardson Transport Co,2202 Mountain Vista Ln,Provo,UT,84606,801-420-4790
Basil Transport,434 E Jessop Ave,Kanab,UT,84741,N/A
H B H Trucking,Hc 63 Box 32,Monticello,UT,84535,801-972-6033
George Hepner & Son Trucking,67 W American Ave,Salt Lake City,UT,84107,801-262-0446
C A Feathers & Son Trucking,3736 South 1250 West,Ogden,UT,84405,N/A
Sweet Heart Transportation,1979 Wall Avenue,Ogden,UT,84401,N/A
"Wesco Development, Inc.",2675 S 900 W,Salt Lake City,UT,84117,801-972-5557
Bearcatt Transportation,1027 N Long St,Green River,UT,84525,970-241-1139
"Cindy Taylor Trucking And Construction, Inc.",297 W Hilton Dr Suite 4b,Saint George,UT,84770,435-628-8449
Craig J Belshaw Trucking,735 E 600 N,Spanish Fork,UT,84660,801-798-8383
Ed Selman Transportation,845 West 8700 South,Willard,UT,84340,N/A
G & R Trucking,135 S 300 W,Smithfield,UT,84335,N/A
"Nolan Button Const, Inc.",1434 South Hwy 89a,Kanab,UT,84741,801-644-2358
Mountain West Oil Field,1365 East 2000 South,Vernal,UT,84078,435-789-0872
T F House Trucking,1119 W 4300 S Unit 33b,Salt Lake City,UT,84123,801-628-1392
Charlotte's Transport,315 S 200 East,Enterprise,UT,84725,N/A
Al Thorne Transport,1065 West 600 North,Logan,UT,84321,801-752-4252
"Central Distributing Co, Inc.",1445 North Main,Spanish Fork,UT,84660,801-798-9833
The Movers,681 Chinle Dr,Kanab,UT,84741,435-644-5086
River Runners' Transport,417 East Main,Vernal,UT,84078,435-781-4919
Webb Transportation,355 North Main,Heber City,UT,84032,801-654-1155
Sunburst Transport,2729 W 9000 So,West Jordan,UT,84088,801-569-2886
White Glove Delivery Service,3505 W California Ave,Salt Lake City,UT,84104,801-977-9600
Paul Davis Restoration Of Central Utah,7065 Commerce Park Drive,Midvale,UT,84047,801-561-4900
Wenzel Trucking,133 South 100 East,Roosevelt,UT,84066,801-722-2526
Itt Industries,450 W 100 N,North Salt Lake,UT,84054,801-936-7924
Christiansen Trucking Co,290 West 100 South,Beaver,UT,84713,801-438-5172
Indy Transportation,253 North Main,Kaysville,UT,84037,801-544-9633
Sage Transportation,107 Wagonwheel Drive,Washington,UT,84780,435-656-8153
Supreme Automotive Warehouse,3055 West 2100 South Unit C,Salt Lake City,UT,84119,801-972-4313
Torgerson Trucking,251 N 3200 E,Richfield,UT,84701,801-896-6271
Special Delivery,180 S 300 W,Salt Lake City,UT,84101,N/A
Zufelt Trucking,1125 E 4500 S,Vernal,UT,84078,801-789-8461
Mcdowell Trucking,612 N 800 W,Salt Lake City,UT,84116,801-521-7343
J & D Trucking,Box 92,Corinne,UT,84307,435-734-0166
Potter Trucking,474 E Burton Ave,Salt Lake City,UT,84115,N/A
Interstate Tire Distributor,2608 W Bridger Rd,Salt Lake City,UT,84115,801-485-8473
Tom Yeoman Transport,2323 West Directors Row,Salt Lake City,UT,84104,916-342-6666
Desert Trucking,199 North 200 West Box 65,Hurricane,UT,84737,N/A
Layne Johnson Trucking,73 East 100 North,Gunnison,UT,84634,801-528-3982
Finnegan Trucking,215 Park View Dr,Park City,UT,84068,N/A
Littlefield Distributing,1472 Bora Bora Drive,West Jordan,UT,84084,801-566-7431
Envirochem Services Lc,890 North Industrial Park Dr,Orem,UT,84057,801-225-5659
Timbercreek Builders Corp,3258 W Newcastle Circle,Syracuse,UT,84075,801-979-3231
Rainbow Trucking Lc,1057 West 500 South,Centerville,UT,84087,801-295-0186
Jarvis Trucking,4830 West 4805 South,Kearns,UT,84118,N/A
P & H Logistics,3401 N 850 W,Pleasant View,UT,84414,310-418-9492
Ron Head Trucking,7665 South 10th E,Midvale,UT,84047,N/A
James Warnick Trucking,4105 North 3000 West,Delta,UT,84624,801-864-5599
One On One Courier Service,8436 Fayeway Dr,Sandy,UT,84094,N/A
Foster Elite Trucking,142 North 600 West,Prov,UT,84601,916-527-3535
Priority Transportation,965 East Valley Hills Dr,Heber City,UT,84032,N/A
K C Transport,3685 Vixenway,Salt Lake City,UT,84118,N/A
Dan's Distributing,12 North Main,Veyo,UT,84782,801-574-3717
Graves Trucking,513 W Lake St,Ogden,UT,84401,801-627-9458
"Mason Campbell Trucking, Inc.",P O Box 126,Cedar City,UT,84721,801-586-6282
S & M Transport,1932 North Main,Orem,UT,84057,801-224-4234
"Peterson Transport, Inc.",205 E Center,Springville,UT,84663,801-372-0248
Bell Transportation,1579 Hollywood Ave,Salt Lake City,UT,84105,N/A
White Trucking,1046 W 1300 North,Clinton,UT,84015,801-776-4521
Goldfield Trucking,P O Box 50178,Provo,UT,84605,801-561-7306
A L P P Transport,6381 West 2100 South,West Valley City,UT,84120,N/A
J & J Trucking,1159 North 3000 West,West Point,UT,84015,801-721-5959
R & B Trucking,996 Englewood Dr,Brigham City,UT,84302,435-723-7700
Alcan Trucking,2785 West 3100 South,Ogden,UT,84401,801-731-4041
Auto Dealers Transport,P O Box 312,Price,UT,84501,801-637-5831
"R & Tj's Trucking, Inc.",1078 So 900 E,Spanish Fork,UT,84660,801-798-7396
"K M Transport, Inc.",11337 S 2865 W,South Jordan,UT,84065,801-263-8833
Triple W Trucking,200 South 128e,Kanab,UT,84741,801-785-7270
Warner Express,2135 West 2400 N,Venice,UT,84701,435-201-9028
J & E Trucking,9110 East Karon Circle,Sandy,UT,84094,N/A
Dan Poulson Trucking,893 West 570 South,Richfield,UT,84701,801-896-6915
G M I C Trucking,3315 East Nutmeg St,Salt Lake City,UT,84121,N/A
J J Transport,912 Navajo,Salt Lake City,UT,84104,801-359-0321
Tim Shaw Trucking,P O Box 6,Venice,UT,84701,801-896-6038
Freeze Distributing,1679 S 580 W,Woods Cross,UT,84087,801-292-0823
Lazy Y Cattle And Transportation,105 South Main Road,Saint George,UT,84746,435-879-0218
Pro Trucking Co,178 East 1950 South,Clearfield,UT,84015,N/A
R H Trucking,1940 Shumway Lane,Moab,UT,84532,801-259-2608
"Cottam Brothers Transport, Inc.",159 W 8800 South,Spanish Fork,UT,84660,801-785-7270
Oaks Trucking,2020 East 3500 So,Vernal,UT,84078,N/A
Vinson Transport Service,127 South Oak St,Midvale,UT,84047,N/A
Aaa Transport,3590 S State,Salt Lake City,UT,84115,N/A
Reynolds Transport,850 East 300 North,Richfield,UT,84701,N/A
Mergner Transportation,1861 West 600 North #36a,Salt Lake City,UT,84116,801-359-4421
Gillespie Trucking,4053 South 1950 West,West Valley City,UT,84119,801-972-3798
"Lake Trucking, Inc.",2002 N 600 W,Lehi,UT,84043,801-768-9522
Lupe Rodriguez Trucking,1175 North 300 West,Beaver,UT,84713,801-438-1126
Rich Trucking,2675 West 900 South,Salt Lake City,UT,84104,N/A
Sutherland Transport,2648 N 3100 W,Delta,UT,84624,801-864-4462
V Lewis Trucking,1949 So Main,Nephi,UT,84648,801-560-8273
Larry M Adams Trucking,471 W Telegraph Rd,Washington,UT,84780,801-628-2480
Rockymountain Auto Transport LLC,1379 Cedar Crest,Sandy,UT,84092,801-541-4459
News Transport,5107 S 2325 W,Roy,UT,84067,801-388-8493
Trigger Trucking LLC,Po Box 65702,Salt Lake City,UT,84115,801-755-9958
Loft Transportation LLC,Po Box 1681,American Fork,UT,84003,801-643-4542
Kikis Shuttle LLC,6452 West 3210 South,West Valley City,UT,84128,801-250-6716
"Gunderson Trucking, Inc.",1648 East Dover Drive,Spanish Fork,UT,84660,801-798-5407
Rcn Transport,525n-2650w,Tremonton,UT,84337,435-279-7770
Senti Transportation LLC,552 E 1500 S,Naples,UT,84078,405-701-4173
"Campbell's Express, Inc.",2150 Balboa Way Unit 26,St George,UT,84770,435-628-1315
The Andes Transportation LLC,1452 West 6785 South,West Jordan,UT,84084,801-879-7305
R & M Transportation LLC,4390 South 1100 East,Salt Lake City,UT,84124,801-268-0748
Gerald Lanier Trucking,2827 South 2850 West,West Valley City,UT,84119,801-232-5825
Guaranteed Towing,9130 S Monroe Plaza Way,Sandy,UT,84070,801-906-9161
One Click Freight,1045 N Carling St Suite B,Hildale,UT,84784,435-531-0513
Jolley Transport,891 E Canyon Rd,Monroe,UT,84754,801-633-7242
Toyitup LLC,3573 N Main St,Spanish Fork,UT,84660,801-798-9809
Autumn Mill,720 West 200 South,Logan,UT,84321,435-792-4200
Nikolov Traping,7210 S 2930 E,Salt Lake City,UT,84121,801-755-0155
Andy''s Transport And Hauling,1630 North Main,Willard,UT,84340,435-239-0366
7l7 LLC,4560 West 5460 South,Kearns,UT,84118,801-372-8030
Orton Trucking,266 E 300 N,Panguitch,UT,84759,435-676-2170
Classic House Door Company,8385 South Allen St Suite 115,Sandy,UT,84070,801-649-4936
Don Sadlier Electric,157 1/2 East 400 South,St George,UT,84770,435-680-6166
Interwest,11723 Lampton View Dr,South Jordan,UT,84095,801-859-4289
"Dbpg Distributing, Inc.",3747 Marigold Way,Saint George,UT,84790,435-705-8376
R & K Hall Trucking,90 North 300 West,Monroe,UT,84754,435-201-1595
All In One Trucking,1355 East 5300 South,Milford,UT,84751,435-691-1656
Amen Pavements,784 S River Rd #175,St George,UT,84790,801-502-0845
Mr C Trucking LLC,10 North Main Street Suite# 372,Nephi,UT,84648,801-451-9581
Yamara Express,3174 S Tolin Street,West Valley City,UT,84120,801-931-9447
Aldana Bros Transport,1125 N Main St #3b,Layton,UT,84041,801-512-5213
Western Motors Auto Transport,270 North Main,La Verkin,UT,84745,435-668-3193
Nationwide Secure Transport,265 N 300 W,La Verkin,UT,84745,800-916-2705
Servicios Castillo Guirola Sa,3731 S Stable Bay Dr,Magna,UT,84044,281-330-5116
Mountain Man Hotshot,335n 2500w,Vernal,UT,84078,435-790-4885
Rey Trucking,3125 S 3085 W,West Valley,UT,84119,801-518-0780
B & B Truck & Equipment Repair,1530 South Hwy 21,Milford,UT,84751,435-691-2907
Sandstone Tire & Towing,138 East Center St,Monticello,UT,84535,435-459-0038
Adrian Talonia,273 North 600 West,Provo,UT,84601,801-427-4687
Diamond J Trucking,25 East 100 South #4,Glendale,UT,84729,435-648-2077
Interstate Freight Transportation,2758 Casto Lane,Holladay,UT,84117,801-557-8464
Bear River Transport,16430 N Beaver Dam Rd,Beaver Dam,UT,84306,435-458-3022
Lone Wolfee Enterprises,3791 South 6000 West,West Valley City,UT,84128,801-673-3636
Farming,3431 S Highway 89,Perry,UT,84302,801-272-0699
Big Horse Trucking,2096 Fall Street,Eagle Mountain,UT,84005,801-473-6387
Park City Rock,11986 N Atlas Drive,Highland,UT,84003,801-692-1362
Traxx Transport,1953 S 1250 W,Logan,UT,84321,435-851-3296
R&r Transportation Co,2535 W 3500 N,Farr West,UT,84404,801-731-2870
533 Commodities Maintenance Squadron,5816 D Ave Bldg 238,Hill Afb,UT,84056,801-775-3033
Discover Rental Purchase,4660 S 4000 W,West Valley City,UT,84120,801-676-8877
Craft Enterprises,95 North Ethan Allen,Big Water,UT,84741,928-660-2323
Cato Enterprise,1387 Denver Street,Salt Lake City,UT,84115,801-554-6405
"King Knight Holding, Inc.",3487 S 2000 E,Salt Lake City,UT,84106,801-895-5585
Intermountain Transmission Exchange,1494 South West Temple,Salt Lake City,UT,84115,801-487-0092
Salt Creek Exteriors,14448 S Valley Crest Way,Bluffdale,UT,84065,801-641-5200
Pugmire Trucking,2460 Remuda Drive,Farr West,UT,84404,801-388-2829
Tara Transport,3214 W Meadow Leaf Ct,W Valley City,UT,84119,801-897-2880
Mountainstar Blood Services,5405 S 500 E Suite 105,Ogden,UT,84405,801-479-2036
Gurr Ranch,20 West Field Street,Randolph,UT,84064,435-757-3357
Ryon's Truck,10512 Sage Vista Way,South Jordan,UT,84095,801-864-7744
Silver Eagle Services,1937 North 1500 East,Ballard,UT,84066,435-725-8879
Bryce Canyon Atv Adventures LLC,13500 E Hway 12,Bryce,UT,84764,435-834-5200
Amigos Tex Mex,805 Zion Park Blvd,Springdale,UT,84767,435-772-0422
Southern Utah Charter Services,790 South Bluff Street,Saint George,UT,84790,435-628-8320
J W G Trucking,75 West Spanish Trails,Enoch,UT,84721,435-865-7607
Mountain West Industries LLC,405 South Kira Drive #602,Tooele,UT,84074,435-843-4536
St Trucking,5120 W Cyclamen Way,West Jordan,UT,84081,801-608-2821
Jd&c Transportation,8791 S 220 E,Sandy,UT,84070,801-597-6427
Foy's Ltl Transport,2782 South Desert Road,Moab,UT,84532,435-260-8427
Pavon Transport,5742 S Field Cir,Kearns,UT,84118,801-502-3857
Gkp Enterprises,370 North 100 West,Wellsville,UT,84339,435-245-7501
Lazy Star Ranch,6761 W Bottle Brush Lane,West Jordan,UT,84081,530-329-2569
Simpson Fence,52 North 600 East,Heber,UT,84032,801-471-1074
Sgm Transport,1492 W 1800 N,Pleasant Grove,UT,84062,801-404-0769
Lp Trucking,1494 West S Jordan Pkwy,South Jordan,UT,84095,800-226-3696
Srs Trucking,1541 S Hallam Rd,Francis,UT,84036,435-768-6235
Always Rolling Trucking,646 S Main St #246,Cedar City,UT,84721,406-644-3137
Wabash Of Utah,5510 West 2305 South,West Valley City,UT,84120,801-978-7976
Hoodz Of The Northern Wasatch Front,321 South 850 East,Kaysville,UT,84037,801-731-6652
Massaro Logistics,1385 W 625 N,Saint George,UT,84770,435-272-7863
The Good Sons,8543 S Redwood Rd Suite #c,West Jordan,UT,84088,702-412-9189
Rhino Linings Of Roosevelt,100 West Hwy 40,Roosevelt,UT,84066,435-722-5555
Windstar Carriers,9487 South 500 West ,Sandy,UT,84070,801-996-3702
Muir Transport,5250 South 45000 West,Fruitland,UT,84027,435-640-1847
Cst,5123 Fortrose Dr,Herriman,UT,84096,801-327-2724
Hsu Family Trucking,710n Washington Blvd #g202,Ogden,UT,84404,801-837-7243
Redline Trucking,333 S 2000 E,Spanish Fork,UT,84660,801-798-4650
Nrm,400 North Main,Centerfield,UT,84622,435-633-0059
Verco Trucking,3008 Birch Circle,Saint George,UT,84790,435-229-6403
Coys Wheel Com,84 West 620 South,Orem,UT,84058,801-356-2929
Hauling Assets,827 Lazon Dr,Sandy,UT,84094,801-856-6244
Iron Spade Trucking,808 N 2300 W,Tremonton,UT,84337,435-257-1702
Segway Freight Company,280 South 400 West Suite 220,Salt Lake City,UT,84084,801-432-0130
Ven J Enterprizes,2822 North 2575 West,Farr West,UT,84404,801-814-8205
"Swift Transportion Co, Inc.",180e 200n,Washington,UT,84780,435-313-2401
Dump Truck Huauling,2514w 5780so,Taylorsville,UT,84118,801-967-3821
F T K Trucking,3105 West Pioneer Road,Ogden,UT,84404,180-166-0567
"Loyd Trucking, Inc.",Hc 35 Box 9,Kenilworth,UT,84529,435-472-8452
Merchants Delivery Specialist,2507 S 300 W,Salt Lake City,UT,84115,801-633-2530
Dunn Oil Transportation,1881 West California Ave,Salt Lake City,UT,84104,801-278-7373
Triple G Unlimited,95 N 300 W,Parowan,UT,84761,435-477-3785
Conn Enterprises,1221 East 700 South,Salt Lake City,UT,84102,801-541-0051
Double T Feed,4255 West 500 North,Fillmore,UT,84631,435-743-4310
Kelly Trucking,4132 South 3425 West,West Valley City,UT,84119,801-964-6823
Ten Plus,526 Dammon Valley,Dammon Valley,UT,84783,435-691-1954
B A T Company,353 North 825 East,American Fork,UT,84003,801-756-9523
Salt Lake Air Cargo,1435 So 4800 W Suite 100,Salt Lake City,UT,84104,801-975-7772
Bulldog Towing,910 West Center Street,Provo,UT,84601,801-375-5167
Rocky Mountain Excavation Of Carbon County,6065 N Coal Creek,Price,UT,84501,435-637-9322
Tri H Farms,2610 S Hwy 89-91,Logan,UT,84321,435-753-1234
"Wing On, Inc.",1820 W Parkway Blvd,West Valley City,UT,84119,801-972-5116
Mountain Resources,1 Block West Hwy 191,Bluff,UT,84512,435-672-2449
Aaa Asphalt & Cement,1001 W Amethyst Dr,St George,UT,84770,435-673-1858
"New Image Home Improvement Products, Inc.",2150 West 3300 South #e,Ogden,UT,84401,801-731-0378
Aa Quick Hook,1821 S 4150 W,Taylor,UT,84401,801-668-6282
"Speedy Towing, Inc.",3379 S 500 W,South Salt Lake,UT,84115,801-619-1111
Aafordable Auto & Towing,2400 S 7015 W,West Valley City,UT,84120,801-250-1435
H & H,4720 West 4500 South,West Haven,UT,84401,801-390-7866
Layton Hills Dodge Towing,650 N Main,Layton,UT,84040,801-546-2456
H B Anderson Farm,4918 W 4000 S,West Haven,UT,84401,801-867-7763
Lstr,3866 West 3200 South,West Valley City,UT,84120,801-963-6960
Harrison Towing And Repair,755 N 1800 E,St George,UT,84770,435-673-9318
Scattered Land & Livestock,1450 South Flat Road,Cleveland,UT,84518,435-653-2466
K & B Xpress,1784 W 1280 S,St George,UT,84770,702-561-9335
Hunter Towing,3106 S 400 W,Salt Lake City,UT,84115,801-352-7669
Heritage Towing,621 West 3900 South,Salt Lake City,UT,84123,801-290-1306
Prism Contractors,245 West Utah Ave,Hildale,UT,84784,435-874-1522
Siera,25 South 10 West,Salt Lake City,UT,84104,801-635-4607
M-durrant,245 South 400 West,St George,UT,84770,435-673-9265
Pond Enterprise,464 W 1800 South,Orem,UT,84058,801-362-1244
Curtis Lomenickdba On Time 2 You,257 North Lodge Road,Central,UT,84722,435-574-0331
H U Go,2550 So 8000 W,Magna,UT,84044,801-508-7432
Kearns Towing,2881 S 3600 W,West Valley,UT,84119,801-886-9202
Self,2341 S 3600 E,Heber City,UT,84032,435-654-2446
Jess Andersen Livestock,604 S 1250 W,Logan,UT,84321,435-755-9202
Con Cor Eng,5050 Corilyn Cir,West Valley City,UT,84120,801-860-8889
Tmr Auto Transport,2481 West 2100 South,Syracuse,UT,84075,801-940-6902
"O'coigligh Enterprises, Inc.",1767 West 870 North,Pleasant Grove,UT,84062,801-319-7073
Euro Sport Towing,3553 S Main,Salt Lake City,UT,84115,801-268-1882
Jw Robinson Excavating,2573 W 5950 S # 1,Roy,UT,84067,801-458-1699
Me & Sons,5782 W Loch Raven Ct,West Valley,UT,84128,801-330-1871
Trussportation,745 N Hildale St,Hildale,UT,84784,435-212-7013
Clyde's Towing,170 S Birch Creek Road,Manila,UT,84046,435-784-3502
Chamberlain Trucking,2570 South 3430 East,St George,UT,84790,435-673-9125
Mountain Hawk Trucking,267 West Main,Tremonton,UT,84337,435-734-0404
Dan Newman Exp,11745 South 1578 West,Riverton,UT,84065,801-712-1085
Tech Specialists,106 E 1120 N Ste B,Logan,UT,84341,435-753-3700
Jcj Enterprises,263 Chadwick Cir,American Fork,UT,84003,801-770-4606
Jwr,2235 East Rees Lane,Morgan,UT,84050,801-668-8613
Clay Worrell Trucking,698 E 300 S,Saint George,UT,84770,435-703-4088
Lite Haul Express,1331 Taylor Mountain Rd,Kanarraville,UT,84742,N/A
Spooner Logging,1401 Cactus Circle,Wellington,UT,84542,406-239-7067
Parkinson Energy,840 South Main Street Apt 220,Cedar City,UT,84720,256-446-8150
The Sofa Source,12968 S 5800 W,Herriman,UT,84096,801-254-6977
Cci,Hc 63 Box 44,Duchesne,UT,84021,307-462-0124
Kriser White Construction,4692 West 10000 South,Payson,UT,84651,801-465-1975
Fun Family Enterprises,3783 South 500 West #8,South Salt Lake,UT,84115,801-330-1161
R O Trucking Company,7588 Red Kite Way,Eagle Mountain,UT,84043,801-390-0347
Julieanne,555 South State Street Suite 111,Orem,UT,84058,801-765-4778
J & S Transport,3710 South 5600 West,West Valley City,UT,84120,801-849-8873
Utx1,3565 S West Temple Suite 17,Salt Lake City,UT,84115,801-266-7333
K H Transport,3270 South Maple Way,West Valley City,UT,84119,801-856-4473
Horsepower Towing,901 W 700 S,Lehi,UT,84043,801-341-5173
T & K Specialties,737 South Brentwood Lane,Bountiful,UT,84010,801-390-5780
State 2 State,169 Crystal Bay Drive,Tooele,UT,84074,801-652-0699
Artworks Worldwide,1280 West 200 South,Lindon,UT,84042,801-785-1123
J & S Transportation,7112 W 5500 S,Hooper,UT,84315,801-388-6007
Dmt Transport Services,1269 W 1420 N,Orem,UT,84057,801-735-5591
Ski Transport,931 E Green Oaks Dr,Bountiful,UT,84010,801-703-1763
Ancira Shipping,2080 W Celia Way,Layton,UT,84041,801-525-6495
Welby Trucking,35 W Broadway Apt 501,Salt Lake City,UT,84101,801-946-2243
Kc Courier,1216 South 1000 West,Salt Lake City,UT,84104,801-651-8716
Briotechnologies,48 East 13200 South Ste A,Draper,UT,84020,801-572-3002
Silver Shadow Trucking,355 E 200 S,Bountiful,UT,84010,801-860-5980
Utah Shakespeare Festival,351 W University Blvd,Cedar City,UT,84720,435-586-7885
Jetrod Manufacturing,749 West Main Street,Tremonton,UT,84337,435-257-3497
Beko Transport,1377 N Miami Circle,Salt Lake City,UT,84116,801-906-9837
Liberty Works,460 N 200 W,Beaver,UT,84713,435-438-6368
Mp Welding & Fabrication,5323 West Wells Park Road,West Jordan,UT,84088,801-280-0313
Larsons Carriers And Transport,283 East 950 South,Orem,UT,84058,801-368-0292
M&d Pitbull Trucking,1041 W Bloomington Dr S,St George,UT,84790,435-313-3297
Regal Coatings,560 S State Street Ste B1,Orem,UT,84058,801-375-9090
Portable Office Suites,980 W Utah Ave,Hildale,UT,84784,435-212-0588
Cote Tools,582 N 300 W,Ivins,UT,84738,435-669-7690
Christensen 4 Farms,5712 S 500 E B,Ogden,UT,84405,801-710-0957
Fedex,721 S 5500 W ,Salt Lake City,UT,84104,801-613-6173
Novatrans,491 W 5300 S Suite 118-b,Murray,UT,84123,801-388-3983
B & T Transport,571 South 200 West,Providence,UT,84332,208-351-9064
"Amasyn, Inc.",255 North 950 West 10a,Logan,UT,84321,435-881-5443
Kingston Trucking,283 International Ave,Tooele,UT,84074,801-618-5636
Car Tunes Ice Cream,291 N Bluff St,Saint George,UT,84770,435-767-1480
Fibernet,529 N 300 W Suite 18,Blanding,UT,84511,614-404-3643
Parallax Transport,4565 Tomahawk Drive,Enoch,UT,84721,435-531-3099
Reats,3002 Mock Orange,West Valley City,UT,84119,801-556-8370
Bruce's Sales And Leasing,1233 S Sage Dr Suite E,Cedar City,UT,84720,435-865-1084
Lauder's Cubicle Connection,2500 South Decker Lake Blvd No 20,Salt Lake City,UT,84119,801-295-2770
Summit Line,115 Aspen Terrace,Park City,UT,84098,435-647-3825
Moab Outfitters,105 South 1380 West,Lindon,UT,84042,801-404-6417
Value Quality Transportation,2369 Little Oak,Salt Lake City,UT,84119,801-738-0501
Ogm Energy Resources,124 E 100 S,Price,UT,84501,801-867-1970
Insulation Professionals,14884 Ox Cart Lane,Draper,UT,84020,801-979-1281
Dally Transportation,663 N 21000w,Mountain Home,UT,84051,517-507-0612
Bargain Buggy's Of Utah,600 Pioneer Ave,Tooele,UT,84074,435-830-3222
Georget Scentsy Us,234 International Ave,Tooele,UT,84074,435-882-7351
"ALLCraft, LLC",P.o. Box 461227,Leeds,UT,84746,435-632-4894
Fruitland,10396 South Lower Red Creek Rd,Fruitland,UT,84027,801-420-0723
J C Trucking,713 W 1000 S,Richfield,UT,84701,435-201-2355
4352120755,1045 N Cottonwood Street,Hildale,UT,84784,435-212-0755
Uti,160 W Canyon Crest Road,Alpine,UT,84004,801-216-8859
John Boyle Trucking,114 N Madera Trail,Ivins,UT,84738,435-414-4444
Schell Shipping,3800 N 500 W,Parowan,UT,84761,435-531-3725
"Kjladders, Inc.",248 South 600 East,St George,UT,84770,435-862-3737
Ram Hot Shot Service,4500 Easy Street,Moab,UT,84532,435-260-0478
Simtek Fence,1330 W 400 N,Orem,UT,84057,801-655-5236
Andrade Transport,974 W 630 N,Orem,UT,84057,801-434-9196
Mike Henrie Authorized Dealer Cornwell Tools,1932 N Highway 89 Lot 2,Kanab,UT,84741,435-690-0202
Lobo Trucking,5505 S 1025 E,South Ogden,UT,84405,801-791-7503
H & R Express,94 West Center,Parowan,UT,84761,435-592-2523
Take-n-it Towing & Transport,372 S 780 W,Lehi,UT,84043,801-830-7745
Kdp Directional,61 W Main,Trenton,UT,84338,435-232-1186
C&r Enterprises,163 West 200 South / 203,Salt Lake City,UT,84101,801-560-0678
Ghost Logistics,476 N Seven Peaks Blvd #211,Provo,UT,84606,858-342-4017
Trademark Transport,3975 N 0800 E,Ephraim,UT,84627,801-787-6283
Trotwood Transportation,2465 Maple Creek Ln,Sandy,UT,84092,801-719-4428
Jerrys Classic Car Transport,38 W Center St,Tropic,UT,84776,435-679-8233
"Riggs Welding Services, Inc.",66 S 2000 E,St George,UT,84790,435-705-1799
Crown Moving,516 North 700 East,Washington,UT,84780,435-272-3786
Yamara Transport,3174 Tolin St,West Valley City,UT,84120,484-478-1569
Bushra Transportations,1730 S Redwood Rd Ste120,Salt Lake City,UT,84104,801-895-9223
Home Industries,1374 East Big Pinion Ln,Apple Valley,UT,84737,435-877-1248
C More Express,1784 S 1500 E,Roosevelt,UT,84066,435-646-3534
Chapoose Transportation,95 S 200 W,Vernal,UT,84078,435-650-9920
Dixie Fabrication,1389 Sandhill Dr,Washington,UT,84780,435-669-4457
R & J Trans LLC,1300 South 134 East Apt #9,Salt Lake City,UT,84115,801-953-4420
Roca Transport,5710 South 900 East Suite 4,Murray,UT,84121,801-884-2022
Beds 4 Less,2025 West 30 South,Hurricane,UT,84737,435-635-3294
Steel Horse Trucking,178 S Main St Apt 305,Helper,UT,84526,407-770-4918
Cottonwood Motors,2567 Kentucky Ave,Salt Lake City,UT,84117,801-266-2008
Ranger's Ranch Supply,4732 N Quick Draw,Enoch,UT,84721,435-867-8192
Excalibur Welding,1000 North 1540th East,Richfield,UT,84701,435-201-9209
Paul Cutler Transport,2125 N 1450 E,Provo,UT,84604,617-892-3113
Bar 10 Transportation,1825e 2450s,St George,UT,84790,435-628-4010
Palmer Shipping Enterprise,2522 South Highway 28,Levan,UT,84639,772-979-4577
Grote Transport,129 Penny Lane,Logan,UT,84341,435-881-4666
Juba Transportation Service,748 W Timber Creek #312,Salt Lake City,UT,84119,801-819-1163
C & C Transport Solutions,1459 Longhorn Drive,Farmington,UT,84025,801-712-0123
Aamco Transmission,270 West 600 South,Salt Lake,UT,84101,801-364-6466
Ra Trucks LLC,1112 S 850 W,Heber City,UT,84032,435-503-2008
Jm Business Equipment,1341 N Liberty Greens Dr,Washington,UT,84780,435-773-8313
Childs Trucking,136 West Center Street,Gunnison,UT,84634,435-340-1595
Jm Transport,4120 W 500 N,Vernal,UT,84078,435-789-7955
Zip Kit Homes,1375 S Blackhawk,Mt Pleasant,UT,84647,435-828-6606
Rsa Network,1654 W Reunion Avenue Ste 10b,South Jordan,UT,84095,801-838-8999
D Cardan Freight Systems,6318 Anders Ridge Way,West Valley City,UT,84128,801-708-4536
Mf Transportation,3186 S 1945 W,West Valley City,UT,84119,801-690-4920
"Salt City Transport, Inc.",42 W 100 N,Cedar Fort,UT,84013,801-376-8914
J D & C Transport,8610 S 910 E,Sandy,UT,84094,801-568-0277
Windy River Hot Shots,6789 Buena Vista Dr,Uintah,UT,84405,801-872-4565
Fibernet,529n 300 W,Blanding,UT,84511,307-247-1083
Center Point Stone,3650 South 300 West,Salt Lake City,UT,84025,801-898-2816
Great Western Painting,13202 South Day Court,Draper,UT,84020,801-816-0600
Uts LLC,7915 S 3530 W,West Jordan,UT,84088-4566,801-661-3361
Tn Transportation,4020 South 1950 West,West Valley City,UT,84119,801-661-6272
A G Welding Services,563 East 1840 North,Orem,UT,84097,801-404-7122
Welder,1714 West 9000north Hwy 121,Neola,UT,84053,435-823-7835
Eddie's Super Dump,1877 N 2100 W,Saint George,UT,84770,435-703-0599
Cb Transportation,1008 East 11780 South,Sandy,UT,84094,888-400-4236
Via Motors,165 South Mountain Way Dr,Orem,UT,84058,801-764-9111
Go Pro Van Lines,125 E Main Street Unit 303,American Fork,UT,84003,202-521-1493
Bt,190 Quail Way,Logan,UT,84321,435-770-1100
Oberg Direct,848 E 1225 N,Ogden,UT,84404,801-738-4333
T & K Silliman Trucking,130 N Solomon,Green River,UT,84525,435-564-3269
J N M Transport Service,17531 W 4200 S,Cedar City,UT,84720,435-233-8616
Rickshaw Trucking,267 North G Street,Slc,UT,84103,801-548-3530
Park City Mountain Resort,1310 Lowell,Park City,UT,84060,435-649-8111
Silverline Pilot Car Service,8772 East 2500 North,Ft Duchesne,UT,84026,435-722-7282
Cross Country Welder,1177 North 1390 West,Layton,UT,84041,801-309-6045
Transportation,5217 Silvertip Dr,Kerns,UT,84118,801-678-5821
Importadora R & R,6373 W Rockport Dr,West Jordan,UT,84081,708-314-0378
"Pats Pump Service, Inc.",2152 Kays Creek Drive,Layton,UT,84040-7880,801-295-4488
S&s Transportation LLC,2003 North 550 West,Clinton,UT,84015,801-502-1183
S Corp,1429 W Diamond Valley Dr,St George,UT,84770,435-680-4886
M&m Transport,995 Westfield Rd,Toquerville,UT,84774,951-775-4297
Jumping Jack Trailers,1065 W North Temple,Salt Lake City,UT,84116,801-520-5310
Keogh Commodities,749 W 725 S,Springville,UT,84663,480-258-2262
Hanks Trucking,350 S 700 W,Springville,UT,84663,801-651-3854
Atl,4612 Hwy 36,Erda,UT,84074,435-241-1042
Findlay Hyundai Subaru,1405 S Sunland Dr,St George,UT,84790,435-688-7272
Gold Rush Metals,320 East State Street,Orderville,UT,84758,435-648-2741
Cmsi Development,352 E Riverside Dr Ste A3,Saint George,UT,84790,435-688-8533
Destination Transport Solutions,1423 North 2400 West,Clinton,UT,84015,801-690-4327
L A Creters,1623 Elsie Dr,Taylorsville,UT,84123,801-631-2426
S & T Trucking,385 S Main,Pleasant Grove,UT,84062,385-225-1182
Dave Dee,300 N Union St #54,Roosevelt,UT,84066,480-772-9305
Utah Valley Nursery,684 South Main Street,Mapleton,UT,84664,801-636-4000
Ej Transport,14 North Main,Loa,UT,84747,435-691-3223
Owner,2986 S 3200 W,West Valley,UT,84119,801-842-5674
Blue Mango Enterprise,13747 S Duskywing Way,Riverton,UT,84096,801-592-5079
My Tee Trucking,42 Whitebarn Dr,Pleasant View,UT,84414,801-389-4991
Pamper-e-to Transports,516 South Glenwood Drive,Springville,UT,84663,801-477-0697
Wnw Mining Group,12 W 100 N Suite 2028,American Fork,UT,84050,801-770-3184
Time Express,3411 S 7860 West,Magna,UT,84044,801-250-5532
Able Access Elevator,680 N 1000 W #8,Centerville,UT,84014,801-518-5264
Silver Sage Trucking,987 East Tanglewood Road,Erda,UT,84074,435-830-1423
Prime Trailer,5510 West 2305 South,West Valley City,UT,84120,801-978-7977
Asi,990 North 8000 West,Menden,UT,84325,435-755-2980
Greg Bardin Trucking,833 E 530 N,American Fork,UT,84003,801-441-8841
Dohner Trading & Transport,9832 S Spruce Dale Drive,S Jordan,UT,84095,801-999-4385
Bnl Field Services,3138 So Eaglerock Way,West Valley City,UT,84120,801-946-0257
Amr Transport,5564 Brookridge Dr Apt 14 O,Murray,UT,84107,801-512-5342
Dt Auto Brokers,3572 South 1950 West Suite 1,West Valley City,UT,84120,801-639-0939
Crooked Hat Cattle Company,30 West 600 South,Monroe,UT,84754,435-287-9929
Westnet Heavy Industries,2150 S 1300 E,Salt Lake City,UT,84106,403-774-7470
Color Country Transport,4592 N Tomahawk Drive,Enoch,UT,84721,801-299-9224
Prokuda Transport,1177 Northfield Rd # 70,Cedar City,UT,84721,202-521-1493
Johncho's Transport,1062 S 1200 W,Salt Lake City,UT,84104,801-548-0304
Oaxaca Diesel,65 W Gordon Ave,Salt Lake City,UT,84107,801-550-0051
Powerhouse Central Vacuums,1481 West Blue Duck Lane,St George,UT,84770,435-619-1316
Colin Packard,4617 Cherry Street,Murray,UT,84123,801-266-4062
I Love Trucking,1312 N Commerce Dr Suite A208,Saratoga Springs,UT,84045,801-381-5637
Silver Streak 24-7 Hot Shots,370 W Center Street,La Verkin,UT,84745,435-627-8112
Down & Dirty Pressure Washing,13634 Premier Lane,Herriman,UT,84096,801-712-7978
Noyce Shipping,1291 S Somerset Dr,Spanish Fork,UT,84660,801-234-9388
Jmac Radiator,3520 South State Street,Salt Lake City,UT,84115,801-268-0919
President,9754 N 6630 W,Highland,UT,84003,801-360-4478
Cid,779 North 2200 East,Enterprise,UT,84725,702-466-8455
Skinny Guy Sound,12142 S 700 W,Draper,UT,84020,801-541-7407
Ken Johnston Handyman,4488 S 1500 E,Holladay,UT,84124-2548,801-750-9294
Hand Of Davinci,4220 S Chegwidden Ln,Salt Lake,UT,84123,801-440-4706
Crashwork Transport,465 W 2000 S,Perry,UT,84302,435-730-4145
Manuel's Installation,1119 Coyote Run,Saratoga Springs,UT,84045,801-874-5905
"Wp, Inc.",11850 S Highway 191 Unit A7,Moab,UT,84532,435-260-2250
Gdc Cartage,530 N 1300 E,Fruit Heights,UT,84037,801-413-3427
Kcsg Television,158 W 1600 S Ste 200,St George,UT,84770,435-634-7500
Atkinson Sound,3392 North Sr 32,Kamas,UT,84036,435-783-5330
Iceberg Drive Inn,438 W 12300 S Suite 104,Draper,UT,84020,801-231-5250
Goenlinx,2455 S 3600 W,Salt Lake City,UT,84119,801-977-0650
South West Express,4836 W 3145 S,West Valley,UT,84120,517-507-0612
Kris Kay Transport,140 West 100 North,Mona,UT,84645,435-660-0761
Barclay's Transportation,285 W 200 S,Moroni,UT,84646,801-875-3774
Srbhotshots LLC,2546 S 5900 W,Mendon,UT,84325,435-755-5070
Team Mmf,1533 Waverely Street,Washington,UT,84780,435-272-2313
K F J,940 N Hwy 155 Box 339,Cleveland,UT,84518,435-653-2233
Transgroup Worldwide Logistics,4980 Amelia Earhart Drive Suite C,Salt Lake City,UT,84116,801-521-3700
Gorditos Meats,984 West 2000 South,Ogden,UT,84401,801-334-6311
R L Green Enterprizes,292 East Boynton Road,Kaysville,UT,84037,801-546-4918
Bailey Livestock,530 S 90 W,Fountain Green,UT,84632,435-445-3534
Rd Horton LLC,75 S Center St,Circleville,UT,84723,435-577-2077
Utah Ice Company,362 N 300 E,Kaysville,UT,84037-1422,801-544-7400
Lakey International LLC,3888 S Market St,West Valley,UT,84119,801-557-1241
Taft Ranches,396 W 1st S,Bicknell,UT,84715,435-425-3216
Waldo Ray,2432 W 2150 N,Lehi,UT,84043,801-602-8352
A J S Transportation,1268 N 5750 E,Ft Duchesne,UT,84026,303-870-3148
Holyoak Livestock,5402 Spanish Valley Dr,Moab,UT,84532,435-259-2623
Brady Industries Of Utah,1130 So 3800 W Ste 200,Salt Lake City,UT,84101,801-973-6166
Eliason,8514 Pamela Way,Midvale,UT,84047,801-566-0264
Prince Transportation LLC,1111 North 2000 West #145,Farr West,UT,84404,801-737-0528
Gateway Real Estate And Development,195 West 500 North,La Verkin,UT,84745,435-635-2800
S & K Gillins Trucking,300 East Willow Lane,Garland,UT,84312,435-257-4254
Alpine Angus,3155 N State Road 32,Marion,UT,84036,435-640-0530
Bentley Transportation,5042 W Harley Ct,West Jordan,UT,84081,801-502-8037
New Valley Transport,2133 S Nevada Ave # 3,Provo,UT,84606,801-669-0676
Insight Exhibits,1367 South 700 West,Salt Lake City,UT,84104,801-978-9000
Rarick Enterprises,5442 North Blue Mountain Road,Blanding,UT,84511,435-210-0838
Longshadow LLC,5419 S 900 E,Salt Lake City,UT,84117,801-891-9894
Natures Design And Transports,19370 N 11250 E,Mount Pleasant,UT,84647,435-851-4341
Bio-green Technology,1008 S Peachtree Dr,Toquerville,UT,84774,480-993-9645
Fast Tow,501 W 600 N,Layton,UT,84041,801-544-1234
Red Rock Xpress,395 W 900 S,Ivins,UT,84738,509-868-8962
T K Transport,263 South Canal Rd,Sigurd,UT,84657,435-893-1063
T-time Trucking,395 East 700 North,Richfield,UT,84701,435-896-3375
Clinton Green,8945 S Cold Water Drive Apt 2131,Sandy,UT,84094,951-436-6706
Aj Trucking,620 W 3600 S,Riverdale,UT,84405,801-686-0407
Ames Water Depots,901 West Legacy Center Way,Midvale,UT,84047,801-944-6600
Mountain Point Pavement,2739 West 10400 South,West Jordan,UT,84088,801-550-0095
Beehive Transport,1862 N Goldenrod Way,Saratoga Springs,UT,84045,801-362-3364
T F P,1009 E Center Street,Bountiful,UT,84010,916-412-0641
Szx,1451 S 1700 W Suit 4,Springville,UT,84663,801-857-8815
Safety Officer,2180 South 400 West,Salt Lake City,UT,84115,801-455-0534
Peyman Transportation,1905 W 4700 S #414,Salt Lake City,UT,84118,801-214-4153
Mft LLC,1043 W Jordan Walk Way #204,Midvale,UT,84047,801-690-4885
Dsm Transport,12420 South 2415 West,Riverton,UT,84085,801-232-8743
Monsen Ranch,4890 N 12000 W,Bluebell,UT,84007,435-454-3549
Todds Custom Grading,391 N 700 E,Kaysville,UT,84037,801-309-9829
Green Haven Ranch & Holding,1812 West Sunset Blvd 1-210,St George,UT,84770,860-815-0728
4-h Transport,3381 Shalise Circle,West Valley City,UT,84120,801-209-3641
Regueros & Son,6877 D Harvest Circle,West Jordan,UT,84084,801-918-8375
Solis Famliy Trucking,188 West 600 North,Logan,UT,84321,801-940-7196
Power Movers,93 E 9270 S,Sandy,UT,84070,801-835-2744
Boudreaux Trucking,3234 West Derby Way,West Jordan,UT,84088,307-389-2517
"Hiatt Transportation, Inc.",359 Box Elder Dr,Grantsville,UT,84029,801-403-9562
Advanced Transport,624 North 300 West,Salt Lake City,UT,84103,801-534-7524
Cm Transportation,3620 North 6745 West,Roosevelt,UT,84066,435-621-2487
Hills Transportation,1132 Lancelot Ln,West Haven,UT,84401,801-499-0927
"Oz Welding, Inc.",2607 E 5000 S,Vernal,UT,84078,435-828-6283
Sampson Transportation,8972 N Sr 121,Neola,UT,84053,801-427-5356
Inephi Enterprises,13747 S Duskywing Way,Riverton,UT,84096,801-592-5079
Mr D Hauling,2841 West 11400 South,South Jordan,UT,84095,801-598-9157
H&j Enterprise,1048 E 1010 N,Orem,UT,84097,801-225-3391
H2o Alpine,780 Stone Creek Cor,Layton,UT,84041,801-528-2206
Mosquito Fleet,968 E 125 S,Ogden,UT,84404,801-336-8081
Double A Hauling,4551 W 4025 S,W Valley City,UT,84120,860-815-0728
Martens Transportation,3931 Hammon Ln,Syracuse,UT,84075,801-643-9533
Watkins Brother Trucking,375 W 2000 S,Roosevelt,UT,84066,435-790-6572
Rollin Power,473 S River Road Suite 1-358,St George,UT,84790,661-510-8523
Utah Safe Outlet,601 West 900 South,Bountiful,UT,84010,801-294-7233
Customs & Classics,3899 South Brown Street,West Valley,UT,84119,801-288-1863
Smc,382 West 2600 North,Pleasant Grove,UT,84062,801-636-0995
Wasatch Supply And Barrel,2070 S 4250 W,Salt Lake City,UT,84104-4880,801-363-1933
"Pugs, Inc.",215 N 1800 West,Lindon,UT,84042-1627,801-785-8801
Brian Head Ready Mix,679 N Iron Springs Road,Cedarcity,UT,84721,435-592-3015
Vulcan Precision Linings & Field Services,2910 W Directors Row,Salt Lake City,UT,84104,801-972-5933
Stilson's Central Vacuums And Intercom Systems,1205 East 1050 South,Saint George,UT,84790,435-229-9564
"S&h Log Crafters, Inc.",957 W 2150 S,West Haven,UT,84401,801-731-7134
Not Associated,2580w 7200n,Honeyville,UT,84314,435-279-9200
"I R & C, Inc.",805 West 300 North,Hyrum,UT,84319,801-866-9896
"Composite Coatings, Inc.",615 West 900 North,North Salt Lake,UT,84087,801-298-4787
General Grip & Electric,561 W 440 N,American Fork,UT,84003,801-931-4759
Nd Andersen Co,1327 35th Street,Ogden,UT,84403,435-890-9223
Brb Livestock,140 W 9000 So #12,Sandy,UT,84070,801-580-0232
"B Fitz, Inc.",564 Blackhawk Dr,Washington,UT,84780,435-619-0563
Crossroads,280 N 900 W,Kaysville,UT,84037,202-521-1493
Brown Transportation,2215 S 5900 West,Mendon,UT,84325,202-521-1493
Rocky Mountain Freight,6754 W 8305 S,West Jordan,UT,84081,801-350-1380
Saberlus Logistics,350 W 1550 N,Ogden,UT,84404,435-901-8899
Tony And Tina Guerras Farm,260 E Main St,Santaquin,UT,84655,801-499-1924
Musician,97 N 1100 E ,American Fork,UT,84003,801-722-9364
Aj& J Installation,371 S 930 W ,Pleasant Grv,UT,84062-2853,860-815-0728
"Washburn Fencing, Inc.",8592 W 2200 S,Cedar City,UT,84720,775-761-3244
Mbi Business Designs,750 South 200 West,Salt Lake City,UT,84101,801-322-0444
Backbeats,6089 South Highland Drive,Salt Lake City,UT,84121-1355,801-274-8400
Crawford Door Sales,155 West 2700 South,Salt Lake City,UT,84115,801-487-7442
More Trucking,1464 S Silver Maple Ct,Payson,UT,84651,801-473-0174
Time Trucking,1450 S West Temple Apt F104,Salt Lake Cty,UT,84115,801-462-6391
A & W Shipping,171 East Main St,Duchesne,UT,84021,206-618-8364
Oak Creek Express,282 N 300 W,Santaquin,UT,84655-5652,801-800-6420
R& D Rigworks Hot Shots,672 N 300 W,Vernal,UT,84078,801-866-4910
Full Speed Ahead Transport,6331 W Dillan Cir,Herriman,UT,84096,801-550-5416
Denton Livestock Hauling,151 W Center,Sterling,UT,84665,435-851-1174
Karla Santana,6273 W 2900 S ,W Valley City,UT,84128,801-680-4422
R G Shelton Trucking,3770 W 6885 N,Roosevelt,UT,84066-4980,970-946-6849
1 LLC,55 W 100 N,Hyde Park,UT,84318,435-232-1883
1 Transport LLC,935 W Pierpont Ave,Salt Lake Cty,UT,84104,385-881-7392
1 Usa LLC,4943 Ray Ford Cir,Kearns,UT,84118,801-835-0109
"1 Way 2 Heaven Trucking, Inc.",616 Loafer View Dr,Payson,UT,84651,708-250-9493
1 World Logistics,4000 East Highway 6,Spanish Fork,UT,84660,801-432-5005
"10-4 Trucking, Inc.",1122 Redcliff Rd,Leeds,UT,84746,435-467-5478
11 Stars Trucking Company LLC,6517 W 3940 S,W Valley City,UT,84128,336-582-1732
114 Trucking LLC,1602 W Snow Queen Pl Apt G340,Salt Lake Cty,UT,84104,801-837-2205
"12 Point Transport, Inc.",772 N Main St # 332,Tooele,UT,84074,801-455-5701
123 Shawn E Young,887 South 800 East,Springville,UT,84663,801-473-4175
123 Transport LLC,5068 W Crownpointe Dr,W Valley City,UT,84120,385-266-9503
LLC,60 E Gordon Ave Ste C,Murray,UT,84107,801-635-7168
12transs LLC,2788 S Ivy Ln,Saratoga Spgs,UT,84045,773-474-1473
15 Minutes Dispatch LLC,1902 E 700 S Unit A512,Clearfield,UT,84015,385-499-9480
1961,83 East Main Street,Goshen,UT,84633,801-368-1951
Jt Taylor Trucks,268 West Sycamore Lane,Washington,UT,84780,435-215-6189
"1harper Ready Mix, Inc.",6603 West 5400 South,West Valley City,UT,84118,801-250-1908
1st Call Transportion,5550 South 5475 West,Kearns,UT,84118,801-971-9961
1st Choice Trans LLC,9584 N Elk Ridge Dr,Eagle Mtn,UT,84005,801-916-6716
1st Class Movers,690 East Aloha Lane,Sandy,UT,84070,435-729-9093
"2 Bar D, Inc.",91 N Main St,Roosevelt,UT,84066,435-724-0571
2 C Ranch,5522 W 2000 S,Roosevelt,UT,84066,435-724-2450
2 Ducks Trucking LLC,5199 Charlotte Ave,Kearns,UT,84118,801-381-2893
2 Garn's Trucking LLC,6230 West 13600 North,Garland,UT,84312,435-452-2035
2 Gs Express LLC,50 W Gordon Ave,Salt Lake Cty,UT,84107,385-777-6436
2 Lazy Cs Trucking LLC,25 Appaloosa Loop,Cedar City,UT,84721,435-586-0443
2 M Contract Development LLC,2135 West Erda Way,Erda,UT,84074,435-833-0833
"2 Mac, Inc.",2374 N 2930 W,Clinton,UT,84015,801-525-0775
"2 X Services, Inc.",7581 East 6500 South,Jensen,UT,84035,435-219-9211
"20 20 Transport, Inc.",500 South 900 East,Orem,UT,84058,800-975-2020
207 Specialized LLC,2477 W 2700 S,Syracuse,UT,84075,801-678-2089
Delivery,3656 S Royal Scott Dr,West Valley,UT,84128,801-831-9103
24 7 Roadside Service LLC,1941 N Serenity Dr,Saint George,UT,84770,888-401-2010
24 Hour Express LLC,1158 N 1520 W,Pleasant Grove,UT,84062,801-808-4113
24 Hour Transport Utah LLC,180w 33rd Street,Ogden,UT,84401,801-603-3638
24 Hour Transport Utah LLC,194 W 33rd St,Ogden,UT,84401,888-702-0727
24 Hr Flood Response,1471 Edgecliff Drive,Sandy,UT,84092,801-619-8068
24 Transport LLC,2801 S High Commons Way,West Valley City,UT,84120,385-266-9503
24 Transportation Services LLC,1875 Kearns Blvd Apt 125,Park City,UT,84060,801-750-6316
28 Express LLC,1633 W Secret Garden Pl Apt 366,Salt Lake Cty,UT,84104,786-525-8351
2a Trucking LLC,364 E High Berry Ln,Draper,UT,84020-6852,801-557-0087
2c Transportation LLC,1745 New Hampshire Ave,Salt Lake City,UT,84116,801-719-9628
2j Enterprises LLC,925 W 200 N A5,Logan,UT,84321,435-752-1480
2k Trucking LLC,3414 West 15000 S,Herriman,UT,84096,208-948-9124
"2m Transport, Inc.",3060 W 5525 S,Roy,UT,84067,801-726-8816
2nd Chance Trucking LLC,1094 S Greenridge Ave,Payson,UT,84651,801-592-5896
Eduardo Gasca,296 N Taurus Circle,Salt Lake Cty,UT,84116,801-895-9390
3 Brothers Transportation LLC,1681 W Crystal Ridge Dr,West Jordan,UT,84084,801-330-2123
"3 D Art, Inc.",5165 W 4900 So,Kearns,UT,84118,801-966-1372
3 D Cheese,1365 N Hwy 6,Delta,UT,84624,435-864-2725
3 D Transport LLC,3846 W Cochise Dr,W Valley City,UT,84120-3330,801-910-0679
"3 Dimensional Contractors, Inc.",1645 W 100 S,Virgin,UT,84779,435-680-4514
3 Dog Hot Shot Enterprises LLC,160 South Dale Ave,Vernal,UT,84078,435-790-7583
"3 Form, Inc.",2300 West 2300 South,West Valley City,UT,84119,801-649-2500
3 G Trucking,4402 S Inverary Dr Apt 11,Holladay,UT,84124,801-803-9945
3 J Ag LLC,155 S 200 E,Fielding,UT,84311,435-279-3109
3 Js & P Transportation,2392 E 2815 S,Salt Lake Cty,UT,84109,801-916-1777
"3 Kings Trucking, Inc.",2633 Elizabeth Street,Salt Lake City,UT,84106,801-209-9024
"3 Lemons, Inc.",684 N 800 W,Centerville,UT,84014,801-390-2561
3 M S & N Trucking,4166 S 6000 W,W Valley City,UT,84128-6507,801-828-7811
"3 Mill Transport, Inc.",2189 N 4425 W,Ogden,UT,84404,801-430-0064
"3 X L, Inc.",3690 N 2000 W Unit B,Farr West,UT,84404,801-710-5995
3-lr Transport LLC,46 E Miller St,Salt Lake City,UT,84107,801-898-2357
"3-rivers, Inc.",1702 N Bulldog Road,Cedar City,UT,84721,435-865-6980
"316 Trucking, Inc.",6644 E 6500 S,Jensen,UT,84035,435-789-6198
350 Car Hauler LLC,7690 S Center Sq Apt 301,Midvale,UT,84047,801-707-5105
360 Logistics LLC,169 W 2710 S Circle Ste 202-a,St George,UT,84790,801-251-7687
3c Trucking LLC,671 W Sky Hawk Way,Payson,UT,84651-5753,801-885-7994
"3iquid Transport, Inc.",Po Box 12,Duchesne,UT,84021,N/A
3v Enterprises,609 N 700 E,Washington,UT,84780,435-862-5622
4 Aces Logistics LLC,633 W 1900 S,Syracuse,UT,84075,801-896-3626
4 Directions Oilfield Solutions LLC,4335 N 15000 West,Altamont,UT,84001,435-621-4801
4 Fingers Trucking LLC,4554 S Balham Rd,Taylorsville,UT,84129,801-414-5400
"4 G Carrier, Inc.",2637 W 1085 N,Clinton,UT,84015,801-971-3071
4 G Services LLC,1095 S 500 W Trl 12,Provo,UT,84601,801-356-0117
4 Girls Trucking,2536 W 2500 N,Clinton,UT,84015,801-879-6640
4 J Transport LLC,4572 Long Leaf Dr,West Jordan,UT,84088,801-280-3728
4 L Enterprises Llp,223 West 200 North,Smithfield,UT,84335,435-563-5052
4 Mechanical Company,3149 N Hwy 89 Ste 201 Bx 4,Ogden,UT,84404,801-786-1640
4 Paw Hotshots LLC,97 W 1150 N,Hurricane,UT,84737,435-724-8898
4 Wheel Towing LLC,2820 S Main St Ste212,Salt Lake City,UT,84115,801-654-5375
4-c Reclamation LLC,5346 S 13000 W,Duchesne,UT,84021,435-646-3340
"4-roses, Inc.",7995 E 1500 N,Fort Duchesne,UT,84026,435-724-0391
Monster World Rally Team,4174 N Forestdale Dr,Park City,UT,84098,603-724-4034
"435 Trucking, Inc.",64 West Center Street,Ephraim,UT,84627,435-770-1397
45 Empire LLC,250 E 200 S 16th Floor,Salt Lake City,UT,84081,N/A
4c Water Services LLC,1991 W Hwy 40,Roosevelt,UT,84066,435-722-4490
4fifty4 Trucking LLC,1411 W Pacific Ave Apt B,Salt Lake Cty,UT,84104,312-285-8475
4k Livestock LLC,315 Hopkin Lane,Woodruff,UT,84086,435-231-1072
4k Transport LLC,1638 W Secret Garden Pl Apt 303,Salt Lake Cty,UT,84104,207-409-6179
4l Logistics LLC,584 East Normandy Loop Lane,Draper,UT,84020,801-918-8722
"4way Transportation, Inc.",4415 S Stone Slab Way,Salt Lake Cty,UT,84128,801-550-4776
5 Alarm Drain Cleaning LLC,655 West Billinis,West Valley City,UT,84120,801-955-6020
5 Brothers Transport LLC,7153 West Crow Circle,West Valley City,UT,84128,801-835-2514
5 Lions LLC,1264 W Village Main Dr Apt 127,W Valley City,UT,84119,801-227-4029
5 Star Building Products LLC,892 North 510 East,Orem,UT,84097,801-231-5562
5 Star Kitchen And Bath,6951 S 300 W Ste A,Midvale,UT,84047,801-690-3769
5 Star Moving & Delivery LLC,2480 Robin Road,West Valley City,UT,84119,801-637-6560
5 Star Trucking,407 N 300 E,Tremonton,UT,84337,941-584-9868
5 Stars LLC,4076 S 1610 E,Salt Lake Cty,UT,84124,801-897-9927
50 Stars Transportation LLC,1148 E Webster Dr,Sandy,UT,84094,801-598-6904
G & R Lancaster Trucking,1804 N 1975 W,Lehi,UT,84043,801-768-2251
503 Logistics LLC,772 W 1100 S,Payson,UT,84651,801-822-2502
511 Trucking,909 N 20 E,Santaquin,UT,84655-5689,801-602-0788
555 Transportation LLC,1858s 200e,Salt Lake City,UT,84115,801-688-2964
575 East Center LLC,575 East Center,Panguitch,UT,84759,435-690-0130
"5d Recyclers, Inc.",1401 E 1650 S,Vernal,UT,84078,435-789-5558
5th Wheel Transport Corp,622 Wellington Drive,Kaysville,UT,84037,801-425-3639
5th Wheel Trucking LLC,1831 S 3600 E,Heber,UT,84032,435-671-8131
6 W Transportation LLC,9838 South 2700 West,South Jordan,UT,84095,801-550-2485
600 LLC,90 S 200 W,Cleveland,UT,84518,435-820-0023
601transport LLC,1364 E 1000 S,Pleasant Grv,UT,84062,807-347-6225
619 Sd Johnson Riders LLC,2964 W 4700 S Ste 200,Taylorsville,UT,84129-2501,619-207-9657
66sambo Express LLC,730 N 200 E,Central Vly,UT,84754,435-979-3329
67 Enterprises,38881 North State Route 32,Kamas,UT,84036,610-554-0550
Poor Boyz Trucking,4661 So 800 West,Spanish Fork,UT,84660,801-798-7505
7 Bar H Trucking,4661 South 800 West,Spanish Fork,UT,84660,801-798-7505
"7 Brothers Moving Company, Inc.",457 N Main Street,Spanish Fork,UT,84660,801-804-6779
7 C Buckers Transport LLC,805 West Utah Ave,Tooele,UT,84074,435-496-3129
"7 J Trucking, Inc.",2481 Starling,West Valley City,UT,84119,801-913-5808
7 Lazy T Express,1250 E 1300 N Apt A215,Logan,UT,84341,435-724-3528
7 Strong Trucking,772 E Savannah Dr,Sandy,UT,84094,801-410-3451
Funaki Laupua,292 S Eisenhower Way,Salt Lake Cty,UT,84104-3069,801-865-3874
71 Transport LLC,349 So Center,Goshen,UT,84633,801-372-2957
711 Ranch Trucking LLC,3525 West 8000 North,Honeyville,UT,84314,435-279-8127
786 Transportation LLC,2600 N Hill Field Rd Trlr 109,Layton,UT,84041,801-450-3811
7a2,1210 W Center St,Lewiston,UT,84320,435-760-0730
7a9 LLC,44 W Center St,Lewiston,UT,84320,435-760-0730
"7c Trucking Co, Inc.",4500 N Sheeplane,Tooele,UT,84074,801-882-0765
7l7 Enterprises LLC,4495 W 5460 S,Kearns,UT,84118,801-372-8030
8 Angels Transport LLC,1887 W 500 N,Clearfield,UT,84015,801-695-5798
"8 Mule Freighting, Inc.",277 North 600 West,Heber City,UT,84032,435-657-0091
80 Ace Logistics LLC,5357 Baldwin Park,Murray,UT,84123,801-865-1538
801 Logistics LLC,21 E 1100 N,Centerville,UT,84014,385-236-9411
801 Services LLC,13091 S Hendry Ln,Herriman,UT,84096,385-401-8303
801 Sweeping,1053 E 3325 N,Layton,UT,84040,801-898-5756
801 Trucking LLC,5448 Silo Dr,West Jordan,UT,84081,801-673-3045
801expressLLC,711 N Oakley St,Salt Lake Cty,UT,84116,801-634-2958
801towtruck LLC,1400 East State,Lehi,UT,84043,801-869-8782
88 Transport LLC,4336 W Martin St,Hurricane,UT,84737,435-619-9322
9 21 X LLC,14088 S Pepi Band Rd,Draper,UT,84020-7647,801-243-9145
9 Strong Enterprise LLC,4141 W 2100 S Ste 200,W Valley City,UT,84120,214-810-6902
"911 Trucking, Inc.",221 West 2000 South,Clearfield,UT,84015,801-725-9480
A & A Towing And Service,513 South 925 East,Layton,UT,84041,801-232-4167
A & B Excavating LLC,465 W Utah Ave,Hildale,UT,84784-2683,435-691-3596
A & C Stone Masonry LLC,31 E Horizon Ave,Heber City,UT,84032,435-640-6092
A & D Field Services,830 N Bell Ave,Castle Dale,UT,84513,775-338-4042
A & D Logistics,5106 West Amelia Earhart Drive #d,Salt Lake City,UT,84116,801-973-9751
A & D Logistics LLC,120 E 540 N,Vineyard,UT,84058,407-373-5127
"A & D Transport, Inc.",1204 South 1300 East,Bountiful,UT,84010,801-292-7483
A & D Transport LLC,1268 S Montgomery St,Salt Lake Cty,UT,84104,214-810-6902
"A & D Trucking, Inc.",2963 S 600 E,Salt Lake Cty,UT,84106,801-833-6653
A & D Trucking LLC,1268 S Montgomery St,Salt Lake Cty,UT,84104,801-503-2017
A & J Expres LLC,1415 West 11380 South,South Jordan,UT,84095,954-214-5200
A & J Oilfield Services LLC,2812 N 3450 W Lot # 10,Roosevelt,UT,84066,435-828-4023
A & J Towing And Recovery,100 North 500 West,Hinckley,UT,84635,435-864-5906
"A & K Railroad Materials, Inc.",1505 South Redwood Road,Salt Lake City,UT,84130,N/A
"A & K Railroad Materials, Inc.",1505 South Redwood Road,Salt Lake City,UT,84104,801-974-5484
"A & L Trucking Co, Inc.",3669 S 6830 W,West Valley City,UT,84128,385-439-8771
A & M Gonzalez Logistic LLC,1511 W 1120 S,Springville,UT,84663,385-299-2636
A & M Towing,4050 Hill Ave,Murray,UT,84107,801-828-6776
"A & R Transport, Inc.",3310 W. 2600 N,Brigham City,UT,84302,801-744-2201
A & S Crane Service,735 South 900 West,Orem,UT,84058,801-226-3300
A & T Transportation LLC,4173 South John Way,West Valley City,UT,84120,801-968-1274
"Utah A&w Development, Inc.",67 S West Ridge Road,Rocky Ridge Town,UT,84645,435-623-0776
"A & W Trucking, Inc.",435 E Leslie Ave,Salt Lake Cty,UT,84115,801-573-4675
A 1 Cut And Core LLC,10176 North Haven Lane,Cedar Hills,UT,84062,801-420-2983
"A 1 Pioneer Enterprises, Inc.",525 South 500 West,Salt Lake City,UT,84101,801-532-5651
A 1 Pumping Com LLC,7005 W 9600 N,Highland,UT,84003-9323,801-768-8686
A-1 Quality Service,65 South 100 East,Nephi,UT,84648,435-623-0815
A 1 Septic Tank Service,7005 W 9600 N,Highland,UT,84003,801-768-8686
A 2 9 Trucking LLC,2445 San Jose Rd,Moab,UT,84532,775-299-8728
A 2 Z Trucking LLC,852 South 4300 West,Cedar City,UT,84720,435-590-3198
A A A Demolition,3623 S 700 W,Salt Lake City,UT,84119,801-263-2122
A A A Moving Storage,175 W 2700 S Ste 260,Salt Lake City,UT,84115,801-466-2394
A A For You LLC,1125 22nd St,Ogden,UT,84401,801-686-7834
A A Transit LLC,1487 East 3900 South,Salt Lake City,UT,84124,303-665-2323
"A A Transportation, Inc.",1396 N 3330 W,Clinton,UT,84015,801-301-1878
A Action Express LLC,3363 South 700 West,Salt Lake City,UT,84119,801-534-7575
A And A Services LLC,1647 S 1950 W,Roosevelt,UT,84066,435-724-1989
A And A Trucking,6272 West Imperial Oak Dr,West Jordan,UT,84088,801-280-3984
"A And J Transport, Inc.orporated",524 N Mason Cir # 68-13,Roosevelt,UT,84066,435-353-4786
A And W Towing,5880 So 700 West,Murray,UT,84123,801-688-3488
"A B Hadley Co, Inc.",3650 Washington Blvd,Ogden,UT,84403,801-399-3341
A B M & N Enterprises,2438 West Bridle Oak,South Jordan,UT,84095,801-502-8945
A B Sewer Drain Cleaning LLC,1061 Major Street,Salt Lake City,UT,84111,801-860-3774
"A B Transportation, Inc.",1089 North 550 West,West Bountiful,UT,84087,801-244-9493
A Brand X Moving Company,5351 Hamlin Street,Murray,UT,84123,801-904-2578
Maxwell Tools,2161 Camino Way,Salt Lake City,UT,84121,801-558-9114
A C Auto,343 W 200 S,Pleasant Grove,UT,84062,801-796-8793
A C Brothers Trucking LLC,9753 S Pine Meadow Way,South Jordan,UT,84095,801-259-9197
"A C Excavation, Inc.",6899 West 7750 North,American Fork,UT,84003,801-420-3081
A C Trucking Enterprises LLC,1065 East 150 North,Springville,UT,84663,801-489-0329
A D J Trucking LLC,2039 West Todd Way,Taylorsville,UT,84119,801-503-1878
A D's Transportation LLC,58 W 400 N Apt 13,Salt Lake City,UT,84103,801-759-3402
Dalton Trucking Company,105 South 300 East,Copperton,UT,84006,801-381-6782
A E Transport LLC,2978 So Hunter Mesa Drive,West Valley City,UT,84128,801-502-1501
"A E Transportation, Inc.",Building # J5 South Freeport Clearfield Center,Clearfield,UT,84016,801-825-6688
"A F L Trucking, Inc.",845 So Main Suite 204,Bountiful,UT,84010,801-467-5001
A Garnica Trucking LLC,2713 W 2700 S,Syracuse,UT,84075,801-773-2690
A H Auto,397 So State Street,Orem,UT,84058,801-224-2820
A H Logistics LLC,1450 S West Temple Apt F202,Salt Lake City,UT,84115,801-317-3907
"A Ii Z Towing, Inc.",851 North Mccornick Way Suite D,Layton,UT,84041,801-451-5445
"A J Oyler Trucking, Inc.",1069 E Center St,Heber,UT,84032,435-654-4943
22 Bar Livestock,230 W 100 S,Henefer,UT,84033,435-640-7446
"A K Allee Trucking, Inc.",889 W 960 S,Tremonton,UT,84337,801-391-2562
"A K Jones Construction, Inc.",897 S 1600 E,Springville,UT,84663,801-489-8556
"A K Transport, Inc.",54 West Lester Ave Building 1 #11,Salt Lake City,UT,84107,801-743-6900
A K Transportation Services,5135 Sandpiper Dr,Salt Lake City,UT,84117,801-641-5729
A K Trucking LLC,148 W Oxford Rd,Sandy,UT,84070-3246,801-696-0293
"A Kar Toad Towing, Inc.",555 South Fulton St,Salt Lake City,UT,84104,801-974-9561
"A L Transportation, Inc.",1850 S 1100 W,Woods Cross,UT,84087,801-296-9646
A Land To Scape LLC,5976 W Arlinridge Dr,Herriman,UT,84065,801-446-1331
A Lazy T Ranch,9065 E 6000 S,Jensen,UT,84035,435-789-3742
A M Auto Repair LLC,2983 S 8400 W - Apt 17,Magna,UT,84044,801-708-3605
"A M Trucking, Inc.",78 W 400 S,Logan,UT,84321,801-752-0707
A M Whiting Transport LLC,2170 West 11000 North,Neola,UT,84053,435-353-4470
A Man In A Van LLC,83 South 930 East,American Fork,UT,84003,801-709-8169
A N G Transportation LLC,2817 West 4200 South,Roy,UT,84067,801-648-4690
"A N T Field Service, Inc.",1162 N 300 W,Vernal,UT,84078,435-790-0680
"A N Transport, Inc.",292 East 3900 South F1,Salt Lake City,UT,84107,801-597-8542
A N Transport LLC,957 W Teal Run Way,S Salt Lake,UT,84119,801-755-7547
A New Thing Trucking LLC,2027 W 2175 N,Lehi,UT,84043,818-588-0707
King Movers,5669 W 9600 N,Highland,UT,84003,801-860-9619
"A P Distributing, Inc.",600 E Center,Richfield,UT,84701,801-896-4475
A Plus Dumpsters LLC,2227 East Autumn Drive,Eagle Mountain,UT,84043,801-789-2518
"A Plus Hauling, Inc.",356 Old Lincoln Hwy,Grantsville,UT,84029,435-849-0804
Corys Dry Ice,281 S 100 E,Logan,UT,84321,435-770-6036
A Plus Professional Movers,175 W 2700 S Ste 260,Salt Lake City,UT,84115,801-598-5054
"A Plus Trans, Inc.",5795 W Sunview Ct,Salt Lake City,UT,84118,801-455-4881
Aqc,5736 Sagewood Dr,Murray,UT,84107,801-759-8248
A R Benson Trucking LLC,144 East 100 North,Levan,UT,84639,435-623-4307
A R M Transport LLC,5583 Deercrest Drive,West Valley City,UT,84120,801-815-8886
A Renegade LLC,510 S Hale St,Grantsville,UT,84029-9524,435-790-6905
"A Reyes Trucking, Inc.",412 Melling Way,Ogden,UT,84404-6778,385-207-9344
A Rock Asphalt Services,1636 South Pioneer Road,Salt Lake City,UT,84104,801-973-9200
Huntsman Drilling,189 E 300 S,Heber City,UT,84032,435-654-3522
A Ruttco Pallet LLC,620 West Old Mill Lane,Kaysville,UT,84037,801-543-1984
A S J Trucking,1578 W 11745 S,Riverton,UT,84065,801-254-5039
"A Salt Store And More, Inc.",5526 West 13400 South #216,Herriman,UT,84065,801-254-1000
A T Trucking LLC,1300 East Washington Dam Rd,Washington,UT,84780,435-673-7377
A To B Trucking LLC,2220 E Glacier View Dr,Sandy,UT,84092,801-420-2008
"A To Z Express, Inc.",826 Expressway Ln Unit 610,Spanish Fork,UT,84660,435-500-5005
A Transportation LLC,1685 W Garden Dr,Pleasant Grove,UT,84062,801-628-7882
A W Marshall Company,437 North 500 West,Salt Lake City,UT,84116-0127,801-328-4713
A&b Logistics Company LLC,9203 South Holiday Bowl Court,Sandy,UT,84094,385-495-0923
A&b Transportation LLC,2581 Sandbar St Bld#6 Apt#406,West Valley City,UT,84128,801-706-8054
John's Septic Service,341 S 475 E,Enterprise,UT,84725,435-231-3611
A&d Services LLC,554 North Mason Circle,Roosevelt,UT,84066,435-671-2528
A&e Transport LLC,1927 W Lieutenant Rd,Salt Lake Cty,UT,84116-4703,801-664-7558
A&f Electric Motor Rewinding Corp,1830s Hwy 21,Milford,UT,84751,435-387-2326
A&f Transport LLC,8368 S 2920 W,West Jordan,UT,84088-5377,786-725-1098
A&g Logistics LLC,8095 S Seghini Dr Apt E103,Midvale,UT,84047,407-379-4058
A&j Hauling LLC,3075 W 8450 S,West Jordan,UT,84088,801-569-2313
"A&j Transportation, Inc.",555 East Main,Moroni,UT,84646,435-262-7914
A&k Trucking LLC,3019 S Tangent Peak Rd Same,Magna,UT,84044,801-448-3739
A&l Transport LLC,255 N Main St,Ephraim,UT,84627,435-283-4998
"A&m Excavating, Inc.",2638 West 7130 South,West Jordan,UT,84084,801-564-7946
A&v Services,6959 S Adventure Way,West Jordan,UT,84081-3417,801-859-5154
A+ Xpress Transportation LLC,565 S Main St,Hurricane,UT,84737,972-595-4791
A-1 Freight Systems,172 West 9400 South,Sandy,UT,84070,801-566-2112
A-1 Independent Towing,60 E Center St,Fillmore,UT,84631,435-743-4869
A-1 Services,90 East Center Street,Oak City,UT,84649,435-846-7178
A-1 Moving & Storage,2105 Wall Avenue,Ogden,UT,84401,801-392-4422
A-1 Moving & Storage LLC,2105 Walt Ave Suite 2,Ogden,UT,84401,801-392-4422
A-1 National,140 S 500 W,Salt Lake City,UT,84101,801-541-0479
A-1 Property Services,735 West 650 South,Hurricane,UT,84737,435-635-7526
A-1 Septic,851 N 900 W,Orem,UT,84057-7701,801-768-8686
A-1 Transportation Services,172 West 9400 South,Sandy,UT,84070,801-352-7666
"A-c Electric, Inc.",729 South 330 West,Salt Lake City,UT,84101,801-364-1747
A-l Towing,4755 Plum Street,Murray,UT,84123,801-268-9797
"A-one Quality Property Maintenance, Inc.",3068 W Elmwood Drive,Riverton,UT,84065,801-597-0890
A-shed Usa,2870 S 400 West,Salt Lake,UT,84115,801-485-2424
A-team Cleaning Management,3556 West Curling Court,Taylorsville,UT,84095,801-604-1901
A-u Services LLC,2861 Crestview Drive,Santa Clara,UT,84765,770-723-6708
A-1 Converter & Core Recycler,1580 E 8600 S,Sandy,UT,84093,801-304-9392
A1 Fence LLC,82 N 2875 W,West Point,UT,84015,801-499-2400
A1 Pick N Haul Express,7165 North Highway 38 #b,Honeyville,UT,84314,801-654-8801
"A1 Testing, Inc.",630 East 500 South,Vernal,UT,84078,435-789-9777
A1 Transport LLC,3875 S Emperor Drive,Salt Lake City,UT,84123,801-808-4019
"A1+d3, Inc.",11982 S 645 E,Draper,UT,84020-7014,801-558-2610
A2b Express LLC,4190 Bountiful Blvd,Bountiful,UT,84010,801-946-2894
A2b Logistics LLC,4190 Bountiful Blvd,Bountiful,UT,84010,801-520-3030
A2b Solutions LLC,4421 Brick Oven Way Apt 104,Murray,UT,84107,801-946-2894
A2b Transportation LLC,175 N Harold St Apt 309,Salt Lake Cty,UT,84116,208-697-6589
A2z Transport,2196 N 700 W,Harrisville,UT,84414,435-757-7933
A & R Transport,3345 West 2600 North,Brigham City,UT,84302,435-744-2201
Aa Auto Glass,20 N Main,Clearfield,UT,84015,801-628-4940
Aa Recycling LLC,809 E Third Ave,84103,UT,84103,801-410-0630
"Aa Transport Group, Inc.",9325 S Red Haven Dr,Sandy,UT,84094,385-446-5424
Aa Trucking LLC,1994 N Mill Hollow Way,Cedar City,UT,84721,435-592-2321
Aaa Barricade Company,2716 West Willow Circle,Lehi,UT,84043,801-427-7337
8018088618,697 S 670 E,Orem,UT,84097,801-808-8618
"Aaa Diesel Repair & Service, Inc.",2491 Robindoux Road,Sandy,UT,84093,801-721-3429
Aaa Disaster Services LLC,476 E Riverside Dr B4,Saint George,UT,84790,877-688-0966
Aaa Logistics LLC,461 East 900 North,Ogden,UT,84404,801-243-0935
"Aaa Restoration And Carpet Cleaning, Inc.",249 W 4860 South,Murray,UT,84107,801-263-9990
Aaa Swift Disposal LLC,1318 E 4225 S,Ogden,UT,84403,801-771-0665
"Aaf Transport, Inc.",6706 S Townley Street,West Jordan,UT,84084,801-652-0977
"Aairow Comfort, Inc.",7117 S 400 W #8,Midvale,UT,84047,801-256-0076
"Aaj Transport, Inc.",257 E 4460 S Apt 3,Salt Lake Cty,UT,84107,801-919-5074
Aalin LLC,780 West 3940 South Apt Fs20,Salt Lake Cty,UT,84123,515-422-1804
"Aams Tow And Haulin Services, Inc.",1245 W 150 S,Vernal,UT,84078,435-650-8518
Aarco Compactor Baler Services Lc,4788 Garden Vista Cove,West Valley City,UT,84120,801-916-0600
"Aardvark Underground, Inc.",1240 West Uzona Ave,Hildale,UT,84784,435-874-2044
Connelly Distributing Corp,168 West 500 North,Springville,UT,84663,801-362-5611
Seperated Association,475 South State Street,Genola,UT,84655,801-754-1394
Dennison Transporting,390 South 600 East,Mount Pleasant,UT,84647,435-262-2384
Frandsen Livestock,90 S 200 West,Panguitch,UT,84759,435-690-9972
Green Grass Grows,1693 S 2750 E,Spanish Fork,UT,84660,801-836-8323
A & R Trucking,2243 West 6400 South,Spanish Fork,UT,84660,801-885-0504
Aaron Kasteler,4763 S. Medowview Road,Murray,UT,84107,801-870-8836
Aaron Orozco Caraveo,5658 S Fallwood Dr Apt 10,Taylorsville,UT,84129-3815,801-513-8220
Aaron Reeve Trucking,180 S Main,Clawson,UT,84516,435-384-3325
Maxwell Masonry Restoration & Cleaning,1245 West 700 South,Ogden,UT,84404,801-782-2700
Mobbs Trucking Co,190 S Vineyard Rd,Orem,UT,84058,801-602-8785
Aarons Transport Service,297 W Clark St,Grantsville,UT,84029,801-628-9777
Aarrowhead Fencing & Sprinkling LLC,2028 West Lawrence Circle,South Jordan,UT,84095,180-125-4493
Aatopia Salvage,746 North Harrisville Rd,Ogden,UT,84404,801-285-6100
Aav,5343 W Early Duke Dr,W Valley City,UT,84120,801-931-7753
"Ab & F Transportation, Inc.",3029 S 9000 W,Magna,UT,84044,509-424-7423
Ab Jetlines LLC,2417 Eldorado Dr,Springville,UT,84663,208-509-6890
Ab Truck Training LLC,67 W Utah Ave,Tooele,UT,84074-1634,209-237-6527
Ab Trucking & Transportation,449 S 860 E Apt A316,American Fork,UT,84003,909-455-2491
Ab Trucking LLC,2314 S 1880 E,Saint George,UT,84790-6392,435-772-6328
"Aba Enterprise, Inc.",2510 E 2150 South Circle,St George,UT,84790,435-632-5192
Abbe Logistics LLC,342 S Willey Road,Duchesne,UT,84021,505-360-0015
Abbey Carpet Of Logan,1094 N Main,Logan,UT,84321,435-755-0133
Abbott Custom Fabrication LLC,3010 W 500 S Ste 2 ,Salt Lake Cty,UT,84104-4422,801-656-8558
Abc Towing,7015w 2450s,West Valley,UT,84128,801-484-8537
Abc Transportation LLC,2325 W 14850 S,Bluffdale,UT,84065,970-640-3736
Abc Waste,832 Gladiola St,Salt Lake City,UT,84104,801-972-5702
Abco Glass Products,379 South Main St,Pleasant Grove,UT,84062,801-785-6319
Abdel Razek Sarhan,5650 W 4100 S,West Valley City,UT,84128,801-674-3256
Abdi Bros Trucking LLC,3505 S Main St,S Salt Lake,UT,84115,801-935-5063
Abdi Trucking LLC,2636 S Titanium Dr,Magna,UT,84044,801-916-1456
Abdisalan Obsiye,782 N 900 E Apt 310,Slc,UT,84116,801-708-1202
Abdul Transportation,1203 W Clubhouse Dr Apt 2916,Salt Lake Cty,UT,84123,801-662-9180
Hr Auto Towing,4800 South 150 West #21,Murray,UT,84107,801-347-6965
Abe Moura LLC,4223 W 3300 S House 259,West Valley City,UT,84120,503-269-3857
"Abe Trucking, Inc.",12142 South Tule Mountain Cove,Herriman,UT,84096,801-860-7554
Abe Trucking LLC,312 Greenwich Dr,North Salt Lake City,UT,84054,801-860-7554
Cc Scorpion,861 W Rontano Ct,Midvale,UT,84047,801-696-5880
Abel Trucking LLC,147 N Main St Ste P,Richfield,UT,84701,702-371-5471
Abes Towing,6062 W 9860 S,West Jordan,UT,84088,801-282-2665
Abex Express LLC,4037 S 3425 W,West Haven,UT,84401,801-628-5039
Abh Transport LLC,1181 W 525 N,Clearfield,UT,84015,801-695-5798
Abj Transportation LLC,6383 S High Bluff Dr,Salt Lake Cty,UT,84118,801-898-6933
Abl Tank Lines LLC,901 South 1800 West,Woods Cross,UT,84087,385-309-0555
Abl Transport LLC,901 S 1800 W,Woods Cross,UT,84087,385-722-7331
Abl Trucking LLC,901 S 1800 W,Woods Cross,UT,84087,480-384-0800
"Able Auto And Towing, Inc.",4571 S 300 W,Murray,UT,84107,801-288-2039
Able Demolition And Salvage Corp,2997 So 300 West,Salt Lake City,UT,84115,801-520-3248
Abm Express LLC,2682 E 1300 S,Salt Lake City,UT,84108,801-410-6679
"Abm Janitorial Services, Inc.",2702 S 1030 W #10,Salt Lake City,UT,84119,801-558-7474
"Abners, Inc.",4495 Tomahawk Drive,Enoch,UT,84720,435-586-2239
Dba,4557 W Losee Dr,W Valley City,UT,84120,801-903-9839
Abo Transport LLC,882 W Foxboro Dr Apt H303,N Salt Lake,UT,84054,385-900-3667
"Above & Under Construction, Inc.",8826 E 100 S,Huntsville,UT,84317,N/A
Aa Row,2481 W 580 N,Cedar City,UT,84721,143-586-7181
Above All Trucking,670 East Blue Sky Drive,Enoch,UT,84720,435-867-5338
Above And Beyond Enterprises LLC,1624 S Pioneer Rd,Salt Lake City,UT,84104,801-891-9546
"Above And Beyond Logistics, Inc.",558 N Redwood Road #2-2,Salt Lake City,UT,84116,801-953-1811
Above The Waste LLC,4638 Loyola Street,West Valley City,UT,84120,801-963-6909
"Abraxas Logistics, Inc.",455 East Center St,Levan,UT,84639,202-521-1493
"Abreu Trucking, Inc.",14902 Steep Mountain Dr,Draper,UT,84020,801-652-3941
Abreus Transport LLC,2243 E Aspen Hills Dr,Sandy,UT,84092,951-446-7877
Abs Of Utah LLC,1683 West Alvey Dr,Mapleton,UT,84664,801-381-5028
Abs Packaging LLC,1545 South 4800 West,Salt Lake City,UT,84104,801-721-0532
Abs Towing & Storage,180 E 1230 N,Springville,UT,84663,801-489-1276
Abs Transport LLC,32 W 200 S Pmb 350,Salt Lake Cty,UT,84101,214-810-6902
"Absolute Constructors, Inc.",5415 West Leo Park Rd,West Jordan,UT,84081,801-748-2256
"Abstract Masonry Restoration, Inc.",681 South 4050 West,Salt Lake City,UT,84104,801-505-4977
Abundant Health,144 W 1900 N,Spanish Fork,UT,84660,801-794-9860
Abw Transport LLC,1816 N 300 E Unit 101,North Ogden,UT,84414,208-899-3548
"Abx Transportation, Inc.",5959 W Wolf Creek Ct,Salt Lake,UT,84118,951-538-0279
Ac Freight Services LLC,6374 W Lake Ave,South Jordan,UT,84009-1364,801-358-2067
Ac Three Boys Trucking,684 W 800 N Apt 27,Clinton,UT,84015,801-737-6842
Ac Trucking And Leasing,3475 West 8245 South,West Jordan,UT,84088,801-282-6408
"Academy Trucking, Inc.",3505 S 200 E,Salt Lake Cty,UT,84115,801-822-6632
Acarr Transport LLC,2748 W 5600 S,Roy,UT,84067,727-557-4735
Acc Trucking LLC,5384 W Elaine Ave,West Valley City,UT,84120,801-979-5119
Accelerated Services LLC,329 East 1640 North,Pleasant Grove,UT,84062,801-372-7316
Accent Doors & Trim LLC,150 W 4800 S #45,Murray,UT,84107,801-288-1411
"Accident Pros, Inc.",17 East 200 South,Brigham City,UT,84302,435-723-0525
Trespass Hades,1018 West Margaret Ave,Salt Lake City,UT,84104,801-487-2744
Accurate Auto Transport,Hc 35 Box 108 Lot 77 Kenilworth Subdivision,Kenilworth,UT,84529,435-472-0110
"Accurite Excavation & Hauling, Inc.",3912 Adams Ave,South Ogden,UT,84403,801-392-0831
"Accurite Transportation, Inc.",1834 River Run Dr,Huntsville,UT,84317,801-814-6975
"Accutech Machine, Inc.",552 South Gladiola St,Salt Lake City,UT,84104,202-521-1493
Acd Engines,2936 South Highland Drive #100,Salt Lake City,UT,84106,801-486-4360
Acd Transportation LLC,118 W 930 N,Orem,UT,84057,801-830-5866
Ace 24hour Towing,3330 South State St,Salt Lake City,UT,84115,801-889-0000
Ace Cutting And Coring,605 W 6300 S,Murray,UT,84123,801-699-8530
"Ace Delivery Service, Inc.",3033 S Eucalyptus Way,Salt Lake City,UT,84119,801-956-9447
"Ace Disposal, Inc.",2274 South Technology Drive,West Valley City,UT,84119,801-363-9995
Ace Distributing,1319 West 3100 North,Pleasant View,UT,84414,435-668-4719
Ace Distribution LLC,375 W Sandy Ln,Salina,UT,84654,435-287-9570
Ace Freight LLC,990 N 500 W,Lehi,UT,84043,385-251-7814
Ace Intermountain Recycling Center LLC,1240 S Wallace Rd,Salt Lake City,UT,84104,801-886-7230
Ace Property Maintenance,7065 South 31 West,Midvale,UT,84096,801-446-4333
