Company Name,Street Address,Address Locality,Address Region,Postal Code,Telephone
Mjs Trucking,7012 So 21st Dr,Phoenix,AZ,85041,602-516-4164
Southern Arizona Auto Company Of Douglas,1200 G Avenue,Douglas,AZ,85607,520-364-2424
Sedona Phoenix Shuttle,110 Wild Horse Mesa Drive,Sedona,AZ,86351,928-282-2066
Northern Recovery & Transport,2534 N Fox Run Drive,Flagstaff,AZ,86004,928-526-5323
Haltrans,12802 East Moreno Street,Dewey,AZ,86327,928-775-0590
Chanc Klein,453 E Mesa Vista Lane,Mesa,AZ,85203,480-799-8123
Krate Trucking,9419 East Jenan Drive,Scottsdale,AZ,85260,480-636-7272
A Cervantez Trucking,11238 West Hildalgo Ave,Tolleson,AZ,85353,623-570-1053
A M Moves,1375 Park Lane 2,Bullhead City,AZ,86442,928-758-4600
Swt,3335 W Mclellan Blv,Phoenix,AZ,85017,602-814-2670
Bratel Transportation,6027 W Olive Avenue Apt 118,Glendale,AZ,85302,623-570-7133
Deck's Transportation,44885 W Edwards Avenue,Maricopa,AZ,85139,520-709-3373
Jaime Arriaga Transportation,9445 S Van Drive,Tucson,AZ,85736,520-822-1271
Southern Arizona Transport,267 N Rodriguez St Apt 1,Nogales,AZ,85621,520-971-3504
Corona Trucking,13050 N 77 Ave,Peoria,AZ,85381,623-547-5949
Ag'z Transport,17927 N Parkview Place #20103,Surprise,AZ,85374,623-764-0300
Route 66 Auto & Truck Recyclers & Sales,4233 S 35th Avenue,Phoenix,AZ,85041,602-268-0266
Obie's Trucking,3848 W Lawrence Rd,Phoenix,AZ,85019,602-499-1107
Islas & Sons Transport,1668 S 218th Lane,Buckeye,AZ,85326,623-386-3937
Value Transport,8601 South Us Hwy 85,Buckeye,AZ,85326,602-249-5501
Antonys Trucking,4369 W County 14st,Yuma,AZ,85365,831-998-1690
All American Auto Transport,3010 W Kristal Way,Phoenix,AZ,85027,818-572-6092
Lucky 13 Trucking,39414 W Cheery Lynn Rd,Tonopah,AZ,85354,623-742-8545
Cactus Import Auto Sales,3118 W Thomas Rd # 708,Phoenix,AZ,85017,480-652-4713
Alvarez Transport,2776 S Avenue 2 1/2 E Apt 98,Yuma,AZ,85365,928-726-7572
Peralta Truckings,3160 N Silver Hill A,Nogales,AZ,85621,520-761-1317
J & E Transport,1629 Babbit Lane,San Luis,AZ,85349,928-271-3410
Cole's Trucking,19013 West Geronimo Lane,Fort Thomas,AZ,85536,928-485-9320
Am Trucking,4216 W 5th Lane,Yuma,AZ,85364,928-376-0331
Rcf Trucking,1001 N 43 Ave Lot J148,Phoenix,AZ,85009,623-986-4749
Candelario Alvarez Trucking,9410 W Jefferson St,Tolleson,AZ,85353,623-907-4243
Phantom Express,8010 S Ave Del Yaqui,Guadalupe,AZ,85283,480-491-5487
Peter Trucking,204 E Genevive Street,San Luis,AZ,85349,928-722-5810
Hbh Hotshot Services,2436 West Lincoln Suite 105,Phoenix,AZ,85009,602-485-3687
Cameo Trucking,1235 S Gilbert 3 Pmb 6,Mesa,AZ,85204,480-720-6258
Quik Freight,10602 S Garnet Sky Ct,Vail,AZ,85641,520-971-2892
Dunbar Trucking,2082 W Cave Cotton Loop,Benson,AZ,85602,520-720-6186
Dr Distribution LLC,8687 W Bajada Rd,Peoria,AZ,85383,623-266-3181
Ats,1936 N Tortoise Trail,Dragoon,AZ,85609,520-869-6003
Outlaw Cattle Co,2360 E Dripping Springs Rd,Winkelman,AZ,85292,602-402-6382
Casa Grande Transport,207 W 10th St,Casa Grande,AZ,85122,520-414-0408
Nitro Express,502 E Marco Polo Rd,Phoenix,AZ,85024,623-516-2478
Moving Connection,6320 N 63rd Ave #50,Glendale,AZ,85301,623-455-8113
Transporte Supremo LLC,523 N Archibald St Apt 2,San Luis,AZ,85349,602-769-5067
Rick Delivery Company,4918 East 25th St,Tucson,AZ,85711,520-495-5615
All-n-1 Environmental Services,10436 Bermuda Crt,Mohave Valley,AZ,86440,866-557-3509
S & R Transportation,6517 S Star Diamond Place,Tucson,AZ,85706,520-818-8776
Cz Trucking,10839 E Apache Trail Ste 140,Apache Junction,AZ,85220,480-313-9921
Dem Carrier,2410 Mandalay Dr,Lake Havasu City,AZ,86404,702-378-5015
Lafountain Transfer,1871 S Voyager,Gilbert,AZ,85296,480-251-1155
Lisa Transport,12504 North Stone Ring Drive,Marana,AZ,85653,520-465-4065
1st Arizona Auto Transport,13612 N 20th Street,Phoenix,AZ,85022,602-971-9611
Csm Transport,13001 S Tuthill Rd,Buckeye,AZ,85326,719-447-5319
R & R Trucking,8385 N Merilee Lane,Flagstaff,AZ,86004,928-526-4306
D & G Transport,2416 W Portobello Avenue,Mesa,AZ,85202,602-295-4259
Alston Transfer,2828 Starlight Apt 1,Prescott Valley,AZ,86314,928-772-0190
Ez Moving And Cleaning,741 W Juanita Ave,Gilbert,AZ,85233,480-323-6877
Ol And Sons Transportation,11786 W Aster Dr,El Mirage,AZ,85335,602-451-5480
J Dougherty Trucking,2700 E Suffock Ave,Kingman,AZ,86409,928-757-8958
3 Gorillas Moving & Storage,954 W Prince Rd,Tucson,AZ,85705,529-638-6744
Yrs Transport,7007 W Indian School Rd #1286,Phoenix,AZ,85033,N/A
T C Transporting,6528 Nuttal Dr,Kingman,AZ,86401,928-692-0336
Curtis C Ramsey Trucking,29590 N Little Leaf Drive,Queen Creek,AZ,85243,480-216-9963
Marpau Trucking,531 Figueroa Street,San Luis,AZ,85349,928-271-4364
Aba Transport,6480 N 82nd St Apt 110,Scottsdale,AZ,85250,623-242-7801
American Wheels Transport,6545 W Pioneer St,Phoenix,AZ,85043,602-568-4170
Wanted,7739 E Broadway Blvd,Tuscon,AZ,85747,520-342-8203
Campbell's Trucking,5120 W Philips Rd,Eloy,AZ,85231,602-622-1717
Teresa G Tafoya Transport,4110 N 18th Dr,Phoenix,AZ,85015,602-841-3533
Roshna Trucking,7450 W Via Del Sol Dr,Glendale,AZ,85310,623-505-8395
Dust Technologies Int,7898 East Acoma Suite 104,Scottsdale,AZ,85260,480-922-5711
Brickley Delivery Service,2603 W Summits End Ct,Tucson,AZ,85742,520-219-1668
Canyon State Transportation,6800 N Camino Martin,Tucson,AZ,85740,520-744-9433
Noteworthy Piano Moving,1314 E Palo Verde Dr,Phoenix,AZ,85014,602-795-8413
G & J Trailer And Auto Transport,24775 N San Francisco St,Paulden,AZ,86334,928-554-6462
M C Eaton Express,2120 N Resting Pl,Chino Valley,AZ,86323,928-713-8001
A & T Transport,3786 S Hinckley Drive,Yuma,AZ,85365,928-219-9328
Rolys Trucking,705 N 111th Dr,Avondale,AZ,85323,909-200-5276
Tyler Trucking,2488 S Kadomoto Dr,Cornville,AZ,86325,928-274-0360
Jcs Club Service & Recovery,10213 Harbor Ave Ste C5,Mohave Valley,AZ,86440,928-768-6666
Dave's Automotive,281 W Round Valley Road,Payson,AZ,85541,928-474-4440
Servicemaster By Cox,675 Marina Blvd,Bullhead City,AZ,86442,928-763-7101
M&z Transport,9715 E Flanders Road,Mesa,AZ,85207,480-223-7963
A & A Transport,8610 E Old Spanish Trail # 109,Tucson,AZ,85710,520-260-3827
A I Express,3350 Williams Road,Golden Valley,AZ,86413,928-303-1843
Javid Trucking,5964 S Morris Blvd,Tucson,AZ,85706,520-264-6351
Townley Transportation,3122 W Rice Rd,Benson,AZ,85602,520-909-5161
Temo & Son's Trucking,300 W Gold Hill Rd #1,Nogales,AZ,85621,520-375-1660
Desert Logistics,1862 N Desert Willow St,Casa Grande,AZ,85222,520-705-6381
1st Class Refrigerated Services,3121 W Pima St,Phoenix,AZ,85009,602-570-3914
J J Express,5201 W Camelback Rd Lot D80,Phoenix,AZ,85031,602-348-9901
Vision Transportation,3900 West 22nd Ln Apt 8a,Yuma,AZ,85364,928-782-3991
Resendiz Trucking,12209 W Edgemont Ave,Avondale,AZ,85392,623-703-8040
Lemke Trucking,Old Winkleman Rd,San Carlos,AZ,85550,928-475-5028
Greyfox Trucking Co,15817 N 38th Ave,Phoenix,AZ,85053,602-696-2235
Gt Auto Haulers,4300 N Avenida De Pimeria Alta,Tucson,AZ,85749,520-609-0193
Anna P Sanchez,4649 N Guadal Ct,Phoenix,AZ,85037,623-463-2453
Primo Transportation,5455 S Bonnie Ave 4,Tucson,AZ,85706,N/A
Royce Trucking,878 Shadow Lane,Lakeside,AZ,85929,928-368-5162
Jdm Trucking,2112 W Medlock Drive,Phoenix,AZ,85015,602-459-2273
Darrel Shreve - Same-way Trucking,1938 S Buena Vista Dr,Apache Junction,AZ,85220,480-288-4927
Tsi Transportation,11417 W Olive Dr,Avondale,AZ,85392,602-233-2717
Kreider Transportation,14460 East 28th Lane,Yuma,AZ,85367,480-463-7383
S & K Trucking,2204 Hopi Lane,Lake Havasu City,AZ,86403,928-453-2642
Porky's,7102 W Banff,Peoria,AZ,85381,623-297-3267
Cks Transport,15748 S Val Vista Rd,Mayer,AZ,86333,602-538-8823
Truckers Bring It,8224 Mohave Lane,Yuma,AZ,85364,928-246-5834
Mch Transportation,8164 W Buckeye Road,Phoenix,AZ,85043,623-344-3053
Concinnity Trucking,7623 W Redwall Dr,Golden Valley,AZ,86413,816-427-8132
Mejia's Trucking,8622 N Varallo Drive,Kingman,AZ,86409,909-630-3419
Mpv Trucking,1064 Babbit Lane,San Luis,AZ,85349,928-722-5614
Valley Blanco Trucking,2055 E Virginia St,Tucson,AZ,85706,520-807-0578
Pm Transportation,401 W Placita Durango,Tucson,AZ,85706,520-404-3913
Jrc Transportation,300 W Gold Hill Rd Apt 21,Nogales,AZ,85621,520-665-8404
Garrett Logistics LLC,31022 N 165 Dr,Surprise,AZ,85387,623-544-5759
Ingle Transport,3507 E Coralbell Avenue,Mesa,AZ,85204,801-558-4339
J Pagan Trucking,5915 W Villa Street,Phoenix,AZ,85043,602-757-7802
Flo Trans,24631 N 35th Dr,Glendale,AZ,85310,623-698-6487
Lantz Transportation,250 E Walton Ave,Coolidge,AZ,85218,520-723-5765
Rg Transportation,690 West Mesquite Place,Nogales,AZ,85621,520-400-7996
Us Express Logistics Group,12930 W Clarendon Ave,Avondale,AZ,85302,623-330-9217
Jose Colmenares Trucking,40 North Central Ave Apt1400,Phoenix,AZ,85004,602-515-7228
A & J Transportation,4521 North Thurman Drive,Golden Valley,AZ,86413,928-303-7373
Artemis Transport,13230 N 76th Place,Scottsdale,AZ,85260,480-203-1416
Cross Docks Of Yuma,4249 E Gila Ridge Road,Yuma,AZ,85365,928-726-6771
T&m Transport,117 Camino Don Guillermo,Nogales,AZ,85621,520-377-9392
Mariano & Sons Trucking,16040 N Holly Hock Rd,Surprise,AZ,85374,623-455-1098
Hutson Land & Cattle Co,3661 East Antelape Rd,Pearce,AZ,85625,520-730-5662
Papachines Trucking,421 Via Calandria,Rio Rico,AZ,85648,520-309-7187
Ricabas Trucking,1065 Circulo Ventura,Rio Rico,AZ,85648,520-988-1149
C & S Carrier LLC,9406 W Sheridan St,Phoenix,AZ,85037,678-697-7968
Palomos Trucking,1251 N Pendalton Dr,Rio Rico,AZ,85648,520-281-4841
Rdp's Overthehill Trucking,14650 S Avenida Red Roan Rd,Sahuarita,AZ,85629,520-648-0533
E&s Trucking,12745 E Hwy 66,Valentine,AZ,86437,928-769-2707
Rcf Transport,3619 W Lamar Rd,Phoenix,AZ,85019,602-278-8765
Los Chinos Trucking,3071 W Coriander Dr,Tucson,AZ,85741,520-887-0176
Khazraji Transportation & Delivery,3202 West Rose Lane,Phoenix,AZ,85017,602-380-2580
Rm&sons Trucking,7261 E 25th Place,Yuma,AZ,85365,928-276-9290
M&k Transport,9020 E Henry Pl,Tucson,AZ,85710,520-370-2829
L And B Delivery,6622 W Hughes Dr,Phoenix,AZ,85043,602-799-0415
Accent Limo,2324 E Wayland Dr,Phoenix,AZ,85040,602-904-6232
Ayala Trucking,2901 N Grand Ave Space #58,Nogales,AZ,85621,520-281-9506
Ko Transport Service,1015 E Meadowbrook Ave,Phoenix,AZ,85014,480-212-2975
Mendez Transportation,11371 W Locust Lane,Avondale,AZ,85323,623-670-2136
A & O Transport,7786 N 88 Ln,Glendale,AZ,85305,949-448-0620
C & C Cerritos Trucking,3811 N 27th Ave Lot 46,Phoenix,AZ,85017,480-339-9351
Prsc Trucking,1810 E Blacklidge Dr,Tucson,AZ,85719,520-250-7748
Elva Trucking,1068 W Paul Bond Dr L103,Nogales,AZ,85621,480-242-0251
Aztec Express,220 W Bell Road #1010,Phoenix,AZ,85023,602-578-7661
Century Transport,6024 W Claremont St,Glendale,AZ,85301,623-547-6623
Brothers Express,2252 Pueblo St,Yuma,AZ,85364,619-250-8246
Mighton Trucking,3611 E Ahwatukee Dr,Phoenix,AZ,85044,602-538-4405
American Express Logistics,14175 West Indian School Road Suite B4-614,Goodyear,AZ,85395,602-732-4541
Gma Transportation,2830 W Coronado Road,Phoenix,AZ,85009,623-340-3639
Chase Cattle,9621 S 156 Pl,Gilbert,AZ,85234,602-768-0588
Rkm Distributing,1400 E Binner Drive,Chandler,AZ,85225,480-220-5226
Muvit LLC,3650 W Keim Dr,Phoenix,AZ,85019,602-299-3497
Anderson Transport,2709 S 185th Dr,Goodyear,AZ,85338,602-292-6666
Double J Trucking,876 E Desert Rose Trail,San Tan Valley,AZ,85143,480-332-2289
Rdkr Trucking,615 N New Haven Cir,Mesa,AZ,85205,480-924-8095
Popos Trucking,936 Calle Dura,Rio Rico,AZ,85648,520-980-0262
H L Foster Transport,1981 W Khaibar Place,Tucson,AZ,85704,520-303-3394
T & S Trucking,6766 W Illinois St,Tucson,AZ,85735,520-250-7748
S&b Moving,3932 W Sahuaro Dr,Phoenix,AZ,85029,602-663-0858
Exile Transport,3880 Stockton Hill # 103,Kingman,AZ,86409,928-530-8300
Arizona Shuttles Transporte LLC,523 N Arichabald St Apt # 2,San Luis,AZ,85349,928-257-8837
Yonke El Rey Transportacion,3323 E Mcdowell 38,Phoenix,AZ,85008,602-306-1967
Guardians,8243 W Leyva Ln,Peoria,AZ,85345,623-773-9731
Global Link,4214 East Glenrosa Ave,Phoenix,AZ,85018,206-227-6925
O And R Trucking,20915 S 194th St,Queen Creek,AZ,85242,480-212-2428
Rv Boat And Bike Transpoert LLC,9475 W Picture Rocks Rd,Tucson,AZ,85743,520-682-0907
Fire House Moving Co,6901 N 185th Ave,Waddell,AZ,85355,623-695-1999
Beto's Trucking,1264 W La Porte Ln,Tucson,AZ,85714,520-889-4102
M G 3 Trucking,12515 W Del Rio Ln,Avondale,AZ,85323,623-565-4064
Daddy's Business,9291 N Jersey Lane,Tucson,AZ,85742,520-429-2152
John H20's Hauling,10336 Cana St,Hereford,AZ,85615,520-818-8221
Interexpress Transportation,2850 W Camelback Rd,Phoenix,AZ,85017,602-441-7025
Eagle Vision Transport,2020 W Glendale Ave Apt 2131,Phoenix,AZ,85021,623-742-8903
National Transportation,36414 N Texas Ranger Road,Santan Heights,AZ,85240,N/A
Desert Transport,5970 South Pin Oak Drive,Tucson,AZ,85746,520-573-5944
A Total Roof Service,4530 N 10 Ave,Phoenix,AZ,85013,602-233-3141
Dusty Trails Trucking,14672 South Radondo Rd,Arizona City,AZ,85123,520-494-0350
Hollingsworth Transport,34801 Sunrise Circle,Black Canyon City,AZ,85324,623-374-9009
Villarreal & Son's Trucking,1589 E Silver Reef Dr,Casa Grande,AZ,85122,520-466-2076
Speedy Septic Tank,Navajo Rt 7,Chinle,AZ,86503,928-674-5405
Andy's Recycling Service,805 E Miller Rd,Payson,AZ,85541,928-970-1999
Jr Transport,5984 S Placita Picacho Del Diablo,Tucson,AZ,85706,520-437-6290
Mike Loye Trucking,11000 W Lane Ave,Glendale,AZ,85307,623-594-4443
Takyuka Johnson,1323 East Stirrup Lane,Queen Creek,AZ,85143,480-888-0926
J M R Trucking,1970 W Airport Rd,Willcox,AZ,85643,520-384-9135
Flavio's Trucking,1002 W Lincoln,Tucson,AZ,85714,520-393-8305
Mann Trucking,9128 W Alvarado,Phoenix,AZ,85037,623-980-5973
Conner Corp Transport,4303 W Mountian View,Glendale,AZ,85302,480-580-8324
Riteway Xpress,1525 E Cheryl Dr Apt 1136,Phoenix,AZ,85020,N/A
E & B Trucking,5325 W Carson Rd,Laveen,AZ,85339,602-725-2215
Miranda Trucking,773 N 2nd Ave Apt B,San Luis,AZ,85349,928-271-3074
Mesquite Livestock,30325 W Vale Dr,Buckeye,AZ,85396,602-622-1066
Dee Dees Trucking,14828 N 54th Ave,Glendale,AZ,85306,623-215-2744
Rk Trucking,4606 N 94th Drive,Phoenix,AZ,85035,623-670-7660
K & J Transportation,1945 S Amalia Ave,Tucson,AZ,85713,520-250-7748
Jr Trucking,8209 W Superior Ave,Phoenix,AZ,85043,602-278-8765
T & G Trucking,2787 W Willow Tree Lane,Willcox,AZ,85643,520-384-4608
Avanti Express,1042 Via Rita,Rio Rico,AZ,85648,520-281-8656
Transportes Correcaminos Rojas,282 Poco Ct,Rio Rico,AZ,85648,520-281-4152
Blister Transport LLC,16062 W Tohono Dr,Goodyear,AZ,85338,623-882-1373
Yosemity Transportation,34019 W Superior,Tonopah,AZ,85354,602-721-6404
Muniz Trucking,8164 W Buckeye Rd,Phoenix,AZ,85063,623-521-6122
Blue Thorn,1598 W Lavender Sky,Tucson,AZ,85746,520-396-4050
Landeros Auto Transport,8179 Coconino Lane,Yuma,AZ,85364,928-782-1354
Blue Star Enterprise,23775 W Wayland Dr,Buckeye,AZ,85326,520-250-7748
Tejada Transport,315 N Keith Street,Apache Junction,AZ,85120,831-970-2477
Caspers Trucking,2201 W Knagge Ln,Willcox,AZ,85643,520-282-3133
Ron Baker Trucking,3654 Hwy 95 Sp23,Parker,AZ,85344,714-322-5943
D'cache Transport,23740 W Hwy 85 Lot 31,Buckeye,AZ,85326,623-327-1957
Cms Transportation Company,422 S 33rd Ave,Phoenix,AZ,85009,602-258-6500
Dedicated Transport,53050 W Jennifer,Maricopa,AZ,85139,520-568-3087
Magana Transport,2315 N 91st Glen,Phoenix,AZ,85037,623-466-0978
Brian Forsberg Transport,3920 W Clarendon Avenue,Phoenix,AZ,85019,602-442-0860
Quest Trucking Brokerage,11361 S Avenue 3 3/4 East Lot #d,Yuma,AZ,85364,928-317-9160
Gb Transport,332 Nuevo Leon Ct,Rio Rico,AZ,85648,520-281-4485
Rips Transport,18011 W Yuma Road,Goodyear,AZ,85338,623-298-9942
Htt Transportation,259 W Mountain Sky Ave,Phoenix,AZ,85045,480-460-9181
Barajas Trucking,8607 N 31st Ln,Phoenix,AZ,85051,602-283-1306
A & Jr Trucking,7140 W Monte Vista,Phoenix,AZ,85035,623-703-4682
Ljb Trucking,15329 N 86th Ave,Peoria,AZ,85381,623-594-2857
F M Express Moving,19413 N 15th Ave,Phoenix,AZ,85027,623-492-9559
R D Graves Transportation,4765 E Amber Sun Drive,Cave Creek,AZ,85331,480-214-3139
Universal Auto Transport,6011 E Campo Bello Drive,Scottsdale,AZ,85254,480-329-6869
De La Riva Trucking,1530 Fairway Dr,Nogales,AZ,85621,520-397-0553
S B Trucking,711 N Redwood Ln,Buckeye,AZ,85326,623-327-1846
Rc Trucking,14477 First Ave,Parker,AZ,85344,702-644-4981
F J C Transportation,308 E Harrison Drive,Avondale,AZ,85323,623-932-0599
R D C Trucking,8615 N 41st Drive,Phoenix,AZ,85051,623-374-7407
G T Transport,11402 W Southern Avenue,Tolleson,AZ,85353,623-907-3655
D & J Express,11716 S Camino San Matias,Tucson,AZ,85706,520-889-5868
Trigueros Trucking,145 C Street,San Luis,AZ,85349,928-627-1757
J M Transportation Express,7463 W San Miguel Ave,Glendale,AZ,85303,623-848-4343
Jo Trucking,12633 W Del Rio Ln,Avondale,AZ,85323,480-280-2408
Juan Suazo,1725 N Aztec,Tucson,AZ,85745,520-882-2678
Rg Transport,9940 N Roxbury Drive,Tucson,AZ,85737,520-877-3222
E K & J Brothers Trucking,14789 W Windsor Ave,Goodyear,AZ,85338,623-266-2301
I & F Trucking,816 E Edison Ave,Buckeye,AZ,85326,623-386-1283
H&a Transport,8817 N 57th Dr,Glendale,AZ,85302,602-451-5002
Rita Transort,41192 N Vine Ave,Queen Creek,AZ,85242,480-655-6358
Rcr Express,4372 E Carla Vista Dr,Gilbert,AZ,85295,480-730-2329
Faith Liine Transport Co,5115 W Shumway Farm Rd,Phoenix,AZ,85339,559-289-9917
Justa Trucking,1500 So Apache Rd,Buckeye,AZ,85326,602-920-7854
Batek & Sons Trucking,215 Pittsburgh Street,Paulden,AZ,86334,928-636-7022
Magallanes Trucking,148 S Magnolia Ave,Yuma,AZ,85364,928-782-5521
Hearron Transport,2351 Camero Court,Lake Havasu,AZ,86404,928-412-7259
Brothers Trucking,3017 W Coronado Rd,Phoenix,AZ,85009,602-795-3307
Bcdgg-mega Trucking,9005 W Hilton Ave,Tolleson,AZ,85353,623-742-9419
Manriquez Transport,9212 N 12th Place,Phoenix,AZ,85020,602-749-5825
Six Gun Trucking,4155 W Co 12th St,Yuma,AZ,85365,928-210-6340
Circle Bar D Transportation,17734 W Husker Ln,Marana,AZ,85653,520-904-3836
R & K Trucking,313 5th Ave West,Buckeye,AZ,85326,623-386-4377
Zarate Trucking,1415 West Sack Drive,Phoenix,AZ,85027,480-212-3212
Brothers Trucking,12402 W Elwood Street,Avondale,AZ,85323,623-932-2118
One Rom Trucking,15462 W Shangri La Rd,Surprise,AZ,85379,480-621-2580
Garcias Trucking,1505 East Hatcher Road,Phoenix,AZ,85020,602-906-0803
Peluche & Company Harvesting,12700 South Somerton Avenue,Somerton,AZ,85350,928-329-6185
J & D Espinoza Trucking,4221 N 79th Lane,Phoenix,AZ,85033,602-896-7009
Carmona Transport,1509 S. 11th Ave,Yuma,AZ,85364,909-728-0380
Hour Express,12050 N 89th Dr ,Peoria,AZ,85345,623-547-2202
O & E Transport,5609 S 53rd Dr,Laveen,AZ,85339,602-295-4539
N V S Auto Transport,18832 N 3rd Avenue,Phoenix,AZ,85027,623-580-0723
Highland Trucking & Excavation,1805 E 2nd Street,Springerville,AZ,85938,928-245-2222
Lobos Trucking,30110 W Roosevelt St,Buckeye,AZ,85396,623-824-4255
Alpine Trucking,582 Arciga Dr,San Luis,AZ,85349,928-722-0100
Ftv Trucking,934 E Doris St,Avondale,AZ,85323,623-337-5043
Hft LLC,12680 West Waverly Drive,Casa Grande,AZ,85294,520-705-7785
E & E Trucking,232 E Delano,Tucson,AZ,85705,520-792-8218
Victor Mobile Service,1361 E La Mesa Street,Yuma,AZ,85365,928-580-0902
Eisner Trucking,550 W Iris Rd,Paulden,AZ,86334,928-636-7873
Tlc Trucking,2929 North 44th Street Suite 220,Phoenix,AZ,85018,602-445-6218
2 Black Sheep Trucking,11323 W Loren Lane,Peoria,AZ,85345,602-757-2872
West Coast Logistics,6584 S 258th Drive,Buckeye,AZ,85326,623-386-4344
A&p Lopez & Sons Trucking,8830 W Cambridge Ave,Phoenix,AZ,85037,623-936-3588
Lrrd Trucking,6502 W Keim Drive,Glendale,AZ,85301,623-931-5691
M I Trucking,4644 W Sierra St,Glendale,AZ,85304,623-606-0252
Superstition Transport,1393a E Superstition Blvd,Apache Junction,AZ,85219,480-236-1949
Sanches Trucking,6722 North 26th Drive,Phoenix,AZ,85017,602-242-3310
Peralta Trucking,6060 N Smokerise Drive,Flagstaff,AZ,86004,928-527-3095
Esparzas Brothers Trucking,20622 W Narramore Road,Buckeye,AZ,85326,623-255-5563
E & M Trucking,11552 W Cottonwood Ln,Avondale,AZ,85323,602-484-7226
Jrt Trucking,10904 W Elm St,Phoenix,AZ,85037,623-245-9589
Sid Transportation,7270 Laguna Dam Road D-14,Yuma,AZ,85365,928-341-9707
Flores Trucking,3264 W Phillips Rd,Queen Creek,AZ,85242,480-888-0560
Cachorros Transport,7719 S 73rd Dr,Laveen,AZ,85339,602-502-8115
Pareo Trucking,9413 West Hubble Street,Phoenix,AZ,85037,623-936-5376
Tdld Transport,816 Delano Ave,Prescott,AZ,86301,928-773-6388
A O C Transport,6032 N 60th Ave #b,Glendale,AZ,85301,602-571-9541
E & C Trucking,226 W Calle Garcia,Tucson,AZ,85706,570-269-2769
Ross Transport,6014 S 16th Ln,Phoenix,AZ,85041,602-276-8788
Quinons Trucking,131 S 229th Dr,Buckeye,AZ,85326,623-337-1277
Rios Transportation,4109 E Huntington Dr,Phoenix,AZ,85040,602-454-0738
Midnight Movers,902 South 27th Avenue,Phoenix,AZ,85009,602-443-7474
Charlie Express,1400 8th Street,Parker,AZ,85344,623-680-4982
Dayo Trucking,18434 N 33rd Avenue,Phoenix,AZ,85053,602-595-2290
Mitavo Express,2918 W Missouri Ave,Phoenix,AZ,85017,602-544-3120
C And C Transportation,3009 North 83rd Drive,Phoenix,AZ,85037,623-845-9248
Cristo Vive Trucking,7736 W Minnezona Ave,Phoenix,AZ,85033,623-433-8156
Big Bully Trucking,20435 W Elliot Rd,Buckeye,AZ,85326,623-322-4089
Black Velvet Transportation,3027 N 26 St,Phoenix,AZ,85016,602-320-6422
Ruben's Transportation,9309 W Adams St,Tolleson,AZ,85353,623-478-1405
C Boys Trucking,5832 W Coronado Rd,Phoenix,AZ,85035,602-368-4037
Marcel Trucking,12825 W Mandalay Ln,El Mirage,AZ,85335,623-455-9005
Quequeeburggee Transportation,726 W Live Oak St,Miami,AZ,85539,480-688-6917
Piceno Trucking,1577 Constitution Street,San Luis,AZ,85349,928-627-5431
A & T Transportation,6801 N 32 Ln,Phoenix,AZ,85017,602-754-8511
Saenz Trucking,2823 S 73rd Ave,Phoenix,AZ,85043,602-367-0192
Norac,17300 S 147th Place,Gilbert,AZ,85296,602-284-0701
Carlos Trucking,2520 E Indian School,Phoenix,AZ,85016,602-956-5777
Taz-n-dad,502 East Roosevelt Ave,Buckeye,AZ,85326,623-694-6656
Chuy Trucking,1331 W Calle Rio Lobo,Tucson,AZ,85714,520-434-8523
Roadeo Trucking,1506 S Avenida Sirio,Tucson,AZ,85710,520-903-1848
Kew Trucking,721 N 93rd Street,Mesa,AZ,85207,602-284-8030
Kokopelli,9165 S Donald Trail,Wilhoit,AZ,86332,951-205-5962
Los Potros Distribution Center,3925 W Adams St # 2,Phoenix,AZ,85009,602-272-8952
Chinapas Trucking,306 W 30 Street,Tucson,AZ,85713,520-884-5830
Peer Trucking,29933 W Perce St,Buckeye,AZ,85326,209-648-7190
Jet Express,18755 W Arlington Rd,Buckeye,AZ,85326,623-386-7019
Black Horse Transport,1723 N 32nd Pl,Phoenix,AZ,85008,N/A
Jimmy T Transporte,8509 W Wingfield Way,Strawberry,AZ,85544,602-821-5518
Crowe Trucking,1665 W. 14th Street,Yuma,AZ,85364,928-246-8909
Allred Transportation,5001 W Steinway,Laveen,AZ,85339,602-738-2443
Optimus Trucking,332 S Elmont Dr,Apache Junction,AZ,85120,217-549-8544
J Maranon Trucking,1111 California St,San Luis,AZ,85349,928-627-1002
Jrt Transport,901 E Topeka Dr,Phoenix,AZ,85024,623-582-5891
Cesco Transportation,28600 N Crystal Drive,Queen Creek,AZ,85242,480-606-2304
R & R Mora Trucking,3546 East Bridgeport Pkwy,Gilbert,AZ,85295,480-361-1066
Adame Trucking,4825 N 95th Dr,Phoenix,AZ,85037,526-713-4666
Watsonora Transport,451 E Calle Durango,Nogales,AZ,85621,520-980-7600
Rr Transport,17 N 219th Dr,Buckeye,AZ,85326,602-558-8270
J M Trucking,1058 Sinoff Ave,San Luis,AZ,85349,928-722-5969
D V G Trucking,16044 W Winslow Dr,Goodyear,AZ,85338,623-256-6782
J & D Trucking,1696 Capote Court,Rio Rico,AZ,85648,520-313-2531
Big Sun Trucking,33434 N 10th St,Desert Hills,AZ,85086,602-909-3401
Jasmin Transportation,8080 E Speedway Blvd # 815,Tucson,AZ,85710,520-270-2573
Vortex Trucking,27506 N 24th Lane,Phoenix,AZ,85053,602-446-0140
Veolia Transportation Mesa Rpta,3320 North Greenfield Road,Mesa,AZ,85215,480-924-6653
Professional Transport,8836 East Carefree Ave,Flagstaff,AZ,86004,928-526-1277
Sam's Transport,21095 N 64th Ave,Glendale,AZ,85308,602-561-6410
Mam Transport,2500 Mc Culloch Blvd # 7,Lake Havasu City,AZ,86403,928-846-2274
Christoper Creek Out Fitters,Hc 2 Box 149 Q,Payson,AZ,85541,928-478-4772
Bustillos Express,12727 W Glendale Ave Lot 138,Glendale,AZ,85307,562-212-2461
All Star Trucking,1105 N 8th St Trlr 61,Avondale,AZ,85323,602-323-6470
C M K Trucking,25566 W Pioneer St,Buckeye,AZ,85326,623-327-3087
Nada Transport Services,2041 Perlite Place,Lake Havasu City,AZ,86404,928-208-1452
Off - Road Transport,17175 S Avenue B 1/4,Somerton,AZ,85350,928-627-5091
Alohawolf Transport,2680 Ascot Drive,Lake Havasu City,AZ,86403,928-680-9611
Rsmh,570 N Macnab Dr,Nogales,AZ,85621,520-313-0415
America Logistics,3417 W Sells Dr,Phoenix,AZ,85017,480-319-3365
Yaqui Transport,534 E Garnet Ave,Mesa,AZ,85204,480-733-8460
Sodhi Trucking,16746 W Hadley St,Goodyear,AZ,85338,623-217-0800
Mikes Moves,2405 East Dairy Road,Lake Montezuma,AZ,86342,928-274-2788
Ira Johnson Auto & Freight Transport Service,2801 S Old State Highway 279,Cottonwood,AZ,86326,928-649-1702
Transportillo Trucking,887 Raza Ct,Rio Rico,AZ,85648,520-281-0829
Chekina Trucking,4319 North 82nd Ave,Phoenix,AZ,85033,602-515-1707
Mirelez Trucking,39178 Kansas Avenue,Tacna,AZ,85352,928-785-9201
Roteam Transportation,16250 N 40th Ln,Phoenix,AZ,85053,519-650-5555
Gape Transport,1830 W Lomas Mariposard # 77,Nogales,AZ,85621,520-980-7466
Westside Connections,449 W 19th St,Yuma,AZ,85364,928-329-9976
Bruce Dean's Marine & Mobile Service,6810 N 55th Ave,Glendale,AZ,85301,480-471-1331
Stefan Rener Transport,3856 E Esplanade Ave,Gilbert,AZ,85297,951-790-9147
Faulkner Distributing LLC,3345 Fountain Palm Drive,Lake Havasu City,AZ,86404,928-954-8848
United States Van Lines,3320 W Palmaire Ave,Phoenix,AZ,85051,602-434-3183
The Society Transportation,1945 E Bienestar Ln,San Luis,AZ,85349,928-627-7578
Golden Horizons Hauling,24200 Jakes Way,Congress,AZ,85332,928-427-9948
Helfin Pumping,8147 North Cedar Street,Williams,AZ,86046,928-635-4033
Lc Trucking,3015 E 14th St,Douglas,AZ,85607,520-227-7049
Grimes Transport,1325 Haupt Ave Apt 88,Yuma,AZ,85364,928-304-5694
Auto Transportes Guasave,5650 S 12th Ave Suite 116,Tucson,AZ,85706,520-889-2118
Gn Delivery Service,3019 North 71st Drive,Phoenix,AZ,85033,602-738-9255
Jr Mendoza's Trucking,5225 W Melody Ln,Laveen,AZ,85339,602-305-9630
Jm Trucking,1107 Burton Rd,Show Low,AZ,85901,928-537-2470
G & J Trucking,3415 W Tuckey Lane,Phoenix,AZ,85017,602-973-8934
Brock Trucking,8127 W Flower Street,Phoenix,AZ,85033,310-305-5467
"Laron, Inc.",2025 Highway Drive,Tucson,AZ,85705,520-887-4816
A C Express,5305 North 22 Ave,Phoenix,AZ,85015,602-315-8194
E Rojas Trucking,10739 W Lower Buckeye,Tolleson,AZ,85353,623-474-7133
Andrade Trucking,821 East 11th Avenue,Mesa,AZ,85204,480-844-7748
Silver Transport,8726 W Windsor Ave,Phoenix,AZ,85037,623-936-1629
Mackenzie Austin Transport,9042 West Alex Avenue,Peoria,AZ,85382,602-625-1505
Dirt Sheriff Trucking,3545 W Country Gables Drive,Phoenix,AZ,85053,602-795-7240
Blackjack Trucking,16350 W Hopi Dr,Casa Grande,AZ,85222,520-251-2432
Deninis Trucking,14810 North Del Cambre Ave,Fountian Hills,AZ,85268,602-908-5377
Vidal Trucking,10016 N 36th Dr,Phoenix,AZ,85051,510-715-0920
D & M Trucking,2401 So Coleman St,Bisbee,AZ,85603,520-432-5417
Rangel Transport,902 West Gemini Drive,Tempe,AZ,85283,602-299-1416
Moedee Transportations,4195 Us Highway 68 Ste C,Golden Valley,AZ,86413,928-565-3974
Rgm Truckin,28012 N 252nd Avenue,Wittman,AZ,85361,623-256-1188
Az Executive Transportation,13835 N Tatum Blvd Ste 9 -332,Phoenix,AZ,85032,480-415-9961
Pal Transportation,37281 W Amalfi,Maricopa,AZ,85238,520-568-0783
Casey Trucking,2366 East Devon Court,Gilbert,AZ,85296,480-236-2849
J R Kruse Hauling,5690 Railhead Ave,Flagstaff,AZ,86004,928-714-0322
Cali Express,826 W Spur Ave,Gilbert,AZ,85233,480-633-5596
Twenty-two Trucking,16830 W Dove Wing Way,Surprise,AZ,85387,602-499-6900
R Eagler Transport,2817 South Coyote Circle,Mesa,AZ,85212,480-236-4874
Cmi Farms Trucking,1418 East Avenida Isabella,Casa Grande,AZ,85222,520-836-0219
Mezquite Trucking,3180 W Avenida Isabel,Tucson,AZ,85746,520-668-7901
Triple Baker Transport,36717 N 27 St,Cave Creek,AZ,85331,602-295-0836
N C M Transport,3842 W Ashton Dr,Anthem,AZ,85086,623-764-1881
White Stone Hotshots,2836 E Sweetwater Ave,Phoenix,AZ,85032,480-221-8501
Roberts Auto Transport,2322 E Rosewood Ln,Benson,AZ,85602,661-993-2390
Rc Transport,4120 N Bond St,Kingman,AZ,86409,928-692-5004
Ar Truckng,254 Colmenar Ct,Rio Rico,AZ,85648,520-455-2070
Tonikki Logistics,1414 9th St,Douglas,AZ,85607,520-805-2760
Cross Carriers LLC,9855 E Irvington Rd No 10,Tucson,AZ,85730,520-270-7339
B C Trucking,6960 Columbine Blvd,Flagstaff,AZ,86004,928-526-3522
Dynasty Iron Doors,1015 N Mcqueen Rd Suite 168,Gilbert,AZ,85233,480-820-5400
Sho Tyme Xpress,16845 N 29th Ave Ste 1,Phoenix,AZ,85053,623-879-9240
A & R Transportation,19827 W Narramore Rd,Buckeye,AZ,85326,623-327-3402
Andres Camarena Transport,1176 Avenida Leon,Rio Rico,AZ,85648,520-761-1773
Joffroy Group Transportation,1251 N Industrial Park,Nogales,AZ,85621,520-281-2472
Fastrack Transportation & Services,5690 E Railhead,Flagstaff,AZ,86004,928-606-8428
Dream Of Angel Trucking,2221 West Holladay Street,Tucson,AZ,85746,520-578-9013
De La Torre Trucking,7532 West Glenrosa Ave,Phoenix,AZ,85033,623-247-1378
Autotransportes Eda,513 West Valle Verde Place #4,Nogales,AZ,85621,520-281-4662
Brand One,22066 W Papago St,Buckeye,AZ,85326,602-679-0355
Foster Transportation,8610 E Ocaso Avenue,Mesa,AZ,85212,480-288-1101
Yonke's Trucking,3200 North Leslie Canyon Rd,Douglas,AZ,85607,928-202-5075
Black Thunderbird Trucking,15038 N 150th Lane,Surprise,AZ,85379,623-214-2342
R & L Trucking,705 Apache Dr,Lake Havasu City,AZ,86406,928-566-4741
Tobar Transportation,8050 E Jerome St,Mesa,AZ,85209,480-984-5901
Semper Fidelis Transportation,9477 N Singletree Dr,Kingman,AZ,86401,928-681-1897
Hamoodi Nazik Trucking,3674 E Los Gatos Dr,Phoenix,AZ,85050,480-423-6967
Hoang Express,6983 W Cactus Wren Dr,Glendale,AZ,85303,714-908-6668
Poblete Trucking,7270 S Theodore Pl,Tucson,AZ,85706,520-909-0302
Fbr Trucking,2999 E 31th St,Tucson,AZ,85713,520-647-9659
M Anguiano Transport,973 Paseo Guebabi,Rio Rico,AZ,85648,520-761-4356
T V & Sons Trucking,3922 W Hadley,Phoenix,AZ,85009,602-278-3712
J & A Trucking,5925 W Odeum Lane,Phoenix,AZ,85043,602-349-8789
D-one Auto Transport,13321 North 82nd Drive,Peoria,AZ,85381,248-469-3977
Ms Logistics,169 W Lopez,Nogales,AZ,85621,520-287-3140
Adrianz Vts LLC,7621 E Garnet Ave,Mesa,AZ,85209,480-353-0840
T Burton Williams Auto Carrier's,4441 West Vernon Avenue,Phoenix,AZ,85035,602-348-3381
Cv Transportation,2344 Arapaho Road,Bullhead City,AZ,86426,928-768-9303
"Mary's Shuttle Service, Inc.",633 S Cemetery Ave,Yuma,AZ,85364,928-446-4949
Pena-joa Trucking,2619 W Dahlia Dr,Phoenix,AZ,85029,602-441-2354
Alonso's Trucking,5045 W Holly St,Phoenix,AZ,85035,602-550-6792
Dag Transport,4204 East Hopi Circle,Mesa,AZ,85206,480-252-2204
Ltv Transportation Services,20783 N 83 Avenue Suite 103,Peoria,AZ,85382,623-566-4166
Nesty S Trucking,3716 W Palmaire Ave,Phoenix,AZ,85051,602-702-9378
Davis Crawler,22403 West Lower Buckeye Rd,Buckeye,AZ,85326,602-376-9428
Aguiar Fleet Company,2523 W Southern Star Dr,Tucson,AZ,85713,520-250-7748
Lc Trucking,12848 W Southern Ave,Avondale,AZ,85006,623-882-9208
Chacon And Son,5825 W. Monte Cristro Ave ,Glendale,AZ,85306,602-402-8546
Pacheco Trucking,6740 W Encanto Blv,Phoenix,AZ,85035,623-846-4673
Rios Trucking,4865 N 62nd Ave,Phoenix,AZ,85033,602-321-0247
Smiley Transport,541 Gonzalez Drive,San Luis,AZ,85349,928-271-2041
Z Trucking,13425 S 188th St,Buckeye,AZ,85326,951-377-7732
C J S Express,8741 W Highland Ave,Phoenix,AZ,85037,623-877-2832
S J & Sons Transport,3609 E Farrier Drive,Tucson,AZ,85739,520-825-7639
Dominguez Trucking,7009 S 32 Nd Drive,Phoenix,AZ,85041,623-932-1496
Joe Mike's Truckin,4420 N Lasso Ln,Willcox,AZ,85643,520-384-5571
Rodrigo Munoz Trucking,11813 W Wethersfield Road,El Mirage,AZ,85335,818-400-2910
S K Trucking,690 South 11th Place West,Saint Johns,AZ,85936,714-396-5501
Chicano's Express,8631 S 6th Street,Phoenix,AZ,85042,602-885-6481
L S Carriers,5647 W Roma Ave,Phoenix,AZ,85031,323-682-3887
Lucero Transport,8507 Mohave Lane,Yuma,AZ,85364,928-329-6052
Deutsch Transport,1138 W Isabella,Mesa,AZ,85210,480-458-1495
Chando Trucking,15945 West Jackson Street,Goodyear,AZ,85338,623-925-0923
Jnj Transport,3211 W Co 17 1/4 St,Somerton,AZ,85350,928-581-3495
Hot Spot Transport,4248 W Camino Acequia,Phoenix,AZ,85051,623-937-5354
Valencia's Transportation Lp,510 S Extension Rd 2030,Mesa,AZ,85210,480-969-1465
Durham Field Service,2935 E 14th St,Yuma,AZ,85365,928-726-6263
Arizona Pride,11375 E Sahuaro Dr 1016,Scottsdale,AZ,85259,412-498-7218
Kodiak Transport,22316 E Appleby Rd,Queen Creek,AZ,85142,480-262-2091
Johnny Knight Trucking,815 N 52nd St # 2065,Phoenix,AZ,85008,480-250-6160
Big Reds Trucking,1005 N Jennifer,Somerton,AZ,85350,928-627-0741
Linz Enterprice,5201 West Camelback Road 35,Phoenix,AZ,85031,602-499-3827
Sunflower Markets,4703 W. Brill St Suite 100,Phoenix,AZ,85043,602-324-1600
Em 4 Trucking,1032 6th Drive,San Luis,AZ,85349,760-425-7395
Grecia Trucking,8765 W Washington St,Tolleson,AZ,85353,623-249-8025
Toy Kar Transportation,2125 West Broadway Ave,Coolidge,AZ,85228,520-233-0185
Rhema Trucking,1208 Los Portales Ave,San Luis,AZ,85349,928-627-7358
Buriel Trucking,1555 E Apache Park Place,Tucson,AZ,85714,520-647-4250
Rup Transport LLC,3330 Naranjo # 14,Somerton,AZ,85350,928-261-5875
Triple M Transport Express,577 Camino Lito Galindo,Rio Rico,AZ,85648,520-281-8299
Echeverria Delivery,755 S Vaughn Avenue,Yuma,AZ,85364,928-388-8298
American Powersport Recovery,2434 S 11th Ave,Phoenix,AZ,85009,877-404-9993
Autokraft Transport,1155 Hancock Rd Unit #6,Bullhead City,AZ,86442,928-221-1171
Tachyon Transport,639 E Orchid Lane,Gilbert,AZ,85296,480-648-7252
Custom Choice Moving,5365 N 51st Avenue Suite 101,Glendale,AZ,85301,561-333-4173
Wicked Transport,4151 E Bluefield Avenue,Phoenix,AZ,85032,480-227-6909
Mri Trucking,2402 S 55 Th Avenue,Phoenix,AZ,85043,602-269-1812
M N J Scott Trucking,5810 S Pinto Rd,Tucson,AZ,85746,520-578-4040
Frm Transport,710 E Knox Drive,Tucson,AZ,85719,520-690-0630
Tamco Trucking,2330 N Yuma Dr,Chino Valley,AZ,86323,928-636-4789
Figueroas Trucking,22852 W Solano Dr,Buckeye,AZ,85326,602-579-9362
Uribes Trucking,1135 Leo Ct,Rio Rico,AZ,85648,520-980-1580
J And L Logistics,12123 W Bell Rd Unit 163,Surprise,AZ,85374,636-536-5266
Angel's Trucking,10717 W Sells Dr,Phoenix,AZ,85037,623-374-4601
Marisol Trucking,227 W Glenn St,Tucson,AZ,85705,520-903-0278
Kairo Express,6336 W Keim Dr,Glendale,AZ,85301,602-818-5416
Wear Mobile Truck & Equipment Repair,15785 South Wilmot Road,Sahuarita,AZ,85629,520-207-3339
Caden Trucking,1275 Calle Tubutana,Rio Rico,AZ,85648,520-225-8433
Camarata Distributing,1109 Fiesta,Parker,AZ,85344,928-669-8550
Nite Lift Transport,7015 Kims Way,Showlow,AZ,85901,928-532-0104
Anthem,1729 W Dion Drive,Anthem,AZ,85086,623-205-6879
Italiano's Pilot Car Service,16310 Maricopa Avenue,Benson,AZ,85602,520-720-8817
Pony Express Transport,4630 N 8th Ave,Joseph City,AZ,86032,928-288-3589
Djd Trucking,2138 W Depalma Circle,Mesa,AZ,85202,480-430-6625
Importaciones Raramuri,12020 W Cypress St,Avondale,AZ,85323,623-551-4556
Parra Transport,1510 South 11th Avenue,Yuma,AZ,85364,928-539-9156
Mca Trucking,8284 N Cox Road,Casa Grande,AZ,85222,623-937-9869
Encinas Trucking Co,4180 W Deering Road,Willcox,AZ,85643,520-384-4443
Esquivel Transport Trucking,14789 W. Windsor Ave.,Goodyear,AZ,85037,623-266-2301
The Flying Hare Express,13029 Mauna Loa Lane,El Mirage,AZ,85335,714-801-9159
Waggoner Trucking Co,4446 N 28th St,Phoenix,AZ,85016,602-957-4290
Twins Trucking,20 W Michigan,Tucson,AZ,85714,520-250-7748
Roco Auto Transporters,11170 Linda Lane,Flagstaff,AZ,86004,928-527-9199
Pace Transport,8606 W Papago St,Tolleson,AZ,85353,623-341-6766
D & S Trucking,2620 Hacienda Drive,Lake Havasu City,AZ,86403,928-680-0112
World Wide Green Thumb Produce,867 E Frontage,Rio Rico,AZ,85648,520-281-0640
Simran Trucking Co,12724 W Desert Flower Rd,Avondale,AZ,85392,602-484-7226
Tony Cheung,4433 W Van Buren,Phoenix,AZ,85043,602-716-0888
D & D Transport,165 Famosa,Rio Rico,AZ,85648,520-377-9232
Gamboa Trucking,1288 S Pagent Ave,Yuma,AZ,85364,928-920-8830
Hernandez Trucking,6898 E Casey Pl,Tucson,AZ,85730,520-250-7748
House Trucking,15131 W Scrub Brush Rd,Marana,AZ,85653,520-616-7155
R L Smith Trucking,19985 S Doc Holliday,Yucca,AZ,86438,928-727-8280
A M B Trucking,1212 E Bethany Home Road,Phoenix,AZ,85014,602-920-4079
Jeanette Trucking,4637 W Mountain View Rd,Glendale,AZ,85302,623-931-2688
Heli Transport,8041 N Black Canyon Hwy # 114,Phoenix,AZ,85021,802-995-1000
Schock And Son Trucking,1667 Rio Vista Drive,Bullhead City,AZ,86442,928-704-7269
Chavez Trucking,3032 W Pima Street,Phoenix,AZ,85009,602-538-4330
Transportes Conteras,1361 10th Street,Douglas,AZ,85607,520-364-8026
"Southwest Transport, Inc.",9912 Radiant Way,Tucson,AZ,85747,520-663-3530
Quintero Trucking,8115 Apache Lane,Yuma,AZ,85364,928-783-2955
R & C Payne Transportation,4764 East Hopi Circle,Mesa,AZ,85206,480-641-8116
Rusias Transportation,13636 N 31 Ave,Phoenix,AZ,85029,602-957-0583
Force Transport,18224 N 1st Place,Phoenix,AZ,85022,623-826-6880
Fpc Transport,13635 N 32nd Dr,Phoenix,AZ,85029,951-282-8966
Straight Shot Express,3654 S 16th St,Phoenix,AZ,85040,602-454-1545
A B Trucking,1373 Kennedy Lane,San Luis,AZ,85349,928-627-8880
Terrazas Transport,11959 W Apache St,Avondale,AZ,85323,602-723-1806
Union Transport,8326 West Cocopah Street,Tolleson,AZ,85353,818-974-2835
F&g Trucking Service,10206 W Superior Ave,Tolleson,AZ,85353,623-385-6084
Fernandez Trucking,1626 S 105th Lane,Tolleson,AZ,85353,623-332-8919
Jaime Trucking,6232 E 26th Street,Tucson,AZ,85711,520-730-6870
Cl Express,10445 W Camino De Oro,Peoria,AZ,85383,623-572-7818
Galindo Trucking,1882 S 47th Ave,Yuma,AZ,85364,928-329-1831
Abc 2000 Transport,20626 N 21st Drive,Phoenix,AZ,85027,623-780-4848
Nava Trucking LLC,1838 South Saddle Street,Gilbert,AZ,85234,480-656-8808
Jm Transport,7326 S Nevil Dr,Tucson,AZ,85746,602-501-9904
J & B Trucking,1395 E Betsy Lane,Gilbert,AZ,85296,480-510-1799
Lizarraga Trucking,3650 West 21st Street,Yuma,AZ,85364,928-783-2847
Victor Rush Transport,11827 West Electra Ln,Sun City,AZ,85373,623-249-0506
Qnms Service,14825 W Juneberry Way,Surprise,AZ,85374,623-505-8395
Native Transport,A 49 Buckskin Road,Pinetop,AZ,85935,928-369-2612
Lewis Trucking Co,16601 N 12th Street #1073,Phoenix,AZ,85022,602-569-3333
Off-road Trucking,4204 N 19th St,Phoenix,AZ,85016,602-265-3226
I C Trucking,1584 S 233rd Avenue,Buckeye,AZ,85326,623-293-6783
Trust Trucking,2940 Wolf Lane,Lake Havasu City,AZ,86404,928-453-1966
D L Marking Transport,3633 N 3rd Ave Unit 2086,Phoenix,AZ,85013,602-904-5305
Derek Trucking,4535 Miller Road,Rim Rock,AZ,86325,928-274-2709
Orion Recycling LLC,10112 E Paradise Dr,Scottsdale,AZ,85260,480-661-2908
Simpson Tool Box Co,2440 W Mcdowell Road,Phoenix,AZ,85009,602-269-5769
Iacob Trucking,6158 W Evans Dr,Glendale,AZ,85308,517-902-3200
Driven To Succeed,2503 North Comanche Drive,Chandler,AZ,85224,602-821-9431
L S Trucking,1867 W Burgess Lane,Phoenix,AZ,85041,602-478-2923
U And M Trucking,8360 W Echo Lane,Peoria,AZ,85345,623-694-7132
Alfo Trucking,1598 S 234th Lane,Buckeye,AZ,85326,916-765-3887
S & T Transport,3500 Central Rd,Yucca,AZ,86438,928-766-2549
Toltec Tire & Service,3192 Pearce St,Eloy,AZ,85231,520-466-3524
D & G Trucking,143 West Roosevelt,Coolidge,AZ,85228,520-723-0297
Llovera Trucking,6642 W Ellis Drive,Laveen,AZ,85339,602-689-7967
Coast To Coast Transportation,6550 W Glendale Ave Suite 8,Glendale,AZ,85031,623-931-1513
Desert Highway Express,11562 W Bermuda Dr,Avondale,AZ,85392,623-877-6486
Belcher Trucking,4745 S Hwy 19,Safford,AZ,85548,928-428-0049
Saul Vargas Transport,10040 N 48th Ave,Glendale,AZ,85302,951-545-5594
T J Transport,22318 W La Pasada Blvd,Buckeye,AZ,85326,623-386-0958
Sonny's Trucking,S Kurly Road,Tuba City,AZ,86045,928-283-6676
S V A Transport,8825 N 37th Drive,Phoenix,AZ,85051,602-246-6937
Barraza Transport,17715 South Ave B,Somerton,AZ,85350,928-627-8297
F And B Transport,128 Cuahutemoc Street,San Luis,AZ,85349,928-627-0449
Triple G Trucking,1420 N Mariposa Ranch Road,Nogales,AZ,85621,520-281-0100
Lewin Transportation,26 Kelly Circle,Pine,AZ,85544,928-476-3453
Manriquez Trucking,22375 W Desert Bloom Street,Buckeye,AZ,85326,602-427-7801
Dlc & Sons Trucking,1256 D Street,San Luis,AZ,85349,928-627-1796
M3 Transport,7138 North 110th Ave,Glendale,AZ,85307,602-269-1600
R M J Transport,3500 W Orange Grove Rd # 20204,Tucson,AZ,85741,520-395-1115
Mc David Custom Transport,7625 E Emelita,Mesa,AZ,85208,602-697-6870
V M Trucking,652 W Enid Avenue,Mesa,AZ,85210,480-833-5238
New River Trucking,43917 N 16st Street,New River,AZ,85087,623-742-0153
Dlc Auto Transport,4825 S Beck Avenue,Tempe,AZ,85282,214-534-6191
Lopez Trucking,1655 W Ajo Way Unit 405,Tucson,AZ,85713,520-807-1317
Rangel Transport,1352 East 23rd Place,Yuma,AZ,85385,928-726-2251
Alsua,1463 W La Quinta,Nogales,AZ,85621,520-281-0960
Ivona Mozdyniewicz,17019 N 44th Place,Phoenix,AZ,85032,602-971-3959
Milton Transport,4369 W County 14th St,Yuma,AZ,85365,928-627-2126
Mason Produce,453 W Scott Ave,Gilbert,AZ,85233,805-587-6271
"Planet Express, Inc.",5537 N 41st Dr,Phoenix,AZ,85019,602-430-2267
Briam's Trucking,8550 W Mcdowel Rd #145,Phoenix,AZ,85037,623-302-7060
Lst Trucking,2664 El Dorado Ln,Lake Havasu City,AZ,86403,928-680-5656
Ontiveros Transport,2923 E Turquoise Trl,Casa Grande,AZ,85222,520-723-8752
Triple J Transport,7043 W Encanto Blvd,Phoenix,AZ,85035,602-403-2709
Quintero Trucking,6612 W Wall Lane,Yuma,AZ,85365,928-317-0188
Tns Trucking LLC,645 South Main Street,Pima,AZ,85543,928-485-0557
Jts Transport,1718 S 22nd Ave,Phoenix,AZ,85009,602-255-0276
Dmg Transport,2529 N 51st Dr,Phoenix,AZ,85035,602-651-1006
C & S Transport,2926 W Golden Lane,Phoenix,AZ,85051,602-841-3646
Ez Moving Service,2859 Saratoga Avenue,Lake Havasu,AZ,86406,928-505-2215
Two Men And A Truck - Mesa,1916 S Gilbert Rd Ste #4,Mesa,AZ,85204,480-804-0900
Jgo Transport,3681 N Valorie,Prescott Valley,AZ,86314,928-848-9025
Future Transport,5010 S 67th Avenue,Phoenix,AZ,85043,916-743-3564
Castaneda Trucking,1001 N 43rd Avenue #a10,Phoenix,AZ,85009,602-278-2765
Old West Transport,425 N Oak St,Colorado City,AZ,86021,435-680-2962
Eddie's Trucking,591 North Western Ave,Nogales,AZ,85621,520-287-4644
Karmelitas Transport,4209 8th St,Yuma,AZ,85364,760-673-2991
Silvia Family Trucking,8809 W Townley Ave,Peoria,AZ,85345,623-776-7867
Rally Transport,4828 N Harlequin Dr,Prescott Valley,AZ,86314,323-803-8410
Canyon Alley Trucking Company,2409 South Rural Road Suite C2,Tempe,AZ,85282,866-302-2826
Tejadas Trucking,6801 W Ocotillo Rd # 2075,Glendale,AZ,85303,559-903-0963
Team Z Hauling,4803 N 373rd Ave,Tonopah,AZ,85354,302-206-3987
Tamayo Trucking,16089 West Miami Street,Goodyear,AZ,85338,623-476-7240
Mantha Auto Sales,1124 E Jimmie Kerr Blvd,Casa Grande,AZ,85222,520-876-9568
M P Trucking,10643 East 34th Street,Yuma,AZ,85365,928-305-1279
Aaa Trucking,803 N Pepp Dr,San Luis,AZ,85349,928-627-5560
Andrade Trucking,724 E Calle Mayer,Nogales,AZ,85621,520-377-2521
Vera Trucking,616north Arciga Drive,San Luis,AZ,85349,928-941-6700
Long Haul Trucking,5264 E Catalina Ave,Mesa,AZ,85206,480-924-9316
I & M Transport,130 Old Tucson Road,Nogales,AZ,85621,951-283-2458
Ramirez Trucking,244 Cano St,Somerton,AZ,85350,928-210-1209
Antc Trucking,1016 S Mccabe Ln,Lakeside,AZ,85929,928-368-8037
Alberto's Trucking,4309 W 14th Place,Yuma,AZ,85364,928-329-0539
Jose Cadena Trucking,4138 E Agate Knoll Dr,Tucson,AZ,85756,520-390-1076
Macias & Son Trucking,8402 W Hubbell St,Phoenix,AZ,85037,602-843-1913
Arizona Freight Co,6150 E 44th Street,Yuma,AZ,85365,928-920-0812
Pick Priority Transport,3635 S Adelle Circle,Mesa,AZ,85212,888-589-5478
Hudson's Transportation,4395 E Sagebrush Ave,Queen Creek,AZ,85242,480-287-6078
Ks Transportation,13608 W Banff Lane,Surprise,AZ,85379,562-774-7110
J & A Express,2032 E Lopez Street,San Luis,AZ,85349,928-722-5112
Quezada Trucking,854 Eucalyptus,Somerton,AZ,85350,928-627-3522
E S Trucking,10319w Colter St,Glendale,AZ,85307,N/A
Prestige Express,12286 N 56th Ave,Glendale,AZ,85304,530-534-3369
Rabago & Sons Transport,672 N Main Street,Coolidge,AZ,85228,520-723-5345
Quinteros Trucking,4863 W 18th Place,Yuma,AZ,85364,928-446-4626
Gypsy Carrier,490 S Saguaro Dr,Apache Junction,AZ,85220,480-298-3168
Morales Trucking,15486 Avenue A,Somerton,AZ,85350,928-344-5665
Transportes Los Compadres,3041 Del Mar Avenue,Yuma,AZ,85364,928-446-3501
Nalua Express,4802 E Ray Road Ste 23 Number 166,Phoenix,AZ,85044,760-638-6404
Hank Manns,1229 W Camino Mesa Sonoense,Sahuarita,AZ,85629,520-256-5467
R P M Transport,701 N 194th Avenue,Buckeye,AZ,85326,916-995-6588
D L S Trucking,7611 S 69th Dr,Laveen,AZ,85339,602-237-7665
Kaizen Transportation,5701 N Black Canyon Hwy,Phoenix,AZ,85015,602-265-2248
J O Trucking,1875 S 5th Ave,Yuma,AZ,85364,928-782-1849
P & T Trucking,1032 6th Drive,San Luis,AZ,85349,760-460-5087
Peters Trucking,946 S 98th Street,Mesa,AZ,85208,480-986-9746
Perez Transport & Pallets,3054 W 17th Place,Yuma,AZ,85364,928-783-2581
Mendoza Auto Sales Hay Sales,2230 W Drexel,Tucson,AZ,85746,520-908-1487
Silver Wolf Ranch,374 N Wyandotte Rd,Williams,AZ,86046,928-221-7816
Coast To Coast Auto Transport,14221 N 6th Place,Phoenix,AZ,85022,602-942-1974
Xv Trucking,2417 S 65th Drive,Phoenix,AZ,85043,623-322-1421
A And M Transportation,114 Las Praderas S,San Luis,AZ,85349,928-722-5714
Betos Trucking,1264 La Porte Lane,Tucson,AZ,85714,520-889-4102
Transport Masters,2126 W Deer Valley Road,Phoenix,AZ,85027,623-869-8873
The De La Rocha Company,2660 E Ginter Road,Tucson,AZ,85706,520-404-8975
Solid Gold Transport,3430 N Mountain Ridge #66,Mesa,AZ,85207,480-664-8546
M&d Trucking,13635 N 31st Dr,Phoenix,AZ,85029,602-942-1390
Ma Transport,8627 W Townley Ave,Peoria,AZ,85345,623-327-2000
Rich's Trucking,8186 Carob Drive,Mohave Valley,AZ,86440,928-788-6070
Obx Transport,513 E Piute Ave,Phoenix,AZ,85024,602-813-7695
My Six Girls Trucking,6134 W Montebello,Glendale,AZ,85301,602-510-2160
Signs And Services,1988 Hwy 95 #1,Bullhead City,AZ,86442,928-704-6848
Jch Transportation,40528 N Paris Place,Queencreek,AZ,85242,480-987-7666
Sparkletts Of Norhtern Arizona,4174 E Huntington #1,Flagstaff,AZ,86004,928-526-1474
Todoran Enterprises,2003 N 23rd Ave Suite 148,Phoenix,AZ,85009,951-536-3367
M & M Express,4735 W Tansy Way,Tucson,AZ,85742,520-591-7077
Pinch Express,2004 South Euclid Ave,Tucson,AZ,85713,520-663-3990
Santana Trucking,5239 N 28th Drive,Phoenix,AZ,85017,602-589-0801
Martinez Trucking,1224 S 203rd Lane,Buckeye,AZ,85326,623-776-5877
Breezy Transport,2165 Charing Cross Drive,Lake Havasu City,AZ,86404,928-854-6721
Carrillo Transport,4169 W Linda Lane,Yuma,AZ,85364,928-941-0979
Water Truck Larry,5460 Jack Rabbit Dr,Ft Mohave,AZ,86426,928-768-2422
"Taylor Interstate Trucking, Inc.",9860 E Paso Juan Tabo,Tucson,AZ,85747,520-664-1133
Rc Trucking,60115 E Timberline Court,Tucson,AZ,85739,520-825-2076
Jhtt Transport,45358 Alamedras,Maricopa,AZ,85239,520-568-9910
Jaun Valdez Transportation,9024 W Hess St,Tolleson,AZ,85353,909-210-9915
Bestway Moving Company,2578 South Union Drive,Cottonwood,AZ,86326,928-649-1266
Transport Quevedo,215 Cano St,Somerton,AZ,85350,928-627-5198
Srd Trucking,Pmb 179 250 E Hwy 260,Payson,AZ,85541,928-468-6879
Privateer Transportation,4424 W Tierra Buena Ln,Glendale,AZ,85306,602-978-3076
Fast Trax Trucking,2020 Florence Ave,Kingman,AZ,86401,928-530-1679
Rancho Del Sol Distributors,1691 E County 16th Street,Yuma,AZ,85365,928-726-0592
I D Refrigerated Services,23867 W Hadley Street,Buckeye,AZ,85326,623-606-4449
A F Express,3734 E Sweetwater Ave,Phoenix,AZ,85032,623-238-0960
Ortega Trucking,7808 S 3rd Avenue,Phoenix,AZ,85041,602-796-3486
Oscar's Trucking,174 N 21st Ave,Yuma,AZ,85364,928-941-2628
J M D Trucking,1548 W Carter Rd,Phoenix,AZ,85041,602-276-6976
Sharky's Express,606 S 115th Drive,Avondale,AZ,85323,916-717-6059
Del Pino Trucking,7606 W Earll Dr,Phoenix,AZ,85033,623-271-9628
Duran's Trucking,48792 Sourdough Rd # 36,Ehrenberg,AZ,85334,760-550-3714
Lancer Transport,2136 W Shaw Butte Drive,Phoenix,AZ,85029,951-217-2669
Henry's Trucking,1789 Babbit Lane,San Luis,AZ,85349,928-627-7106
Fierro Refrigerated Express,1609 W Donner Drive,Phoenix,AZ,85041,602-268-8552
Gomez Trucking,740 S Washington Ave,Gila Bend,AZ,85337,623-980-8249
"Express Parcel Trucking, Inc.",5335 West Luke Ave Suite 1,Glendale,AZ,85301,623-847-1332
Kittermans Auto Transport LLC,Po Box 3243,Gilbert,AZ,85299,480-892-5900
Curiel Transport,1933 S 11th Ave,Yuma,AZ,85364,928-373-9748
J And J Transport,135 Giddings Road,Ash Fork,AZ,86320,928-830-1532
P & A Transports,1522 E California St,San Luis,AZ,85349,928-627-4922
Ls Trucking,944 W Main St Apt2302,Mesa,AZ,85201,310-531-3115
D & A Trucking,2480 S Madison Avenue,Yuma,AZ,85364,928-726-3504
Valle Trucking,11318 W Chambers,Tolleson,AZ,85353,623-934-2296
Barrie Auto Transport LLC,21834 N 34th Ave,Phoenix,AZ,85027,702-239-1964
Adan's Furniture Transport,16281 W Tasha Dr,Surprise,AZ,85374,623-293-7237
Negrete Trucking,5326 W Sunland Ave,Laveen,AZ,85339,602-237-4156
Veolia Phoenix,302 N 1st Avenue,Phoenix,AZ,85009,602-258-8545
"Sunset Trucking, Inc.",14202 Isben Drive,Fountain Hills,AZ,85268,480-837-3827
Goza Trucking,841 W Ciardulli Place,Nogales,AZ,85621,520-281-5911
Onaysob Express,8261 W Piccadilly Rd,Phoenix,AZ,85033,623-505-3067
Elizalde Transport,777 N 59th Ave Apt 1075,Phoenix,AZ,85043,623-215-3374
Garst Freight Systems,4292 Highlander Avenue,Lake Havasu City,AZ,86406,928-855-7445
P & K Trucking,2685 N Page Springs Road,Cornville,AZ,86325,928-634-6263
Lucero Trucking,271 Villa St,San Luis,AZ,85349,928-627-2576
Quiros Transport,6584 W Wall Ln,Yuma,AZ,85365,928-941-8561
Aaa Discount Mobile Home Movers,3056 W Via San Andrea,Tucson,AZ,85746,520-908-9259
Jeaja Trucking,2621 W Donley Road,Somerton,AZ,85350,928-627-7338
Island Transport,2025 Lago Grande,Fort Mohave,AZ,86426,928-768-5178
Five Star Express,8234 W Marco Polo Road,Peoria,AZ,85382,623-242-9772
K T Express,2312 E Flossmoor Cr,Mesa,AZ,85204,480-275-8281
Ever Trucking,712 E 371 Th Ave,Tonopah,AZ,85354,623-910-4871
Veolia Tempe,2031 W 1st Street,Tempe,AZ,85281,480-966-1207
Angelo Express,2351 Northfield Avenue,Kingman,AZ,86409,928-692-7421
Torres Trucking,10629 West Lareata Ave,Avondale,AZ,85323,951-830-9780
Fermont Transport,568 Archibald Street,San Luis,AZ,85349,928-257-3672
Mnm Trucking,15204 W Honeysuckle Lane,Surprise,AZ,85374,562-449-9069
Acosta & Sons' Trucking,7194 E 26 St,Yuma,AZ,85365,928-314-1724
Jet West Transportation,7 Frontier Ct,Nogales,AZ,85621,520-285-7031
F & S Auto Carriers & Auto Valet,4424 E Kentucky,Tucson,AZ,85714,520-885-8960
C And R Transportation,1105 Bysert Rd,Avondale,AZ,85323,623-341-8140
Acm Trucking,2054 S 36th Drive,Yuma,AZ,85364,928-782-9378
Mikes Transportation,916 E 25 Th Street,Yuma,AZ,85365,928-261-6767
Fresh Star Bakeries North America,10491 W Battaglia Road,Arizona City,AZ,85223,520-466-5491
Osuna Trucking,561 Terraza Dr,San Luis,AZ,85349,928-627-7472
C E Carney Trucking,1022 Justin Circle,Pearce,AZ,85625,602-538-7148
Auto Partes De Colorado,1967 Stephens St,San Luis,AZ,85349,928-627-3455
Ry-dan Trucklines,1923 Clubhouse Plaza,Ft Mohave,AZ,86426,928-768-1226
Ddp And Ddl,1871 E Sagittarius Pl,Chandler,AZ,85249,714-936-9267
T & S Transportation,3902 W Rue De Lamour,Phoenix,AZ,85029,602-843-4382
Trinity Transport LLC,3820 West Hermans Road,Tucson,AZ,85746,520-603-3166
J & M Trucking,1205 Eagle St,Parker,AZ,85344,928-669-5634
Ashley's Trucking,1/8 Mile Of Window Rock Junction,Window Rock,AZ,86515,928-871-2140
D P V Trucking,1929 W Spur Drive,Phoenix,AZ,85085,602-380-5724
Mogollon Support Services,31 W Separation Canyon Trail,Flagstaff,AZ,86001,928-525-9720
Ro-trans,8726 N 53rd Avenue #c,Glendale,AZ,85302,602-418-4394
B A Trucking,8807 W Mariposa St,Phoenix,AZ,85037,623-680-5327
R J Enterprises,3714 W Berridge Lane,Phoenix,AZ,85019,602-743-1366
J I Valdez Trucking,508 South Congress Ave,Somerton,AZ,85350,928-722-6034
Gasa Trucking,1713 W 26th Street,Yuma,AZ,85364,928-503-4967
W&g Transport,9717 W Riverside Ave,Tolleson,AZ,85353,623-388-7709
Transportes Barajas,10717 W Sells Dr,Phoenix,AZ,85037,623-374-4601
Paredes Transport,2870 S Madison Ave,Yuma,AZ,85364,760-265-5807
Jm Freight,1781 Monreal Lane,San Luis,AZ,85349,928-722-0192
Gypsy Trucking,3610 E Deerhaven Ranch Road,Pearce,AZ,85625,520-227-5304
"Alanis Transport Equipment Hauling, Inc.",1950 Estrella Drive,Prescott,AZ,86305,928-713-7831
Paredes Trucking,14819 W Columbine Dr,Surprise,AZ,85379,310-720-1641
Rsm Trucking,Pmb# 426 5350 W Bell Rd Ste C-122,Glendale,AZ,85308,602-206-7690
Contreras Trucking,7606 West Glenrosa Ave,Phoenix,AZ,85033,502-533-3477
Me Trucking,8554 W Holly St,Phoenix,AZ,85037,623-907-1340
Auto Stop,2401 S Pacific Avenue,Yuma,AZ,85365,928-314-3000
Chihuahua-phoenix Express,2520 E Indian School,Phoenix,AZ,85016,602-956-5777
Leal Transport,216 West Wier,Phoenix,AZ,85041,562-505-9491
Velascos Transportation,15080 South Padres Road,Arizona City,AZ,85223,520-466-5895
R C Express,1599 Liberty St,San Luis,AZ,85349,928-627-1645
Henshaw Transportation,6231 W Riviera,Glendale,AZ,85304,623-487-1515
Mtn Transport,1201 N 54th Ave Ste 104,Phoenix,AZ,85043,602-272-5557
Rmo Trucking,2425 W 3rd St,Yuma,AZ,85364,928-783-6015
Condor Transport,14269 West Ventura Street,Surprise,AZ,85379,209-595-0215
Fisher Freight,980 N Van Brunt,Somerton,AZ,85350,928-919-3648
Emg Trucking,2418 W Alta Vista Road,Phoenix,AZ,85041,623-934-2296
Mario Munoz Trucking,9800 S Desert Brush Lp,Tucson,AZ,85706,520-573-0682
Sadoth B Molina Trucking,23199 E Monave St,Buckeye,AZ,85326,562-445-5655
Usa Transporting,7607 E Tasman Circle,Mesa,AZ,85207,480-659-7952
D&b Transport,9229 S 355th Avenue,Arlington,AZ,85322,623-327-1299
Ijms Freight,13740 West Rancho Drive,Litchfield Park,AZ,85340,602-315-7453
Cesar Trucking,2641 S Picaflor Ave,Yuma,AZ,85365,928-314-4092
Jacks Trucking,4801 W Fawn Drive,Laveen,AZ,85339,319-493-0136
E M S Transport,531 E Carter Rd,Phoenix,AZ,85042,602-304-9682
P & V Ramirez,6859 S Star Ridge Pl,Tucson,AZ,85746,626-536-0544
Pat's Trucking,5264 N 104th Avenue,Glendale,AZ,85307,623-521-1029
Maar Logistics,5226 N Myakka Ave,Tucson,AZ,85713,520-399-5080
Outlaw Transport LLC,2531 S 156th Ave,Goodyear,AZ,85338,623-925-0255
Perez Transport,164 S Arcadia Ave,Tucson,AZ,85711,520-258-9577
Martin Trucking,8338 East Lewis Ave,Scottsdale,AZ,85257,480-656-0202
Villagomez Trucking Co,10746 East Amber Drive,Yuma,AZ,85365,951-347-1974
Cress Transport,22316 W Watkiins St,Buckeye,AZ,85326,623-386-7576
In Between Express,18346 N 170th Lane,Surprise,AZ,85374,623-328-7609
Gomez Trucking,1459 E Harmony Ave,Mesa,AZ,85204,480-612-2682
Night Hawk Express,405 East Wetmore Road 117-245,Tucson,AZ,85705,520-406-0291
Blazensterling Rapid Transport LLC,15232 W Post Dr,Surprise,AZ,85374,602-741-0653
T A Transport,27501 N 23rd Drive,Phoenix,AZ,85085,909-790-0032
Universal Freight Management,2102 N Rascon Loop,Phoenix,AZ,85037,623-374-6888
D R Trucking,8184 Yavapai Lane,Yuma,AZ,85364,928-580-9302
Mussell Trux,2920 Horizon Hills Dr,Prescott,AZ,86305,928-308-5043
Kano Kool Trucking,6608 W Cheery Lynn Rd,Phoenix,AZ,85033,402-734-0382
E G Transportation,138 Paseo Mexico,Rio Rico,AZ,85648,520-377-0569
Dominguez Transport,1410 West Weldon Ave Apt #3,Phoenix,AZ,85013,602-296-9640
J & R Logistics LLC,18816 W Amelia Ave,Litchfield Park,AZ,85340,623-455-3808
Correa's Trucking,6127 W Glenn Drive,Glendale,AZ,85301,602-918-2062
M C Trucking,2048 S 46th Avenue,Yuma,AZ,85364,928-373-7565
D & E Transport,6106 North 35th Drive,Phoenix,AZ,85019,623-242-3349
G T Transport,2487 N Grand Avenue,Nogales,AZ,85621,520-281-9470
Kaykel Transport,11206 West Del Rio Lane,Avondale,AZ,85323,623-399-9097
Beadles Trucking,County Rd 8024 House 34,Concho,AZ,85924,928-537-9265
Elt Auto Transport,35906 N 30th Avenue,Phoenix,AZ,85086,623-879-1114
Aries Transportation,4808 S 329th Ave,Tonopah,AZ,85354,623-433-6092
Wmp Transportation,2679 E Waterview Court,Chandler,AZ,85249,480-694-8314
Antelope Boat Transport,Navajo Route 22b Po 880,Page,AZ,86040,928-645-5900
Conklin Transporting,1820 East Second St,Mesa,AZ,85203,480-668-3648
Altamiranos Trucking,751 Merrill Ave,San Luis,AZ,85349,928-627-1824
F Ramirez Trucking,1875 Potter Ave,Kingman,AZ,86401,928-692-0231
Sunset Express,945 W Manor Dr # 127,Nogales,AZ,85621,520-281-0010
M-s Moving Services,3850 W Bluefield Ave,Glendale,AZ,85308,602-439-2038
J B Transportation,6430 W Elwood St,Phoenix,AZ,85043,602-484-7226
Mori Express,1569 S 231st Lane,Buckeye,AZ,85326,623-308-7900
Lopez Trucking,5907 W Jones Ave,Phoenix,AZ,85043,602-455-6519
P S Transport,2743 Lago Road,Seligman,AZ,86337,928-699-5501
Alvarez Trucking,7230 S 40th Lane,Phoenix,AZ,85041,623-204-7909
Leon Trucking,3183 W 29th Ln,Yuma,AZ,85364,928-726-5876
1st Delivery Arizona,7541 W Comet,Peoria,AZ,85345,602-499-1439
Anozira Transport,50 W Andrew Potter Street,Corona,AZ,85641,520-762-5170
Git-r-done Trucking,890 Palo Verde Drive,Sierra Vista,AZ,85635,520-417-2304
All American Trucking,20476 E Appaloosa Dr,Queen Creek,AZ,85242,480-440-4395
Morales & Sons Transport,5491 E 45th Street,Yuma,AZ,85365,928-503-8140
Planetary Family Services,2120 West Highway 89a,Sedona,AZ,86336,928-203-9323
Bryans Trucking Company,2016 West Maricopa Road,Phoenix,AZ,85009,602-518-5720
Suanez Transport,179 Paseo Dulzura,Rio Rico,AZ,85648,520-437-6117
J And S Express,6334 W Windsor Blvd,Glendale,AZ,85301,623-826-9922
Josues Trucking,3635 W Maricopa Street,Phoenix,AZ,85009,602-571-2159
Gingerbread Man Trucking,27905 S Santa Fe Ave,Bouse,AZ,85325,928-277-6638
Deutscher Transport,1678 W Bitter Orange,Tucson,AZ,85705,520-887-1625
Vr Transportation,23851 W Lasso Ln ,Buckeye,AZ,85325,602-358-7238
Pete Bob Hay Sales & Trucking,29806 W Canyon Lane Road,Palo Verde,AZ,85343,602-391-3549
Martin Trucking,2225 N 66th St,Phoenix,AZ,85035,602-292-0129
A L B Trucking,10915 E Austin Circle,Cornville,AZ,86325,928-634-1377
U X P,11206 W Mariposa Drive,Phoenix,AZ,85037,623-521-7031
Drouin Trucking,36750 W Hwy 84,Stanfield,AZ,85272,520-208-4652
You & Me Truck Line,5927 W Wood St,Phoenix,AZ,85043,559-367-2887
Jlg Trucking,3815 N 27th Ave #lt54,Phoenix,AZ,85017,602-810-5740
Ran Trucking,4821 N 61st Ave,Phoenix,AZ,85033,310-339-4024
Entertainment Transportation,2138 E Catalina Avenue,Mesa,AZ,85204,602-509-5074
Onion King Transportation,553 West First St,Yuma,AZ,85364,520-250-7748
Trinity Transport,5440 S Dove Valley,Buckeye,AZ,85326,623-327-0605
Kirby's Transport,2838 Berry Ave,Kingman,AZ,86401,928-718-5663
Taino Transport,Box 4045,Arizona City,AZ,85223,562-682-3061
Dl Transport,6783 South Sonoran Bloom,Tucson,AZ,85706,520-889-1952
Packy's Trucking Company,10408 W Calle De Edens,Phoenix,AZ,85037,623-772-7837
Gonzales Trucking,449 E Oakland Street,Chandler,AZ,85225,480-917-7443
Nacho's Trucking,341 W Carribbean Dr,Casa Grande,AZ,85222,520-876-4241
L & P Villalva Trucking,1015 N 192nd Ave,Buckeye,AZ,85326,623-606-5320
West Coast Truckers,8478 W Grovers Ave,Peoria,AZ,85382,714-420-3456
Dalmation Trucking,H C 70 Box 4617-b,Sahuarita,AZ,85629,520-393-1052
Kozara Transport,25694 W Victory St,Buckeye,AZ,85326,623-570-3589
West Coast Transport,1941 E Grandview,Phoenix,AZ,85022,602-494-2746
Windrunner Trucking,19302 East Via Dearboles,Queen Creek,AZ,85242,480-987-1534
Jesus Palomino,324 Honey Avenue,Yuma,AZ,85364,928-726-3104
Long Walkin Trucking,P O Box 705,Ashford,AZ,86320,520-637-2241
Danny Boy Trucking,27598 N 89th Dr,Peoria,AZ,85383,602-722-7881
Mel's Auto Express,1469 W Rochin Road,Douglas,AZ,85607,520-805-0630
Rivera Trucking,5322 N 59th Ave Ste R,Glendale,AZ,85301,623-842-2049
Tdc Trucking LLC,1329 Avenida Navidad,Rio Rico,AZ,85648,520-223-7272
Soto Trucking,2159 W Co 17 3/4 St,Somerton,AZ,85350,928-627-3710
Cortez Trucking,2533 N 45th Avenue,Phoenix,AZ,85035,623-937-9869
Pace Transportation,4317 N 111th Lane,Phoenix,AZ,85037,623-937-9869
Broken Feather Transport,7235 W Mcdowell,Phoenix,AZ,85035,623-937-9869
C & B Hauling,42326 West Farrell Road,Maricopa,AZ,85239,520-568-2891
Maurizo Trucking,4210 E Liberty Lane,Phoenix,AZ,85048,602-531-8870
Star Trucking Co,9132 W Cactus Rd Ste J,Peoria,AZ,85381,602-979-6431
J J L Trucking,7034 S 46th St,Phoenix,AZ,85042,602-438-0694
F R Gallegos Trucking,43 1st,Douglas,AZ,85607,520-805-0937
Extreme Transportation,2605 Spunkmeyer Way,Ft Mojave,AZ,86426,928-758-1487
Washington Trucking,4520 E Baseline,Phoenix,AZ,85040,602-790-8720
Saeger Transportation,Hcr1 #12 Lakeview Park,Peridot,AZ,85542,928-475-3991
Triple A Trucking,7951 W Monterosa,Phoenix,AZ,85033,602-873-8041
Grantham Transport,11775 W Dally Road,Tucson,AZ,85743,623-937-9869
Perez Trucking,5649 W Coronado Road,Maricopa,AZ,85035,623-937-9869
Traslavina Trucking,6522 W,Buckeye,AZ,85043,623-937-9869
M & M Transport,3729 East Beverly Lane,Phoenix,AZ,85032,602-992-8816
Santos Trucking,1812 S 82nd Ave,Phoenix,AZ,85043,N/A
A & J Trucking,2941 N Bitache Dr,Nogales,AZ,85621,520-761-1153
Caribbean,3333 Northridge Ave,Bullhead City,AZ,86429,760-954-2665
Acr Trucking,130 Old Tucson Rd,Nogales,AZ,85621,602-703-4300
R T Trucking,5523 W Zoeella Way,Glendale,AZ,85306,602-978-2253
J Rivera Trucking,7157 W Mulberry Dr,Phoenix,AZ,85033,623-849-4042
Pearl Transportation Company,6344 E Hwy 260 Apt 11,Star Valley,AZ,85541,928-978-5355
Drc Trucking,11605 W Cocopah St,Avondale,AZ,85323,623-934-2296
Reed's Trucking,9305 W Cordes Road,Tolleson,AZ,85353,623-474-2822
Ortega Transportation,2165 E University Dr #159,Mesa,AZ,85213,480-461-6018
World Color,1850 E Watkins,Phoenix,AZ,85034,623-937-9869
Cv & Se Trucking,21477 N 87th Drive,Peoria,AZ,85382,602-295-9003
Turbo's Trucking,945 W Manor Dr #15,Nogales,AZ,85621,520-761-1380
Roy's Trucking,4545 S Mission #101,Tucson,AZ,85746,520-884-3485
Rod Jones Trucking,265 W Jensen St,Fredonia,AZ,86022,928-643-7221
Bob Kelly Transportation,210 E Campo Bello,Phoenix,AZ,85022,602-628-3418
Pauls Trucking,25707 W Globe Avenue,Buckeye,AZ,85326,623-363-2151
D & L Trucking Co,1213 South 14th,Yuma,AZ,85364,928-246-6615
Abz Transportes,14230 South Ave 3e,Yuma,AZ,85365,928-317-5080
T & L Trucking,175 East 200 South,Pima,AZ,85543,520-485-9278
Bronco Transport,205 W Cactus Street,Somerton,AZ,85350,928-627-7016
Caritas Brothers Trucking,538 Sanchez Dr 6ta Section,San Luis,AZ,85349,520-627-1788
Canon Trucking,4419 W 17th St,Yuma,AZ,85364,928-329-8885
Pash Trucking,155 S Russell Road,Stanfield,AZ,85272,520-242-3232
Bonham Trucking,155 S Russell Road,Stanfield,AZ,85272,520-450-1130
Pacific Trucking,1270 N Industrial Park Ave-a,Nogales,AZ,85621,520-761-4770
D E Bar M Trucking,20172 E Stagecoach Trail Ste C,Mayer,AZ,86333,520-632-8723
Todorut Logistics Trans,19012 W Portland,Buckeye,AZ,85326,714-778-8836
Dad Trucking,1012 N Mesa Avenue,Willcox,AZ,85644,520-646-3175
Ramos Transport,2822 W Yuma Street,Phoenix,AZ,85009,602-233-1509
Lozano Trucking,1905 S Magnolia Avenue,Yuma,AZ,85364,928-343-1524
Carbone Transportation,8802 W Highland Ave,Phoenix,AZ,85037,602-841-9128
The Moving Center,2405 Nolte Drive,Prescott,AZ,86301,520-771-2668
Figueroa Auto Transport,1524 S 7th Ave,San Luis,AZ,85349,520-627-0739
"Victor G Trucking, Inc.",580 Ruben Ct,Rio Rico,AZ,85648,520-281-4325
Albedery Trucking Service,9610 N 34th Ln,Phoenix,AZ,85051,602-432-9855
D & M Trucking,1924 W Osborn,Phoenix,AZ,85015,602-266-6055
Napoca Transportation,6920 W Oregon Ave,Glendale,AZ,85303,916-285-6126
Double G Trucking,3675 W Osborn #229,Phoenix,AZ,85019,602-272-6344
Cc's Transportation,45 W Encanto,Phoenix,AZ,85003,602-254-1151
L & S Trucking,Rt 1 Box 402,Somerton,AZ,85350,520-627-2616
Marry A Trucking,10720 W Indian School Rd#197,Phoenix,AZ,85037,909-783-8187
Acton Trucking,9725 E Spurr Lane,Prescott Valley,AZ,86314,928-759-9988
Kaila Trucking,1465 E Laguna Pl #6,Yuma,AZ,85364,520-314-3951
G & J's Trucking,23265 Merill Ave,San Luis,AZ,85349,520-627-1539
Quale Hauling,1280 Sibyl Road,Benson,AZ,85602,520-663-5410
Iron Horse Transportation,13194 Sandbar Street,Topock,AZ,86436,760-254-0013
J And J Trucking,Po Box 4145,Yuma,AZ,85366,520-627-8480
Canelas Trucking,1263 S 220th Drive,Buckeye,AZ,85326,623-266-3040
C M S Daleo Trucking,4404 N 57th Avenue,Phoenix,AZ,85301,623-435-5476
Arg Trucking,2200 S Mary Ave,Yuma,AZ,85365,520-726-5374
Spear Seven Trucking,Rt 86w To Rt 19s To Puella Bea,Sells,AZ,85634,520-383-5106
R & B Transportation,4100 South Mark Avenue,Tucson,AZ,85735,520-883-4163
Gregory Trucking,13174 N 82nd Dr,Peoria,AZ,85381,623-764-5366
Westover Trucking,4511 Main St ,Joseph City,AZ,86032,928-288-9015
Bojorquez Trucking,5322 N 59th Ave #r,Glendale,AZ,85301,619-584-0831
D J Equine Transportation,37709 N 17th Place,Phoenix,AZ,85022,602-309-8204
Auto Transport Specialists,315 N Dobson Rd,Mesa,AZ,85201,602-300-2225
A G L Trucking,2545 West 8th St Space 82,Yuma,AZ,85364,520-782-3422
Wakefield Transport,1405 W Road 2 South,Chino Valley,AZ,86323,520-636-3939
M L M Trucking,1921 S London Dr,Yuma,AZ,85364,928-329-7783
Auto Partes Sonora,23141 G Street,San Luis,AZ,85349,928-627-0895
Salyers Trucking,203-s 96th St,Mesa,AZ,85208,480-357-8121
Colorado River Trucking Co,7878 S Cottonwood Ln,Yuma,AZ,85364,928-920-6122
J T Transport,1009 W Vermont,Phoenix,AZ,85013,602-279-9250
D & L Trucking,1231 S 7th Ave,Yuma,AZ,85364,520-343-0247
Guerrero Trucking,2495 7th Avenue,Yuma,AZ,85364,520-726-2795
M J M Hauling,7335 E 24th Lane,Yuma,AZ,85365,928-317-8216
Black Sea Transportation,5734 N 40th Ln,Phoenix,AZ,85009,602-293-7268
John Carrera Trucking,404 W Frontier,Eloy,AZ,85231,520-421-2739
D'aleo Trucking,1145 N Poplar St,Gilbert,AZ,85233,480-507-6629
Van Deusen Trucking,8734 Sun Country Road,Holbrook,AZ,86025,602-740-8873
Landon Transportation LLC,2416 N Raven Circle,Mesa,AZ,85207,480-343-7921
Gordon Anderson Trucking,5341 West Banff Lane,Glendale,AZ,85306,602-882-3551
J Kyle Holt Trucking,10815 W Heatherbrae Dr,Phoenix,AZ,85037,602-549-9643
M E G Trucking,Rt 1 Box 315,Lakeside,AZ,85929,209-785-0918
Cr Trucking,P O Box 3889,San Luis,AZ,85349,520-782-0273
Cms Express,11823 W Windsor Ave,Avondale,AZ,85323,623-478-8674
C J Trucking,8631 W Piccadilly,Phoenix,AZ,85037,623-845-6283
M & S Trucking,2719 E Rockledge Rd,Phoenix,AZ,85048,480-704-1412
Victoria Trucking,4581 W 17th Lane,Yuma,AZ,85364,702-614-3005
Pannu Trucking,9132 W Cactus Rd #j,Peoria,AZ,85381,623-979-6431
Extreme Transportation,1625 N 26th Ave,Phoenix,AZ,85009,661-533-0450
Martinett Transport,2941 W Madison,Phoenix,AZ,85009,602-442-8431
Tlg Trucking,2843 W Via Vista Bonita,Tucson,AZ,85746,520-908-1877
Hagen Trucking,11141 S Flying Eagle Ln,Vail,AZ,85641,520-647-3422
E Sandoval Trucking,11824 W Cambridge Ave,Avondale,AZ,85392,623-936-5648
N Z Transport,127 W 9th Place,Mesa,AZ,85201,480-452-9993
One Truck Trucking,2207 W Main St Lot 25,Mesa,AZ,85201,623-937-9869
Transportation Delivery,6546 N 41 St Dr,Phoenix,AZ,85019,602-380-4747
Leyba Transport,19439 W Flower,Litchfield Park,AZ,85340,623-853-9482
Eastman Trucking,2020 Border St,Page,AZ,86040,928-645-2089
Apple Trucking,710 Linda Vista,Santa Cruz,AZ,85621,520-287-7808
Varela Trucking,48125 Posten Parker Rd #a,Ehrenberg,AZ,85334,520-923-9714
J M Transport,140 Harshaw Road,Nogales,AZ,85621,N/A
G & O Trucking,9023 W Glenrosa,Phoenix,AZ,85037,623-877-4505
Brad's Trucking,335 N 80th Street,Mesa,AZ,85207,480-984-1546
G E Trucking,305 N Somerton Avenue,Somerton,AZ,85350,928-627-3725
Air Ground Express,3403 E Emelita Ave,Mesa,AZ,85204,480-985-2017
Laz Express LLC,4102 W Adams St,Phoenix,AZ,85009,480-491-3910
R D Lopez Trucking,4424 E Baseline Road Apt #2060,Phoenix,AZ,85042,602-405-2678
Champagne Logistics,7350 S Kyrene Rd Suite 108,Tempe,AZ,85283,480-736-8987
Jd Trucking,186 Camino Maricopa,Rio Rico,AZ,85648,520-841-2640
E & D Trucking,7711 N 51st Ave #2029,Glendale,AZ,85301,602-689-2621
Interstate Battery Of Sw Arizona,2186 E 15th Place,Yuma,AZ,85366,520-783-6697
D T G Transportation,7007 W Indian School Rd Apt# 1399,Phoenix,AZ,85033,623-748-3358
M & Rr Trucking,54 Macias Court,Rio Rico,AZ,85648,520-401-6491
Ortiz Auto Transport,23318 4th & Ave C,San Luis,AZ,85349,520-627-4002
L P Transport,4031 W Monte Cristo,Phoenix,AZ,85053,817-626-5333
Pennington Freight Lines,1775 N Webster Rd,Central,AZ,85531,623-937-9869
F & R Truck,1205 S 25th Avenue,Phoenix,AZ,85009,602-353-9447
Chris Trucking,229 W Tamarisk #3,Phoenix,AZ,85041,602-295-8049
Pmr Trucking,3541 N Roosevelt #8,Kingman,AZ,86401,916-348-8767
B & S Trucking,5732 W Maryland,Glendale,AZ,85301,623-937-9869
As & D Transportation,60 Grand Blvd,Ash Fork,AZ,86320,520-637-2232
Southern Trucking,12120 W Southern,Tolleson,AZ,85353,602-738-3458
Silverdale Trucking,9017 W Tujunga Dr,White Hills,AZ,86445,702-208-4075
M Deleon Transportation,3732 W Kings Avenue,Peoria,AZ,85382,760-665-1312
Resendez Trucking,30022 W Roosevelt St,Buckeye,AZ,85396,623-412-8334
Durazo's Trucking,910 1st St,Douglas,AZ,85607,520-364-6431
Sinnock Construction Company,2403 So 351 Ave,Tonopah,AZ,85354,623-393-9490
Adame's Trucking,10720 West Apache,Cashion,AZ,85329,623-687-1139
Cow-zona Livestock Express,4275 W Old Hwy 66,Joseph City,AZ,86032,520-288-3637
"Alpa Trucking, Inc.",208 Paseo Tamex,Rio Rico,AZ,85648,520-841-2677
Executive Show Trucks,575 E Guadalupe Rd,Gilbert,AZ,85234,480-898-8853
E P Transport,555 N Colorado,Chandler,AZ,85225,520-270-9378
Greco Trucking,2719 N Los Altos,Tucson,AZ,85705,501-474-5291
Payan Trucking,6525 W Highland,Phoenix,AZ,85033,623-842-1729
Arizona Intermodal Services,2310 W Sherman,Phoenix,AZ,85009,602-252-4473
Eg Transport,2123 W Vista,Phoenix,AZ,85021,623-937-9869
Vicel Trucking,902 East 25th Street,Yuma,AZ,85364,520-726-6799
Machuca Trucking,22419 Santa Fe Dr,San Luis,AZ,85349,529-627-2561
C & M Transport 6920,14370 W Port Royale Ln,Surprise,AZ,85379,951-313-5351
M & H Trucking,9042 W Granada,Phoenix,AZ,85037,623-478-9532
Jeaja Trucking LLC,2621 W Donley Rd,Somerton,AZ,85350,928-627-7338
A L Medina Trucking,1502 E Wood,Phoenix,AZ,85040,520-841-0884
El Compa Trucking,24 E 20 St,Douglas,AZ,85607,520-236-9102
M A J Trux,41 Acr 3095,Show Low,AZ,85901,928-532-8783
Mac's Transportation,400 W Camelback Rd #301 A,Phoenix,AZ,85013,623-937-2441
Tomas Fernandez Trucking,8329 W Mulberry Drive,Phoenix,AZ,85037,602-486-4114
Tavos Trucking,108 E Hudgins,Nogales,AZ,85621,520-980-2804
Valenzuela Trucking,52 E 9th Street,Douglas,AZ,85607,520-250-7748
Reliable Mobile Home Transport,6042 E 29th St,Tucson,AZ,85711,520-631-2835
Santicos Trucking,2701 S 108th Dr,Avondale,AZ,85323,623-476-2425
Hilltop Transfer,S/l 378 Sierra Verde Ranch,Seligman,AZ,86337,520-853-6045
Just Us Trucking Ltd,470 S Libby Lane,Cornville,AZ,86325,928-634-4395
Salmon Autotransportes,110 North Old Tucson Rd,Nogales,AZ,85621,520-622-1712
Longo Transport Co,191 S Dakota St,Chandler,AZ,85225,602-758-5763
Nickols Trucking,8420 West Osborn Road,Phoenix,AZ,85037,623-873-3884
V Sanchez Trucking,538 N Baldwin St,Nogales,AZ,85621,520-287-6322
B & H Trucking,8252 W Campbell,Phoenix,AZ,85033,623-845-0405
Silverline Trucking,1344 N Olympic Circle,Mesa,AZ,85205,623-937-9869
Parra Trucking,2318 N 92nd Drive,Phoenix,AZ,85037,760-221-2004
K & S Trucking,1108 E 27th Street,Tucson,AZ,85713,520-573-1083
Mm & M Trucking,1584 W Country 17 Half Street,Somerton,AZ,85350,928-627-9852
Arizona Regional Area Trucking Service,2231 Golden Gate Ave,Kingman,AZ,86401,928-718-1526
Bolanos Truckin,326 Ambrosia Ct,Rio Rico,AZ,85648,520-761-3225
Crs Trucking,6725 N Camino De La Tierra,Tucson,AZ,85741,N/A
Ro-dot Trucking,7686 West Edgestone Street,Tucson,AZ,85735,520-578-8058
2 Bros Transportation,881 Calle Tamallo,Clarkdale,AZ,86324,520-360-6503
Scott Specialized Trucking,9797 E Cana St,Hereford,AZ,85615,520-366-5555
Manny Villa Trucking,817 West Calle Villa Hermosa,Nogales,AZ,85621,520-377-0262
Norman Trucking,2470 S Quarthorse Ln,Camp Verde,AZ,86322,702-567-1534
Consolidated Services & Construction,4803 W Misty Willow Lane,Glendale,AZ,85310,623-581-5627
Armando's Trucking,6737 W Monte Vista Rd,Phoenix,AZ,85035,623-849-3439
"Randall Transportation, Inc.",6705 N 32nd Dr,Phoenix,AZ,85017,602-841-7168
Milts Trucking,808 N 1st Street,Buckeye,AZ,85326,623-386-9292
Valenzuela Trucking,1819 N 47th Dr,Phoenix,AZ,85035,623-934-9869
R C Transportation,1630 S Mission Rd Unit 37,Tucson,AZ,85713,520-465-0932
Casillas Trucking,8205 Coconino Lane,Yuma,AZ,85364,520-782-9169
Ray-son Trucking,1524 E Carson Road,Phoenix,AZ,85040,602-677-7247
J & P Express,1823 N 90th Dr,Phoenix,AZ,85037,623-266-7564
J Payan Trucking,1009 S Central Avenue,Phoenix,AZ,85004,602-256-2951
Allied Waste Services,18500 N Allied Way,Phoenix,AZ,85054,480-627-2700
Rockway Trucking,1932 N Mesa Dr # 24,Mesa,AZ,85201,623-937-9869
Us Expo & Convention Services,2440 N Flowing Wells Road,Tucson,AZ,85705,520-573-3200
Muffa Trucking,7802 N 177th Avenue,Waddell,AZ,85355,623-946-1491
Bowles Trucking,3014 N 54th Lane,Phoenix,AZ,85031,623-247-3020
Davalos Trucking,P O Box 6908,Yuma,AZ,85364,520-580-4987
Acuna Transport,3029 S 31st Drive,Yuma,AZ,85364,928-783-5037
Vlade Trucking,1301 West 8th Street # 26,Mesa,AZ,85201,480-668-8897
A & R Trucking,420 N Morrison Ave,Casa Grande,AZ,85222,520-423-2018
R H B Trucking,6819 S 57th Ave,Laveen,AZ,85339,623-691-9592
D & G Trucking,9065 W Palm Ln,Phoenix,AZ,85037,623-907-3599
"State Wide Barricade Service, Inc.",1717 E Van Buren Street,Phoenix,AZ,85006,602-254-1188
Diamondback Logistics,19823 W Holly St,Buckeye,AZ,85326,623-853-0966
Renslen Trucking,8615 E Main #b-53,Mesa,AZ,85207,480-984-5326
Southwest Transmission Cooperative,1000 S Highway 80,Benson,AZ,85602,520-586-5599
Sonora Distributor,1425 North 27th Lane,Phoenix,AZ,85009,602-442-6616
Jackie Trucking Co,1702 W Camelback Rd,Phoenix,AZ,85015,623-937-9869
Kjr Trucking,2636 E Kings Avenue,Phoenix,AZ,85023,760-809-9501
K Bee Transport,2101 E Broadway Ste 20,Tempe,AZ,85282,623-937-9869
L & M Transport,1421 S 9th Ave,Yuma,AZ,85364,928-210-3949
A & S Transport,8427 W Glendale Ave #129,Glendale,AZ,85305,623-877-5230
Tri Valley Custom Hay Loading And Transport,1422 W 17th Street,Yuma,AZ,85364,520-782-7780
Unique Transportation,10602 N 47th Ave,Glendale,AZ,85304,623-915-0218
Faith Trucking,17648 N 113th Avenue,Surprise,AZ,85374,623-322-3619
Leonel's Trucking,2319 N 48th Dr,Phoenix,AZ,85035,602-722-1021
J G Transport,3211 S Citrus Rd,Goodyear,AZ,85338,602-330-3474
Driesen Trucking,9823 Dike Road,Mohave Valley,AZ,86440,928-768-4877
Melendrez Trucking,13565 E 15th Place,Yuma,AZ,85367,928-305-6723
German Transport,2757 Clifford Lane,Yuma,AZ,85364,520-329-6806
Smp Trucking,4021 W Lincoln St,Phoenix,AZ,85009,602-272-0227
O Gonzalez Trucking,2943 N 53rd Parkway,Phoenix,AZ,85031,623-680-5315
Larsson Transport,4925 E Bloomfield Rd,Scottsdale,AZ,85254,602-494-3822
J & J Trucking Co,2609 W Southern Ave #44,Tempe,AZ,85282,602-431-0994
Skidmark Transport,13850 North 19th Ave Apt N8,Phoenix,AZ,85023,530-251-7302
Rensberger Trucking,1369 Bacobi,Golden Valley,AZ,86413,520-565-9476
Nate Johnson Transportation,1120 W Owens,Showlow,AZ,85901,928-537-2572
Goes Transportation,1421 S 9th Ave,Yuma,AZ,85364,520-782-6323
Gmg Trucking,2968 West Ina # 112,Tucson,AZ,85741,520-730-0967
B D Wilson Transport,15275 W Scrub Brush Rd,Marana,AZ,85653,N/A
Samaritan Trucking,1324 E Cedar Dr Apt D,Pinetop,AZ,85935,509-999-3815
C&c Trucking,4061 E Taro Lane,Phoenix,AZ,85050,602-765-8411
H Bar M Transport,19330 S Rose Ln,Sahuarita,AZ,85629,520-393-7908
Jjs Hotshots,P O Box 11438e,Glendale,AZ,85318,602-570-2279
Stevens Express,564 N Biddle,Willcox,AZ,85643,520-384-9183
J J & Sons Trucking,6301 W Derridge Lane,Glendale,AZ,85301,623-937-9869
L A Express,610 Sanchez Dr,San Luis,AZ,85349,520-627-4139
Eagle Aerial & Services,2536 S Kolb Rd,Tucson,AZ,85710,520-631-0883
Aztec Dream Transport,2990 W 29th Lane,Yuma,AZ,85364,928-722-5841
Tarrance Trucking,27432 N 33rd Ave,Phoenix,AZ,85085,623-937-9869
Wyld West Transportation,57661 W Fulcar Rd,Maricopa,AZ,85239,623-937-9869
Far North Trucking,8016 W Krall St,Glendale,AZ,85303,623-937-9869
Pierce Transportation,1525 Pinto Dr,Ashfork,AZ,86320,928-637-0334
Enriquez Trucking,4607 S 38th Drive,Phoenix,AZ,85041,602-243-6518
Nam Trucking,3623 E Oraibi,Phoenix,AZ,85050,602-569-3440
Cycle Express,6024 S 196th Avenue,Buckeye,AZ,85326,602-524-8819
Cms Logistics,4703 W Brill St Ste 300,Phoenix,AZ,85043,602-233-3855
All Seasons Moving & Storage,3980 S Evans Blvd,Tucson,AZ,85713,520-889-8222
Auto Partes M V,Po Box 11897,San Luis,AZ,85349,N/A
Marilyns Lil Truck Trucking,34983 S Cecilia Pl,Marana,AZ,85653,520-628-9403
Worldwide Shippers Of Arizona And Matrix Express,109 S 57th Drive,Phoenix,AZ,85043,602-455-0600
Bencomo Trucking,16300 W Ajo #114,Tucson,AZ,85735,520-908-0142
G Navarro Trucking,5715 Flint St,Bullhead City,AZ,86426,928-768-4367
"E'ternity Trucking, Inc.",10854 N 60th Ave #2086,Glendale,AZ,85304,623-521-8503
"Desertview, Inc.",9015 W Echo Ln,Peoria,AZ,85345,623-877-7242
Starr Transport,15983 Adams,Goodyear,AZ,85338,623-853-0024
J & M Trucking,212 West Prince Road,Tucson,AZ,85705,520-631-0436
Four Reasons,6101 W Clarendon Ave,Phoenix,AZ,85033,602-488-9615
Hill Livestock Trucking,32083 N Partridge Ct,Queen Creek,AZ,85242,520-723-8442
A & D Carriers,2605 Tanglewood Pl,Lake Havasu City,AZ,86403,928-505-6217
Top Hat Express,760 N 4th Drive,Show Low,AZ,85901,928-532-5541
T A R Trucking,5644 Bolsa Dr,Golden Valley,AZ,86413,928-565-2308
B And B Trucking,1526 W Naranja Ave,Mesa,AZ,85202,480-839-4138
Howlet Trucking,2024 South 162nd Lane,Goodyear,AZ,85338,602-908-2891
Northern Arizona Auto Transport,16026 Nth 8th St,Phoenix,AZ,85022,602-980-6937
West Way Transportation,6127 W Pershing Avenue,Glendale,AZ,85304,602-229-1451
Cohin Trucking,7431 W Roma Ave,Phoenix,AZ,85033,623-937-9869
"T & T Trucking, Inc.",8640 W Mitchell Drive,Phoenix,AZ,85037,602-245-0073
Triple H Trucking,510 W International,Nogales,AZ,85621,520-377-2909
Johnston Turf Services,7602 N 175th Ave,Waddell,AZ,85355,602-697-7234
Ron Butterfield Transport,920 Autnita Obergon,Kingman,AZ,86401,520-757-3214
Harris Trucking,521 9th Place,Showlow,AZ,85902,928-532-7224
E R Peters Trucking,170 Purdy Lane,Bisbee,AZ,85603,520-241-7912
Robert Han,8255 E Kilarea,Mesa,AZ,85208,480-984-5550
I O Trucking,15996 W Washington St,Goodyear,AZ,85338,602-743-3145
Rosales Trucking,3419 W Luke Ave,Phoenix,AZ,85017,602-973-8935
Road Link Transportation,13070 W Selma Hwy,Casa Grande,AZ,85222,520-466-4053
"Los Transportation, Inc.",428 Plum St,Nogales,AZ,85621,520-287-7059
Freedom Trucking,14408 W Ely Dr,Surprise,AZ,85374,623-214-0482
Aelvoet Trucking,2217 E Fairfield St,Mesa,AZ,85213,480-668-2790
Aguila Real Trucking,845 W Idaho Street,Tucson,AZ,85706,520-281-5123
Den E Mon Trucking,25250 W Maldonado Dr,Buckeye,AZ,85326,580-323-0673
Transportness,7822 N 27th Avenue,Phoenix,AZ,85051,602-995-0827
Harlan Trucking,822 E Union Hills Dr 245,Phoenix,AZ,85024,623-937-9869
Pc Trucking,612 E Randy St,Avondale,AZ,85323,602-376-2384
L J Smith Trucking,26355 No Heeler Lane,Paulden,AZ,86334,928-273-0375
Hillbilly Trucking,10247 Frontage Rd #89,Yuma,AZ,85365,928-726-4661
Arivaca Trucking,36605 South Hard Scrabbler,Arivaca,AZ,85601,520-398-2074
Rudy's Trucking,1811 N 71st Ave,Phoenix,AZ,85035,623-606-4776
Cruz N Express,2010 N 51st Drive,Phoenix,AZ,85035,602-999-0323
Reyes Trucking,2140 S Madison Ave,Yuma,AZ,85364,928-329-6253
X-treme Transport,8433 W Clarendon Ave,Phoenix,AZ,85037,623-847-0123
Rivera's Trucking,141 N 23rd Ave,Yuma,AZ,85364,928-782-2853
J & J Trucking,3132 N 47th Ave,Phoenix,AZ,85031,602-415-1542
Jrcc Trucking,1001 N 43rd Dr Sp5,Phoenix,AZ,85009,602-415-5439
Ovi Express,6308 W Delmonico Ln,Glendale,AZ,85302,909-810-8700
Moss Transport,1228 E Marny Rd,Tempe,AZ,85281,602-369-3284
Big D Trucking,865 E Bradstock Way,Queen Creek,AZ,85240,480-529-3017
Rossi Trucking,317 S Coronado Blvd,Clifton,AZ,85533,928-865-5710
N & R Trucking,2019 N 65th Ave,Phoenix,AZ,85035,623-937-9869
Angel's Transportation,45164 W Hathaway Ave,Maricopa,AZ,85239,520-568-3072
Rands Transport,P O Box 5246,Apache Junction,AZ,85278,480-288-4691
Zepeda Trucking,1634 San Luis Lane,San Luis,AZ,85349,928-627-8283
Deans Wind Machine Service,4152 E Hamption Cir,Mesa,AZ,85206,480-807-1805
Sterling Auto Transport,25008 S 194th St,Queen Creek,AZ,85242,480-892-2586
Cora's Express,8696 E Tracy Dr,Valley,AZ,86314,928-772-1713
Carney Trucking Of Southern Az,333 E Richland Way,Cochise,AZ,85606,623-934-2296
Adonai Christian Trucking Services,4145 E Clear Creek Drive,Camp Verde,AZ,86322,928-567-6255
Phoenix Transportation,8070 North 75th Ave,Peoria,AZ,85345,623-640-5093
Johnny Barnes Transport,7651 E Lakeside Dr,Tucson,AZ,85730,602-353-9447
Free Your Mind,7096 West San Andreto ,Scottsdale,AZ,85251,928-636-1169
Exotic Trans,14439 W Banff Ln,Surprise,AZ,85379,310-710-6588
Delgado Trucking,9413 W Eaton Road,Phoenix,AZ,85037,623-643-9450
Titan Tow Trucking,2902 W Dailey St,Phoenix,AZ,85053,602-795-1371
Medina Trucking,14591 W Windsor,Goodyear,AZ,85338,971-235-1412
Rick Oberlin Trucking,3219 E Wildwood Dr,Phoenix,AZ,85048,928-639-0814
Seamorgh Transport,8432 E Vernon,Scottsdale,AZ,85257,602-326-0176
Kd Ziegler Transportation,13433 W Rimrock St,Surprise,AZ,85374,623-594-9713
"G C Hauling, Inc.",261 N 5th Dr Cabin,Show Low,AZ,85901,928-532-5061
Desert Oak Transportation,613 Mulberry,Buckeye,AZ,85326,623-386-0920
Yamason Trucking,5757 W Altadena Ave,Glendale,AZ,85304,623-486-0061
Franco Nazario Jr,202 N Monte Vista Ave,Chandler,AZ,85225,480-250-4831
Adams Trucking Co,13034 N 40th Place,Phoenix,AZ,85032,602-494-1716
August Lynn Trucking,2550 W Louise Drive,Phoenix,AZ,85027,602-885-0308
Flash Auto Transport,5114 Evergreen Drive,Sierra Vista,AZ,85635,520-458-3809
F Baldenegro Trucking,304 Laguna Ave,Parker,AZ,85344,928-669-5274
O J Trucking,3132 N 47th Ave,Phoenix,AZ,85031,602-430-7050
Aguilar Transportation,8028 W Montecito Ave,Phoenix,AZ,85033,623-594-3128
J R O C Trucking,5750 S 34th Pl,Phoenix,AZ,85040,602-268-4566
Klagenfurtspedition,6426 W Delmar Lane,Glendale,AZ,85306,602-284-0810
C J Express,113 W Cullumber,Gilbert,AZ,85233,480-632-5990
Lopez Trucking,14200 N 19th Ave Number 51,Phoenix,AZ,85023,602-547-0026
Patricia Juarez,3955 W Gelding Dr,Phoenix,AZ,85023,602-843-5591
Franco Trucking,11213 N 77th Drive,Peoria,AZ,85345,623-487-0599
R & A Transport,1362 Kennedy Lane,San Luis,AZ,85349,623-594-9799
C G Trucking,10030 W Indian School Rd 129,Phoenix,AZ,85037,623-937-9869
Gastelum Trucking,445 S Dobson Rd #3014,Mesa,AZ,85202,480-962-3988
G Trucking,4001 E Windsor Ave,Phoenix,AZ,85008,602-615-8109
R T Trucking,6355 W Caron Street,Glendale,AZ,85302,623-930-8013
Dg Trucking,6634 W Vinca Rose Drive,Tucson,AZ,85744,520-578-8219
Actl,3464 South 80th Street,Mesa,AZ,85212,480-986-5735
Martinez Trucking,420 E Townly Apt 6,Phoenix,AZ,85020,602-628-6222
Freight Associated,515 Cedar St,Eloy,AZ,85231,915-309-5507
A Baldenegro Transportation,12669 N Ottowa Drive,Casa Grande,AZ,85222,520-560-6211
Cochise Floral Transport,5270 N Joe Hines Rd,Willcox,AZ,85643,520-384-2259
Byrons Trucking,4011 N 79th Drive,Phoenix,AZ,85033,623-873-2054
Cham Express,7045 S 7th Ave,Phoenix,AZ,85041,602-243-2744
Cee Jay's Trucking,1050 N Horne,Mesa,AZ,85203,480-962-9893
Walter Cruz Trucking,16920 W Altar Rd,Tucson,AZ,85736,520-822-9340
S M C Auto Transport,214 N Gilbert Rd # 155,Mesa,AZ,85203,916-904-2575
K&v Trucking,3102 W Taylor,Phoenix,AZ,85009,N/A
M&t Trucking,8802 W Peoria Apt 193,Peoria,AZ,85345,718-386-4074
Claw Enterprises,3 Miles N Sr Hwy264 Mmir 27,Ganado,AZ,86505,928-755-3755
W&t Trucking,5872 White Pine Drive,Show Low,AZ,85902,928-527-0689
Rw Landrum Trucking,11901 W Mcdowell #66,Avondale,AZ,85392,602-909-5014
"S & B Trucking Enterprises, Inc.",P O Box 5968,Peoria,AZ,85385,602-363-3088
Moore Trucking,367 N River Rd,Saint David,AZ,85630,520-720-4163
Diablo Rojo Express,5705 W Buckeye Road,Phoenix,AZ,85043,602-258-4955
M & Guzman Transport,3745 W Verde Lane,Phoenix,AZ,85019,602-393-1290
Valentine Trucking,4051 N 79th Avenue,Phoenix,AZ,85033,623-845-6231
Bear's Trucking And Freight,2027 Gregg Ln,Bullhead City,AZ,86442,928-758-7414
Land Air & Water Transportation,4397 W Bethany Home Rd #1053,Glendale,AZ,85301,760-253-4621
Zazagoza Trucking,9121 W Jefferson,Tolleson,AZ,85353,623-478-9212
Lightning Logistics,6202 E Mckellips Rd Ste 214,Mesa,AZ,85215,702-498-4893
Peniel Trucking,2607w Bloch Rd,Phoenix,AZ,85041,602-441-4296
Thunder & Lightning Transportation,1022 W Ina Rd,Tucson,AZ,85704,520-742-0337
"S A I S C, Inc.",4065 W Lower Buckeye,Phoenix,AZ,85009,602-272-9041
Total Commercial Service Trucking,1519 E Calle Salmanca,Tucson,AZ,85714,520-548-2017
"Madril Trucking, Inc.",7185 Veda Drive,Wilhoit,AZ,86332,928-533-6078
P V S Trucking,6845 W Maverick Rd,Sahuarita,AZ,85629,520-648-2235
Neff Trucking,3245 Silversmith Drive,Lake Havasu City,AZ,86406,760-238-8237
Five Brothers Transportation,1190 W Kofa Ct,Yuma,AZ,85365,928-446-1073
B And H Express,20407 N 31st Place,Phoenix,AZ,85050,602-821-5605
Sdb Transport,8744 W Ruth Ave,Peoria,AZ,85345,623-363-1350
Zam Express,173 W Morelos St,Chandler,AZ,85225,480-678-5530
Figueroa Trucking,126 E Boder St,Sasabe,AZ,85633,631-316-0593
Ms Trucking,4060 South Avenue 3 1/4 East,Yuma,AZ,85365,831-588-0725
Rps Trucking,14223 N Del Cambre Ave,Fountain Hills,AZ,85268,602-524-6313
Gipson Transport,14870 W Windsor Ave,Goodyear,AZ,85395,602-721-3039
Little Red Trucking,4747 W Rencher,Snowflake,AZ,85937,928-536-3901
Maria B Valencia Trucking,376 South 16th Ave,Yuma,AZ,85364,928-373-9665
Frs Trucking,17351 E Teal Drive,Fountain Hills,AZ,85268,480-836-0480
J G Trucking,4007 N 58th Ave,Phoenix,AZ,85031,623-247-6028
Toscano Trucking,8639 N 7th St #3,Phoenix,AZ,85020,602-943-0629
S & S Wildland Contract Services,202 E Airline,Payson,AZ,85547,928-474-9758
New River Transport,17 W Rockaway Hills Rd,Phoenix,AZ,85086,623-937-9869
Arrow Van Lines,1202 S 40th Ave,Phoenix,AZ,85009,602-252-7800
"Pro Source Industrial Services, Inc.",510 S Lewis,Mesa,AZ,85210,480-827-8080
Djw Trucking,15632 W Greasewood St,Surprise,AZ,85374,623-583-9397
C & H Trucking,16874 W Portland St,Goodyear,AZ,85338,623-670-4268
Wild West Express,Po Box 1425,Springerville,AZ,85938,928-333-2563
Walkers Transport,1018 W Ivanhoe Street,Chandler,AZ,85224,480-917-2586
Abz Transportes,14230 S Ave 3 E,Yuma,AZ,85365,623-937-9869
Transportes Nuevo Casas Grandes,2900 Sulphur Springs,Douglas,AZ,85607,602-253-8272
"United Auto Carriers, Inc.",42215 N Caledonia Way,Anthem,AZ,85086,623-551-3879
Aj's Transport Express,856 South Hwy 89,Chino Valley,AZ,86323,928-583-0297
C K Hayward Trucks Arizona,41011 W Honeycutt Rd,Maricopa,AZ,85239,520-568-4747
Meikle Moving,8208 W Corrine Dr,Peoria,AZ,85381,602-369-5407
International Freight Company,6832 Constitution Street,San Luis,AZ,85349,928-627-4151
Amar's Trucking,8247 West Whitton Avenue,Phoenix,AZ,85033,602-423-1726
Sebastian Autotrans,19509 N 74 Drive,Glendale,AZ,85308,909-825-6641
American South West Van Lines,14507 W Ventura Street,Surprise,AZ,85379,623-474-3301
Curtis Carriers,Pmb 111 Po Box 42036,Phoenix,AZ,85080,623-879-9734
Guzman Trucking,8926 W Flower Street,Phoenix,AZ,85037,N/A
Zepeda Trucking,315 Conejo,Stanfield,AZ,85272,623-937-9869
D And D Trucking,972 S Date Ave Lot #17,Yuma,AZ,85364,928-941-2176
Jimmy's Superior Auto Transport,35535 N Hanging Tree Rd,Queen Creek,AZ,85241,480-458-5020
Meza Logistics Trucking,2901 N Grand Ave #8,Nogales,AZ,85621,N/A
Rudy's Transport,10444 W Devinshire Ave,Phoenix,AZ,85037,602-291-6393
A&b Transport,6719 West Lewis Avenue,Phoenix,AZ,85035,602-859-9528
New Star Transport,5315 N 104th Dr,Glendale,AZ,85307,623-760-7434
Wholehearted Homsteads & Hauling,578 Wyatt Farpp,Yucca,AZ,86438,323-422-5978
Rubicon Trucking,14013 West Zodiac Drive,Eloy,AZ,85231,520-709-0889
Cjs Trucking,541 N 64th Pl Apt 3,Mesa,AZ,85205,623-882-8702
Lake Zurich Transport,1983 E Monterey St,Chandler,AZ,85225,480-326-0874
Day In Night Out Mover,855 N Dobson Rd,Chandler,AZ,85224,N/A
Ortiz Trucking,777 59th Ave Apt #2066,Phoenix,AZ,85043,602-330-1941
Malotte Trucking,1625 W Irvin Rd,Phoenix,AZ,85086,623-847-0123
Red Rock Trucking,23216 N 72nd Ave,Glendale,AZ,85310,623-566-6210
Ksk Hauling & Construction,15508 W Bell Road Suite 101-522,Surprise,AZ,85374,N/A
Gala Freight Services,15803 S Ave 2 1/2 E,Yuma,AZ,85365,928-627-4061
Arreaza Transport,2234 N 50th Drive,Phoenix,AZ,85035,602-373-6390
Kerry All Transportation,7145 North 76th Drive,Glendale,AZ,85303,602-538-4496
Paul Vonschoech Transport,401 Ash Street,Phoenix,AZ,85037,N/A
C & A Transport,8247 W Whitton,Phoenix,AZ,85033,N/A
Phoenix Fleet And Freightways,8728 W Corky O'brien Way,Tolleson,AZ,85353,602-299-4532
T Mcguane Transport,11712 S 335th Avenue,Arlington,AZ,85322,602-971-9438
Newton Trucking,35003 N 11th Street,Phoenix,AZ,85086,602-692-2632
Special Deliveries,4440 E Elwood St 102,Phoenix,AZ,85040,480-443-3200
Roman Brothers Trucking,8821 W Cambridge Ave,Phoenix,AZ,85307,623-936-1145
Driven To Perfection,3841 South Heath Way,Chandler,AZ,85248,602-418-6766
Fourteen-forty Logistics,4030 East Broadway Road Ste 801,Phoenix,AZ,85040,602-438-1875
Valenzuela Trucking,6017 W Coolidge Street,Phoenix,AZ,85033,623-266-0103
Dunvav Express,2234 E Williams Drive,Phoenix,AZ,85024,480-419-7847
Sz Trucking,7846 W Tuckey Lane,Glendale,AZ,85303,623-915-1507
J And M Trucking,3012 West Garfield,Phoenix,AZ,85006,602-484-4395
Makana Trucking,1442 Sin Court,Rio Rico,AZ,85648,520-841-1613
Fabians Trucking,1214 S 119th Drive,Avondale,AZ,85323,623-444-6098
Rga Transport,31022 N. 165 Dr.,Surprise,AZ,85387,623-544-5759
Memo Trucking,6475 W Freeway Ln ,Glendale,AZ,85302,602-375-8230
J & M Trucking,2323 N 51st Avenue,Phoenix,AZ,85035,623-937-9869
Shelley Trucking,488 S Frontier Pkway,Snowflake,AZ,85937,928-536-2113
A&l Trucking,146 W Linda Vista Lane,Douglas,AZ,85607,520-805-0321
Cars Across Usa,1522 E Southern Ave 1157,Tempe,AZ,85282,602-300-6209
Padwrap Logistics,3415 E Emelita Ave,Mesa,AZ,85204,800-530-9162
Omni Trucking,5907 W Pierce Street,Phoenix,AZ,85043,602-795-2374
D 3 Times Transportation,20701 N Scottsdale Road Ste 242,Scottsdale,AZ,85255,480-437-9194
Mzx Transport,4424 E Baseline Road Apt 2079,Phoneix,AZ,85042,480-643-9909
K A C Express,1820 Calle Giriggio,Rio Rico,AZ,85648,520-250-7748
Ramirez Transport,348 S 7th Ave,Yuma,AZ,85364,928-277-6016
Double T Transport,8607 W Minnezona,Phoenix,AZ,85037,623-849-7177
D R C Trucking,5626 E Mabel St,Tucson,AZ,85712,520-751-0875
J Martinez Trucking,12141 N 23rd Ave #17,Phoenix,AZ,85027,817-306-5882
Associated Mobile Home Movers,2966 E Dover St,Mesa,AZ,85213,602-924-4592
Rider Transport Service,3365 W Madera Drive,Eloy,AZ,85231,520-413-3329
Jpn Express,16464 W Rimrock Street,Surprise,AZ,85388,623-556-4723
Gamez Trucking,1955 W Grant Rd Ste 125e,Tucson,AZ,85745,602-882-6922
Dylan Transportation,926 Copper Basin Rd,Prescott,AZ,86303,N/A
Chavarria Trucking,7290 E Desert Palm Dr,Tucson,AZ,85730,323-292-6966
White Mountain Transport,1800 Concho Hwy,Snowflake,AZ,85937,602-536-2073
Desert Express,2644 N 24 Ave,Phoenix,AZ,85009,602-253-1779
Large Trucking Co,1715 Valencia Rd,Fort Mohave,AZ,86427,602-763-7880
Sahnan Transportation,10805 N 66th St,Scottsdale,AZ,85254,N/A
B B T Transportation,5932 West Bell Road,Glendale,AZ,85308,N/A
S And S Trucking,5th St & Arnold #523,Camp Verde,AZ,86322,602-567-3784
M C Trucking,6502 W Garfield St,Phoenix,AZ,85043,N/A
Sunstate Transport,4680 N 105th Ave,Phoenix,AZ,85037,602-381-0007
Ag Transportation,180 Carpa Ct,Rio Rico,AZ,85648,520-761-1985
Mid-valley Auto Center,1940 Hwy 95,Bullhead City,AZ,86442,928-763-2586
Lee Transport Service,8902 N 19th Ave #1071,Phoenix,AZ,85021,602-331-3087
Python Trucking,2142 E Poquita Vista,Tucson,AZ,85713,602-622-7629
Wayne Greer Trucking,12649 Pima Pkwy,Topock,AZ,86436,602-768-7291
Jdm Transportation,10830 East Yucca,Scottsdale,AZ,85259,N/A
Gw Services,1528 W San Pedro,Gilbert,AZ,85234,800-288-9607
Mada Trucking,777n 59th Ave 1143,Phoenix,AZ,85043,602-447-0561
National Express,1422 N 31st Pl,Phoenix,AZ,85008,602-231-0749
Camel Express,1912 N 200th Ave,Buckeye,AZ,85326,623-853-0606
Space Motor Carriers,10610 S 48th St Unit 1068,Ahwatukee,AZ,85044,N/A
Frank M Garcia Trucking,6735 W Merrell St,Phoenix,AZ,85033,602-873-6069
Trinity Transport,5142 N 43rd Ave,Phoenix,AZ,85019,N/A
L & J Trucking,1944 W Thunderbird #335,Phoenix,AZ,85023,N/A
Martinez Trucking Co,3388 W 17 St,Somerton,AZ,85350,928-627-3016
Gary Clarke Trucking,18047 N 1st St,Phoenix,AZ,85022,N/A
"Steen Transportation, Inc.",Hc 62 Box 952,Camp Verde,AZ,86322,602-253-1779
Chavez & Son's Trucking,3702 W Las Palnaritas,Phoenix,AZ,85051,602-253-1779
Rojo Trucking,4625 N 54th Ave,Phoenix,AZ,85031,623-873-7930
"Felco, Inc.",711 North 17th Avenue,Phoenix,AZ,85007,602-253-2992
Jm Freight Systems,504 Frontage Rd,Nogales,AZ,85621,N/A
Mexican American Transport Service,5086 S Warren Ave,Tucson,AZ,85706,602-741-2173
A & A Transportation,206 Goold Blvd,Avondale,AZ,85323,602-932-5066
General Services Administration,Po Box #310,Winslow,AZ,86047,602-526-6680
Joey Trucking,6767 N 7th St,Phoenix,AZ,85014,N/A
Rigo's Trucking,6243 N 47th Dr,Glendale,AZ,85301,602-841-4706
Beton's Trucking,6615 W Roosevelt,Phoenix,AZ,85043,623-936-8092
A Lizarraga Trucking,293 Camino Apolena,Rio Rico,AZ,85648,602-281-8619
Enrique Express,2644 N 24th Ave,Phoenix,AZ,85009,602-253-1779
Tawa Transport,513 West Valle Verde Pl Ste 11,Nogales,AZ,85621,602-281-0850
Pacheco Trucking,2644 N 24th Ave,Phoenix,AZ,85009,602-253-1779
Gibson Trucking,8734 West Sheridan,Phoenix,AZ,85037,602-936-4981
Salinas Freight,2385 North Grand Ave Ste 111,Nogales,AZ,85621,602-884-5908
Earl Pierce Trucking,Hc 70 Box 3332,Sahuarita,AZ,85629,602-648-2178
Mesa Trucking,18166 N Jameson Dr,Maricopa,AZ,85238,520-424-9121
Branson Transportation,2903 N Steves Blvd,Flagstaff,AZ,86004,602-527-0529
3bs Trucking,28501 Az Ave,Wellton,AZ,85356,520-785-4455
Mix Trucking,8223 Calle Azteca,Guadalupe,AZ,85283,602-253-1779
Wystock Trucking,2644 North 24th Ave,Phoenix,AZ,85009,602-253-1779
Valley Transportation,2547 North Grand Ave,Nogales,AZ,85621,800-761-1703
Miller Transport,4036 W Chama Dr,Glendale,AZ,85310,602-336-8222
Transportes Simental,4150 South Irving Rd,Sahuarita,AZ,85629,602-622-5441
Mccaskell Trucking,1912 East Apache Blvd,Tempe,AZ,85281,602-918-8148
Pannu Trucking,9132 W Cactus Rd Suite J,Peoria,AZ,85381,602-979-6431
Road Runner Horse Hauler,T-bone Road,Paulden,AZ,86334,602-636-9138
K U Z Trucking,10302 W Earll Dr,Avondale,AZ,85323,602-919-2483
Tonopah Freightlines,Hc 2 Box 586 A,Tonopah,AZ,85354,602-253-1779
Roy D Cook Transportation,5821 West Oatman Rd,Golden Valley,AZ,86413,928-565-2717
Clint Peek Performance Transportation,8813 W Roanoke Ave Ste 160,Phoenix,AZ,85037,602-936-6271
Transportes J Rios,112 North Qunitana,Rio Rico,AZ,85648,N/A
Zepeda Trucking,340 W 32nd Street,Yuma,AZ,85364,928-920-2899
M B J Transportation,510 S 348th Ave,Tonapah,AZ,85354,623-393-8818
Levesma Trucking,2156 N Calle Trinidad,Nogales,AZ,85621,520-253-1779
Pveco,Po Box 1222,Maricopa,AZ,85239,520-840-9718
Tri State Express,5207 West Judum,Laveen,AZ,85339,800-874-1559
Mirage Transportation,4416 W Cavalier Dr,Glendale,AZ,85301,602-934-0002
Koritas Trucking,1200 W Industrial Park Suite B,Nogales,AZ,85621,602-761-3394
Southland Transport,2478 East John Cabot Rd,Phoenix,AZ,85032,602-493-9014
Giant Moving Systems,8670 E Apache Dr,Prescott Valley,AZ,86314,602-775-4003
National Truck Service,942 W Grant Rd,Tucson,AZ,85705,N/A
Baker Boy Transport,52440 Pbm,Maricopa,AZ,85239,520-568-9339
Parrish Trucking,3311 W Waghner Rd,Phoenix,AZ,85023,602-938-8470
H & H Trucking,3 And D,San Luis,AZ,85353,602-253-1779
J & L Trucking,2301 E University #172,Mesa,AZ,85213,602-964-0030
"Hcs, Inc.",3031 W Northern Ave 171,Phoenix,AZ,85051,N/A
Martin Pimentel Trucking,5044 W Sierra,Glendale,AZ,85301,602-253-1779
Berrys Trucking,1025 W Cochise Dr #121,Phoenix,AZ,85021,N/A
Lewis & Son Backhoe Service,2131 Northern Ave,Kingman,AZ,86401,520-757-3888
Cortez Trucking,6115 W Port Au Prince,Glendale,AZ,85306,623-848-1100
"Dm Trucking, Inc.",902 South 12th Street,Phoenix,AZ,85034,602-258-9013
Pak United,14661 W Avalon Dr,Goodyear,AZ,85338,N/A
Fuel Express,3747 Express Dr,Holbrook,AZ,86025,928-524-3006
B & N Trucking,2651 N Grand Ave #22,Nogales,AZ,85621,602-761-4270
North Mountain Transport,106 East Cheyenne St,Flagstaff,AZ,86001,520-525-9520
S & K Zinner Trucking,1519 South San Marcos,Apache Junction,AZ,85220,602-982-1008
Mcreynolds Truck,4725 W Solano Dr S,Glendale,AZ,85301,602-937-8911
Cruz Trucking,3017 N Douglas Ave,Pirtleville,AZ,85626,520-805-9829
Silver Eagle Express,6462 E Via Esperanza Del Sol,Sahuarita,AZ,85629,520-762-8120
Auto Express,1645 W Hatfield Rd,Phoenix,AZ,85027,N/A
Dicus Trucking,Hc 02 Box 6051,Tonopah,AZ,85354,N/A
Reese Trucking Co,5740 N 68th Dr,Glendale,AZ,85303,602-846-3249
Alfonso Zaragoza Trucking,2679 West 21st Lane,Yuma,AZ,85364,602-783-0921
P F T L Trucking,5045 La Calzada,Fort Mohave,AZ,86427,800-995-8731
Rodriguez Trucking,2050 N Congress 212,Nogales,AZ,85621,N/A
Pena Trucking,439 G Ave,Douglas,AZ,85608,520-227-3288
Manuel Robles Trucking,1335 N Industrial Park,Nogales,AZ,85621,520-761-3394
Ron Dawgs Trucking,2908 Van Marter Court,Kingman,AZ,86401,520-692-6615
V & V Trucking,1335 Udai Lane,San Luis,AZ,85349,928-627-4974
Jtac Ranch & Trucking Company,1168 N Bankard,Nogaleso,AZ,85648,520-287-4237
Castro Trucking,2644 N 24th Avenue,Phoenix,AZ,85009,602-253-1779
Morris Caywood Transportation Services,19418 W Mcdowell,Buckeye,AZ,85326,N/A
Kodiak Enterprises Transportation Company,8501 W Ocotillo,Glendale,AZ,85303,602-939-4532
Charlie's Transport,9797 S 349th Ave,Arlington,AZ,85322,602-386-1056
La Trucking,21032 N 34th Drive,Phoenix,AZ,85027,N/A
Fj & J Transport,15710 Lemon Ave,Somerton,AZ,85350,520-627-1063
First Enterstate Moving & Storage,4501 N 71st Avenue,Phoenix,AZ,85033,602-848-1553
Red Mountain Transport,6562 E Norwood St,Mesa,AZ,85215,602-807-4350
N Wayne Coplan Trucking,1957 E Crystal Lane,Eagar,AZ,85925,520-333-5156
Ronald J Spencer Sr Trucking,16037 N 49th Ave,Phoenix,AZ,85035,N/A
Connors Trucking,530 S Alma School Rd #89,Mesa,AZ,85202,602-827-1164
T N R Transportation,5739 W Glenrosa Ave,Phoenix,AZ,85031,602-997-7016
Santa Rosa Trucking,6547 N 59th Dr,Glendale,AZ,85301,602-253-1779
Lillys Trucking,9848 S 164th St,Gilbert,AZ,85234,602-432-0647
"Mountain View Distributors, Inc.",4423 E Laestencia Circle,Phoenix,AZ,85331,602-473-2661
Bdm Trucking,9037 W Meadowbrook Ave,Phoenix,AZ,85037,623-374-7001
Jcb Trucking,400 W Baseline #101,Tempe,AZ,85283,602-989-0883
Eason Trucking,7111 N 75th Ave #1074,Glendale,AZ,85303,602-930-9268
C F Trucking,8007 W Highland,Phoenix,AZ,85033,602-389-7021
A & I Transport,2314 E Eastland St,Tucson,AZ,85719,520-628-3195
J A V Trucking,547 North 59th Drive,Glendale,AZ,85301,818-330-6338
R G Robinson Transportation,15276 N 64th Ave,Phoenix,AZ,85306,N/A
Mre Automotive,2525 North First Ave,Tucson,AZ,85719,520-792-4555
Big H Trucking,1625 West Beck Lane,Phoenix,AZ,85023,602-993-6381
R & B Trucking,2660 S Papago Rd,Golden Valley,AZ,86413,928-234-5900
Phoenix Turf Express,12801 S 337th Ave,Arlington,AZ,85322,623-386-6482
Roo Express,3225 Malapai Dr,Chino Valley,AZ,86323,520-636-0462
Rideco Trucking,7266 N Oracle Suite #126,Tucson,AZ,85704,520-712-7361
M&d Farms & Trucking,208 E 19th Place,Safford,AZ,85546,520-428-6164
Keim Transport,9431 E Coralbell #168,Mesa,AZ,85208,602-380-1604
Mitchell Trucking,8170 S Hwy 95,Yuma,AZ,85365,520-726-4661
"Pearson Transport, Inc.",112o Rodeo Drive,Williams,AZ,86046,520-635-4220
Graywolf Transport,4140 North 58th Ave,Phoenix,AZ,85031,N/A
Stephens Trucking,P O Box 399,Ehrenberg,AZ,85334,909-737-2245
Brcs Trucking,102 W Palanio,Chandler,AZ,85224,602-926-4341
David M Russell Trucking,2402 W Freeway Ln,Phoenix,AZ,85021,602-353-9447
Contract Moving & Transfer Systems,2111 S Magnolia,Tucson,AZ,85711,N/A
Moulder Trucking,1 1/2 Mile N Fort Grant Rd,Willcox,AZ,85644,520-384-2827
Lerma Trucking,613 Mahoney Ave,Buckeye,AZ,85326,602-386-4531
Transportes Fis,235-5 N Freeport Drive,Nogales,AZ,85628,520-287-4727
"Duran Trucking, Inc.",P O Box 6394,Nogales,AZ,85628,602-831-2082
Ms Trucking,1740 South 5th Ave,Yuma,AZ,85364,520-783-1647
"Emco Trucking Co, Inc.",2901 Arizona Ave,Yuma,AZ,85364,520-344-8111
"Kcsr Trucking, Inc.",5633 W Sells Drive,Phoenix,AZ,85031,602-245-2936
Vand's Transit,2127 Pawnee,Kingman,AZ,86401,520-718-2331
J & B Trucking,2626 N 49th Ave,Phoenix,AZ,85035,602-278-8902
J & W Express,10342 E Jones,Apache Jct,AZ,85220,602-986-6643
Transporte Curriel,235-5 N Freeport Dr,Nogales,AZ,85628,N/A
Alas Trucking,5125 S Via Laguna Blanca,Tucson,AZ,85706,520-889-2189
Keith Trucking,1153 Euclid Apt C,Globe,AZ,85501,520-425-2678
Union De Transportistas De Ladrillos De Querobabi,235-5 N Freeport Drive,Nogales,AZ,85628,520-287-4727
Ariz-son Express,235-5 Freeport Drive,Nogales,AZ,85628,520-287-4727
Barragan Transport,2836 N Bitachi Dr,Nogales,AZ,85621,520-281-2863
Jwa Trucking,3912 North 112th Lane,Avondale,AZ,85323,602-877-4707
Osa Transport,110 S 92nd Avenue,Tolleson,AZ,85353,602-435-8696
M & T Trucking,122 West Tennessee Street,Tucson,AZ,85714,602-253-1779
M&s Trucking,P O Box 6908,Yuma,AZ,85366,520-329-1231
Future Trucking,8114 W Collidge Ave,Phoenix,AZ,85033,602-848-3915
A & J Transportation,609 N 350th Dr,Tonopah,AZ,85354,602-363-3873
T And G Transportation,777 N 59th Ave Apt 1174,Phoenix,AZ,85043,602-272-8039
P S U Express,1726 West Mckinley Street,Phoenix,AZ,85007,602-254-8443
Trujillo Transport,1423 N 27th Ln,Phoenix,AZ,85009,909-613-6763
Navajo Sanitation Services,2 M N Of Hwy 264 On Rte 12,Window Rock,AZ,86515,928-871-4395
Starke Trucking,7645 W Missouri Ave,Glendale,AZ,85303,602-846-8409
San Diego Auto Transport,5122 N 136th Lane,Litchfield Park,AZ,85340,619-889-1589
"Maricopa Aircraft Service, Inc.",1662 N Painted Hills Road,Tucson,AZ,85745,520-743-3403
Inter City Express Services,1417 E Hoover St,Phoenix,AZ,85006,602-910-4653
Auto Expreso Seis De Abril,2639 N Donna Ave,Nogales,AZ,85628,520-531-9793
D & L Transport,2211 East Willetta,Phoenix,AZ,85006,602-275-4646
Nighthawk Flatbed Transport,18402 N 19th Ave Ste 210,Phoenix,AZ,85023,760-956-6148
Esparza Trucking,8093 South Farmercreek Drive,Tucson,AZ,85706,909-913-1573
Whitlow Trucking,3544 E Southern Avenue #104,Mesa,AZ,85204,602-644-0840
Young Trucking,4880 Voltares Ln,Amado,AZ,85645,520-703-3893
Ndc Trucking,1249 Calle Pico Gordo,Rio Rico,AZ,85648,520-573-0769
Acme Transport,Po Box 4662,Rio Rico,AZ,85621,520-573-1776
North American Resources,16145 W Sundust,Chandler,AZ,85226,520-796-4054
George's Trucking,11005 North 45th Ave,Glendale,AZ,85304,602-843-2717
Trans Mountain Express,12145 Daviti Lane,Tucson,AZ,85735,520-822-1780
Thc Trucking,2616 Jamaica Blvd S,Lake Havasu City,AZ,86406,562-879-9762
Double T Transport,4029 W Pecan,Phoenix,AZ,85041,602-237-4910
Roto Rooter Sewer & Drain Service,1880 Willow Ave,Lake Havasu City,AZ,86403,520-453-7686
Gst Transport,5720 Paseo De La Pereza,Tucson,AZ,85715,520-299-3196
J Q Trucking,2908 N 80th Lane,Phoenix,AZ,85033,N/A
Deimling Trucking,2233 E Behrend Dr #58,Phoenix,AZ,85024,602-569-5326
J-p-m Trucking,5332 W Cypress St,Phoenix,AZ,85035,602-368-1733
Torresmena Trucking Corporation,23623 South Cesar Chavez St,San Luis,AZ,85349,520-627-1788
Ca-ty Auto Sales,550 Mikes Pike,Winslow,AZ,86047,928-289-2335
"L T L Truck Brokerage, Inc.",140 Terminal Produce Dr,Nogales,AZ,85621,520-761-1983
Loza Trucking,140 E Morley Ave,Nogales,AZ,85621,520-377-9036
R & B Transport,17006 N 61 St,Scottsdale,AZ,85254,480-288-9223
Miranda Trucking,5312 W Palm Lane,Phoenix,AZ,85035,602-415-1278
Tj's Trucking,4543 E University,Phoenix,AZ,85034,909-604-3630
Garney Trucking,2229 Booster Drive,Bullhead City,AZ,86442,520-758-5202
Mcfarland Trucking,4001 West Lynne Lane,Phoenix,AZ,85041,602-276-3498
Gonzalez Trucking,30445 West Roosevelt Street,Buckeye,AZ,85396,559-289-5933
Desert Illusions Transportation,19007 North 25 Way,Phoenix,AZ,85024,602-569-0067
Castanos Trucking,23520 S 3 St,San Luis,AZ,85349,520-627-1788
H & P Brown Trucking,2620 East Marconi,Phoenix,AZ,85032,602-788-1082
W R Stevens Trucking,7400 Central Hwy,Mcneal,AZ,85617,520-364-7791
J L Trucking,488 West Curtis,Nogales,AZ,85621,520-287-7862
American Transport,1302 N Craycroft Apt G,Tucson,AZ,85712,520-761-7534
Arrowhead Transport,6815 W Wagoner Road,Glendale,AZ,85308,602-439-1849
Gomez Trucking,5926 W Holly,Phoenix,AZ,85035,602-247-2394
C & W Transport,1779 Riverside Dr,Bullhead,AZ,86442,N/A
Ledezma Transport,1819 N 40th Street Apt B-4,Phoenix,AZ,85008,602-914-1309
Sega Transportation,6161 S Park,Tucson,AZ,85706,520-573-7116
Hard Time Transport,25023 North 50 Avenue,Glendale,AZ,85310,N/A
Sem Trucking Southwest,8234 E 19th Street,Tucson,AZ,85710,520-722-5898
Damon Freight Lines,1480 North Highway 89a,Fredonia,AZ,86022,928-643-6200
A & M Transportation,1 Hopi St,Nogales,AZ,85628,520-377-9066
Guevara And Sons Trucking,5505 S Mission Rd #6102,Tucson,AZ,85746,520-557-2827
K & R Trucking,841 E Highway 287,Casa Grande,AZ,85294,520-709-0137
Spiker & Sons Trucking,4702 W Mitchell Drive,Phoenix,AZ,85031,602-245-0732
Ag Trans,16224 North Church Street,Surprise,AZ,85378,602-583-4000
Vega Transportation,Granada Trailer Park Space #11,Tumacacori,AZ,85640,520-761-3346
P & P Transport,Rr 5,Ganado,AZ,86505,520-934-4661
Lazrex Ladners Arizona Regal Express,Po Box 194,Willcox,AZ,85644,520-432-3705
Kreative Trucking,4150 West Peoria Suite 135,Phoenix,AZ,85029,888-352-1710
"Right Way Trucking, Inc.",1720 West Broadway Ste 102,Mesa,AZ,85202,888-479-5555
Transportes Martinez,880 9th St West N Douglas Ave,Douglas,AZ,85607,520-364-6533
F & F Trucking,9418 S 6th Avenue,Phoenix,AZ,85041,602-276-8357
J T Transport,122 W Tennessee,Tucson,AZ,85714,520-557-2827
Avm Trucking,3374 E El Toro Rd,Sahuarita,AZ,85629,520-625-9710
Transportes Gurrola,235-5 N Freeport Drive,Nogales,AZ,85621,520-287-4727
M K S Trucking,9302 East Broadway Road #85,Mesa,AZ,85208,480-986-6457
R Mahan Trucking,8th St And Paradise,San Simon,AZ,85632,520-845-2305
Equipment Express Co,12915 Raindance,Flagstaff,AZ,86003,520-774-1710
Desert Winds Trucking,6011 W St Moritz Ln,Glendale,AZ,85306,602-843-8498
Razorback Auto Transport,71 N 64th Dr,Phoenix,AZ,85043,602-907-2768
Dusk To Dawn Transport,1627 S 178th Ave,Buckeye,AZ,85326,602-853-1157
G S P Trucking,2644 N 24th Ave,Phoenix,AZ,85009,602-253-1779
Jml Trucking Co,4128 W Van Buren #9b,Phoenix,AZ,85009,602-415-1106
R R & J Moving,664 Palo Verde Dr,Bullhead,AZ,86442,520-758-6180
A P Trucking,802 N 40th Avenue,Phoenix,AZ,85009,602-290-2182
Extreme Transport,2838 Berry Ave.,Kingman,AZ,86401,928-718-5663
Transportes Cerecer,235-5 N Freeport Drive,Nogales,AZ,85621,520-287-4727
Transportes Refrigerados L A R G,235-5 N Freeport Drive,Nogales,AZ,85621,520-287-4727
R & B Wheelis Trucking,42525 Hwy 60,Salome,AZ,85348,520-859-4315
Autotransportes Avila,235-5 Freeport Drive,Nogales,AZ,85621,520-287-4727
Transportes Aviles Rocha,235-5 N Freeport Drive,Nogales,AZ,85621,520-287-4727
Flores Bros Trucking,1653 A Street,San Luis,AZ,85349,619-344-7622
Thomas Trucking,6821 E Broadway 104,Tucson,AZ,85710,520-721-1012
Trio Trucking,10736 W Bermuda Drive,Avondale,AZ,85323,602-684-0329
Transportes Rabago,235-5 N Freeport Drive,Nogales,AZ,85621,520-287-4727
Transportes Murmullo,235-5 N Freeport Drive,Nogales,AZ,85621,520-287-4727
Nielsen Trucking,13214 N 56th Ave,Glendale,AZ,85304,N/A
Transportes Suarez,235-5 N Freeport Drive,Nogales,AZ,85621,520-287-4727
Transportes Zapien,235-5 N Freeport Drive,Nogales,AZ,85621,520-287-4727
Karina Trucking,6333 W Coronado,Phoenix,AZ,85035,602-873-6706
Coyote Pass Transportation,2 1/2 Mi No Of Rt 264 And Rt 1,Window Rock,AZ,86515,520-729-2605
Rojas Trucking,11374 Los Tres Hombres,San Luis,AZ,85349,520-627-1517
Transportes De Carga El Verde,235-5 N Freeport Drive,Nogales,AZ,85621,520-287-4727
Rocha's Trucking,10453 37th Pl,Yuma,AZ,85366,928-920-6515
M & O Trucking,4530 W Mclellan #44,Glendale,AZ,85301,602-939-4565
Anderson Trucking,318 W Minton Street,Phoenix,AZ,85041,602-268-1668
Transportes Refrigerados Jc,235-5 N Freeport Drive,Nogales,AZ,85621,520-287-4727
Sanchez Transport,36766 W Cooper Dr,Stanfield,AZ,85272,520-424-3573
Transportes Gastelum E Hijos,235-5 N Freeport Drive,Nogales,AZ,85621,520-287-4727
Transportes Sierra E Hijos,235-5 N Freeport Drive,Nogales,AZ,85621,520-287-4727
Transportes Teo,235-5 N Freeport Drive,Nogales,AZ,85621,520-287-4727
Truck Tractor & Equipment Co,16810 S 54th St,Chandler,AZ,85224,602-275-0045
Transportes Travacusa,235-5 N Freeport Drive,Nogales,AZ,85621,520-287-4727
Reyes Trucking,2500 W. 20th Pl,Yuma,AZ,85364,928-919-8941
G A Trucking,3409 S Naco Visita,Tucson,AZ,85706,N/A
Liberty Truck Lines Delivery,13801 N 12th St,Phoenix,AZ,85022,602-336-8222
Transportes Lopez Richert,235-5 N Freeport Drive,Nogales,AZ,85621,N/A
Western Auto Carrier,Po Box 86487,Phoenix,AZ,85080,N/A
Jt Auto Transport,2202 E Christy Dr,Phoenix,AZ,85028,602-996-0849
R & T Express,4657 N 99th Drive,Phoenix,AZ,85037,602-872-3957
Gary Weirich Transport,13640 N 109th Ave,Sun City,AZ,85351,602-538-9662
P P T I,5970 W Aurora Drive,Glendale,AZ,85308,800-408-5326
Holt Transportation,2420 West Calle Commando,Tucson,AZ,85705,N/A
Transportes Valenzuela Izaguirre,235-5 N Freeport Drive,Nogales,AZ,85621,520-287-4727
E Acosta Trucking,4902 W De La Canoa,Amado,AZ,85312,323-321-4146
Runaway Express,4720 N 49th Drive,Phoenix,AZ,85031,602-848-7838
Martinez Trucking,402 W Desert Dr,Phoenix,AZ,85041,602-276-4067
Rudy's Transport,10940 Townsend Winona Rd,Flagstaff,AZ,86004,520-526-5006
Dehart's Mobile Home Movers,762 D Merrill Rd,Apache Junction,AZ,85220,602-380-6357
Double E Express,10751 N Bach Rd,Kingman,AZ,86402,801-785-7270
Castro Trucking,738 N Linda Vista Dr,Nogales,AZ,85621,520-287-4460
Budd's Trucking,3102 W Lone Cactus Dr,Phoenix,AZ,85027,602-516-0251
Bobs Moving & Delivery,1460 Verano Place,Bullhead City,AZ,86442,N/A
A C M Express Transportation,19427 W Wood St,Buckeye,AZ,85326,602-869-6708
Henson Trucking,16257 N 18th Street,Phoenix,AZ,85022,602-404-8311
Aguilar Still Trucking,25 E Saint Charles St,Phoenix,AZ,85040,602-268-8971
Tri State Transport,7029 Aquarius Drive,Mohave Valley,AZ,86440,602-937-9869
Mje & Sons Trucking,4420 W Curly Horn,Sahuarita,AZ,85629,520-393-0118
O J Express,1423 N 27th Ln,Phoenix,AZ,85009,310-572-3289
G & G Express,999 West Broadway,Apache Jct,AZ,85120,660-252-4413
Wiley Aker Trucking,531 S Granite Street,Prescott,AZ,86302,520-775-2660
Perea Trucking,14612 N 154th Ave,Surprise,AZ,85379,623-266-2498
Martinez Trucking,945 W Manor Dr 29,Nogales,AZ,85621,520-377-2385
Lucky 7 Reload And Transportation,3891 East Highway 66,Kingman,AZ,86401,928-681-0469
Brian Hancock Trucking,8376 West Bryce-eden Road,Pima,AZ,85543,928-485-9355
Rocking W Trucking,1485 Devlin,Kingman,AZ,86401,520-757-2695
Dan's Trucking,4604 W Vista Ave,Glendale,AZ,85301,602-939-8986
Art Holguin Trucking,73 N Mountain View Road,Payson,AZ,85541,805-310-1208
Saga Transportation,6161 So Park #58,Tucson,AZ,85705,520-884-5908
Terriquez Transportation,422 Circulo Cisne #d,Rio Rico,AZ,85648,520-281-0342
5 K Trucking,7316 W Villa Rita,Glendale,AZ,85308,602-547-0293
Llamas Trucking,6224 S 115th Ave,Tolleson,AZ,85353,415-586-1001
Long S Transfer,33114 W Sies A Way,Buckeye,AZ,85326,602-386-3289
Lar-go Trucking,3039 W Waltann Lane,Phoenix,AZ,85053,602-993-4166
Stoneco,1711 So Extension Rd #2082,Mesa,AZ,85210,602-461-0229
Highlander Trucking,110 Siesta Drive,Taylor,AZ,85939,580-332-3320
Transportes Alejandro Escalante,235-5 N Freeport Dr,Nogales,AZ,85621,520-287-4727
Transportes Arreniz,235-5 N Freeport Dr,Nogales,AZ,85621,520-287-4727
Reyes Trucking,10180 Babbitt Lane,San Luis,AZ,85349,520-627-3757
R C Transports,2840 W Dakota,Tucson,AZ,85746,520-578-3801
Mighty Mike Transport,39611 N New River Road,Desert Hills,AZ,85086,623-465-1944
Harvey Trucking,8898 W Mopar Road,Casa Grande,AZ,85222,520-836-6413
Castro Trucking,8165 Mohave Land,Yuma,AZ,85336,520-343-0553
Metrolink Delivery Service,616 South Smith Road,Tempe,AZ,85281,602-967-2426
R & L Trucking,15794 W Pima St,Goodyear,AZ,85338,623-882-1200
Vinny & Son Trucking,3843 E Sandwick Drive,Queen Creek,AZ,85140,914-887-4415
C & L Express,725 E Oak Drive,Munds Park,AZ,86017,602-289-9331
Arizona Transport Specialists,4835 E Hannibal,Mesa,AZ,85201,602-985-8548
Valencia Hauling,2201 W 5th St,Yuma,AZ,85364,520-783-3782
Dust Devil Trucking,3036 W Orange Grove Rd,Tucson,AZ,85741,520-742-6696
Royal Limousine & Transportation Service,770 N Monterey St Ste D,Gilbert,AZ,85233,602-641-8736
Gaxiola Trucking,84 Gatito Ct,Rio Rico,AZ,85648,520-223-0729
Jw Trucks It,129 Camino De Mesa,Huachuca City,AZ,85616,520-456-9477
Valens Trucking,5730 W Placita Del Risco,Tucson,AZ,85745,520-884-1234
B & B Hauling,14396 S Highway 69,Mayer,AZ,86333,800-822-2462
Barraza's Transport,1832 N 58th Dr,Phoenix,AZ,85035,602-269-1968
Rojas Trucking,Rt 1 Box 39n,Parker,AZ,85344,520-662-4461
Hermanos Leon Trucking,28600 Cerro Pelon Place,Amado,AZ,85645,520-741-1794
D J Transport,833 W Narranya Ave,Mesa,AZ,85210,602-820-6549
Dually Does It Auto Transport,10100 N 89th Ave #43,Peoria,AZ,85345,602-934-1611
Corbett Trucking,1048 South 21st Street,Mesa,AZ,85204,602-510-5794
Barra Trucking,6545 S Iberia,Tucson,AZ,85746,520-883-1872
Linssa Express LLC,325 Valley View Dr,Rio Rico,AZ,85648,520-980-0542
Pioneer Express,7396 N Sandario Rd,Tucson,AZ,85743,520-258-2524
Robert Irving Trucking,1624 Gisela Rd,Golden Valley,AZ,86413,928-565-2572
Desert Auto Sales,690 S 4th Ave,Yuma,AZ,85364,928-782-2997
Double Jj's & Son Express,1111 E Limberlost #19,Tucson,AZ,85719,520-293-4789
"Interspace Moving & Storage, Inc.",750 E Ohio St Ste 7,Tucson,AZ,85714,520-623-3371
Davison Transport Services,855 East Hope Street,Mesa,AZ,85203,602-827-9698
Passenger Express,8160 East Butherus #2,Scottsdale,AZ,85267,480-348-2415
"C Segura Services, Inc.",920 S Lafayette Dr,Chandler,AZ,85225,480-726-2169
White Angel Trucking,338 N 13th St,Phoenix,AZ,85006,602-484-7226
Emc Transportation,7400 N Oracle Rd Suite 370,Tucson,AZ,85704,520-575-5745
C J Transport,3216 W Wagoner Rd,Phoenix,AZ,85023,602-863-6509
R & C Auto Transport,4550 East 28th Street,Tucson,AZ,85711,520-790-3023
Meadview Hauling,27071 Apple Rd,Meadview,AZ,86444,520-564-2209
Lutz Trucking,12457 N Silver Sage Drive,Dolan Springs,AZ,86441,520-767-3527
Linco Auto Transport,Po Box 724,Pima,AZ,85543,520-485-2873
Ramiro Urtusuastegui Trucking,12515 W High Ridge Dr,Tucson,AZ,85736,520-822-1479
Wayne's Blade Service,14935 E Bradshaw Rd,Humboldt,AZ,86329,520-632-5959
D Gyves Trucking,1232 W Cimarron St,Nogales,AZ,85621,520-622-1712
Espinoza's Trucking,11351 S Nogales Hwy,Tucson,AZ,85706,520-746-3563
Whippin & Spurrin Hauling,12802 Main Street,Mayer,AZ,86333,520-632-7584
Clements Trucking,15261 N 52nd Dr,Glendale,AZ,85306,602-938-3552
Star Seafood Transportation,785 Industrial Park,Nogales,AZ,85628,520-281-2593
Sanchez Trucking,6424 W Oregon Avenue,Glendale,AZ,85301,602-691-9632
Romer Truck Lines,29 W Southern Ave Lot #26,Mesa,AZ,85210,602-610-0404
Gibson Transportation,P O Box477,Ajo,AZ,85321,520-387-5221
Nappy's Express,8155 East Nicaragua Drive,Tucson,AZ,85730,888-908-3723
Moorhead Trucking,4750 Oswego,Lake Montezuma,AZ,86342,520-567-4829
Double E Trucking,515 S Avenue A,Yuma,AZ,85364,520-782-6281
Three Star Transportation,37119 N 25th Street,Cave Creek,AZ,85331,623-742-0164
D J Trucking,5405 N 80th Drive,Glendale,AZ,85303,602-872-5393
Collette Trucking,31532 Horizon Blvd,Parker,AZ,85344,928-667-4926
Hotshot Transport System,2562 E Taxidea Way,Phoenix,AZ,85048,602-704-1979
J G Transport,216 W Wier Ave,Phoenix,AZ,85041,951-712-1722
Long Trucking,1934 E Gimini,Fort Mohave,AZ,86427,702-808-7274
M & E Express,4729 N 53rd Avenue,Phoenix,AZ,85031,602-848-7256
J W R Trucks,2808 W Curry,Chandler,AZ,85224,602-831-0140
Rendon Trucking,2601 Chiapas Ave,San Luis,AZ,85349,520-622-1712
R & J Trucking,11901 W Mcdowell Rd #65,Avondale,AZ,85323,602-932-7798
Calillos Trucking,2050 N Congress Spc #39,Nogales,AZ,85621,520-761-4707
Coy Trucking,3790 W 5th St,Yuma,AZ,85364,928-941-0733
J Sandoval Trucking,8639 W Glenrosa,Phoenix,AZ,85037,602-873-1508
Mcrae Transport,3721 N 11th St,Phoenix,AZ,85014,602-265-3474
Belle Star Trucking,12651 S Hermit Rd,Buckeye,AZ,85326,602-386-4185
21 Lightweight Freight,777 N 59th Ave Apt 3080,Phoenix,AZ,85043,602-455-8172
Romo Trucking,945 W Manor Dr,Nogales,AZ,85621,520-377-0677
Inpak Trucking,246 W First St,Nogales,AZ,85621,520-287-2262
M & M Auto Transport,3034 N 33rd Ave,Phoenix,AZ,85017,562-945-0709
Rendon Trucking,3156 W Clarendon,Phoenix,AZ,85017,602-265-9966
Environmental Solutions,231 W Palo Verde St,Yuma,AZ,85364,520-317-9075
Fast Ball Trucking,18306 College St,San Luis,AZ,85349,520-627-4796
A-1 Auto & Wrecking,Hc 37 Box 927,Golden Valley,AZ,86413,520-767-3360
Arizona Auto Express,7139 W Corrine Dr,Peoria,AZ,85381,602-334-0207
Harris Trucking,4037 S Old Windmill Ln,Tucson,AZ,85735,520-883-5842
Brede Arizona,2501 E Magnolia Street,Phoenix,AZ,85034,602-275-5900
Western Express Company,3436 Oro Grande Blvd #6,Lake Havasu City,AZ,86405,818-505-4418
W & M Trucking,6115 Port Ave Prince,Glendale,AZ,85306,602-547-3608
Morales Transportation,3302 N 80th Ave,Phoenix,AZ,85033,602-873-0930
James Standridge Trucking,1556 E Kael St,Mesa,AZ,85023,602-835-1641
Zz Trucking,1985 West San Juan Trail,Tucson,AZ,85713,520-882-7512
R & K Trucking,9904 E Billings,Mesa,AZ,85207,602-937-9869
Excson Transports,2745 15th Street,Douglas,AZ,85607,520-805-0492
F & S Trucking,4547 West 18th Place,Yuma,AZ,85364,928-343-2942
Carter Company,853 N Hwy 89,Chino Valley,AZ,86323,928-636-9643
Sotelo Trucking,6131 W Thomas Rd #2031,Phoenix,AZ,85033,602-791-3358
Papago Butts Transportation,5026 W Gardenia Ave,Glendale,AZ,85301,520-568-3595
Ufo Trucking Company,6063 East 21st Street,Tucson,AZ,85711,520-747-8535
Dirty Harry's Dump Truck Service,3501 Fiesta Drive,Lake Havasu,AZ,86404,928-230-8195
Albert Transportation,1319 E Fillmore,Phoenix,AZ,85006,602-258-2430
Dlp Enterprises,5438 W Villa Theresa Drive,Glendale,AZ,85308,602-439-2177
Double D Trucking,5155 County Road,Concho,AZ,85924,520-337-4100
O A G Trucking,1428 E Edgewood,Mesa,AZ,85275,602-524-8919
Ber-val Trucking,1608 Calif St,San Luis,AZ,85349,520-627-0389
C H S Transportation,1345 N Mariposa Ranch Rd,Nogales,AZ,85621,N/A
G & B Transport,3719 S Lundy,Tucson,AZ,85713,520-622-1712
T L J Trucking,3021 West Augusta Ave,Phoenix,AZ,85051,602-368-6326
Springerville Auto Wreckers,403 Hwy 180,Springerville,AZ,85938,928-333-2230
Ben's Trucking And Trading,5835 N Joann Dr,Rimrock,AZ,86335,928-567-1616
Alison Transport,1185 B Plaza Maria,Sierra Vista,AZ,85635,520-515-9885
Salas Trucking,4204 Daisy Street,Yuma,AZ,85364,928-581-9621
Red Mountain Auto Carrier,3003 N Central Ave #103184,Phoenix,AZ,85012,800-822-2462
F R S Trucking,5712 West Indian School Road,Phoenix,AZ,85031,602-849-8799
Escobar Trucking,23237 Marisol Ave,San Luis,AZ,85349,520-627-9463
Omar & Sons Auto Transport,102 West South Mountain Drive,Phoenix,AZ,85041,800-822-2462
Bellos Transport,1742 Udall Lane,San Luis,AZ,85349,928-627-3583
Chuk Tris Freight Service,3840 W Krall St,Phoenix,AZ,85019,602-242-4836
Br & Sons Auto Transport,9690 S Darrow,Tempe,AZ,85284,602-940-9471
J L Foote Trucking,6060 Risner Blvd,Sierra Vista,AZ,85635,520-459-2542
Father & Son Moving,1711 West Buckeye Road,Phoenix,AZ,85007,602-257-8800
Midnight Express,8129-2 N 35th Ave #297,Phoenix,AZ,85051,888-963-2709
R & R Trucking,7991 S Vahalla Rd,Tucson,AZ,85746,520-883-6657
De La Cruz Trucking Co,4195 West Coral Ln,Elfrida,AZ,85610,520-642-3793
Littlepage Trucking,2930 N 46th St #409,Phoenix,AZ,85018,602-840-3587
Silverado Transport,13441e 51st Lane,Yuma,AZ,85367,928-580-1652
Rice Trucking,3021 N 47th Ave,Phoenix,AZ,85031,602-272-5123
Ilie's Trucking,33600 N 27th Dr Apt 2066,Phoenix,AZ,85085,623-792-7914
Twoway Express,Po Box 40337,Mesa,AZ,85274,602-755-4261
Tepa Transport,7606 W Palmaire Ave,Glendale,AZ,85303,602-725-8700
M&k Logistics,967 Hancock Rd #81,Bullhead City,AZ,86442,928-704-9160
Marlene Transport,710 N 95th Avenue,Tolleson,AZ,85353,602-907-8539
Mejia & Sons Trucking,1400 8th St,Parker,AZ,85344,928-669-6265
Lehil Trucking,7844 W Krall Street,Glendale,AZ,85303,502-931-8039
M & M Trucking,723 E Siesta Dr #1,Phoenix,AZ,85040,602-305-8328
Dnk Trucking,435 N Grandpa Ln,Pima,AZ,85543,520-348-0540
Egg Trucking,1150 E Irvington #1508,Tucson,AZ,85714,520-434-2773
Burge Koedyker Trucking,7025 W Wrangler,Sahuarita,AZ,85629,520-648-0118
Mc Trucking,2914 W Buckeye Rd,Phoenix,AZ,85009,602-484-0414
Aaa Discount Mobile Home Movers,1645 W Valencia Rd 109-402,Tucson,AZ,85476,520-908-9259
Bumble Bee Transport,5752 N 105th Lane,Glendale,AZ,85307,602-877-6436
Scrivano Transport,3939 N 87th Ave,Phoenix,AZ,85037,602-849-1876
L B M Trucking,37 W Cottonwood Drive,Pima,AZ,85543,623-937-9869
Triple J Trucking,812 North Coolidge Avenue,Casa Grande,AZ,85222,520-426-1487
Ntsi,1107 South Center St,Mesa,AZ,85210,480-539-7001
B And A Trucking,1389 S Verde Road,Golden Valley,AZ,86413,520-565-2137
Cardiel Express Trucking,495 West 20th Street,Yuma,AZ,85364,928-782-0996
"Imagine Distributing, Inc.",1416 E Countrywalk Lane,Chandler,AZ,85225,602-963-4637
River Freight Trucking,6424 Oregon Ave,Glendale,AZ,85301,714-600-1483
Cumaro Trucking,155 West Corona Rd,Tucson,AZ,85706,520-746-1261
Michelle Transportation,13272 W Ventura,Surprise,AZ,85379,623-215-2588
Quantum Freightlines Company,10646 Placita Los Reyes,Tucson,AZ,85748,520-886-7127
Betty's Trucking,3055 W 17th St,Yuma,AZ,85364,928-539-7249
G & G Trucking,2255 E Burr St Space 5,Yuma,AZ,85365,000-008-5365
Mathew's Trucking,2841 Valle Verde Drive,Nogales,AZ,85621,323-228-2043
M & S Trucking,6673 E Halmar Drive,Kingman,AZ,86401,909-936-1195
Jensen Enterprises,21300 W Vista Royale Dr,Wickenburg,AZ,85390,928-684-1015
Badilla Trucking,6200 S Campbell Ave,Tucson,AZ,85706,310-419-4031
W A Trucking,4726 S Golden Rod Dr,Tucson,AZ,85730,520-790-5686
Double E Trucking,Hc 3 Box 540,Payson,AZ,85541,520-472-9861
Mada Trucking,33 Chula Vista Lane,Nogales,AZ,85621,520-281-2560
Gina Trafton Transportation,2868 Castaway Drive,Lake Havasu City,AZ,86406,928-680-5614
Rgg Express,2841 N Grand Avenue,Nogales,AZ,85621,818-326-1797
M & S Trucking,581 West Cooley Street,Show Low,AZ,85901,520-425-4334
Great Pyrenees Transport,P O Box 6073,Glendale,AZ,85312,602-412-0717
G N A Trucking,3031 S Ivy Lane,Yuma,AZ,85364,928-210-1067
Liliana Trucking,945 W Manor Drive #75,Nogales,AZ,85621,520-761-1359
Shack's Transport,2290 Carver Ave,Kingman,AZ,86401,520-757-4967
Nunez Trucking,7007 W Indian School Apt 1015,Phoenix,AZ,85033,960-353-2998
Ureno Boys Services,116 Spring St,Kingman,AZ,86401,520-753-9723
J & M Trucking,9593 Kennedy Ln,San Luis,AZ,85349,928-627-4497
Ag Logistics,17815 South Highway 95,Somerton,AZ,85350,760-352-3194
Glenco Trucking,8401 S Kolb Rd Unit 185,Tucson,AZ,85756,520-971-9539
D & P Transport,2452 West Redfield Road,Phoenix,AZ,85023,916-919-6143
Danny Katy Trucking,3339 E El Tovar,Kingman,AZ,86409,928-279-6307
J L Trucking,1323 N Beverly Circle,Mesa,AZ,85201,602-898-3449
Jessie D Hanson Trucking,941 E Stratton,Showlow,AZ,85901,928-537-8014
Coast To Coast Transportation,5739 W Glenrosa Avenue,Phoenix,AZ,85031,N/A
Busy Beaver Trucking,2619 Valentine Ave,Kingman,AZ,86401,406-873-2310
Turda Express,5748 W Marconi Ave,Glendale,AZ,85306,623-764-3719
Rjb - Transport,21403 N 33rd Drive,Phoenix,AZ,85027,623-594-0204
Arizona Express,11374 Los Tres Hombres Ave,San Luis,AZ,85349,N/A
Cahi Transport,2313 N Grand Ave # B,Nogales,AZ,85621,520-281-0177
Black Sheep Transportation,23625 Hwy 89,Paulden,AZ,86334,520-710-3399
Gloria Jeans Delivery Arizona Intermodal Services,8218 West Hazelwood Street,Phoenix,AZ,85033,602-846-6165
O M T Trucking,4202 N 27th Street,Phoenix,AZ,85016,602-264-1061
Concrete Delivery,7745 N Beckey Jo Lane,Tucson,AZ,85741,520-579-2073
L R Ranft Trucking,6826 West Encanto Blvd,Phoenix,AZ,85035,602-849-9198
Airstone Enterprises,1546 W Jonnie Dr,Willcox,AZ,85653,520-682-2969
Nava's Trucking,2133 N Grand Ave #13,Nogales,AZ,85621,520-761-4052
Holst Transfer,1130 E Morris Lane,Pomerene,AZ,85627,520-586-8604
E C Express,797 E Frontage Rd #1,Rio Rico,AZ,85648,310-371-5312
J Meza Trucking,25212 W Parkside Ln ,Buckeye,AZ,85326,909-936-4470
Ez Street Transport,888 E Clinton St #2057,Phoenix,AZ,85020,602-421-7715
Valenzuela Trucking,3300 East Frye,Sierra Vista,AZ,85635,520-398-9665
Gerry Gay Trucking,113 Pine Street,Kingman,AZ,86402,928-303-1401
Mf Diaz Trucking,23465 W Mohave St,Buckeye,AZ,85326,760-241-3718
Garitas Trucking,11286 Independence Street,San Luis,AZ,85349,520-627-1788
A Ii Z Trucking,1928 E Highland Ste F 104-416,Phoenix,AZ,85016,602-684-6990
Robert Ogletree Transport,13187 W Redfield Rd,Surprise,AZ,85379,405-283-0521
Jc Trucking,County Road #c 427,Ganado,AZ,86505,520-755-6362
Gv Transport,31 Chula Vista Lane,Nogales,AZ,85621,520-377-0927
Out West Transportation,Rr 1 Box 821d,Willcox,AZ,85643,520-384-4029
Ftd Transportation,7001 N 77th Avenue,Glendale,AZ,85303,602-936-5831
Zepeda Trucking,13470 W Cameron Street,Casa Grande,AZ,85222,520-421-3173
Quiroga Trucking,4496 Queens Way,Sierra Vista,AZ,85635,520-401-6491
Preciado's Trucking,4010 W Orange Dr,Phoenix,AZ,85019,520-364-6542
Little Richy's Trucking,2343 Blue Sky Dr,Phoenix,AZ,85085,818-482-0059
Western Express,P O Box 232,Peoria,AZ,85380,602-877-7333
Schettig Trucking,838 South 2nd Avenue,Phoenix,AZ,85041,602-268-0708
T & C Trucking,1061 Adonis Ave,Miami,AZ,85539,520-473-2301
Over The Top Express,243 W Peter Anthony,Nogales,AZ,85621,909-822-7356
Tiger Expresss,19227 N 59th Drive,Glendale,AZ,85308,623-362-9289
Bryan & Fry Trucking,23818 S Val Vista,Chandler,AZ,85249,602-895-7955
Malagon Trucking,6242 West Stella Avenue,Glendale,AZ,85301,602-435-2203
K F Trucking,607 E Narramore,Buckeye,AZ,85326,602-386-9173
Toro Trucking,11286 Independence St,San Luis,AZ,85349,520-627-1788
C Mendoza Trucking,2105 S County 17 1/4 St,Yuma,AZ,85350,928-722-5633
R & J Trucking,938 West Silver Lake,Tucson,AZ,85713,405-350-5859
Everlasting Monument & Casket Co,455 N Country Club Drive,Mesa,AZ,85201,480-969-0788
T Watson Trucking,925 Teastoh Trail,Flagstaff,AZ,86001,520-525-3172
Ray Trucking,Rt 1 Box 521,Laveen,AZ,85339,801-785-7270
Bc Transport,1210 N Crane,Casa Grande,AZ,85222,520-876-5764
Race Transport,3067 S Wagner Drive,Camp Verde,AZ,86322,928-593-0520
Pacheco Bros Trucking,149 S 151st Ave,Goodyear,AZ,85338,909-376-1261
Ac Trucking,95 West Delta Street,Tucson,AZ,85706,520-741-1621
Landrum Transportation,19609 South Greenfield Road,Gilbert,AZ,85234,602-988-1342
Ballesteros Transports,1714 N Old Palagonia Rd,Nogales,AZ,85621,877-761-1820
R W Price Transportation,10419 W Snead Dr,Sun City,AZ,85351,623-512-3512
Alx Express,31 W Los Reales #228,Tucson,AZ,85706,562-234-7607
Haroldson Transport,8347 W Aubrey Lane,Peoria,AZ,85382,623-937-9869
Carrillo & Sons Trucking,3361 Lima Street,Somerton,AZ,85350,602-842-2049
T'n't Trucking,13017 W Campbell Ave,Litchfield Park,AZ,85340,623-505-3928
B & L Trucking,515 E Carefree Hwy 435,Phoenix,AZ,85085,480-861-0911
Allstate Transportation Service,4001 North Runway Drive #123,Tucson,AZ,85705,520-292-2233
Thiel Trucking,148 South 12th Street,Cottonwood,AZ,86326,520-639-0349
Cardinal Transport,1504 N Sinova,Mesa,AZ,85205,623-261-7565
Carrillo Brothers Trucking,4169 W Linda Lane,Yuma,AZ,85364,928-750-5668
T A G Racing & Transportation,11347 E Stanton Ave,Mesa,AZ,85212,480-354-5110
M T D Trucking,10726 W Kaler Dr,Glendale,AZ,85307,623-877-9210
Bks Northwest Auto,2480 Northern Ave,Kingman,AZ,86401,520-757-9622
Mo & Ty Auto Transport,16801 W El Tiro Rd,Marana,AZ,85653,520-682-6663
Price Enterprises,311 W Casa Linda Dr,Taylor,AZ,85939,520-536-7185
Dosely Transportation,4802 E Ray Rd Suite 23-138,Phoenix,AZ,85044,909-232-5243
C Rincon & Son Trucking,6707 N 73rd Drive,Glendale,AZ,85303,623-939-1052
Mitchell J Bendix Trucking,384 Laurie Lane,Lake Havasu City,AZ,86406,N/A
Pletcher Mobile Transport,1321 1st Ave,Safford,AZ,85546,520-428-4516
Horns Trucking,560 Somerton Ave # 1,Somerton,AZ,85350,520-627-0959
R And M Trucking,3107 W Montana,Tucson,AZ,85744,520-578-7877
Dream Catcher Hauling,18537 Colorado St,Gadsden,AZ,85336,928-446-2062
B & M Transport,3605 E Chukkar Pl,Tucson,AZ,85739,520-825-0155
Agc Trucking,1146 14th St,Douglas,AZ,85607,520-807-5918
Ramiro Corrales Trucking,16218 West Post Drive,Surprise,AZ,85374,623-975-6708
Riley Express,5820 W Northview,Glendale,AZ,85301,623-847-3243
Ranger Express,1833 Riverside Dr,Bullhead City,AZ,86442,562-300-0798
Horizon Moving Systems,440 Whitton Street,Sierra Vista,AZ,85635,520-458-4625
Prescott Moving & Storage,6851 E 1st St,Prescott,AZ,86314,602-445-2020
Thunderbird Furniture,7501 E Redfield Rd,Scottsdale,AZ,85260,602-948-0600
Bingham Transfer & Storage Co,805 S 6th Ave,Safford,AZ,85546,928-428-0910
Citizen Express Lines,67 E Baffert Dr,Nogales,AZ,85621,520-281-0400
Horizon Moving Systems,1717 E Rairdan Ln,Phoenix,AZ,85034,520-747-1400
Dynamic Transload Services,320 S 19th Avenue,Phoenix,AZ,85009,602-712-0197
Morris Trucking,3711 E Main Avenue,Phoenix,AZ,85040,602-437-0444
Mcdaniel Trucking,240 N 48th Ave Unit A,Phoenix,AZ,85043,602-254-5958
Btb Trucking Express,2001 N 23rd Ave,Phoenix,AZ,85009,602-253-5558
Arizona Film Delivery Service,2222 W Parkside Lane Suite 121,Phoenix,AZ,85027,623-434-0440
Mccandless Of Arizona,2202 South Central Ave,Phoenix,AZ,85004,602-254-9241
B & E Trucking,3034 W Country Gables,Phoenix,AZ,85023,602-993-1019
"Truck And Trailer Equipment Leasing, Inc.",5250 S 43rd Ave,Phoenix,AZ,85041,602-237-2170
Sun Country Equipment,3615 S 7th Ave,Phoenix,AZ,85041,602-243-5243
Rebel Express,4130 Beaver Creek Road,Rimrock,AZ,86335,928-567-7441
D M & T Trucking,Lot 64 Silver Streak Trail,Tombstone,AZ,85638,602-484-7226
Woody's Petroleum,580 W Wickenburg Way,Wickenburg,AZ,85390,602-256-6730
B & B Wrecker Service,1929 W Ironwood,Phoenix,AZ,85021,602-995-6040
M D & Sons Trucking,19913 N 65th Avenue,Glendale,AZ,85308,602-421-2979
D & E Transport,3580 E Kesler Lane,Gilbert,AZ,85295,480-797-4344
Emf Enterprises,357 E 9th Dr,Mesa,AZ,85210,480-964-7321
R L Wilson Transport,6673 N Avenida Ramirez,Kingman,AZ,86402,951-528-4285
Rock-n-roll Express,15744 W Ironwood Surprise,Surprise,AZ,85374,623-546-0106
Desert Trucking,8175 South Rooks Rd,Buckeye,AZ,85326,602-386-6505
Claret Transportation,4008 East Ashler Hills,Cave Creek,AZ,85331,480-383-3590
Desert West Distributing,120 N 57th Dr 2,Phoenix,AZ,85043,602-484-9111
Pipho Trans,3918 E Illini,Phoenix,AZ,85040,602-437-1965
Brian Balazs Trucking,28175 S Foxwood Way,Amado,AZ,85645,502-398-3240
Aeti,1007 E Maricopa Fwy,Phoenix,AZ,85034,602-437-3980
J & D Transport,1442 North Woodside Road,Chandler,AZ,85224,602-244-8810
Larry Mosier Trucking,110 Pleasant Grove Road Lot C2,Lowell,AZ,85603,479-366-4216
K-4 Transport,282 S Escondido Road,Tonto Basin,AZ,85553,928-479-2123
Rawhide Trucking Company,8233 West Northern,Glendale,AZ,85303,602-931-7950
Smith Trucking,5201 W Camelback Rd Lot A159a,Phoenix,AZ,85031,623-853-9340
Mary M Hansen,13850 East Williams Field Rd,Gilbert,AZ,85296,480-963-2545
E W Miller Trucking,685 Hill Dr,Prescott,AZ,86303,520-445-5630
Yepez Trucking,309 Somerton,Somerton,AZ,85350,928-627-3001
Garcia's Trucking,3673 W Sun Street,Somerton,AZ,85350,928-627-0471
A & M Diaz Trucking,1168 North Bankard Ave,Nogales,AZ,85621,520-287-4963
Air Transport,3011 W Buckeye Road,Phoenix,AZ,85009,602-484-0421
Ellis Hay Transport,18802 East Via De Arboles,Queen Creek,AZ,85242,602-987-0473
Rascon Trucking,636 10th Ave,Yuma,AZ,85364,928-783-2634
Mckenna Trucking Company,Rr 5 Box 1201,Phoenix,AZ,85009,602-546-4570
Aust Trucking,2135 N 194th Ave,Buckeye,AZ,85326,602-377-0340
Yount Horse Services,28405 N 66th St,Cave Creek,AZ,85331,480-473-7644
Grandad's Trucking,1347 S Meridian #5,Apache Junction,AZ,85220,480-205-6183
Capricorn Trucking,6715 W Camino Bolivar,Tucson,AZ,85746,520-883-4600
Bradley Transportation,17740 W Maryland Ave,Waddell,AZ,85355,623-536-2661
John Korn Trucking,5803 Miami Gardens Dr,Miami,AZ,85539,928-425-6202
C & D Auto Transport,5319 W Acapulco Ln,Glendale,AZ,85306,602-978-3044
Pacific Overland Transportation Group,1609 South 39th Ave,Phoenix,AZ,85009,602-272-2160
T & J Trucking,6301 N 64th Drive #20,Glendale,AZ,85301,602-939-8986
Sierra Trucking,Po Box 1130,Mayer,AZ,86333,N/A
B & D Trucking,3902 West Rue De Lamour,Phoenix,AZ,85029,602-843-4382
Beyond Expression Antiques,2510 East Nora Street,Mesa,AZ,85213,480-854-7755
G & C Equipment Co,618 N 68th Ln,Phoenix,AZ,85043,602-625-5280
Stage Coach Express,9705 N El Mirage Road,El Mirage,AZ,85335,623-536-7725
J & L Auto Transport,760 South Salt Place,Golden Valley,AZ,86413,928-565-3272
Sv Transportation,920 Paseo Queretaro,Rio Rico,AZ,85648,909-444-1170
Napier Trucking,23024 W Sierra Ridge Way,Wittmann,AZ,85381,N/A
R Quesada Trucking,1090 Tia Court,Rio Rico,AZ,85648,520-377-0291
Triple Diamond Express,6842 W Romley Ave,Phoenix,AZ,85043,951-295-1010
R W R Trucking,4022 E Delta Circle,Mesa,AZ,85206,602-924-1029
Petersen Transportation,5701 West Maryland Ave,Glendale,AZ,85301,623-435-9400
Mcgraw Trucking Co,13313 S Mountain Rd,Goodyear,AZ,85338,623-932-1677
L S Trucking,11151 S Old Nogales Hwy,Tucson,AZ,85706,623-393-9267
Zax Trax Auto Transport,825 E Bethany Home Rd #c205,Phoenix,AZ,85014,602-264-9546
Classic Transport,1015 Garden Crest Drive,Kingman,AZ,86409,928-757-3307
Bart Harrington Trucking,571 Stevens Loop,Duncan,AZ,85534,928-359-2331
A & L Trucking,1601 Via Honda,Tucson,AZ,85713,602-623-3031
Canyon County Fire Services LLC,2079 W Fresh Aire Street,Flagstaff,AZ,86001,928-310-8584
"Keystone Transport, Inc.",987 N Hulet Lane,Flagstaff,AZ,86004,928-526-6155
Vlad Trucking,6638 N 84th Ln,Glendale,AZ,85305,602-278-8204
Ab Moving And Storage Co,4279 S Santa Rita Ave,Tucson,AZ,85714,602-746-3291
"Sandpiper Transport, Inc.",3114 Mcvicar,Kingman,AZ,86401,520-757-1778
Ultimate Trucking,19341 W Monte Vista Rd,Buckeye,AZ,85396,480-414-6400
D & L Transport,3901 N Isabell,Tucson,AZ,85745,602-578-3865
Guerra Trucking,4254 N 73rd Lane,Phoenix,AZ,85033,520-604-7371
Just-in Time Trucking Co,23222 N 20th Street,Phoenix,AZ,85024,480-563-3563
Authority Transport,5304 W Buckskin Dr,Glendale,AZ,85310,623-572-4683
J&h White Mountain Transport,7893 White Mountain Lake Road,Show Low,AZ,85901,928-532-5279
G C Rico Transport LLC,16357 W Yuma Rd,Goodyear,AZ,85338,623-877-4644
Brothers Transfer,422 South Madison Dr Ste 1,Tempe,AZ,85281,480-858-4500
Towne Cargo Services,6855 South Lisa Frank Ave,Tucson,AZ,85756,888-840-0976
Door To Door Furniture Transport LLC,3034 N 33rd Drive,Phoenix,AZ,85017,602-722-6014
Johnny Lee Brooks Trucking,11706 S Sandra Ave,Yuma,AZ,85367,928-550-3192
"Xlt Transport , Inc..",12057 W Shifting Sands Dr,Peoria,AZ,85383,702-557-9072
Q M R,8733 E Dongola Ave,Mesa,AZ,85208,602-321-7671
"Alpha Express Transport, Inc.",16050 N 86th Lane,Peoria,AZ,85302,602-930-6999
Nottoc Marketing,1770 W San Remo St,Gilbert,AZ,85233,520-404-4104
"Quick Csf, Inc.",10405 E 38th Lane,Yuma,AZ,85365,928-345-8600
El Shaddai Trucking,903 E Granite Dells #6,Payson,AZ,85541,623-904-4024
Nathan Koehne,1538 W Wickieup Lane,Phoenix,AZ,85027,480-323-9900
V & S Transport LLC,41491 Palm Springs Trail,San Tan Valley,AZ,85240,480-655-5292
H & S Transport LLC,15102 N 182nd Lane,Surprise,AZ,85388,623-266-1897
Steven's Trucking,1523 W 15th St,Yuma,AZ,85364,520-238-1498
War Trucking,6161 N 71st Lane,Glendale,AZ,85303,623-229-3162
Spartan Group Transport LLC,2911 E Indian School Rd #160,Phoenix,AZ,85016,602-377-4175
2 Boys Xpress LLC,P O Box 5490,Glendale,AZ,85312,623-478-1424
Fcg,Po Box 6711,Kingman,AZ,86402,928-279-8080
Dp Anders Owner Operator,2866 N Hwy 191 - Lot 4,Douglas,AZ,85607,520-678-7367
Quemas Transport,P0 Box 74,Douglas,AZ,85608,520-227-6896
Criss Cross Express,238 N Lees Way,Payson,AZ,85541,602-320-1756
Tfs,3164 E Winged Foot Dr,Chandler,AZ,85249,480-242-8069
Yemaya Truck,Po Box 5490,Glendale,AZ,85312,623-565-7221
"Desert Mountain Medical, Inc.",4625 East Cotton Center Blvd Suite 199,Phoenix,AZ,85040,480-921-8899
Dream Catcher Mobile Homes,18545 S Colorado St,Gadsen,AZ,85336,928-271-9999
Oros Trucking,1071 Hidalgo Ave,San Luis,AZ,85312,928-345-5957
Lagunero Lines,14102 N 5th Ave,El Mirage,AZ,85335,623-518-0782
Double J Hotshot Transport Services,38141 N Rusty Lane,San Tan Valley,AZ,85140,480-246-7942
Joyner One Refrigerated Transport LLC,4048 E Coolbrook Ave,Phoenix,AZ,85032,973-832-3171
Simas Trucking,2212 Kiowa Ln #201,Lake Havasu City,AZ,86403,805-720-0495
Cb Trucking,4145 N Bluff Rd,Golden Valley,AZ,86413,800-226-3696
Jad Trucking,880 N Avenida Del Caballero,Vail,AZ,85641,623-266-1897
Marc Wiliams,13824 N Kendall Drive,Fountain Hills,AZ,85268,602-908-6600
Global Instant Air,3217 W Paseo De Las Aves,Tucson,AZ,85746,520-591-2711
Ringer Farms,423 High St,Duncan,AZ,85534,580-565-0019
Rewireusa,2206 S Granada #3,Tempe,AZ,85282,480-295-6464
Aj''s Trucking,11885 W Mcdowell Rd Apt 1075,Avondale,AZ,85392,623-363-5265
"Terrazas Transport, Inc.",6212 S 75th Ave Unit 1,Laveen,AZ,85339,509-391-5801
Arizona Reclamation Bureau Arb,2541 E Mcdowell Rd,Phoenix,AZ,85008,602-680-7097
Jcc Trucking,1555 West North Ln,Phoenix,AZ,85021,818-431-3260
A Villa Express,655 Hill Ave,Somerton,AZ,85350,928-627-7103
Romeros Trucking,12800 Somerton Av,Yuma,AZ,85365,928-271-2836
Alvaro's Trucking,1564 N Morrison Ave Apt 429,Casa Grande,AZ,85122,520-709-1836
Melissa's Trucking,492 Emmanuel St,San Luis,AZ,85349,928-627-3006
El Sahuaro Mexican Imports,1009 S 6th Ave,Avondale,AZ,85323,623-932-4239
M&j Asphalt,14175 West Indian School Rd B4-493,Goodyear,AZ,85395,180-037-5240
Rlo Transportation,4545 S Mission Rd 116,Tucson,AZ,85746,520-250-7748
Mexcal Transportation,5627 W Huntington Dr,Laveen,AZ,85339,520-250-7748
Gutierrez And Garcia Trucking,1450 Santa Fe Drive,San Luis,AZ,85349,928-627-1299
Ddd Trucking,2997 E Aris Dr,Gilbert,AZ,85298,714-725-6945
A Trucking LLC,4765 W 27th Ln,Yuma,AZ,85364,928-502-1763
Desert River Kayak,1034 Highway 95,Bullhead City,AZ,86429,928-754-5320
New Vision Express,909 E La Mesa St,Yuma,AZ,85365,928-271-2047
Premium Services LLC,34794 N Ellsworth Ave,Queen Creek,AZ,85142,480-298-5981
Liberty One Transport,1770 N Valley Dr Lot 46,Apache Junction,AZ,85120,480-399-3148
Aimee And Angelas Logistics,3372 Monte Moro Road,Kingman,AZ,86401,928-716-0677
Sandstone Grading,10542 N El Camino Del Diablo,Yuma,AZ,85367,928-503-4065
High Time Transport,424 North Gold Dr,Apache Junction,AZ,85120,480-983-0063
York Motors,500 Prescott Lakes Parkway,Prescott,AZ,86301,928-445-4970
M&c Ramirez Transport,13878 S Avenue 7e,Yuma,AZ,85366,760-550-3741
Absolutely Transport,22015 W Eagle Mtn Rd,Buckeye,AZ,85326,602-679-0126
"Animal Trucking, Inc.",212 Tesa Court,Rio Rico,AZ,85648,520-980-5480
Wild West Transportation,3204 Silverbell Drive,Lake Havasu City,AZ,86406,928-231-2865
Nelson Distribution,6436 Beverly,Laveen,AZ,85339,602-237-7363
All In Transport,2562 Country Club Lane,Bullhead,AZ,86442,800-226-3696
L & L Trucking,6041 W Thomas Road - Apt 242,Phoenix,AZ,85033,623-266-8901
Owan Auto Sales,6615 West Chandler Blvd Ste # 2,Chandler,AZ,85226,480-220-6324
Az Professional Transport,3009 E Patrick St,Gilbert,AZ,85295,480-284-2880
D'mar Corp,460 S Riata,Gilbert,AZ,85296,480-722-9060
Lw Shepherd Trucking,30007 W Bellview St,Buckeye,AZ,85396,520-335-4573
Greg,2490 Avalon Lane,Lake Havasu,AZ,86404,928-680-6394
Herbe's Body Work And Towing,9220 W Florence,Tolleson,AZ,85353,480-255-5563
New India Bazaar,2544 N 7th St # 101,Phoenix,AZ,85006,602-712-0009
Jb Trucking,378 Via Capri,Rio Rico,AZ,85648,520-761-1857
Masalit Trucking,2706 N Silverbell Rd #3,Tucson,AZ,85745,520-401-3311
Royal Trucking,2917 W Dunlap Ave,Phoenix,AZ,85051,602-373-2140
Lott Transportation Services,39261 N Kennedy Dr,San Tan Valley,AZ,85140,480-228-3422
Fero Transportation,2433 W Jefferson St,Phoenix,AZ,85009,602-441-6354
Pineapple Equipment,2460 East Desert Lane,Gilbert,AZ,85234,602-689-5365
Wg Trucking,4328 N 47th Avenue,Phoenix,AZ,85031,602-460-3329
Azpilcueta Roofing,1325 E Prdue Ave Apt A,Phoenix,AZ,85020,214-766-2528
Arellanos Mexican Imports,171 N West St#d,Nogales,AZ,85621,520-397-9158
Russ Jungquist Authorized Mac Tools Distributor,2605 East Leroy Avenue,Kingman,AZ,86409,928-692-9030
Horsemans Choice,3825 W Anthem Way,Anthem,AZ,85086,602-463-6508
Dominguez Deliveries,10013 W Williams Street,Tolleson,AZ,85353,760-981-9573
System Net,12918 W Rosewood Dr,El Mirage,AZ,85335,623-694-4772
Kevin Charles Davis Trucking,10532 Mint Road,Mohave Valley,AZ,86440,928-768-3836
Bs Welding,1290 E 26th Lane,Apache Junction,AZ,85219,435-689-0185
My Wifes Truck,91 First Ave,Page,AZ,86040,435-463-2112
Arapp,4510 E Tazarv St,Tucson,AZ,85706,520-742-2323
Kingtero Logistics,11409 W Locust Lane,Avondale,AZ,85323,623-229-2077
El Guero Pacas,9882 S Golden Cactus,Tucson,AZ,85756,520-975-8424
Herrera Trucking,7325 W Keim Dr,Glendale,AZ,85303,602-278-8966
Sunshine Delivery,10665 E Florian Ave,Mesa,AZ,85208,480-322-0063
Haller's Transport,728 Holly St,Bullhead City,AZ,86442,928-542-9138
Hayland Industries,16155 Paso Descanso St,Somerton,AZ,85350,928-304-8498
Keith Worley Trucking,14213 N Galatea Dr,Fountain Hills,AZ,85268,509-939-3903
Vierra Transport,8034 S Calle Sahuaro,Guadalupe,AZ,85283,480-603-8164
Aze C & E LLC,507 N Williams,Mesa,AZ,85203,480-717-1648
Rufo Express,3144 N Fontana Ave,Tucson,AZ,85705,520-272-1447
Percision Truck Repair,6525 N 83rd Dr,Glendale,AZ,85305,602-743-4356
S & M Moving Systems,3637 E Miami Ave,Phoenix,AZ,85040,800-336-5556
Performance Motorsports,1097 Highway 95,Bullhead City,AZ,86429,928-754-1799
Airaid Filter Company,2688 E Rose Garden Lane,Phoenix,AZ,85050,602-443-3333
Ltj Trucking,43913 W Sunland Dr,Maricopa,AZ,85238,510-394-2247
Sobeit Productions,7557 N Dreamy Draw Dr 134,Phoenix,AZ,85020,602-472-6629
Alvara 2,1463 D St,San Luis,AZ,85349,928-336-8878
Drivetime,4020 E Indian School Road,Phoenix,AZ,85018,602-852-6637
Holston Trucking,7810 W Peoria Ave Lot 28,Peoria,AZ,85345,623-332-7197
Lowlife Transport LLC,25621 W Gambit Trail,Wittmann,AZ,85361,623-594-1571
Orthodox Brothers Auto Transport,14151 W Calavar Rd,Surprise,AZ,85379,951-640-1299
Krawler Transport,7700 E Pharlap Ln,Prescott Valley,AZ,86315,928-775-3566
Southwest Auto Carrier,17460 N 94th Place,Scottsdale,AZ,85255,602-300-7221
Mj Trucking,3680 E Hwy 260 B3,Star Valley,AZ,85541,928-595-1794
Parker River Express,7000 Riverside Dr,Parker,AZ,85344,877-604-8294
Shredex,15216 N 62nd Drive,Glendale,AZ,85306,858-382-0458
Bautista Express,211 W Martinez St,Nogales,AZ,85621,520-980-5552
Crane Medical Transportation,Box 31916,Tucson,AZ,85751,520-975-2330
Lucky 13 Is Trucking,3075 W Romanda Drive,Eloy,AZ,85231,520-280-9223
D & E Express,2929 W Paradise Dr,Phoenix,AZ,85029,602-628-1108
Mcgowan Controls Company,5005 S Ash Ave Unit A-13,Tempe,AZ,85282,760-505-3606
Novedades Y Manualidades Angel,2545 N Mitchell St,Phoenix,AZ,85006,602-254-4473
Tsm Transport,29956 W Roosevelt St,Buckeye,AZ,85396,623-764-3771
Art Builders LLC,3425 W Calle De La Bajada,Tucson,AZ,85746,520-940-0822
Health Fuel,2127 W Carol Ann Way,Phoenix Az 85023,AZ,85023,760-681-2382
Cm Trucking,10573 W Dana Lane,Avondale,AZ,85392,602-384-4942
Capps Transport,8005 E 4th Ave,Mesa,AZ,85208,480-229-8030
Burley Transportation,445 Andante Drive,Sedona,AZ,86336,253-459-2028
Kentra Logistics,13962 N 134th Ln,Surprise,AZ,85379,623-546-6983
Montes Trucking,10259 N Hwy 191,Elfrida,AZ,85610,520-642-4682
Eagle Vision Transport,13965 W Country Gables Drive,Surprise,AZ,85379,623-363-1713
Guerejos Business Group,1593 California St,San Luis,AZ,85349,928-276-6971
Aaa Movers LLC,3605,Phoenix,AZ,85019,480-593-7039
Pibar Trucking,380 Paseo Ardilla,Rio Rico,AZ,85648,520-455-8661
Cc Asset Recovery,3291 Montezuma Ave,Rimrock,AZ,86335,928-202-9082
Cisne Morales Transport,12525 W Valentine Ave,El Mirage,AZ,85335,623-363-4456
Nishra Trucking,3226 W Kimberly Way,Phoenix,AZ,85027,847-845-2710
Dhe Logistics,2540 W Verada Amarillo,Tucson,AZ,85746,520-444-9988
Balme Trucking,1479 Cadena Road,San Luis,AZ,85349,928-627-4902
Huddleston Trucking Services,3235 E Jackson St,Phoenix,AZ,85034,602-437-7200
A & M Transportation,10711 W Apache Street,Cashion,AZ,85329,480-213-4213
Owner,3137 W Buckeye #147,Phoenix,AZ,85009,602-218-1871
Xt Trucking,127 W Lester St #1,Tucson,AZ,85705,520-289-2353
Gomez Towing 10,16011 W Myrtle Ave,Litchfield Park,AZ,85340,623-478-1845
Destination Transportation,1847 W Bel Aire Ct,Tucson,AZ,85705,520-358-0126
Red Mountain LLC - Pending,526 South Foudy Road,Bisbee,AZ,85603,520-235-1934
Adolfoandmartha Gomez,6330 Wvan Buren,Phoenix,AZ,85043,623-936-7311
Gonzalez Transport,1338 Washigton Ln,San Luis,AZ,85349,928-336-0904
Njs Property Transport,7652 W Rue De Lamour,Peoria,AZ,85381,602-531-0200
Roadcat Express,3920 Chickasaw Drive,Lake Havasu City,AZ,86406,928-954-4449
Rays Express,1446 Arizona St,San Luis,AZ,85349,602-425-6381
San Martin Trucking,1631 E Weldon Ave Unit 36,Phoenix,AZ,85016,480-221-5942
Little 7 Trucking,265 W 22nd Pl,Yuma,AZ,85364,928-276-6423
Ponnequin Transport,3530 N Bibo,Golden Valley,AZ,86413,928-565-4045
Hauln Azz Express LLC,5217 N Woodmere Fairway,Scottsdale,AZ,85250,602-524-3684
Rt Transport,1140 Carmelita Dr,Sierra Vista,AZ,85635,520-449-1366
Integrity Transport,8958 S Sixshooter Cyn #27,Globe,AZ,85501,928-812-1698
C&k Transport,3500 W Rowley Dr,Thatcher,AZ,85552,928-792-6817
Catts Dreamland Tours,12800 S 43 Ave,Laveen,AZ,85326,602-476-2111
O & N Delivery Services LLC,8425 W Payson Rd,Tolleson,AZ,85353,602-561-3644
Sonora Hay,5617 W Shady Grove Dr,Tucson,AZ,85742,520-204-8850
G S Trucking,11937 W Larkspur Rd,El Mirage,AZ,85335,818-462-1970
Sunny's Transportation,12812 N 44th Ave,Glendale,AZ,85304,602-432-8507
L & A Transport LLC,472 W Dana Dr,Queen Creek,AZ,85242,480-677-2601
Leopoldo Escalante,2201 W 5th Street,Yuma,AZ,85364,N/A
Dba Lakeside Towing And Recovery,1050 Aviation Dr,Lake Havasu City,AZ,86404,520-854-2077
Kachina Trucking,1202 W Harding Avenue,Coolidge,AZ,85228,480-229-5732
Camel Towing,1394 Lincoln Ln,Bullhead City,AZ,86442,928-444-6833
Isa Hoxhaj,14230 N 19th Ave Ste 244 S,Phoenix,AZ,85023,602-993-0322
Holt Trucking,10919 E Pueblo,Mesa,AZ,85208,480-986-3727
Pinnacle Management,3731 E Kent Drive,Phoenix,AZ,85044,602-763-3188
Delta Towing & Recovery & Gnome Towing & Transport,4783 E Brigade Circle,Cottonwood,AZ,86326,928-301-1132
Gil-mar Trucking,1325 W Hidalgo Avenue,Phoenix,AZ,85041,602-304-3230
Kelley & Son Transport,2221 W Madre Del Oro Dr,Phoenix,AZ,85085,602-525-8226
E & V Furniture,5074 W Peoria Avenu,Glendale,AZ,85302,602-930-1800
Rener,19661 N 48th Lane,Glendale,AZ,85308,602-321-1259
Darnell Enterprises,396685 Az 75,Duncan,AZ,85534,928-687-1457
Jmr Enterprises,224466 N Van Loo Drive,Maricopa,AZ,85329,602-350-1603
Yellow Wolf Livestock,3390 West Jefferson Rd,Elfrida,AZ,85610,520-642-1590
Mike's Rv & Trailer Towing,3378 S Hwy 69 South,Humboldt,AZ,86329,928-713-8908
West Point Enterprises,10361 E 39th Lane,Yuma,AZ,85365,928-503-9985
Brad & Sam Transportation,22415 N 76th Pl,Scottsdale,AZ,85255,602-763-0879
Trager Enterprises,10231 West Hazelwood,Phoenix,AZ,85037,623-215-3436
Frank Romo And Sons,1400 9 St,Parker,AZ,85344,N/A
B & C Investments,6160 South Morris Blvd,Tucson,AZ,85706,909-917-4717
Knucklehead Flatbed,3725 W Tierra Buena,Phoenix,AZ,85053,602-588-0888
Papa Smurf Trucking,17352 W Elaine Dr,Goodyear,AZ,85338,623-932-5425
C N Bros,340 W 32nd St,Yuma,AZ,85364,928-257-6941
Hr Enterprises LLC,P.o Box 361,Rillito,AZ,85654,208-452-7046
N A M I,1410 Justray Ranch Road,Chino Valley,AZ,86323,928-237-7081
"Aeropegasus, Inc.",8241 W Madison Avenue,Peoria,AZ,85345,951-255-6976
Bustillos & Sons Trucking,11222 W Roma Ave,Phoenix,AZ,85037,562-394-8038
G Lee Enterprises,2119 Lake Drive,Lake Havasu City,AZ,86404,562-237-1184
E-z Transport,12713 W Crocus Dr,El Mirage,AZ,85335,909-723-6333
Old Navy,3220 Ina Rd. #19203,Tucson,AZ,85741,559-790-3166
Ellestad & Son,5852 Long Street,Claypool,AZ,85532,928-425-4315
P & F Enterprizes,9227 W Weaver Circle,Casa Grande,AZ,85294,520-251-0243
Big D's Towing And Storage,2964 Cupa De Oro Drive,Mohave Valley,AZ,86440,928-768-9318
Running P Trucking & Transport,38667 N 10th St,Phoenix,AZ,85086,623-910-3554
Cisco's Produce,5201 East Highway 95 Space 209,Yuma,AZ,85365,915-637-1258
Rm Towing,101 N Freeport Dr,Nogales,AZ,85621,520-377-0158
Vision Motor Co,20009 N 94th Drive,Peoria,AZ,85382,714-654-3386
Jp Transport,1536 Monreal Ln,San Luis,AZ,85349,877-270-0367
Agricola Dojaquez,9880 S Oak Canon,Tucson,AZ,85706,520-250-7748
K C Cartage,1048 North Beach Street,San Luis,AZ,85349,928-627-8061
Perfection Transport,2123 E Serene Street,Phoenix,AZ,85086,602-390-9320
George F Stansberry LLC,7027 E White Pacheco St,Dos Cabezas,AZ,85643,520-384-0088
Old Man Trucking,131 E Bejarano Ln,Globe,AZ,85501,928-812-2501
Sun Valley Towing,4014 W Van Buren Ste 10,Phoenix,AZ,85009,602-442-9200
Zimmers,236 Opal Lane,Lake Havasu City,AZ,86403,928-846-7390
Martinez & Sons Trucking LLC,41586 N Coyote Rd,San Tan Valley,AZ,85140,602-361-6134
Hartley Enterprises,2610 N. Shirley Rd.,Maricopa,AZ,85239,520-424-9051
Mexico Viejo Imports,6321 W Whitton Ave,Phoenix,AZ,85033,623-691-0550
D & R Excavating,3249 E Northern Ave,Kingman,AZ,86409,928-692-3343
Camel Towing,3410 Poppytrail Dr,Lake Havasu City,AZ,86404,928-505-6166
Pro Dirt Construction,1900 Painted Desert Drive,Winslow,AZ,86047,928-289-8914
Cactus Refrigerated,5901 W Behrend Dr Apt 1098,Glendale,AZ,85308,602-791-6643
Company 54,20041 W Camelback Rd,Litchfield Park,AZ,85338,602-481-6248
H R Thompson,1725 W Big Sky Ranch Rd,Paulden,AZ,86334,928-642-3157
Sherlyn & Brothers,8123 W Westview Drive,Phoenix,AZ,85033,623-247-2139
Nastow Towing & Recovery,651 N 6th St,Prescott,AZ,86301,928-778-4357
Lav Trucking,1140 W Industrial Park Dr,Nogales,AZ,85621,520-761-4043
Gorda's Transport & Towing,7850 W Mcdowell Rd #1033,Phoenix,AZ,85035,909-904-7467
Mr Lc,10250 W Reade Ave,Glendale,AZ,85307,623-772-0523
Covington Enterprises,25597 W St Charles Court,Buckeye,AZ,85326,623-386-6026
Tarheel Towing & I-17 Towing,8767 E Laredo Dr,Prescott Valley,AZ,86314,928-772-8555
Monster Impound & Recovery LLC,17507 East Orchid Lane,Gilbert,AZ,85296,480-279-9890
Bad Houler,14207 N 133rd Drive,Surprise,AZ,85379,602-757-2310
Martin Valdez Trucking,9586 E 35th Pl,Yuma,AZ,85365,928-342-8377
M E Trucking,12275 W Cameo Mary Lane,Tucson,AZ,85743,520-349-0081
Simbe Transportation,3163 E Wahalla Ln,Phoenix,AZ,85050,602-368-1169
Usa Runners Transport,17416 W Dersert Ln,Surprise,AZ,85388,623-242-6048
Joeys Towing,116 W Forest Grove,Phoenix,AZ,85041,623-205-1553
Joe Boxtruck,13670 Main Street,Mayer,AZ,86333,928-632-4740
D L Poole And Sons,4140 N Irving St,Kingman,AZ,86409,928-716-5418
Rabola Towing,1181 W Cimarron St,Nogales,AZ,85621,520-287-2398
Sunshine Xpress,4325 E Roeser Rd,Phoenix,AZ,85040,602-391-7305
Ramon Moiron,1275 S Atlantic Ave,Yuma,AZ,85364,928-991-7995
Blue Sky Export,1800 E Frazier Rd,Tucson,AZ,85706,520-409-2196
Butron Transport,5102 W County 16 Street,Somerton,AZ,85350,N/A
Dishong & Daughters Lp,3768 E Busby Dr,Safford,AZ,85546,928-925-3200
Quality Auto Body & Towing,1920 W Acoma Blvd,Lake Havasu City,AZ,86403,928-855-2940
Rockwise Supply,2850 Enteprise Parkway,Prescott Valley,AZ,86314,928-772-0226
Degavoo Transportation,9930 W Riverside Ave,Tolleson,AZ,85353,602-283-6566
E A Towing And Recovery,374 E Calle De Buena Vista,Safford,AZ,85546,928-428-7683
Chin Trucking,427 E Pima Street,Huachuca City,AZ,85616,520-236-4438
Circle Bar K,915 N Sibyl Rd,St David,AZ,85630,520-720-4083
Larry Wright Water,7120 Hutton Ranch Rd,Flagstaff,AZ,86004,928-527-7973
"Crest Seafood Distributors, Inc.",107 E Mayra Dr,Nogales,AZ,85621,520-375-4123
Jv Trucking,1001 W St Mary's Rd Apt #703,Tucson,AZ,85745,520-792-8112
Windstorm Trucking,1312 S 385th Ave,Tonopah,AZ,85354,623-687-5177
Eazy Way Transport,1225wbeale St,Kingman,AZ,86401,928-530-7665
Phoenix Express,8450 W Mcdowell Rd # 103,Phoenix,AZ,85037,623-643-8831
Michael Dean Powell Trucking,7542 East Dale Lane,Scottsdale,AZ,85262,480-229-1136
Tee & Gee Transport,416 W 9th Street,Casa Grande,AZ,85122,520-483-6979
Big Mike's Trucking,517 E Garnet Ave,Mesa,AZ,85204,512-436-6926
Tonto Basin Transport,402 E Porter Steet,Gila Bend,AZ,85337,928-595-3039
V&l Trucking,3680 E Chaparral Way,Yuma,AZ,85365,928-726-6581
2 Busy Trucking,4100 S 67th Ave,Phoenix,AZ,85043,623-826-6035
International Trucking,2333 W Irvington Pl Unit 56,Tucson,AZ,85746,520-223-3372
Rtc Transport,9727 W Augusta Drive,Sun City,AZ,85351,623-204-5831
Ironhorse Trucking,11892 S Ironwood Drive,Yuma,AZ,85367,406-546-7585
1st Choice Recycling,3210 E Roeser #9,Phoenix,AZ,85040,602-374-2550
Copperstate Transportation,7043 E Horizon Way,Prescott Valley,AZ,86315,928-379-6798
Jmar Ag Logistics LLC,824 North Cholla Street,Chandler,AZ,85224,914-489-0995
Nnh Enterprises,3120 E Lark Drive,Chandler,AZ,85286,480-993-9770
George-dean Transportation,2122 N Cajeme Ave,Casa Grande,AZ,85122,480-326-4066
Truth Transportation,7333 W Acoma Dr,Peoria,AZ,85381,602-228-2952
B & M Express Transport,695 W Stanford Ave,Gilbert,AZ,85233,480-459-8179
Matco Tools,1841 Ranchito Dr,Lake Havasu City,AZ,86404,928-846-2269
Mag Transport,21810 N Braden Rd,Maricopa,AZ,85138,602-361-8060
Eddies Equipment Repair,19150 East Palm Lane,Black Canyon City,AZ,85324,623-374-9407
Uncle Doug's Transport Services,5288 S Taxi Way,Fort Mohave,AZ,86426,928-219-7988
One Way Transportation,416 Redondo Dr N,Litchfield Park,AZ,85340,480-495-7462
R-p Trucking,420 Via Calandria,Rio Rico,AZ,85648,520-281-0035
"Jt The Bread Man, Inc.",South Camino Del Ferrocarril,Sahuarita,AZ,85629,520-648-2238
Truck This Az,1111 N Miller Road,Tempe,AZ,85281,480-966-3347
Ac Trucking,6405 W Mcdowell Rd,Phoenix,AZ,85035,602-423-6737
Ccp Transport,2861 E Cheryl Dr,Phoenix,AZ,85028,602-708-3001
Az All Trans,4710 East Falcon Drive Ste 210,Mesa,AZ,85215,480-525-1616
Phoenix Used Restaurant Equipment,201 W Lone Cactus Dr,Phoenix,AZ,85027,623-869-0285
A&r Wrecking,851 N 61st Drive,Phoenix,AZ,85043,602-471-8025
On Time Transport,3537 W Eugie Ave,Phoenix,AZ,85029,602-370-5238
Sedona Mago Retreat Center,3500 E Bill Grey,Sedona,AZ,86336,928-204-3386
Esee Hay,814 Railroad Street,Buckeye,AZ,85326,602-810-3835
Zepeda Transport,6512 W Van Buren St Lot 59,Phoenix,AZ,85043,480-392-2367
Independent Transport LLC,11608 E 26th Lane,Yuma,AZ,85367,928-783-8722
Arizona Gold Endeavors,618 East Tawni Drive,Benson,AZ,85602,520-686-2125
Bohannon Transportation Services,4276 S Hwy 77,Winkelman,AZ,85192,928-245-7409
Martinez Trucking,6712 W Kings Ave,Peoria,AZ,85382,539-406-8723
Ant,11742 W Electra Ln,Sun City,AZ,85373,404-663-4363
River Trucking,2930 E Escuda Rd,Phoenix,AZ,85050,623-203-2765
The Doughut Peddler,4807 E Indigo St,Mesa,AZ,85205,480-985-1038
Blazing Trails Transportation,4129 Sanpatricio Pl #3,Tucson,AZ,85705,517-507-0612
Blue Line,401 N 20th St,Phoenix,AZ,85006,480-438-4522
King Kobra Transportation,3426 W Lincoln St,Phoenix,AZ,85009,602-354-0022
R Wallace,6290 N Sundown Road,Tucson,AZ,85743,775-359-7145
Bud's Towing,4048 W Hidalgo Ave,Phoenix,AZ,85041,602-291-1520
Ibarbo Transportation,25001 W Watkins,Buckeye,AZ,85326,602-412-0951
Hot House Naturals Retail,2144 North Road 1 East,Chino Valley,AZ,86323,928-458-5152
Tgr Auto Transport,3617 W County 16 1/2,Somerton,AZ,85350,928-246-7069
G & L Transport,2276 West Broadway Ave,Coolridge,AZ,85128,520-251-7170
Double-t Authority,442 S Chatsworth,Mesa,AZ,85208,605-730-4117
L C Express,4912 W De La Canoa,Amado,AZ,85645,520-398-2123
Felipe's Scrap Metal,1304 W Buckeye,Phoenix,AZ,85009,602-754-3565
Herbert Moore Trucking,4214 E Brookwood Ct,Phoenix,AZ,85048,951-765-7821
Pbm Trucking,1619 W Irvine,Phoenix,AZ,85086,480-747-0666
Auction Nation,2601 W Cypress St,Phoenix,AZ,85009,602-516-7066
Hernandez Trucking,255 E 23rd Street,Yuma,AZ,85364,928-210-0387
Valdez Transport,118 W Ellis St Apt #4,Nogales,AZ,85621,619-713-7211
Reidco Transport,17690 South Dripping Springs Rd,Mayer,AZ,86333,602-615-2828
Bar Trucking,12534 W Sierra St,El Mirage,AZ,85335,760-604-3471
J Ries Express LLC,10847 West Olive Avenue #1063,Peoria,AZ,85345,623-570-8669
Specialized Product Delivery,3905 N 7th Ave,Phoenix,AZ,85013,602-388-7030
Michel's Transport,1075 Circulo Golondrina,Rio Rico,AZ,85648,520-377-0061
Blu Sky Hauling,32024 N Caspian Way,San Tan Valley,AZ,85143,480-772-1700
C R 7 Transport,8092 W Paradise Ln Apt 3063,Peoria,AZ,85382,623-262-4679
Pegasus Movers,2048 W Windrose Dr,Phoenix,AZ,85029,602-795-4038
Wildcat Transport,10065 W Busterville Ln,Tucson,AZ,85743,520-591-3571
Dash Trucking LLC,1732 W Tulsa Street,Chandler,AZ,85224,480-326-1965
P D Q Carriers,1948 Felicidad Dr,Lake Havasu,AZ,86404,928-587-2795
Salgado's Curbing,5629 E Calle Iglesia,Guadalupe,AZ,85283,480-458-5672
Zainab Kushkaki,5521 E Fairmount St,Tucson,AZ,85712,520-546-0346
Four Diamond Transport,4169 S Apache Well Dr,Tucson,AZ,85730,520-370-1456
G M L Trucking,7549 W Calle Lerdo,Tucson,AZ,85757,520-867-0009
Roads One Transportation,1188 E Gascon Rd,Santan Valley,AZ,85143,480-389-7386
Pilot Car Service,6120 N Shane Ave,Tucson,AZ,85743,520-682-7123
Rekich,4331 W Mountain View Rd,Glendale,AZ,85302,602-370-1148
Guerrero Towing,11462 S Humming Bird Dr,Yuma,AZ,85365,928-920-2318
Fv Enterprises,4909 N Sunrise Ave,Tucson,AZ,85705,520-271-0491
Speedy Transport,7446 S 27th Ave,Phoenix,AZ,85041,602-718-7482
K And R Transportation,4250 W Swisshelm Trl,Elfrida,AZ,85610,520-404-0021
M & G Transport,2313 N Grand Ave,Nogales,AZ,85621,520-281-0177
Compus Global Transportation,261 W Wisteria Pl,Chandler,AZ,85248,480-307-8294
Rabbit Trail,1201 N 54th Ave # 117,Phoenix,AZ,85043,714-851-4671
Desert Freight Transportation Services,9106 W Riverside Avenue,Tolleson,AZ,85353,602-317-3929
Moreno's Auto Transport,9320 W Bennet Plaza,Phoenix,AZ,85037,602-380-7384
J&d Auto Transport,25340 E Tonopah Trl,Benson,AZ,85602,209-204-7380
Transportes Tovar,164 Via Orquidea,Rio Rico,AZ,85648,520-313-3221
Rex Southwick,41376 N Jarnagin Pl,San Tan Valley,AZ,85140,714-348-1020
Srl Trucking,2030 W Jefferson St Apt 1,Phoenix,AZ,85009,602-489-9729
Rmr Logistics,12740 W Indianschool Rd Apt S108,Litchfield Park,AZ,85340,623-340-0132
Ez Auto Transport,20118 W Ray Rd,Buckeye,AZ,85326,623-262-0146
Transportes A Y A,6225 W Cavalier Drive,Glendale,AZ,85301,623-937-9650
Nada Left Behind,942 E Southern Ave,Phoenix,AZ,85040,602-441-6800
Sun Water Company LLC,3791 London Bridge Rd,Lake Havasu City,AZ,86404,928-764-3434
Hanson Transportation Services,3002 W Maldonado Rd,Phoenix,AZ,85041,602-403-2964
Johnston Brothers Trucking,1649 E Frontage Road,Tumacacori,AZ,85640,602-686-3500
Targit Moving & Shipping,210 S 24th St,Phoenix,AZ,85034,602-820-4439
Premier Golf Car Rentals,2661 Edgewood Dr,Lake Havasu City,AZ,86406,928-855-8908
Roman Trucking,115 County 22nd Street,San Luis,AZ,85349,928-257-9709
Stak Transport,22701 N Black Canyon D34,Phoenix,AZ,85027,602-359-8405
R C D Distibution,4405 N 103rd Ave Apt149,Phoenix,AZ,85037,623-251-7217
C Heart Ranch Transport,7997 S Kansas Settlement Road,Willcox,AZ,85643,517-507-0612
Asap Services,246 W Brangeus Way,San Tan Valley,AZ,85143,480-358-9224
Bogart Motorsports,27 N 57th Dr,Phoenix,AZ,85043,602-353-6648
Arizona Sign & Maintenance,919 E 37 Yh St,Tucson,AZ,85713,520-629-0999
June Trucking,11460 S Prickley Pear Ln,Yuma,AZ,85365,928-388-9718
Fox Autos,3633 Tyndall Ave,Tucson,AZ,85719,520-404-0271
Teddybear Movers Shippers,4915 E Thomas Rd Apt 123,Phoenix,AZ,85018,602-760-9015
Espinoza Trucking,5693 S 239th Dr,Buckeye,AZ,85326,928-581-6043
Double D Transport,4782 E Whitehall Drive,San Tan Valley,AZ,85140,480-206-0543
Luis & Brother Trucking,6821 N 39th Ave,Phoenix,AZ,85019,602-413-4049
Ed Watson Trucking,3580 E Los Altos Rd,Gilbert,AZ,85297,480-789-1145
Laz Trucking,1315 East Gibson Lane Bldg E,Phoenix,AZ,85034,602-442-8252
Ccl Maintenance,3628 W Harrison Street,Chandeler,AZ,85226,323-202-5321
On Time Everytime Transport,19924 West Cambridge,Buckeye,AZ,85326,517-507-0612
Precission Transport,3981 Montezuma Dr,Lake Havasu City,AZ,86406,928-230-1439
4809668819,1444 W 10th Place,Tempe,AZ,85281,480-966-8819
"Home Town Bread Dist, Inc.",1524 Ash Ave,Bullhead City,AZ,86442,928-704-9260
Dmh Trucking,2436 W Tierra Buena Lane,Phoenix,AZ,85023,602-481-2892
Pachequitos Trucking,1742 S Av B Sp22,Yuma,AZ,85364,928-941-6586
Lato Glass Services,801 S 25th Ave Ste 1,Phoenix,AZ,85009,602-396-4397
My Pigsty,845 N 54th Street,Chandler,AZ,85226,480-507-5744
Guillen's Transportation,106 E Ruby Rd,Rio Rico,AZ,85648,520-377-9355
Eby Custom Remodeling And Building,11771 N 1st Ave,Oro Valley,AZ,85737,202-521-1484
T D Designs,9555 E Grandview Street,Mesa,AZ,85207,602-391-4392
U Blush,700 W Wheatridge,Tucson,AZ,85704,520-400-8009
St Trucking,11513 N Highway 191,Elfrida,AZ,85610,520-508-1917
Phoenician Estates,16033 North 77th St Suite A1,Scottsdale,AZ,85260,480-748-6503
Msa,4580 W Cooks Well Circle,Prescott,AZ,86305,480-686-3436
Rc Autotransport,290 W Teton St,Tucson,AZ,85756,520-309-7101
B&h Transport,2370 W Sr 89a #11-203,Sedona,AZ,86336,602-538-7080
Ray Ridge Trucking,3200 West Poppy Rd,Ash Fork,AZ,86320,530-434-3241
Anderson Automotive Group,6510 Showplace Ave,Lake Havasu City,AZ,86404,928-764-2886
Peters Freight Services,11554 W Edgemont Ave,Avondale,AZ,85392,623-363-4306
Lc Logistics,3144 N 26th St,Phoneix,AZ,85017-5122,760-970-0235
Auto Matriculation,6333 W Sunnyside Dr,Glendale,AZ,85304,623-694-8060
M & E Trucking,8560 E Yavapai Rd,Prescott Valley,AZ,86314,928-308-0931
Rawlings Trucking Co,2167 N St Francis Pl,Casa Grande,AZ,85122,520-840-7110
Grumpy Dog Recycling,4955 S Sunshine Blvd,Eloy,AZ,85131,623-695-2866
Mach 1 Expedited Transport,8578 S Icehouse Cnyn Rd,Globe,AZ,85501,202-521-1484
Sylver Transport,7411 E Cambridge Ave,Scottsdale,AZ,85257,323-636-3727
Carter Trucking,4045 S Turquoise Dr,Buckeye,AZ,85326,623-327-9840
Penske Auto Glass,7015 E Chauncey Lane,Phoenix,AZ,85054,480-538-6818
Selene Express,1111 E Limberlost Dr Unit 295,Tucson,AZ,85719,520-271-4133
C2 Transport,538 S Meridian Rd,Apache Junction,AZ,85120,480-228-4928
Its On My Way,15136 W Minnezona,Goodyear,AZ,85395,602-882-3796
Twisted R Trucking,185 Cline Xing,Young,AZ,85554,480-789-2743
Two Flags Transport,8832 W Mountain View Road,Peoria,AZ,85345,602-332-0276
C&c Shipping,2930 N 43rd Ave,Phoenix,AZ,85009,480-220-8009
Surehaul,34000 N 27th Dr Apt 2002,Phoenix,AZ,85085,646-280-5519
Trailer Monkey,2943 N Gold Creek Pl,Tucson,AZ,85745,520-979-9889
J L Transport,3304 S 94th Dr,Tolleson,AZ,85353,562-755-8169
Suddath Relocation Systems,1717 E Rairdan Ln,Phoenix,AZ,85034,602-252-5566
Mdb Trucking,1321 Eagle Avenue,Parker,AZ,85344,928-210-6765
Mc Trucking,4770 N Plaza,Apache Junction,AZ,85120,480-251-4506
Sunstate Mechanical Services,7845 East Redfield Rd Suite 100,Scottsdale,AZ,85260,480-998-9620
T D Tilley Enterprises,2217 S 349th Ave,Tonopah,AZ,85354,623-703-8434
Cna Transportation Services,5763 Wmarconi Ave,Glendale,AZ,85306,602-388-6252
Jaykel Trucking,2501 W Ocotillo #301,Phoenix,AZ,85017,602-595-8610
Lads Automotive,3573 E Linda Ln,Gilbert,AZ,85234,480-539-0169
Meridian Relocation Systems,3600 E 36th Street,Tucson,AZ,85713,520-747-1400
Morales Concessions,8680 N Trico Rd #1,Marana,AZ,85653,801-592-0368
S & D Transportation,7021 E Paradise Dr,Scottsdale,AZ,85254,480-319-3794
Torch Lake Transportation,24782 W Wayland Dr,Buckeye,AZ,85326,623-242-4030
Hancock Trucking,3140 W Olney Ave,Laveen,AZ,85339,602-829-6553
Network Transportation LLC,825 S. 63rd Avenue,Phoenix,AZ,85043,623-936-5865
Chhutchinson,2536 E Heidi Loop,Flagstaff,AZ,86004,928-714-0676
Laughing Coyote Custom Ironworks,521 N Fairhaven Dr,Vail,AZ,85641,520-762-9814
Df Hauling,44418 W Mcclelland Drive,Maricopa Arizona,AZ,85138,520-450-3773
J&s Trucking,20002 E Conestoga Dr,Mayer,AZ,86333,928-499-5682
Duke Transport,3461 W Jester Circle,Prescott Valley,AZ,86314,202-521-1493
Jomosie Ltd,3129 S Evergreen Rd,Tempe,AZ,85282,480-752-7864
Padron Transport,26931 W Paradise Palms St,Casa Grande,AZ,85193,520-280-9664
Az Truck Locators,Mud Spring And Velda Rose St 300 Ft So,Black Canyon City,AZ,85324,602-432-9129
Jensen Transport,2380 Sierra Vista Ave,Kingman,AZ,86409-2568,928-377-3242
La Rue Transport,9255 E Ellis Street,Mesa,AZ,85207,480-254-8208
Abc Floral&craft,846 N G Ave,Douglas,AZ,85607,520-805-9003
A F Transport,1938 Golden Gate Avenue,Kingman,AZ,86401,501-316-7468
Cornwell Tools,6303 E Quartz St,Mesa,AZ,85215,303-396-9584
American Eagle Transport,40814 W Novak Lane,Maricopa,AZ,85138,520-858-5520
4 H Transportation,1097 Circulo Montosa,Rio Rico,AZ,85648,520-980-1133
Above Average Transportation,2841 N Grand Ave,Nogales,AZ,85621,202-521-1493
24 Marketing,23005 North 15th Ave Ste 104,Phoenix,AZ,85085,602-770-5372
Priced Right Auto Transport,2020 W Deer Valeey Rd Ste 102,Phoenix,AZ,85027,602-819-3133
Nikkis Transport,1328 W 18th Pl,Yuma,AZ,85364,760-336-0194
C D J Logistics,13737 W Lisbon Ln,Surprise,AZ,85379,602-803-8323
Tempe Dodge,7975 S Autoplex Loop,Tempe,AZ,85284,480-496-4000
Lopez Trucking,3015 S Greenfruit Ave,Yuma,AZ,85365,928-345-7291
Baker Transportation Group,635 Sunrise Blvd,Prescott,AZ,86301,928-713-8613
Hanco Services,3578 W Dancer Lane,Queen Creek,AZ,85142,480-659-6133
Jd Enterprises,8733 W Sahuaro Dr,Peoria,AZ,85345,623-680-3657
Reece Transport,13136 E Kahlua Rd,Vail,AZ,85641,707-533-7641
Akam Transportation LLC,3777 E Mcdowell Rd #2013,Phoenix,AZ,85008,619-808-8257
Skl Fabrication,3327 N 35th Ave,Phoenix,AZ,85017,714-488-6253
Js Express Transport,2241 E Alaska St,Tucson,AZ,85706,520-425-1983
"Jdm Logistics Traansport, Inc.",4220 W Kaler Dr,Phoenix,AZ,85051,602-515-7277
Sbktraining,15810 N Cave Creek Rd Ste 6,Phoenix,AZ,85032,602-763-6827
"Audio Visions, Inc.",2660 W Us Hwy 70,Thatcher,AZ,85552,928-428-7625
Jd Transportation,1197 Ramar Rd Apt#1,Bullhead City,AZ,86442,760-957-5213
Notsch Pool Products,1968 Acoma Blvd W Suite 102,Lake Havasu City,AZ,86403-2980,982-505-4747
Godales Serrano Trucking,8437 N 37th Ave,Phoenix,AZ,85051,623-271-3732
Ali Express,"5180 E. 22nd Street, Apt. B-34",Tuscon,AZ,85711,949-350-1889
Shoelace Events LLC,2250 E German Road #6,Chandler,AZ,85286,719-460-2968
D C Ferguson Racing,25217 N 16th Dr,Phoenix,AZ,85085-2881,623-581-3895
Mid Fifty,5221 Us Hwy 68,Golden Valley,AZ,86413,928-565-2727
Clay Kessay Express,69 N Mulberry St,Florence,AZ,85132,520-510-5115
Western Express Shipping,2409 W Monet Way,Tucson,AZ,85741,520-971-2179
Coronado's Trucking,14433 1st Ave Lot 9,Parker,AZ,85344,928-916-4259
Best In Class Horse Transportation,21940 N 69th Drive,Glendale,AZ,85310,602-920-7261
Flea Marketer,230 West Tepee,Apache Junction,AZ,85120,480-242-2330
Mauricio Gutierrez,2226 N Palo Verde Dr,Florence,AZ,85132,520-306-6591
A&p Transport,1067 N Alamo,Littlefield,AZ,86432,702-378-7863
Hansen's Auto Relocation,15757 N 90th Pl 1109,Scottsdale,AZ,85260,408-981-9454
1cutting Edge,2215 Hwy 69,Humboldt,AZ,86329,928-515-9012
Alamo Transportation,2679 N Al Harrison Rd,Nogales,AZ,85621,520-281-0393
Apache Freight,2679 N Al Harrison Rd,Nogales,AZ,85621,520-281-0393
Los Munoz Transportation,1426 North 35th Ave,Phoenix,AZ,85009,202-521-1493
Outlaw Bulk Transport,531 S 8th Ave,Yuma,AZ,85364,928-750-2733
Fellows Auto Mechanic,3810 N 19th Ave,Phoenix,AZ,85033,202-521-1493
Bomini,6001 South El Mirage Road,Tolleson,AZ,85340,602-571-4561
Gir Trucking,7924 W Napoli,Phoenix,AZ,85043,602-452-6335
Rodriguez Transportation,2231 E Hidalgo Vista,Tucson,AZ,85713,520-258-3052
Ph Door,4074 E Emerald Ln,Apache Junction,AZ,85119,480-983-3806
F & R Transport,7301 W Canterbury Dr,Peoria,AZ,85345,602-810-8074
Yuma County Area Transit,2715 East 14th Street,Yuma,AZ,85365,928-539-7076
Cactus Asphalt,8211 W Sherman St,Tolleson,AZ,85353,623-907-2800
Jd Trucking,115 Fosa Ct,Rio Rico,AZ,85648,520-455-8256
Marianna Martinez Tdlr Transport,2047 N Apache Blvd,Nogales,AZ,85621,520-264-8744
Moralez Ranch,26585 N Grandview Dr,Congress,AZ,85332,602-377-6301
Trinitys Custom Transport Services,15104 W Port Royale Ln,Surprise,AZ,85379,602-999-9584
Audy Enterprises,1814 East Bell Rd Unit 1119,Phoenix,AZ,85022,602-680-9581
J & K Trucking,1362w17thst,Yuma,AZ,85364,928-341-5516
Vmakk Trucking,6637 W Mary Jane Lane,Glendale,AZ,85306,602-885-6006
Garcia Trucking,10575 W Arica Rd,Casa Grande,AZ,85193,928-965-0010
Fontana Cajeme Transport,1079 N Bankard Ave Apt 15,Nogales,AZ,85621,520-285-6199
Team Core Professionals,1600 E Redfield Rd,Gilbert,AZ,85234,480-677-5889
Moon Transport,2810 N 50th Ln,Phoenix,AZ,85035,786-400-5655
Craig Trucking,2123 Robinson Ave,Kingman,AZ,86401,213-446-4435
Psa Southwest Express,14050 N 83rd Avenue Suite 290,Peoria,AZ,85381,602-730-5651
Cookin Up The Good Stuff,701 W Grove Parkway #355,Tempe,AZ,85283,480-238-3711
Graciano Logistics Group,2242 W Roosevelt,Phoenix,AZ,85128,213-570-9423
"Longhorn Transport, Inc.",407 W Ajo Way,Tucson,AZ,85713,520-869-0956
"Madrid Delivery, Inc.",4036 N 62nd Ave,Phoenix,AZ,85033,623-694-9985
Jme Transport,4613 W Morrow Dr,Glendale,AZ,85308,630-392-1040
Azzkikr Custom Baggers,22410 N 18th Drive,Phoenix,AZ,85027,623-879-5150
Fjd Transportation,7179 S Parsons Tale Dr,Tucson,AZ,85756,520-369-0601
Empire Transport,21716 N 69th Circle,Glendale,AZ,85308,623-570-9718
Trk Transport,4413 Camino Soledad,Sierra Vista,AZ,85635,520-220-6692
Gambusinos Recycling,273 Calle Arikara,Rio Rico,AZ,85648,520-619-0194
Dms Express,3210 W Lane Ave,Phoenix,AZ,85051,N/A
Az-ez Haul,15851 W Ventura St,Surprise,AZ,85379,360-920-7934
Stagecoach Motor Freight,245 N Eagar St,Eagar,AZ,85925,602-402-5931
Thunder & Ice Horse Ranch,6450 W Maverick Rd,Sahuarita,AZ,85629,520-625-9688
Illegal Streetwear,724 W Buffalo Trail,Camp Verde,AZ,86322,928-399-0128
Lm Brokerage & Logistics,1777 N Frank Reed Rd Ste# 4,Nogales,AZ,85621,520-281-2400
America Hotshot,1030 W Malibu Dr,Tempe,AZ,85282,480-246-9371
Itty Ranch Horse Transport,2578 Diaznon Rd,Heber,AZ,85928,623-698-7290
Jdog Transport And Detail,1500 W Twin Buttes Rd,Sahuarita,AZ,85629,520-425-4728
Creative Iron Patio,24612 N Grand Ave,Surprise,AZ,85387,623-544-8661
Juniors Trucking,491 W Hammerhead Way,Tucson,AZ,85706,520-273-6868
High Performance Transport,8233 E Sundew Dr,Tucson,AZ,85710,520-631-5212
Transport,2018 Robinson Ave,Kingman,AZ,86401,661-778-3565
Mtst Trucking,937 W Carter Rd,Phoenix,AZ,85041,602-276-2929
Regency Sedan Service LLC,8114 E Osborn Rd,Scottsdale,AZ,85251,602-487-3499
Nhr Transport,5707 W Camelback Rd,Phoenix,AZ,85031,623-845-2893
Discover Classic Cars,1041 N 22nd Ave,Phoenix,AZ,85009,480-570-3671
Pedro Trucking,10634 N 47th Lane,Glendale,AZ,85304,602-410-9016
Tl Brother Trucking LLC,5502 N 27th Ave Apt#35,Phoenix,AZ,85017,909-609-6630
Owner,926 E Amelia,Pphoenx,AZ,85014,602-531-6070
Shaikes Freight,1240 W Frontage Rd Unit 2,Rio Rico,AZ,85648,520-282-8479
Pelkey & Son,705 Center St,Duncan,AZ,85534,623-251-9114
Emg Trucking LLC,4512 W Fremont Rd,Laveen,AZ,85339,602-296-8441
Trembles Delivery Service,4029 N 55th Dr,Phoenix,AZ,85031,602-643-8318
Ll Trucking,284 Circulo Silva,Rio Rico,AZ,85648,520-619-8198
Double Edge Logistics,2933 W Palmyra St,Tucson,AZ,85705,517-507-0612
Techmove Specialty Logistics,910 S Hohokam Dr Suite 101,Tempe,AZ,85281,480-557-0431
Arizona 1st Recovery,716 E Mobile Ln,Phoenix,AZ,85040,602-918-9523
Goodall Products,1480 N Main St,Fredonia,AZ,86022,602-643-2716
Jobski's,48666 Vicksburg Rd,Salome,AZ,85348,928-859-3817
Robert Stephen Lindsay-rsl,11413 W Sage Crt,Avondale,AZ,85392,623-877-1737
K & D Enterprises,14827 W Lupine Lane,Surprise,AZ,85374,623-521-3813
D L Overton,5901 Townsend Rd,Flagstaff,AZ,86004,928-526-0042
Empaque Rio Colorado,444 N Cesar Chavez St,San Luis,AZ,85349,653-515-4226
Southwest Glassware,7521 N I 10 Eb Frontage Rd,Tucson,AZ,85743,520-292-0556
R & R Enterprises,964 Calle Tuberia,Casa Grande,AZ,85222,520-723-9879
Solorio Trucking,2337 Carol Ave,Yuma,AZ,85365,928-941-5081
W E Ed Philipp,2905 W Belmont Ave,Phoenix,AZ,85051,602-995-0536
Romtans,6514 W Sweetwater,Glendale,AZ,85304,602-773-2063
Open Range Land & Livestock,19338 W Brave,Buckeye,AZ,85326,623-386-8222
N O T LLC,8926 W Echo Ln,Peoria,AZ,85345,623-327-2000
Andale Trucking,3602 N 50th Ave,Phoenix,AZ,85031,602-284-9232
Duran & Sons,14711 S 4 Quarter E,Yuma,AZ,85365,928-488-0678
Eight Mile Farm,1496 Camino Sombreado,Bowie,AZ,85605,520-847-2380
Rbm Trucking,2101 N 202nd Ave,Buckeye,AZ,85396,602-358-4846
O'dening & Associates,532 S Burke St,Gilbert,AZ,85296,928-303-1281
El Rey Del Elote,4762 S 12th Ave,Tucson,AZ,85706,520-349-8967
Lake Powell Marine,550 Haul Road,Page,AZ,86040-4187,928-645-2592
Autos Y Transportes Luna,1483 D Street,San Luis,AZ,85349,928-248-6555
"Destrier, Inc.",35007 N 7th Ave,Phoenix,AZ,85086,623-363-3400
G & J Trucking,7626 W Carole Lane,Glendale,AZ,85303,623-266-7356
Parrish Trucking,91 Steffens St,Sierra Vista,AZ,85635,520-678-0041
Kodiak Fresh Produce,1033 E Maricopa Freeway,Phoenix,AZ,85034,602-253-2236
Mario A Borchardt,887 Flecha Corte,Rio Rico,AZ,85648,520-761-1866
Abel & Son's Trucking,22588 S Palm Valley,Phoenix,AZ,85142,602-455-8600
Manuelita Somoza Abril,1869 E 25 Street,Douglas,AZ,85607,520-227-6528
Alliance Field Service,654 East 400 South,Pima,AZ,85543,928-792-8538
Dodd Equipment,2301 W Buckeye Rd,Phoenix,AZ,85009,602-477-0110
Triple Rrr Trucking,1527 E Summit St,Tucson,AZ,85706-9247,520-406-6892
Fronteras Unidas,3038 W Van Buren Suite 16,Phoenix,AZ,85009,602-299-1800
Owned By Her Transport,10627 N 38th Ave,Phoenix,AZ,85029,602-647-0053
Truck Remarketing,10645 N Tatum Blvd,Phoenix,AZ,85028,480-948-7611
Traverse Transportation,4261 E Morenci Rd,San Tan Valley,AZ,85143,480-265-8964
Jao Trucking,1516 E 13th St,Tucson,AZ,85719,520-604-0665
Smokewagon Express Cargo,1100 N Priest Dr 1019,Chandler,AZ,85226,602-488-3121
J & A Trucking,3008 N 39th St Apt 6,Phoenix,AZ,85018,602-503-1920
Rodriguez Trucking,2306 N Calle Empalme,Nogales,AZ,85621,520-313-6692
Roca Transports,4512 N 50th Ave,Phoenix,AZ,85031,480-478-5898
Manor Transport,202 W Prince Rd,Tucson,AZ,85705,520-505-0828
Nani Trucking,3751 W Palmaire Ave,Phoenix,AZ,85051,702-572-9535
Schwingen Diesel Transport,4515 E Virginia St,Mesa,AZ,85215,480-226-2542
Cove Carriers & Logistics,1237 Calle Tubatana,Rio Rico,AZ,85648,951-529-4887
Mja Logistics,489 Calle Cipress,Rio Rico,AZ,85648,520-223-0178
Butter Trucking,4019 W Tonto St,Phoenix,AZ,85009,480-261-9945
Tarik Logistics,4531 N 111th Glen,Phoenix,AZ,85037,507-369-3013
Carrillo Trans,2214 N Santo Patron,Nogales,AZ,85621,520-980-1347
D H Rice Trucking,250 N Evani,Benson,AZ,85602,520-586-2544
Transportes Mixtos,1107 S 5th Ave #40,Yuma,AZ,85364,928-261-2803
Porfirio Chavez Trucking,2601 S 6th Ave,Phoenix,AZ,85003,602-472-1534
Lil Red Trucks,2355 E Lass Ave,Kingman,AZ,86409,928-716-9399
Jusalude Transportation,5205 West Thunder Bird Rd,Glendale,AZ,85306,602-938-4749
Roca Express,925 Paseo Escoba,Rio Rico,AZ,85648,520-213-9656
Thomason Transportation,2740 Osborn Dr,Lake Havasu City,AZ,86406,928-276-5551
Calvert Trucking,206 Clawson St,Bisbee,AZ,85603,520-234-7720
Az Produce & More,3515 E Bell Rd Apt 180,Phoenix,AZ,85032,480-305-4712
J & R Alvarado Trucking,1463 East D Street,San Luis,AZ,85349,928-336-6878
Munsan Logistics,879 N County 22nd St,San Luis,AZ,85349,928-257-5323
A & R Trucking,1232 Calle Pico Gordo,Rio Rico,AZ,85648,520-415-1059
Danny Fisher,2041 S 215th Dr,Buckeye,AZ,85324,602-829-0023
Fabian Trucking,7007 W Indian School Rd Apt 1111,Phoenix,AZ,85033,602-359-7232
R & B Express,8106 West Swansda,Arizona City,AZ,85123,701-400-2198
Classic Image,6805 W Abraham Ln,Glendale,AZ,85308,602-867-8972
Roadside Auto Transport,2338 N Windmill Way,Chino Valley,AZ,86323,858-353-0900
Macena's Heavy Transport,10580 W Bopp Rd,Tucson,AZ,85735,520-235-2376
Montano & Flores Transports,1100 N Washington Ave Apt 3,Douglas,AZ,85607,575-263-6649
Legacy Trucking,5054 E Mcdowell Rd,Phoenix,AZ,85008,480-427-9278
Blackout Transport,23825 West Corona Avenue,Buckeye,AZ,85326,602-910-7300
Blevins Transport,483 West Country Estates Avenue,Gilbert,AZ,85233,928-830-2163
Kairos Trucking Services,2322 W Hadley St,Phoenix,AZ,85009,480-298-2271
Perez Trucking,4606 W Rose Lane,Glendale,AZ,85301,602-550-7561
Strbac Transportation LLC,6822 N 24 Th Dr,Phoenix,AZ,85015,480-519-5396
Arizona's Reliable Movers,2412 W Fetlock Trail,Phoenix,AZ,85085,480-415-8832
Torik Can Ship,1110 E Estate Rd,San Tan Valley,AZ,85140,480-298-6962
Cds Transport,3151 N Montana Cir,Nogales,AZ,85621-3832,951-764-4579
Budget Bobcat & Dumptruck Co,3931 Hawkeye Plaza,Lake Havasu City,AZ,86406,928-716-8872
L&je Trucking,3402 S 107th Ave,Tolleson,AZ,85353,623-764-2297
Porter Brothers Transportation,19432 E Twin Acres Dr,Queen Creek,AZ,85142,480-586-1809
Patriot Transportation Equipment Co,4705 W Buckeye Rd Suite 1,Phoenix,AZ,85043,866-370-7832
Juan And Julio Trucking,2025 S 83rd Dr,Tolleson,AZ,85353,515-882-1467
R D Trucking,188 Acebo Ct,Rio Rico,AZ,85648,520-470-8516
Barr Transportation,685 W Carliavista Dr,Chandler,AZ,85225,602-309-7973
G And M Transportation,596 E Devon Dr,Gilbert,AZ,85296,480-738-6766
Ria Transport,5421 W Indian School Rd Apt 2006,Phoenix,AZ,85031,623-298-9206
H2h Trucking,4731 Jackina Ln,Showlow,AZ,85901,928-242-3023
Redeemed Trucking,900 Sandy Beach Dr,Bullhead City,AZ,86442,928-514-6471
N-time Trucking,6986 W Gardenia Ave,Glandale,AZ,85303,602-206-1456
Double Ff Hotshot Services,9418 W Cinnabar Ave,Peoria,AZ,85345,602-930-5435
Gns Delivery Services,276 W Calle Patio Lindo,Sahuarita,AZ,85629,619-727-0144
Boneyard Trucking LLC,2542 Colorado Ave,Kingman,AZ,86401,928-288-0630
Burgos Transport,235 Villa Street,San Luis,AZ,85349,928-488-7175
Jlk Transport,4337 N 53rd Ln Apt #138,Phoenix,AZ,85031,602-751-1587
Graeman LLC,15645 N 35th Ave Apt 259,Phoenix,AZ,85053,623-640-1686
Gens Transport,5513 W Orchid Ln,Glendale,AZ,85302,623-606-6718
Motor Carrier,1716 W Cortez St Unit 240,Phoenix,AZ,85029,573-239-8807
Pyctam,8750 E Mcdowell Rd Apt 29,Scottsdale,AZ,85257,718-286-9796
Majalca Transport,1225 Calle Avestruz Unit C,Rio Rico,AZ,85648,520-619-9813
Yaquis Transport,8216 W Forest Grove Ave,Phoenix,AZ,85043,602-317-9926
Bandit Trucking,9058 E Dennis St,Mesa,AZ,85207,480-654-3999
Southwest Auto Carrier,2030 W Baseline Rd Suite 182-135,Phoenix,AZ,85041,480-393-1979
Aker Trucking,17509 E Jackrabbit Rd,Mayer,AZ,86333,860-815-0728
Quality Flatbed Carriers,4084 Quarter Circle Way,Kingman,AZ,86401,928-530-2032
Votsam,7960 N Hayden Rd Aaa103,Scottsdale,AZ,85258,480-388-6946
Andrew Freeman,3152 S Benton Cir,Mesa,AZ,85212-1859,317-966-6007
Hanna Transportation,11430 W Austin Thomas Dr,Suprise,AZ,85374,N/A
Encinas Transport,3027 S Santa Barbara Cir,Mesa,AZ,85202,928-246-1069
Rivera Trucking,618 N West St Apt B,Nogales,AZ,85621,520-980-2828
Richards Transport,300 Metcalfe Rd,Kingman,AZ,86401,760-553-3120
Timeless Transports,3756 E Alamo St,San Tan Vly,AZ,85140,573-356-5351
Mcwilliam Express,16713 W Culver St,Goodyear,AZ,85338-6256,623-234-3519
M.i.g. Auto Transport,2880 N Longhorn Dr,Tucson,AZ,85749,520-647-1482
It Flatbed,639 S 54th Ave,Phoenix,AZ,85043,602-687-9006
H M Logistics,316 N West St,Nogales,AZ,85621,520-619-1809
Motorsport22,16410 W Alvarado Dr,Goodyear,AZ,85395,206-465-7453
D R H Logistics,5101 N 28th Dt Apt 1,Phoenix,AZ,85017,623-911-0621
The Roomstore,3011 E Broadway # 100,Phoenix,AZ,85040,602-300-6451
Joesph Fitch,251 Long Ave,Bullhead City,AZ,86429,702-298-5498
Wow Electronics,312 W 19th St,Yuma,AZ,85364,928-782-1400
Itc Manufacturing,110 S 41st Ave,Phoenix,AZ,85009,602-415-1400
Mejor Precio,833 G Avenue,Douglas,AZ,85607,520-805-1358
R & C Supply,3636 South 7th Street,Phoenix,AZ,85040,602-243-1738
Lake Havasu Marina,1100 Mcculloch Blvd N,Lake Havasu City,AZ,86403,928-855-2159
Castaway Trucking,2921 S 31st Dr,Yuma,AZ,85364,928-503-9547
Stageline Boarding And Transport,2150 N Rainbows End,Payson,AZ,85541,928-978-3328
S & D Logistics LLC,1817 N 51st St,Phoenix,AZ,85008,602-318-5109
Dld Auto Transportation Service,298 Butcher Hook Lane #15,Tonto Basin,AZ,85553,928-308-3224
Baker Logistics LLC,9690 E Blazing Star Circle,Prescott Valley,AZ,86315,720-425-3350
Jack Dougherty,2036 N Gilbert Rd #2 112,Mesa,AZ,85203,855-345-2712
Pella Windows & Doors Mountain West,120 E Corporate Place,Chandler,AZ,85225,801-523-4524
W W Williams,2602 South 19th Avenue,Phoenix,AZ,85009,614-228-5000
Jacobs,333 E Wetmore Rd Ste 600,Tucson,AZ,85705,520-620-1530
Leavitt Games,11551 West Waverly Drive,Casa Grande,AZ,85194,602-421-9953
Standardaero,1524 W 14th Street Suite 110,Tempe,AZ,85281-6911,480-377-3146
Mcbride Transportation,3635 E Oasis Cir,Mesa,AZ,85215,866-971-0959
David Fann Trucking,7081 E Stonaxe Dr,Kingman,AZ,86401,417-399-5785
Edelivery|edelivery Logistics,10632 N Scottsdale Rd Suite 121,Scottsdale,AZ,85254,480-300-1030
J's Trucking,16 W Bodega Dr,Nogales,AZ,85621,520-470-7268
Andreas Trucking,315 Camino Arenosa,Rio Rico,AZ,85648,520-313-6930
Ap Transport,6366 E Calle Cappela,Tucson,AZ,85710,520-979-2843
Bm & G Transport,13627 S Patton Rd,Yuma,AZ,85365,928-580-2222
Schlig Trucking,45405 W Portabello Rd,Maricopa,AZ,85139,714-253-6226
Celeste's Trucking,7901 N Cortaro Rd Apt 14203,Tucson,AZ,85743,520-975-1000
Fast Way,2760 E Main St Ste 102,Mesa,AZ,85213,480-322-3213
Cryptic Enterprises LLC,2334 S Sawtelle Ave,Tucson,AZ,85713,520-665-9670
Aa & Sons Trucking,1860 S 3rd Ave,Yuma,AZ,85364,928-388-9161
Fly Transport,607 W Angela Dr,Phoenix,AZ,85023,480-559-4372
Max Transport,5040 S Central Ave Ste 1,Phoenix,AZ,85041,602-831-4700
America Transport,6935 W Flower Street,Phoenix,AZ,85033,623-570-6106
Martys Transporting LLC,1537 W Charleston Ave,Phoenix,AZ,85023,602-644-6269
J G L Trucking,16408 W Mesquite Dr,Goodyear,AZ,85338,602-299-7869
Loal Transport,3734 E San Francisco St,San Luis,AZ,85349,928-488-0013
007 Transportation LLC,2868 N 151st Ave,Goodyear,AZ,85395,623-265-1717
1 Aj Transportation LLC,1846 E Innovation Park Dr,Oro Valley,AZ,85755,404-618-4373
1 C Transportation LLC,1897 S 235th Dr,Buckeye,AZ,85326,602-748-9306
1 City Towing LLC,2216 W Tonto Street,Phoenix,AZ,85009,602-516-3030
1 Guy 1 Girl 1 Target LLC,2739 N 144th Dr,Goodyear,AZ,85395,314-973-8911
1 In A Million Transport LLC,2550 W Union Hills Dr Ste 350,Phoenix,AZ,85027,954-849-1954
1 Source Movers LLC,1767 E Catalina St,Casa Grande,AZ,85122-5720,520-371-0615
1 Source Trucking LLC,10483 N Martinez Lake Rd,Yuma,AZ,85365,619-840-3835
1 Stop Transport LLC,2940 E Campo Bello Dr,Phoenix,AZ,85032,N/A
1 Tekneek Transportation LLC,25819 W Dunlap Rd,Buckeye,AZ,85326,623-332-1987
1 V P Trucking LLC,3850 W Camelback Rd #264,Phoenix,AZ,85019,602-332-8718
100 Fires Trucking LLC,3027 W Port Au Prince Ln,Phoenix,AZ,85053,602-489-1336
100 Fires Trucking LLC,3027 W Port Au Prince Ln,Phoenix,AZ,85053,602-489-1336
The East Valley Tribune,120 W 1st Ave,Mesa,AZ,85210,480-898-6325
108 Excavating LLC,809 W Riordan Rd Suite 100-336,Flagstaff,AZ,86001,928-699-2150
108 Stitches Trucking LLC,939 E 9th St,Douglas,AZ,85607,520-227-3292
10xs,3048 E Baseline Rd Ste 130,Mesa,AZ,85204,480-235-4550
1143 Transport LLC,4776 E Guadalupe Rd Apt 1004,Gilbert,AZ,85234,480-688-2463
11th Hour Trucking LLC,620 Lake Havasu Ave S,Lk Havasu Cty,AZ,86406,626-862-5957
123 Carriers LLC,3620 Kiowa Blvd S,Lake Havasu City,AZ,86404,928-421-3347
123 Links LLC,13267 W Flower St,Litchfield Pk,AZ,85340-5910,623-218-4161
123 Transports LLC,5832 W San Miguel Ave Ste 7,Glendale,AZ,85301,602-446-1379
1298 Transport LLC,4223 E Hoyos Street,San Luis,AZ,85349,928-318-1280
14 Transport Corp,3223 N Algodon Way Suite 2138,Phoenix,AZ,85037,786-774-9678
17's Trucking Co LLC,23868 N 81st Pl,Scottsdale,AZ,85255-3551,480-540-4282
178 Freight LLC,5960 W Buckeye Rd,Phoenix,AZ,85043,480-851-5206
18 Wheeler Logistics LLC,1068 W Paul Bond Dr Apt L204,Nogales,AZ,85621,520-841-2456
18 Wheeler Transport LLC,7290 S Comstock Rd,Tucson,AZ,85756-9718,520-223-6081
"1827 Logistics, Inc.",9999 E Jasmine Dr,Scottsdale,AZ,85260-2383,202-999-8094
1827 Transportation LLC,14613 E Desert Vista Trl,Scottsdale,AZ,85262-7826,910-977-3270
1912 Logistics LLC,13591 E Windswept Way,Vail,AZ,85641,520-205-1257
Mass Trucking,3701 W Palmaire Ave,Phoenix,AZ,85051,602-478-6666
1975 Onpoint Delivery LLC,2137 W Carson Rd,Phoenix,AZ,85041,602-367-2323
1kingg,17722 W Langer Lan,Surprise,AZ,85388,818-383-9373
1st Arizona Auto Shippers LLC,13007 W Soledad Street,El Mirage,AZ,85335,623-521-9132
Eagle Express,730 W Oriole Way,Chandler,AZ,85286,480-388-5605
Diamondback Systems,2700 E Executive Dr Suite 130,Tucson,AZ,85756,520-202-7650
1st Choice Freight LLC,3912 S 339th Ave,Tonopah,AZ,85354,623-734-2617
1st Choice Freight Services LLC,10105 W Oregon Ave,Glendale,AZ,85307,602-733-6636
1st Choice - Ccrs Logistics,2700 E Executive Drive Suite 130,Tucson,AZ,85756,520-670-1880
1st Choice Medical Transport LLC,11282 W Harrison St,Avondale,AZ,85323,480-232-7050
1st Choice Motor Transport LLC,18207 N 46th Dr,Glendale,AZ,85308,312-989-4355
Dba 1st Choice Freight,3912 S 339 Ave,Tonopah,AZ,85354,623-393-0671
1st Choice Trucking LLC,1649 S 59th Avenue #3,Phoenix,AZ,85043,602-442-9902
1st Integrity Movers And Storage Lp,10636 N 15th Lane,Phoenix,AZ,85029,602-651-4611
1st King Tro LLC,4501 N 82nd St,Scottsdale,AZ,85251,213-841-9594
1st Pick Trucking LLC,2611 E Nancy Ln,Phoenix,AZ,85042-4726,602-618-4225
1st Precision Grading LLC,12606 W Cherry Hills Dr,El Mirage,AZ,85335,623-876-8661
1st Round Transport LLC,10409 W Forest Grove Ave,Tolleson,AZ,85353,480-440-6867
1st Sight Transportation LLC,2039 E Cathy Ct,Gilbert,AZ,85296,602-824-2492
1st Source Movers LLC,3940 N Del Monte Dr,Toltec,AZ,85131,520-466-1149
1stop Delivery,2529 W Cactus Rd Apt 3373,Phoenix,AZ,85029,661-471-5050
2 Brother's Trucking LLC,961 S Coleman,Mesa,AZ,85210-8605,480-593-8457
2 C's Freight Broker LLC,31103 N 166th Ave,Surprise,AZ,85387,602-509-8924
2 Da Maxxx Auto Transport LLC,43489 W Maricopa Ave,Maricopa,AZ,85138,623-210-1040
2 Fast Guy's Transport LLC,7961 S Sentinal Stone Dr,Tucson,AZ,85756,877-541-8771
2gt,1769 E Cortez Dr,Casa Grande,AZ,85122,520-635-5711
2 Home Delivery LLC,6424 E Greenway Pkwy Ste 100,Scottsdale,AZ,85254-2045,602-418-2856
2 Jc Trucking&transport LLC,5471 State Rt 277,Snowflake,AZ,85937,602-737-7844
2 Jj's Logistics LLC,1034 E Penny Lane,San Tan Valley,AZ,85140,813-614-6117
2 Kings Trucking LLC,12319 W Medlock Dr,Litchfield Park,AZ,85340,559-290-1117
2 Latinas Transport LLC,907 N Lizanne Way,Tolleson,AZ,85353-1810,602-330-8689
2 Queens Transport LLC,402 E Lincoln St,Tucson,AZ,85714-1538,520-551-5429
2 Schillings,2015 N Hopi Ln,Chino Valley,AZ,86323,602-391-7550
2 Sons Trucking Services LLC,5415 W Tonto Rd,Glendale,AZ,85308,480-584-2013
2 State Transport LLC,6434 W Van Buren St Lot 51,Phoenix,AZ,85043,602-489-6564
"2-mile Energy, Inc.",20530 W Walton Dr,Buckeye,AZ,85396,602-885-6294
20 20 Hindsight Transportation LLC,1550 N 40th St #8,Mesa,AZ,85205,480-993-3122
20 Trucking LLC,5206 W Ocotillo Rd Apt C,Glendale,AZ,85301,480-280-0671
202 Trucking LLC,2910 S Greenfield Rd Apt 2116,Gilbert,AZ,85295,714-928-9495
21 St Century Trucking,1302 S 5th Avenue,Yuma,AZ,85364,928-782-4301
212 Industries,1435 North Eliseo C Felix Jr,Avondale,AZ,85323,623-810-3696
216 Logistics Group,14362 N Frank Lloyd Wright Blvd Ste 1000,Scottsdale,AZ,85260-8847,480-269-1563
219 Transport LLC,1300 S Watson Rd Ste 114,Buckeye,AZ,85326,623-473-6650
22nd Street Towing,5649 E 22nd Street,Tucson,AZ,85711,520-745-2117
24 7 Express,10602 Windsor Ave,Avondale,AZ,85392,480-395-1795
24 7 Express LLC,3901 N 84th Ln,Phoenix,AZ,85037,602-554-5289
"24 7 It Electronics Restoration, Inc.",535 W Iron Ave Suite 122,Mesa,AZ,85210,480-270-8002
24 7 Logistics,2208 W Lindner Ave Unit 1,Mesa,AZ,85202,480-516-8513
"24 Go Trucking, Inc.",2550 W Union Hills Dr Ste 350,Phoenix,AZ,85027,480-808-2285
24 Seven Equipment & Services,1131 East Kerry Lane,Phoenix,AZ,85024,602-388-2283
24-7 Go Green Pump LLC,6614 N 58th Ave,Glendale,AZ,85301,632-939-7861
24-7 Royalty Trucking LLC,2624 E Don Carlos Ave,Tempe,AZ,85281,480-253-1057
24 - 7 Transportation,3625 W Echo Ln,Phoenix,AZ,85051,602-358-9232
"247 Truck Brokerage, Inc.",57 Kipper St.,Rio Rico,AZ,85648,520-281-1559
247expressLLC,Pobox233,Cashion,AZ,85392,480-395-1795
2611 Transport LLC,628 W Orchid St,Somerton,AZ,85350,928-261-7234
2a Transportation LLC,16540 E Elgin St,Gilbert,AZ,85295,480-415-7069
2c Hotshots LLC,6002 W Warner St,Phoenix,AZ,85043,575-545-2435
2c Trucking LLC,12250 W Arivaca Rd,Amado,AZ,85645,520-398-9923
2g3b LLC,1409 E Dove Pl,Casa Grande,AZ,85122-5295,208-834-4444
2kbd Trucking LLC,114 E Saguaro St,Casa Grande,AZ,85122,651-888-1287
2mj Logistics LLC,42861 N Voyage Trl,Phoenix,AZ,85086-8039,646-228-2257
2nd Mile Circle Moving LLC,32615 N North Vallley Pkwy 110,Pheonix,AZ,85085,602-324-7179
2wo9ine Transit LLC,7525 W Mackenzie Dr,Phoenix,AZ,85033,623-565-2784
3 6 9 Transport LLC,1817 E Southern Ave Unit 227,Tempe,AZ,85282,480-608-4774
3 Bar 3 Trucking,8 Old Highway Ln,Sonoita,AZ,85637,520-730-7102
3 Bros Trucking LLC,3915 E Ortega St # 16468,San Luis,AZ,85336,760-336-7555
3 Brothers Trucking LLC,16385 W Mckinley Street,Goodyear,AZ,85338,623-925-8844
3 C Ranch,2680 Iron Springs Rd,Skull Valley,AZ,86338,928-442-3478
Arizona Sunshine Tours,2097 Carr Canyon Road,Hereford,AZ,85615,520-803-6713
3 Colts Trucking LLC,2227 E Contention Mine Rd ,Phoenix,AZ,85022-2282,602-515-6844
3 Ds Express LLC,1807 W Fairmount Ave,Phoenix,AZ,85015,602-705-9207
Arizona Family Trucking,10806 W Bronco Trl,Peoria,AZ,85383-5777,248-224-9976
Stevan's Consignment,15770 N Greenway Hayden Loop Ste 102 ,Scottsdale,AZ,85260-1656,480-607-0143
3 H Transportation,4437 N 102nd Way,Phoenix,AZ,85037,623-236-5954
3 Hermanos Trucking LLC,4335 W Carson Rd,Laveen,AZ,85339,720-366-7643
3 Hooligans Trucking LLC,4826 Judy Circle,Prescott Valley,AZ,86314,928-237-6207
3 M's Trucking LLC,4444 E Benson Hwy Unit 139,Tucson,AZ,85706,520-367-7931
3 Ms Transport LLC,10809 W Jefferson St,Avondale,AZ,85323,323-747-2946
"3 Sons Logistics, Inc.",9533 W Jj Ranch Rd,Peoria,AZ,85383,602-622-6554
3-23 Transportation LLC,19552 N Crestview Ln,Maricopa,AZ,85138,480-694-8656
300 Transportation LLC,1877 S 157th Dr,Goodyear,AZ,85338,602-396-8328
303 Transport LLC,5405 S Royal Richmond Dr,Tucson,AZ,85706,520-258-8256
A&d Freight Systems,1628 E Aspen Ave,Buckeye,AZ,85326,623-255-8365
310 Dust Control LLC,38310 North 3rd Ave,Phoenix,AZ,85086,602-228-8753
3500 Transport Corp,2900 E Broadway Blvd Ste 100,Tucson,AZ,85716,689-272-7925
360 Trucking & Transport LLC,34 Wood Ln,Concho,AZ,85258,480-228-0416
360 Washout Services,535 N 51st Avenue,Phoenix,AZ,85043,480-464-4424
368 Industry LLC,3464 E Rosa Ln,Gilbert,AZ,85297-3003,480-227-1777
369 Transportation LLC,5050 E Whispering Sage Rd,Tucson,AZ,85756,520-443-1463
3a Trucking LLC,4101 E Valentine Pl,Tucson,AZ,85711,520-808-8178
"3ag Logistics, Inc.",3101 N Central Ave Ste 183,Phoenix,AZ,85012,602-638-3312
3cr Management LLC,643 E Campbell Ave,Gilbert,AZ,85234,480-252-2241
3d Distribution LLC,4200 E Broadway Rd,Phoenix,AZ,85040,602-453-9130
3d Erection,3816 E Grove Ave ,Mesa,AZ,85206-3260,480-286-0492
Trucking Services Tree Removal Services,1843 Despain Street,Heber,AZ,85928,928-535-4355
3g Transport LLC,1649 W Harding Ave,Coolidge,AZ,85128-9251,480-710-3402
3k Trucking LLC,1023 S 219th Dr,Buckeye,AZ,85326,623-396-9841
3m&d Trucking,7711 W Betty Elyse,Peoria,AZ,85382,623-773-9024
"3p Solutions, Inc.",1850 E Southern Ave #2,Tempe,AZ,85282,602-499-0687
3pl Management LLC,7800 N Invergordon Place,Paradise Valley,AZ,85253,888-501-1004
3px Logistics LLC,1711 E Yale St,Phoenix,AZ,85006,602-670-2802
3rd Generation Transportation LLC,4490 S Cobblestone St,Gilbert,AZ,85297,602-451-9310
3rd Generational Trucking LLC,17754 W Bloomfield Road,Surprise,AZ,85388,602-920-7083
3rd World Transportation LLC,35340 N Murray Grey Dr,San Tan Vly,AZ,85143,317-413-4895
"3t Imports, Inc.",22788 W Cantilever St,Buckeye,AZ,85326,561-504-7178
3thahardwaytransport LLC,1755 North Pebblecreek Parkway #1026,Goodyear,AZ,85395,602-919-3200
3w Trucking,11708 N Musket Rd,Marana,AZ,85653,520-429-3342
4 A's Delivery Service LLC,3019 N 75th Dr,Phoenix,AZ,85033,602-030-3030
"4 Aces Transportation, Inc.",11486 W Calle Con Queso,Casa Grande,AZ,85222,520-423-0658
4 Boys Trucking LLC,3725 W Lamar Rd,Phoenix,AZ,85019,480-300-9465
4 D Co 0p LLC,5741 North 32nd Drive,Phoenix,AZ,85017,602-973-9549
4 D's Transport LLC,19437 W Madison St,Buckeye,AZ,85326,N/A
4 D's Trucking,11361 N Moore Rd,Elfrida,AZ,85610,520-508-2826
4 E Transport LLC,2055 S Westover Ave,Tucson,AZ,85713-3059,520-312-6002
4 E Transportation LLC,9031 N Palm Brook Dr,Tucson,AZ,85743-8934,520-403-6329
4 G Logistics LLC,78688 E Mesquite Rd,Winkelman,AZ,85192,520-405-3718
4 Gen Logistics LLC,23860 W Hwy 85,Buckeye,AZ,85326,623-386-4511
4 Gen Logistics LLC,23860 W Us Highway 85,Buckeye,AZ,85326,623-386-4511
4 K Truck Stop,I-10 & Exit 378,San Simon,AZ,85632,520-845-2251
4 Lions Transport LLC,15037 N 25th Pl,Phoenix,AZ,85032,602-718-8227
4 Love Transport LLC,8140 W Salter Dr,Peoria,AZ,85382,423-641-0833
