Company Name,Street Address,Address Locality,Address Region,Postal Code,Telephone
Jonathan Villane Deliverys LLC,3300 Timberlane Dr,Pensacola,FL,32503,850-912-8787
Express Delivery Systems,24124 Production Circle #8,Bonita Springs,FL,34135,239-390-0900
Emerald Enterprises,1604 Harvard Woods Dr Apt 2407,Brandon,FL,33511,813-323-6431
Ez Transport,2912 Arcata Ln,Orlando,FL,32817,321-202-9025
Reliable Logisitcs Transport,4541 Nw 70th Avenue,Lauderhill,FL,33319,754-244-0906
First Usa,1835 E Hallandale Blvd #520,Hallandale Beach,FL,33009,305-444-6700
Good Fellas Auto Transport,188 Cloverdale Ct,Ormond Beach,FL,32174,386-492-5922
Happy Transport,10013 Alafia Street,Gibsonton,FL,33534,813-677-3085
Carolina Company,6539 Townsend Rd Lot 178,Jacksonville,FL,32244,904-673-3013
Ms Transport,8494 Dynasty Drive,Boca Raton,FL,33443,954-295-6800
Ylc Transportation,110 Fleming Ave,Satsuma,FL,32189,386-649-5483
Russells Auto Service,3123 Henry Gibson Rd,Perry,FL,32348,850-584-7307
K & H Trucking,6450 Mackenzie Street,Orlando,FL,32807,407-382-0421
Sunshine Express,10510 Deerberry Dr,Land O Lakes,FL,34638,813-996-1724
Mlc,5900 Nw 99th Avenue Unit #7,Doral,FL,33178,305-505-6833
Polar Bear Express,18682 Hwy 301 South,Wimauma,FL,33598,813-634-5540
J Hird Transportation LLC,533 Alafaya Woods Blvd Apt C,Oviedo,FL,32765,407-616-7398
Emerald Waste Services,3131 West Navy Blvd,Pensacola,FL,32505,850-428-0907
24 Trucking,18 N E 20th St,Gainesville,FL,32641,904-652-9196
Heavy Haulers,8339 Nw 74th St,Miami,FL,33166,786-342-7383
Keep On Trucking,24 Longfellow Dr,Palm Coast,FL,32137,386-860-7702
Express Transport,2614 Tamiami Trl N,Naples,FL,34103,239-234-6860
Donald French Hauling & Transport,1000 6th St,Vero Beach,FL,34982,772-542-2124
I Viana Trucking,1141 Homer Ave S,Lehigh Acres,FL,33971,305-903-2437
Jp Trucking,647 Acapulca Way,Altamonte Springs,FL,32714,407-760-2168
Davis Logistics,107 Seagrass Way,Panama City Beach,FL,32407,850-890-4014
Protour Transport,950 Oak Ridge Rd,St Augustine,FL,32086,816-809-6029
Sawgrass Auto Transport,999 Nw 53 Court,Fort Lauderdale,FL,33309,954-530-7685
Jaguar Of Tampa,320 East Fletcher Ave,Tampa,FL,33612,813-371-8200
Bldn Transport,534 Harbor Winds Ct,Winter Springs,FL,32708,407-416-1645
Boykin Trucking,126 Pearl Street,Auburndale,FL,33823,863-967-2515
Ais Transportation,8417 Sw 208th St,Miami,FL,33189,786-545-6680
Rtm Trucking,1966 Laura Lane,West Palm Beach,FL,33406,561-966-8363
Foulks Trucking,2933 Church Ave,Sarasota,FL,34234,941-928-8111
Ab Trucking,160 Ne 171 St,North Miami Beach,FL,33162,509-582-9438
Mikes Marine Transport,1090 29th Street Sw,Naples,FL,34117,239-352-1384
B & D Transport,792 Little Pine Drive,South Daytona,FL,32119,386-760-4641
"Eds, Inc.",1987 Joshua Drive,Cantonment,FL,32533,850-494-9147
5k Horse Transport,20310 Ne 102 Place,Earleton,FL,32631,352-468-2321
3w Trucking,1056 Weeks Lane,Westville,FL,32464,850-956-1214
Cowboy Trucking,75 State St,Center Hill,FL,33514,352-457-1940
Albert's Auto Transport,23308 Abercorn Lane,Land O Lakes,FL,34639,813-957-2526
Reliable Transport,3682 N Wickham Rd Ste B1 413,Melbourne,FL,32935,321-890-9132
High End Transport Logistics,450 Ne 5th Street Ste 2,Fort Lauderdale,FL,33301,954-817-2604
Sims Trucking,13278 Miccosukee Road,Tallahassee,FL,32309,850-556-0163
Atlantic-pacific Enterprise Service,131 N E 15th Terrace,Stuart,FL,34994,631-428-6782
Boatright Trucking,17525 County Road 252,Mc Alpin,FL,32062,386-776-2634
Absolute Trucking,12348 Soaring Flight Drive Bx14,Jacksonville,FL,32225,904-524-6036
Larry Krauser Home Maintenance Services,2755 W Atlantic Ave # 103 C,Delray Beach,FL,33445,561-455-2414
Jvs Transport,530 Plaza Seville Ct 54,Treasure Island,FL,33706,727-360-6272
Showtech Transportation,3541 Raymur Villa Drive,Jacksonville,FL,32277,904-237-1799
Tauro Logistics LLC,3913 10th Street West,Lehigh Acres,FL,33971,239-247-6557
Fresh Wave Transportation,11371 Nw 113th Terr,Chiefland,FL,32626,352-490-9445
Pedro Guzman Transport,16701 W Trafalgar Dr,Loxahatchee,FL,33470,561-422-1621
Js Transport,6947 College Court,Davie,FL,33317,954-383-0817
Ricard's Trucking,77 Bay Heights Dr,Miami,FL,33133,909-561-9962
Rich Car Hauling,1558 Se Cownie St,Port St Lucie,FL,34983,772-873-5766
Next Level Auto Transport,10840 153rd Court North,Jupiter,FL,33478,561-747-9478
Ept Trucking,6216 Sw 147 Ct,Miami,FL,33193,305-388-7984
Mcs-150,1211 E Jackson Ave,Chipley,FL,32428,251-661-8800
Scotts Auto Transportation LLC,24263 East Colonial Drive,Christmas,FL,32709,321-288-2785
Keith Etling,11180 Blasius Rd,Jacksonville,FL,32226,848-333-7363
David Richards Trucking,15732 N Hwy 329,Reddick,FL,32686,352-591-0701
Key Transport,960 Mariner Drive,Key Biscayne,FL,33149,305-361-1273
Dt Transport,4425 Market Street,Marianna,FL,32446,850-625-6416
The Movers Group,300 Oakwood Lane Ste 8,Hollywood,FL,33020,866-573-9031
Coopers Express,27 Ponderosa Lane,Midway,FL,32343,850-321-3252
State Wide Relocation,18245 Ne 4 Ct,North Miami Beach,FL,33162,877-497-5505
Stevens Trucking,3583 Romea Cir,New Smyrna Beach,FL,32168,386-566-7821
M & S Transport,15205 Mottled Owl Rd,Weeki Wachee,FL,34614,352-596-4684
Y & A Transport,8400 S W 37th Street,Miami,FL,33155,786-624-8628
Hhe Express,2261 Luana Dr E,Jacksonville,FL,32246,904-645-9817
D & T Trucking,43 Tangelo Drive,Haines City,FL,33844,863-438-0216
Bbb Transport,12332 Second Street,Fort Myers,FL,33905,239-239-1488
Double P Trucking,20231 State Road 31,Fort Myers,FL,33917,239-543-6068
"C & M Express, Inc.",12740 Black Angus Dr,Jacksonville,FL,32226,904-371-0645
A & F Trucking,420 E Trinidad Ave,Clewiston,FL,33440,863-234-1499
Stlines,2001 Biscayne Blvd Apt 3311,Miami,FL,33137,786-227-3013
Hart's Trucking,11431 Old Dade City Rd,Kathleen,FL,33849,863-860-4482
United Royal Van Lines,1835 E Hallandale Beach Bld # 238,Hallandale Beach,FL,33009,720-260-1581
Willie Mccoy Trucking,542 Southn West Third Street,Belle Glade,FL,33430,561-992-5051
J & J Trucking,9830 Atlantic Dr,Miramar,FL,33025,954-443-0885
Matthew Collins Transfer,157 Morningstar Drive,Punta Gorda,FL,33950,941-626-2698
Shadow Express Trucking,11152 Salome Street,Brooksville,FL,34614,352-397-4844
Snipes Trucking,914 25th Street Court East,Bradenton,FL,34208,941-565-5430
First Choice Moving And Storage-allstate Movers- Florida State Movers,1419 East 4th Ave,Tampa,FL,33605,813-863-6111
Lloyd Grace's Tire & Auto Center,3610 Deeson Road,Lakeland,FL,33810,863-858-5120
We M Pact Trucking,2406 Terminal Drive South,Saint Petersburg,FL,33712,727-415-4897
Carbonic Group,2914 Us Hwy 301 N,Tampa,FL,33619,813-627-0042
Ef Transport,3103 West Cordelia St,Tampa,FL,33607,813-789-7858
South Point Express,1272 Sw 139 Pl,Miami,FL,33184,305-910-8998
Coastal Transport Service,2740 Sw Martin Downs Blvd 290,Palm City,FL,34990,772-600-1155
R G Walker Transportation,473 E Sr 100,San Matoe,FL,32187,386-538-2711
J&d Transport,2900 N 24 Ave Apt 7308,Hollywood,FL,33020,305-522-9180
B & K Railroad Signal Services,5138 N Star Ave,Panama City,FL,32404,888-228-2524
"Rac Express, Inc.",4016 Longworth Loop ,Kissimmee,FL,34744,407-414-4615
J M & S Transports,3417 Ormond Ave,Panama City,FL,32405,850-387-5986
Stan Transport,2396 Malibu Lane,North Port,FL,34286,941-661-4630
Cla Transportation Corp,10773 Nw 58th St Ste # 397,Doral,FL,33178,954-707-0927
Shumaker Logistics,125 S State Road 7 Ste 104239,Wellington,FL,33414,N/A
Amr Trucking,5183 W Spencerfield Road,Pace,FL,32571,850-686-6653
Rp Express,8408 E Colonial Drive,Orlando,FL,32817,407-802-2432
Smith Trucking,5201 Casilla Way South,Saint Petersburg,FL,33712,727-866-1503
Pieri Trucking,3161 Owenby Lane,Jacksonville,FL,32218,904-697-1816
J & G Global Transport,1825 West 79th Street,Hialeah,FL,33014,281-602-9935
Esam Auto Transport,2119 Pierce Arrow Dr,Jacksonville,FL,32246,904-713-3216
Dba Space Coast Harley-davidson,1440 Sportsman Lane Ne,Palm Bay,FL,32905,321-259-1311
Am Carrier Transport LLC,7156 Colony Club Dr # 101,Lake Worth,FL,33463,561-234-8848
Terry Mauldin Trucking,1420 Sw Mauldin Ave,Lake City,FL,32024,352-222-9520
J & W Truckline,1633 Nw 14th Street,Ocala,FL,34475,352-622-9652
Andi's Trucking,4300 Renaissance Farms Rd,Edgewater,FL,32141,386-345-3300
R A D Transport,1000 Errol Pkwy,Apopka,FL,32712,321-527-9562
Gateway Transport,303 Northeast 5th Ave,Lake Butlet,FL,32064,386-496-4616
Freebyrd Trucking,293 Gibbons Ave,Holly Hill,FL,32117,813-416-7734
James Moss Transportaion LLC,46 South Normandale Ave,Orlando,FL,32835,407-702-5502
Central Florida Movers,421 Bison Circle,Apopka,FL,32712,407-814-8035
T & T Association,3990 Coral Tree Circle,Coconut Creek,FL,33073,954-366-5275
Busy Bee Express,170 Sw Sapling Glenn,Lake City,FL,32024,386-719-5662
Vc Express,3108 Santa Barabara Blvd Suite 105-309,Cape Coral,FL,33914,305-964-6384
Lonestar Moving,2035 Nw 8th Ave Suite 500,Ocala,FL,34475,352-533-2136
T Q T,6417 Yorkshire Rd,Tampa,FL,33634,813-675-9138
W A Pippin Farms,3536 North Nusery Road,Zolfo Springs,FL,33890,863-328-0022
O Miret Trucking,944 Nw 87 Th Drive,Gainesville,FL,32606,352-225-6734
Weaver Transport,674 Tomoka Farms Rd,New Smyrna Beach,FL,32168,386-937-4380
Intocable Trucking,10323 Zackary Cr Apt 210,Riverview,FL,33578,813-451-5379
Donaldson Trucking,2570 The Oaks Blvd,Kissimmee,FL,34746,407-406-8528
Carnley Trucking,2024 N Roberts Cir,Pensacola,FL,32534,850-937-2407
L S D Logistics,5835 N W 13th St,Sunrise,FL,33313,954-584-9096
G&j Transport,4769 N Australian Ave # 106,West Palm Beach,FL,33407,561-337-8086
J M Bruner Transport,126 Brunner Lane,Chattahoochee,FL,32324,850-856-5141
Randall Gilbert,750 Morris Taylor Rd,Felda,FL,33935,239-229-0416
Grumpy Grandpa,2561 Ne 10 Court,Pompano Beach,FL,33062,954-933-7944
Ricardo Clarke Trucking,1145 Arizona Ave,Fort Lauderdale,FL,33312,305-652-4907
I & P Transport Service,12804 Sw 48 Terra,Miami,FL,33175,786-443-5360
G & H Trucking,5460 Dover Ave,Pensacola,FL,32526,850-512-4836
Heavyquip,9721 Us Hwy 98,Dade City,FL,33525,352-567-2727
Jr Transportation,1721 Anniston Rd #1521,Jacksonville,FL,32246,904-316-6448
Aij Express Trucking,4046 Glisson Dr,Lakeland,FL,33810,863-602-7199
"Ziglars Auto Sales, Inc.",1497 S Ferdon Blvd,Crestview,FL,32536,850-682-7800
G &s Trucking,310 Nw 120th Loop,Branford,FL,32008,386-935-2476
Five Stars Transportation,702 Thorpe Rd Lot #5,Orlando,FL,32824,508-468-9818
Southern Transfer,4513 N Florida Ave,Tampa,FL,33603,813-394-0914
Villages Transportation,1150 Paige Place,The Villages,FL,32159,352-259-9398
Cordero Transport Service,29295 Sw 187 Ct,Homestead,FL,33030,305-972-7472
Pdlc Trucking,1978 Adelia Blvd,Deltona,FL,32725,386-789-2127
"Lcs Of Orlando, Inc.",626 Little Wekiva Rd,Altamonte Springs,FL,32714,407-754-7947
"Patrick B Milow Trucking, Inc.",2340 Springlake Rd,Fruitland Park,FL,34731,352-315-9205
Lemay Penate,10068 Nw 127 St,Hialeah Gardens,FL,33018,305-525-1220
Hines Trucking,7953 Nw 5th Court,Miami,FL,33150,N/A
Farenhiet Transportation,2575 Riverside Dr,Coral Springs,FL,33065,410-603-4455
Tjs Freight Lines,15 Paradise Plz # 241,Sarasota,FL,34239,941-706-6819
Gutierrez Trucking,4512 Mason Dixon Ave,Bowling Green,FL,33834,910-330-7732
Mss Transport,2440 Tebassa Rd,Jacksonville,FL,32216,904-755-5196
Michael Kelly,655 Se Capon Terrace,Port St Lucie,FL,34983,772-708-1016
Tsc Moving,5805 Nw 37th St,Gainesville,FL,32653,888-219-6054
95 South Express,525 Pomelo Ave,Tavares,FL,32778,352-343-4088
Rayos Trucking,191 S Bay St,Fellsmere,FL,32948,772-413-8393
Phil Mc's Trucking,5430 Normandy Acres Dr,Jacksonville,FL,32234,904-289-4440
Jh Trucking,Po Box 770712,Ocala,FL,334477,352-445-9801
Jdr Delivery Services Corporation,871 Hialeah Drive,Hialeah,FL,33010,305-883-1304
E A Logistics,1444 Sw 47 Ave,Deerfield Beach,FL,33442,954-482-0697
Mailor Trucking,13556 Sw 59th Lane,Miami,FL,33183,818-309-0470
Ez Trucking,18101 Leafwood Circle,Lutz,FL,33558,813-393-9042
Aaa Transport Service,4149 Baden Drive,Holiday,FL,34691,727-938-6682
Aaa Vehicle Transport,2445 Karl Drive,Port Orange,FL,32128,386-756-2874
Beckwith Logistics,6568 Waterford Circle,Sarasota,FL,34238,941-923-4122
Scotts Transport,7 Slatewood Ct,Palm Coast,FL,32164,386-931-4452
J & N Auto And Boat Transport,936 Milano Circle Apt 107,Brandon,FL,33511,813-662-4738
Oliveras Transport,616 Biarrtz Ct,Orlando,FL,32809,407-558-7293
J & J Transportation,3722 Landings Way 101,Tampa,FL,33624,813-310-2473
Freestyle Transport,1137 Ring St,North Port,FL,34286,517-545-3626
B & B Trucking,2702 Bethune Ave,Mimis,FL,32754,321-591-8709
Ibs Moving,7230 Nw 56 Street,Miami,FL,33166,305-884-3225
2009,1620 Nw 35 St,Ocala,FL,34475,352-207-7164
Orc Transportation,287 Woodland Road,Palm Springs,FL,33461,561-201-1585
J Sturla Trucking,1117 Chesterton Avenue,Orlando,FL,32809,407-240-0054
Chad Harper's Transport Services,1760 Sw Leslie Glen,Lake City,FL,32025,386-623-3340
Chris Massey,1825 Sw Bradway Lane,Port St Lucie,FL,34953,772-878-7313
Hill Transportation,11201 Sw 55 St Box 78,Miramar,FL,33025,954-816-3578
Oj's Transport Service,2401 Sw Humber Ct,Port St Lucie,FL,34953,772-240-3640
Fcp Transport,1504 E Humphrey St Apt D,Tampa,FL,33604,813-918-8558
D's Transportation,2917 Century Oaks Circle,Malabar,FL,32950,321-698-0952
Laroyz Trucking,542 West 26th St,Jacksonville,FL,32206,904-338-4269
J A R Transportation,9026 Chantilly Ln,Port Richey,FL,34668,727-494-1598
Mjm Auto Transport,2910 N Us 1,Fort Pierce,FL,34946,772-485-5505
Green Light Transportation,7160 Nw 179th St Apt 203,Hialeah,FL,33015,N/A
R Truck N,4738 31 Avenue N,Saint Petersburg,FL,33713,443-717-0005
We Express,625 Gray St,Saint Petersburg,FL,33707,850-942-7323
Lees Trucking,5110 Woodscreek Rd,Perry,FL,32347,850-584-5162
Precision Trucking & Transportation,8821 Andora Dr,Miramar,FL,33025,954-404-7622
Rrmdt,2816 Jebidiah Ct,St Cloud,FL,34772,850-727-4089
Green Trucking,190 N W 10th Ave,South Bay,FL,33493,561-993-8163
"Dmd Logistics, Inc.",7613 Savannah Lane,Tampa,FL,33637,813-983-0624
Alligator Lake Transport,105 Rhonda Ave,Interlachen,FL,32148,386-385-3040
A & E Transport,336 Mae Court,Palm Harbor,FL,34683,N/A
Express R Us,152 Ne 167st Suite 300,North Miami Beach,FL,33162,305-733-6700
Ellenton Transport,4216 29th St East,Palmetto,FL,34221,941-723-2673
Spencer Transport,2901 Sw Ortega St,Port St Lucie,FL,34953,772-905-8699
Martex Services,1417 Avery Road Suite 200,Amelia Island,FL,32034,904-261-5364
R & I Trucking LLC,1600 W 32 Street,Riviera Beach,FL,33404,561-844-0644
Enclosed Vehicle Transport,10 Hickory Loop Way,Ocala,FL,34472,352-875-7182
Mega World Trucking,123 Nw 13th Street 214-10,Boca Raton,FL,33432,888-841-1998
Barnett Transport,9343 226th Street,Obrien,FL,32071,386-984-9867
S&w Trucking,658 Spruce Road,Graceville,FL,32440,850-263-3105
Taft Vineland Truck Services,998 Taft Vineland Road,Orlando,FL,32824,407-859-9220
Khoury Trucking,94 Sirius Lane,Key West,FL,33040,941-544-1484
R & L Transport,176 South West Cavalry Place,Lake City,FL,32025,386-755-0139
Martinez Transport,7271 Mayapple Rd,Jacksonville,FL,32211,904-226-1484
Garza & Sons Trucking,181 Woodstork Way,Frostproof,FL,33843,863-635-2897
Manja101 Express,5337 Cedar Lake Road #1114,Boynton Beach,FL,33437,281-515-7259
Wgt Transport,1683 Canopy Oaks Drive,Orange Park,FL,32068,706-495-2012
Tim's Transport,3350 Susetta Ln,Lakeland,FL,33801,863-838-5788
Hnb Trucking Express,189 Nw Magnolia Lakes Blvd,Port St Lucie,FL,34986,772-408-0048
Fun Trucking,6509 W Park Drive,Homosassa,FL,34446,352-476-6742
2 Potters Transportation,2956 Nw 33rd Lane,Lauderdale Lakes,FL,33311,954-562-0059
White Wolf's Truckinig,35422 Cr 439,Eustis,FL,32736,352-459-5917
"Duda Trucking, Inc.",14797 Bulow Creek Dr,Jacksonville,FL,32258,904-260-8237
Young's Trucking,7620 Snell Road,Bartow,FL,33830,863-537-2558
First Class Limousine & Transportation,8240 Rose Groves Rd,Orlando,FL,32818,904-328-1800
Donald Nerone Trucking,131 Webb Glen,Lake City,FL,32024,386-266-0916
Rp Transport,800 Arrow St,Panama City,FL,32404,850-873-6048
Nighthawk Trucking Company,9804 North 12th Street #a,Tampa,FL,33612,813-369-0826
Southeast Transportation,8927 Hypoluxo Road Suite 126,Lake Worth,FL,33467,561-963-2566
Ever Ready Transportation,2457 Sw Washington St,Port St Lucie,FL,34953,954-319-0215
Hauling It,89 Otter Slide Rd,Eastpoint,FL,32328,850-370-6285
Mrba Trucking,1229 10th Ave So,Saint Petersburg,FL,33705,727-823-5059
Star Trucking,2242 Nettlebrook St S,Jacksonville,FL,32208,904-757-7450
Cdt Marine Transport,124 East Shore Drive,Key Largo,FL,33037,305-394-1723
Jega Transport,1636 Nw 17th Avenue Apt 4,Pompano Beach,FL,33069,509-956-6825
D&f Transportation,390 Apache Trail,Orm0nd Beach,FL,32174,386-547-0929
Rll Trucking,15858 Nw 54th Street,Okeechobee,FL,34972,863-447-5247
On The Road Movers,204 East Emma St,Tampa,FL,33603,813-765-3309
Jean Pick-up Delivery,6391 Sw 34th,Miramar,FL,33023,786-286-9783
Goverline,7255 Salisbury Road Suite 5,Jacksonville,FL,32256,904-405-1200
Jm Trucking,1035 E Gay St,Bartow,FL,33830,863-512-7122
Henry's Trucking Co,7207 Five Point Cir Apt 102,Tampa,FL,33634,813-966-2672
La Shekinah Transportation,18 Nw 122 Ave,Oxford,FL,34484,352-748-6591
T H Trucking,1983 West 17th Street,Jacksonville,FL,32209,904-408-9438
"Chosen Vessel Service, Inc.",4139 Nw 19th Street,Lauderhill,FL,33313,954-274-0896
Sc Transport,1487 E Main St,Pahokee,FL,33476,561-261-4004
Mini Maxi Transportation,1734 Sw 10 St,Miami,FL,33135,305-537-8764
Mrk Logistics,1655 Sw Carillo Ave,Port St Lucie,FL,34953,772-237-2142
D L Dallas Transportation,2292 Lancaster Dr,Clearwater,FL,33764,562-237-2806
Ker-transportation,9003 Arndale Circle,Tampa,FL,33615,813-394-2723
Serguei Moredo Diaz Trucking,114 Nw 13th Terrace,Cape Coral,FL,33993,238-738-2356
D&f Trucking,895 F Road,Labelle,FL,33935,863-675-2393
Bernards Movers,313 W Ansin Blvd,Hallandale Beach,FL,33009,954-454-8838
Rutner Transport,7750 Sw 63rd Ave Rd,Ocala,FL,34476,352-873-2219
Day Logistics,5992 63rd Ave N,Pinellas Park,FL,33781,727-735-7685
Eddy's Transport,7363 West Point Dr,Westley Chapel,FL,33544,813-453-6757
Carrier,5509 William Grant Way #303,Tampa,FL,33610,813-620-4703
E And M Transport,536 Apaloosa Rd,Branford,FL,32008,386-935-0562
Auto 25 A,6900 Nw Gainesville Rd,Ocala,FL,34475,352-572-1255
Ty's Delivery Services Corporation,3500 16th St W,Lehigh Acres,FL,33971,239-265-2154
Compulsion Trucking,3060 Nw 43 Ter,Lauderdale Lakes,FL,33313,954-479-6284
U Ship It,237 St Petersburg Dr Apt A,Oldsmar,FL,34677,813-846-2234
Lh Trucking,6011 W Burke St,Tampa,FL,33634,813-313-8753
Roberts Entertainment Transportation,1602 24th St Se,Ruskin,FL,33570,813-470-6435
G4 Excavating LLC,2363 Barberree Dr,Crestview,FL,32536,850-398-6444
World Wide Moving & Storage,1434 Se 19th Terrace,Cape Coral,FL,33990,239-574-8388
Tambolina,11976 Iron Creek Road,Jacksonville,FL,32218,904-766-5900
Huberts Delivery Service,21853 43rd Dr,Lake City,FL,32024,386-935-3377
Rkg Trucking,1294 Wrights Creek Road,Bonifay,FL,32425,850-263-4874
Mdn Transport,102 N Merrin St,Plant City,FL,33563,N/A
The Delivery Source,3653 Regent Blvd,Jacksonville,FL,32224,904-645-0976
Henro Transportation,6420 N 48th St,Tampa,FL,33610,813-630-9230
Seminole Hay Company,4015 Paw Paw Trail,Lake Wales,FL,33898,863-696-4102
Lawrence's Trucking,8001 Klondike Road,Pensacola,FL,32526,850-712-9543
Usa Auto Carrier,10509 Willington Blvd,Englewood,FL,34224,732-754-7738
Fedex Custom Critical,24750 Ne 177 Terr,Fort Mccoy,FL,32134,352-546-3903
Zjs Transport,578 Nw Savannah Circle,Lake City,FL,32055,386-754-7197
Kilamanjaro Enterprises LLC,12854 Hunters Vista Blvd,Orlando,FL,32837,407-812-9658
"An Trucking, Inc.",2316 Grand Central Pkwy #12,Orlando,FL,32839,407-879-2899
Tqt Transport,6410 N Hubert Ave,Tampa,FL,33614,813-425-4696
Bulldog Auto Transport,100 Mesa Park Blvd,Fellsmere,FL,32970,772-571-0533
Abs Logistics,9591 Nw 52nd St,Sunrise,FL,33351,803-370-1024
East Coast Express Auto Transport,8300 Leo Kidd Ave,Port Richey,FL,34668,727-247-2216
Larry Gowen Trucking,1381 Joesphine St,New Smyrna Beach,FL,32168,386-423-9547
F & L Trucking,2464 Pinehurst Ln,Orange Park,FL,32003,904-525-1289
H&c Transportation And Recovery,5167 Beige Street,Jacksonville,FL,32258,828-361-9653
Dolphin Express,816 Silverstream Circle,Fort Pierce,FL,34946,772-216-7078
Premier Tours LLC,6315 Blountstown Highway Suite E,Tallahassee,FL,32305,850-556-3657
Patriot Express LLC,281 Greenfield Rd,Winter Haven,FL,33884,863-453-6674
Mtm Transportation,7134 Linda Drive,Jacksonville,FL,32208,904-764-0075
Destiny Trucking,850 Sw 6th Court #3,Pompano Beach,FL,33060,954-933-7728
Papa Joe's Transport,42 Shadow Oak Circle,Crawfordville,FL,32327,850-661-1117
Jj Franco Transport,125 Citrus St,Labelle,FL,33935,239-280-8818
K And S Trucking,404 El Centro Blvd,Panama City Beach,FL,32413,850-527-3890
"Yauco Pr, Inc.",3479 South Us Hwy. 1,Fort Pierce,FL,34982,772-528-0972
Goodfellas Propessional Delivery Service,3124 Fairmount Dr,Holiday,FL,34691,727-947-3603
Cold Street Group,160 Hollyhock Ct,Marco Island,FL,34145,800-682-0674
Spanmaster Metals,11302 Hoot Owl Ct,Riverview,FL,33569,813-671-3030
Wild Phantom Transport,3855 Payne Road,Myakka City,FL,34251,941-704-1733
J & R Trucking,5017 Us Hwy 17 North,Bowling Green,FL,33834,863-781-2550
Pate's Trucking,2355 Horseshoe Loop,Bonifay,FL,32425,850-373-7563
Wk Houston Transport,949 Pt Millgian Road,Quincy,FL,32352,850-627-3375
Tj Trucking,2248 Reefview Loop,Apopka,FL,32712,407-429-1455
Cantu Enterprise,1506 Edward Ave,Lehigh Acres,FL,33972,863-673-0749
Straight Line Transport,410 Washington Ave,Lake Wales,FL,33853,863-241-9945
White's Transporting,436 State Road 26,Melrose,FL,32666,N/A
Franks Trucking,05417 Eaglenest Rd,Fruitland Park,FL,34731,715-572-9289
Go Cargo Transport Corp,2406 Colonial Ave,Lakeland,FL,33801,863-709-5338
Camacho Express,4335 Nw 202nd St,New Berry,FL,32669,352-472-6102
R & F Transport,210 16th St Ne,Naples,FL,34120,N/A
Harveyboys Trucking,1918 Nw 34th Avenue,Ocala,FL,34474,352-653-5922
Hare Transport,13920 Tahoe Street,Hudson,FL,34667,727-863-3636
Christine Trucking,4398 W Colonial Dr,Orlando,FL,32808,407-290-6411
Sbp Logistics,2403 Woodbine Dr,Crestview,FL,32536,850-758-2392
V & W Trucking,423 Sunset Drive,Orlando,FL,32805,229-848-0215
Wellhome,2359 Beville Road,Daytona Beach,FL,32119,386-763-4022
T And R Transport,588 Forest Rd,Havana,FL,32333,850-519-0755
Owner,1073 Aspri Way,West Palm,FL,33418,305-805-7020
"Anp Transport, Inc.",751 Pinellas Bayway S,Saint Petersburg,FL,33715,407-467-9415
Edmonds Trucking,85035 Lil William Rd,Fernandina Beach,FL,32034,904-261-7608
Miller Transport,324 Se 15th Ave,Okeechobee,FL,34972,863-467-1719
Atl Transport,105 8th Street East Wahneta,Winter Haven,FL,33880,863-401-5396
Durm Hauling,2817 M A Couch Way,Crestview,FL,32539,850-305-8590
Elite Motorcorp,1143 Court Street,Clearwater,FL,33756,727-692-6569
R & R Transport,22 W Country Cove Way,Kissimmee,FL,34743,407-209-9419
KinseytruckingLLC,442 Declaration Dr,Orlando,FL,32809,407-883-4384
M & F Transport,14135 120th St,Live Oak,FL,32060,386-330-0149
Critex,7311 Nw 12th Street Suite 23,Miami,FL,33126,305-592-6661
Dea Transport,3947 38th Avenue,Saint Petersburg,FL,33713,727-460-5595
Henrys Auto Sales,4266 Hwy 15 A,Green Cv Springs,FL,32043,904-284-1500
Zumy's Express,14368 Sw 24 St,Miami,FL,33175,305-244-1402
"Aaz Transportation, Inc.",7700 Briarcreek Rd N,Tallahassee,FL,32312,239-823-1404
"Psalms 23 Trucking, Inc.",9720 Bahia Rd,Ocala,FL,34472,352-229-5774
Tortuga Transport Services,228 Maltese Circle Apt 5,Fern Park,FL,32730,407-921-8391
One Touch Trucking,724 Kingsley Ave,Orange Park,FL,32073,904-215-2030
Gio Transport,2716 Kinsey Dr,Kissimmee,FL,34746,321-947-4743
Ross And Son Trucking,104 Se 13th Lane,Gainesville,FL,32601,352-376-7436
"Ladson Transport, Inc.",43274 Pinewood Court,Callahan,FL,32011,904-626-3075
Pampered Auto Transporting,1112 Ranchette Rd,West Palm Beach,FL,33415,561-689-2849
Richard's Transport,709 Vandergriff Dr,Ocoee,FL,34761,407-614-4397
Reliable Auto Transport,349 Nw 16th Place,Pompano Beach,FL,33060,678-580-1644
Close Transport,314 14th Avenue North,Jacksonville Beach,FL,32250,912-704-7438
Blue Water Marine Transport,1915 Sw 21st Ave,Fort Lauderdale,FL,33312,754-224-4182
Chaggy Trucking LLC,2901 Beachwood Blvd #d204,Jacksonville,FL,32246,904-642-6532
Lo Trucking,8802 Brennan Cir Apt 305,Tampa,FL,33615,813-864-3019
Rjh Specialized,306 Windwood Oak Apt 202,Tampa,FL,33613,305-345-1147
Two Men And A Truck Of Orange County,7703 Kingspointe Parkway,Orlando,FL,32819,407-254-5000
Law Transport LLC,4571 Kawilla Crest Place,Winter Park,FL,32792,321-927-2731
Dbcj Transporting,11414 Eskimo Curlew Rd,Brooksville,FL,34614,352-610-4920
Tankyb Enterprise LLC,3610 Harvest Orchard Drive,Plant City,FL,33567,813-752-3101
Common Cents Trucking,506 Tulane Circle,Avon Park,FL,33825,863-443-2845
"Lst, Inc.",4245 St Augustine Rd,Jacksonville,FL,32207,904-647-3224
Cdw,903 North Monroe Street Suite #4,Tallahassee,FL,32302,850-875-2001
Hardrock Haulers,6849 Nw Gainesville Road,Ocala,FL,34475,352-502-0642
Ortez Trucking,3777 Quails Walk,Bonita Springs,FL,34134,239-470-3301
Bohannon Trucking,7964 Sherry St,Sneads,FL,32460,850-557-3590
Porter Trucking,3404 Sunnyside Drive,Tallahasee,FL,32305,407-340-7733
Cars Across America,4101 Pine Tree Drive Suite 502,Miami Beach,FL,33140,786-877-9984
Calloway's Trucking,9472 Se 25th Avenue,Trenton,FL,32693,352-463-7985
Stallion Express,1826 Inkwood Ct,Orlando,FL,32818,N/A
Ziggy Automotive Core Supply,11538 7th Lane N Apt 1310,Saint Petersburg,FL,33716,727-437-8214
Exavier Transport Services,4465 Nw 65 Terrace,Lauderhill,FL,33319,954-638-5800
D & V Trucking,2627 Se 175th Terrace Rd,Silver Springs,FL,34488,352-625-2547
Jason Hansel & Son's Transport,2451 Sw Brandy Dr,Arcadia,FL,34266,863-990-8863
G S Edouards Trucking,5315 Regal Oak Cr,Orlando,FL,32810,407-284-0514
Valencia Trucking,1214 N 18th St,Immokalee,FL,34142,N/A
Craig Kemp Transport,1831 Walnut Street,Jacksonville,FL,32206,904-554-1860
Y Gonzalez Trucking,4607 Bristol Way Apt 303,Tampa,FL,33619,N/A
Sws Transport,1109 Carriage Park Drive,Valrico,FL,33594,813-650-3626
Smart Transport Services,13113 Sw 20 Terrace,Miami,FL,33175,786-399-0442
Practical Miles Transport,325 Wellington Drive,Palm Coast,FL,32164,386-206-1394
Simon Trucking,8101 Nw 20 Ct,Sunrise,FL,33322,954-588-3889
Singer's Trucking,1032 Kings Rd,Neptune Beach,FL,32266,904-742-7686
Garza & Sons Produce,300 Madison Ave,Immokalee,FL,34142,239-352-8729
Perry's Trucking,312 Ben Hicks Street,Avon Park,FL,33825,863-443-6228
Road Wize Trucking,2602 Cut Across Shorty Drive,Haines City,FL,33844,863-353-5212
Murphyauto Sales,4601 Saufley Field Rd,Pensacola,FL,32526,850-453-7609
"Greg's Trucking, Inc.",7244 Woodhill Park Drive Apt 1023,Orlando,FL,32818,407-914-7310
Bumper To Bumper Auto Transport,5630 Rodman St,Hollywood,FL,33023,954-967-6237
Red Truck Servces & Wash Corp,7748 Clementine Way,Orlando,FL,32819,407-448-5262
S And A Hauling,402 West 4th Court,Frostproof,FL,33843,863-381-0826
Barber's Trucking,1507 Avenue D Northeast,Winter Haven,FL,33881,863-662-4048
Hoss Shot Express,16189 Alexander Run,Jupiter,FL,33478,405-283-0698
"Ayha Truck Load, Inc.",1706 Seneca Ave,Lakeland,FL,33801,863-608-0350
"Dt Trucking Transaports, Inc.",4581 W Mcnab Rd,Pompano Beach,FL,33069,954-825-1008
Duran & Duran Transport,242 W 19 St,Hialeah,FL,33010,305-805-3539
Booker Yopp Trucking,2922 Phyllis St,Jacksonville,FL,32205,904-389-8416
Jet Transportation,12741 Miramar Pkwy,Miramar,FL,33027,954-882-3643
Mft,5214 Dostie Drive South,Jacksonville,FL,32209,904-859-1598
Mr Big Stuff Trucking,1745 Patricia Ln,Orange Park,FL,32073,904-644-7219
Gt Delivery,373 Sw Bountiful Ave,Fort White,FL,32038,386-628-2008
K & T Transport,6029 Nw 22nd Court,Bell,FL,32619,386-935-0510
Maloney Movers,3611 Sw 34th St Apt 155,Gainsville,FL,32608,352-505-3609
Wiggins Trucking,205 Se 16th Ave Apt 32b,Gainesville,FL,32601,352-246-4592
Lemes Transport,Pobox 430728,Miami,FL,33143,786-472-3787
Passino Trucking,11908 Montevista Rd,Clermont,FL,34711,352-429-7672
Jorge Arias Wholesale Trucks,5195 E 10th Ave,Hialeah Fl,FL,33013,305-769-9911
Eq Truck,3560 20th Ave Ne,Naples,FL,34120,239-398-8043
Tetro Trucking,424 1/2 Pou Station,Penniscola,FL,32507,508-674-0320
Triple S Trucking,1567 Forbes Rd,Baldwin,FL,32234,904-259-5994
Velocity Transportation,25330 Conestoga Dr,Land O Lakes,FL,34639,813-406-5337
Durrance Trucking,213 Gladiola Street,Lake Placid,FL,33852,941-916-5477
The Moving Solution LLC,3724 Glen Oaks Manor Dr,Sarasota,FL,34232,941-706-4474
"Precision Logistics Transport, Inc.",14625 Sw 173 St,Miami,FL,33177,786-486-2909
Interstate Transport,4176 S Us Highway 441,Lake City,FL,32025,386-438-9805
Baron Auto Transport,Po Box 8964,Fort Lauderdale,FL,33334,954-816-8094
Hustle Auto Transport,4647 Nw 17 Avenue,Miami,FL,33142,305-636-5131
"Foulke Distributing, Inc.",295 Canopy Rd,Monticello,FL,32344,850-556-7571
Jackson Trucking,7849 W Tolle Ln,Dunnellon,FL,34433,352-795-0248
Crowl Trucking,40 Highland Lake Dr,Lakeplacid,FL,33862,863-531-1651
M Coop,3111 12th Street West,Lehigh Acres,FL,33971,787-667-0210
J & C Transport,5815 Davis Rd,Lakeland,FL,33810,813-323-5305
Moquete Transportation,3831 Crowes Nest Drive,Kissimmee,FL,34741,407-433-9229
Captiva Transport,37032 Grays Airport Rd,Lady Lake,FL,32159,352-516-7450
C Huber Transport,4546 Sw Bimini Circle,Palm City,FL,34990,561-719-1841
"M&m Transportation & Management Services, Inc.orporated",1598 Parkwood Lane,Niceville,FL,32578,850-598-4090
B&b Services,301 Sharazad Blvd,Miami,FL,33054,305-582-9697
N & J Trucking,1804 Chapel Tree Cir Apt B,Brandon,FL,33511,813-850-8777
Jackrabbit Express,4891 E Highway 2,Westville,FL,32464,334-447-8515
All In A Box Moving & Storage,602 N 34th Street,Tampa,FL,33605,813-269-4887
School Bus,730 East 56 St,Hialeah,FL,33013,786-393-7965
Doyle Trucking,2031 Winners Circle,Cantonment,FL,32533,850-288-9033
L & J Express,4849 Plymouth Ave,Jacksonville,FL,32210,904-514-7360
S And C Freight,1741 North Laura St,Jacksonville,FL,32206,904-329-3245
Andre's School Bus Service,200 Ne 110 Terr,Miami,FL,33161,305-754-4119
Central Florida Horse Transport,1860 Saxon Blvd,Deltona,FL,32725,407-703-5752
Granite Transformations,8041 Haywood Taylor Blvd,Sebring,FL,33870,863-655-1273
Dk Smith Trucking,11100 Sw 93rd Ct Rd Suite 10407,Ocala,FL,34481,352-445-0144
"L F G Transport, Inc.",1718 Darlington Dr,Tampa,FL,33619,813-403-1232
Agosto Logistics,1150 Orne Ct,Kissimmee,FL,34759,407-470-5047
Old Town Trolley Tours Of Key West & Southernmost Duck Tours,122 Simonton St,Key West,FL,33040,305-293-8711
Shorty Trucking,11344 Marlette Avenue,Leesburg,FL,34788,770-921-5253
Dw Transport,6262 India Drive,Spring Hill,FL,34608,352-556-5713
11 Express,5434 Jamaica Rd,Cocoa,FL,32927,321-750-8580
Warehouse International Autoparts,Av Norte 2577,Recife-pe-brazil,FL,33126,558-130-8859
Sea-time Express LLC,7592 Jana Lane N,Jacksonville,FL,32210,904-566-6649
A J O Trucking,530 Jefferson Dr Unit 101,Deerfield Beach,FL,33442,954-856-6143
Jmr Car Carrier,3125 Stonebreir Ridge Dr,Orange Park,FL,32065,904-302-3872
Freight Service,5961 Nw 2nd Ave #607,Boca Raton,FL,33487,561-670-7355
Na,6980 Nw 186 St Apt-316,Hialeah,FL,33015,305-960-7001
D & G Trucking,4590 E County Road 468,Wildwood,FL,34785,352-427-9743
Red Line Transporting,6166 126th Ave,Largo,FL,33773,813-393-6288
Rocket Express,5237 89th Ter,Pinellas Park,FL,33782,727-541-6879
Ngiuttari Trucking,6011 Brickyard Road,Molino,FL,32577,850-754-0350
T & L Express,9813 County Road 235a,Wildwood,FL,34785,352-303-5832
Pegar Truck Brokering,915 West 74 St # 120,Hialeah,FL,33014,786-286-2635
Nana's Transport,21 Sparrow Lane,Winter Haven,FL,33880,863-229-0126
Auto Transports,18683 Sw 103 Ct,Miami,FL,33157,786-342-9191
Top Hat Limousine,9636 N State Road 53,Madison,FL,32340,850-251-7202
Crass Transporting,618 Fernwood St,Panama City Beach,FL,32417,850-541-4695
M & Y Transportation,4510 Sw Darwin Blvd,Port St Lucie,FL,34953,201-881-2664
477 Auto Transport,19821 Nw 48th Ave,Miami Gaerdens,FL,33055,786-459-5115
Antonia Trucking,143 Carver St,Havana,FL,32333,850-728-8180
Coastal Trucking Company,1504 West Sydney Rd,Plant City,FL,33566,808-349-3111
Metro S Transport,4225 Summit Creek Blvd Apt 6303,Orlando,FL,32837,407-406-6361
Perdomo's Transport,15576 128 Pl,Live Oak,FL,32060,386-209-1270
Heavens Transport,602 E Pocahontas Ave,Tampa,FL,33604,813-238-0379
Norris And Mary Trucking,1427 Aucilla Rd,Monticello,FL,32344,850-766-0953
Huntley Trucking,2530 Fox Hill Lane,Jacksonville,FL,32221,904-476-1512
John J Steinmetz Transport,111 Se Bonita Ct,Port St Lucie,FL,34983,772-361-3103
T & C Trucking,3100 West 18th St,Panama City,FL,32405,803-736-2190
Dan's Auto Transport,1444 Wildrose Lane,Holly Hill,FL,32117,386-451-9141
James R Kimbrell Jr Trucking,20 Massachusetts Avenue,Pensacola,FL,32505,850-221-5706
S And G Trucking,596 William Penn St,Orange Park,FL,32073,904-923-2258
Hall's Trucking,3017 46 St West,Leigh Acres,FL,33971,239-368-9814
Los Pepes Trucking,5440 Winter Run Dr,Orlando,FL,32839,413-657-1606
Burleson Delivery Services - Bds,1117 Ne 32nd Street,Cape Coral,FL,33909,239-994-3395
Awsj Express,20701 Sw 130 Ct,Miami,FL,33177,305-896-9888
San Juan Trucking,400 Janice Kay Pl,Kissimmee,FL,34744,407-791-3386
"Anyelina Trucking, Inc.",2519 W 70 St,Hialeah,FL,33016,786-252-5241
Sclog Logistics,13215 Chattanooga Lane,Orlando,FL,32837,407-234-3514
Waldo 7jouner Transport,19448nw230st,High Springs,FL,32643,386-454-5144
Foster Trucking,1888 E Duval St,Lake City,FL,32025,386-623-3219
Motor Carrier,302 South Oak Avenue,Fort Meade,FL,33841,407-353-1124
Two Men And A Truck Tallahassee,4427 Production Ct,Tallahassee,FL,32310,269-488-6683
L & G Cory Distributing,16272 137th Drive,Mcalpin,FL,32062,386-776-2371
Myles Trucking,128 Cedar Rd,East Palatka,FL,32131,386-325-0932
E & V Trucking,1643 Crooked Oak Drive,Orange Park,FL,32065,770-853-0321
Sum Serious Trucking,7945 Riffle Lane,Orlando,FL,32818,321-303-1616
Nexgen Transport,4775 3rd Road,Labelle,FL,33935,352-874-8637
Merz Logistics,8841 Nw 173rd Street,Fanning Springs,FL,32693,352-949-6765
Sledge Trucking,6149 Metrowest Blvd Unit 303,Orlando,FL,32835,770-820-7916
High Mountain Hay & Transport,2200 Buck Ridge Trail,Loxahatchee,FL,33470,561-790-7963
Mr Mover,3734 131st Ave N #12,Clearwater,FL,33762,813-443-8947
"Rogers Transport, Inc.",470 W Clower St,Bartow,FL,33830,863-608-4125
Pnp Trucking,1909 Manatee Drive,Kissimmee,FL,34759,321-284-7503
S&j Trucking Services,4335 18th Ave N,Saint Petersburg,FL,33713,727-254-1751
All American Trucking,15020 Sw 156 Avenue,Miami,FL,33196,786-376-1456
Moving America,3732 Wilderness Way,Coral Springs,FL,33065,954-703-9310
Air Trucking,8418 Fort Thomas Way,Orlando,FL,32822,407-235-0228
Alpha Xpress Trucking & Courier,2804 St Johns Bluff Rd Suite 105 C,Jacksonville,FL,32246,904-996-8280
Blue Pirate Trucking,4145 Fay Blvd,Cocoa,FL,32927,321-604-7000
E & B Trucking,4347 Peppergrass Street,Middleburg,FL,32068,904-282-7787
Heavy D's Trucking,477 Thornberry Road,Orange Park,FL,32073,904-779-2795
R & S Enterprise,6750 Deena Ln,Navarre,FL,32566,850-939-5216
Britt Express,2104 Country Club Drive,Eustis,FL,32726,800-457-3412
L G S Trucking,613 Westmoreland St,Starke,FL,32091,904-860-2062
Hubbard Trucking,11891 Us Hwy 98 North,Lakeland,FL,33809,863-816-0678
Carlos M Hunter Trucking,1509 Indiana Avenue,Lynn Haven,FL,32444,850-596-1753
Enriquez Heavy Equipment Services,14818 Sw 60 Street,Miami,FL,33193,786-488-2005
Dean Ayers Dba Motorcycle Transport Servic,2850 Granada Blvd,Kissimmee,FL,34746,407-460-2400
Porkchop Express,611 Lapine Road,Brooksville,FL,34602,727-919-2070
D White Trucking,4119 7th Street Sw,Lehigh Acres,FL,33971,239-369-4227
Marino's Trucking,6018 Apple Ave,Cocoa,FL,32927,321-632-6141
Gds Trucking,1900 S Lake Reedy Blvd,Frostproof,FL,33843,863-635-3143
Sundown Transport,2710 Huntington Hills Dr,Lakeland,FL,33810,786-269-1188
Ghe Transport,12418 Mondragon Drive,Tampa,FL,33625,702-677-4977
Walter Dee Trucking,1270 N Wickham Rd Suite 16407,Melbourne,FL,32935,407-579-8385
Augustin's Trucking,1662 Se Cr 241,Lulu,FL,32061,386-754-0374
G & L Courier Services,15930 County Road 48,Astatula,FL,34705,352-343-3793
Tje Boat Transport,110 Wright St,Inverness,FL,34452,352-212-7712
"Cross World Water Sports, Inc.",111 North Myrtle Ave #5010,Clearwater,FL,33755,727-457-8512
"Minimum Moves, Inc. Micro Moves Usa, Inc. Nexmove Of Tarpon Springs, Inc.",4490 Alt 19 North Suite 301,Palm Habor,FL,34683,800-647-4110
Kmh Trucking,2511 Halperns Way,Middleburg,FL,32068,904-406-0822
A Truckline,4779 Us Hwy 27,Branford,FL,32008,386-935-3463
Enrique Del Risco,11335 North West 59court,Hialeah,FL,33012,305-965-5073
Mark Heuberger Refrigerated,1270 N Wickham Rd,Melbourne,FL,32935,321-591-4263
Acme Hauling & Equipment,3301 Sw Perrine Street,Port St Lucie,FL,34953,561-767-7050
Gmw Truckiing,1152 Glenwood Trails,Deland,FL,32720,386-736-2305
Double R & J Trucking Corp,2405 Pine Ave,Haines City,FL,33844,863-852-8927
"Citracool Logistics, Inc.",5976 20th Street #140,Vero Beach,FL,32966,772-501-5136
Telly's Auto Repair & Service,207 Kelly Ave,Fort Walton Beach,FL,32548,850-244-7444
Tpa Transportation,4636 Whispering Wind Avenue,Tampa,FL,33614,813-889-7194
King Enterprises,802 Brunnell Parkway,Lakeland,FL,33815,863-559-1938
Esner Trucking,309 N E 4th St #1,Hallandale,FL,33009,954-454-4951
Denton's Auto Services,1918 Newberry Lane,Bonifay,FL,32425,850-547-0282
Crockett Trucking,13739 Richard Oliver Road,Sanderson,FL,32087,904-275-2219
Parra Trucking,7529 N Pearl Street,Jacksonville,FL,32208,904-707-8705
Hillgardner Trucking,11721 Lake Ride Drive,Jacksonville,FL,32223,904-260-3709
Rivera Trucking,1243 Polk Rd,Wauchula,FL,33873,863-773-3861
M D Transportation,3319 Moran Rd,Tampa,FL,33618,813-478-2014
Kiki Trucking,2219 Caribbean Dr S,Issimmee,FL,34741,407-433-4346
Cifuentes Trucking,3350 Blue Fin Drive,West Palm Beach,FL,33411,561-248-9391
C&j Hauling,2024 County Road 285,Defuniak Springs,FL,32433,850-546-0456
42 Auto Transport,3600 South State Road 7 Suite361,Miramar,FL,33023,954-962-9083
Hyland Transportation,2560 South Ocean Blvd. #510,Palm Beach,FL,33480,N/A
Transportes Leon,850 Sw 129 Pl,Miami,FL,33184,305-794-0715
Aco,247 Lower Matecumbe Rd,Key Largo,FL,33037,786-314-6233
M Dawkins Trucking,8253 White Rock Circle,Boynton Beach,FL,33436,561-733-2915
Spratt Trucking,7133 Fairview Pk Dr,Tampa,FL,33619,813-623-3859
J & J Trucking,4141 Hwy 17-92,Davenport,FL,33837,863-256-4045
J And J Borras Trucking,813 Papaya Dr,Tampa,FL,33619,813-393-7282
Pickle Trucking,1098 Smithtown Rd,Chattahoochee,FL,32324,850-942-7323
B & M Trucking,71 Brooklyn Ln,Palm Coast,FL,32137,386-864-7521
"Brenner Transport, Inc.",3467 Cr 557a,Polk City,FL,33868,863-984-8671
Crossley Hauling,4264 Dana St,Pace,FL,32571,850-994-3865
Suprime Trucking,15049 85th Rd N Loxatachee,Wets Palm Beach,FL,33470,561-333-8900
Committed Transport,4943 21st Way E,Bradenton,FL,34203,941-724-1884
L J Trucking,8046 Village Green Road,Orlando,FL,32818,407-292-0738
Rhodes Trucking,128 Kraft Avenue,Panama City,FL,32401,850-769-3148
National Disaster Relief,7447 Shindler Dr,Jacksonville,FL,32222,904-779-9734
Venia Express,7444 Brandywine Dr,Englewood,FL,34224,941-474-4240
Miami South Florida Trucking,8801 Nw 178st,Hialeah,FL,33018,305-362-3842
Gp Trucking,1701 Brassie Ct,Kissimmee,FL,34746,407-709-4273
Boulevard Moving & Storage,815 South Main Street,Jacksonville,FL,32207,262-547-5900
Dream Transportation,1297 E Summerlin St,Bartow,FL,33830,863-533-2223
Williams Trucking,6163 Wolf Pond Rd,Greenwood,FL,32443,850-209-6201
Zeal Transport,6707 Narcoossee Rd,Orlando,FL,32822,321-220-9846
Anderson Gas Service Covenant Propane,3029 E Thomas Street,Inverness,FL,34453,352-344-1059
Dba Ww Trucking,2224 Wilimar,Cottondale,FL,32431,850-579-4873
Sharon Logistics,130 S Jackson Ave,Jacksonville,FL,32220,904-781-6040
Prince Transport,2914 E 28th Ave Apt B,Tampa,FL,33605,813-241-2797
Chavers Trucking,6801 Pine Forest Road,Walnut Hill,FL,32568,850-327-6592
Evenflow Transportation,4411 Bee Ridge Ave #564,Sarasota,FL,34233,972-693-7138
Switch Trader LLC,6151 Miramar Parkway Suite 122,Miramar,FL,33023,954-391-9300
5 Star Coach,2366 Great Harbor Drive,Kissimmee,FL,34746,407-344-4325
Jaruco Trucking,2719 W Green Street,Tampa,FL,33607,813-871-2479
Multiple State Transportation & Hauling,8251 Vermanth Rd,Jacksonville,FL,32211,904-226-1771
All Delivery Services,4430 Tevalo Drive,Valrico,FL,33594,813-684-3436
Alx Auto Transport,35 Juniper Pass Trail,Ocala,FL,34480,352-245-1215
Tsi N Express,813 Derby Lane,Ponte Vedra,FL,32095,904-827-0865
Wdm Services,14511 Sw 138th Pl,Miami,FL,33186,786-293-2033
Robinson Transport Express,3703 Fox Ridge Blvd,Wesley Chapel,FL,33543,813-390-2505
Cj Trucking,258 S W Lake Forest Way,Port St Lucie,FL,34986,772-209-1650
Advance Recovery Florida,2334 E Highway 100,Bunell,FL,32110,386-313-2525
Deniz Transport,8362 140th Ct,White Springs,FL,32096,832-837-6264
Wanna Be Trucking,11300 Altoona Ave,New Port Richey,FL,34656,727-255-2569
Agape Relocation & Storage,1551 Arden St,Longwood,FL,32750,407-767-6934
Ridgeway Transport,6950 Sw Sr 26,Trenton,FL,32693,352-463-2533
Z-quick Trucking,1620 Dees Rd,Pensacola,FL,32506,850-602-7842
J&w Southern Transport,8225 Lake Drive C-306,Miami,FL,33166,305-599-1386
Moldavskiy Express,10164 Arrowhead Dr,Jacksonville,FL,32257,904-260-7884
Top Dog Transport,3418 W Warbler St,Lecanto,FL,34461,352-586-9575
Mojica Trucking Company,4312 Stephanie Court,Bartow,FL,33830,863-533-8479
Samcor Trucking,5242 Dellbrook Ave,Spring Hill,FL,34608,727-247-6206
B&w Trucking Company,2801 Nw 142nd Pl,Citra,FL,32113,352-591-3442
Jotica Trucking,6815 Fountain Ave,Tampa,FL,33634,813-842-9031
"Payano Trucking, Inc.",5488 Carrollwood Meadows Drive,Tampa,FL,33625,813-908-6586
R & S Trucking Services,5488 White Heron Place,Oviedo,FL,32765,407-977-0140
Jpl Auto Empire,330 West Socrum Loop Road,Lakeland,FL,33810,315-633-5637
New Look Express,2285 D Rd,Loxahatchee,FL,33470,561-436-8686
G & L Tractor Service & Backhoe,96606 Chester Road,Yulee,FL,32097,904-261-8629
J A Williams,1100 Cr 542e,Bushnell,FL,33513,352-793-7937
B&e Transportation,8 Wood Street,Oviedo,FL,32765,407-756-2956
D & G Auto Transport LLC,18840 North West 57th Ave Apt 104,Hialeah,FL,33015,786-285-0764
Fids LLC,913 Maracel Loop,Crestview,FL,32536,850-683-5752
T N R Trucking,3219 Herons Point Cr,Kissimmee,FL,34741,407-943-7413
J & A Transport,12 Govenors Knob,Casselberry,FL,32707,407-580-6067
Walo Trucking,11431 Trinity Pl,Naples,FL,34114,239-825-2139
Dream Car Transport,102 Commerce Rd,Boynton Beach,FL,33426,561-588-6166
Mjr Auto Transport,904 Ne 11th Terrace,Cape Coral,FL,33909,239-462-3972
Carmelo Frontanez,5180 Lake Nina Drive,Orlando,FL,32812,407-253-7316
L W Young Trucking,992 Fordwood Dr,Jacksonville,FL,32218,904-714-6471
A Anchors Away Boat Transit,44225 State Road 64 East,Myakka City,FL,34251,941-322-9790
Ruby,12144 Saragossa Lane,North Port,FL,34287,941-234-5013
Grace & Favor Delivers,974 Leeward Pl 205,Altamonte Springs,FL,32714,407-467-6578
Sre Freight,7297 S Serenoa Drive,Sarasota,FL,34241,941-302-3406
Cmp Farms,2536 Clifton Bryan,Zolfo Springs,FL,33890,863-328-0537
Christian Educational Service,11921 Mcintosh Rd,Thonotosassa,FL,33592,813-986-3463
C P Farms,11358 202nd Street,O Brien,FL,32071,386-364-5583
Vass Trucking,15306 Petrus Lane,Clermont,FL,34714,813-830-8811
Pick Up And Deliveryexpress,1151 Nw 125 Path,Miami,FL,33182,786-554-1509
J Miles Trucking,5950 Grand Coulee Rd,Orlando,FL,32810,405-350-6508
Ultra Powersource,10002 Summers Rd,Thonotosassa,FL,33592,813-746-2538
Truckways,4900 Manatee Ave W Ste 101,Bradenton,FL,34209,941-745-9220
R Johnson Trucking,15957 Reed Drive,Perry,FL,32348,850-578-2369
Sanchez Serna Express,8302 Nw 56th St,Doral,FL,33166,786-970-0163
Two Men And A Truck,4427 Production Ct,Tallahassee,FL,32310,850-224-2232
Lawrence Trucking,330 Chicagowoods Circle,Orlando,FL,32824,917-279-1842
A&m Trucking,605 Pool Branch Road,Fort Meade,FL,33841,863-285-8883
T Causey Trucking,878 Sw Drew Feagle Ave,Fort White,FL,32038,386-466-1130
Malagic Transport,7068 Deer Lodge Cir Unit 106,Jacksonville,FL,32256,904-200-5755
Natz Transport,4219 Bair Avenue,Fruitland Park,FL,34731,352-342-5473
"Chiqui' S Trucks, Inc.",2400 Sw 113 Ct,Miami,FL,33165,305-805-3660
J A R Trucking,2336 N W 14th Court,Fort Lauderdale,FL,33311,954-599-0228
Snappy Trucking Service,33359 Pennsylvania Ave,Ridge Manor,FL,33523,352-583-0055
Rock Steady Transport,1003 Fountainview Lake Estates,Lakeland,FL,33809,863-670-7791
Dlp Trucking,7234 Overland Park Blv,Jacsonville,FL,32244,904-379-7305
Lue's Transport,3087 Ft Socrum Village Blvd,Lakeland,FL,33810,561-667-3694
Kevin Williams And Sons Trucking,10160 208th Circle,Obrien,FL,32071,386-935-0630
Gulf Coast Freight,1060 Breezy Acres Rd,Pensacola,FL,32534,850-477-3561
Conner Trucking,1495 Muscogee Road,Cantonment,FL,32533,850-380-3132
R Cubed Trucking,1322 Carbondale,Jacksonville,FL,32208,904-759-7201
Peddle2metal,8145 Jeanwood Dr,Jax,FL,32210,904-887-6238
Buck Branch Trucking,517 Cherokee Ln,Defuniak Springs,FL,32433,850-951-0939
Transvas Freight,8850 W Flagler St Unit 15,Miami,FL,33174,305-220-4072
Cool Ade Express,120 Holly Hock Ct,Kissimmee,FL,34743,321-436-8286
Royal Trucking,122 Bilbao St,Royal Palm Beach,FL,33411,561-792-2097
Hhr Transport,1155 Earlylight Ct,Jacksonville,FL,32218,904-714-9156
Ez Je Transport,2915 Nw 60 Ave #111,Sunrise,FL,33313,954-643-4325
Branch Trucking,1631 Hwy 71 South,Wewahitchika,FL,32465,850-639-2187
Ernest Holmes Auto Transport,2636 Kaylor Lane,Jacksonville,FL,32218,904-422-0807
Impexpress,2832 Nw 72 Ave,Miami,FL,33122,305-477-3144
Beckman Transport,299 Sw Summerhill Glen,Lake City,FL,32024,386-752-4069
Hot Shot Express,1770 Se 38th St,Ocala,FL,34480,352-804-4285
T Ford Trucking,202 Waverly Loop,Waverly,FL,33877,863-223-5040
Madison Transport,4010 East Palomar Circle,Labelle,FL,33935,863-675-0303
R & C Transport,4282 Fonsica Ave,Northport,FL,34286,941-423-8121
Dan Lee Truck Line,3415 Groah Ave,Mims,FL,32754,321-593-2596
L & B Trucking,950 Tanner Rd,Plant City,FL,33566,813-345-1298
48 State Freight,12551 Ne 75th Street,Bronson,FL,32621,352-486-5874
Regions Moving,15771 Nw 16th Ct ,Miami,FL,33169,305-622-6683
Hughes Transport,33608 Brisk Drive,Zephyrhills,FL,33543,813-778-2607
Darling Transport,5722 Stone Pointe Drive,Sarasota,FL,34233,941-650-5751
Smith Freight Carriers,1352 Sterling Point Drive,Gulf Breeze,FL,32563,850-932-4990
Act Transport,7931 Nw 68th Street,Miami,FL,33166,305-640-9996
Ken Hall Marine Transport,31050 Sr 44 East,Eustis,FL,32736,352-589-1854
Trans American Van Lines,1009 Park Centre Blvd,Miami,FL,33169,888-583-6683
J&j Freight Services,7500 Nw 54 Street,Miami,FL,33166,305-597-9480
"Deck Logistics, Inc.",6528 Sw 30 Street,Miami,FL,33155,786-319-4130
Shammah Carrier Transport Services,13211 Nw 26th Ct,Miami,FL,33167,305-681-1112
Gracehouse Transportation,103 North Hampton Court,Sanford,FL,32773,407-321-8459
Qu1cksh1p Relocation Services,3890 Rollingsford Circle,Lakeland,FL,33810,863-529-4403
"Prime Airport Services, Inc.",450 Nw 22nd Street Bldg 710,Miami,FL,33122,786-265-3500
Twin Palms Trucking,8515 Nw Hwy 25a,Ocala,FL,34475,352-732-9221
Robinson Trucking,272 Sw Hall St,Madison,FL,32340,850-253-5138
D & S Trucking,517 Drawdy Way,Sebastian,FL,32958,772-581-2595
Seven Fold Transportation,11217 Panther Creek Pkwy,Jacksonville,FL,32221,904-476-3533
"Globalscape, Inc.",1017 Eagle Street,Palatka,FL,32177,386-983-1983
"Nmd Trucking, Inc.",5556 Suncreek Ct,Orlando,FL,32839,407-421-3122
Grocery & Distributions,799-c Beal Parkway,Fort Walton Beach,FL,32547,850-863-1306
Fuentes Trucking,16639 Corner Lake Dr,Orlando,FL,32820,407-860-8380
Fixemer,8743 Reedy Branch Dr,Jacksonville,FL,32256,904-294-8117
Desplantes Trucking,8340 Devoe St,Jacksonville,FL,32220,904-253-3278
Florida Air Conditioning Distributors,1530 Nw 98th Court Suite 100,Miami,FL,33172,305-592-1888
Carlos R Morice,11944 Sw 273 Street,Homestead,FL,33032,305-258-7783
C Dawson Trucking,2636 14 Ave So,Saint Petersburg,FL,33712,727-623-5504
Faith Trucking,2167 Thames Road Se,Palm Bay,FL,32909,321-373-4914
Gayla Enterprises,1990 South Highway 301,Sumterville,FL,33585,828-467-1920
Fire & Iron Logistics,18 W Orange St,Apopka,FL,32703,407-427-0307
Hawkins Hauling,2328 Sw 70th Terrace,Gainesville,FL,32607,352-260-7405
Rb Trucking,153098 County Rd 108,Yulee,FL,32097,904-225-5610
18 Wheeler Transport,19940 Nw 61 Ave,Starke,FL,32091,904-964-3926
"Augustine Trasport, Inc.",10950 Nina St,Seminole,FL,33778,727-399-8845
"Hd&c Transport, Inc.",2995 Lafayette Street,Fort Myers,FL,33916,239-337-4414
Grace Transport,1052 Crumpet Court,Longwood,FL,32750,407-332-0300
Mike's Auto Repair,17968 Us 90 West,Live Oak,FL,32060,386-654-4123
Apartment Movers,9272 Jaybird Cir East,Jacksonville,FL,32257,904-739-1441
Jt Stinson Trucking,1126 Blufield Ave,Brandon,FL,33511,813-381-4440
Hay Tech,6468 Wolfpond Road,Bascom,FL,32423,850-592-2424
Robbie Fuqua Transport,701 Armenia Drive,Pensacola,FL,32505,850-438-9799
Warranty Services,7390 W 9 Mile Road,Pensacola,FL,32526,850-723-1089
Bra Trucking,1384 Us Hwy 301 North,Lawtey,FL,32058,904-289-7764
David Davis Trucking,402 South Allapaha Ave,Davenport,FL,33836,863-419-4601
Loxley Transportation,5607 Spring Run Avenue,Orlando,FL,32819,407-701-0104
Ear Enterprise,3 Coconut Row,Port Orange,FL,32127,385-788-7132
Empty Pockets Trucking,2960 Belkton St,Deltona,FL,32738,386-801-5949
A C Auto Transport,99 Alixco Court,Kissimmee,FL,34743,407-552-9373
"Sonic Transport And Logistics, Inc.",414 Little Spring Hill Dr,Ocoee,FL,34761,321-287-0983
Dsk Trucking,11645 Havburg Drive,Pensacola,FL,32506,850-944-9104
Big Transport LLC,2675 Westchester Dr N,Clearwater,FL,33761,727-797-7055
Butler Auto Transport,8546 Beresford Ln,Jacksonville,FL,32244,904-525-6423
Jps Transport,16185 Sw 2nd Drive,Pembroke Pines,FL,33027,646-523-9130
Raymond's Auto Transport,3036 Stratton Lane,Jacksonville,FL,32221,904-786-4253
East Coast Relocation,4757 Sw 51 St Bay 3,Davie,FL,33314,954-444-4808
Hamilton Jr Trucking,18 Banneker Lane,Frostproof,FL,33843,863-528-6251
Ben Perry Trucking,3434 Jackson Drive,Holiday,FL,34691,727-491-6433
American Express Logistic Ltd,1327 Se 23 St,Cape Coral,FL,33990,239-424-8674
M & M Trucking,865 Rich Dr Apt 105,Deerfield Beach,FL,33441,954-856-4757
Treasure Truckin,466 Essex Drive,Port St Lucie,FL,34984,772-361-3081
Care Free Transport,10810 Nw 19th Ave,Miami,FL,33167,954-709-4469
Elite Transporters,1513 Colwyn Dr,Cantonment,FL,32533,850-780-6171
Gonzalo Carriers,224 Northeast 10 Ave,Ocala,FL,34470,352-369-0196
Yarbrough Automotive,2012 Yarbrough Ln,Westville,FL,32464,850-956-2751
Williams Trucking,13655 189th Road,Live Oak,FL,32060,386-776-1376
Lewis Jones Trucking,4016 13th St W,Lehigh Acres,FL,33971,239-243-2562
Slew Father & Son Trucking,4300 Tarkington Dr,Landolakes,FL,34639,813-996-0636
B's Trucking,680 Douglas Ave,Winter Park,FL,32789,407-645-3813
Pierre Trucking,2711 Jackson St,Fort Myers,FL,33901,239-895-8559
Harvey Transportation,12487 Hanley Dr,Spring Hill,FL,34608,352-556-2043
Rising Star Transportation,52 Tuscan Way Suite 202 115,Saint Augustine,FL,32092,904-687-3062
Wills Trucking,3930 Versailles Dr,Tampa,FL,33634,813-884-7170
Wright Way Trucking,2879 Summer Swan Dr,Orlando,FL,32825,407-579-7181
Ltm Boat Transport,5911 Neal Rd,Fort Myers,FL,33905,239-229-8130
Conner's Carriers LLC,103 Perdido Circle,Niceville,FL,32578,850-797-0800
Nafa Trucking,6226 Barnes Rd # 50,Jacksonville,FL,32216,904-683-4329
Jace Transportation,4307 Carolyn Way,Bartow,FL,33830,863-519-5366
Quicktran Auto Transport,923 Princeton Dr,Clermont,FL,34711,352-243-2174
Darryl Moody Trucking,7453 N Bienville Ave,Keystone Heights,FL,32656,352-473-5075
Harrell Trucking,5754 74th Trace,Live Oak,FL,32060,386-362-7525
Cj 1 Broker Authority,2243 W 1st St,Jacksonville,FL,32209,301-645-8765
Lucky Sevenz Trucking,3711 42nd Ave North,Saint Petersburg,FL,33714,727-741-3707
Martin's Transportation,5465 Sw 11th Street F,Margate,FL,33068,240-383-7261
Bob's Hauling,2942 Lake Josephine Dr,Sebring,FL,33875,863-655-0307
Moreno Trucking,19470 Slater Rd,North Fort Myers,FL,33917,239-731-6672
Matthew R Leon Transport,540 12th Ave Nw,Naples,FL,34120,239-455-1181
Greg Stephens Transport,1470 Friday Road,Cocoa,FL,32926,321-536-6260
"Figueroa Trucking Corporation, Inc.",405 Se 3rd St,South Bay,FL,33493,561-261-1991
R Reinhardt Transportation,6761 Ralston Beach Cr,Tampa,FL,33614,813-389-1953
Ali Moving Company,1278 Westside Drive,Winter Garden,FL,34787,407-929-7794
Byrd's Hauling,2540 County Highway 181-c,Ponce De Leon,FL,32455,850-836-4327
Auto And Boat Logistics,4401 East 11th Ave,Hialeah,FL,33013,954-213-7371
Don Envion,6713 Nw 84th Ave,Miami,FL,33166,305-599-8146
"H&m Auto Transporting, Inc.",4908 Sw 32nd Terrace,Fort Lauderdale,FL,33312,954-830-5021
Bowers Refrigerated Transport,19278 89th Rd,Mcalpin,FL,32062,386-362-2408
Troncast Auto Transport,8523 Beresford Lane,Jacksonville,FL,32244,904-240-0738
Cnd Truckin,368 Tindel Trail,Lake Wales,FL,33898,863-287-9449
Autoterminal Com,901 Old Griffin Road,Dania Beach,FL,33044,954-921-9550
Reliable Field Services Of Central Florida,505 W Woodward Ave,Eustis,FL,32726,352-250-6269
Dales Sales & Service,3593 Nw County Road 141,Jennings,FL,32053,386-938-2160
Jags Transport,3038 N John Young Pkwy #17,Orlando,FL,32804,407-295-7206
Ej Trucking,9410 Culpepper Ave,Jacksonville,FL,32208,904-924-9705
Bes Trucking Of Florida,6735 Hemlock Road,Ocala,FL,34472,352-843-4398
Jp Transportation,611 N Delmonte Ct,Kissimmee,FL,34758,281-282-7352
D&b Express,18098 Hollister Road,Orlando,FL,32820,407-402-3624
Marathon Transportation,4240 North East 5th Avenue,Pompano Beach,FL,33064,954-562-2120
V B Transportation,500 Ne 12 Ave #306,Hallandale,FL,33009,954-240-2126
Express Motor Lines,919 Homestead Rd S,Lehigh Acres,FL,33974,239-303-7216
New Horizons Express,7967 Hampton Park Blvd,Jacksonville,FL,32256,904-996-0792
Suwannee River Transport,17731 10th Terrace,Live Oak,FL,32060,386-842-5608
M Murphy Transport,850 Bay Drive,New Smyrna Beach,FL,32168,386-566-1226
Two Kings Trucking Co,17801 Lem Turner Rd,Jacksonville,FL,32218,904-764-0318
Bk Express,17850 Murdock Circle Apt 104,Port Charlotte,FL,33948,215-436-2053
Able Specialists,20730 Nw 25th Avenue,Miami Gardens,FL,33056,305-622-2829
Accurate Transport,5369 Parnell Road,Zolfo Springs,FL,33890,863-784-4047
Marcos Calderin,2038 Elk Spring Dr,Brandon,FL,33511,813-900-9758
Barrett Moving & Storage,815 South Main Street,Jacksonville,FL,32207,262-896-0300
Trucking Aces,14215 Sw 15 Street,Miami,FL,33184,305-384-8515
Staceys Trucking,1805 East Fairbank Street,Tampa,FL,33604,813-930-0104
Bbt,2826 Se Maleluca Blvd,Port St Lucie,FL,34952,954-594-2729
T C A Trucking,4190 Sw St Rd 2,Trenton,FL,32693,352-463-1948
Jay's Trucking,1215 Avenue I,Fort Pierce,FL,34950,772-579-5217
Jaguar Heavy Hauling,4846 Julington Creek Rd,Jacksonville,FL,32258,904-880-0003
"Fernandez & Fernandez, Inc.",4610 N Armenia Ave Apt 438,Tampa,FL,33603,813-260-7640
Chp Transport,522 Oak Branch Circle,Kissimmee,FL,34758,407-846-1784
Stfa,14055 Sw 143rd Ct Unit 14,Miami,FL,33186,786-273-7309
Vinton's Trucking,6149 Twilight Dr,Zephyrhills,FL,33540,813-862-3622
Montalvo Logistics Corp,Po Box 171108,Hialeah,FL,33017,305-335-1852
Dp Trucking,5138 Grimes Rd,Polk City,FL,33868,863-984-3415
Confianca Moving,11700 Nw 102nd Rd Ste 16,Medley,FL,33178,310-784-1267
Johnson Distributing,1409 Dexter Avenue,Pensacola,FL,32507,850-292-1532
Redeye Trans,8462 Nw 103 Street #f - 104,Hialeah Gardens,FL,33016,305-557-3775
Evergreen Van Lines,324 Indiana St Suite 12,Hollywood,FL,33019,180-079-4160
Total Group Trucking,6426 Pembroke Rd,Miramar,FL,33023,954-965-7075
Niagara Transport,4919 Center Lane,Orlando,FL,32808,407-521-9966
Braddock Transport,45206 Musselwhite Rd,Callahan,FL,32011,904-879-9396
Z & R Southern Comfort LLC,25 Lansdown Ln,Palm Coast,FL,32137,386-597-0295
Victory Salvage Services,6150 County Highway 1087,Defuniak Springs,FL,32433,850-834-2353
Del Sur Truck Lines,1825 Nw 112 Ave Suite 155,Miami,FL,33172,305-640-9969
Cial Transport,8421 S Orange Blossom Trail Suite 202,Orlando,FL,32809,407-423-9898
Specialty Vehicle Transport,256 East Tulip Avenue,Defuniak Springs,FL,32433,850-951-0874
Florida State Transport Service,13135 Greenpointe Drive,Orlando,FL,32824,321-946-2996
Reliable Transportation,6351 Belgrand Dr,Tallahassee,FL,32312,801-358-5008
Target Express,9002 Scales Rd,Lakeland,FL,33810,863-990-3309
Beach Express,6180 5th Avenue North,Saint Petersburg,FL,33710,727-347-4167
Klix Enterprises,45347 Carolina Street,Paisley,FL,32767,386-804-1050
Jambaree Express,849 West Dayton Circle,Fort Lauderdale,FL,33312,954-347-7507
Bowie Farms,4865 Persimmon Hollow Rd,Milton,FL,32583,850-791-2564
Bush Auto Transport,6719 Pridgen Street,Panama City,FL,32404,850-276-2713
Bryan Trucking Services,698 Se 1st Place,Hialeah,FL,33010,239-963-9092
Rj Sandom Carriers,344 Griffin Rd,Wauchula,FL,33873,863-773-0841
"Needcorp Truck Services, Inc.",Box 274145,Tampa,FL,33688,813-341-0505
1st Choice Auto,21089 Edgewater Drive,Port Charlotte,FL,33952,941-661-8373
M & W Transport,617 Se Pearl Fletcher Road,Branford,FL,32008,386-935-5384
D Rite Trucking,1591 South Lane Ave 47t,Jacksonville,FL,32210,904-781-8474
Russell Racing,2500 Pemberton Dr,Apopka,FL,32703,407-298-2853
George Bullman Trucking,2150 Figaro Lane,Jacksonville,FL,32210,904-783-0969
Slaters Light Hauling,2020 W 10th St,Lakeland,FL,33805,863-682-5567
Tsn Express,8611 Nw 72 St,Miami,FL,33166,305-219-5491
Vermilye Auto Transport,28272 Wharton Ave,Punta Gorda,FL,33982,941-627-5584
Rock N K Transport And Hauling LLC,303 Nw 11th Ave,Okeechobee,FL,34972,863-634-5173
Northstar Collateral Recovery,2140 Range Rd Suite D,Clearwater,FL,33765,727-442-1155
Lnp Trucking,11287 Sw 4 St,Miami,FL,33174,305-223-9284
Ma Transport,6101 Landrace Lane,Orlando,FL,32807,407-383-9264
"Conley Trucking, Inc.",215 Sw Armand Pl,Lake City,FL,32025,386-752-3780
"Westgate Trucking, Inc.",7495 Pine Lakes Blvd,Port St Lucie,FL,34952,561-201-3501
Leverette's Hauling,14400 Reese Dr,Lake Wales,FL,33898,863-696-1096
Waring Transport,2270 S Crystal Lake Drive,Lakeland,FL,33801,863-665-8344
Dmt,1930 Hamilton St,Quincy,FL,32351,863-885-1409
Total,425 Bay Point Way North,Jacksonville,FL,32259,904-465-0916
Bkg Transport,19055 Us 301 N,Starke,FL,32091,904-263-0649
Shelby Transportation,3044 Cypress Creek Dr,Ponte Vedra Beach,FL,32082,904-273-9073
U L C Express,3755 Nw 62nd Street,Miami,FL,33147,305-696-0015
Hubert S Yearwood,P O Box 595,Altoona,FL,32702,352-455-9327
Cj Transport,2455 W Roble Dr,Kissimmee,FL,34746,407-791-1379
Robbies Express Trucking,11310 Rockridge Rd,Lakeland,FL,33809,813-380-7863
"Stream Line Xpress, Inc.",11775 Sw 187 St,Miami,FL,33177,786-838-9118
Hasting Scrap Hauling,7811 Enon School Rd,Walnut Hill,FL,32568,850-327-6758
E & M Trucking,3702 Kitmore Place,Valrico,FL,33595,813-951-1833
H W Trucking,118 Mary Drive,Wewahitchka,FL,32465,850-638-3434
Lg Trucking,281 Porchester Drive,Sanford,FL,32771,912-996-0520
Tumbleweed Transport,33011 Windy Oak Street,Sorrento,FL,32776,352-455-4643
Two Men And A Truck,8808 N Palafox St,Pensacola,FL,32534,850-471-1166
"Ever Blue Carrier, Inc.",9840 Sw 20 Street,Miami,FL,33165,786-877-1990
T J Trucking,7607 Sumter Ct,Tampa,FL,33637,813-985-5622
G B Transport,15625 Nw Smith St,Altha,FL,32421,740-304-3948
Mj And Sons Trucking,907 N Wilson Ave,Bartow,FL,33830,813-495-7895
E-t-m Auto Trans,3700 W 6th Street,Hilliard,FL,32046,904-675-9015
Adelante Trucking,1548 Jacqueline Ln,Middleburg,FL,32068,904-291-8907
Jr Trucking,715 Victory Circle,Boynton Beach,FL,33436,561-215-4700
Leclair Transport,3434 W Pine Ridge Blvd,Beverly Hills,FL,34465,352-746-9894
Absolute Recovery Specialist,102 B N Main St,Bunnell,FL,32110,386-931-0615
Sasha Trucking,723 Hudson Valley Dr,Kissimmee,FL,34759,863-438-5421
Smith Tractor Services,1303 Timberidge Loop South,Lakeland,FL,33809,863-899-7068
C & B Trucking,8042 Country Run Parkway,Orlando,FL,32818,518-364-0787
Rob Smith Trucking,1528 N Daytona Ave,Flagler Beach,FL,32136,702-372-2070
Old Pro Transport,7130 Oakwind Dr,Orlando,FL,32818,407-880-5192
Sharon Smith Trucking,13325 Sw 43rd Ave Rd,Ocala,FL,34473,352-348-2487
Painted Oaks Transport,472 Manning Pl,Lake City,FL,32024,386-754-0905
Capitol Freight Forwarding,7854 Nw 2nd St,Miami,FL,33166,305-592-3590
St John Transport,7255 169 Drive,Live Oak,FL,32060,386-362-4182
R And T Trucking,1614 Nw Moore Rd,Lakecity,FL,32055,386-754-6885
North Am Trans,4201 Amber Ridge Lane,Valrico,FL,33594,813-407-8100
Sonic Xpress Trucking,3500 Polk Street Apt 6,Hollywood,FL,33021,954-961-5193
Branch Trucking,7119 Birchwood Rd,Grand Ridge,FL,32442,850-209-8092
First United Transportation Of Orlando,142 East Jackson Street,Orlando,FL,32801,407-849-6080
Lg Services,10578 Haverford Rd,Jacksonville,FL,32218,904-813-2016
Leavins Trucking,1499 Leavins Lane,Bonifay,FL,32425,850-956-4370
Cj Trucking,6927 Woodley Dr,Pensacola,FL,32503,850-476-4819
Mayor Auto Transport,13046 Island Breeze Court,Orlando,FL,32824,786-412-6523
Garcia Trucking,800 Sw 16th St Lot#1,Belle Glade,FL,33430,561-261-0791
D S Trucking,2489 Huron Circle,Kissimmee,FL,34746,407-935-0934
Lm Trucking,1110 Kushmer Street,Bell,FL,32619,352-463-7192
M Y Trucking,28477 Sentiel St,Nouleton,FL,34661,352-799-3215
A Broughton,2529 Longleaf Drive,Pensacola,FL,32526,850-261-6692
Flash Auto Transport,26008 Fishermans Road,Paisley,FL,32767,352-669-9093
First Choice Auto Transport,90 Dixie Drive,Crawfordville,FL,32327,850-263-1903
Butler Mobile Home Services,7170 Se 70th Street,Trenton,FL,32693,352-472-5931
National Express,15395 Roosevelt Blvd Suite D,Clearwater,FL,33760,800-340-8910
Fjz Transport,11332 River Knoll Dr,Jacksonville,FL,32225,904-477-6226
Eljo Express,15628 Sw 37th Circle,Ocala,FL,34473,631-383-6566
Saenz Transport,1219 Holly Springs Circle,Orlando,FL,32825,407-282-9115
"Freight Masters Trucking, Inc.",7375 Fairway Dr #211,Miami Lakes,FL,33014,305-822-7896
"Logical Logistics Transport, Inc.",2269 Ridgewood Circle,Royal Palm Beach,FL,33411,561-792-8747
Jm Transport,9014 W Flora St,Tampa,FL,33615,813-882-0078
L W Transport,11139 Nw 39 Street #302,Sunrise,FL,33351,954-882-6014
The Right Move,2748 Shadecrest Rd,Land O Lakes,FL,34639,813-929-9280
Stalnaker Clean Up Service,449 Clark Street,North Fort Myers,FL,33903,239-997-7764
Jimmmy Billings Trucking,1442 Paradise Lane,Cocoa,FL,32922,321-863-0127
"K I M Trucking, Inc.",4701 Nw 16 Court,Lauderhill,FL,33313,954-486-8145
Buffalo Freightways,2103 Lone Palm Drive,Wimauma,FL,33598,941-812-3540
Trinity Freight Services Tfs,6803 Krenson Oaks Circle,Lakeland,FL,33810,863-651-1072
Thrasher Trucking,22606 Nw Lake Mckenzie Blvd,Altha,FL,32421,850-762-2561
Church Trucking,1323 Burlwood Road,New Smyrna Beach,FL,32168,386-690-0070
Onuffer Flooring,1835 E Hallandale Beach Blvd Unit 205,Hallandale Beach,FL,33009,954-251-9721
S G Transportation Of Naples Florida,2461 24th Avenue Ne,Naples,FL,34120,239-253-3788
Hauling And Debris Removal,6600 Nw 27th Avenue Suite 18,Miami,FL,33147,305-693-4070
E & C Trucking,58 Price Lane,Palm Coast,FL,32164,386-986-4034
William R Maloy,38 Roosevelt St,Frostproof,FL,33843,863-528-7298
J Ramos Trucking,107 4 Ave,Zolfo Springs,FL,33890,863-735-1957
Neils Hauling Service,7915 Rideout Road,Tampa,FL,33619,813-237-3587
W&m Foster Trucking,903 Della Tobias Ave,Harlem,FL,33440,405-283-0698
Mora Transport,1751 Corolla Court,Deltona,FL,32738,386-717-1220
Jeff Tabb Trucking,21739 Wiygul Road,Umatilla,FL,32784,352-669-1943
Night Rider Transport,2278 Mauve Terrace,North Port,FL,34286,941-429-6040
South Sea Transport,265 E Main St,Pomona Park,FL,32181,386-937-0866
J M G Transport,7104 Wyndham Crest Blvd,Sanford,FL,32773,321-363-2152
Albert William Kinkade Trucking Services,1999 2nd Street,Englewood,FL,34223,941-475-1845
Sunshine State Auto Transport,19242 Edgewater Drive,Port Charlotte,FL,33948,941-276-1858
R & J Trucking,6642 Pelican Head Drive,Plant City,FL,33567,813-763-4639
E And I Duverna Trucking Co,5698 Grand Canyon Dr,Orlando,FL,32810,407-292-3399
Ksl Express,4820 Flint Rd,Windermere,FL,34786,916-275-3280
Rudys Trans,1255 W Holden Ave,Orlando,FL,32839,321-352-1707
"L & S Transport Of South Florida, Inc.",6677 Boston Drive,Lantana,FL,33462,561-707-6858
Balee Transport,606 West 81st Apt#129,Hialeah,FL,33014,786-295-7889
E T Trucking,8270 Paschal Street,Jacksonville,FL,32220,904-378-3884
Red Baron Trucking,12146 Stanley Drive,Fountain,FL,32438,850-722-7406
Rodriguez Trucking,7004 Hazelhurst Court,Tampa,FL,33615,813-403-6320
L B T,2701 Lemontree Lane,Orlando,FL,32839,407-408-5825
L B Transport,89 George M Road,Haines,FL,33844,863-422-8865
"Daves Trucking, Inc.",726 Cypress Street,Starke,FL,32091,904-964-3129
Breeze Trucking,2883 Ne Alexander Ave,Palm Bay,FL,32904,321-544-9196
Toure Family Trucking,3636 Harbor Blvd,Port Charlotte,FL,33952,941-815-2976
"Ra On Express, Inc.",9173 Hipps Road,Jacksonville,FL,32222,904-573-0675
O'donnell Transport Co,13395 Tracy Street,Spring Hill,FL,34609,352-263-2062
Rolls Trucking Co,84251 St Paul Blvd,Yulee,FL,32097,405-283-0698
U-back Truckin,16335 Forzando Ave,Brooksville,FL,34604,352-345-8147
J A P Trucking,1421 Dillon Ln,Immokalee,FL,34142,239-867-0472
God Loves You Trucking LLC,7600 Winegard Rd,Orlando,FL,32809,321-948-5240
Moon Light Express,575 6th St,Eagle Lake,FL,33839,863-412-1064
Wb Trucking,3690 Attapulgus Hwy,Quincy,FL,32352,850-627-2531
Riquelme Enterprises,270 Nw 107th Avenue Apt202,Miami,FL,33172,305-559-9398
Pusey Transport,5010 Smokerise Trail #103,Lakeland,FL,33805,908-494-3166
Waynes Diversified Services,1436 Stone Trail,Deltona,FL,32725,407-330-7597
Barrett Trucking,331 Sw Turner Place,Lake City,FL,32025,386-365-0804
Challenger Transportation,567 Tivoli Trace Circle - # 202,Deerfield Beach,FL,33441,561-750-0673
Wolf Enterprises,6727 52terr,Live Oak,FL,32060,386-362-7504
J & W Amusements,8270 Richmond St,Gibsonton,FL,33534,863-940-5590
Big Boyz Transport,617 Orange Street,Welaka,FL,32193,386-467-1954
Boricua Trucking,1308 Dunsany Ave,Orlando,FL,32806,407-616-6591
"Jmjm Transport, Inc.",705 Mink Ct,Kissimmee,FL,34759,321-231-5290
"Bizi Transport, Inc.",11812 106 Court N,Seminole,FL,33778,305-792-4030
Shultz Trucking,701 N Gordon Street,Plant City,FL,33563,813-752-7029
Jmtl,6371 Collins Rd 408,Jacksonville,FL,32244,904-778-9191
Lti,4121 Sw 34th Street,Orlando,FL,32811,407-999-2225
"Southeastern Communication Service, Inc.",2017 Cattlemen Road,Sarasota,FL,34232,941-378-0080
G R Transport,716 Kingswood Loop,Brandon,FL,33511,813-477-1245
Alba Transport,1318 Brookgreen Way,Orange Park,FL,32003,904-525-2026
Mannys General Distribution Corp,9502 W Hamilton Ave,Tampa,FL,33615,813-416-4102
Foodnet Transport,4700 San Jose Manor Dr,Jacksonville,FL,32217,904-443-7110
Holt Logistics,7190 Sun Lane,Jacksonville,FL,32222,904-237-4806
S & S Trucking,330 Keown Ave,Pamona Park,FL,32181,386-649-9239
Fdm Car Carrier,549 Sw 17 Terr,Homestead,FL,33030,786-243-4387
Aot,13260 Nw 7th Street,Miami,FL,33182,305-223-6887
Sunshine Auto Relocators,8070 Nw 96th Terrace Suite 107,Tamarac,FL,33321,954-461-0713
Cha Trucking,1751 Sw 8th Street,Pompano Beach,FL,33069,954-785-3076
5 C's Transportation,107 Brett St,Davenport,FL,33837,863-852-7096
Pnc Express,1110 Hammock Pine Blvd,Clearwater,FL,33761,347-538-9375
Johnson Trucking,4471 Melissa Ct W,Jacksonville,FL,32210,904-683-6113
J A Vanzile Transport,5689 Sw Cr 232,Bell,FL,32619,580-465-9321
Larry B Head Trucking,2032 Little John Rd,Melbourne,FL,32935,321-752-6347
New Wave Investment Transport,6208 N Clark Avenue,Tampa,FL,33614,813-857-6612
Porter & Sons Trucking,37103 Ave L,Fort Pierce,FL,34947,772-332-9344
Miguel Gonzalez Trucking,15555 Ne 5th Ave,Miami,FL,33162,305-970-5445
Kevin Burke Trucking,8845 North Us 301,Wildwood,FL,34785,352-303-4554
Wolfpack Transportation,7261 Nw 115th Street,Chiefland,FL,32626,352-266-3421
Gary W Pollard Auto Sales & Svc,11225 Old Dixie Hwy,Sebastian,FL,32958,772-913-4697
Jw's Express,1451 1/2 Old Bell Glade Road,Pahokee,FL,33476,561-262-4394
New Pace Express,15651 Ne 15th Avenue,North Miami,FL,33162,786-412-7327
S And W Hauling,7831 Steel Mill Creek Rd,Laurel Hill,FL,32567,850-652-3039
Bonnie & Sons Trucking,10701 Se 187th Terrace,Moss Bluff,FL,32179,863-667-0795
Heavens Destination Transport,3883 Se 46th Pla,Ocala,FL,34480,352-497-0483
Lolo's Express,3205 Victoria Drive,Kissimmee,FL,34746,321-231-4977
American Yacht Transport,2300 Ne 16th Street,Pompano Beach,FL,33062,954-784-7833
Kwk Express,308 Summer Sails Dr,Valrico,FL,33594,813-643-7635
Suncoast Movers,2762 Nancy Street,Sarasota,FL,34237,941-366-7723
Five Grimes Trucking,19596 Noah Raulerson Rd,Sanderson,FL,32087,904-259-4388
Mason Trucking,449 Mat Lo Ave,Sebring,FL,33870,863-381-7240
Victory Usa,13014 N Dale Mabry - Apt 294,Tampa,FL,33618,702-349-0821
Jmb Trucking,2775 Hwy 98 E,Fort Meade,FL,33841,863-285-7485
Mad Trucking,720 Se Seahouse Drive,Port St Lucie,FL,34983,772-344-9334
"Journey's End Transport, Inc.",23781 Us Hwy 27,Lake Wales,FL,33853,863-678-9990
A And J Transport,3640 Hwy 390 Apt 3,Panama City,FL,32404,850-257-8103
Transilvania Trucking,609 Ne 14th Avenue,Hallandale,FL,33008,954-394-3993
Oneill Transport,140 Lake Smart Drive,Winter Haven,FL,33881,609-703-2321
"Dnl Logistics, Inc.",7541 Nw 11th Pl,Plantation,FL,33313,954-689-7794
S & S Trucking,901 Eden Dr,St Cloud,FL,34771,407-891-7517
A To Be Transport,10740 Zigler Avenue,Hastings,FL,32145,386-325-5367
Roadway Worker Services,3202 Sawgrass Village Circle,Ponte Vedra Beach,FL,32082,904-273-8121
Owlhead Transport,2489 Crowley Terrace,Deltona,FL,32738,321-262-6318
Montecelo Trucking,5769 Nw 7th Street #273,Miami,FL,33126,561-792-7241
Transand,4620 G W Drive,Crestview,FL,32539,850-689-3840
Tazz Transport,13817 Sw 154th Street,Miami,FL,33177,305-479-0797
Rick & Mark Trucking,8108 Sparrow Drive,Orlando,FL,32825,407-925-6025
Lanham's Dump Truck Service,2200 Old Moody Blvd Lot 147a,Bunnell,FL,32110,304-741-2512
Aurora Transportation Services,5300 Washington St Bldg I 208,Hollywood,FL,33021,954-668-1263
"Fitzroy Haughton Trucking, Inc.",11902 Sw 196 Terrace,Miami,FL,33177,305-246-8655
A G Trucking,424 Wright Drive,Lake Worth,FL,33461,561-533-7874
Jerrard Trucking,1762 36th St,Sarasota,FL,34234,941-812-8732
Benito Quintanilla Trucking,687 Platt Rd,Naples,FL,34120,239-253-1499
Truckex Frieght,13025 Nw 16 Ave,Miami,FL,33167,305-610-8187
Carribean Trucking,6206 Brandon Circle,Riverview,FL,33578,813-505-0735
Davis Trucking,448 S Cleveland St,Quincy,FL,32351,850-556-1634
Tremblay Transport,13490 Old Fanning Rd,Chiefland,FL,32626,352-493-2937
"Golden Street - Ink, Inc.orporated",2251 Nw 34th Avenue,Lauderdale Lakes,FL,33311,954-735-9158
All About Racking Company,622 Snively Ave,Winter Haven,FL,33880,863-287-0669
Ashworth Trucking,3540 Lewis Road,Milton,FL,32570,850-675-1440
"Jetline Trucking, Inc.",7440 Nw 51 Street,Lauderhill,FL,33319,954-572-0007
B Cummings,9899 191 Road,Live Oak,FL,32060,386-590-1883
Kelly Trucking,12450 Ne 91st Court,Archer,FL,32618,325-486-4617
J And O Express,511 Apricot Drive,Ocoee,FL,34761,407-234-5948
F & G Transport,14601 Nw 185th Street Lot 58,Miami,FL,33018,786-229-1539
J & A Transport,2407 S 68th St,Tampa,FL,33619,813-630-2470
Daytona Express,1279 Bolton Road,New Smyrna Beach,FL,32168,386-426-8490
Endeavor Bus Lines,7915 Nw 5th Court,Miami,FL,33150,305-751-0529
Sabko's Delivery Service,3118 Crosby Ln,Jacksonville,FL,32216,904-588-4782
Levi Express,40 East Laurel Oak Drive,Eustis,FL,32726,352-455-4312
Ortez Trucking Corp,566 Se 4th Street,Belle Glade,FL,33430,561-992-7802
Autos Unlimited,6050 Anne Avenue,Cocoa,FL,32927,N/A
Lakos Express,13386 Sunset Lakes Circle,Winter Garden,FL,34787,407-925-2978
Mead Trucking,3170 Cecelia Drive,Apopka,FL,32703,321-277-8069
Es Express,5103 River Edge Lane,Leesburg,FL,34748,954-914-0154
Tampa Tank Lines,5024 20th Avenue South,Tampa,FL,33619,813-248-5999
Dixc Trucking LLC,2330 W Cavalier Road,Avon Park,FL,33825,863-452-2460
Izguierdo Trucking,6923 N Himes Ave,Tampa,FL,33614,813-932-7518
Southwest Mobile Marine Service,21544 Ne 147th Terrace,Fort Mccoy,FL,32134,352-546-2540
Heger Transport,4604 Turner Rd,Mulberry,FL,33860,863-943-0245
Tonelli Hauling,7085 Via Mediterrania,Boca Raton,FL,33433,561-756-0420
Dundee's Express,12695 Shims Rd,Jacksonville,FL,32226,904-753-7194
Jlf Transport,6401 Camellia Garden Dr #201,Orlando,FL,32822,N/A
Onelio Olivera Trucking,744 Palaiseau Court,Kissimmee,FL,34759,407-931-3813
Stewart Trucking,3079 Merle Langford Road,Zolfo Springs,FL,33890,863-735-0236
"Jimmy Sepulveda, Inc.",15626 Kensington Trail,Clermont,FL,34711,321-287-4490
Interstate Boat Transit,116003 Overseas Highway Site E-21,Key Largo,FL,33037,305-731-9804
Belais Trucking Co,5691 Tulip Ave,Orlando,FL,32839,407-467-0440
Sundown Express,755 Sw 132 Terrace,Ocala,FL,34473,352-266-0817
K & D Trucking,1836 Hwy 90,Chipley,FL,32428,850-415-1608
Diverse Transport Systems,1950 Industrial Park Rd,Mulberry,FL,33860,863-425-4251
E&a Trucking,1920 Stable Dr Apt#203,Orlando,FL,32837,407-855-4955
Nowlin Enterprises,5851 Fairground Rd,Molino,FL,32577,850-232-8750
Crowther Trucking,3157 Hwy 73 N,Marianna,FL,32446,850-526-5828
Weebe Trucking,1256 Grant Blvd,Lehigh Acres,FL,33936,239-850-9133
C Wright Transport,20161 Nw 14th Avenue,Miami,FL,33169,954-200-2220
J & L Trucking,8285 Breeze Drive,North Fort Myers,FL,33917,239-872-4711
Am Deliver,521 Winding Oak Lane,Longwood,FL,32750,407-260-6416
First Source Medical Services,9395 Fairgrounds Road,West Palm Beach,FL,33411,561-204-4396
Willies Complete Trucking,603 Lincoln Ave,Lehigh Acres,FL,33972,239-340-8923
"Randall Mccrackin Trucking, Inc.",1998 Meander Circle,Cantonment,FL,32533,850-937-6539
A&c Trucking,1200 North Davis Ave Lot 16,Lakeland,FL,33805,863-686-0449
Mcm Trucking,640 Pecan Street,Chipley,FL,32428,850-638-5306
Pedro & Dee Trucking,7606 Silver Crown Court,Orlando,FL,32818,407-201-7275
"Joshua Transport, Inc.",4677 Lori Christine St,Haines City,FL,33844,361-676-7614
Jc Trucking,1206 Creekside Drive,Lake Wales,FL,33859,863-259-8756
Antique Restoration Sales And Services,709 Omar Rd,West Palm Beach,FL,33405,561-820-8857
Du-rite Trucking,402 Regal Park Dr,Valrico,FL,33594,313-717-0275
Paul M Moffett,1012 N 77th Avenue,Pensacola,FL,32506,850-458-3952
J L Trucking,10460 Nw 134th St,Hialeah Gardens,FL,33018,305-828-4455
Slowly Trucking,2311 Everglades Drive,Miramar,FL,33023,954-260-3186
Todd A Poormon Trucking,606 3rd Street,Holly Hill,FL,32117,386-589-3168
Brisa Express,614 Tylor Terrace,Immokalee,FL,34143,239-657-5641
Gordons Transportation,2214 Soundings Court,Greenacres,FL,33413,561-319-5680
Phillips Environmental Services,5218 126th Avenue North,Clearwater,FL,33760,727-556-0700
"Rt Transport, Inc.",1101 Monroe St,Immokalee,FL,34142,239-986-0568
H C Transport,136 Coral Reef Circle,Kissimmee,FL,34743,407-791-3433
Modern Display & Decorating Service,2202 N 38th Street,Tampa,FL,33605,813-223-9538
Affordable Movers,13517 Citrus Way,Brooksville,FL,34601,352-279-0975
Planet Blue Environmental Services,10705 Lake Hill Dr,Clermont,FL,34711,352-243-4623
Rad Trucking,3624 Family Avenue,Bunnell,FL,32110,386-437-3247
Dc Trucking,215 Ne 8th Pl,Cape Coral,FL,33909,239-242-0011
R & S Transport,4011 Albritton Rd,St Cloud,FL,34772,407-892-0105
Triumphant Trucking,4200 Sw 89th Ave,Ocala,FL,34481,352-861-8784
Lbj Produce,2933 E Hillsborough Ave,Tampa,FL,33610,813-238-2000
Manatee River Transporation,5150 Cr 675,Myakka City,FL,34251,941-322-1161
B & C Express,4504 Sw 170th Street Rd,Ocala,FL,34473,561-756-0095
Translux Usa,1920 Reed Hill Drive,Windermere,FL,34786,877-872-6799
Equipment Service And Sales,900 Sw Koonville Ave,Lake City,FL,32024,386-438-4288
Moving Out,2648 Ne 188th St,Aventura,FL,33180,305-932-4886
The Panther Group,8421 Nw 70 St,Miami,FL,33166,305-471-0993
Trinity Truck Lines,12507 Greenland Dr,Riverview,FL,33579,813-624-3408
Mc Trucking,1103 S Florida Ave,Avon Park,FL,33825,863-452-1964
Phils Truck Service,796 Sw Woodcreek Drive,Palm City,FL,34990,772-713-5916
Calumar Transport,2738 Sw 131 Pl,Miami,FL,33175,305-815-0443
Arroyos Trucking,6428 Black Dairy Rd,Seffner,FL,33584,813-627-9281
Musgrove Transport,5207 Carter Spencer Rd,Middleburg,FL,32068,904-282-7093
Roberts Trucking,5404 16th Ave South,Tampa,FL,33619,813-205-7951
C-cal Trucking,994 Whisper Lake Drive,Winter Haven,FL,33880,863-299-8624
L&w Transport,9604 Woodland Avenue,Jacksonville,FL,32208,904-683-0234
"Jason Watson Bobcat & Grading Service, Inc.",4743 Justice Lane,Lake Wales,FL,33859,863-678-9561
Able 1 Express,230 Vintage Circle,Naples,FL,34119,908-670-8603
First Usa Trucking,1835 East Hallandale Blvd #520,Hallandale Beach,FL,33009,305-444-6700
"Addison Transport Systems, Inc.",625 W Bridgers Ave,Auburndale,FL,33823,863-967-4500
Moore Trucking,16896 Hwy 129 S,Mcalpin,FL,32062,386-362-1687
Maw Trucking,11669 Jacob Lois Court,Jacksonville,FL,32218,904-307-0622
English Brothers Express Trucking,825 W Hope Drive,Pensacola,FL,32534,850-438-3657
Precise Transportation Services,1900 W New Hampshire,Orlando,FL,32804,407-447-7805
Maya Moving Express,12806 Forestedge Circle,Orlando,FL,32828,718-986-2802
G M L Trucking Company,2125 Sw 44th St,Cape Coral,FL,33914,239-542-0746
Mt Ogie Trucking,1602 Robin Lane,Brandon,FL,33510,813-657-9184
Tour Transport,222 Lafayette Circle,Tallahassee,FL,32303,850-933-5959
Dominguez Trucking,41001 Pershing Pt Pl,Orlando,FL,32822,407-229-9020
Thunderstruck Trucking,3374 Sw 20th Street,Okeechobee,FL,34974,863-634-2153
M F Construction Services,1511 Sakura Drive,Valrico,FL,33594,813-235-3405
Hillis Trucking,4102 Central Sarasota Parkway #926,Sarasota,FL,34238,734-777-7194
Junk Cars Carrier,13065 Cairo Lane,Miami,FL,33055,305-687-8010
D T M Transport,11558 Us Hwy 92 East Suite 104,Seffner,FL,33584,813-246-9095
Whl Trucking,56 Bream St,Winter Haven,FL,33881,863-956-0202
A & R Discount Moving,6325 Presidential Ct Suite 1b,Fort Myers,FL,33919,239-337-2244
Fagans Trucking,5782 Ithaca Circle E,Lake Worth,FL,33463,561-307-3136
Mc Southern Logistics,2730 Sw 64th Ave,Maimi,FL,33155,305-818-8969
Double G Transport,807 Park Place,Panama City,FL,32405,850-319-2000
R M Webster Transport,39453 9th Ave,Zephyrhills,FL,33542,813-788-4827
Roadrunner Trucking,13085 Se 101 Ave,Belleview,FL,34420,352-288-2298
Jax Express,3544 Mecca St,Jacksonville,FL,32209,904-445-8397
Total Transport Service,2311 W Henry Ave,Tampa,FL,33603,813-348-0350
C & W Trucking,4937 Broadway Ave,Tampa,FL,33605,251-809-6144
All-around Creative Trucking,861 Roseland Rd,Sebastian,FL,32958,772-388-5269
Broken H Trucking,2127 Buck Treadwell Road,Bonifay,FL,32425,850-547-4294
Mg Transport,4714 Walnut Cirlces,Lakeland,FL,33810,863-815-5588
Padgett's Trucking,6505 Sw 92nd Drive,Jasper,FL,32052,386-792-0797
Cesar Alcazar,13460 Sw 111 Lane,Dunnellon,FL,34432,352-489-3654
S&h Transport,7420 Ashwood Dr,Port Richie,FL,34668,727-868-7203
Gates Trucking,1200 E Ray St,Hernando,FL,34442,352-344-2295
Wenday Transport,8770 Fort Jefferson Blvd,Orlando,FL,32822,407-677-8606
J & P Trucking,6563 Lenczyk Dr,Jacksonville,FL,32277,904-744-0873
Rti,7124 Sw 135 Ct,Miami,FL,33183,305-219-8678
Peraza Transport,5610 Jenning Rd,Haines City,FL,33844,863-438-0447
Pure Drive Logistics,7917 Alhambra Vlvd,Miramar,FL,33023,954-987-9104
J&w Trucking,102 Elm Avenue,Havana,FL,32333,850-539-8712
Gerald Ayers Trucking,5187 266th Street,Branford,FL,32008,386-935-2113
Sun City Trucking,12187-8 Beach Blvd,Jacksonville,FL,32246,904-641-6929
"Executive Trucking, Inc.orporated",11480 Nw 45th Street,Coral Springs,FL,33065,954-445-3580
Lopez Trucking,367 Eason Dr,Wauchula,FL,33873,863-773-3929
D C Trucking,17440 Nw 19 Ave,Opa Locka,FL,33056,305-628-0677
Cms Trucking,3857 S Lake Dr Apt 159,Tampa,FL,33614,813-363-6643
"Affordable Professional Services Logistics, Inc.",8450 North Sherman Circle - E206,Miramar,FL,33025,954-436-4613
Williams Trucking,155marin Dr,Panama City,FL,32405,850-814-1559
Southern Express Carriers,9074 North West 144 Terrace,Miami Lakes,FL,33018,305-512-7926
"Jackie Trucking, Inc.",142 Nchaucer Ln,Lake Mary,FL,32746,407-688-6583
V & J Liggins Transportation,16230 67 Ct N,Loxahatchee,FL,33470,561-784-8075
Circle S Horse Transport,4660 Nw 120th St,Reddick,FL,32686,352-425-5912
Beaver Dump Truck Services,1734 Helvenston Street,Live Oak,FL,32064,386-362-0957
Big D Hauling,Saddle Lane Rd Sw,More Haven,FL,33471,863-946-0518
Grubbs Trucking,7652 Jana Lane,Jacksonville,FL,32210,904-424-0366
Southern Exposure Transportation,Rt 3 Box 346l,Lakebutler,FL,32054,386-754-4654
"P & I Hauling Express, Inc.",10970 Sw 47th St,Miami,FL,33165,786-223-3901
Kp Transport,7210 N Manhattan Ave Unit2122,Tampa,FL,33614,203-954-9392
G P Express,11310 Rockridge Road,Lakeland,FL,33809,917-939-2139
Pedro Coro,2628 Sw 26 Terr,Cape Coral,FL,33914,239-549-5068
Ewg Trucking,7102 Shoupe Rd,Plant City,FL,33565,813-752-1560
"Movers Express, Inc.",2747 Treasury Circle,Jacksonville,FL,32246,904-708-0990
Ocean Eleven Transport,1202 Arrowsmith Ave,Orlando,FL,32809,407-509-0976
J & L Auto Transport,1431 Clarks Summit Ct,Orlando,FL,32828,321-436-3130
A & D Coast To Coast Relocation Services,10626 Spring Lake Dr,Clermont,FL,34711,352-387-1010
Barrett Moving & Storage,815 South Main Street,Jacksonville,FL,32207,847-662-7699
Mgs & Son Trucking,2396 Andrews Valley Drive,Kissimmee,FL,34758,401-255-8591
Ers Transport,6547 N W 26th Trail,Jennings,FL,32053,386-938-5283
Jackson Trucking,164 Walpole Loop,Davenport,FL,33897,863-585-4539
A T S,2047 West Road,Jacksonville,FL,32216,904-725-7396
Armes Trucking Co,3510 W Roundtree,Cocoa,FL,32926,321-403-3887
Sa Transport,11326 Monument Landing Blv,Jacksonville,FL,32225,904-997-9020
Sky International Parcel,2007 Nw 84th Ave,Miami,FL,33122,305-994-8111
Alan Express,151 Sw Andover Court,Port St Lucy,FL,34953,305-971-3710
Cd Hyde Trucking,2899 County Road 415,Lake Panasoffkee,FL,33538,352-569-4282
Mlr Trucking,204 Tifton Avenue,Pensacola,FL,32507,850-393-4840
R J Trucking,6877 Florida Street,Grand Ridge,FL,32442,850-447-0706
Rex Trucking,23400 State Road 60 East,Lake Wales,FL,33898,863-692-1492
Adorno Transport,2271 Olson Road,Haines City,FL,33844,863-557-1422
Swampland Shed Transport,3912 N E Swisher Ave,Arcadia,FL,34266,863-491-0228
S N L Express,43 Sharon Court,Defuniak Springs,FL,32433,850-892-2037
K & L Transport,715 W Mcleod Street,Bartow,FL,33830,863-534-3281
Duane Brown Dirt Hauling,108 Tangerine Ave,Pomona Park,FL,32181,386-559-0354
Ramoutar Harrichandra,3013 Silver Wood Dr,Kissimmee,FL,34741,407-932-3558
L 7 Express,1122 Woodruff Ave Apt 6,Jacksonville,FL,32205,904-379-5615
Autocarr Com,7355 Nw 5th Place Unit 208,Margate,FL,33063,954-763-3979
D & D Trucking,242 West 19 Street,Hialeah,FL,33010,305-805-3539
Citrus Usa,1203 Palm Walk Lane,Fort Pierce,FL,34950,772-332-8087
Paige Trucking,12349 Cadley Circle,Jacksonville,FL,32219,904-219-9904
Kanger Transport Unlimited,201 Rosewalk Lane,Georgetown,FL,32139,386-937-3621
Chun Trucking,1996 Hollington Drive,Jacksonville,FL,32246,904-514-8533
Washington Brothers Movers,6801 E North Bay St,Tampa,FL,33610,813-389-7006
American Best Group,225 E Dania Beach Blvd Suite 211,Denia Beach,FL,33004,954-239-2279
Alaniz & Sons Transport,416 40th St East,Palmetto,FL,34221,941-773-4845
"Bct Trucking, Inc.",910 28th St,West Palm Beach,FL,33407,561-863-6550
R & B Trucking,232 Ne Bradley Terr,Lake City,FL,32055,386-623-1771
C A J Trucking,9980 West Elm Lane,Miramar,FL,33025,954-433-5146
Croney's Freight Lines,7031 Via Leonardo Blvd,Lake Worth,FL,33476,561-963-7601
Wayne Overby,23083 39th Dr,Lake City,FL,32024,386-935-2152
Clarks Transport,1610 Elmhurst Road,Pensacola,FL,32505,850-637-4080
Jasons Transport,11001 Sw 143 Ct,Miami,FL,33186,305-389-9464
American Eagle Movers,2570 N Powerline Rd Suite 504,Pompano Beach,FL,33069,954-571-7821
James Bettis Trucking Co,3600 Fox Ridge Blvd,Zephryhills,FL,33543,813-779-4258
S M Trucking,18002 Richmond Pl Apt 624,Tampa,FL,33647,386-676-5137
"West Land Trucking, Inc.",1355 West 53 Street #322,Hialeah,FL,33012,305-821-4283
R-jar Trucking Co,29250 Us Highway 19 N Lot 409,Clearwater,FL,33761,727-233-3368
Pro Auto Transport,503 St Augustine Avenue,Davenport,FL,33897,407-780-9242
Kerr Tranz,4039 Nw Blitchton Rd,Ocala,FL,34482,517-262-1864
C & D Transportation & Moving,7900 Nw 68th Ave,Tamarac,FL,33321,954-805-8214
Coast Marine Transportation,5243 Rocky Creek Road,Marianna,FL,32448,850-526-9972
Nightowl Express LLC,1707 North Retreat Drive,Inverness,FL,34450,352-637-3854
Na,711 Underwood Ave Apt 606e,Pensacola,FL,32504,850-484-3292
Trail Ridge Land Management Services,13296 Southwest County Road 231,Brooker,FL,32622,352-485-1530
Lcf Transport,525 Concord St,Orlando,FL,32818,321-303-6005
F A P Trucking,7550 Stirling Road Apt 103a,Hollywood,FL,33024,954-517-1289
Eddy Alonso Trucking,231 Sw Duval Ave,Port St Lucie,FL,34983,772-343-9061
M I Priority Transport,2714 Beacon Ct,Navarre,FL,32566,850-830-1567
Wilkys Auto Transport,3697 East Sandpiper Dr Appt6,Boynton Beech,FL,33436,561-734-0336
"Mars Marine Transport, Inc.",721 Waterbridge Drive,Winter Haven,FL,33880,863-291-6455
Adp Transport,14100 Sw 256 St Unit#3,Miami,FL,33032,305-257-0001
"Triple J Trucking Of North Florida, Inc.",1988 Duke Lane,Caryville,FL,32427,850-535-0671
R F S Transportation,1208 W Newport Center Dr,Deerfield Beach,FL,33442,954-480-6320
B Blue Trucking,1838 Nw 58th Avenue,Lauderhill,FL,33313,954-485-1047
J T Trucking,9431 Madison Ave,Jacksonville,FL,32208,904-576-5124
L & L Trucking,584 Sw Columbus Dr,Port St Lucie,FL,34953,772-336-5019
"Delong And Sons Trucking, Inc.",150 Triplett Road,Crawfordville,FL,32327,850-925-0332
H & D Trucking,4861 Spruce Creek,Port Orange,FL,32127,386-756-6892
A Martin Transportation,4081 8th Ave Se,Naples,FL,34117,239-455-6732
Good To Go Express,6109 Centennial Dr,Orlando,FL,32808,407-578-0757
"Money Move Me, Inc.",214 Se 26th Ave,Boynton Beach,FL,33435,561-577-7976
Brady Trucking,Doublerunroad,Lake City,FL,32055,386-752-2800
Pool Trucking,3361 Hwy 602,Laurel Hill,FL,32567,850-652-3283
P & R Trucking,35 Pine Inthe Wood,Port Orange,FL,32129,301-988-4403
Spence Transportation,322 Eutau Court,Indian Harbour Beach,FL,32937,321-779-9330
C W Transport,8375 Yorke Road,Wellington,FL,33414,561-704-0934
Fast Moves,6705 Camden Bay,Tampa,FL,33635,813-855-2928
Street Beasts,240 Ne 72 Street,Miami,FL,33138,888-888-6645
Wilson Trucking,14739 160th St,Mcalpin,FL,32062,386-647-5282
Absolute Yacht Transport,950 Moody Rd # 134,North Fort Myers,FL,33903,239-567-0666
J & J Carriers,741 Nw 45 Ave # 18,Miami,FL,33126,786-357-0213
Frenock Trucking,19947 Nw 245th Terrace,High Springs,FL,32643,800-314-7071
Rmb Carriers,5338 Nw Lanett Circle,Port St Lucie,FL,34986,772-344-7109
Na,3036 38th Street,Orlando,FL,32839,407-426-6839
"C&m Transportation, Inc.",4114 Wolfe Dr,Macclenny,FL,32063,904-259-9151
Simmons Livestock Transportation,4550 Cemetery Rd,Mt Dora,FL,32757,352-551-8422
C H Dinkins Trucking,9895 Se 177th Ct,White Springs,FL,32096,904-349-0737
Enterprice Carlos Perez,9921 W Okeechobee Rd Apt 129a,Hialeah Gardens,FL,33016,786-419-0018
Auto Cinema,1130 Celebration Blvd,Celebration,FL,34747,863-738-6313
Little Man Enterprises,107 Ashville St,Apopka,FL,32712,407-886-3387
Manny's Transport,18167 Nw 61 Place,Miami,FL,33015,305-726-7410
Ccr Logistics Corp,7865 Lake Mabel Loop Rd,Lake Wales,FL,33898,863-949-4067
Ivtami Intermodal Freight,15160 Sw 136th Street Suite #20,Miami,FL,33196,305-253-0050
Eng Sok Trucking,239 Summer Loop Place,Clermont,FL,34714,781-389-5495
East Coast Express Lines,1808 Nw 8th Place,Cape Coral,FL,33993,239-772-4130
P & G Logistics,1025 Frost Lane,Deltona,FL,32725,386-860-5904
Tim Davis Transport And Hot Shot,508 Ives Place,Pensacola,FL,32514,850-479-2331
Marimak Trucking,6700 Nw 36 Avenue,Miami,FL,33147,305-790-9846
Floridas Moving & Storage,28741 South Cargo Court Unit 1,Bonita Springs,FL,34135,239-948-4550
Triple J Trucking,230 Lloyd St,Lee,FL,32059,850-971-7226
French Trucking,1045 Goldenrod Road Apt#d,Wellington,FL,33414,561-792-1476
S&h Trucking,418 George Mosley Rd,Maxville,FL,32234,904-289-7412
Sosa Trucking,4780 Sw 138th Lane,Ocala,FL,34473,352-454-5551
Trowell Transport,6808 Nw 290th Street,High Springs,FL,32643,352-332-6443
"Cayente Produce & Citrus Hauling, Inc.",617 Eden Field Way,Immokalee,FL,34142,239-340-6875
Carovoya,12024 Villianova Dr,Orlando,FL,32837,407-694-2999
Brown Transportation,302 N 12th Street,Fort Pierce,FL,34950,772-359-1186
Emerald Coast Carriers,2740 Jarada Ave,Pensacola,FL,32526,850-944-5873
Navarro Trucking,703 Madison Ave,Immokalee,FL,34142,863-673-3233
Bill Joule Marine Transport,5300 Us Hwy 41 N,Palmetto,FL,34221,941-723-1326
Reel Fish And Seafood Company,3355 Copter Road Suite 4,Pensacola,FL,32514,850-494-1454
R & C Auto Transport,5844 Friendly Avenue,New Port Richey,FL,34652,727-243-6459
Med Transport,4345 Peanut Rd,Cottondale,FL,32431,850-263-1040
Craters & Freighters,6103 Jet Port Industrial,Tampa,FL,33634,813-889-9008
A Hh Trucking,301 Price Ave,Immokalee,FL,34142,239-657-3088
Mcs Auto Carriers,1921 Sw 13th Ave,Miami,FL,33145,305-859-7659
Woody's Transportation,11100 Nw 160th St,Reddick,FL,32686,352-591-1627
La Trucking,1707 6 Ave East,Bradenton,FL,34208,941-345-7489
"D W Rustman Trucking, Inc.",15826 Sadora Ct,Spring Hill,FL,34610,727-856-7078
Lab Transport,13609 Red Birch Place,Tampa,FL,33625,813-598-7657
Cubacar Auto Transport,2831 44 Terra Sw,Naples,FL,34116,305-970-8769
Jonmar Transport,3000 Jonmar Court,Geneva,FL,32732,407-392-3014
Spi Trucking,4315 Church Avenue,Bowling Green,FL,33834,863-269-6125
Jones Transportation,12 Peppermint Ave,Middleburg,FL,32068,904-291-2173
Robert E Lee Trucking,1322 Sw Dairy Street,Lake City,FL,32024,386-758-6975
Donald Pederzani Trucking,2250 Georgia Ave,Titusville,FL,32796,321-385-0744
Estica Trucking,5500 Haver Fordway,Lakeworth,FL,33463,561-304-3076
"J And B Transport, Inc.",5295 S E 15th Ctr,Ocala,FL,34480,407-922-7928
Nts,1683 E Breezy Ln,West Palm Beach,FL,33417,305-505-3639
Gissendanner Trucking,18910nw18ct,Miami,FL,33056,305-628-1309
Wess Bethea Transport,3041 South Century Blvd,Mcdavid,FL,32568,850-256-0757
P & H Trucking,302 N Fondulac Road,Avon Park,FL,33825,863-452-5835
Tradewinds Transport,5022 Sylvan Oaks Dr,Valrico,FL,33596,813-643-2826
Yoni Trucking,3717 Kessler St,Fort Myers,FL,33905,239-878-3528
Alexander Transportation,10201 Sw 9th Lane,Pembroke Pines,FL,33025,954-392-5548
"Eldorado Omega, Inc.",11272 Avery Drive,Jacksonville,FL,32218,904-616-7364
A R Truck Lines,1971 Knottingham Trace Lane,Jacksonville,FL,32246,904-652-4761
Reyes Trucking,14364 Island Cove Drive,Orlando,FL,32824,321-299-5648
Bingham Trucking,786 Sw Bozeman Ct,Lake City,FL,32024,386-719-9482
"Vsb Trucking, Inc.",5878 Ansley Way,Mount Dora,FL,32757,352-385-5067
M F Y Transport,1600 County Road 722,Webster,FL,33597,352-793-5717
Metropolis Services,4409 Hoffner Ave #158,Orlando,FL,32812,407-462-8291
38 Trucking,4751 Nw 120th Drive,Coral Springs,FL,33076,561-929-2410
Aaa All 48 Transportation Company,2809 Chickamauga Avenue,West Palm Beach,FL,33409,561-713-0304
Mac's Moving,4350 Vienna St,Spring Hill,FL,34609,352-684-7172
Tony's Transport,4810 Peppergrass St,Middleburg,FL,32068,904-622-8519
Gold Nugget Trucking,708 Cape Coral Pkwy West,Cape Coral,FL,33914,409-433-0039
Jordan's Produce Delivery,10015 Southglen Drive,Clermont,FL,34711,352-408-8427
Beckham Trucking,6007 Moncrief Road W,Jacksonville,FL,32219,904-764-7342
Sebastian Transport,Bay Meadows Circle E.. #401,Jacksonville,FL,32256,904-513-1531
Bbs Trucking,3052 Cumler Ct,Orlando,FL,32811,407-425-0749
Precise Cargo,209 North Moss Rd Suite 207,Winter Springs,FL,32708,407-327-8018
King Trucking,2965 Ne 64th Ave,Naples,FL,34420,786-286-1731
Jca Trucking LLC,2917 E Michigan Street,Orlando,FL,32806,407-895-0243
Nick Of Time Trucking,5800 Beach Blvd Suite 203 - 328,Jacksonville,FL,32207,904-303-0271
Ar Serbante Trucking,3909 W Osborne Avenue,Tampa,FL,33614,813-917-4926
A C T Logistics,9820 Nw 117 Way,Medley,FL,33178,305-433-4693
Up Auto Transport,4636 East Doeskin Loop,Inverness,FL,34452,906-399-0557
Rmd Van Lines,6531 Roosevelt Street,Hollywood,FL,33024,561-385-7736
"Rgh Delivery, Inc.",7323 Antietam Ct West,Winter Park,FL,32792,407-678-6857
Hambric's Trucking,3623 Nw 46th Place,Gainesville,FL,32605,407-415-8117
Snowbird Auto Haulers,1024 Concert Ave,Spring Hill,FL,34609,352-684-3065
Abba's Tractor Service,1549 Cedar St,Niceville,FL,32578,850-685-0877
Haddock's Auto Express,5216 Kinkaid Rd,Jacksonville,FL,32210,904-781-9676
J Terrero Transport,7420 Sw 128 Ave,Miami,FL,33183,305-345-7424
"Ztg Motor Carrier, Inc.",5309 Horton Road,Plant City,FL,33567,813-951-5112
Priority Couriers,4344 Philips Highway,Jacksonville,FL,32207,904-733-0030
Davis Crane Service,284 Baisden Road,Jacksonville,FL,32218,904-855-0838
Montano Trucking,40390 Horseshoe Road,Punta Gorda,FL,33982,239-462-8907
J&m Transport,3629 N W 57 Place,Bell,FL,32619,386-935-0198
Stone Cold Express,10211 11 Ocean,Marathon,FL,33050,305-395-6057
John Williams Trucking,2306 N 49th Street,Fort Pierce,FL,34946,772-216-0683
E & E Trucking,1720 Copenhaver Road,Fort Pierce,FL,34945,772-201-5435
Us 2 Transport,2111 Sea Island Ct,Fernandina Beach,FL,32034,240-464-3633
Bruno Trucking,4872 Southland Drive,Sarasota,FL,34231,941-228-1596
David Asulin,8350 Nw 45th Ct,Lauderhill,FL,33351,773-416-4369
J & J Enterprise,8346 Sunny Acres Lane,Pensacola,FL,32514,850-232-5411
E & M Transport,1841 N Congress Ave,West Palm Beach,FL,33401,561-683-2892
Silcox Trucking,3815 Cr 315-a,Green Cove Springs,FL,32043,904-284-9050
Acf,10182 12 Way North Suite 207,Saint Petersburg,FL,33716,888-651-6915
Fritch Trucking,1029 Highview Drive,Lake Wales,FL,33853,863-676-4989
Jam Down Imports-export Freight Forwarding,30 Ferndale Lane,Palm Coast,FL,32137,914-667-3897
Robert Asbell Trucking,10151 Nw 10 Ave,Chiefland,FL,32626,352-493-0463
Tnt Movers,1140 Pineland Ave,Venice,FL,34285,941-484-2240
Bill Jacobsen Bobcat Services,2147 Bermuda St,Port Charlotte,FL,33980,941-625-1824
C W Auto Transport,541 Old Geneva Rd,Geneva,FL,32732,407-349-1544
Dump Truck,350 Nw Rebeca Ave,Port St Lucie,FL,34983,772-344-7640
Panther,8421 Nw 70 Street,Miami,FL,33166,305-471-0993
Mgf Transport,490 Lotus Ave S,Lehigh Acres,FL,33974,574-772-4789
Fontaine Horse Transport,12 Count Fleet Dr,Ocala,FL,34482,352-861-2043
Ariel Trucking,15618 Hutchingson,Tampa,FL,33625,813-298-2409
Reh,1564 Sw King St,Lake City,FL,32024,386-755-7586
Norm's Backhoe Service LLC,95201 Nassau River Road,Fernandina Beach,FL,32034,904-277-3694
Ashby Refrigerated Transport,7849 Sapphire Lane,Orlando,FL,32822,407-275-8972
Aca Trans Auto Expo,3012 Summer House Dr,Valvico,FL,33594,813-484-3967
"Briggs Transport, Inc.",6604 Harney Rd Ste D,Tampa,FL,33610,708-932-3392
T P Transport,11431 Nw 76th Terr,Chiefland,FL,32626,352-490-4542
Browder Transport,4215 Oakfield Ave,Holiday,FL,34691,727-849-2063
"Andys Delivery And Service, Inc.",2438 Quail Hollow Ave,Kissimmee,FL,34744,407-922-2555
Tag Along Trucking Co,31 Gray St,Lake Hamilton,FL,33851,863-439-6940
Porta Coeli Express,934 Nina Elizabeth Cr #102,Brandon,FL,33510,813-654-5213
Wood Transport,436 Sw Bishop Ave,Lake City,FL,32024,386-755-3197
Dauriaexpress,209 14 Pl Sw,Vero Beach,FL,32962,772-778-2752
K&j Trucking,2080 Nw Whippoorwill Drive,Greenville,FL,32331,850-997-8878
Hobo Express,2733 176 St,Lake City,FL,32024,386-867-2775
Okee-dokee Transportation,1092 Ne 103 Avenue,Okeechobee,FL,34974,863-447-9272
Dom Transportation,6110 Old Highway 37,Lakeland,FL,33811,863-868-9022
Jili,2586 Lane Ave N,Jacksonville,FL,32254,904-781-3838
J Perez Transport,6516 Sw 23 St,Miami,FL,33155,786-223-5197
Marin Trucking Company,1661 W Oakridge Apt C,Orlando,FL,32809,407-467-2158
T K Trucking,5748 Bambi Dr,Lakeland,FL,33809,863-859-2482
Florence Trucking,4904 Oakside Drive,Jacksonville,FL,32244,904-235-5299
G & C Truckin',2719 Cr 48,Okahumpka,FL,34762,352-787-5085
Fofo Transport,10838 Canyon Bay Ln,Boynton Bch,FL,33437,561-313-3404
Spears Trucking,911 S Minnehaha Ave,Lakeland,FL,33815,863-559-4449
Beamon And Hampton Carrier LLC,301 Dixie Drive Apartment F2,Tallahassee,FL,32304,850-575-5404
Floridian Boating Services,3314 Palomino Drive,Lake Worth,FL,33462,561-641-5250
Carrington International Transport,4065 N Haverhill Road #b3 -150,West Palm Beach,FL,33417,954-483-9058
Ktt Transportation,3365 Sanoma Drive,Lakeland,FL,33811,863-868-7425
On Time Heavy Equipment Hauling,1601 Camerbur Dr,Orlando,FL,32805,407-839-1168
Nis Transport,7334 Keshishian Ct,Lakeland,FL,33810,818-262-8186
Cannon's Country Gourmet,1409 Mclin Dr,Plant City,FL,33565,813-293-3368
Transporter Express,11250 Se 156th Ave,Ocklawaha,FL,32183,352-288-7660
Access-able Freight,1025 Meyer Way,Pensacola,FL,32514,850-375-4729
Teph Seal Auto Appearance,5616 Old Winter Garden Road,Orlando,FL,32811,407-293-3055
Fdny Transport,5705 38th Place,Vero Beach,FL,32966,772-794-6861
Pierre Trucking,502 Fitzwilliam Way,Orlando,FL,32828,407-468-2621
P S Trucking,1904 Taylor St,Hollywood,FL,33020,917-528-7717
Demonaco Trucking,209 Perry Ave,Greenacres,FL,33463,561-439-5545
"Bfk Trucking, Inc.",263 Valencia Road,Debary,FL,32713,386-668-5090
Fuller Trucking,61 Dolphin Boulevard East,Ponte Vedra Beach,FL,32082,904-273-9663
Edward J Prentice Trucking,36801 Sr 19,Umatilla,FL,32784,352-455-7797
Rubens Repair Service,2337 Ole Hickory Dr,Orlando,FL,32817,407-467-5876
C & S Transport,1477 Sherry Lane,Melbourne,FL,32935,321-259-5457
Torralbas Transportation,2268 Sw 4 St,Miami,FL,33135,305-642-1299
Moving Business,214 Palm Circle,Panama City Beach,FL,32413,850-236-6351
"H & D Trucking, Inc.",15417 Grand Haven Drive,Clermont,FL,34714,952-297-7380
"Pbj Contracting, Inc.",10850 Natalie Drive E,Jacksonville,FL,32218,904-626-2920
N & C Carriers,1351 Ne Miami Gardens Dr # 916,Miami,FL,33179,305-821-3626
Positive Transport Solutions,22455 35th Dr,Lake City,FL,32024,813-210-3996
5 Star Freight,2111 Durant Road,Valrico,FL,33594,813-684-0799
Paclantic Distributors,5600 Nw 12th Ave Suite 305,Fort Lauderdale,FL,33309,954-727-9007
Pearson Quality Trailers,5220 Cr 579 N Lot 119,Seffner,FL,33584,813-689-4257
Trilby Transport,20538 Peach Tree Lane,Dade City,FL,33523,352-583-3968
Leonard Sagnella Trucking,1402 Overlea Dr,Dunedin,FL,34698,727-733-2987
Emerald Trucking,2490 Sweetwater Club Cir #65,Kissimmee,FL,34741,407-396-1851
Frank E Bucky France Jr Trucking,151 Sw 56th Ave,Interlachen,FL,32148,800-687-5684
L A Trucking Co,11206 Marlborough Dr,Seffner,FL,33584,813-628-4267
J & G Auto Transport Enterprise,8801 W Flagleer Street Apt 307,Miami,FL,33174,305-552-9007
Hernandez Trucking,36 Williams Road,Hollywood,FL,33023,954-483-6734
Fnp Transport,1012 Sr 542,Dundee,FL,33838,863-439-8077
Cooper's Wrecker Service,423 Mountain Dr,Destin,FL,32541,850-837-8425
R & S Trucking,5900 Auvers Blvd #102,Orlando,FL,32807,850-433-9576
Foley's Transport,6541 Catalpa Dr,New Port Richey,FL,34655,727-372-6489
Diamond S Trucking,10335 Cr 237,Oxford,FL,34484,352-748-7665
Bush's Trucking,1323 Sw Harlem Cir,Arcadia,FL,34266,863-491-5150
R & C Trucking,10723 Nw 37 Place,Sunrise,FL,33351,954-742-7065
"Dba Jfk Supply Dba Door Services, Inc. Dba Jfk Contractor Supply Dba Commercial Door Services",2900 44th Avenue North,Saint Petersburg,FL,33714,727-521-2757
Hurricane Overland Transport,632 Clearn Court,Winter-springs,FL,32708,407-696-8517
Buchanan Auto Express,6857 Cisco Garden Rd,Jacksonville,FL,32219,904-768-6968
Frank Meza Trucking,36817 Sharon Ave,Dade City,FL,33523,352-567-0318
Denis And Sandra Sevigny Auto Transport,2009 Athens Court,Apopka,FL,32703,407-884-0862
C Sexton Truckin,County Rd 194 Off St Rd 69,Blountstown,FL,32424,850-674-9554
"Trekas Trucking, Inc.",911 Sunridge Point Dr,Seffner,FL,33584,813-662-2827
Start-to-finish Transport,11212b Thomas Street,Seffner,FL,33583,941-927-2783
Senas Lawn Care,6413 N Hubert Avenue,Tampa,FL,33614,813-888-8701
Nance Trucking,4506 Reola Rd,Dover,FL,33527,813-659-1751
Precision Transportation,2221 S Sherman Circle #e-408,Miramar,FL,33025,954-437-5150
R & R Transport,2903 Balfour Ave,Lakeland,FL,33803,941-687-7762
Yorkie Transportation,1957 Allison,Panama City Beach,FL,32407,352-804-1441
Ware's Trucking,620 Carver Drive,Lake Wales,FL,33853,863-632-2176
Coastal Moving & Storage,60 Grant Street,St Augustine,FL,32095,904-829-0101
Ms Trucking,36020 Lake Pasadena Rd,Dade City,FL,33525,352-523-1896
B & A Express,17700 Sw 87th Avenue,Miami,FL,33157,305-221-6397
Family Farms,4232 Cr 249,Live Oak,FL,32060,386-364-5104
Amos Trucking,10960 Sw 179th Street,Miami,FL,33157,305-389-2917
"Tony's Hauling And Leasing, Inc.",4877 Persimmon Hollow Rd,Milton,FL,32583,850-626-3438
J & K Transport,37041 Chancey Rd Lot# 124,Zephyrhills,FL,33541,207-938-3101
"E T C Transport, Inc.",2708 Adams Street,Hollywood,FL,33020,954-258-8480
Anderson Trucking,2716 Hampton Rd,Wauchula,FL,33873,941-773-4907
West Trucking,20325 64th Pl,Live Oak,FL,32060,386-330-2480
Hemsway Trucking,13242 Southwest 18th St Road,Ocala,FL,34481,352-861-6919
Morris Transport,11830 Raccoon Road,Southport,FL,32409,850-265-0396
Soltek Express,11225 Sw Meadowlark Cr,Stuart E,FL,34997,530-675-0371
Hueso Transport,2410 Nw 204th Street,Miami,FL,33056,305-623-8959
J Battle Trucking,8 Jefferson Ave,Frostproof,FL,33843,863-635-6802
Esi Transportation,1737 Jessie Street,Jacksonville,FL,32206,904-353-1913
D W Coote Transportation,1833 N W 55 Ave Apt 1,Lauderhill,FL,33313,954-777-3137
Silver Eagle Express,3229 Notre Dame Street,Gulf Breeze,FL,32561,850-602-6600
"Select Express, Inc.",1665 Myrle Ave,Clearwater,FL,33756,727-584-5400
S & S Trucking,19550 Cansey Rd,Telogia,FL,32360,850-379-8740
Pegasus Auto Transport,8337 Alton Avenue,Jacksonville,FL,32211,904-724-3906
Waste Control Of Florida,412 Waldo Road,Lake City,FL,32055,904-755-6403
A-b Transport,4692 Carthage S Circle,Lake Worth,FL,33463,N/A
C & R Transport,5037 Chadroe Road,Jacksonville,FL,33843,904-703-5167
Scott Brown Trucking,4411 S W 34th Street #204,Gainesville,FL,32608,352-377-1561
Brett Harper Transportation,212 Herbert Street,Auburndale,FL,33823,863-409-1458
B & J Transport,311 Kilpactrick Loop,Clewiston,FL,33440,941-983-4699
Escorpizo Bros,59 Jason St,Crawfordville,FL,32327,850-926-3262
Gts,7770 W Oakland Park Blvd #450,Fort Lauderdale,FL,33351,954-747-8800
T Hoffman Transport,12472 Lake Underhill Rd Ste118,Orlando,FL,32828,407-658-6035
Southern Sanitation Services,3831 Nw 21 Avenue,Pompano Beach,FL,33073,954-974-7501
Grizzly Trucking,5633 Us Hwy 17 So,Green Cove Springs,FL,32043,904-284-3589
Rg Trucking,3377 Waxmanski Rd,Chipley,FL,32428,850-638-2798
Horton Trucking,179 Yours Horton Ct Nw,Lakecity,FL,32055,904-758-5585
Circle L Trucking,22490 Sw 250 St,Miami,FL,33031,786-256-9499
Kinsey Transport,Rt 1 Box 201-2,Monticello,FL,32344,850-997-5615
S & M Transport,3945 Nw 176 St,Miami,FL,33055,305-621-5617
Magic Express Trucking,150 Ave T N E,Winter Haven,FL,33880,863-293-7176
M & A Carriers,19456 Ne 26th Ave Suite 42,Aventura,FL,33180,954-458-6952
Sellers Hauling,2253 Hutchinson Ferry Rd,Quincy,FL,32351,850-509-7086
Don Assad Transport Service,126 Seaflower Street,Apopka,FL,32712,407-493-8825
Wil Transportation,2719 Rivers End Road,Orlando,FL,32817,407-384-8470
Brian Mccarroll Trucking,111 West Seminole Avenue,Eustis,FL,32726,352-255-4680
Vazquez Trucking Co,101 Jackson Drive,Lake Placid,FL,33852,863-699-6795
W & B Thomas Trucking,3228 E Lloyd St,Inverness,FL,34453,352-344-9196
Walker Transportation,4804 Heather Lyn Court# A,Tampa,FL,33617,813-914-0094
Cumex Transport,7901 64 St N,Pinllas Park,FL,33781,727-549-8525
Mdk Transportation Company,11880 Sw 26th Court,Davie,FL,33330,954-915-9551
Trojan Express Transport,320 N 68th Way,Hollywood,FL,33024,954-987-7818
H W D Trucking,1680 S Central Ave,Apopka,FL,32703,407-886-7187
Morrison Hauling Ii,1427 Evangeline Way,Tallahassee,FL,32301,850-878-0863
L B Trucking,6200 St Rd 13 N,St Augustine,FL,32092,904-529-1299
S&e Trucking,Kenneth Street,Cross City,FL,32628,352-498-2615
Sunrise Trucking,12924 Royal George Ave,Odessa,FL,33556,813-926-0391
R Dargenson Express,3420 Nw 177 Terr,Miami,FL,33016,N/A
Odie Express,1346 53rd Avenue North,Saint Petersburg,FL,33703,727-525-5885
L & K Truck Lines,120 Nw 21st Ave,Ocala,FL,34475,727-365-9018
Williams Specialized Trucking,1430 Marigold Dr,Lakeland,FL,33811,863-255-2594
L & M Trucking,274 Edwards Street,Yulee,FL,32097,904-228-8365
D C Trucking,2244 Sr 16 W,Green Cove Springs,FL,32043,904-284-1424
Warika Express,714 Platypus Court,Kissimmee,FL,34759,863-427-1063
Paschall Trucking,2649 21st St N W,Winter Haven,FL,33881,863-602-6650
H & N Delivery,2413 Abby Dr Apt 201,Kissimmee,FL,34741,407-846-8867
"Saso Transport, Inc.",3044 Mcgregor Blvd,Fort Myers,FL,33901,941-332-7826
A-1 Superior Transport,8255 W Sunrise Blvd,Plantation,FL,33322,954-723-9786
Special Delivery Services,6220 Arc Way Unit #7,Fort Myers,FL,33912,941-275-0835
Carymar Trucking Corporation,11752 Hatcher Circle,Orlando,FL,32824,407-855-7552
Bell Trucking Company,7730 Fiesta Dr,Pensacola,FL,32534,850-478-0561
Santos Enterprises,5815 Lake Grove Drive,Lakeland,FL,33809,863-815-2283
Lincoln Trucking,2261 Peters Rd,Fort Pierce,FL,34945,772-567-6094
Endless Run Trucking,43930 Johnson Rd,Paisley,FL,32767,352-669-6272
E M P Trucking,3579 Bess Nook Road,Bonifay,FL,32425,850-547-9879
Livingston Trucking,720 N Kennel St Montura Ranch,Clewiston,FL,33440,863-983-3510
Markie Transportation,39243 7th Avenue,Zephyrhills,FL,33542,813-780-1937
Air Ycong Express,1205 Nela Avenue,Orlando,FL,32809,407-888-4659
Lewis Transport Services,210 W Palmetto St,Lakeland,FL,33815,352-243-3669
D Garcia Trucking,5118 N Mason & Dixon Ave,Bowling Green,FL,33834,863-375-4139
M J Trucking,3850 Grand Island Shore Rd,Grand Island,FL,32735,352-357-4877
Picki Trucking Co,308 N Howard Ave,Tampa,FL,33606,813-251-8766
Rk Trucking,7371 N Spring Run Terrace,Hernando,FL,34442,352-341-2176
Ella's Transportation,8503 Ridein Rd,Tampa,FL,33619,813-246-5071
"Millenium Truck Lines, Inc.",5717 Se 8th Avenue,Keystone Heights,FL,32656,352-473-1222
West Flordia Trucking,4160 Molino Road,Molino,FL,32577,850-473-1187
Capri's Charter Bus,537 14 Street,West Palm Beach,FL,33401,561-795-5591
C & G Auto Transport,8815 Lithia Pinecrest Rd,Lithia,FL,33547,813-737-4300
R & A Heavy Truck,3137 Wilder Ave,Sarasota,FL,34232,941-374-3256
Pj's Trucking,2140 Hwy 179,Bonifay,FL,32425,850-548-5368
Kauffman & Son Trucking,3935 Marion Co Rd,Lady Lake,FL,32158,352-753-1146
J A L Transport,3004 S Willow Drive,Plant City,FL,33566,813-754-1131
R & T Trucking,124 S Cory Dr,Edgewater,FL,32141,386-428-7194
Southern Star Transport,7514 Rooks Dr,Wesley Chapel,FL,33545,813-267-2981
Florida Truck Lines,11310 Sw 56th St,Miami,FL,33165,305-652-9990
Glezz Express Trucking Corp,2485 41st Avenue Ne,Naples,FL,34120,305-219-3077
S & R Transportation,4448 Turner Avenue,Jacksonville,FL,32207,904-733-6921
M-n-m Transport,10415 Pine St,Gibsonton,FL,33534,813-677-0791
Crossway Transport,6700 Nw 27 Ave,Miami,FL,33147,305-636-3006
White's Trucking,110 Roberts Blvd,Satsuma,FL,32189,386-325-3354
J & J Trucking Co,119 Hudson Dr,Fort Walton Beach,FL,32548,850-243-9514
Adl Trucking,14331 Village View Drive,Tampa,FL,33624,813-962-0900
Jimmie Nance Trucking,5347 Hwy 2 West,Defuniak,FL,32433,850-834-5051
Jcr Trucking,15760 Nw 11th St,Pembroke Pines,FL,33028,954-431-8278
E & B Hauling,5420 Wales Ave,Pensacola,FL,32526,N/A
L & L Transport,485 Eland Dr,North Fort Myers,FL,33917,239-246-4030
P & M Automotive Transport,1951 Nw 119 Court,Ocala,FL,34482,352-239-3405
Roy Thomas Trucking,3633 Nw 17th Ave,Okeechobee,FL,34972,863-357-0287
J F K Auto Transport,1914 Bobtail Dr,Orlando,FL,32810,407-252-7497
Rector Trucking,5090 W Kristina Loop,Lecanto,FL,34461,352-422-1866
"Jeffs Truck & Equipment Repair, Inc.",106 Krantz Rd,Palatka,FL,32177,386-325-8890
Sammy Starling Trucking,754 Decoy Rd,Green Cove Springs,FL,32043,904-284-5070
Tra Investments Corp,2808 Nw 112th Ave,Miami,FL,33172,305-477-8285
Howell Trucking,4550 Pinetree Dr,St Cloud,FL,34772,407-957-2828
"Ast Transportation, Inc.",2685 47th Ave Ne,Naples,FL,34120,239-280-7456
"Doctor Rooter Supply & Service, Inc.",3845 Reid Street,Palatka,FL,32177,386-325-2634
Wilson Trucking,1931nw33ct,Pompano Beach,FL,33064,954-978-9400
"Trevor Transport, Inc.",580 Ne 173th St N M B,Miami,FL,33162,305-654-3299
Jim Gooding Trucking,1870 1st Avenue,Deland,FL,32724,386-740-8847
T Bryant Marine Transport,33 Cedar Street,Port Orange,FL,32127,386-304-2100
"Heart Transport, Inc.",615 W 23rd St,Hialeah,FL,33010,305-887-7410
Gray Dove Limo,817 Appleyard Dr,Tallahassee,FL,32304,850-224-7245
Clark Trucking,10101 South Palomino Road,Floral City,FL,34436,352-279-1126
Zuberbier Trucking,16 Liane Rd West,Lake Placid,FL,33852,863-699-0299
Quarterman Trucking,14326 Sw 156 Pl,Alachua,FL,32616,352-462-2288
Tlc Trucking,7653 Antioch Drive,New Port Richey,FL,34655,727-376-6321
Best Friends Trucking,Po Box #9,Midway,FL,32343,850-539-8993
Logistics Freight Management Brokerage,2880 W Oakland Park Blvd #220,Fort Lauderdale,FL,33311,954-485-1160
Dave's Trucking,5400 Muskogean Street,St Augustine,FL,32092,904-823-9717
R A Miller Trucking,4360-b Crawfordville Hwy,Crawfordville,FL,32327,850-926-2900
John Roland Hauling,16175 West Us 90,Greenville,FL,32331,850-948-6138
Hauling Contractor,2883 Barton Place,Bartow,FL,33830,863-533-0819
Double B Trucking,3020 Beaver Crrek Dr,Zephyrhills,FL,33543,727-788-0888
Carol's Transport,6029 Catoma,Jax,FL,32244,904-778-3863
R & R Express,8985 Grampian Dr N,Jacksonville,FL,32216,904-725-0811
Dragonflight Services,462 Adams Avenue,Lake Placid,FL,33852,863-465-6692
Transportes Juarez,480 14th St North E,Naples,FL,34120,941-353-8662
Register's Custom Services,233 Nw Ranch Ct,Lake City,FL,32055,386-752-7520
Nonka Trucks,516 West 5th Ave,Tallahasses,FL,32303,850-567-2450
"Custom Transport, Inc.",P O Box 4081,Brandon,FL,33509,813-645-6626
"Bob Smith Trucking, Inc.",1323 Se 15 Terrace,Capemcoral,FL,33990,941-574-5654
Conde Trucking,1005 W Mclendon Street Apt B,Plant City,FL,33567,813-707-0513
James Trucking,8660 Sw 212th St Apt 201,Miami,FL,33189,305-951-2070
Joel Oyler Trucking,2227 Wolf Rd,Orlando,FL,32808,407-522-9329
R Tincher & Son Trucking,225 Hwy 17 South Suite 14,East Palatka,FL,32131,386-328-3635
B & K Trucking Company,Twig Lane,Lake City,FL,32024,904-719-6568
A B S Transport,5112 Kipp Place,Orlando,FL,32808,407-294-8908
Strong Logging & Trucking,103 Louis St,Cantonment,FL,32533,850-968-5740
Miles & Miles Trucking,1580 Arzel Court,Jacksonville,FL,32221,904-695-1952
E & R Trucking,112 Ledbury Drive,Longwood,FL,32779,407-788-5197
Safeway Freight Consolidators,10871 Nw 33rd St,Miami,FL,33172,305-513-9939
Presidential Transportation,11410 Sw 242nd Lane,Homestead,FL,33032,786-352-7897
Integrity Trucking,3709 Se 18 Place,Cape Coral,FL,33904,804-493-7223
Ray Farms & Trucking,16740 Ginger Lane # 12,Fort Myers,FL,33908,N/A
K & B Trucking And Transport,12425 Nw Turkey Creek Road,Bristol,FL,32321,850-643-2067
Legends Express,256 North Lake Drive,Georgetown,FL,32139,386-467-9029
Keith Lawson Transport,4280 Corey Rd Malabar,Malabar,FL,32950,321-537-6426
B & B Trucking,2313 Dupree Street,Fort Myers,FL,33916,941-337-0510
Cutino Transport,8090 Atlantic Blvd Apt C450,Jacksonville,FL,32211,904-446-4489
Robert D Kyle Trucking,12203 Nw Turkey Creek Rd,Bristol,FL,32321,850-643-2203
The Auto Toy Store,1624 East Sunrise Blvd,Fort Lauderdale,FL,33304,352-243-3663
Dvm Flat Bed Services,3916 Ron Road,Green Cove Springs,FL,32043,904-284-7744
Gm Trucking,14691 N Beckley Square,Davie,FL,33325,954-533-7074
Twin Transport,1638 Nw 4 Street,Miami,FL,33125,305-649-2116
"Tornado Bobcat & Trucking, Inc.",16975 71 Ln North,Loxahatchee,FL,33470,561-792-6679
Pekarcik Trucking,2379 Chaucer St,Clearwater,FL,33765,727-791-7712
Vintage Transport,37134 Sandy Lane,Fruitland Park,FL,34731,352-267-2042
Kimberly Transport,270 Nw 71 Ave #7,Miami,FL,33126,305-260-9110
Murphy Trucking,24720 Ne Sr 69,Blountstown,FL,32424,850-674-8693
Dean Will Trucking,7616 Nw 40th St,Coral Spring,FL,33065,954-662-1313
Couch Transport,2407 Azalea Lane,Wauchula,FL,33873,863-767-1263
Pelican Service Company,179 Golfview Road,Auburndale,FL,33823,863-667-0069
Ats,501 Ne 5th Street,Mulberry,FL,33860,863-425-4253
Des Trucking,503 Southern Charm Dr,Orlando,FL,32807,407-277-1231
F & M Trucking,5136 Island View Circle North,Polk City,FL,33868,863-984-6633
Jim's Transport,1126 Carol Ave,Titusville,FL,32780,321-576-3251
Zarama Transport,7241 Old Kings Rd S #55,Jacksonville,FL,32217,904-708-8155
Rc Service,475 N Arboleda,Clewiston,FL,33440,863-983-2520
Bm Trucking,4846 Se Apache St,Arcadia,FL,34266,863-990-7685
R & T Trucking,2696 Sherwood Drive,Bonifay,FL,32425,850-547-6524
B & S Hauling,5219 W Glenbrooke St,Homosassa Springs,FL,34446,352-621-3782
Rj Trucking,751 Ne 385 Ave,Old Town,FL,32680,352-542-8974
R & K Transport,12123 Hicks Rd,Hudson,FL,34667,727-862-5891
M & K Trucking,5685 Indian Trail,Keystone,FL,32043,352-473-9233
Kenny & Son Trucking,11312 Hidden Valley Lane,Riverview,FL,33569,813-620-1342
Andre Polk Trucking,347 South Orange Ave,Arcadia,FL,34266,863-494-5677
Padgett Trucking,Rt 4 Box 375,Starke,FL,32091,386-964-4474
J & C Light Hauling & Transport,Rr 11 Box 323,Lake City,FL,32024,305-698-5904
Worldwide Express Bus,622 Plum Lane,Altamonte Springs,FL,32701,407-339-4872
J's Enterprises Of Ft Lauderdale,14817 Avalon Rd,Winter Garden,FL,34787,407-592-6826
Rick Pentz Transport,4602 Shelly Ct,Jacksonville,FL,32206,902-275-5599
"Johnson Transfer, Inc.",6035 Electra Lane,Pensacola,FL,32507,850-492-7115
L E Russell Express,3909 Sunbeam Rd #119,Jacksonville,FL,32257,252-358-1478
Weeks Trucking,560 Nw 117th Ct,Ocala,FL,34482,352-237-9666
Brickell Key Tour & Transportation,3350 Nw So. River Drive,Miami,FL,33142,305-858-5466
"Gizmo Trucking, Inc.",2190 Twisted Pine Rd,Ocoee,FL,34761,407-654-7481
L & T Trucking,1801 Vick Road,Apopka,FL,32712,407-886-3817
Pro-luesing Transportation,810 S Peninsula Drive,Daytona Beach,FL,32118,888-530-6007
O G Interprises,706 Pasteur Lane,Kissimmee,FL,34759,407-709-2608
Copas Transportation,419 Sunrise Blvd ,Polk City,FL,33868,863-984-2443
Mitchell Trucking,313 Old Peniel Rd,Palatka,FL,32177,386-328-1335
Williams Tote'n Loads Truck'n,10380 Nw 7th Terrace,Branford,FL,32008,386-935-0849
Mitch Long Trucking,3211 Cristo Ln,Jacksonville,FL,32277,904-379-3113
W E Rowlett Trucking,2474 County Rd C-30,Port St Joe,FL,32456,850-229-2717
J F Transport,2132 Mallar Creek Cr,Kissimmee,FL,34743,908-397-1573
E Tyler Trucking,4460 Tulip St,Nocatee,FL,34268,863-993-4532
Loose Cannon Safety Car Express,2718 Conway Gardens Rd,Orlando,FL,32806,407-894-0182
Racehorse Trucking,161 Bob Mccaskill Dr,Defuniak Springs,FL,32433,850-892-6614
Ernestine Tyler Trucking,4460 Tulip Avenue,Arcadia,FL,34258,863-993-4532
G T Transport,434 E 18 Street,Hialeah,FL,33013,305-885-3606
Victor & Son Moving,9101 Sunset Strip,Sunrise,FL,33322,954-747-6363
Adametti Express,905 Butterfly Blvd,Winter Garden,FL,34787,407-654-2106
Little R Transit,2210 Sw 5th Street,Ocala,FL,34474,352-622-1238
Lyda Trucking,18255 Ne State Road 65,Hosford,FL,32334,850-379-3504
Mw Trucking,1730 Oak Breeze,Kissimmee,FL,34744,407-931-2476
James Mahoney Trucking,205 East Esperanza Ave,Clewiston,FL,33440,318-609-6152
Tamiami Transport,7606 Pinery Way Apt A,Tampa,FL,33615,813-887-1841
Merchant Trucking,2903 Spencer St,Jacksonville,FL,32254,904-381-0495
Southern Trucking,1140 Tallokas Rd,Crestview,FL,35236,850-683-1331
Chris Ryan Trucking,1386 Wilmette St,Port Charlotte,FL,33980,941-624-5811
Panther,8421 Nw 70th Street,Miami,FL,33166,305-471-0993
Don W King Trucking,310 N Galloway Rd,Lakeland,FL,33815,863-688-4191
Benito De La Rosa & Son Trucking,1070 Golden Gate Blvd W,Naples,FL,34120,757-414-0262
Alfred Gray Trucking,605 Pinehurst Court,Kissimmee,FL,34758,407-518-6141
Bailey Express,13490 S E 110 Th Pl,Dunnellon,FL,34431,352-465-3829
Ricky's Backhoe Service,7370 Hayes St,Hollywood,FL,33024,954-962-4847
Gamble's Trucking,2805 Old Dixie Hwy,Auburndale,FL,33823,863-665-8541
Two Men And A Truck Pensacola,8808 North Palafox St,Pensacola,FL,32505,850-471-1166
M D M Trucking,860 Calafut Court,Oviedo,FL,32765,407-977-8621
J And D Trucking,1469 Sw Medina Ave,Port St Lucie,FL,34953,772-985-9332
Southpaw Express,6032 Homestead Ave,Cocoa,FL,32927,321-636-1455
Jean Bartz Transportation And Tours,800 Balsam Wood Lane,Kissimmee,FL,34743,407-973-7040
Jb Mcmillin Trucking,11090 Carlton Rd,Port St Lucie,FL,34987,772-464-1850
J & L Aiken Transport,2517 Sandusky Ave,Jacksonville,FL,32216,904-725-6174
Berger Transport,608 Remington Oaks Drive,Lake Mary,FL,32746,407-323-8421
Daniel H Brown Trucking,14670 101 St Street,Fellsmere,FL,32948,772-571-1352
Pollard Auto Transport,1123 W Edgewood Ave,Jacksonville,FL,32208,904-776-7579
J T A Trucking,9393 Ribault Ave,Jacksonville,FL,32208,904-768-6296
South West Trucking,1100 Wellington Ave,Lehigh,FL,33972,941-369-7171
C & G Trucking,19160 Ne 50th Street,Williston,FL,32696,352-528-3557
Ferg N Sons Trucking,303 Park Ave,Indian Lake Estates,FL,33855,863-692-0170
Lukyleif Trucking,3475 Burwell Road,Webster,FL,33597,352-583-0705
"Bolognese Construction Service, Inc.",10951 Harmony Park Drive,Bonita Springs,FL,34135,239-949-1551
S & P Trucking,1737 Co Rd 183 South,De Funiak Springs,FL,32433,850-892-5810
Knight Enterprises Trucking,6839 Wire Rd,Zephyrhills,FL,33542,256-303-2583
C & C Trucking,10086 Se Cr 245,Lake City,FL,32025,386-755-0419
Strictly Business Hauling And Builders,2505 St Leger Dr,Jacksonville,FL,32208,904-764-6876
Felipe Ramirez Trucking,110 Dixie Ave,Immokake,FL,34142,N/A
American Transport Services,14690 Sw 34 Terrace Road,Ocala,FL,34473,877-869-7364
Route Usa Transportation,5266 W Colonial Dr,Orlando,FL,32808,407-445-6458
Central Florida Automotive,1237 Acorn Circle,Apopka,FL,32703,407-880-0550
All Points Auto Transporters,17648 Broad Street,Killarney,FL,34740,407-877-1002
G P Trucking,136 Luca Lane,Kissimmee,FL,34743,N/A
Ruff Times Trucking,Cr 251 A West,Mayo,FL,32066,386-294-3579
John's Transport,1748 Flowing Well Rd,Bonifay,FL,32425,850-547-0408
J F Trucking,4000 Nw 51st Street # B 37,Gainesville,FL,32606,352-335-9159
Delivery Services,1433-5 Romney,Jacksonville,FL,32211,904-745-7774
Rafael Lopez Auto Sales,1052 E 43rd Street,Haileah,FL,33013,305-685-2277
Neel Trucking Co,6541 Reddoch Rd,Grand Ridge,FL,32442,850-209-2878
"Contract Carrier Co, Inc.",1601 Aaron Ave,Orlando,FL,32811,N/A
Copeland Trucking,426 Sw Scrub Town Road,Fort White,FL,32038,386-454-2818
Full-count Transportation,5900 Nw 14th Ave,Ocala,FL,34482,352-351-0894
B M B Truck Division,1455 Semoran Blvd Suite 149,Deland,FL,32720,407-677-9096
Causey Trucking,7244 J Stanaland Rd,Plant City,FL,33567,813-650-8812
Hl Chestnut Transport,1456 Jake St,Tallahassee,FL,32305,850-264-3974
Fisher Transport,10740 Sw 105th St,Ocala,FL,34481,352-274-2495
Leah's Expedite Service,1030 Arden St,Longwood,FL,32750,407-496-0570
Declerck Trucking,5690 Durrance Road,Mulberry,FL,33860,863-648-4796
K & L Transport,8755 97th Court,Vero Beach,FL,32967,561-589-1007
Tigers Trucking,4903-60th Pl,Live Oak,FL,32060,386-208-4491
Eagle Express,1075 Aspri Way,West Palm Beach,FL,33418,561-627-7396
S & S Transport,2801 E Hillsborough Ave,Tampa,FL,33680,813-231-0005
Taylor's Freight,326 Sargent Ave,Oak Hill,FL,32759,386-314-3079
L & N Trucking,8424 North Riverdune St,Tampa,FL,33617,813-983-0410
Brad Adams Trucking,508 N Hayne St,Pensacola,FL,32501,850-580-8066
Smokey Mountain Express,16023 Old Cheney Hwy,Orlando,FL,32833,407-568-3350
Mcallister Trucking,42242 Maggie Jones Road,Paisley,FL,32767,317-786-0125
R M S Transportation Ltd,4419 Timber Terr Circle,Tampa,FL,33624,813-962-2884
Micheletti Antique Services,1400 Alabama Ave #1,West Palm Beach,FL,33401,561-659-6955
Lopez Auto Transport Service,1101 Sw 24th Avenue,Miami,FL,33135,305-643-3271
I & M Carriers,5310 S W 176 Ave,Dunnellon,FL,34432,352-489-4215
E & A Trucking& Sons,2751 Ne 200th Ave,Williston,FL,32696,352-528-9463
A & P Trucking,1420 N Meridian Rd #207,Tallahassee,FL,32303,850-681-6637
Cool Express,15313 Citrus Grove Blvd,Loxahatchee,FL,33470,561-333-9876
Esw Transportation,3711 Bruton Road,Plant City,FL,33565,813-754-6329
Quality Moving And Storage,2951 8w 14th Place,Boynton Beach,FL,33426,561-735-3366
Kenneth Shaw Trucking,270 South Thayer Avenue,Lecanto,FL,34461,352-302-8948
R & D Trucking,1324 Beacon Circle,Wellington,FL,33414,561-792-8884
Morris Trucking,3456 Cook Circle,Vernon,FL,32462,850-535-1721
Reginald Benjamin Trucking,510 Lynch St,Pensacola,FL,32505,850-433-1936
Taylor Transport,12214 Big Bend Road,Riverview,FL,33579,813-677-2112
Lewis Trucking Company,4715 Yacht Harbour Drive,Pensacola,FL,32514,850-471-0122
Ryan Yancey Trucking,9489 Yancey Rd,Myakka,FL,34251,941-322-1451
Lawton & Lawton Enterprise,1306 Ocean St,Palatka,FL,32177,386-328-1681
Mother Earth Transportation,12395 Belcher Rd # 340,Largo,FL,33773,727-771-7400
Borderpass Transportation,2802 Pickfair Ct,Kissimmee,FL,34743,407-344-0348
Bds Auto Transport,6140 Alden Avenue,Cocoa,FL,32927,321-638-0203
B & J Trucking,3829 E Lake Terr,Miramar,FL,33023,954-981-9231
S&s Trucking,Rt 3 Box 5790,Hilliard,FL,32046,904-845-4148
Here To There Auto Haul,12911 Eryn Blvd,Clermont,FL,34711,352-404-4418
W J S Trucking,11125 Sw 78th Avenue,Ocala,FL,34476,201-998-9247
Precision Delivery & Install,2011 Sycamore Dr,Orlando,FL,32803,407-342-2900
J M Munn Express,950 Emerald Ave,Fort Pierce,FL,34945,561-335-0853
Tme,16821 Sw 67 Place,Archer,FL,32618,352-495-3522
Daniel Carroll Trucking,585 Sug Road,Ponce De Leon,FL,32455,850-859-2524
C & C Transportation,1444 E 26th Street #1,Jacksonville,FL,32206,904-268-3502
E Donald Trucking,1106 Ne 4th Ave,Williston,FL,32696,352-528-5946
Gainer's Trucking,59 Everlena Andrews Rd,Quincy,FL,32353,850-264-1690
Absolutely Trucking,5215 Nw 75th Avenue,Lauderhill,FL,33319,954-741-1699
Tomorrows Future Trucking,10202 N Lola Street,Tampa,FL,33612,813-632-8748
"Modlin's Transport, Inc.",600 Pineland Lane,Jacksonville,FL,32259,904-230-1184
Newton Transport,Rt 4 Box 4407,Fort White,FL,32038,386-758-6174
A J Hauling,715 Ada St,Live Oak,FL,32060,386-362-6129
Double S Trucking Co,17060 Se 249th Terrace,Umatilla,FL,32784,888-379-9467
Lillian Wiggins Trucking,200 E Robson St Lot 23,Lakeland,FL,33805,863-666-1498
Waterblasting Com,3170 Se Slater Street,Stuart,FL,34997,772-223-7393
A & E Trucking,2745 Funston St,Hollywood,FL,33020,954-929-7470
Harbor Transport,903 Majestic Cypress Dr N,Atlantic Beach,FL,32233,904-249-6297
Mark Young Trucking,207 Lainhart Court,West Palm Beach,FL,33409,561-712-9537
Moveit,731 Avon Rd,West Palm Beach,FL,33401,954-243-4555
J-bar Trucking,16100 Daisy Dr,Punta Gorda,FL,33955,239-340-0680
Jean & Jesse Trucking,2326 Azalea Ct,Lakeland,FL,33815,800-332-3229
J B S Transporting,6292 Crestwood Drive,Tallahassee,FL,32311,850-402-9157
Johnson Trucking,Rt 8 Box 271,Lake City,FL,32055,904-758-5913
Coyote Trucking,1910 N Mobile Villa Dr,Lutz,FL,33549,813-979-9191
Hopkins Transport,1296 19th Ave Sw,Vero Beach,FL,32962,772-567-8525
N F & Son Trucking,Ppost Office Box 451,Alva,FL,33920,863-674-1482
Harolds Transport,656 N Orange Ave 1308,Orlando,FL,32801,407-468-5322
Pendergrass Trucking,5332 Lakeworth Rd,Lakeworth,FL,33463,561-573-4842
Miller Trucking,4302 Laughlin Rd,Zellwood,FL,32798,407-466-1230
Marroquin Trucking,1185 Lillian Street,Labelle,FL,33955,863-675-1119
Kipp's Rv's Relocation Services,5486 Wilson Dr,Punta Gorda,FL,33982,941-661-7111
Hl Storey Trucking,4206 Cromwell Dr,Tampa,FL,33610,813-626-0571
Dave's Hauling And Transport,109 31st Street W,Bradenton,FL,34205,941-746-8006
R Baldwing Trucking,1485 Sw 133rd Ave Rd,Ocala,FL,34481,352-872-9937
"G & L Billings Express, Inc.",319 Pine St,Auburndale,FL,33823,863-965-1379
Watt Dozier Service LLC,120 Burton Street,Havana,FL,32333,850-539-6202
A & F Trucking,2202 Sw 4th Street,Ocala,FL,34477,863-421-7557
C C S Freight Co,9802 Baymeadows Rd Suite 12-120,Jacksonville,FL,32256,904-386-1435
J C T Express,97 Ne 53 St,Miami,FL,33137,305-221-6397
Schautz Trucking,4275 75th Drive,Live Oak,FL,32060,386-364-0785
"Bingham Carriers, Inc.",1742 Limewood Lane,Orlando,FL,32818,407-370-4637
B & B Trucking,825 N Charleston Ave,Fort Meade,FL,33841,863-773-9941
Evans Trucking,402 Wellow Avenue,Orlando,FL,32833,407-568-3067
A & G Trucking,15549 Cortez Blvd,Brooksville,FL,34613,413-531-3487
W Joiner Trucking,307 Dorsett Ave,Lake Wales,FL,33853,863-289-5157
Cacimar Auto Transport,14078 Mt Pleasant Rd,Jacksonville,FL,32225,904-220-6826
Pro Transport Enterprises,9510 S W 26 Dr,Miami,FL,33165,305-562-8880
L & S Trucking,10132 Se 160th Lane,White Spring,FL,32096,386-397-1849
Hannam Trucking,802 South Berner Road,Clewiston,FL,33440,863-228-0143
Taylor Transportation,700 Lindell Blvd 304-a,Delray Beach,FL,33444,N/A
Specialty Auto Express,4795 San Heath Road,Bartow,FL,33830,863-412-5497
"Ultravision Se, Inc.",5018 24th Ave S,Tampa,FL,33619,813-232-6447
J T Trucking,606 Nw 102nd Way,Plantation,FL,33324,954-423-2217
Preferred Auto Transport,8411 Caladesi Island Dr,Temple Terrace,FL,33637,813-985-0908
J H Trucking,647 Acapulca Way,Altamonte Springs,FL,32714,407-760-2168
