Company Name,Street Address,Address Locality,Address Region,Postal Code,Telephone
Gary Jones Motorsports,2366 Hwy 88,Hephzibah,GA,30815,706-592-2440
Triple T Transport,211 Lower Brookfield Road,Tifton,GA,31794,229-326-2606
Harper Seafood Retail,526a West Jackson St,Thomasville,GA,31797,229-226-7525
Garcia Trucking,2354 Gwinn Drive,Norcross,GA,30071,770-572-8754
Tuten Trucking,2355 9th Street,Waycross,GA,31503,912-287-1572
Wj Transport,222 Calvin Williams Road,Lenox,GA,31637,229-686-5931
Hulsey Distribution,200 Lake Connie Rd,Carrollton,GA,30116,N/A
Eric's Regional Transport,126 Denver Whitworth Road,Toccoa,GA,30577,706-373-2201
Gordon Logistics,2308 Fairwood Circle,Jonesboro,GA,30236,770-603-6508
Rick's Trucking,1157 Covey Rise Farm Rd,Sparta,GA,31087,706-998-0453
Exterior Motor Carrier,848 Haydens Ridge,Ellenwood,GA,30294,404-201-4263
Iron Horse Trucking,3583 Radford Gay Rd,Harlem,GA,30814,706-556-0640
S D Cross Trucking,4144 Highway 172,Comer,GA,30629,706-783-2244
D Schneider Transport,175 Midway Drive,Lavonia,GA,30553,706-599-2185
K Trucking,201 Casey Dr Apt H33,Richmond Hill,GA,31324,912-756-6690
Whiskey Pete Transport,2420 Brighton Ct,Douglasville,GA,30135,404-456-5788
Joy Auto Carrier,221 Daladan Circle,Woodstock,GA,30188,678-787-7380
Greenbrier Rail Services,7591 Ne Industrial Blvd,Macon,GA,31216,866-653-7029
Traditional Trucking Services,1394 Paloma Street,Nahunta,GA,31553,912-381-6010
Acm Transportation Company,105 Snowden Loop,Fitzgerald,GA,31750,229-457-1315
Tbo Transportation LLC,533 Soperton Ave,East Dublin,GA,31027,478-272-3493
East Coast Express Cindy Gilley,120 Waters Lane,Sylvania,GA,30467,912-425-9705
Scm Trucking,515 Summer Brooke Lane,Fairburn,GA,30213,770-629-2376
Ceo,5401 Spring Creek Lane,Atlanta,GA,30350,678-937-6344
Jeff's Gutter Service,359 Trammell Road,Moreland,GA,30259,770-253-3198
R & R Transport And Recovery,811 Chandlers Ferry Road,Hartwell,GA,30643,706-376-8073
Ctk Trucking,3939 Pine Mountain Rd Nw,Kennesaw,GA,30152,770-875-5726
Nex Generation Transport,5503 Union Hill Road,Alpharetta,GA,30004,770-558-2037
Colbert Transport,370 Easy St,Thomaston,GA,30286,706-938-0189
Jones Trucking,1072 Murray Jones Circle,Lincolnton,GA,30817,706-359-1420
Scott's Trucking,1523 Gee Street,Bainbridge,GA,39819,229-254-7715
Express Transporting,388 Fieldstone Ln,Covington,GA,30016,404-488-3877
Cs&j Trucking,280 Leann Dr,Athens,GA,30601,706-248-1180
Reds Transportation,1399 Carla Ct,Lawrenceville,GA,30043,770-338-1499
Dolphin Auto Sales And Service,319 Charlie Smith Sr Hwy,Saint Marys,GA,31558,912-729-1663
Nigem S Davis Trucking,7712 Autry Circle Unit 108,Douglasville,GA,30134,678-429-0412
T&r Trucking,1368 Sylvian Drive,Macon,GA,31206,478-719-1358
Royal Turner Transportation,212 Northlake Dr,Peachtree City,GA,30269,770-486-9025
"Zak Transportation, Inc.",225 Wildwood Glen,Stone Mountain,GA,30083,404-425-9044
Bill Sears Floorcovering Instalation,421 Courson St,Brunswick,GA,31520,305-615-2989
Eric Davis Transport,270 Baker St,Quitman,GA,31643,229-263-9404
C & C Transport,261 Jerry Allen Ridge,Dallas,GA,30132,404-245-2066
4 Him Transport,212 W Liberty St,Claxton,GA,30417,712-237-4918
Universal Transport,3921 Mission Lane Ct,Loganville,GA,30052,770-330-2979
Denson Car Hauling Service,405 Broad St,Claxton,GA,30417,912-739-2078
K & M Trucking,1068 Hwy 19 North,Thomaston,GA,30286,706-601-5565
Watson Trucking,2456 Funston Sigsbee Road,Moultrie,GA,31768,229-782-7432
Specialty Transport,115 Woodview Lane,Waynesboro,GA,30830,706-554-9058
Dixie Auto Transport,264 North Bellview Rd,Aragon,GA,30104,404-915-0155
Jah Star Transport,1354 Pebble Beach,Hampton,GA,30228,770-472-6452
Unlimited Logistics,4013 Morning Star Ave,Powder Springs,GA,30127,404-388-6111
Jay Glenn Trucking,514 12th Avenue Apartment B,Cordele,GA,31015,229-273-3622
Lnd Trucking,1787 Ash Crossing Road,Iron City,GA,39859,229-726-4883
James E Pate,614 Washington St,Bainbridge,GA,39819,229-248-7642
Lambert Trucking,2701 Loren Pkwy,Hephzibah,GA,30815,706-771-1623
Fischer Trucking,80 Shelby Oaks Trail,Covington,GA,30016,678-342-7775
Canan Truck Line,2602 Meadow Trace Dr,Grayson,GA,30017,770-736-4683
Goodwin Trucking,62 Joseph Alver Ln,Warm Springs,GA,31830,706-977-3282
Vr Transportations,6474 Wandering Way,Norcross,GA,30093,404-645-6942
L & L Transport,1523 Keron Way,Hephzibah,GA,30815,706-339-3372
Mbsl Transport,109 Riggs Store Road,Hartsfield,GA,31756,229-941-5505
S & T Trucking,152 Dora Lane,Byron,GA,31008,478-320-7480
Mark Anthony Harris Trucking,1164 Dunwick Drive,Avondale Estates,GA,30002,404-574-3929
Karl Waugh,1028 Genesis Pkwy,Mcdonough,GA,30252,678-432-6282
Super Sport Transport,150 Walker Rd Nw,Cartersville,GA,30121,770-881-3557
Bb's Express,6162 Portsmouth Drive,Flowery Branch,GA,30542,404-695-0340
R & K Transport,2169 Wildwood Court,Gainesville,GA,30507,770-983-7477
Nu Erra Transport,375 Mountain View Drive,Covington,GA,30016,678-524-4521
Global Auto Trading,4040 Belair Road,Augusta,GA,30909,706-860-3936
Lazy Boy's Trucking,393 Austin Ave E,Pearson,GA,31642,912-422-3661
L D Trucking,9 Harmony Church Road,Colquitt,GA,39837,229-758-6296
Hobgood Logistics,4228 Hwy 41 N,Resaca,GA,30735,706-383-8688
Evans Transportation And Logistics,274 Barnesville Road,Griffin,GA,30224,904-894-6339
Umana's Express,110 Catalpa Way,Athens,GA,30601,407-201-7275
T & S Transport,1154 Rabbit Run Rd,Douglas,GA,31535,912-331-0881
Motivated Transportation,10398 Hwy 41 South,Preston,GA,31824,229-938-8944
Cal-lanta Trucking,"Stockbridge, ",Stockbridge,GA,30281,770-896-6504
Delvecchio D King Sr Trucking,513 Howard St,Swainsboro,GA,30401,478-237-4909
Mann Transportation,9110 Water Ford Lane,Powder Springs,GA,30127,678-549-9770
Brocon Hauling,368 Toole St,Clayton,GA,30525,706-982-9355
Ace Logistics,1885 Sandgate Circle,College Park,GA,30349,770-997-4929
J & M Hauling,901 N Van Wert Rd,Villa Rica,GA,30180,770-456-1799
Maverick Trucking,486 Hagin Circle,Ellijay,GA,30536,706-276-1597
The Autobahn Society,425 Braselton Industrial Blvd,Braselton,GA,30517,706-654-4749
Idak Transport,202 Preserve Ct,Ball Ground,GA,30107,770-735-2203
Kc Trucking,7384 Georgia Highway 16,Waco,GA,30182,770-286-1812
All City Auto Transport And Brokers,1340 Banberry Rd,Marietta,GA,30067,404-551-5015
Bbr Transport,,Fitzgerald,GA,31750,229-425-4568
Tm Express,3205 Citation Avenue,Kennesaw,GA,30144,678-574-9236
Bunkley Trucking,305 Walker Ave,Manchester,GA,31816,706-975-5664
Kimara Jennings,160 Redspire Ln,Atlanta,GA,30331,678-973-6135
K W Trucking,107 Cedar Ridge Dr,Forsyth,GA,31029,478-994-1297
Jpc Livestock Trucking,404 Thurman Dasher Rd,Reidsville,GA,30453,912-240-5288
Kjr Trucking,5044 Hwy 91 North,Donalsonville,GA,39845,229-220-3782
Taylor Trucking,83 Randolph Street,Cuthbert,GA,39840,404-457-9598
C & D Hauling,4821 Valdel Road,Hahira,GA,31632,229-794-1035
Super Duty Transport,4933 Lighthouse Pointe,Acworth,GA,30101,678-574-8296
K G Williams Transport,506 Stephenson Rd,Stone Mountain,GA,30087,770-696-1452
G & G Transport,12 Hickory Trail,Temple,GA,30179,770-562-3120
J G Trucking,58 Honeysuclke Ridge Road,Rome,GA,30161,706-234-7271
Worthan Hauling,115 Richards Street,Carrollton,GA,30117,678-378-8556
Anderson Transport,2104 Patch St,Savannah,GA,31415,912-272-6156
Bravo Moving,7055 Amwiler Industrial Drive Suite D,Atlanta,GA,30360,678-291-9981
Santana Transport,1272 Fairview Farm Circle,Lavonia,GA,30553,706-356-8511
Big Boy Trucking,4008 Nuite Drive,Hephzibah,GA,30815,706-793-4018
Furniture Express,788 Horizon South Pkwy,Grovetown,GA,30813,706-863-8908
O Young Express,3578 Pine St,Atlanta,GA,30340,770-378-0009
31 Transport,219 E Quilly Street,Griffin,GA,30223,678-688-8033
Jet Express,2080 Old Covington Hwy Sw,Conyers,GA,30012,770-761-4190
Ap Trucking,512 Marianna Dr,Shellman,GA,39886,229-679-2002
Barnett And Sons Express,12598 Alabama Hwy,Ringgold,GA,30736,N/A
D J Express,5301 Keithwood Dr,Cumming,GA,30040,678-947-0682
Family Auto Sales,947 Hwy 1 North,Swainsboro,GA,30401,478-237-6260
Ajc Transport Solutions,4248 Riverview Drive,Duluth,GA,30097,770-410-0904
Vrs Transport,1938 Fall Line Freeway East,Reynolds,GA,31076,478-258-5116
Ram Trucking,57 Toccoa Road,Carrollton,GA,30116,N/A
Paulk Transport,5217 Hwy 138,Oxford,GA,30054,770-786-2202
Two Men And A Truck,311 Hwy 49 Suite 75,Byron,GA,31008,478-787-4644
Landshark Trucking,2730 Duke Of Gloucester,East Point,GA,30344,404-416-6988
Goodtime Transportation,2607 Radium Spring Road,Albany,GA,31705,229-343-7070
Maze Transportation,1604 Flatbottom Ct,Mcdonough,GA,30253,678-583-9582
Richards Tire & Automotive,809 Mcfarland Avenue,Rossville,GA,30741,706-866-1249
Broyles Brothers Express,247 Coosawattee Drive,Calhoun,GA,30701,706-629-3117
W Tucker Trucking Co,3677 Jervis Ct,Rex,GA,30273,678-447-8868
Howe Auto Expediting,7139 Georgia Highway 85,Riverdale,GA,30274,678-467-4443
R & J Distribution,1706 Largo Circle,Valdosta,GA,31602,229-293-9933
Amh Transportation,10654 Hwy 411 North,Crandall,GA,30711,706-483-5058
Mike Hunter's Automotive Shop,386 Gumlog Road,Lavonia,GA,30553,706-356-7027
Soul 2 Soul Trucking,1107 W 41st St,Savannah,GA,31415,904-444-1929
W&c Trucking,7207 Us Hwy 17,Woodbine,GA,31569,912-729-5028
Tillman & Deal Ag Services,19 E Olliff Street,Statesboro,GA,30458,912-764-9657
Larry's Brick & Sod Delivery,231 Christian Way,Talking Rock,GA,30175,N/A
Steele Trucking Enterprise,2937 Duncan Place,Decatur,GA,30034,404-244-4051
West Palm Logistics,2190 Shoal Creek Rd,Monroe,GA,30656,770-207-0708
Aj's Transport,145 Wahsega Way,Dahlonega,GA,30533,678-936-3969
A & B Trucking,2030 Hwy 11,Monroe,GA,30656,770-207-5575
G Man Trucking,3106 Hwy 128,Oglethorpe,GA,31068,478-472-2615
Showtime Trucking,1930 Duval St Lot 11,Savannah,GA,31404,912-428-1705
Southeasternecono Auto Transport,985 Cox Avenue,Atlanta,GA,30310,561-333-4173
Yellow River Logistics,2165 East Hwy 5,Carrollton,GA,30116,770-854-6488
Auto Parts Delivery,253 Hillcrest Ridge,Canton,GA,30115,678-493-0306
V & P Trucking Company,1048 Dalby Way,Austell,GA,30106,770-803-0902
Foster Trucking Company,770 Old Roswell Place Ste B 200,Roswell,GA,30022,770-862-5847
Aj Trucking,2329 Threadneedle Ct Apt 1,Albany,GA,31707,229-903-9978
"Prority Tech Solutions Transport, Inc.",2311 Dawn Court,Decatur,GA,30032,404-244-9852
Kingdom Transport,Rt 2 Box 507,Lakeland,GA,31635,229-412-9711
3p's Trucking,2758 Brookton Lane,Dacula,GA,30019,404-808-3747
Wilkins Express,8510 Vickers Road,Hahira,GA,31632,229-563-4350
Cc's Hauling,1273 Lewis Frasier Road,Midway,GA,31320,912-270-2080
K And A Transport,1052 Simonton Glen Dr,Lawrenceville,GA,30045,770-310-9100
E And P Trucking,126 Silverton Rd,Pooler,GA,31322,912-748-9059
Youngs Trucking,147 Old Hwy 41,Adairsville,GA,30103,678-767-2657
Rucker Transport,71 Brentwood Road,Douglas,GA,31535,912-384-6117
American Coastal Express,5812 Cedar Croft Lane,Lithonia,GA,30058,404-438-8364
Paradise Transportation LLC,1530 Viero Dr,Lawrenceville,GA,30044,678-357-6882
Corados Auto Sales LLC,2149 Skelton Rd,Gainesville,GA,30504,770-374-8588
J&j Trucking,103 Blue Spruce Drive,Temple,GA,30179,770-316-9542
Sanjay Transportation,6877 Estepona St,College Park,GA,30349,404-547-5272
Wsa Express,602 Jeffrey Ct,Woodstock,GA,30188,404-771-8794
Henry's Trucking,1419 Edgerly Ave,Albany,GA,31707,229-344-1482
Terry Brown Trucking,120 Mariner Cove Sw,Adairsville,GA,30103,706-625-1677
Voyles Transport,2741 Hwy 212w,Monticello,GA,31064,404-694-7686
Cargo Transport,3511 Old Dawson Rd,Albany,GA,31721,229-889-8034
Little Boss Trucking,7147 J C Earnest Road,Donalsonville,GA,39845,229-861-3588
Sung Trucking,601 Corbley Rd,Rossville,GA,30741,706-866-5845
Motor Carrier,1947 Heathrow Dr,Hinesville,GA,31313,912-368-1802
Parrott Trucking,8110 Hwy 15 South,White Plains,GA,30678,770-900-1086
Jl Truckn,1305 Pennick Rd,Brunswick,GA,31525,912-270-1066
T & A Trucking,1360 Idlewood Rd,Waynesboro,GA,30830,706-554-7972
Bulkpro Transport LLC,6355 Brownlow Ct,Cumming,GA,30040,678-705-8998
Backwoods Trucking,5782 Buttermilk Rd,Sylvania,GA,30467,912-425-1172
Jimmie Adkins Trucking,286 Grant Road,Cairo,GA,39827,229-377-9002
Downey Logistics,14 Delores Drive,Fort Oglethorpe,GA,30742,423-827-3129
G & C Transportation,4409 Bellemeade Dr,Douglasville,GA,30135,770-485-4104
Thomas Brantley Jr,223 Asbury Commons,Dunwoody,GA,30338,678-472-6525
G & G Hauling Company,5047 High Meadows Drive,Grovetown,GA,30813,706-825-5858
F & W Trucking,2106 South 7th Street Lot-c,Cordele,GA,31015,229-322-4279
Green's Haulin,2854 Aska Rd,Blue Ridge,GA,30513,706-632-5279
Webb Transport,320 Crabapple Rd,Fayetteville,GA,30215,770-629-1543
Mivans Transportation,245 Palms Lane Sw,Mabelton,GA,30126,678-945-1177
American Lenders Service Company Of Atlanta,930 Front Street,Mableton,GA,30126,678-398-8856
Jowers Trailer Transport LLC,444 Island Drive,Douglas,GA,31535,912-383-6307
Lightning Fast Transport,2917 Lonesome Road,Albany,GA,31721,229-436-0076
Kountry Boyz Trucking,324 Vanceville County Line Road,Tifton,GA,31794,229-402-2317
Rincon Transmission,319 South Columbia Ave,Rincon,GA,31326,912-663-1461
Davis Auto Transport,26316 Hwy 82,Waynesville,GA,31566,912-778-4623
Bond Trucking,2060 Cathon Davis Rd,Canon,GA,30520,706-491-8449
Mr Central Home Services Of The Coastal Empire,505 West Hwy 80 Suite B,Pooler,GA,31322,912-450-9970
Jesse James Hauling,1819 Hoody Hudson Rd,Cataula,GA,31804,706-681-9187
Mathis Auto Transport,305 Woodsprings Court,Mount Airy,GA,30563,678-994-4164
Loza's Transport Service,702 Virginia Avenue,Dalton,GA,30721,706-217-9036
Hi-line Carriers,307 Cindy Dr,Conyers,GA,30094,770-502-1220
K & A Trucking,105 Powell Drive,Dalton,GA,30720,706-259-5902
Zion International Carriers,3880 Cedar Trace Lane,Ellenwood,GA,30294,404-835-7958
Mmr Delivery,5915 Asby Way,Cumming,GA,30040,N/A
Best Value Global Logistics,2953 Croftwood Trail,Marietta,GA,30064,678-521-6545
Kimda Transport,1882 Drew Circle,Austell,GA,30168,770-948-4771
Jrb Trucking,161 Arnold Street,Locust Grove,GA,30248,478-461-0111
Nautilus Trucker,3375 Centerville Hwy Suite 392826,Snellville,GA,30039,N/A
Msn Carriers,1377 Duncan Lane,Auburn,GA,30011,770-912-1412
Knight Rider Transporting,14660 Highway 87,Forsyth,GA,31029,478-447-7515
Quality Freight LLC,7607 Stonecliff Ct,Douglasville,GA,30134,770-947-0639
"Thomas G Lewis Trucking, Inc.",215 The Oaks Circle,Pearson,GA,31642,912-422-6912
Rf Express,342 Crestbend Lane,Powder Springs,GA,30127,404-729-1431
Quality Freight LLC,269 Indian Hills Dr,Dallas,GA,30157,770-693-9527
Oglesby Trucking,3923 Trudie Rd,Blackshear,GA,31516,912-722-0765
Accudata Mailing Solutions,1026 Fenwick St,Augusta,GA,30901,706-504-4198
Sts Auto Express Transport,3959 Key Stone Place,Conley,GA,30288,404-363-2060
Sunshine Express,3615 Grahams Port Drive,Snellville,GA,30039,404-906-4357
Gray And White Auto Parts,733 Cross Plains Hulett,Carrollton,GA,30116,770-838-0720
Atl Trucking,136 Hambrick Drive,Stockbridge,GA,30281,770-389-5099
Kountrys Trucking,1462 Hwy 91 South,Colquitt,GA,39837,229-416-6979
Brex Express,980 Chapel Station Drive,Lawranceville,GA,30045,678-704-1817
Compass Courier & Logistics,309 Clarion Drive,Carrollton,GA,30116,770-617-1276
Handyman,715 Edmondson Rd,Moultrie,GA,31788,229-324-2462
Faircloth Trucking,4931 Rushcreek Hwy,Woodland,GA,31836,706-741-2786
B&g Express,6160 Mount Pisgah Court,Austell,GA,30168,770-948-1277
Move-it Intl,3645 Marketplace Blvd #130393,Atlanta,GA,30344,404-988-2400
Hun Logistics,1018 Branch Drive,Alpharetta,GA,30004,678-712-1421
E & J Trucking,2987 Leathersville Rd,Lincolnton,GA,30817,706-359-4536
C & G Trucking,40 Beta Rd,Hazlehurst,GA,31539,912-379-9886
Taylormade Trucking,1025 Frye Road,Dalton,GA,30721,706-278-1136
M Ruiz Services,130 Jayne Ellen Way,Alpharetta,GA,30009,678-677-2827
Best Carrier Xpress,7165 Fryer Road,Blakely,GA,39823,229-723-3958
Km Delivery Service,7475 Steven Pl,Jonesboro,GA,30236,678-334-8520
Wbhauling,1210 Ponder Pines Rd,Madison,GA,30650,706-318-7329
Paul Thompson Trucking,141 Parker Dr,Macon,GA,31217,478-745-5029
Carson Transport,6421 Fairburn Road,Douglasville,GA,30134,770-949-7878
D And J Logistics,535 Old Mill Lane,Ringgold,GA,30736,423-718-3606
Driver's Trucking,1823 Hwy 54,Hogansville,GA,30230,706-302-9597
H E A T Field Services,692 East Ellison Bridge Road,Sardis,GA,30456,478-569-4533
J & L Auto Transporters,503 Bradley Lane,Claxton,GA,30417,912-334-0699
Stepping Stone Transportation,301 Country Wood Dr,Warner Robins,GA,31088,423-243-6381
H & B Express,6545 White Mill Road,Fairburn,GA,30213,678-548-1685
Dually Don Trucking,3801 Leary Road,Albany,GA,31721,487-952-3779
Bv Trucking,9425 Highway 92 West #124,Woodstock,GA,30188,678-392-6601
Norman Transportation Service,2059 Pinemount Blvd,Statesboro,GA,30461,912-489-0535
Jj Camacho Trucking,1715 The Falls Parkway,Duluth,GA,30096,678-206-1005
Charter Bus Line,112 Norcross St#3,Roswell,GA,30075,469-360-5245
Yarbrough Trucking,2151 Walls Circle,Trenton,GA,30752,706-657-4583
H&s Express Delivery,1329 Chaplin Dr,Columbus,GA,31904,706-221-4949
Pruett Trucking,1249 Granite Lane,Loganville,GA,30052,770-601-8181
Barns Trucking,1907 Carrington Park,Jonesboro,GA,30236,404-625-4429
Jr Trucking,69 Paterson Rd,Griffin,GA,30223,770-233-1672
Jj Clay Transport,238 Story Lane,Leesburg,GA,31763,229-439-7771
Cash Money Trucking,8360 Milam Loop,Fairburn,GA,30213,404-808-2387
Enrique's Auto Service,3027-a Riverwatch Pkwy,Augusta,GA,30813,706-495-6666
Agnes Trucking,1485 Wynsong Ct,Douglasville,GA,30134,404-578-3582
Sampson Trucking,2121 Techwood Dr,Albany,GA,31707,229-349-0942
Georgia Equipment Express,8070 Fairoaks Court,Jonesboro,GA,30236,770-478-8532
Advance Trucking Service,2524lithonia Industrial Blvd Ste E,Lithonia,GA,30058,678-580-5139
Southern Transporters,3130 Tolbert Dr,Decatur,GA,30033,770-939-3389
Chatham Trucking,1137 Buchanan Hwy,Dallas,GA,30157,404-920-4534
Martin Family Transport,3633 Post Oak Road,Ringgold,GA,30736,423-593-5640
S&m Trucking,750 Charlie Fuller Rd,Grantville,GA,30220,770-927-3466
Nar Automotive Transport,4959 Buford Hwy,Norcross,GA,30071,678-598-0486
R B Transport,3201 Hampton Ridge Way,Snellville,GA,30078,770-558-1490
God And Time Trucking,1341 River Club Drive,Conyers,GA,30012,678-562-9966
Integrity Trucking,599 Mangham Rd,Griffin,GA,30224,229-854-7831
Professional Services,103 Wildwood Dr,Cumming,GA,30040,404-610-0128
Lisk Trucking,333 Beaver Chase Lane,Gay,GA,30218,706-538-9855
A & A Transport,89 Harmony Grove Road,Lilburn,GA,30047,678-895-4560
Moving Forward,21 Hilltop Way,Dawsonville,GA,30534,706-265-1573
Tags Truckin LLC,1213 Morrow Dr,Social Circle,GA,30025,770-464-0251
M L W Express,123 Wiley Acres Dr,Cordele,GA,31015,229-938-2333
Latimore Trucking,581 Browns Crossing Rd,Milledgeville,GA,31061,478-456-3548
Murrays Auto Carrier LLC,265 Pink Dogwood Lane,Pooler,GA,31322,912-748-8899
Jcj Transport,224 Hwy 80,Ellabel,GA,31308,912-536-6233
T&j Transport,2516 Cherokee Drive,Albany,GA,31705,229-894-1129
Green's Trucking,214 Chinaberry Lane,Perry,GA,31069,478-919-1834
Morgan Trucking,541 Morgan Road,Springfield,GA,31329,912-754-1150
Cherry Trucking,582 Roberts Drive Apt 105,Riverdale,GA,30274,404-552-6722
Ace Dog Express,4445 D And W Dr,Lizella,GA,31052,478-935-2926
Q& C Trucking,1427 Bellflower Road,Dawson,GA,39842,229-310-0439
Cali Trucking,5914 Sarah Ashley Drive,Lithonia,GA,30058,734-818-7883
Baker's Trucking,1205 Golden Circle Sw,Lilburn,GA,30047,678-395-4813
L&a Transport,1924 Old Ridgeway Rd,Bremen,GA,30110,404-430-6637
Concept Auto Transport,1000 Iris Dr Ste G-5,Conyers,GA,30094,678-413-9400
K Toms Logistics,1971 Oakbluff Dr,Austell,GA,30106,404-468-2912
Tremon Services,983 Peel Castle Ln,Austell,GA,30106,404-974-5626
Swt Trucking,101 Sun Et Dr,Bainbridge,GA,39817,229-246-6283
Dns Trucking,1851 Anderson Road,Rentz,GA,31075,478-984-5108
Xbr Trucking,2070 Mallard Way,Lithonia,GA,30058,404-243-7323
Atlanta Charter Services,3116 Chestnut Drive,Atlanta,GA,30340,404-663-8975
Joyful Noise Enterprises,26 North Eastman Avenue,Helena,GA,31037,912-253-9376
Mr Big Express,5583 Windwood Rd,College Park,GA,30349,678-727-2263
Sg Trucking,2370 Recreation Rd,Macon,GA,31217,478-731-8946
Rjk Transport,10 Salem Dr,Hampton,GA,30228,770-820-7442
Cg Transport,35 Cheyenne Dr,Covington,GA,30016,810-394-6938
D&j Trucking,224 Kitchens Rd,Haddock,GA,31033,478-234-0237
Elite Car Sales And Service,345 Brennan Road,Columbus,GA,31907,706-685-0330
G & G Trucking,290 Balaban Circle,Woodstock,GA,30188,678-402-1125
"Mongoose Trucking, Inc.",400 North Hamilton Street,Dalton,GA,30720,706-217-6190
Franklin Sapp Farms,10510 Moultrie Hwy,Quitman,GA,31643,229-775-2604
"Worldstar Tramsportation Services, Inc.",6595 G Roswell Rd #843,Atlanta,GA,30328,404-437-6264
Patrick's Transport,104 Hawk Drive,Woodbury,GA,30293,706-553-3974
Webb Transport,575 Doerun Norman Park Road,Norman Park,GA,31771,229-769-3709
Joyner Trucking,531 North Main Street,Pearson,GA,31642,N/A
Sagas Trucking,245 Gwinnett Street,Fayetteville,GA,30214,678-551-9770
Asap Recovery Services,3094 Highland Terrace,Lithia Springs,GA,30122,770-732-1150
Edward Thomas Transport,2019 Falling Leaf Lane,Valdosta,GA,31602,229-200-3998
Bk Express,3506 Tiffany Drive,Conyers,GA,30013,770-910-4535
Cherokee Transmission,6201 Longwood Chase,Canton,GA,30115,770-704-0788
H & H Trans,2076 Reserve Pkwy,Mcdonough,GA,30253,706-332-8306
Napier Trucking,404 Barnesville Street,Thomaston,GA,30286,706-975-5364
Tnt Logistics,5884 Old Town Place,Norcross,GA,30003,404-285-0636
Mcr Trucking,12679 Hwy 136,Risingfawn,GA,30738,423-847-8646
S & W Transport,3307 Clearview Drive,Gainesville,GA,30506,770-540-4397
Reynolds Trucking,626 Wynbrooke Pkwy,Stone Mountain,GA,30087,770-413-9029
Xtreme Moving,2787 Thompson Mill Rd,Buford,GA,30519,678-889-2288
George's Auto Carriage & Transport,601 Creekside Trace,Covington,GA,30014,678-447-7513
Mcclain Transport,2636 Hwy 130 West,Vidalia,GA,30474,912-537-4312
Bubba's Trucking,1871 Horace Ave,Valdosta,GA,31601,229-225-7014
Appointed Time Jc Transport,213 Providence Lane,Martin,GA,30557,706-356-2396
Caring Hands Moving & Storage,5060 Bent Creek Ct,Sugar Hill,GA,30518,404-343-8795
Dw Transportation Services,247 Carmell Court,Mcdonough,GA,30252,770-320-7710
The Bulkhead Guys,9529 South Main Street Suite 900,Jonesboro,GA,30236,770-471-4000
Budget Movers Ron And Tammara Trucking,419 Hurricane Shoals Apt E8,Lawrenceville,GA,30044,678-456-2311
Stm Hauling,357 Brooklyn Drive,Dallas,GA,30132,678-794-9875
Bat,625 Old Norcross Rd Suite E,Lawrenceville,GA,30046,770-339-8557
S & K Trucking,425 Jenkins Road,Rossville,GA,30741,706-861-3378
Napoleon Logistics LLC,1899 Cades Cove,Jonesboro,GA,30236,678-371-1986
J & K Transport,2425 Blackstock Drive,Cumming,GA,30041,770-292-9918
Cj & Son Transport Services,126 Acadian Drive,Stockbridge,GA,30281,678-592-2693
Sg Trucking,4880 Spout Springs Road,Buford,GA,30519,770-945-0915
Lord And Shippe Trucking,1560 Fieldgreen Overlook Ste B,Stone Mountain,GA,30088,404-552-2168
Big H Trucking,1246 Hightower Road,Hogansville,GA,30230,706-416-2394
Carroll Butler Trucking,296 Watts Street,Camilla,GA,31730,229-347-3514
Banks Transport,1116 Sutton Road,Forsyth,GA,31029,404-379-5915
Ewtransport,1763 Park Ct,Griffin,GA,30224,678-588-7447
Armstrong Transport,174 Annie Mae Drive,Dahlonega,GA,30533,678-630-1076
Rickey Stoker Trucking,6709 N Marble Top Rd,Chickamauga,GA,30707,706-375-6212
B & M Trucking,610 Madison Ave,Ashburn,GA,31714,229-947-2636
Trm Trucking,1056 Sam Paul Road,Elberton,GA,30635,706-988-2364
M & B Trucking,30 Wimberly Way,Covington,GA,30016,770-385-2984
Jmt,6953a Lj Lane,Blackshear,GA,31516,912-281-2216
Marshall Trucking,74 Dove Lane,Folkston,GA,31537,912-496-0806
5 Star Auto Transporters,3447 Seneca Farm Drive,Buford,GA,30519,678-482-4496
Infinivision,1048 Cone Road,Forest Park,GA,30297,404-549-9949
Woody's Trucking,4703 Hwy 188 West,Ochlocknee,GA,31773,229-377-5760
Derrick Transportation,2486 Tullamorecircle,Snellville,GA,30039,678-687-7842
James Dalton Trucking,8090 Spence Road,Fairburn,GA,30213,770-774-2537
Ramadeen Transport,2013 Addison Lane,Alpharetta,GA,30005,678-524-0082
Dv Auto Repair & Body Shop LLC,4281 Hugh Howell Rd,Tucker,GA,30084,678-438-9034
Broadriver Septic Service,1011 Broadriver Scenic Dr,Tignall,GA,30668,706-359-6971
Wilson Auto Carrier,117 Ross Ct,Gray,GA,31032,678-920-8060
Jordan Transport,205 Kinchafoonee Creek Road #43,Leesburg,GA,31763,229-436-3833
Late Night Haulers,330 Knight Rd,Waynesboro,GA,30830,706-554-5605
Mid-state Farms,Po Box 25,Dudley,GA,31022,478-278-9511
Three Sisters,804 Pine Ridge Bend,Stone Mountain,GA,30087,770-465-6362
Brown Transport,127 Foster Rd,Macon,GA,31217,478-456-5895
Cbt,4281 Mcbrayer Rd,Oakwood,GA,30566,770-967-0173
C K Trucking,275 Alfred Street,Savannah,GA,31408,912-965-9966
T Harrison Trucking,912 Adel Street,Savannah,GA,31405,912-859-7238
Best Rates,4827 Lantern Court,Lithonia,GA,30038,678-754-2781
Dc Baggett Trucking,616 Scooter Rue Rd,Dexter,GA,31019,478-875-3333
Wrapture Express,950 Eagles Landing Pkwy Suite 402,Stockbridge,GA,30281,404-308-2841
G & J Transport,12715 Hwy 142,Oxford,GA,30054,770-786-8730
Tallent Trucking,4565 Thomson Hwy,Lincolnton,GA,30817,706-359-6572
Bryin Shane Russell,27 Tucker Dr,Comer,GA,30629,706-540-9701
Mobley Trucking,1514 Saint George Pl,Conyers,GA,30012,770-679-4367
Awt Transport,2721 Peyton Springs Circle,Atlanta,GA,30311,404-576-0865
"Dolen Distribution, Inc.",24 Vaughan Drive N E,Cartersville,GA,30121,770-387-1361
C&h Trucking,4473 Empire Rd,Jesup,GA,31545,912-294-6814
Ac Trucking,523 Roxbury Dr,Riverdale,GA,30274,N/A
G & K Trucking,2047 Birdsong Road,Thomaston,GA,30286,706-646-2292
Dumaine Transportation,3102 Madison Dr,Monroe,GA,30655,404-754-3979
Same Above,4306 Hamilton Rd,Columbus,GA,31904,706-289-8858
Reese Trucking,2048 Plantation Pointe Drive,Statesboro,GA,30461,912-687-5940
Springfield Wrecker Service,1110 S Laurel St,Springfield,GA,31329,912-754-6831
Stricklands Trucking,654 James Knight Road,Jesup,GA,31545,912-432-4708
Thorpe Logistics,385 Shadowbrooke Circle,Loganville,GA,30052,404-453-1879
Kasai Trucking,1425 Brandon Place Apt 4f,Gainesville,GA,30501,678-549-4672
Mma Auto Transport,108 Cedar Point Drive,Savannah,GA,31405,912-220-6033
Maca Express,64 Williamsburg Dr,Dallas,GA,30157,786-271-7294
Victory Lap Auto Sales,176 Greenville Street,Newnan,GA,30263,202-521-1493
King Of Kings Transportation,237 Vernoy Aiken Rd Apt 208,Dallas,GA,30157,678-480-5716
Jennis Trucking,521 Victoria Rd,Woodstock,GA,30189,678-283-1931
Transcom Motors,280 Old Plantation Way,Fayetteville,GA,30214,404-936-6238
R & K Services,2837 Cheatham Rd,Acworth,GA,30101,678-294-1218
Papa's Pine Straw & Grass Service,250 Parks Mill Rd,Buckhead,GA,30625,706-485-8968
M Good Trucking,69 Bald Rock Rd,Oxford,GA,30054,404-789-7367
Cct Distributors,203 Knodishall Drive,Warner Robins,GA,31093,478-929-2227
Bj & J Logistics,3896 Riverside Drive Apt 3825,Macon,GA,31210,478-405-5300
Nitro Automotive,2265 Veterans Blvd,Dublin,GA,31021,478-304-1330
B Green Express,7096 Georges Way,Morrow,GA,30260,678-369-7584
Sni National Logistics,1612 West Cleveland Avenue Ste 304,East Point,GA,30344,678-705-9657
Greenleaf Transport,6830 Manor Creek Dr,Douglasville,GA,30135,404-275-5385
D Hurst Trucking,42 Elkay Ct,Hiram,GA,30141,770-489-1541
Bpsi Transport,1383 Oglethorpe St,Macon,GA,31201,478-741-5561
Good Guy Trucking,1284 Gazebo Way Apt 1814,Columbus,GA,31903,205-937-4793
Knox Freight,505 Heatherdown Way,Riverdale,GA,30274,678-858-6752
Eryder Pro LLC,820 Carrington Green Prkwy,Mcdonough,GA,30252,470-345-8755
Clifford Hauling,2927 Norwood Dr,Augusta,GA,30909,706-589-5659
K&c Enterprise,63 Erva Street,Villa Rica,GA,30180,770-459-3971
Prg Transport,790 Sweetwater Bridge Cir,Douglasville,GA,30134,770-489-4605
Trans Aguilar,6335 River View Road,Mableton,GA,30126,404-691-5551
Philly Dog Trucking,228 Morrow Rd Apt 26f,Forest Park,GA,30297,N/A
Gunsmoke Trucking,1465 Oak Ln,Acworth,GA,30102,678-761-0122
M I R Transport,204 Summer Crossing,Sandy Springs,GA,30350,540-437-0530
Sikes Collision Center,128 Randolph Street,Savannah,GA,31401,912-238-2425
Chapman Trucking,5432 Vernonburg Dr,Columbus,GA,31907,478-747-9107
R&r Transport,1205 Boleman Hill Rd,Hartwell,GA,30643,706-436-5415
S And M Transportation Service,2993 Meadowsweet Trl,Snellville,GA,30078,770-978-9540
New Image Services,1601 Wildwood Trail,Ft Oglethorpe,GA,30742,706-820-6205
Jj Transport,5789 Dorian Court,Lithonia,GA,30058,678-518-7144
D&d Transport,200 Woodland Trail,Warner Robins,GA,31088,727-348-8350
Owens Trucking,1499 Grove Point Road,Savannah,GA,31419,240-441-2664
Smith Transport,641 Billy White Rd,Roberta,GA,31078,478-836-2301
J & J Trucking,490 Charleston Lane,Lawrenceville,GA,30046,404-322-5788
Illuminati Trucking,5680 Mountain View Pass,Stone Mountain,GA,30087,678-558-9144
Corporate Express Transport,1615 A Whisperwood Street,Albany,GA,31721,229-903-8840
King Of Kings Trucking,9100 Plametto Cascade Hwy Apt 4g,Palmetto,GA,30628,N/A
Ask Transportation LLC,8108 Mountain Pass,Riverdale,GA,30274,678-386-5424
Going Your Way Transport,130 South Fork Drive,Macon,GA,31220,478-745-5111
Jeg Enterprise,22072 Us Hwy 319 N,Coolidge,GA,31738,229-890-7620
Horis A Ward,119 Bell Rd,Jackson,GA,30233,770-775-7272
Oshanta Trucking,4140 A Ogeechee Road,Savannah,GA,31405,912-232-8750
Kineo,2626 Coral Way,Macon,GA,31211,478-227-7534
"Grace Jue Trucking, Inc.",3931 Lehigh Blvd,Decatur,GA,30034,770-322-0841
F & F Transport,255 Beaver Street,Ray City,GA,31645,229-563-3028
Gba Logistics,4065 Will Lee Road,Atlanta,GA,30349,404-992-1941
Mcghee Trucking,2957 Courtland Oaks Trail,Marietta,GA,30060,770-801-0621
Benjys Repair Service,8046 Hwy 84,Patterson,GA,31557,912-647-2616
"Ajm, Inc.orporation",2423 Treelodge Prky,Lithia Springs,GA,30122,678-760-1898
Tab Trucking,49 Union St,Summerville,GA,30747,706-808-0403
Edenic Pioneer Transport,188 Holderness St,Atlanta,GA,30314,877-255-2989
H-n-h Trucking LLC,3200 High Falls Rd,Griffin,GA,30224,205-296-4335
Ponder Farms Trucking,300 17th Ave Nw,Cairo,GA,39827,N/A
Master Auto Carriers,509 N Westover Blvd,Albany,GA,31707,229-291-2290
South Eastern Logistics And Freight,423 Boulevard Ne Apt 1,Atlanta,GA,30308,404-396-0441
The Lette Group,630 Seymore Pass,Canton,GA,30115,404-422-4104
Iest,1069 Regent St,Atlanta,GA,30310,888-605-8886
L F Transport,1734 Milton Way,Perry,GA,31069,478-951-7334
Hilary Geren,3536 Hilary Lane,Valdosta,GA,31601,615-613-6530
"3 In 1 Pinetreeservice, Inc.",4196 Buford Hwy,Duluth,GA,30096,678-878-5498
Moor Transport,1042 Thornewood Lane,Stone Mountain,GA,30083,678-802-7997
Serena Alexander Transport,115 Martin Sheffield Road,Carrollton,GA,30116,678-898-0659
Ccs Trucking,130 Zeke Smith Rd,Homerville,GA,31634,912-470-1006
Blueprint Transportation Logistics,3882 Conely Down Drive,Decatur,GA,30034,404-840-3454
A C Trucking,29 Pinson Lane,Rllijay,GA,30540,706-889-9978
Farmer Trucking,39 Farris Drive,Rome,GA,30165,706-252-5792
Jr's Transporting,1392 Spring Grove Road,Jesup,GA,31545,912-588-9977
J&n Tranpsort Co,613 Warren Way,Winder,GA,30680,770-867-7087
Blazing Hot Events,809 Blue Bird Trail,Fortson,GA,31808,706-341-0455
Pfg Cable Service,4520 Fredrick Dr,Atlanta,GA,30336,678-244-5555
Super Movers,163 Braxton Dr,Macon,GA,31210,770-862-2942
Family And Friends Movers,5750 Buffington Rd Suite 11107,College Park,GA,30349,404-389-7242
L & M Moving And Storage,86 Bankston Avenue,Flintstone,GA,30725,423-774-0749
"Rjc 210 Express, Inc.",6522 King William Dr,Columbus,GA,31909,706-221-8135
Heritage Trucking Co,60 Alcovy Circle,Covington,GA,30014,678-712-9390
B&b Transport,6360 Tyree Rd,Winston,GA,30187,770-675-3508
Booger Transport,4274 Hwy 98 W,Danielsville,GA,30633,706-614-3333
Burt's Trucking,306 Early Hutchinson Road,Tifton,GA,31793,229-821-0825
Trans-herrera,410 Old Dixie Way,Forest Park,GA,30297,404-509-5062
Transgroup Wwl,650 Atlanta South Parkway Suite 109,Atlanta,GA,30349,404-766-8935
Parris Auto Transport,485 Buford Drive Ste #100,Lawrenceville,GA,30046,404-247-8205
Cfdi,5410 Covington Hwy,Decatur,GA,30035,404-963-1089
C & C Auto Carrier,4502 Moline Ave,Columbus,GA,31907,706-575-8228
A&j Trucking,6354 Shannon Pkwy Unit 15 B,Union City,GA,30291,770-274-9454
Cd Logistics,119 Towler Dr,Lawrenceville,GA,30046,N/A
T&t Trucking,1692 Wildwood Rd,West Green,GA,31567,912-384-2820
Allen Trucking,Mistletoe Road 1671,Abbeville,GA,31001,229-467-9382
Rual Waste,4601 Woodstock Rd,Roswell,GA,30075,770-522-1599
Colley Transport,905 Hwy 61,Cartersville,GA,30120,770-386-1488
Long Haul Logistics,1140 Allgood Rd,Stone Mountain,GA,30083,678-740-6755
Puroclean Emergency Recovery Services,4260 Creek Park Drive Suite D,Suwanee,GA,30024,770-225-5800
Courteous One Transport,635 Seiler Ave,Savannah,GA,31401,912-228-0601
D & N Trucking,473 Broad St,Tallapossa,GA,30176,678-495-8144
Southern Trucking,2136 Ga Hwy 93 S Lot 2,Cairo,GA,39828,229-225-6976
Timber Roundup,954 North Pearl,Jakin,GA,39861,229-793-2066
Alabama Import Auto Movers,391 17th Street Apt 1023,Atlanta,GA,30363,404-693-4645
Smurf Trucking,2662 Gill Rd,Patterson,GA,31557,N/A
Infinitedelivery,819rowlandstreet,Clarkston,GA,30021,404-299-8030
The Transporter Luxury Auto Carrier,1661 N Getnew Drive,Duluth,GA,30096,678-358-5763
Traksouth Civil Contractors LLC,1190 Interstate Parkway,Augusta,GA,30909,706-434-2700
Tool Barn Trucking,428 S 3rd Ave,Chatsworth,GA,30705,706-618-7899
Deep South Trucking,115 Ellis Road,Statesboro,GA,30461,912-688-4076
Transman Logistics,5561 Memorial Drive Suite D,Stone Mountain,GA,30083,404-380-8188
Latimore Trucking,2914 Calhoun St,Shellman,GA,39886,229-310-0989
Lnk Trucking,235 Buford Ridley Rd Se Apt# G,Dalton,GA,30721,256-601-4853
Nowega Leasing,3527 Chattanooga Road,Tunnel Hill,GA,30755,706-508-4335
Gbi Trucking,290 Glen Echo Drive,Covington,GA,30016,843-271-6815
Ballards Truckin,3215 I Sunrise Village Ln,Norcross,GA,30093,404-512-3388
Anywhere Auto Transport,3462 Oakleaf Pass,Fairburn,GA,30213,404-468-7649
C And S Trucking,140 Blalock St,Atlanta,GA,30354,404-213-1237
R & S Transport,104 Creek Side Drive,Carrollton,GA,30116,770-830-8001
Battens Automotive,9324 South Main Street,Nahunta,GA,31553,912-462-2286
Honesty Seafood,5410 Covington Hwy,Decatur,GA,30035,404-963-1089
Hardy Enterprise,104 Beaty Trail,Flovilla,GA,30216,404-484-1703
Gap Trucking Company,117 Heritage Way,Savannah,GA,31419,912-234-0379
A&j Transport &recovery,811 Chandlers Ferry Rd,Hartwell,GA,30643,706-376-8073
D Reece Trucking Co,2826 Ferret Ct,Martinez,GA,30907,706-364-6755
B J Transport,3304 Ruckersville Rd,Elberton,GA,30635,706-283-6298
Mr Rucker Transportation,705 Spring Valley Road Lot 226,Athens,GA,30605,706-650-5966
T And C Trucking,628 Mill Pond Rd,Bluffton,GA,39824,229-641-3486
Dan Stumpfhauser,1029 Peachtree Parkway North,Peachtree City,GA,30269,239-434-0777
Dowe Logistics,236 Claystone Woods Drive,Athens,GA,30606,770-855-3978
Walker Automotive Repair,2042 Three Notch Rd,Ringgold,GA,30736,706-965-8025
Triple T Trucking Co,228 Glen Merritt Rd,Wray,GA,31798,229-424-9616
Eagles' Wing Express LLC,4078 Five Oaks Ct,Powder Springs,GA,30127,770-864-0323
Southern Glory,6430 Dexters Drive,Cumming,GA,30040,678-226-9831
Ao Logistics,3635 Bob Hannah Drive,Lawrenceville,GA,30044,404-668-1563
Elite Express Travel Coach,1160 Sherbrooke Dr,Macon,GA,31204,478-477-0305
Tmh Services,165 Bell Road,Lagrange,GA,30241,706-302-2336
Kc Trucking,31 Holly Lane Road,Blairsville,GA,30512,706-745-3326
R H Trucking,1477 Red Land Road,Franklin,GA,30217,770-862-8421
"Suga Transport, Inc.",1111 Hillcrest Drive Se,Atlanta,GA,30316,404-797-4190
Trans6,246 Sequoia Dr,Marrietta,GA,30060,770-429-8052
A W Logistics,5799 Shoal Creek Drive,Douglasville,GA,30135,770-949-9489
C & C Transport,670 Broad St,Augusta,GA,30901,706-825-4904
Eagle Express Courier - Ama,163 Parkstone Way,Marietta,GA,30068,770-875-3836
Olvera Trucking,370 Chandlers Rdg,Chatsworth,GA,30705,706-537-4202
B Wiggins Express,341 A Old Summerville Road,Rome,GA,30165,706-506-5805
Fastlane Transport,1504 Alsace Way,Hoschton,GA,30548,678-571-3678
Young's Auto Transport,27 King Street,Savannah,GA,31408,912-963-0661
Gargoyle Express,20 Harbour Road,Rome,GA,30165,706-378-2968
"Baytown Transport, Inc.",400 N Hamilton Street,Dalton,GA,30720,706-483-1423
Smallwood Enterprises,7281 Sinyard Rd,Lithia Springs,GA,30122,770-560-6609
Grw Trucking,100 Lenox Drive,Jefferson,GA,30549,706-367-1171
A Plus Moving And Delivery Service,4714 Lost Colony Court,Stone Mountain,GA,30088,404-384-7355
Miller Trucking,232 Claxton Rd,Hazlehurst,GA,31539,912-253-3451
Cody Movers,1604 Flintwood Dr,Atlanta,GA,30316,678-462-6384
Peculiar Treasure,803 Olive St,Hinesville,GA,31313,912-492-0495
Rlr Trucking,425 E Northwood Drive,Griffin,GA,30223,678-614-7550
Rkmj Trucking,520 Stoney Creek Dr,Winder,GA,30680,404-606-6016
"Ekam Transport, Inc.",1020 Rosewood Ln,Cartersville,GA,30121,770-573-1054
Rattlesnake Transportation,870 Chesterfield Drive,Marietta,GA,30066,678-218-2264
Garden Palace Services,124 Kimberly's Way,Jasper,GA,30143,770-815-2705
Wallace & Sons Trucking,326 Forrest Rd,Springfield,GA,31329,912-754-0821
Burst Transport,809 Lonsdale Lane,Ranger,GA,30734,706-334-1971
State Line Trucking Of Lake Park,229 Loyd Circle,Lake Park,GA,31636,229-539-7681
Colvin Transport,128 Curtis James Rd,Gray,GA,31032,478-986-8585
285 West Trucking Company,2636 Mlk Jr Dr #10,Atlanta,GA,30311,404-396-2913
Fleming Trucking,09 Pecan Street,Alapaha,GA,31622,229-567-3410
Monica Kinuthia,3509 Baroney Lane,Marietta,GA,30008,678-398-7745
Edwards Auto Transport,2310 Tucker Mill Rd,Conyers,GA,30094,770-922-1528
Rrb Trucking,3110 North St,Waycross,GA,31503,912-288-0133
Earth Movers,810 Tyler Woods,Grovetown,GA,30813,706-267-8685
Chb Shipping,3800 Wendell Dr Suite 405,Atlanta,GA,30336,678-665-3290
"Tw Auto Transport, Inc.",371 Cowart Rd,Hinesville,GA,31313,910-797-4485
K & X Express,1951 Southampton Road Unit D7,Atlanta,GA,30349,770-256-2664
Jdm Trucking,2805 Jq Adams Rd,Donalsonville,GA,39845,229-861-2607
K And K Logistics,1415 Highway 85 N Ste 310-225,Fayetteville,GA,30214,404-516-5400
Parkers Hauling,176 Old Tusculum Rd Lot 5,Springfield,GA,31329,912-547-5961
John S Trucking,605 Nixon Jones Rd,Folkston,GA,31537,912-966-1877
A D Woodard Freight,4550 Torree Pines Lane,Lake Park,GA,31636,229-560-5823
Motor Carriers Of Georgia,80 Clover Valley Drive,Covington,GA,30016,770-786-1129
Fortune Freightlines,330 Nicole Dr,Resaca,GA,30735,706-229-9190
Level Transport,613 16th Avenue Suite 5,Albany,GA,31701,770-205-0218
Gantt's Ltl & Auto Transport,6606 Catawba Dr,Acworth,GA,30102,678-697-1596
55 Double Nickels Dave Transport,103 Cardinal Ave,Perry,GA,31069,478-987-8641
T And A Trucking,136 Strickland Loop Road,Forsyth,GA,31029,478-992-9243
Tar Transport,40 Horseshoe Bend,Riverdale,GA,30274,404-276-7105
Freedom X-press,1226 Dylan Way,Bethlehem,GA,30620,678-314-7627
Blue Ridge South Transportation,5695 Cub Court,Stone Mountain,GA,30087,770-925-7687
R&r 2 Trucking,134 Aaron Rd,Bainbridge,GA,39817,229-246-2394
Kimberly Ann Street Transport,277 Hwy 11,Rising Fawn,GA,30738,706-462-2468
Unique Automotive Logistics,619 Tranquillity Way,Mcdonough,GA,30252,404-606-3778
R & B Transport,4396 Joe Kennedy Road,Collins,GA,30421,912-557-3352
Pete's Garage,1303 E Screven St,Quitman,GA,31643,229-263-5755
J-cam Trucking,3606 Sanford Rd,Nicholson,GA,30565,706-757-5281
M&t Transport,281 South Blvd,Camilla,GA,31710,229-330-0129
Rodney Cater Trucking,695 Hwy 279,Fayetteville,GA,30214,678-817-0526
Wow Trucking,1071 Ne Bacon Street,Dawson,GA,39842,229-995-5709
Robert Barnes Trucking Company,2854 Bonny Brook Drive Sw,Atlanta,GA,30311,404-668-0367
Pro Transport,4451 Atlanta Road Se,Smyrna,GA,30080,404-561-1314
Jones 3 Trucking,2205 Hutchison-parrish Rd,Adel,GA,31620,229-896-1823
E & M Trucking,1131 Reilly Lane,Clarkston,GA,30021,404-554-7995
Williams Transportation Services,2615 Hwy 192 South,Twin City,GA,30471,912-562-3236
U First Trucking,27 Owens Road,Butler,GA,31006,478-862-2144
Farr-jones Transportation,3724 Mlk Jr Dr Sw Apt 230,Atlanta,GA,30331,770-276-4927
Taylor Transport,3318 Hunting Creek Pass,Douglasville,GA,30135,678-324-7481
M & F Transport,845 Fox Run,Metter,GA,30439,912-685-2393
Abernathy Farms,39 Carney Lane,Blairsville,GA,30512,706-781-5994
"Southcoast Equipment Service, Inc.",1849 Sandhill Rd,Guyton,GA,31312,912-657-0329
Pettway Transporting,208 Greenland Court,Mcdonough,GA,30253,770-305-7195
Segen Trucking Company,761 Chanson Drive,Marietta,GA,30064,770-428-1266
Hook & Drop Transporters,1011 Walden Glen Lane,Evans,GA,30809,770-205-0218
Cardwell Trucking,6417 Jordonville Lane,Waycross,GA,31503,912-590-4373
Sportcoat Transport,125 Townpark Drive Suite 300,Kennesaw,GA,30144,678-517-8704
Bluebird Trucking,356 Carnation Drive,Social Circle,GA,30025,770-464-1933
Shyann Trucking,9015 Hwy 166,Winston,GA,30187,770-489-0663
L&e Transport,4893 Hwy 37,Adel,GA,31620,229-896-2079
Delivery Service,1228 Highland Parc Place,Marietta,GA,30067,678-850-3627
Aik Transport,144 Grady Street,Rochelle,GA,31079,229-365-0025
Freeman Trucking,33 Hawkinsville Rd,Garden City,GA,31408,912-512-2745
Tl Transport,5962 Mount Zion Blvd,Ellenwood,GA,30294,770-968-1805
P&b Tomlinson Trucking,1095 Brandi Lane Nw,Townsend,GA,31331,912-202-6131
G & G Trans'it,3292 Dothan Hwy,Brinson,GA,39825,229-246-3289
S&c Trucking Company,265 Deerfield Drive,Jonesboro,GA,30238,678-682-4996
Fenwyk Hauling,1787 Wolfpit Road,Eastanollee,GA,30538,706-779-0372
Procare Transport LLC,111 Ricardo St,Waycross,GA,31501,912-283-9973
Boydco LLC,16 Pat Webb Circle,Rossville,GA,30741,404-295-9043
Swain Trucking,448 Carrie Kathleen Ter,Carrollton,GA,30116,770-294-4763
Jdf Trucking,108 Brockton Oaks Drive,Jefferson,GA,30549,706-201-8151
Vows Transportation,140 Birdsong Lane,Fayetteville,GA,30215,678-683-3717
Jackson Logistics,3349 Finneydale Drive,Macon,GA,31217,478-718-8068
Adel Trucking,226 Woodland Dr,Augusta,GA,30907,706-550-7447
Southern D Trucking,2550 Sandy Plains Drive Suite 225,Marietta,GA,30066,678-899-1602
Bell-trans,12 Powell Place,Newnan,GA,30263,405-701-4173
All City Delivery,3952 Memorial College Ave,Clarkston,GA,30012,678-215-8327
Dream Chasin' Truckin',21672 Us Hwy 17,Townsend,GA,31331,912-571-0669
Shelbert Trucking,2726 Old Federal Rd S,Chatsworth,GA,30705,706-264-4892
Stephenson Transport,6425 Oakley Rd 1004,Union City,GA,30291,770-892-4399
M & R Trucking,1406 Lester Ct,Hampton,GA,30228,770-477-1531
Dst Dedicated Freight Services LLC,4547 Railroad Street,Oakwood,GA,30566,770-718-0047
Transtar,Route 2 Box 550,Lakeland,GA,31635,229-482-5215
Angkor Express Trucking,5 Larose Dr,Marietta,GA,30060,706-215-2981
K K J Trucking,105 Skyline Blvd,Lyons,GA,30436,912-526-5293
Ejs Enterprises,22 Gordon St,Tallapoosa,GA,30176,770-574-5300
Jst Transportation,1282 Hall Station Rd,Adairsville,GA,30103,770-773-3920
Fluffie Dirt Hauling,206 Hwy 32,Brunswick,GA,31523,912-778-9386
Fcr Auto Transporters,375 Paper Mill Dr,Lawrenceville,GA,30045,678-377-7314
Two Men And A Truck,4075 Marietta Hwy Ste 24,Dallas,GA,30157,770-422-6680
Joiner Logistics,3571 Cherry Bloom Way,Decatur,GA,30034,678-234-3942
Crawford Trucking,1045 Bakers Bridge Road,Douglasville,GA,30134,770-577-6304
4-b Trucking,1358 Evergreen Road,Sylvester,GA,31791,229-206-1753
Pdj Global,2870 Peachtree Road Nw Suite 712,Atlanta,GA,30305,877-595-8436
Allen Trucking,308 Sandy Circle,Mauk,GA,31058,706-269-2266
M & M Trucking,1306 Stonehaven Cir,Cartersville,GA,30121,408-375-1703
True Grit Trucking,120 Fescue Dr,Chickamauga,GA,30707,706-375-1949
Jetro's Motorcycle Transporters,1741 Treverton Trace,Powder Springs,GA,30253,770-439-4946
Southern Pride Trucking,175 Big Oak Dr,Leesburg,GA,31763,229-878-4883
Tybeck Transportation,1704 Fairway Hill Dr,Atlanta,GA,30317,404-805-0082
H & C Trucking,146 George Cloud Road,Brinson,GA,39825,229-220-8654
C & M Trucking,476 Mangham Rd,Griffin,GA,30224,404-328-8803
"Jd&jrenterprises, Inc.",2020 Barnes Mill Road,Marietta,GA,30062,770-973-4875
Watts Boyz Trucking,215 Morning Side Dr,Sandersville,GA,31082,478-553-1141
"J&c Transport, Inc.",Route 3 Box 1150,Cochran,GA,31014,478-934-8349
Ja Trucking,405 Bicentennial Trail,Rock Springs,GA,30739,706-764-2549
Little E Grading & Hauling,9139 Villa Rica Hwy,Villa Rica,GA,30180,770-459-9000
Hagan Trucking,397 Telfair Pond Rd,Waynesboro,GA,30830,706-437-9090
E & S Trucking,104 Vanceville County Line Road,Tifton,GA,31794,229-402-1014
Eton Express,2039 Cool Sprs/holly Cr Rd,Chatsworth,GA,30705,706-695-2506
Tnt Transport Services,1220 Country Pine Drive,Ellenwood,GA,30294,404-244-9768
D Ferguson Trucking,1791 Cherokee Rd,Winterville,GA,30683,706-369-8972
Morgan Contracting Service,1051 High Shoal Rd,Dallas,GA,30132,404-424-1551
Ajm Trucking,19259 Ga Hwy 34,Franklin,GA,30217,706-675-9778
D J's Trucking,2395 Hwy 221 N,Mount Vernon,GA,30445,912-583-2927
Doc's Road Service,406 W 59th St,Savannah,GA,31405,912-507-4346
M & S Transport,610 4th Ave Sw,Moultrie,GA,31768,229-985-9644
Southern Rock Hauling,192 Farm House Road,Mount Airy,GA,30563,706-754-5768
Knights Trucking,3770 Braddy Road,Wadley,GA,30477,478-494-9747
Class Act Trucking,6886 Main Street,Lithonia,GA,30058,770-288-2613
Collett Transport LLC,1198 Mount Carmel Church Lane,Canton,GA,30114,770-479-0822
Conner Transport,617 Germany Rd,Clayton,GA,30525,706-782-4104
R J Cartwright Trucking,101 Hothouse Vw,Mineral Bluff,GA,30559,706-374-2227
Lonnie Barrett Trucking,125 Dugdown Road,Buchanan,GA,30113,770-646-4053
T H Trucking,110 Quail Ridge Road,Danielsville,GA,30633,706-207-2685
Faith Trucking,14288 Brown Bridge Rd,Covington,GA,30016,678-859-3281
Styleman Trucking,28 Rl Rockamore Rd,Butler,GA,31006,478-862-3784
Nickerson Transport,3842 Woodlake Drive,Hephzibah,GA,30815,706-829-0283
Dayspring Carriers,119 Thompson Road,Tyrone,GA,30290,770-205-0218
B Trucking,2149 Dusty Rd,Bowman,GA,30624,706-246-0909
Li's Truck,10660 Pinewalk Forest Circle,Alpharetta,GA,30022,678-691-4130
Tim's Tire And Automtive Center LLC,1213 Washington Road,Thomson,GA,30824,706-597-9007
R & W Logistics,2411 Lawrenceville Hwy,Lawrenceville,GA,30044,404-787-6964
New Site Hauling,7865 Capps Ferry Rd,Douglasville,GA,30135,770-852-1051
Benz Trucking,1308 Greenstone Ct,Columbus,GA,31906,706-566-1025
C&s Auto Transporting,280 Oak Terrace Dr,Covington,GA,30016,770-786-6348
Horne Contracting,498 Hwy 520,Richland,GA,31825,229-828-2122
Jaam Trucking,127-b Club Drive,Stockbridge,GA,30281,678-770-5550
"Imperial Trucking, Inc.",3449 Framingham Drive,Lithonia,GA,30038,404-592-7074
Complete Facilities Management,6323 West Hamilton Park Dr,Columbus,GA,31909,706-321-9811
Johnson Express,551 Thomas Street,Camilla,GA,31730,229-522-2486
Dobi Transportation,2940 Meadow View Dr,Atlanta,GA,30316,404-557-1984
Brady Trucking,1244 Jeanette Dr,Miller,GA,30442,478-982-3251
Service Scales,539 Ayersville Road,Mount Airy,GA,30563,706-839-1927
Perry Howard Trucking,339c Railroad Street,Brooklet,GA,30415,912-842-5899
Harris Ii Trucking,1040 Clark Ave,Albany,GA,31705,229-432-8436
Evans Trucking,1609 Tusk Trail,Conyers,GA,30012,678-524-6124
Mike Auto Transport Solutions,3508 Sweetgum Ln,Decatur,GA,30032,404-296-0833
De La Rosa Transportation,171 Williamsburg Way,Winder,GA,30680,678-372-7295
Johnson Transport,438 Erwin Hill Rd,Calhoun,GA,30701,706-625-3553
T & T Hunter Trucking,547 North Ave,Rossville,GA,30741,706-861-6761
M & M Trucking Company,1952 Lawton Avenue,Macon,GA,31201,478-750-1129
L T Trucking Company,470 Rabitts Run,Fayetteville,GA,30214,770-719-3211
Amabassadors Hauling LLC,5315 Ashley Dr Se,Conyers,GA,30094,770-918-1242
Crown Luxury Coaches,1074 Westchester Drive,Lilburn,GA,30047,770-381-5775
Priceless Transport,269 Hwy 138 Sw Apt 602,Riverdale,GA,30274,404-502-5724
Croskey Family Trucking,202 Brookwood Trail,Perry,GA,31069,478-224-5683
M & W Logistics,401 Afterglow Summit,Canton,GA,30114,404-484-8328
Cardinal Disaster Recovery,102 Chestnut Hill Drive,Canton,GA,30114,404-372-6835
Richochet Transportation,643 North Washington Drive,Cairo,GA,39828,229-377-3240
Tnt Trucking,3293 Royal Spring Ct,Decatur,GA,30034,404-343-4050
Otis Lee Trucking,97 Candy Lilly Lane,Dallas,GA,30157,770-757-8821
Lijam Trucking,537 Rockbridge Trl,Stone Mountain,GA,30083,678-791-9168
Lb TruckingLLC,2203 Charleston Place,Lithia Springs,GA,30122,770-948-4159
Southern Style Trucking,202 Quaker Springs Road,Washington,GA,30673,706-401-8310
Driskell Hauling & Grading,1721 Winndale Rd,Dallas,GA,30157,404-592-7849
Gts,1010hickorycrestln,Cumming,GA,30041,770-781-5515
Doing Business Everytime Express,850 Windy Hill Road,Smyrna,GA,30081,404-518-5164
Spotlight Trucking,2915 Splitwood Drive,Snellville,GA,30078,347-512-3990
Dba Davis & Son Trucking,107 Arcadian Street,Americus,GA,31719,229-924-6488
C R Express,5926 Malibu Drive,Morrow,GA,30260,770-968-4826
Finger Transport,2519 Sweetridge Court,Lithia Springs,GA,30122,770-944-5839
Duck & Son Trucking,55 Claude Road,Colquitt,GA,39837,229-758-2874
P & S Trucking,708 Deshon Creek Dr,Lithonia,GA,30058,347-489-3018
R & R Trucking,1830 Rebie Rd,Dudley,GA,31022,478-676-3946
Gilcore Transport,109 Park Place,Stockbridge,GA,30281,678-787-5735
Taylor Trucking,123 Bruce Road,Attapulgus,GA,39815,229-246-7277
R&r Express,924 Split Rock Lane,Douglasville,GA,30134,386-878-6085
Lse Trucking,12221 Hwy 136,Rising Fawn,GA,30738,706-398-0021
Gaspard Trucking,1103 Riverview Place,Jonesboro,GA,30238,678-896-6067
Tunstall Enterprises,310 Clover Brook Drive,Locust Grove,GA,30248,678-764-2290
Houston Trucking,103 Houston Rd,Dry Branch,GA,31020,478-945-6119
Moving It,5335 Penn Circle,Decatur,GA,30035,770-981-5195
William R Ware Trucking,387 Arp Road,Mineral Bluff,GA,30559,706-374-2733
D-bo Trucking,206 Mary Cornish Road,Hazlehurst,GA,31539,191-237-5793
Go Git It LLC,4770 Campbell Dr,College Park,GA,30349,404-209-7228
Coyote Trucking,3175 Happy Valley Circle,Newnan,GA,30263,770-502-1639
Prestige Automotive Group,598-b Powder Springs Street,Marietta,GA,30064,678-581-5100
D&d Farms,3535 Baker Saw Mill Road,Lenox,GA,31637,229-543-1450
Bt Trucking,211 Cordele Ave,Macon,GA,31217,478-345-0524
N &m Trucking,5910 Newton Highway,Colquitt,GA,39837,229-734-1451
Brian Bowman- Bowman's Auto Sales,10626 Commerce Street,Summerville,GA,30747,706-857-2277
Com-pass Trucking,4269 David Austin Court Sw,Snellville,GA,30039,646-549-7330
Butler Trucking,3701 Stockholm Dr,Augusta,GA,30906,706-306-5682
Mad Dog Transportation,2526 Mt Vernon Road #125,Dunwoody,GA,30338,404-213-0643
Spicers Auto Transport,1020 Brecken Lane,Lithonia,GA,30058,678-458-8780
Andres Calero,1704 Watercrest Circle,Lawrenceville,GA,30043,770-963-0190
R A M Transportation,45 Ashford Dr,Oxford,GA,30054,707-655-5388
Porkchops Trucking,1208 Newton Rd,Bainbridge,GA,39818,229-248-2973
H & H Services,825 Brandy Oaks Ln,Stone Mountain,GA,30088,404-310-6677
C & D Hauling,165 Dean Ln,Enigma,GA,31749,229-218-0113
Whitehead Transport,6001 Walters Loop,Columbus,GA,31907,706-566-5464
K-n-c Trucking,357 Willowlake Rd,Fort Valley,GA,31030,478-825-9203
Wcj Logistics,908 Wheeler Avenue North,Douglas,GA,31533,912-260-0034
Dcs Express,1945 West 4th Street Ext,Alma,GA,31510,912-632-1091
K-trucking,369 Youngjames Circle,Stockbridge,GA,30281,678-284-0821
Kd Trucking,1804 Montreal Court Ste C,Tucker,GA,30084,770-881-7974
A & D Transport,Hwy 90 177,Talbotton,GA,31827,706-573-4208
Ellenwood Trucking,3737 Fremont Drive,Ellenwood,GA,30294,770-506-2784
J & A Transport,43 Hatcher Hill Road,Albany,GA,31705,229-787-5693
J M Transport,4591 Flint Hill Rd,Austell,GA,30106,770-745-0763
Timis Auto Sales,541 Buford Dr,Lawrenceville,GA,30045,770-963-4149
Hog Wild Express,646 Parks Rd,Sumner,GA,31789,229-776-0078
Mlh Transportation,5992 Hwy 81 East,Mcdonough,GA,30252,707-580-3554
Pooh-bear Trucking,507 North Peter St,Athens,GA,30601,678-777-6292
"Lade Danlar, Inc.",1607 Mountain Industrial Blvd,Stone Mountain,GA,30083,770-939-6214
J & W Transportation,1438 Frank Lovell Road,Clarkesville,GA,30523,706-768-4370
Bdm Logistics,1424 Belmont Road,Villa Rica,GA,30180,678-343-8283
Hard-noc Auto Transport,4083 Amberly Green Nw,Kennesaw,GA,30144,404-468-8618
Vickery Transport,126 Raybon Rd,Ellaville,GA,31806,229-942-0583
Reed Grading And Waterproof Services,491 Crab Apple Lane,Cleveland,GA,30528,706-969-9500
Magna Logistics,2742 Nettle Ln.,Buford,GA,30519,404-644-2208
C I S Trucking,425 East Virginia Ln,Macon,GA,31217,478-745-1570
Triple T Trucking,1830 Rebie Road,Dudley,GA,31022,478-676-3946
T & E Trucking Express,4167 Ohara Rd,Forest Park,GA,30297,678-973-0424
D & W Trucking,1050 Golf Club Road,Statesboro,GA,30458,912-839-3678
Ben Mocha Transportation,3540 Kennesaw Staion Dr,Kennesaw,GA,30144,678-925-1387
Clark Transit,3615 Spanish Trace Dr,Hephzibah,GA,30815,706-951-7624
Kitrell's Transports,930 Lovick St,Columbus,GA,31904,706-324-4241
Montanez Hauling,5497 Duncan Bridge Rd,Cleveland,GA,30528,706-348-6342
Lecounts Autobody,103 J L Tyre Street,Screven,GA,31560,912-579-6560
Ellric Transportation,395 Lakeside Pointe,Covington,GA,30016,678-342-8002
Riding Big Trucking Company,431 Weyanoke Dr,Evans,GA,30809,706-550-0393
Downtown Transporters,3509 Baroney Lane Se,Marietta,GA,30008,678-398-7745
Cheikh Mbengue,3042 Clairmont Rd Apt F,Atlanta,GA,30329,404-633-2218
L And T Truckin,Lecount Rd,Eulonia,GA,31331,912-832-6032
H & H Trucking,699 Jarriels Bridge Spur,Collins,GA,30421,912-293-6737
Lzl Trucking,5410 Sam Frasier Road,Iron City,GA,39859,229-774-2514
"Silver Leaf Trucking, Inc.",1247 Thomas St,Roopville,GA,30170,770-854-4101
Transvall,136 Shadowhill Lane,Loganville,GA,30052,678-243-9356
Dixie Delivery,Rt 2 Box 198 E,Adrian,GA,31002,912-682-4414
J Mc Transport,2942 Gladys Alday Road,Donalsonville,GA,39845,229-861-2342
Dnj Trucking,12752 Old Damascus Road,Arlington,GA,39813,229-725-4024
Bramblett Trucking,708 Bert Phillips Road,Climax,GA,39834,229-515-0419
K&h Transportation,8125 Mayfern Drive,Fairburn,GA,30213,770-629-1079
Pinnacle Actuation,298 Bell Park Drive,Woodstock,GA,30188,770-926-8365
Klh Express,9224 Tee Trace,Riverdale,GA,30274,678-612-5423
Allsport Transport,507 Oak Grove Road,Griffin,GA,30224,678-409-8184
Fuller Trucking,2855 Leisure Woods Lane,Decatur,GA,30034,678-591-9847
Jq Quintero Trucking,23 Triangle Lane,Adairsville,GA,30103,770-877-3155
M & M Distribution,6577 Dekeon Dr,Atlanta,GA,30349,770-892-3730
Mms&z Freightways,4001 Presidential Parkway Ste 803,Atlanta,GA,30340,770-234-0006
Red Rooster Enterprises,841 Pool Creek Rd,Clayton,GA,30525,706-782-4779
Arnold Pinyan Trucking,522 Pinyan Ln,Canton,GA,30115,678-410-1807
Maximum Trucking,6354 Lanier Rd,Lake City,GA,30260,678-422-2093
A A A Transport,2309 Acorn Way,Monroe,GA,30656,770-267-9783
Transportez Auto Carrier Service,1657 Tunbridge Lane,Lawrenceville,GA,30043,678-755-7382
Joel Hooks Trucking,870 Harvey Street,Millen,GA,30442,706-830-5281
R & D Transport,1833 Pennington Road,Newborn,GA,30056,770-355-5202
Johnnie Taylor Trucking,1370 Chelsey Lane,Alpharetta,GA,30004,770-667-7527
Adp,5680 New Northside Drive,Atlanta,GA,30328,770-980-2612
Robert's Auto Sales,605 N Glenwood Ave,Dalton,GA,30721,706-278-6680
Locksmith Truckin,1232 Treeleaf Ln Nw,Conyers,GA,30012,678-255-6667
J&w Transport,3004 Hwy 41 South,Tifton,GA,31794,229-387-6200
All Seasons Auto Transport,6298 Oakwood Circle,Norcross,GA,30093,404-462-3496
S & W Mobile Home Movers,701 Magnolia St ,Folkston,GA,31537,912-496-1044
Tom & Susie's Trucking,727 Springer Dr,Griffin,GA,30224,770-233-9739
H&k Transport,401 Scenic Dr,Trenton,GA,30752,706-657-2228
Big Country Trucking,13201 Hwy 74,Forsyth,GA,31029,478-994-9796
B&b Trucking,555 Avera Rd,Roberta,GA,31078,478-836-3525
J & J Trucking,103 Utah Circle,Adel,GA,31620,229-740-7333
Crawdad Trucking,1116 Blan Wall Rd,Elleville,GA,31806,229-937-2045
C & D Auto Transport,1602 Athens Highway,Gainesville,GA,30507,770-205-0218
R & W Transportation,401 Plantation Blvd,Lawrenceville,GA,30046,678-758-8222
R W Trucking Company LLC,2140 East 41st St,Savannah,GA,31404,912-238-4068
Leonard & Quick Express,1038 Alford Rd,Lithonia,GA,30058,404-228-7965
Tcl Hauls,257 Ga Hwy 30 West,Americus,GA,31719,229-928-9654
"General Propertyservices, Inc.",3680 Burnette Park Drive Suite A,Suwanee,GA,30024,770-831-9440
Woody Weeks Trucking,2751 Cool Springs Road,Norman Park,GA,31771,229-769-3882
Evans Trucking,555 Beaver Ridge Rd,Jasper,GA,30143,770-367-0721
Her Joy Trucking,3407 Nine Hole Rd,Donalsonville,GA,39845,229-861-3722
Cosby Trucking,221 Gilleland Dr,Athens,GA,30606,706-549-7448
D & K Trucking,512 E Chester St,Kingsland,GA,31548,912-882-6165
Pmc Transporters LLC,1166 Booth Rd Ste #205,Marietta,GA,30008,908-531-2622
Ebenezer Express,800 Colbert Street,Savannah,GA,31402,912-232-6810
Yk Express,6171 Stewart Ridge Walk,Buford,GA,30518,770-614-8333
Charlie D Trucking,2479 Lincolnton Road,Washington,GA,30673,706-990-0195
T & J Transportation LLC,6 Barnard Ave,Lagrange,GA,30241,706-884-6487
Fabios Trucking,3643 Golden Ive Dr,Buford,GA,30519,706-716-5659
L & J Trucking Co,17 Fairhaven Drive,Rome,GA,30165,706-506-5733
Bayden Enterprises,1675 Rutland Pass Drive,Lawrenceville,GA,30045,404-806-0583
Tommy House Trucking LLC,76 Military Road,Whitesburg,GA,30185,770-328-1689
"Corbin Auto Sales, Inc.",70 Warehouse Way,Rossville,GA,30741,706-891-1185
Kullangi Transportation & Brokerage,4379 Persian Court,Snellville,GA,30039,866-259-6771
E H Trucking,8 Bluebird Lane,Fort Gaines,GA,39851,229-768-3986
Clay Brothers Trucking,1485 Beech Grove Drive,Hampton,GA,30228,678-479-6835
Tyrone Freight Transfer,3391 Branch Valley Trail,Conyers,GA,30094,770-929-9233
Dewey Mull,126 Tiger Paw Dr,Clarkesville,GA,30523,706-839-6927
K E J Transportation LLC,28 Bishop Mill Dr Northwest,Cartersville,GA,30121,770-606-9014
Owner Operator,285 Shiloh Rd,Jenkinsburg,GA,30234,770-320-8607
J Jones Express,648 Westfield Rd,Midway,GA,31320,912-332-0200
Agee Transportation,150 Glen Eagle Way,Mcdonough,GA,30253,770-490-7139
Abell Turf And Tractor,101 P Rickman Industrial Drive,Holly Spring,GA,30142,678-296-0822
Ken Hill Bobcat And Hauling,400 Brand Road Sw,Loganville,GA,30052,770-554-0574
Drelynn Express,120 Glenmore Lane,Mcdonough,GA,30253,678-463-7222
J & J Transports,128 Harris Norman Blvd,Allenhurst,GA,31301,912-369-7170
Albert Roberts Trucking,108 Mauldin Rd,Thomaston,GA,30286,678-613-9867
Bowden's Transport Carrier,193 Spring Lake Road,Commerce,GA,30530,706-654-8750
Kb Hauling LLC,1803 Oakland Ave,Columbus,GA,31903,706-687-1025
Cfn Trucking,1645 Nottingham Way,Conyers,GA,30094,404-583-4405
Auto Trans Systems,2743 Saint Augustine Trail,Marietta,GA,30067,678-760-8827
Daryl Smith,412 John Sam Rd,Bainbridge,GA,39817,229-726-9857
Ej Transport,5378 Amber Cove Way,Flowery Branch,GA,30542,770-597-8310
K & L Trucking,105 Apple Valley Rd,Macon,GA,31217,478-447-3506
Prn Hauling,13 Fifth Circle,Winterville,GA,30683,706-742-2248
Duck's Trucking,88 Bryant Rd,Rome,GA,30161,770-324-4813
Wise Trucking,117 Stapleton Dr,Leesburg,GA,31763,229-376-2860
Tja Transport,36 Country Walk,Cartersville,GA,30121,706-264-1073
S J Partnership Lp,6520 Gordon Hills Drive,Mableton,GA,30126,770-313-3598
W A P Trucking LLC,1050 Kelly Lane,Watkinsville,GA,30677,706-255-0678
Cbsi Transport,9221 Tarnwood Lane,Villa Rica,GA,30180,404-867-7668
Thomas Deliverly Service,47 William H Circle,Tifton,GA,31793,229-382-2773
Thompkins & Sons Express,6215 Silver Spur Drive,Lithonia,GA,30058,678-620-1772
Lanie's Legacy,117 Acadian Dr,Stockbridge,GA,30281,404-787-4970
Thomas Transport,774 Hugh Stewart Road,Aragon,GA,30104,706-266-8769
J & J Transportation Company,3112 Ringgold Rd,Lafayette,GA,30728,706-638-9548
B A L Trucking,114 Taylor Farm Rd,Fitzgerald,GA,31750,229-622-0115
Gibson Farms,281 Gibson Ln,Jakin,GA,39861,229-793-2087
Manny's Hauling,185 Cedar Creek Rd,Newman,GA,30263,770-316-3245
M & D Transport,2107 Highway 119 N,Springfield,GA,31329,912-754-1588
K&l Trucking,1138 Hwy 39n,Donalsonville,GA,39845,229-400-1870
Silveras Trucking,3415 Sandwedge Lane,Snellville,GA,30039,770-982-6070
Melcal Transportation,4313 Morningsidr Dr,Powder Springs,GA,30127,678-325-0264
Talley Express,2245 Worley Chapel Rd,Trenton,GA,30752,423-424-6892
Double Up Delivery Services,132 Beech Rd,Baxley,GA,31513,912-288-7776
M Gunn Trucking,1028 Salem Chipley Road,Pine Mountain,GA,31822,706-663-7313
Witson Trucking,3652 Nature Walk Trl,Marietta,GA,30060,678-266-8177
Eubanks Appliance Service,2618 Bemiss Rd,Valdosta,GA,31602,229-242-6858
Da&c Trucking,1132 Hall Street,Bainbridge,GA,39819,229-248-1255
Double-n-trucking,382 Pinehill Road,Soperton,GA,30457,912-529-6891
Parsons Trucking,1993 Foster Mill Drive,Lafayette,GA,30728,423-413-6759
Royster Transport Services,673 Roberson Rd,Hortense,GA,31543,912-473-2297
Jp Trucking,1424 Gunstock Creek Rd,Ellijay,GA,30540,706-889-2869
Expresso Transport,3741 Woodington Place,Lawrenceville,GA,30044,404-403-4770
R & D Trucking,308 Oak St,Hogansville,GA,30230,706-637-9567
D & A Transport,526 Brooke Ln,Augusta,GA,30909,706-836-0481
J & S Transportation Services,2051 Registry Place,Hampton,GA,30228,678-794-3781
Fry's Transport,45 Pineview Drive,Winterville,GA,30683,706-255-3679
Jeff Brown Trucking,945 South Bethany Road,Locust Grove,GA,30248,678-859-1099
S & S Trucking,818 Glade Creek Pkwy,Mount Airy,GA,30563,706-754-6800
Coyle Auto Transporters LLC,1415 Compton Woods Dr,Loganville,GA,30052,770-979-4410
Fulghum Transport,238 Fairview Farms,Lavonia,GA,30553,706-356-2556
Sargent Trucking,621 Watson Cove,Stone Mtn,GA,30087,404-216-7504
Jubilee Expediting,160 Den Ric Drive,Mcdonough,GA,30253,770-898-0029
Integrated Auto Movers,2600 Bentley Rd Se Apt 711,Marietta,GA,30067,732-203-7948
South Wind Express,220 Grassdale Rd,Dalton,GA,30721,706-281-1576
Mccarty Transit,1450 Moreland Rd,Williamson,GA,30292,678-614-4447
Andy Underwood Trucking,1037 Johnny Miller Rd,Buena Vista,GA,31803,229-314-1030
Trucking,2741 Sweet Oaks Court,Lawrenceville,GA,30044,678-924-1226
"Neel Cable Services, Inc.",2751 Beeks Rd,Williamson,GA,30292,770-227-7027
T-bird Trucking,200 Pendleton Court,Macon,GA,31216,478-719-1932
Delina Trucking,980 Chapel Station Dr,Lawrenceville,GA,30045,678-226-4004
Angelica Transportation,2025 Clarkston Dr,Augusta,GA,30909,678-825-7198
Gw Trucking,501 Lennox Way,Rocky Face,GA,30740,706-280-1898
"Charles Williamson Auto Sales, Inc.",615 Alabama Avenue,Bremen,GA,30110,770-537-2111
F And M Hauling,290 Belmont Farms Dr,Ellenwood,GA,30294,404-403-5189
Shannon Trucking,19 Eleanor Dr,Covington,GA,30016,770-784-8137
Beach Boys Moving,3003 Summer View Dr,Stone Mountain,GA,30083,770-498-8874
"Wards Trucking, Inc.",1105 Dupont Lane,Tucker,GA,30082,770-436-2226
J C Transport,178 Gardenia Ln,Fitzgerald,GA,31750,229-426-1434
Seay Express,1370 Saint Isabela Ct,Locust Grove,GA,30248,423-400-3545
C & S Trucking,170 Bozeman Lane,Sylvester,GA,31791,229-528-4178
Greene Trucking,164 Dunn Mill Creek Rd,Blue Ridge,GA,30513,706-632-2859
K & J Transport,118 Fish Hall Lane,Brunswick,GA,31523,912-225-4929
Flat Rate Moving -courier,4167 Arapaho Drive,Powder Springs,GA,30127,770-369-1918
T & S Trucking,189 Pineland Estates,Cochran,GA,31014,478-934-6173
Suber Trucking LLC,1802 Lake Douglas Rd,Bainbridge,GA,39819,229-243-1157
Fish Trucking,1489 Greater Hope Rd,Martin,GA,30557,706-779-7677
G R & T,420 Telfair Rd,Garden City,GA,31415,678-701-3533
F & J Express,7848 Princess Di Ct,Jonesboro,GA,30236,678-849-9814
G & M Express,1900 Covey Rd,Albany,GA,31721,229-888-7510
Blacksheep Trucking,170 East Plant Ave,Homerville,GA,31634,912-487-5729
Harris Transportation,306 Gates Road,Woodbury,GA,30293,706-553-5948
Furniture Installation Services,139 Bethea Road Ste 908,Fayetteville,GA,30214,770-460-1151
Kurtzman Trucking,985 Madola Rd,Epworth,GA,30541,706-964-6135
Ivy's Trucking,540 Basin St,Augusta,GA,30909,706-941-7132
Scheibel Hauling,593 Cherokee Trail,Ballground,GA,30107,770-893-1339
Legree Trucking,109 President Cir,Statesboro,GA,30458,912-687-3820
Alex Ramirez Land Clearing,654 Cadilac Drive,Baxley,GA,31513,912-366-9953
Simon Courier,105 Dockside Downs Drive,Woodstock,GA,30189,770-516-2377
B&s Trucking,2909 Tyndall Dr,Valdosta,GA,31602,229-247-3572
Jw Direct,1216 Green St Sw Suite B,Conyers,GA,30012,770-785-3967
Nana & Papaws Trucking,861 2nd Ave Ne,Cairo,GA,39828,229-672-2885
Next Logistics,620 Highway 155 South Suite B,Mcdonough,GA,30252,866-614-3160
Butler Trucking,1260 Jones Chapel Rd,Tignall,GA,30668,706-285-2668
Kelly Shea Trucking,204 Bowles Road,Baconton,GA,31716,229-738-0115
Jabril Transportation,426 Tanners Bridge Circle,Bethlehem,GA,30620,678-608-0246
D&e Transportation,1306 Abner Street,Waycross,GA,31501,770-883-0260
Tootin Transport,1184 Jackson St,Locust Grove,GA,30248,678-588-5125
Cantu Transport,65 Taff Rd,Tayloresville,GA,30178,770-607-3848
J Smith Trucking,5115 Mccall Road,Rincon,GA,31326,912-655-4900
Hefti,4056 Golfview Dr,Villa Rica,GA,30180,770-314-7747
Hrts Transport,289 Hebron Rd,Commerce,GA,30530,404-310-6525
King Transport,585 Mackinaw Dr,Bethlehem,GA,30620,678-963-0887
Alinc,1400 Veterans Memorial Hwy Suite 134-206,Mableton,GA,30126,678-358-6968
Bryson Logging & Trucking,77 Deep Wood Dr,Chatsworth,GA,30705,706-695-6248
Multi Family Services LLC,1701 Hazelwood Drive,Marietta,GA,30066,770-509-0456
Bc Trucking,634 Cherokee Drive,Moultrie,GA,31768,229-891-3179
Southern Transport,918 Mennonite School Road,Montezuma,GA,31063,478-472-6721
Stan Properties,218 Margaret St,Se Atlanta,GA,30315,404-344-9801
J A W S Transportation,100 Alexander Ct,Riverdale,GA,30274,770-603-6811
K & J Trucking,440 Gene Mcqueen Road,Moultrie,GA,31788,229-890-2376
Gary Jones,2991 Hwy 124 West,Jefferson,GA,30549,706-367-8632
Charles Henry Trucking,182 North Mary Street,Homerville,GA,31634,912-487-3906
Norlynn Logistics,505 Oakview Dr,Dallas,GA,30157,770-627-5354
T & A Transport,2525 Olivia St,Albany,GA,31705,229-395-3448
Crystal Trucking,152 Mohawk River Rd,Alma,GA,31510,912-632-0888
Circle N Transport,1245 Lowell Road,Carrollton,GA,30116,770-854-7276
Dwb Trucking,205 Grand Island Drive,Leesburg,GA,31707,229-436-8499
Jn Trucking More Miles,139 Courtneys Lane,Fayetteville,GA,30215,678-471-9801
Rj's Trucking,518 Carter Road,Lake Park,GA,31636,229-559-6422
George Waiyaki,772a Barnes Mill Trace,Marietta,GA,30062,404-641-9989
Hec Distributing,3200 Mike Padgett Hwy,Augusta,GA,30906,706-792-1001
G P Trucking,10056 Poor Robin Road,Surrency,GA,31563,912-367-3716
Jbr Express,4996 Owens Mill Circle,Stone Mountain,GA,30083,770-469-0137
C & B Hauling,7610 Jenkins Rd,Upatoi,GA,31829,706-587-1198
Cw's Express Transport,4342 N Hickory Lane,Douglasville,GA,30134,770-920-9677
Mj Gordon Trucking LLC,300 William Rd,Guyton,GA,31312,912-772-3061
Lane Cumbie Trucking,1841 Ridge Road,Cairo,GA,39827,229-378-2207
Low Country Transport,1501 George Street,Adel,GA,31620,229-549-7115
Michael Johnson Trucking,40 Aiken Court,Covington,GA,30016,404-805-2493
J & B Trucking,1260 Sweetwater Bend,Villa Rica,GA,30180,770-459-5300
B&c Trucking,2484 Cogdell Rd,Pearson,GA,31642,912-422-7251
R F Trucking,612 Villa Nova St,Cuthbert,GA,39840,229-340-0551
Nigussie Express Transport,2840 Ne Expressway Ne Ste 204,Atlanta,GA,30345,404-723-9876
Park Service Logistics,1797 Sorrow Patterson Rd,Colbert,GA,30628,706-410-4533
Fuentes Transport,201 Second St,Gainesville,GA,30501,404-787-7366
Relay Express - Atlanta,1745 Corporate Drive Suite 215,Norcross,GA,30093,678-495-0335
Uptempo Trucking Company,4245 Round Stone Dr,Snellville,GA,30039,678-615-9202
Pusco Carrier Services,1105 Tree Mountain Pkwy,Stone Mountain,GA,30083,404-932-8182
Mg&s Trucking,261 Avenue Road,Colquitt,GA,39837,229-758-2214
Keita Trucking,3841 Brockett Trail Apt G,Clarkston,GA,30021,404-557-4506
Klh Transport,38 Hunter Court,Jefferson,GA,30549,770-313-7318
Mitchells Service Co,7322 Stillcreek Court,Columbus,GA,31904,706-571-0325
Mikes Delivery,1356 Wrens Court,Jonesboro,GA,30238,404-402-7223
Craft Trucking,935 Planters Place,Loganville,GA,30052,678-878-5775
S & J Trucking,1184 Palmer St,Louisville,GA,30434,706-833-7751
Back Water Trucking,18 Parmenter Street,Cartersville,GA,30120,770-547-8767
Service Plumbing And Septic,4316 Tomahawk Trail,Blairsville,GA,30512,706-835-1704
Tolbert Hauling,559 Wallace Gray Rd,Newnan,GA,30263,770-328-9916
Prescott Trucking,541 Bellview Road,Colquitt,GA,39837,229-344-2641
Pacific Eastern Express,1431 Annapolis Way,Grayson,GA,30017,800-404-9011
Portis Transport,5900 Riverdale Road Apartment G-10,Atlanta,GA,30349,404-422-3557
"Hd, Inc.",10 Carolyn Court,Social Circle,GA,30025,678-458-6713
M&m Transport,11205 Alpharetta Hwy Ste A7,Roswell,GA,30076,770-619-0088
Star Trucking,187 Sasser Store Rd,Bainbridge,GA,39817,229-246-8537
Big A Auto LLC,1125 Murphy Hwy,Blairsville,GA,30514,706-745-4530
Scooter's Mobile,11750 Alcovy Road,Covington,GA,30014,770-866-5224
Edwards Trucking Company,16474 Hwy 341 South,Hortense,GA,31543,912-266-3621
Mikat Trucking,103 Sweetgum Dr,Perry,GA,31069,478-988-1411
Vet,3640 Arminto Dr,Ellenwood,GA,30294,678-516-4826
M & P Trucking,2571 Greenwood Terr,Macon,GA,31206,478-447-0939
729 Trucking,22 Owens Rd,Butler,GA,31006,478-954-3897
G&g Trucking,4864 Lane Road,Garfield,GA,30425,478-494-4878
Rendrag Transportation,1410 Villa Point Parkway,Mcdonough,GA,30253,678-272-0569
Ultimate Courier Service,1730 Inlet Lake Place,Snellville,GA,30078,678-651-3343
"South Georgia Timber Express, Inc.",55 Ga Hwy 94,Fargo,GA,31631,912-637-5473
Btd Transport,284 Olde Lexington Pass,Villa Rica,GA,30180,404-502-3558
Lewis Professional Transporters,4520 Bouldercrest Rd,Ellenwood,GA,30294,404-363-9974
Heavy Haulers,2550 Waters Run,Decatur,GA,30035,404-234-9374
Ch Enterprise,344 Harris Lord Cemetary Rd,Commerce,GA,30530,706-224-3772
K & A Transport,497 Tifton Hwy,Ocilla,GA,31774,229-468-9787
Rnl Motor Carrier,3311 Sam's Way,Conyers,GA,30013,404-397-8806
H&t Express,131 Goldmine Holly Springs Rd,Royston,GA,30662,706-498-6131
Cdt Truck & Trailer Repair,922 Poseyville Road,Bremen,GA,30110,706-266-2598
J & W Logistics,3401 Norman Berry Drive Suite 274,East Point,GA,30344,770-616-1208
Warz Xpress Trucking,7124 Southlake Parkway Apt C1,Morrow,GA,30260,678-382-2583
Jd Ray's Transport,2169 Wild Wood Ct,Gainesville,GA,30507,770-983-7477
Kibanda Transportation,523 Manry Street,Edison,GA,39843,617-699-3479
Mhr Trucking,2515 Ga Hwy 111 S,Cairo,GA,39828,229-378-2809
Caldwell Trucking,101 N Randolph St,Oglethorpe,GA,31068,770-715-4305
Rko Transport,867 Fisher Rd,Rising Fawn,GA,30738,706-657-5137
Robertson Distributing,3200 Mike Padgett Hwy,Augusta,GA,30906,803-644-5778
M Wood Trucking,7915 Slash Rd,Camilla,GA,31730,229-336-1395
Thrift Transport,2223 Gooseberry Lane,Blackshear,GA,31516,912-550-7604
Selph Trucking,1205 W Hwy 280,Milan,GA,31060,229-362-4249
Adventure Express Tours,67 Mountain Overlook Dr,Cleveland,GA,30528,706-219-0090
Britt Trucking,6187 Southland Trace,Stone Mountain,GA,30087,404-822-6808
Silver Circle Refrigerated,3667 Harvest Dr,Decatur,GA,30034,770-751-7553
Glory Auto Transportation,3216 Kevin Dr,Augusta,GA,30906,914-316-9126
Lunar Xpress,2020 Hwy 136,Trenton,GA,30752,423-987-4597
Lindsey Jacks Trucking,2032 Vinture St,Stathem,GA,30666,404-622-7600
In Him Transportation,4709 Hartly Bridge Rd,Macon,GA,31216,478-262-5013
Yoder Enterprises,179 Horseshoe Bend Road,Montezuma,GA,31063,478-954-3255
"Usa Logistics, Inc.",2650 Bentley Road Ste 6-e,Marietta,GA,30067,559-495-9813
T & L Trucking,706 South 3rd Ave Apt 4,Mcrae,GA,31055,229-868-2125
Dave Wetherington Enterprises,535 G Street,Hamilton,GA,31811,706-662-9057
Slowroller Enterprise,109 Lucian Circle,Savannah,GA,31406,912-604-5093
Na,695 Mccollum Drive,Albany,GA,31705,229-483-0007
Trinity Discount Transportation,4387-b Maysfield Drive,Augusta,GA,30909,678-779-4848
Southern Star Distribution,2875 N Berkeley Lake Rd Ste 3,Duluth,GA,30096,770-497-9570
Colquitt Concrete Services,570 Meadows Ln,Social Circle,GA,30025,770-464-3412
Shannon Taylor Trucking,222 Ash Road,Glenwood,GA,30428,912-523-5256
Overstreet Motor Transporters,102 Madisyn Drive,Hampton,GA,30228,770-897-0570
A & A Transport,609 Pinecrest Drive,Bremen,GA,30110,770-537-5812
Jrt Trucking,757 Williams Rd,Barney,GA,31625,229-775-2098
Jj Bad Trucking,536 Pinewood Lane,Sale City,GA,31784,229-336-3811
Crosstown Carriers,3007 Panola Rd Ste C-289,Lithonia,GA,30038,404-212-2291
W E Carriers,2729 Old Flowery Branch Rd,Gainesville,GA,30504,678-283-5164
Empty Pockets Trucking,634 Old Egg Rd,Cairo,GA,39827,229-378-2275
Hodgepodge Hill Transportation,115 Benelovence Road,Cuthbert,GA,39840,229-732-6267
Morris Trucking,Rt 1 Box 255,Ludowici,GA,31316,912-545-9303
Frj Trucking Services,4401 Guinervere Avenue,Columbus,GA,31907,706-563-9397
Harp Trucking,399 Plantation Way #3100,Macon,GA,31210,478-254-4599
Choice Hauling,3107 Ocean Drive,Augusta,GA,30909,706-877-0602
Vangiller Hauling,164 Planters Drive,Ellabell,GA,31308,912-858-2992
Mew Trucking,1546 Edison Highway,Fort Gaines,GA,39851,229-768-2855
Ibo Trucking,37 Grande Bay Drive,Temple,GA,30179,770-562-3246
Jackson Transporting,3040 Lakewood Ave,Atlanta,GA,30310,404-925-3563
Gt Trucking,1400 Mimosa Drive Sw,Marietta,GA,30008,770-432-5203
R S Transport,100 Antoinett Ave,Mcdonough,GA,30252,404-245-2527
Glory Carrier Transport Services,742 Boston Common Drive,Atlanta,GA,30349,404-372-9792
Crenshaw Moving,147 Pine Forest Dr,Valdosta,GA,31602,229-269-9173
Bobby Trucking LLC,278 Mac Jhonson Ro Lot 51,Cartersville,GA,30121,770-843-2736
"Jt Global Transportation, Inc.",149 S Mcdonough St Ste 140,Jonesboro,GA,30236,770-320-7043
Star 45 Transportation,131 Jenny Road,Grantville,GA,30220,770-583-2559
Compass Express,1073 Pine Grove Ave,Atlanta,GA,30319,404-233-7115
Bf Selective Carriers,1221 Polk Xing,Mcdonough,GA,30252,678-436-3312
Tcb Trucking,4107 Forrest Run Circle,Valdosta,GA,31605,229-249-9513
Emyb Logistics Trucking,130 Meadow Lake Street,College Park,GA,30349,919-234-3517
Larry's Welding Service,161 Hugh Oneal Rd,Greenville,GA,30222,440-717-1054
Jpm Transport LLC,3125 Greenhouse Parkway,Alpharetta,GA,30022,305-766-7702
Pich Trucking,5370 Hwy 20 Lot#24,Loganville,GA,30052,800-671-8988
Terry's Auto Repair Sales,432 Perkins Rd,Millen,GA,30442,706-871-5784
Js Transportation,4810 Cruise Ct,Douglasville,GA,30135,770-869-4812
Snipes Trucking,1473 Pinetta Rd,Ocilla,GA,31774,229-831-7427
Phillips & Sons,223 Patterson Road,Lawrenceville,GA,30044,678-740-7184
Jaf Trucking,54 Melvin St,Leary,GA,39862,229-349-0814
Washington Trucking,261 Natchez Circle,Winder,GA,30680,678-571-1745
Mnt Transporter,Po Box 701,Leesburgh,GA,31763,865-228-8315
Red's Carrier Service,1200 S Broad Street,Monroe,GA,30655,770-851-7107
Mic Transport LLC,927 Frontier Trl Sw,Marietta,GA,30060,404-642-5993
S & D Transport,800 Clark Smith Road,Adel,GA,31620,229-921-7344
Charles M Pulliam Trucking,497 Stoyle Hattaway Road,Danielville,GA,30633,706-202-9337
Am&a Logistics,625 Roxford Ln,Buford,GA,30518,678-714-9884
Global Transport,120 Riverknoll Ct,Fayetteville,GA,30214,770-378-0509
Harsea Trucking,410 Bethesda Park Trail,Lawrenceville,GA,30044,404-422-7075
L A M Co,1497 Panola Rd,Ellenwood,GA,30294,678-457-7994
Reggio Transport,117 Talon Place,Mcdonough,GA,30253,708-381-9539
Jm Transport,360 Wade Rd,Taylorsville,GA,30178,770-363-4055
Indian Creek Trucking LLC,1860 Estlee Mercer Rd,Douglas,GA,31535,912-384-2959
C&s Trucking,266 Albany Annex Road,Americus,GA,31719,229-938-2066
Switch Transport,4700 W Village Crossing # 5315,Smyrna,GA,30080,678-516-0718
Wright Trucking,124 Deerwood Cir,Fitzgerald,GA,31750,229-426-1429
Mereb Trucking Co,3628 Montreal Creek Cir Apt 15,Clarkston,GA,30021,678-799-2617
Daniels Trucking And Transport,411 Lizard Lope Road,Leary,GA,39862,229-792-0223
Hs Expedite Transp0rtation,5779 Center Hill Church Road,Loganville,GA,30052,770-466-7938
W J Howard Trucking LLC,108 Ridgebend Dr,Centerville,GA,31028,478-972-3673
White Services,7 Cassville Rd,Cartersville,GA,30120,770-862-1092
Southern Comfort Deliveries,5046 Oakdale Drive,Douglasville,GA,30135,404-969-7695
Salem Automotive And Recycling,941 Salem Rd,Rossville,GA,30741,706-866-6844
Primetime Transport,197 Seldon Dr,Hephzibah,GA,30815,706-877-5928
P & D Hauling,6973 Felton Ln,Mableton,GA,30126,678-365-7721
K&s Trucking,237 Trinity Road,Whigham,GA,39897,229-762-3725
"Capital City Motorsports, Inc.",Po Box 980,Cumming,GA,30028,614-345-8561
Associates Transport,2381 Salah Circle,Douglasville,GA,30135,770-815-8874
Katico Trucking LLC,Eel Break Road Hwy 121,Saint George,GA,31562,912-843-2635
Angels Of Earth,866 Gainsville Hwy,Bufurd,GA,30518,770-831-3612
Rushin Express,262 Dolly Street,Gray,GA,31032,478-986-2210
Gardner And Smith Trucking,204 Wellston Drive,Warner Robins,GA,31088,229-942-7763
Turner & Sons Trucking,493 Roy North Rd,Carrollton,GA,30117,770-688-5577
Ati,2455 Marsh Rabbit Bend,Decatur,GA,30035,404-454-2910
M J Eason & Sons,503 Market St,Alma,GA,31510,912-632-5261
Lenox Transportation,540 Ed Lindsey Rd,Lenox,GA,31637,229-546-5340
D & D Trucking,314 Seebeck Rd,Hazlehurst,GA,31539,912-375-3308
West Transporters,2327 Horseshoe Bend Road Sw,Marietta,GA,30064,770-693-7117
Divine Transportation,1610 Cherokee Rd,Winterville,GA,30683,706-461-0054
Raynap And Wilda Trucking,3341 Waggoner Lane,Rex,GA,30273,404-290-8187
Jim Saturley Trucking,284 Browns Crossing Rd,Milledgeville,GA,31061,478-932-8153
Nelius Trucking,6486 Gordon Lane,Austell,GA,30168,404-849-3750
Nwa Trucking,27 Annie Lou Sanders Avenue,Butler,GA,31006,478-954-8429
Kdr Transportation,451 Violet Road,Ocilla,GA,31774,229-468-0984
G & G Transport,304 Levie Rd,Montezuma,GA,31063,478-472-2466
S & J Trucking,11205 Alpharetta Hwy Suite J4,Roswell,GA,30076,949-609-9953
Diaz Trucking,1153 Red Wolf Lane,Dacula,GA,30019,678-376-2804
Towjoy1 Transport,501 Roberts Dr Apt 101,Riverdale,GA,30274,770-783-1150
Two Sisters Trucking,1645 Redan East,Lithonia,GA,30058,678-476-3782
Georgia Express Transportation,301 White Ingram Parkway Suite D,Dallas,GA,30132,404-936-4231
Evans Trucking,178 Regan Dr,Waynesboro,GA,30830,706-554-1441
Bagniny Transport Express,3128 Delacorte Dr,Acworth,GA,30101,678-895-3084
Michael Denton Trucking LLC,3941 Tom Wheeler Rd,Hiawassee,GA,30546,706-896-9606
M A Trucking,4104 Wellington Hills Dr,Snellville,GA,30039,404-993-3718
R & R Truck Repair,2611 Hwy 42,Locust Grove,GA,30248,678-432-8583
Young's Transport,1900 Skylane Drive,Albany,GA,31705,229-435-8771
Ammons Distributing,408 Lumpkin Road East,Leesburg,GA,31763,229-759-6363
Haysman Farms,78 Stephens Ave,Baxley,GA,31513,912-367-3113
Jrs Hauling,76 Chigoe Lane,Appling,GA,30802,706-831-1924
El Alteno,5055 Kennedy Road,Forest Park,GA,30297,404-366-6050
M And M Yacht Services,5768 Ridgetop Drive,Gainesville,GA,30504,678-267-2854
Chp Transport,1365 Us Hwy 319 North,East Dublin,GA,31027,478-275-3076
F V I Transportation,1628 Downs Crossing,Stone Mountain,GA,30088,404-840-3801
A Better Car Carrier,595 Piedmont Ave Suite 320211,Atlanta,GA,30308,404-680-1276
Cc Boats & More,P O Box 2505,Cumming,GA,30028,678-859-4199
Double A Trucking,5686 Newington Hwy,Sylvania,GA,30467,912-857-3330
Gls Enterprises,4399 New Castle Circle,Lithonia,GA,30038,770-559-1706
Nexxtranet Com,2140 Mcgee Rdste A-2100,Snellville,GA,30078,678-430-8738
"C&bgone, Inc.",2332 Avery St,Lithonia,GA,30058,404-304-7620
Pfg Performance Food Group,3501 Old Oakwood Rd,Oakwood,GA,30566,770-532-7779
Aiesha Express,2975 Hayes Club Cir,Grayson,GA,30017,770-629-5076
R-8 Transports LLC,1503 Winters Park Dr,Doraville,GA,30360,770-368-3244
Glenn Taylor Trading Co,2699 Us 221 North,Douglas,GA,31533,912-383-4472
L&w Mobile Road Service And Repair,510 Farmers Market Road,Cordele,GA,31015,229-273-1721
Bailey Trucking,211 E 7th St,Adel,GA,31620,229-896-4452
Wayne Crawford Truckinig,98 Canady Bridge Road,Twin City,GA,30471,912-562-3029
Aaa Auto Sales And Leasing,826 Bankhead Hwy,Carrollton,GA,30117,770-834-4206
Hmc Trucking Company,2385 Utility Rd,Rocky Face,GA,30740,706-516-0284
Moore & Son Transport,5530 Sr 100,Hogansville,GA,30230,706-672-1563
"Can Can't Mover, Inc.",2294 Booth Circle,Winder,GA,30680,770-725-5424
Colley Transport,719 West Thigpen Avenue,Lakeland,GA,31635,229-482-9141
Dorman Moving & Storage,1780 River Rd,Manchester,GA,31816,706-846-8133
J & S Earth Moving & Trucking,40 Fred Bush Road,Hazlehurst,GA,31539,912-375-7114
Carl Black Mobile Service,1110 Roberts Blvd,Kennesaw,GA,30144,770-424-2200
Payne Trucking And Logging,188 Riverview Drive,Dawsonville,GA,30534,706-265-3308
Stewart Transport,942 Wynne Rd ,Mcdonough,GA,30252,N/A
Sw Corbett Trucking,1714 Gilmore Street Apt B,Waycross,GA,31503,912-284-0401
Southern Relocation Services,2741 Hammond Court,Smyrna,GA,30080,404-816-4410
R B Transport,6013 Birdseye Trl,College Park,GA,30349,770-964-1919
Larry Beck Dba Feight Logistics,4796 Old Calhoun Rd,Rome,GA,30161,706-295-0836
Freddie Pough's Logging & Transport,281 Wilkerson Cemetary Road,Collins,GA,30421,912-693-7113
A N A Transportation,67 Vocational Dr,Rome,GA,30161,706-290-0105
S L Q T Trucking Co,120 King William Ct,Fairburn,GA,30213,404-925-7514
A & D Transport,423 Macland Dr,Lawrenceville,GA,30045,770-995-5021
Comanche Renegade Transport,111 Horseshoe Circle,Thomasville,GA,31757,229-225-9041
Blue Street Trucking,3766 Memorial Drive Apt 8,Decatur,GA,30032,770-593-0649
K B Trucking,6140 Littleton Dr,Union City,GA,30291,678-984-0982
Mapleleaf Transport,6243 N Summer Circle,Douglasville,GA,30135,678-642-1818
Roger Moss Auto Sales,4961 Hwy 411 Ne,Fairmount,GA,30139,770-796-2660
Po Boys Trucking,1422 S Lee St Apt I,Americus,GA,31704,229-928-3614
Whiters Trucking,10 Gloria Street,Butler,GA,31004,478-862-9902
Na,2205 Greenville Road,Lagrange,GA,30241,706-884-5553
Thunderbird Trucking,3214 Quail Point,Woodstock,GA,30189,770-516-0652
F & A Trucking,1500 Chalet Circle,Lawrenceville,GA,30043,770-963-3151
Deloach Trucking,1002 Sapelo Ave Ne,Townsend,GA,31331,912-222-3712
D & G Transport,405 Oak Creek Lane,Alto,GA,30510,706-776-7801
G & E Trucking,4838 Millcreek Rd,Statesboro,GA,30461,912-678-1282
Movers Ink,152 West Road,Crawfordville,GA,30631,706-678-2993
J & T Trucking,64 Savannah Ct,Powder Springs,GA,30127,678-567-1242
J & L Transport,215 Cinnamon Drive,Bainbridge,GA,39819,229-246-9941
Campbell Trucking,4394 Campbell Rd,Gainesville,GA,30507,770-503-7429
F & F Trucking,34 Church Street,Barney,GA,31625,229-775-2922
Sd & J Trucking,1618 Celeste Drive,Columbus,GA,31907,706-221-0266
G H Hulse Trucking,931 Main Street,Allentown,GA,31003,478-893-3993
Toy Express,345 Mitchell Lane,Rossville,GA,30741,706-858-6044
Bailey Trucking,1254 Oscar Thornton Rd,Washington,GA,30673,706-293-4352
Sunrise Transport Services,133 Arbor Cove Way,Stockbridge,GA,30281,770-474-5886
Truck On The Move,1357 Harlan Lane Rd,Villa Rica,GA,30180,770-456-9400
D & K Transport,520 Mossy Oak Road,Douglas,GA,31535,912-384-6395
Tolbert Trucking,112 Archer Way,Dahlonega,GA,30533,706-867-1915
Jest Trucking Express,775 North Ave 227,Jonesboro,GA,30236,678-438-9582
R L Locke Trucking,1400 Old Happy Ln,Brooklet,GA,30415,912-852-4030
R&r Smith Farms,2220 Hwy 91 South,Donalsonville,GA,39845,229-524-2455
Pepper Trucking,250 Phillips St,Colquitt,GA,39837,229-758-8715
Crowe Services,1649 Roscoe Davis Rd ,Monroe,GA,30656,678-614-0929
Partick L Weeks Trucking,337 W Morrison Sreet,Mount Vernon,GA,30445,912-523-5707
Stacey Greens Auto Transpot,312 Larry Drive,Waynesboro,GA,30830,706-554-7662
Jp Buffington Trucking,4825 Moss Trace,Ellenwood,GA,30294,706-718-4720
Bentwood Trucking,4000 Crossings Way,Stone Mountain,GA,30083,404-626-1634
Tylt Trucking,2298 Ga Hwy 256,Sylvester,GA,31791,229-776-1796
Summerhill Transportation,3200 Chadwick Ct,Conyers,GA,30013,404-931-5400
Pryor Trucking,327 Whitley St,Ocilla,GA,31774,229-468-3470
Mays Trucking,54 S Williams St,Blakely,GA,39823,229-723-5052
Eagle Claw Transport Service,133 Lee Ann Road,Fitzgerald,GA,31750,229-423-2914
Currie Transport,133 Meadowood Lane,Fitzgerald,GA,31750,229-425-2833
A & M Trucking,7310 Knoxville Rd,Lizella,GA,31052,478-935-9084
Mike Guinn's Mustang Custom And Classic Auto Shop,248 Old Atlanta,Stockbridge,GA,30281,770-474-3627
Ryco Trucking,4233 Seminole Rd,Richland,GA,31825,229-317-2949
Sorto Trucking L L C,168 Lafayette Rd,Rocky Face,GA,30740,706-516-0130
Stanley Trucking,536 Myers Hill Road,Brunswick,GA,31523,912-264-1474
Pegasus Trucking Co,1615 Flint Hill Hwy,Shiloh,GA,31826,706-846-3341
Sga Trucking,1313 Bucksnort Rd,Jackson,GA,30233,770-412-7866
A C & E Bailed Pine Straw,1610 Old Camilla Hwy,Moultrie,GA,31768,229-890-7628
Crown Wrecker Service,649 Settlers Ridge Lane,Hiram,GA,30141,770-966-7245
Paige Customer Delivery Service,3401 Underwood Rd,Conyers,GA,30013,678-614-3894
Josh H Hardy Trucking,115 Mallory Road,Thomaston,GA,30286,706-647-0131
Island Trucking LLC,2639 Glen Valley Dr,Decatur,GA,30032,404-569-1230
Dickson Bobcat Service,822 Hopewell Loop,Cohutta,GA,30710,706-694-8056
Flip Transport,1201 Mariners Way Se,Conyers,GA,30013,770-483-7020
Lynn's Truck'n,1305 Pennick Rd,Brunswick,GA,31525,912-267-7763
Mkt Logistics,326 Kuwe Trail,Hinesville,GA,31313,912-617-3280
English Classics,1442 Chattahoochee Ave Nw,Atlanta,GA,30318,404-351-2252
Haswell Construction,2120 Murphy Hollow Road,Trenton,GA,30752,706-820-2893
Southwood Trucking,1075 Mountville Road,Hoganville,GA,30230,706-883-7798
"Dean's Trucking, Inc.",1300 Dillion Road Sw,Austell,GA,30168,678-630-7342
Little C Trucking,45 Forest Hill Circle,Hawkinsville,GA,31036,478-892-8824
H&h Trucking,91 Jefferson Rd,Statham,GA,30666,770-725-4443
Kyle D Harper Trucking,126 1st Street E,Tifton,GA,31794,229-238-2874
Lees Crossing Tire,3 New Airport Road,Lagrange,GA,30240,706-882-3888
J T Trucking,328 Jim Cannon Rd,Collins,GA,30421,912-618-0339
Love Oil Services,938 Wilhite Road,Jefferson,GA,30549,706-540-6453
Poppa D Trucking,208 Possum Point Drive,Eatonton,GA,31024,706-485-8892
Lil Red's Crossroads,1105 Campgrounds Road,Mcdonough,GA,30252,770-757-1114
Circle H Trucking,2200 Rock Eagle Rd,Monticello,GA,31064,706-468-6866
Aldridge Trucking,156 Ga Hwy 41 South ,Buena Vista,GA,31803,229-649-2979
Kidney Trucking,165 Juniper Circle,Brunswick,GA,31525,912-554-4552
Big John's Trucking,185 N F L Dr,Baxley,GA,31513,912-367-5093
"Back Yard Express, Inc.",557 Preserve Park Dr,Loganville,GA,30052,404-488-4762
"Cook Trucking, Inc.",256 Carroll Slough Rd,Kingston,GA,30145,404-552-6474
Jesse Magic City,962 Murphy Ave,Atlanta,GA,30310,404-753-3512
Tek Express Services,177 Brookside Way,Villa Rica,GA,30180,404-427-8746
L & M Trucking,1481 Wimpy Rd,Ringgold,GA,30736,706-673-6219
Mccoy Trucking,1367 Hickory Flats Rd,Gillsville,GA,30543,706-677-1092
Brian's Trucking,3431 Jessica Run,Decatur,GA,30034,404-241-7020
C & R Trucking,7361 Aubrey Drive,Riverdale,GA,30296,770-997-2069
Curnow Transport,1009 Hamilton Dr,Locust Grove,GA,30248,786-443-4923
Kennedy Transport,742 Old Still Rd,Woodbine,GA,31569,802-249-7937
Panda Xpress,6560 Coventry Pt,Austell,GA,30168,678-232-3124
Dixieland Distributors & Auctioneers,442 Howard Rd Ne,Hinesville,GA,31313,912-876-6526
1 866 U Moving,3593 Clearview Pkwy,Doraville,GA,30340,770-458-0500
Harper Hauling & Transport,765 Hillside Drive,Grayson,GA,30017,770-339-3609
All South Express,175 Handley Road Suite 200,Tyrone,GA,30290,770-487-1825
Allpoints Trucking LLC,15 Collins Trace,Covington,GA,30016,866-530-4447
J D Transport,2557 Sandtown Road,Washington,GA,30673,706-285-3140
Matthew's Transportation,2195 Huntington Drive,Loganville,GA,30052,770-554-6987
Best Move,2126 Lakeview Drive,Waycross,GA,31501,912-283-9182
Q & K Trucking,Route 4 Box 1355,Folkston,GA,31537,912-496-4546
Smith Trucking,514 Twin Bridges Rd,Eatonton,GA,31024,478-968-5794
Quality Auto Transport,129 Winchester Dr,Sharpsburg,GA,30277,770-252-3867
Smith & Son Trucking,Rt 3 Box 998,Folkston,GA,31537,912-496-1094
"Ws&h Trucking, Inc.",195 S Webster St,Cuthbert,GA,39840,229-732-6176
Bowen Trucking,6781 Willie Bowen Road,Blackshear,GA,31516,912-288-1668
K & M Farms Trucking,584 Old Happy Lane,Brooket,GA,30415,912-839-4496
R&r Auto Sales,1505 East Ward Street,Douglas,GA,31533,912-384-6057
Valle Hermoso Auto Sales And Repair,430 West Highland Drive,Gainesville,GA,30501,770-535-7165
Cadillac Transport,18 Sterling Dr,Powder Springs,GA,30127,678-838-7648
National Truck Transport,4536 Black Water Cove,Ellenwood,GA,30294,404-808-1530
"B & B Truck And Tractor Repair, Inc.",402 South Main Street,Collins,GA,30421,912-693-9890
Greg Wyatt Auto Sales,905 York Road,Summerville,GA,30747,706-857-3916
B & R Service Co,301 Old School House Ln,Morganton,GA,30560,706-374-5451
"Riverbend Trucking Co, Inc.",2687 Cannon Bridge Rd,Demorest,GA,30535,706-776-2400
"I Do Transport, Inc.",11297 Highway 26 East,Montezuma,GA,31063,478-335-0334
Turner Transport,2943 2nd St,Omaha,GA,31821,229-838-9096
Don Rentz Trucking,168 Josey Lane,Brinson,GA,39825,229-246-8010
R And E Truck Sales,6335 Riverview Rd,Mableton,GA,30058,404-691-5551
Frazier Trucking,519 Old Center Point Road,Carrollton,GA,30117,678-492-6401
Gigatt Express,1812 Lee St,Decatur,GA,30035,404-219-3554
Manuel Montecinos,5879 New Peachtree Rd Suite G,Doraville,GA,30340,770-457-7777
Edwards Trucking,1017 Charles Shuman Rd,Pembroke,GA,31321,912-653-2998
Finch Trucking,114 Gulfstream Rd,Port Wentworth,GA,31407,912-936-1191
K J Transport,1094 Eldorendo Rd,Bainbridge,GA,39817,229-248-1542
Randalls Transportation,231 Old Leefield Rd Lt# 19,Brooklet,GA,30415,912-842-4048
M Weiss Trucking,332 Junction Court,Winder,GA,30680,770-586-5458
Lokenmotive Auto Trans,220 Turn Stone Rd,Stockbridge,GA,30281,678-300-3066
R J Smith Trucking,4874 Old Dalton Road Ne,Rome,GA,30165,706-234-8849
Tristar Transport,726 Starcrest Lane,Marietta,GA,30066,770-529-4799
Miller Trucking,4481 Center Hill Ch Rd,Loganville,GA,30052,770-617-9248
"Taxman Trucking, Inc.",5 Baisden Bluff,Cresent,GA,31304,912-617-0825
First Class Trucking,599 Bush Rd,Savannah,GA,31419,912-572-3607
Christian Brothers Trucking,421 Mckinley St,Thomasville,GA,31792,229-225-1972
"Masiello Transport, Inc.",1710 Double Springs Ch Rd Sw,Monroe,GA,30656,770-207-9059
Ghw Cold Line LLC,1418 Celeste Dr,Columbus,GA,31907,706-563-2218
T & A Trucking,663 Elam Lunceford Road,Tignall,GA,30668,706-285-3371
Fast Distribution,4910 Broxton Westgreen Hwy,Broxton,GA,31519,912-359-3703
Rj's Trucking,515 Clements Road,Comer,GA,30629,706-783-2045
Fayte Express,4601 Randalwood Drive,Stone Mountain,GA,30083,404-789-8960
Harrell And Dix Transport,8539 Plumtree Dr,Riverdale,GA,30274,770-310-7870
Fireball Express,5193 Hazel Street,Covington,GA,30016,770-784-7427
Alpes Freight Systems,2601 Oiso Ct,Jonesboro,GA,30236,404-641-4878
J Squared Delivery Service,1002 Atherton Lane,Woodstock,GA,30189,770-310-3466
R & R Wrecker Service,130 Longview Dr,Canton,GA,30114,770-720-6200
Georgia Express,2126 Worrall Hill Drive,Duluth,GA,30096,213-500-0157
Ty Transit Services,215 Beaver Falls Place,Atlanta,GA,30331,404-349-8943
Eagle Express,871 Beecher St Sw,Atlanta,GA,30310,404-886-4889
Zuma Transportation,600 Interchange Dr,Atlanta,GA,30336,404-472-3339
Sadler Grading & Hauling,12047 Morganton Hwy,Morganton,GA,30560,706-374-5559
Rabbitts Trucking,99 Joe Hesters Road,Hazlehurst,GA,31539,912-379-9332
"Jab Logistics, Inc.",839 Bennett Street,Valdosta,GA,31601,229-242-3435
D&s Trucking,102 Sammons Dr,Eatonton,GA,31024,706-485-3248
Trinity One Transport,3531 Mustang Dr,Powder Springs,GA,30127,770-943-4793
Dulmar Trucking,6523 Brannon Hill Rd,Clarkston,GA,30021,404-508-0645
J & L Trucking,115 Greenview Dr,Mcdonough,GA,30253,770-527-0993
Mathis Trucking,118 Glenn Rd,Oglethorpe,GA,31041,478-458-0013
Gaines Trucking Co,702 Penn St,Waynesboro,GA,30830,706-871-9040
J T Trucking,303 Carolyn Drive,Screven,GA,31560,912-586-9947
"Tinawanetransport, Inc.",5090 Alexander Ave,Union City,GA,30291,770-969-4526
Bmw's Transportation,1017 Old Pelham Rd,Climax,GA,39834,229-248-8103
Action Trucking LLC,2589 Monica Way,Morrow,GA,30260,404-713-9614
A D R Trucking,213 Rowland Dr,Moultrie,GA,31768,561-722-4672
"Caw Enterprises, Inc.",3421warbler Dr,Decatur,GA,30034,404-244-2016
Scoggins Trucking,7236 Williams Road,Flowerey Branch,GA,30542,770-967-2533
Jb Strok'a Trucking,524 Salter Moon Rd,East Dublin,GA,31027,478-275-8742
Perry's Trucking,632 Bethesda Church Road,Carrollton,GA,30117,770-214-2951
A & D Services,611 Jackson Lane,Manchester,GA,31816,706-846-4569
Big Rob's Transport,1370 S Gordon Rd,Austell,GA,30168,404-723-5375
Ed 3 Trucking,5339 O'mara Lane,Stone Mountain,GA,30088,678-575-8618
Knr Sales & Service,3025 Ashdowne Court,Snellville,GA,30078,770-972-6033
Welch's Backhoe Services LLC,110 John Grist Lane,Rabun Gap,GA,30568,706-746-3559
Johnson Transport,134 Plantation Circle,Clarkston,GA,30021,404-298-5776
Gap Trucking,650 Old Louvale Rd,Louvale,GA,31814,229-838-6215
J & A Austin Transport,103 Pifer Lane,Cusseta,GA,31805,706-323-4340
Tripod Transportation,2445 Hilton Drive Ste 101,Gainesville,GA,30501,678-389-3886
Medical Transit Services,543 Old Grassdale Rd,Cartersville,GA,30121,678-721-5008
Father And Son Auto Sales,1503 Athens Hwy,Elberton,GA,30635,706-283-6002
Scotts Transport,4703 Harvest Street,Savannah,GA,31405,912-228-1608
"Ortiz Trucking, Inc.",9075 Martin Terrace,Gainesville,GA,30506,678-551-4726
Callaway Trucking,12 Poplar Lane,Colbert,GA,30628,407-201-7275
Lewis Trucking Company,2101 South Tenth Street,Cordele,GA,31015,229-535-4846
Pbt,11058 London Way,Hampton,GA,30268,770-703-6686
Mtg Co,2292 East Hill Way,Norcross,GA,30071,678-878-8209
"Dba Brady Road Auto Sales, Inc.",781 Brady Road,Americus,GA,31709,229-924-2886
N-e-where Express,180 Liberty Hill St,Milner,GA,30257,770-358-3644
Nts,637 W Market Circle # 336,Lithia Springs,GA,30122,404-717-5176
Accelerated Delivery Service,1369 Hargrove Lake Road,Winterville,GA,30683,706-202-5186
Opitimistic,6441 Michell Way,Douglasville,GA,30135,770-947-2581
Mark's Hauling,496 Adams Rd,Cedartown,GA,30125,678-988-2371
Spurlin Trucking Co,2520 Schley Ave,Albany,GA,31707,229-432-7215
Joe Kea Trucking Company,5724 Riverdale Rd Apt F8,College Park,GA,30349,678-522-4540
F & T Trucking,4002 Worth Street,Savannah,GA,31405,912-238-9071
R A H Trucking Company,5338 Hwy 280 West,Pembroke,GA,31321,912-653-2070
Rjr Trucking,395 Coker Road,Pelham,GA,31779,229-377-1994
Randolph Stephens Trucking,258 Fluitt Rd,Attapulgus,GA,39815,229-465-3503
Jw Trucking & Associates LLC,798 Old Powder Spr Rd,Mableton,GA,30126,770-745-7720
Erwin G Bruce & Sons Trucking,Lot 27 Robert Truesdell Road,Darien,GA,31305,912-717-1447
Dan Mo Trucking,238 Pine Bluff Rd,Albany,GA,31705,229-291-4340
Faith Trucking,4136 White Oak Lane Sw,Lilburn,GA,30047,770-733-1172
Pat's Trucking,1524 Zebulon,Griffin,GA,30224,770-227-3148
H J Transport Co,6967 West Hwy 136,Chickamauga,GA,30707,706-539-2547
P V D,3005 Chastain Meadows Pkwy Suite 400,Marrietta,GA,30066,770-951-1729
Dollyhood Transit,4546 Columbus Rd,Macon,GA,31206,478-477-9900
Graves Trucking,3381 Greenbriar Pkwy Apt 247,Atlanta,GA,30331,770-313-9541
Tpg Trucking,4030 Derby Drive,Cumming,GA,30040,770-889-3654
T Morgan Trucking,232 Old Columbus Rd,Bowdon,GA,30108,770-258-1872
Triple C Logistics,7266 Montery Ave,Lithonia,GA,30058,404-405-2307
Zubayr Transport,6542 Old Hampton Dr,Clarkston,GA,30021,404-992-1592
Dana Land Trucking,4093 Ooltewah Ringgold Road,Ringgold,GA,30736,706-965-7117
Jack Wood,1050 Ty Ty Sparks Road,Tifton,GA,31793,229-382-7966
David C Harris Trucking,84 Fox Ben Court,Reidsville,GA,30453,912-557-6024
Marcus Transportation Group LLC,Route 1 Box 320,Shellman,GA,39886,229-886-1816
International Truck Sales,5572 Export Blvd,Garden City,GA,31418,912-966-1774
We Haul Trucking,733 Skull Shoals Road,Washington,GA,30673,706-678-3378
Sj Trucking,749 Pierce Road,Wavery Hall,GA,31831,706-582-3858
Chris-jordan Trucking Co,280 Old Latin Rd,Macon,GA,31217,478-743-4395
Spartran,617 Spring Ridge Dr,Kennesaw,GA,30144,770-330-6587
Georgia Freight Furniture Co,1300 Box Rd,Columbus,GA,31907,706-563-2000
Jpc Trucking,435 Sweetgum Drive,Woodstock,GA,30188,770-928-0810
Loper Trucking,160 Loper Road,Brunswick,GA,31523,912-266-1526
W C Trucking,310 Wade Rd,Pelham,GA,31779,229-524-0090
"Stampp Delivery, Inc.",841 Roget Court,Lawrenceville,GA,30045,770-294-6920
Endless Horizone,3608 Sandalwood Drive,Atlanta,GA,30350,770-205-0218
Clements Trucking,95 Watts Lake Rd,Mcdonough,GA,30252,770-957-7927
T & M Carriers,138 Pope Road,Bainbridge,GA,39817,229-400-8144
L R Trucking,24617 Us Hwy 301 North,Statesboro,GA,30461,912-690-4076
Colbert Trucking,1059 Hampton Road,Hampton,GA,30228,404-210-5711
Zoom Transport,665 Flat Rock Rd,Stockbridge,GA,30281,770-474-3212
Seal Transport,3515 Aaron Soseebe Rd,Cumming,GA,30040,404-933-0204
"Dat, Inc.",5152 Coolamber Drive,Powder Springs,GA,30127,770-527-2246
Hill & Son,932 Shi Rd,Macon,GA,31220,478-743-4289
R & M Trucking,2730 Owens Ave,Marietta,GA,30064,678-384-0809
Mad Dog Heavy Haul Transport,604 Robinson St,Fokston,GA,31537,904-840-6858
Martin's Cattle Services,551 Hwy 124 West,Jefferson,GA,30549,706-367-8349
Hardam Transport,4001 Presidental Parkway Suite #714,Atlanta,GA,30340,678-427-7923
Davis Auto Group Transport LLC,1136 Old Meadow Ro,Valdosta,GA,31601,229-247-0405
C K Trucking,2430 Locksley Dr,Macon,GA,31206,N/A
Two Men And A Truck,185 Fulton Court,Peachtree City,GA,30269,770-631-6683
Ez Express,2105 Mesa Valley Way Apt 401,Austell,GA,30106,404-935-1885
Bessinger's Trucking,126 Goshen Street,Lincolnton,GA,30817,706-359-7359
"T E M Trucking, Inc.",7135 Weatherford Dr,Powder Springs,GA,30127,770-948-9755
Coastal Cowboy Transport,239 Shadowlake Drive,Brunswick,GA,31525,912-466-8913
Able Equipment Services,225 Old Columbus Rs,Bowdon,GA,30108,770-258-5052
Tc Transport,2096 Bethany Church Rd,Monroe,GA,30655,770-560-3515
Timberleaf Transportation,175 Rampart Ln,Fairburn,GA,30213,770-964-0142
Gator Transport,101 Country Hill Rd,Willacoochee,GA,31650,912-381-7563
James Gray Trucking,1848 Parker Rd Se,Conyers,GA,30094,770-918-1794
Tubbys Trucking,120 Plantation Rd,Cordele,GA,31015,229-273-3855
Sylvester Smith Trucking,1603 Home Chapel Road,Homerville,GA,31634,912-487-3395
Knight's Trucking,548 Satilla Road,Patterson,GA,31557,912-462-5063
Triple H Trucking,50 Bobby White Rd,Lagrange,GA,30241,706-845-7794
Rwl Transportation,251 Miramar Drive,Martinez,GA,30907,706-726-4202
Ez Express,3799 Houston Street,Dry Branch,GA,31020,340-626-2196
Nicholl Trucking Co,4171 Winters Chapel,Doraville,GA,30360,404-219-2811
"United Transport, Inc.",1730 Camp Wasega Rd,Dahlonega,GA,30533,706-864-0037
Msi Trucking,2074 Hwy 81 N,Oxford,GA,30054,770-786-6543
A&e Trucking,131 Amos Drive,Cumming,GA,30040,678-770-3973
North Georgia Farm Service,577 Brays Rd Sw,Calhoun,GA,30701,706-625-0552
Ground Pounders Trucking,403 Parlor Circle,Locust Grove,GA,30248,678-725-2674
Woods Transportation,1038 Ascot Ct,Riverdale,GA,30296,770-991-7333
Sms Transport,144 Temple Ave,Newnan,GA,30263,678-469-4413
"Be Gone Expediters, Inc.",4334 Cleveland Hwy,Cohutta,GA,30710,706-694-2963
Douze Transportation Services,2560 West Point Ave,College Park,GA,30337,770-603-1510
Michaels Transportation,119 Rosedale Drive,Dalton,GA,30721,706-695-9759
W & S Trucking,161 Red Hill Road,Lyerly,GA,30730,706-895-2741
T Johnson Trucking,212 Muirfield Lane,Byron,GA,31008,478-956-0887
Mbs Trucking,335 Simms Rd,Carrollton,GA,30117,770-258-0217
Auto Concierge Transport,366 Pleasent Grove Road,Hamilton,GA,31811,706-628-4239
"Btn Transportation, Inc.",260 Enclave Dr,Powder Springs,GA,30127,770-942-5161
Kaab Hauling,3500 Sage Drive,Lithia Springs,GA,30122,770-942-2089
E C Transport,5069 Goldkink Cr,Stone Mountain,GA,30088,757-593-2252
Al's Construction Services,110 Kimball Bridge Cove,Alpharetta,GA,30022,678-762-9933
"Mo & V Transportation, Inc.",3200 Lenox Rd D115,Atlanta,GA,30324,404-484-3439
Tnw Transport,330 South Railroad Street,Norman Park,GA,31771,229-769-3771
General Freight Furniture,1101 Walton Way,Augusta,GA,30901,706-724-3392
Cannon Transport,Rt #2 Box 914,Mcrae,GA,31055,229-868-7066
Tt & G Transport,615 S Forest,Adel,GA,31206,229-896-6318
West Transport,Box 888 Hwy 29south,Danielsville,GA,30633,706-795-3484
Bowers Construction,7 Morningside Dr,Lafayette,GA,30728,706-638-3462
Two Men And A Truck,1625 Rock Mountain Blvd Ste D,Stone Mountain,GA,30083,770-938-1114
Taylor Trucking,555 George Cannon Rd,Box Springs,GA,31801,229-649-6127
"B & W Transport, Inc.",197 Nottingham Lane,Moultrie,GA,31788,229-890-0777
Top Notch Transport,128 Calloway Drive,Roberta,GA,31078,478-836-4543
Emmett Delaney Transportation,611 Lee Street,Jefferson,GA,30549,877-937-7376
Greenes Transport,2449 Atkinson Rd,Loganville,GA,30052,770-466-8784
Rtr Transport,505 9th Ave Nw,Cairo,GA,39828,229-221-4931
Community Trucking,920 Maple Leaf Drive,Mcdonough,GA,30253,770-914-1593
Fi Trucking,304 Tate St,Washington,GA,30673,706-678-7643
Tom Griffith Trucking,248 Tyse Rd,Villa Rica,GA,30180,863-697-2888
Hill Trucking,311 Hancock Street,Sparta,GA,31087,706-444-3020
Mancil Trucking,Route 1 Box 4,Axson,GA,31624,912-422-3075
Puttroff Boat And Camper Transport,1347 Heads Ferry Rd,Cornelia,GA,30531,706-776-1989
Atl Trucking,3489 Woodruff Ridge Ln,Loganville,GA,30052,678-344-7214
Johnson Brothers Trucking,642 Bethea Drive,Shellman,GA,39886,229-679-5618
Rwh Transport,2395 Glen Chase Lane Suite 1,Lawrenceville,GA,30044,813-597-6987
Fast Movers,3250 Sweetwater Rd # 2616,Lawrenceville,GA,30044,678-381-1617
Murrell Trucking,6081 Luke Road,Ray City,GA,31645,229-630-3234
S M Phillips Trucking Co LLC,2771 Spring Ridge Circle,Snellville,GA,30039,770-985-2066
Blue Fox Trucks,672 Pine Thicket Rd,Douglas,GA,31533,912-383-6490
Touba Transportation,5900 Riverdale Road J2,College Park,GA,30349,770-243-0054
Gs Trucking,3479 Lake Mill Rd,Buford,GA,30519,770-882-7244
Lenox Transportation,5000 Austell-powder Springs Road Suite 119,Austell,GA,30106,678-398-0905
Circle H Trucking,2546 Winnwood Circle,Valdosta,GA,31601,229-242-2281
Cmb Trucking,5051 Villas Terrance,Stone Mountain,GA,30088,770-981-9660
Sun Construction,640 Mitchell Rd,Norcross,GA,30071,770-326-5433
Thompson Automotive,78 Kersey Street,Baxley,GA,31513,912-367-2528
Gene Eason Trucking,106 Shoal Creek Dr,Lagrange,GA,30241,706-957-1799
Sa Meikle & Sons Trucking,2207 Bentley Crossing,College Park,GA,30349,770-997-5755
Transport Leasing,818 Shelton Drive,Albany,GA,31705,229-347-2336
J&g Services,26 Bay Ct,Cartersville,GA,30120,678-878-8534
Scott Transport,5891 Sequoia Lane,Douglasville,GA,30135,770-920-7822
Galleria Transport,16 Forest Pkwy Unit Number 20,Forest Park,GA,30297,404-363-2655
Bruce Daniels,195 Fitzgerald Hwy,Ocilla,GA,31774,229-468-0743
Purity Trucking Co,3593 Noahs Ark Rd,Jonesboro,GA,30236,678-284-0893
T & N Trucking,43 Deer Point Road,Georgetown,GA,39854,229-334-4375
Els,5192 Southridge Parkway,Atlanta,GA,30349,404-767-1001
Atlanta Recycling,5595 Peachtree Road,Chamblee,GA,30341,404-697-3409
C & J Trucking,1950 Olive Rd,Augusta,GA,30906,706-793-7648
Fao Transport,173 Old Gettysburg Way,Dallas,GA,30157,407-234-1244
Boswell Trucking,5772 N Castlegate Dr,College Park,GA,30349,404-557-8039
"Griffin Family Trucking, Inc.",1169 Summer Set Court,Monroe,GA,30656,770-841-5840
3 T 's Trucking,2778 Cumberland Blvd #386,Smyrna,GA,30080,800-659-2759
Freedom Trucking,2546 Winwood Circle,Valdosta,GA,31601,229-242-2413
R & C Transit,298 Roberts Point Rd,Jackson,GA,30233,770-233-9014
Travis Smith Trucking,2760 Ivanhoe Lane,Smyrna,GA,30082,770-856-4856
Marietta Equipment Transport,950 Allgood Rd,Marietta,GA,30062,770-422-6675
Brenda's Trucking,631 Taylor Circle,Douglas,GA,31533,912-384-8522
Guarantee Freight Express,360 Pharr Rd Ne 422,Atlanta,GA,30305,678-528-0247
V & A Trucking,2815 Jq Adams Rd,Donalsonville,GA,39845,229-861-2593
Freeway Auto Credit,1504 Us Hwy 19 South,Leesburg,GA,31763,229-420-2044
North Georgia Sewer & Drain Co,48 Bloodroot Dr,Cleveland,GA,30528,706-219-1636
G Raley Transport,412 Russell St,Wrens,GA,30833,706-833-6190
A & B Trucking,50 Substation Road,Dallas,GA,30157,770-843-3805
A & C Marine Transport,635 Nassau St,Forest Park,GA,30297,404-361-9196
L C Trucking Co,1340 De Short Road,Sasser,GA,39885,229-255-8243
R&l Transportation,3044 Washington Rd,Augusta,GA,30907,281-639-3585
"J&t Installation Services, Inc.",112 Port Victoria Way,Woodstock,GA,30189,678-249-5713
Emc Transportation,4332 Executive Drive,Stone Mountain,GA,30083,404-294-5567
Hill Transport,2406 Basswood Court,Augusta,GA,30906,706-550-2727
Running Start Logistics,2445 Bethany Church Rd,Snellville,GA,30039,404-290-2929
Latrice Transportation,117 Benevolence Hwy,Cuthbert,GA,39840,229-732-5493
Daniel Gibson Trucking,1479 Tom Terry Road,Chatsworth,GA,30705,706-695-2444
Adrian White Trucking,604 West 5th Ave,Cordele,GA,31015,229-276-0072
R W Express,5020 Rockyford Road,Valdosta,GA,31601,229-245-9440
Q V Trucking,1434 Colony Hill Ct,Stone Mtn,GA,30083,404-281-8070
Triangle Trucking,3175 Hunting Creek Pass,Douglasville,GA,30135,404-931-4703
Gfm Transport,708 Hannover Circle,Stockbridge,GA,30281,404-519-9210
"A Team Trucking & Hauling, Inc.",7721 Old Covington Rd,Lithonia,GA,30058,678-260-7432
Don Frazier Auto Broker,2010 Ware Street,Blackshear,GA,31516,912-338-0704
The Mishis Trucking,310 Franklin St,Braselton,GA,30517,706-824-0382
Magnolia Sales & Service,2518 Hwy 81 East,Mcdonough,GA,30252,770-957-6070
Goldsmith Trucking,2081 Rock Chapel Road,Lithonia,GA,30058,770-274-9183
Wje Transportation,1116 South Candler St,Decatur,GA,30030,404-561-1302
Big T Delivery,7085 Amberleigh Way,Duluth,GA,30097,770-622-2946
J D Allen Trucking,91 Colby Ann Lane,Blairsville,GA,30512,706-897-0200
Rinky Dink Trucking,1411 Meadowind Ct,Conyers,GA,30094,404-557-4986
Scott Trucking,1513 Marley Cannon Rd,Dublin,GA,31021,478-676-3163
Tingen Auto Transport,101 Lake View Court Ne,Milledgeville,GA,31061,843-453-9299
A Hill Trucking,2102 East Dr,Decatur,GA,30032,678-360-7282
High Yield Trucking,4824 1st Kolomoki Road,Blakely,GA,39823,229-723-3908
Crown Transportation,116 Industrial Blvd,Mc Dononough,GA,30253,404-932-7005
"Abatech Services, Inc.",2795 Main Street W Building 20a,Snellville,GA,30078,678-344-7959
E And L Transportation LLC,2436 Dickey Rd,Augusta,GA,30906,706-771-1758
Whiddon Farms,301 Drain Street,Climax,GA,39834,229-246-3333
Jt Smith Hauling,77 Lake View Drive,Villa Rica,GA,30180,770-459-1950
Automotive Autorepair,865 Roswell Str #110,Marietta,GA,30060,770-226-0727
Left Lane Express,442 Piedmont Hwy,Cedartown,GA,30125,770-748-1543
Mr Appetites Go-fish Trucking,500 Ida Place,Temple,GA,30179,661-201-2037
A&m Auto Transport,5150 Buford Hwy Suite 5,Norcross,GA,30071,678-360-0412
T Mac Trucking LLC,12249 Dickson Rd,Hampton,GA,30228,404-361-8885
Douglas Carriers,500 Summer Brook Lane,Fairburn,GA,30213,678-895-4946
Rons Transport LLC,2430 Court Of Earl,Cumming,GA,30040,770-656-4697
Luis Marquez Trucking,772 Oakhill Church Rd,Alma,GA,31510,912-632-3984
J & H Hauling,364 Daily Ridge Lane,Rabun Gap,GA,30568,706-746-2449
Snider Distributing,243 Windstead Dr,Leesburg,GA,31763,229-436-9047
Brown Family Trucking,108 Robin St,Tifton,GA,31794,229-821-6003
K & T Trucking,567 Roebling Road,Bloomingdale,GA,31302,912-748-6204
Regal Transportation,3479 Lake Mill Rd,Buford,GA,30519,678-714-2131
South Bound Trucking,4824 Kolomoki Rd,Blakely,GA,39823,229-359-5191
Dixie Dumpers,3199 Keith Rd,Ringgold,GA,30736,706-937-8745
Hall Transport,1518 W Highland Ave,Albany,GA,31707,229-881-2595
Crt Griffin Transport,52 Adams Cir Se,Silver Creek,GA,30173,706-506-6884
Tyson Trucking,4184 Emerald North Dr,Decatur,GA,30035,678-698-7733
Eagle Auto Transport,2058 Dartmoth Way,Villa Rica,GA,30180,770-456-4228
"Southern Specialty Services, Inc.",8424 Wallace Tatum Road,Cumming,GA,30028,770-778-2555
Dependable Trucking,511 Pineburr Lane,Stone Mountain,GA,30087,770-465-6787
"W A H Trucking, Inc.",246 Robbie Lane,Marietta,GA,30060,404-391-7724
D&c Trucking,774 Old Macon Rd,Dublin,GA,31021,478-290-4927
Belcher's Trucking,213 Williamsburg Trail,Byron,GA,31008,478-956-1517
Joe Garrett Trucking,48 Cane Cutter Rd,Blairsville,GA,30512,706-400-9317
A Day Express,2636 Del Ridge Dr,Douglasville,GA,30135,770-947-9951
"B G & S Trucking, Inc.",150 Fellowship Rd,Cecil,GA,31627,229-794-3679
Ag Cat Trucking,4951 Halcyondale Road,Sylvania,GA,30467,912-857-3785
Johnson Trucking,194 Ware Road Nw,Rome,GA,30165,706-266-9726
Urban General Construction,1161 Nickville Road,Elberton,GA,30635,706-283-8305
Wing & Prayer Transportation,1065 Douthit Road,Sylvester,GA,31791,229-776-0467
Lo Key Trucking,1101 Troup St,Lagrange,GA,30240,706-402-5725
Ferguson Automotive Transport Company - Fatco,102 Foxchase Road,Savannah,GA,31406,912-691-1822
Perry Auto Transport,110 Ronnie Allen Lane,Tunnel Hill,GA,30755,423-298-6410
"Kms Express Transit, Inc.orporated",7725 Parkside Drive,Lithia Springs,GA,30122,678-873-6973
Sws LLC,102b Eli Whitney Blvd.,Savannah,GA,31408,912-966-0446
Spicer Trucking,383 Mckay Road,Gray,GA,31032,478-342-0402
Amazing Grace Shuttle Service,9 Dotson St,Mountain City,GA,30562,706-746-7240
M&m Ice,309 2nd Avenue Ne,Cairo,GA,39828,229-377-3422
Darold's Repair Service,626 Scataway Rd,Hiawassee,GA,30546,706-896-3937
Mills Hunter Trucking,1335 Martin Luther King Blvd,Cairo,GA,39828,229-416-5172
Bendel Transportation,4050 Flakes Mill Rd,Decatur,GA,30034,404-313-4050
K & W Truck Parts,4525 Knox Bridge Hwy,Canton,GA,30114,770-345-9099
Big M Transport,127 Gass Drive,Trenton,GA,30752,706-657-3322
Aaron Jones Trucking,616 First St N,Cordele,GA,31015,229-296-3487
Green Line Express,9725 Windsor Way,Gainesville,GA,30506,404-925-1844
C D B Enterprises,235 Stoffel Drive,Tallapoosa,GA,30176,770-842-5949
Rawhide Enterprises,190 Remington Way,Athens,GA,30606,706-206-8606
H Davis Trucking Company,2610 Great Oak Street,Albany,GA,31721,229-483-9911
"Ants, Inc.",40 Kentshire Place,Lawrenceville,GA,30044,678-570-0815
Feagle Trucking,Rt 1 Box 2088,St George,GA,31562,912-843-2662
J B Trucking,2087 Nichols Lane,Decatur,GA,30032,404-284-7174
Freedom Transportation,Route 2 Box 80 A5,Leary,GA,39862,229-734-4442
Ellis Trucking,19 Popular Dr Se,Cartersville,GA,30121,678-535-8297
Platinum Cargo Express,5101 Buffington Rd Suite 3444b,Atlanta,GA,30349,404-761-8538
Evans Trucking,144 Chesnut Rd,Camilla,GA,31730,561-996-3040
"Brat Express, Inc.",1972 Pittston Farm Rd,Lithonia,GA,30058,404-797-5619
Rct Trucking,4 Tingle Lane,Plamelton,GA,30268,770-378-4879
Suzie & Tom Trucking Enterprise,727 Springer Dr,Griffin,GA,30224,770-233-9739
Jc Trucking,105 Martin Ct,Fayetteville,GA,30215,678-519-4881
D&h Trucking,3163 Ga Hwy 300,Oakfield,GA,31772,229-869-6316
Swk Trucking,1478 Norwood Drive Sw,Lilburn,GA,30047,770-921-9660
Taylor's Garbage Service,4206 Old Stilesboro Rd,Kennesaw,GA,30152,770-428-5711
Grayson Trucking Co,2790 Fork Creek Church Road,Ellenwood,GA,30294,404-244-4033
Gerrald Auto Sales LLC,5108 Ogeecgee Road,Savannah,GA,31405,912-232-3773
T H I Transport,1425 Common Street,Waycross,GA,31501,912-283-0912
Oneway Express,1497 Springleaf Circle,Smyrna,GA,30080,678-457-6746
Victory Moving,40 Moreland Ave Ne,Atlanta,GA,30307,404-222-0468
Hopkins Grading & Hauling,153 Felton Rockmart Rd,Buchanan,GA,30113,770-546-5652
Bodden Trucking,217 Millpond Parkway,Villa Rica,GA,30180,863-427-4442
D P Trucking,325 Hd Road Lot 2,Cairo,GA,39828,229-377-5954
Derby Trucking,762 N Hairston Rd,Stone Mountain,GA,30083,678-362-2255
Goodson Crane Service,13934 Hwy 100,Franklin,GA,30217,770-301-1482
G And G Transportation,205 Monterey Village,Jonesboro,GA,30236,404-353-3374
Wilcher Express,36 Windy Ridge Dr,Danielsville,GA,30633,706-795-0251
Okf Enterprises,5823 Mulberry St Ste B,Austell,GA,30168,678-618-9524
John Blackwell Trucking,280 Denson Rd,Summerville,GA,30747,706-857-2400
Exit Dus Delivery,1652 Donovan S Pass,Kennesaw,GA,30152,404-392-0493
T And W Transport,229 Loyds Circle,Lake Park,GA,31636,229-559-5203
"Jrp Trucking Company, Inc.",118 Go Bar Landing Road,Statesboro,GA,30461,912-842-2239
Cotton Trucking,875 Primrose Rd,Greenville,GA,30222,770-927-6106
C Y Trucking,191 Cotton Tail,Flintstone,GA,30725,706-931-2855
Alpha Transportation Services,715 Gates Lane,Alpharetta,GA,30022,770-772-6754
"I & Jtruckin, Inc.",1062 Boarwalk Place,Lawrenceville,GA,30044,770-339-4627
Bogene Trucking,106 Clear Lake,Bainbridge,GA,39817,229-416-7448
Crv Trucking,1551 Montauk Pt,Conyers,GA,30013,770-602-1716
Royal Meadows Distributing,75 Stormy Lane,Douglas,GA,31533,912-389-3366
T & D Trucking,728 Pine Ave Suite B,Albany,GA,31701,229-883-9504
Thompkins & Son Express,136 Dickey Dr,Eatonton,GA,31024,706-485-9621
"Bcs, Inc.",4906 Vireo Drive,Flowery Branch,GA,30542,678-410-3505
Harris Trucking,879 Dr Mann Rd,Jacksonville,GA,31544,229-833-6690
"Money Train Express Of Ga, Inc.",Vandell Rd Rt1box2627,Folkston,GA,31537,912-496-2910
Roadwerks Transportation,3448 Kingswood Run,Decatur,GA,30034,404-328-1344
Cr Trucking,115 Torrance Road,Baxley,GA,31513,912-366-0962
Maysa Allen Transportation,7475 Talbot Colony,Atlanta,GA,30328,770-804-1514
G & G Gaston Transport,203 Middleton Rd,Grovetown,GA,30813,706-860-5987
Buffing Farms Auto Transport,761 Verde Dr,Riverdale,GA,30274,828-572-1873
Jam-land Trucking,313 Whitney Lane,Mcdonough,GA,30253,518-542-3162
Billie Powell Transport,134 Savanna Estates Drive,Canton,GA,30115,770-329-9677
Lynn Howell Transport,4351 Old Mabry Road Ne,Roswell,GA,30075,770-331-6702
Cmt Transport,2890 Highway 212 Sw # 134,Conyers,GA,30094,770-761-8030
Quail Ridge Ag,1975 Quail Rd,Sylvania,GA,30467,912-863-4139
Justice Trucking,2045 Marbut Dr,Lithonia,GA,30058,770-652-3826
D & J Trucking,4414 Luckys Bridge Road,Dearing,GA,30808,706-556-1142
Bp Martin Trucking,262 Gordon School Rd,Thomaston,GA,30286,770-468-1901
Remixx Express,304 W Tift St,Albany,GA,31701,229-889-0877
Jones Trucking,8115 Flint Rd,Baconton,GA,31716,229-787-2983
Oscar Mechoso Trucking,1195 Mount Carmel Rd,Mcdonough,GA,30253,678-583-5572
Rb Trucking,360 Paul Burson Rd,Monroe,GA,30656,678-425-6980
R&m Trucking,1361 S Park St,Carrollton,GA,30117,770-834-7277
Carroll Trucking,1891 Cofer Road,Ashburn,GA,31714,229-566-0210
J & L Motor Transport,229 Cherokee Ave,Waycross,GA,31501,912-287-0882
Fedrick And Carter Trucking,604 River Bend Circle,Smyrna,GA,30082,678-842-9118
A T X Logistics,945 Us Hwy 27 N,West Bainbridge,GA,39817,229-248-0227
Noah Trucks,2830 Hamilton Road,Lagrange,GA,30241,706-845-1681
Beverly Brothers Transport,5413 Ryan Court,Powder Springs,GA,30127,770-439-7481
C&j Trucking,1420 Campbell Road,Covington,GA,30014,678-342-2193
D & T Transport,522 Tomahawk Trl,Woodstock,GA,30188,678-388-8011
Mims Transport,4725 Warrior Drive,Lake Park,GA,31636,229-300-3173
Arrow Tow,100 Weldon Road,Palmetto,GA,30268,770-900-1100
"Triple Creek Transport, Inc.",520 Industrial Dr,Rockmart,GA,30153,770-684-1100
D & R Trucking,1091 W Fossett Rd,Concord,GA,30206,770-884-0975
Kesler's Transport,1832 Damascus Road,Homer,GA,30547,706-677-4693
"Marlen Trucking, Inc.",305 Kelly Lane,Vienna,GA,31092,229-268-1682
High Quality Transportation,520 Rangeley Meadows Ct,Hampton,GA,30228,770-703-7022
Neal's Auto Transport,1991 Redwood Trace,Ellenwood,GA,30294,404-608-3825
Quick Shot Express,3419 Thomasville Rd,Climax,GA,39834,229-220-3447
North Transport,31 Mitchell Lane,Carrollton,GA,30116,770-832-0952
Wilson Trucking,2670 Midway Church Road,Blackshear,GA,31516,912-449-1122
Infinite Automobile Wholesale,3513 Heathervale Way,Conyers,GA,30094,404-518-1332
L And M Transportation,951 Edgewood Lane,Douglasville,GA,30134,404-586-0111
Triple C Hauling,2517 Hadley Ferry Rd ,Cairo,GA,39828,229-872-3821
Taylor Transport,4903 B Jana Lane,Waycross,GA,31503,912-281-9225
Arrow Express Delivery,351 Reidsville Rd,Clyo,GA,31303,912-754-6024
Michael Reese Trucking,1066 Crown River Pkwy,Mcdonough,GA,30252,404-402-4063
R & H Express,901 Nell Purvis Rd,Adel,GA,31620,229-896-7639
Trailmix Transport Svc,3413 Cedar Rock Ln,Lithonia,GA,30038,404-966-8162
W J Trucking,1609 Old Spring Trl,Lithia Springs,GA,30122,770-732-9041
James C Perkins,13o Vickery Lane,Fayetteville,GA,30215,678-817-9014
Lisa's Assembly & Delivery Service,2910 Kings View Dr,Augusta,GA,30909,706-854-7686
Shorty J Transports,270 B Bullsboro Drive,Newnan,GA,30263,770-964-5987
R&v Trucking,117 Westbrook Rd,Carrollton,GA,30116,770-832-3922
"Nu Spirit Trucking, Inc.",4580 Woodcroft Cove,Snellville,GA,30039,770-922-6645
Mir Logistic,222 Nail Road,Mcdonough,GA,30253,770-833-6328
Faith Logistics,124 Haven Way,Carrollton,GA,30116,770-214-8549
Mckay Express,3670 Mcguire Close Nw,Kennesaw,GA,30144,678-354-1682
Rick Steele Distributing,342 Hays Hollow Rd,Flintstone,GA,30725,706-931-2868
B P Trucking & Logistics,5830 Millers Pond Ln,Powder Spring,GA,30127,704-615-5013
Js Trucking,4969 Wedgewood Place,Stone Mountain,GA,30088,770-593-1689
G & S Transportation,139 Midland Drive,Clarkesville,GA,30523,706-768-9901
Sunshine Transport Services,816 Arbor Way,Loganville,GA,30052,678-615-7941
Dennis Davis Transport,99 Cecelia Dr Apt 6,East Dublin,GA,31027,404-273-3693
Mmn Express,5914 Lakeway Glen,Lithonia,GA,30058,404-932-2965
Strickland Trucking,5182 Day Lily Dr,Braselton,GA,30517,770-965-3572
Dennis English Trucking,2352 New Mcduffie Rd,Augusta,GA,30906,706-798-9593
T N T Rapid Transportation,941 Booger Hollow Rd,Lindale,GA,30147,706-232-2319
J & S Trucking,1519 Cordell Ave,Albany,GA,31705,229-881-0926
Demolition Excavation Foundations,785 Hickory Creek Drive,Ellerslie,GA,31807,706-568-0313
H M H Enterprise Auto Transport,909 Buck Horn Bend,Locust Grove,GA,30248,404-569-8576
Caswell Wrecker,12 Herring Road,Newnan,GA,30265,770-253-9359
John Hadley Trucking,651 Levy Cave Rd,Lyons,GA,30436,912-739-7565
Carver Express,1045 Brown Duck Trail,Lawrenceville,GA,30043,770-338-2590
Tramp Trailers,3828 Ogeechee Road,Savannah,GA,31405,912-232-1689
Yonk & Kenken Trucking,8465 Kendrick Road,Jonesboro,GA,30238,770-473-6109
Stovall Enterprises,2941 Humphries Drive,Atlanta,GA,30354,404-397-6307
Grace Trucking,5983 Hitt Lake Trail,Stone Mountain,GA,30087,770-879-8830
Ach Auto Transport,5432 Ridgemoor Dr,Braselton,GA,30517,770-532-8944
Ideal Auto Sales,6150 Hwy 411 North,Chatsworth,GA,30705,706-695-8364
Shelby Trucking,75 Manor Circle,Sharpsburg,GA,30277,770-846-6717
Dry Valley Timber Co,1127 Beavers Rd,Summerville,GA,30747,706-857-3678
Wayne's Auto Transport,856 Maloy Road,Williamson,GA,30292,770-560-9785
H Langford Trucking,3817 Roscoe Dupriest Rd,Donalsonville,GA,39845,229-524-5629
C L Smith Trucking,7 Maggie Wiggins St,Butler,GA,31006,478-862-3538
G A B Transport,5805 State Bridge Rd,Duluth,GA,30097,800-746-6510
Ent Trucking,1612 Bettywise Road,Bronwood,GA,30680,770-266-9624
Axa Transport,6385 Southland Forest Drive,Stone Mountain,GA,30087,770-480-2568
W R Grading And Hauling,2811 Old Burnt Mountain Road,Jasper,GA,30143,706-692-7617
"East Brow Trucking Company, Inc.",6831 Hwy 157,Rising Fawn,GA,30738,706-398-0547
Brown Fence Service,1143 Woodbridge Dr,N E Conyers,GA,30012,770-761-3377
Authority Christian Transportation,5029 Cottage Grove Place,Union City,GA,30291,678-772-0011
Moto Express,955 Hearthstone Drive,Stone Mountain,GA,30083,678-754-9435
Lynch Trucking,2311 Blairstone Circle,Valdosta,GA,31601,229-333-9871
Lm Express,239 Fleming Drive,Jasper,GA,30143,706-692-1665
Pnc Logistics,652 Windcroft Circle,Acworth,GA,30101,678-558-3721
J & C Trucking,1000 Sutton Mill Rd,Clarkesville,GA,30523,706-754-7356
C & Rs Transport,6039 Georgia Hwy 41 North,Ashburn,GA,31714,229-566-0229
Just Trucking,507 Beech Street,Tifton,GA,31794,229-326-2515
Mack Relocation Services,1252 Oakleigh Drive,East Point,GA,30344,404-209-6959
Smith Doz & Hauling,96 Bonnie Dr,Cleveland,GA,30528,706-865-3568
Pro-trans,1585 Rocky Pond Road,Douglas,GA,31533,912-384-6175
Lugnut Ranch Trucking Co,241 Jones Rd,Jefferson,GA,30549,706-367-8779
C & R Transportation,124 King Edward Court,Calhoun,GA,30701,706-602-3402
C & S Transportation,3 Victoria Ct ,Pooler,GA,31322,912-228-3912
Rdj Transport,2517 Stanford Dr,Ellenwood,GA,30294,404-361-1020
Teague Trucking & Transport,5510 Rockton Wood Way,Atlanta,GA,30331,404-312-2288
T & T Car Hauling,3806 Willow Tree Circle,Douglasville,GA,30135,770-693-0221
Stewart's Freight Liners,9424 Deer Crossing Lane,Jonesboro,GA,30236,404-558-3199
Ahfa Trucking,1890 Cameo Court,Tucker,GA,30084,770-908-0601
Stacey Foley Trucking,100 Autumn Crest Trail,Rock Springs,GA,30739,706-375-1117
A & J Auto Carrier,125 Clover Lane,Alma,GA,31510,912-632-6336
Lane Freight Company,174 Horseshoe Bend,Riverdale,GA,30274,770-471-7694
Can Transport,227 Hill Road,Thomasville,GA,31757,229-379-1898
R & R Trucking,535 Maple Forge Dr,Athens,GA,30606,706-215-1130
Highline Transportation,3719 Old Alabama Rd,Alpharetta,GA,30022,404-630-2222
Flores Diesel,1182 Aviation Blvd,Gainesville,GA,30501,678-989-1695
Henderson Hauling,109 Cedar Ridge Drive,Forsyth,GA,31029,478-994-5370
Newton Bros Truckin,5253 Springtide Lane,Powder Springs,GA,30127,678-567-1205
Rebel Express,7450 Williams Rd,Flowery Branch,GA,30542,678-271-7646
Beba Carriers,911 Duluth Hwy D3-152,Lawrenceville,GA,30043,678-524-4483
A M A Logistics,902 Regal Rd,Jackson,GA,30233,770-775-0649
Bellair Expediting Services,2163 Heritage Trace Ln ,Marietta,GA,30062,404-768-2228
Redland Trucking,154 Redland Bend Road,Temple,GA,30179,770-562-2460
Tribal Transport,188 Mechelle Ln,Marietta,GA,30066,678-797-0553
Moore Transportation,3611 Melbourne Dr,Augusta,GA,30906,706-771-1727
Banadir Trucking Company,6551 Old Hampton Dr,Clarkston,GA,30021,404-944-9176
Escalera Trucking,1624 Cyprus Court,Riverdale,GA,30296,770-909-3164
Eddie R Wallace,267 Eagle Way,Stockbridge,GA,30281,770-241-1307
Harben Trucking,296 Harben Road,Dawsonville,GA,30534,706-265-6205
"Ronnie Milford, Inc.",1629 Royston Hwy,Hartwell,GA,30643,706-376-4200
Kanani Trucking,2605 Bentley Rd 3617,Marietta,GA,30067,678-517-1186
D & B Transport,592 20th Street Se,Cairo,GA,39828,229-377-6401
Joe's Trucking,116 Brisco Rd,Gordon,GA,31031,478-233-0920
D & T Express,405 Fairburn Rd Unit 178,Atlanta,GA,30331,404-696-3560
P&r Express,467 Witherington Circle,East Dublin,GA,31027,478-277-9005
Calvin James Trucking,1675 State Hwy 195,Leesburg,GA,31763,229-759-2983
Hardtimes Transport,4156 Whitetail Way,Blackshear,GA,31516,912-449-4396
D & D Trucking,1154 Whitfield Walk,Zebulon,GA,30295,770-567-8337
K J Transport,4220 Cheltinghan Ln,Smyrna,GA,30082,404-702-9328
Searles Trucking,1289 Murray & Jones Circle,Lincolnton,GA,30817,706-910-0343
Mrc Trucking,Rt 2 Box 208,Glenwood,GA,30428,912-523-5664
Roaddog Trucking,4538 Boulineau Road,Blythe,GA,30805,706-592-9086
Po-boy Trucking,123 Edgewater Drive,Bloomingdale,GA,31302,912-748-4476
Mcgill Trucking,2008 Carey Road,Blairsville,GA,30512,706-897-6085
Eagle Automotive,419 Northside Dr W,Statesboro,GA,30458,912-764-7290
S B G Trucking,156 Railroad Ln,Climax,GA,31734,912-246-6633
Crl Warehouse & Logistics Co,2340 Doug Barnard Pwy,Augusta,GA,30906,706-772-4729
R A Boyd Trucking,112 North Boyd Street,Rincon,GA,31326,912-313-0586
R Nesbitt Transport,1101 Chase Lake Drive,Jonesboro,GA,30236,770-960-9648
Buggytown Express,1787 Ramah Church Rd,Culloden,GA,31016,770-358-9736
Taylor And Son Trucking Co,817 Shadowlawn Dr,Albany,GA,31707,912-436-4112
K & Y Transport Services,1105 Sherrington Dr,Stone Mountain,GA,30083,404-298-9751
Gene's Mobile Home Sales & Service,14272 Hwy 188,Coolidge,GA,31738,229-346-3378
Paymasters Unlimited,2265 Holcomb Rd,Ringgold,GA,30736,706-965-3501
Ragsdale Hotshot Express Loads,3639 Woodbridge Road,Commerce,GA,30529,706-367-1298
K & C Auto Express,419 Baxter Road,Commerce,GA,30529,706-335-0454
Head Transport,1000 W Stevens St,Quitman,GA,31643,229-263-8915
Triple J Trucking,124 Experiment Station Rd Unit C ,Plains,GA,31780,229-924-6988
Rl Trucking Enterprises,100 Rolling Hills Lane,Douglas,GA,31533,912-383-6175
Dale Emory Newsome,139 Springbrook Drive,Auburn,GA,30011,770-822-0423
"Kmt, Inc.",5290 Union Rd,Tifton,GA,31794,229-382-1906
Krilar Trucking,1076 Cotton Gin Court,Lawrenceville,GA,30045,404-583-8346
J & M Trucking,505 Rockwell Church Rd Ne,Winder,GA,30680,770-867-4636
D & D Express Trucking,123 North Matthews Drive,Roberta,GA,31078,912-836-4543
"Allied Adjustment Services, Inc.",1100 Lake Drive,Marietta,GA,30066,770-516-2755
Cottle Trucking,543 East Jefferson,Americus,GA,31709,229-928-4076
Underdog Trucking,90 August Lane,Monticello,GA,31064,706-473-3290
Graham Trucking,1011 9th Ave,Eastman,GA,31023,912-374-0246
Dan Hauk Hauling,4640 Fair Play Rd,Bostwick,GA,30623,706-342-3779
D E C Transport,201 Iris Lane,Baxley,GA,31513,912-367-0601
Kenneth Godfrey Hauling,5569 Foster's Mill Rd,Cave Springs,GA,30124,706-266-6823
Randy Stone Trucking,704 Old Perry Road,Kathleen,GA,31047,478-987-3679
J L W Trucking,40 Apache Court,Locust Grove,GA,30248,678-432-1034
Dennis Fields Transportation,Rt 1,Dawsonville,GA,30534,706-429-7601
Freeman Trucking,195 Gryder Rd,Chatsworth,GA,30705,706-695-4769
Auto Advance Motors,3529 Hamilton Road,Columbus,GA,31904,706-324-7741
