Company Name,Street Address,Address Locality,Address Region,Postal Code,Telephone
The Battery Guy,1345 Enterprise St Suite B,Idaho Falls,ID,83402,208-523-0026
L & D Transportation,821 Caswell Ave W,Twin Falls,ID,83301,208-420-1046
Dave Davies Trucking,1339 7th Ave North,Payette,ID,83661,208-642-3565
Old Bridge Trucking,6995 W Irving Lane,Boise,ID,83704,208-353-2665
Allen Paul Trucking,86 New Hope Loop,Lenore,ID,83541,208-476-7258
Tomigirl Trucking,26334 Bakers Garden Ln,Juliaetta,ID,83535,208-816-1512
On Time Transport,106 N Indiana Ave,Caldwell,ID,83605,208-965-7210
Mininger Trucking,24253 Twenty Mile Rd,Grand View,ID,83624,208-834-2735
Sap Trucking,55 East 200 South,Jerome,ID,83338,208-324-3691
B & D Refridgerated Transport,8179 E Orah Way,Nampa,ID,83687,208-461-1545
Allen Trucking LLC,1895 E 900 S,Hazelton,ID,83335,208-420-2513
M C B Trucking,406 Elk Creek Rd,Idaho City,ID,83631,208-631-3747
"Jesse's Transp, Inc.",4437 E Chippewa Ln,Idaho Falls,ID,83406,208-524-9061
Castro Trucking,521 S Minnesota Avenue,Fruitland,ID,83619,208-452-5138
R And R Transport,6110 Highway 52,New Plymouth,ID,83655,208-249-8494
Green Valley Transport,5374 N Stanley Creek Ave,Meridian,ID,83646,916-792-1774
Awd Trucking LLC,2445 Harold Drive,Idaho Falls,ID,83402,208-705-5300
Magic Valley Auto Transport,2358 East 3300 South,Jerome,ID,83338,208-731-3366
Black Eagle Trucking,1465 Oxford Road,Bonners Ferry,ID,83805,208-597-0950
J Peterson Trucking,1191 Crane Creek Road,Potlatch,ID,83855,509-330-2410
T K Transport,2104 Old Hwy,Midvale,ID,83645,208-355-2373
E&d Trucking,11611 W Coleen St,Boise,ID,83709,208-288-0980
Pro Transport,10900 N Hwy 95,Payette,ID,83661,208-642-2120
J Stone Trucking,8447 N Salmonberry Lp,Hayden,ID,83835,760-277-8581
Doin' It Right Trucking LLC,4837 Wildlife Trail,Hayden,ID,83835,208-651-0310
American Mobile Home Service,1925 E Pinehaven Lane,Athol,ID,83801,208-755-7944
Aguirre Auto Transport,20226 Linda Lane,Caldwell,ID,83607,208-965-2231
"Saddle Up Express, Inc.",13785 West Highway 53 #4,Rathdrum,ID,83858,208-687-3808
Randy Moore Trucking,420 S 2nd St,Saint Maries,ID,83861,208-582-2544
Mazz Freightline,501 Cleveland Blvd,Caldwell,ID,83605,208-453-8646
Sara Express,3912 N Yellowstone,Idaho Falls,ID,83401,877-877-1070
Crossroads Transport,21323 Hwy 30 #13,Filer,ID,83328,208-316-5496
Zion Freight,54b Selkirk Way,Oldtown,ID,83822,208-437-0302
Wcc,808 Augusta Dr Suite 101,Nampa,ID,83686,800-535-1762
Hr Bar Trucking,207 Nutbasin Road,White Bird,ID,83554,208-839-9909
Wilson's Tree And Shrub Service,1411 Alder Ave,Lewiston,ID,83501,208-790-1669
J&s Swift Express,5118 Weston Ave,Caldwell,ID,83607,800-328-7447
Murphy Trucking,10234 N Reed Road,Hayden,ID,83835,208-755-0452
Rbo Trucking,4029 Highway 93,Filer,ID,83328,714-944-2084
Chris Adams Trucking,147 Chandlelier Lane,Kooskia,ID,83539,208-926-4534
Tyler Larson Trucking,6016 Three Mile Rd,Weippe,ID,83553,208-413-1628
Db Trucking,83 North 4600 East,Ririe,ID,83443,208-313-3859
P&r Transport,142 West Orchard,Hagerman,ID,83332,N/A
Bbg Trucking,10455 W Merab,Star,ID,83669,208-250-5312
Manuel C Trucking,422 E Avenue A,Wendell,ID,83355,208-308-7431
Lightweight Transport,1815 N Keystone Ct #17,Post Falls,ID,83854,208-660-6891
J Edwards Trucking LLC,800 Dennis Cir,Idaho Falls,ID,83401,208-891-1656
Lopez Trucking,407 Stampede Dr,Nampa,ID,83687,208-467-7947
Gold Valley Transport,2672 N Capecod Way,Meridian,ID,83646,208-888-9350
Meridian Transport,3533 E Judicial Dr,Meridian,ID,83642,208-888-9429
Dz Trucking LLC,12350 Sw Tlk Dr,Mountain Home,ID,83647,208-599-3134
D & D Transport,777 Hoopes Ave #j108,Idaho Falls,ID,83401,208-881-9270
Gaspar's Trucking,513971 Hwy 95,Bonners Ferry,ID,83805,208-267-4154
S J A Trucking,2323 E Cinnamon Ln,Nampa,ID,83687,208-965-7901
J M S C Trucking LLC,10850 W Hubbard Rd,Kuna,ID,83634,208-562-0983
D & E Jones Trucking,1312 West Ironhorse Circle Space 37,Post Falls,ID,83854,562-481-9518
Ken Unruh Trucking,820 Fitzpatrick Rd,Bonners Ferry,ID,83805,208-267-2120
M R M Trucking,1821 E Iowa Ave,Nampa,ID,83686,208-989-9275
S & D Trucking,4048 N 1450 E,Buhl,ID,83316,208-316-5536
Jad Piloting And Custom Hauling,7116 El Paso Rd,Caldwell,ID,83607,405-601-4482
D S Transport And Hauling,1190 W Wyoming Avenue,Hayden,ID,83835,208-446-6005
Aaction Marine Transport,34593 Merriweather Rd,Bayview,ID,83803,208-683-3620
Tyrrell Trucking,8000 W War Bonnet Dr,Boise,ID,83709,208-850-3540
D C H Transport,823 E Chicago St,Caldwell,ID,83605,208-454-2057
Trejo Transportation,155 W 13th St,Idaho Falls,ID,83402,000-000-0000
Restless Trucking Livestock LLC,199 S 3926 W,Rexburg,ID,83440,208-356-0012
"Red Dog Leasing, Inc.",5173 Golden Ave,Rathdrum,ID,83858,208-687-1786
Tramps Trucking,850 Anthon Ave,Idaho Falls,ID,83401,208-681-8624
J M H Trucking,3923 Denton St,Caldwell,ID,83605,208-455-0824
Real Survivor,329 W Mill St,Cascade,ID,83611,208-382-5214
Goodings Mars,2122 E 1750 S,Gooding,ID,83330,208-934-4507
Calvo Trucking,1402 River Run Lane,Caldwell,ID,83605,N/A
Jodie Winn Trucking,231 W Vicki,Hayden,ID,83835,208-691-3571
Northwest Materials Management Services,913 Haas Road,Weiser,ID,83672,208-550-7175
John & Pam Peterslie Trucking,47 N 3400 E,Rigby,ID,83442,208-569-2971
Get My Load,3730 Stonehaven Drive,Idaho Falls,ID,83406,208-557-8775
Fbi Transport,6810 S Ironwood Ave,Boise,ID,83709,208-585-4703
Us Eagle Trucking,1477 Bradley Street,Twin Falls,ID,83301,602-446-4672
Darrell Razutis Trucking,11451 W Gila Dr,Kuna,ID,83634,208-841-3759
Happy Jack Trucking,3040 E 750 N,Chester,ID,83421,208-821-2158
R Z R Transport,8 Creekside Drive,Orofino,ID,83544,208-553-8192
Christensen Trucking,5344 Ethans Way,Pocatello,ID,83204,208-240-0199
Loe Transportation,17502 Riverside Rd,Caldwell,ID,83607,208-914-6000
M&em Transport,15879 W Reservation Rd,Pocatello,ID,83202,208-604-0301
E C Trucking,5671 Cynthia Ln,Marsing,ID,83639,208-602-8118
Sal's Transport,29251 Hurtz Road,Parma,ID,83660,208-740-4433
Cris Ramirez Trucking,417 Main St S,Kimberly,ID,83341,N/A
Snow Creek Trucking,434 Snow Creek Rd,Priest River,ID,83856,208-448-0961
Ortiz Trucking,700 14th Ave N,Buhl,ID,83316,208-543-4344
V F Johnson Trucking,469 N 3450 East,Lewisville,ID,83431,208-754-0424
Holton Trucking,10351 Us Hwy 95,Payette,ID,83661,208-642-0243
Kar Transport,3210 East Chinden #115-213,Eagle,ID,83616,208-861-1950
J A Morgan Transport,3756 Hawthorne Road,Pocatello,ID,83201,208-320-1195
James Briggs Trucking,1154 Bannock Ave,Idaho Falls,ID,83402,208-524-1381
Et Poultry & Et Farms,571 Chickadee Dr,Chubbuck,ID,83202,406-788-5234
Flying K Connections LLC,388 N 2900 E,Roberts,ID,83444,208-200-3784
Rocky Mountain Auto Transport,2350 N 2700 E,Twin Falls,ID,83301,208-760-7466
Dave Cook Trucking,809 Preston Ave,Lewiston,ID,83501,208-743-9375
4 Star Express,176 E Baseline Rd,Rupert,ID,83350,208-436-4761
Straight Arrow Trucking,4510 S Robinson Blvd,Nampa,ID,83686,208-467-3300
Barrera Trucking,13401 W Persimmon,Boise,ID,83713,208-938-9298
Vav Transport,1424 W Brown Trout Drive,Meridian,ID,83642,208-794-7080
Out Trucking,2200 S Olson Rd,Downey,ID,83234,208-897-5166
Native Pride Transport,4232 N 1360 E,Buhl,ID,83316,208-410-0452
Jerry Oldham Trucking,707 Park Ave,Lewiston,ID,83501,208-743-7011
Timbercraft Division,51855 N Old Hwy 95,Hayden,ID,83835,208-772-7259
Brimhall Excavating,76 Lolly Lane,Moyie Springs,ID,83845,208-267-6560
Vern Buss Trucking,3303e 3600 N,Kimberly,ID,83341,208-733-9403
Jason Mink,3151 Hwy 95,Cambridge,ID,83610,208-257-3893
Joe's Trucking,771 Peninsula Loop Rd,Priest River,ID,83856,208-448-1928
S And S Mcdaniel Trucking,493 E Ave B,Wendell,ID,83355,208-420-9970
Bg Majiks Cooper Trucking,3514 15th St,Lewiston,ID,83501,208-305-9447
De La Riva Trucking,12726 Trail Dr,Melba,ID,83641,208-495-2968
Auto Wrex Plus,25 S 175 W,Burley,ID,83318,208-678-7580
Brodix Trucking,23587 Hartley Lane,Middleton,ID,83644,208-585-2423
Aaall Vehicle Transport,543 Fairmont,Pocatello,ID,83201,208-705-6952
D'monson Mirage Express,1983 North 2400 West,Malad,ID,83252,208-766-5650
Tim Omaley Trucking,135 Temple Ave,Arco,ID,83213,208-390-3810
Arrowhead Trucking,1930 West 1500 North,Malad,ID,83252,208-766-2776
"Jvlx Livestock Transport, Inc.",5307 Weston Ave,Caldwell,ID,83607,208-863-9812
Epic Transport,540 Irene St,Kimberly,ID,83341,208-961-1371
J Bar P Cattle & Transportation LLC,19517 Highway 30,Buhl,ID,83316,208-543-4763
Zielinski Trucking,2182 Apple Ln,Mesa,ID,83643,208-256-4508
One West Stone And Granite,225 E Cassia,Richfield,ID,83349,208-539-2499
L A Vazquez Transport,2660 Mary Dr,Idaho Falls,ID,83402,208-569-7506
Vernon Lamar Lott Sr Trucking,365 N 4000 E,Rigby,ID,83446,208-390-4369
Craig's Hauling,1021 Mciver Road,Kendrick,ID,83537,208-289-4147
A & J York Trucking,2088 Hwy 95,Council,ID,83612,208-253-6419
Big Dog Trucking,935 W 6th St,Weiser,ID,83672,208-550-2462
Rail's Trucking,175 E 12th N Apt A201,Mountain Home,ID,83647,650-342-3874
In Motion Trucking LLC,588 N 50 W,Tetonia,ID,83452,208-456-2228
Baler Trucking LLC,4116 E 100 N,Rigby,ID,83442,208-709-7798
G & G Express,230 Johnson St,American Falls,ID,83211,208-371-7058
C & C Livestock,6000 Big Willow Rd,Payette,ID,83661,208-550-5199
R N R Transportation,90 St John Lane,St Maries,ID,83816,208-568-0147
Stuart's Hauling,2401 East Buckbee Lane,Harrison,ID,83833,208-819-6037
Dmj Trucking,256 E Center St,Downey,ID,83234,208-897-5578
J T B Transport Service,504 E 9th Ave,Post Falls,ID,83854,208-457-9924
Darryl V Reamer Trucking,1738 Honeysuckle Lane,Saint Maries,ID,83861,208-245-8054
Sharp Trucking & Livestock,1505 Hwy 95 N,Grangeville,ID,83530,208-983-4181
Mayos Trucking,501 Revenue Gulch Rd,Silverton,ID,83867,208-753-6731
Dodson Trucking,3515 B Garrity Blvd,Nampa,ID,83687,208-602-5585
E T M Trucking,102 Galveston Space 10,Caldwell,ID,83605,208-453-8077
Mark Dillon Trucking LLC,1928 Leisure Lane,Meridian,ID,83646,208-288-5572
Jose Padilla Trucking,14160 Carolina St,Caldwell,ID,83607,208-989-9713
R&b Trucking,2609 Parke Ave,Burley,ID,83318,208-678-8141
Rsp Transport,3037 N Valley Green Way,Meridian,ID,83646,208-871-3426
Rising River Trucking,Box 1275,Blackfoot,ID,83221,208-680-6209
3531 Transport,3465 East 1557 South,Malta,ID,83342,208-670-0803
10 Streams Transport,18395 Hwy 20/26,Caldwell,ID,83607,208-859-8534
Knigge Trucking,11260 W Kipling Way,Nampa,ID,83651,208-407-1720
Contractors Services LLC,46 N Burlington Dr,Nampa,ID,83687,208-463-1728
Jp Transport,1751 N Polk Extended 25,Moscow,ID,83843,208-882-5269
Hussey Trucking,37 Coiner Lane,Salmon,ID,83467,208-756-6854
R&g Express,1907 N Eldorado St,Boise,ID,83704,208-323-4237
Josh Rindlisbacher Trucking,445 Bannock Street,Malad,ID,83252,208-479-3993
Gibson Trucking LLC,10503 Linden Road,Nampa,ID,83687,208-440-1233
White Tail Transportation,216 Cedar St,Priest River,ID,83856,208-448-0848
Edmark Superstore,15700 Idaho Center Blvd,Nampa,ID,83687,208-466-6000
Ricks T-n-t,111 Teakwood St,Pocatello,ID,83204,208-244-2308
Hauled Right Transport,730 S 14th E,Mountain Home,ID,83647,208-724-1797
A D T Trucking,3119 So Illinois Ave,Caldwell,ID,83605,208-454-1287
Rostad Trucking,7790 Palomino Lane,Emmett,ID,83617,208-365-7788
Velez Transport,13329 W Fernleaf St,Boise,ID,83713,208-283-1279
Preston Express,725 North 3400 East,Menan,ID,83434,208-754-4294
C & M Trucking LLC,2460 N Titleist Way,Post Falls,ID,83854,208-691-7764
Broncos Trucking,1300 Owyhee Ave,Nampa,ID,83651,208-697-9383
Wade North Trucking,108 Barker Loop,Pinehurst,ID,83850,208-512-3468
Ss Jarvis Trucking,211 N Terrace St,Salmon,ID,83467,208-940-2290
Webe Trukn,656 Gold Street,Middleton,ID,83644,208-585-5827
Larry Nicola Trucking,907 Pine St,Lewiston,ID,83501,208-746-8311
Jjf Trucking,2443 Highway 39,American Falls,ID,83211,208-269-0626
Blackmeyer Explosives And Fire Service,Rt 1 Box 82k,Kooskia,ID,83539,208-926-4505
"A & E Trucking, Inc.",2611 Shoshone Street,Boise,ID,83705,208-891-0838
One Feather Enterprises,22635 Rose Lane,Lapwai,ID,83540,208-791-1652
"Viper Transport, Inc.",90 South 1st Ave East #4,Lava Hot Springs,ID,83246,208-776-9488
Mike Kerbs Trucking,2512 E Yellowstone Hwy,St Anthony,ID,83445,208-351-0315
L & M Trucking Services,202 Pee Pine Road,Athol,ID,83801,209-988-2429
Les Bois Trucking,1627 S Orchard 20,Boise,ID,83705,208-336-1111
Weiser River Trucking,7165 Joplin Rd.,Weiser,ID,83672,208-286-9561
Top Notch Truck Trailer & Equipment,1177 West Wright Street,Boise,ID,83705,208-331-1743
Grant Wood Specialties,3520 Arthur St,Caldwell,ID,83605,208-284-8958
Joel Juker Trucking,220 Monroe Street West,Kimberly,ID,83341,208-345-8619
Mcculley Trucking,1703 Prospect Ave,Lewiston,ID,83501,208-746-5327
Mr Rooter Of The Quad Cities,1714 G Street,Lewiston,ID,83501,208-798-7668
Rainbow Local Moving,114 Scott St,Post Falls,ID,83854,208-777-0902
Rockin W Livestock Transportation,611 Cobra Ct,Twin Falls,ID,83301,208-543-4548
Sea Wind Express,3876 East 3500 North,Hansen,ID,83334,208-731-8310
Blue Mule Trucking,3440 S Johns Ave,Emmett,ID,83617,208-369-0830
Coulston Transport,16594 N Wilkinson Rd,Rathdrum,ID,83858,208-660-0826
Preston Trucking,2770 Sw 9th Ave,Parma,ID,83660,208-674-1101
Stockton Trucking LLC,15 East 400 South,Jerome,ID,83338,208-968-2822
Tactical Transport,600 Montcliffe Dr,Idaho Falls,ID,83401,208-863-6542
Cgs Transport,4774 N Jullion Way,Boise,ID,83714,208-871-0989
Rocha Trucking,300 S 50 W,Burley,ID,83318,208-431-6274
Mcling Trucking,1090 Double Eagle Drive,Preston,ID,83263,208-226-4293
T&r Chambers,588 Lower Page Rd,Smelterville,ID,83868,208-783-0991
D Ricks Trucking LLC,56 N 4400 E,Rigby,ID,83442,208-745-7379
P&x Auto Transport,299 South 1st East,Clifton,ID,83228,208-747-3833
Ruckychucky Express,1685 Greenfield Loop,Emmett,ID,83617,208-365-4116
A & F Bates Trucking,3910 Winston,Caldwell,ID,83607,208-402-4752
D D Schrock Trucking,412 N Broadmore Way # 204,Nampa,ID,83687,208-249-2568
Marcum Trucking LLC,5200 W Cherry Lane,Meridian,ID,83642,208-412-2498
J W Transport,4033 East 200 North,Rigby,ID,83442,208-412-9314
Doug Preston Trucking,985 10th Street,Idaho Falls,ID,83404,208-521-3672
Crabtree Hauling & Demolition,Rt 1 Box 151,Kooskia,ID,83539,208-926-4298
Nancy Gilleard Trucking,2296 9th Street,Arco,ID,83213,406-544-8665
Apple's Trucking,2933 Hillway Dr,Boise,ID,83702,208-720-4041
Slim Chance Transportation,149 N 325 W,Blackfoot,ID,83221,208-785-6896
H & H Transport LLC,324 East Ave C,Jerome,ID,83338,208-324-7450
Si-ellen Trucking,539 S 800 E,Jerome,ID,83338,208-324-4499
Big G Enterprises,1888 South 1600 East,Preston,ID,83263,208-851-0711
"Selkirk Transport Service, Inc.",524 Selkirk Road,Sandpoint,ID,83864,208-255-1479
Bar G W Ranch & Trucking LLC,5875 N Old Hwy191,Malad City,ID,83252,208-766-4832
Hells Canyon Truck & Leasing LLC,512 N Exeter,Council,ID,83612,208-253-4452
Jmv Transportation,66 W Elmore,Aberdeen,ID,83210,208-220-1616
Haga Express,81 Parker Gulch Rd,Shoshone,ID,83352,208-886-2187
Tw Hale Transportation,811 B West Plymouth St,Caldwell,ID,83605,208-550-1445
T&c Transport LLC,478 Cranmer Drive,Meridian,ID,83646,208-608-5369
Stm Co,1400 Grandview Rd,Parma,ID,83660,208-722-7005
Moose Meadows Transportation LLC,2131 16th St Drive,Heyburn,ID,83336,208-679-8421
Oldtown Trucking,122 Malakowsky Road,Oldtown,ID,83822,208-437-0400
R & Y Delivery Service LLC,14937 Brandy Ln,Pocatello,ID,83202,208-234-4038
Jr's Transport,358 N 3rd West,Rigby,ID,83442,208-521-6529
Brian Ginter Trucking,1220 Milton Ave,Coeur D Alene,ID,83814,208-691-4063
"Java, Inc.",548 Poplar St,Bliss,ID,83314,208-837-9000
Ron Bettis Trucking,16885 San Hollow Road,Caldwell,ID,83607,208-453-1188
Watt Transport,3522 18th Street,Lewiston,ID,83501,208-746-3227
Bailey Trucking,377776 Hwy 95,Desmet,ID,83824,208-274-2417
Rimrock Transportation,2596 Se Warm Creek Drive,Mountain Home,ID,83647,208-587-0777
Taylor Septic Tank Service,312 N Birch,Shoshone,ID,83352,208-886-2288
King Services & Construction,2337 3rd Avenue North,Lewiston,ID,83501,208-746-4192
M-k Transport,2320 Marlene Circle,Payette,ID,83661,208-642-6690
Robert Marler Trucking,19921 Warren Ln,Wilder,ID,83676,208-482-9982
C L Truckng,225 First Street West,Hanson,ID,83334,208-420-6440
Gary Rice Trucking,208 West Blvd,New Plymouth,ID,83655,208-278-9115
Faith Hauling And Excavation,Rt 1 Box 56,Grangeville,ID,83530,208-983-8176
Rogue Trucking,619 Sharp Ln,Emmett,ID,83617,208-365-3501
Dudley Trucking,35 S 200 E,Franklin,ID,83237,209-609-9424
Jsa Trucking,810 N Horton,Nampa,ID,83651,208-467-3700
Robinett Trucking,2415 E Marnett Rd,Athol,ID,83801,208-660-2206
Tct Trucking,1955 Hwy 95,Weiser,ID,83672,208-355-6388
Coach America Crew Transport,220 E Lewis,Pocatello,ID,83201,208-232-6877
Mike Blaker Trucking,603 S 6 West,Aberdeen,ID,83210,208-397-4614
Mort Trucking,3536 N 3400 W,Moore,ID,83255,208-539-7299
Michael Lott Trucking,618 East 1450 North,Shelley,ID,83274,208-520-1450
Easy-way Taxi & Delivery,3835 E Heath Cir,Idaho Falls,ID,83401,208-525-8344
Gene Balison Trucking,1345 Upland Dr,Sandpoint,ID,83864,208-265-5426
Stockman's Transport LLC,2532 E 3900 N,Filer,ID,83328,208-733-2979
Big Tyme Transport,1217 S State St,Preston,ID,83263,208-852-4092
Cj Trucking,78 Moose Ridge Lane,Bonners Ferry,ID,83805,208-267-3336
Bill Nagle Trucking,1616 Shepherd Rd,St Maries,ID,83861,208-245-2420
V Gassner Trucking,2575 N 3100 W,Malad City,ID,83252,208-766-4636
Blr Trucking,83 Goslin Loop,Cascade,ID,83611,208-382-5098
Dean Bahr Trucking,7045 N 5000 W,Tetonia,ID,83452,208-351-3147
Silver Fox Transportation,569 S Park Avenue,Shelley,ID,83274,208-357-3642
To And Fro,9202 S 1475 W,Malad,ID,83252,801-390-4061
"Ross Kimball Logging & Trucking, Inc.",6515 W Timberline St,Rathdrum,ID,83858,208-687-5194
R & F Transport,207 Paradise Ct,Fruitland,ID,83619,208-452-5291
"Van O Express, Inc.",5712 East Homedale Road,Caldwell,ID,83607,208-455-0012
Amt Trucking And Excavation,4841 N Waterfront Way,Boise,ID,83703,208-385-0464
Smith Hauling Interstate Trucking,399n 500w,Blackfoot,ID,83221,208-785-3514
Road Trip Transport,20014 Hwy 30,Buhl,ID,83316,208-543-5659
K & K Transport,1216 Highway 26,Bliss,ID,83314,760-375-3772
Sheppeard Trucking,901 W 520 N,Shoshone,ID,83352,208-544-7635
S & T Transport,175 City St,Newdale,ID,83436,208-458-4705
R & J Transportation,510 South 180 West,Grace,ID,83241,208-425-9092
C & M Trucking LLC,566 North 4107 East,Rigby,ID,83442,208-745-8451
Crossline Transportation,704 West 200 North,Blackfoot,ID,83221,208-684-4929
Molly Rose Express,807 Monroe Street,Twin Falls,ID,83301,208-734-2180
Twa Express,239 Cordova,Twin Falls,ID,83301,208-420-6436
Creations Way Expressed,20862 S Cambridge Rd,Downey,ID,83234,208-897-5300
Cat & Mouse Transportation,708 Harmon Way,Middleton,ID,83644,208-585-6242
W W Hill Trucking LLC,12065 W Bowmont,Boise,ID,83713,208-322-7369
Bulldog Transport,9400 Bill Burns Rd,Emmett,ID,83617,208-365-8588
Flores Trucking,5290 N 24th E,Mountain Home,ID,83647,208-587-3243
Fults Trucking,5255 Elmore Road,Fruitland,ID,83619,208-452-5219
Chardan Trucking,709 Sparks St N,Twin Falls,ID,83301,208-733-7079
Tenderfoot Transportation,8417 Facer Mt Drive,Pocatello,ID,83204,208-221-3240
J & S Express,313 E El Gato Road,Hazelton,ID,83335,956-283-0679
Bosworth Transport,45 East 100 South,Weston,ID,83286,208-747-3711
Chuck Brown Trucking,405 S Wardell,Emmett,ID,83617,208-365-0797
Warren Trucking,2539 Old Priest River Rd,Priest River,ID,83856,208-448-0609
Signer Trucking,129 N 10th St,Payette,ID,83661,208-642-0110
Scott Zimmers Trucking,263 Elm,Twin Falls,ID,83321,208-537-6835
Oak Street Auto Brokers,603 E Oak,Pocatello,ID,83201,208-233-7846
White Sands Trucking,1300 North 9th Street Trailer # 6,Payette,ID,83661,208-642-0820
Diamond Trucking,Po Box 1247,Nampa,ID,83651,N/A
B & J Trucking,1898 E 3550 N,Filer,ID,83328,208-326-5490
Meadowville Farms,417 W 280 N,Blackfoot,ID,83221,208-782-9619
Dm Gibbs Trucking,Po Box 1267,Orofino,ID,83544,208-476-7315
Blonde Trucking,Hc 11 Box 61 A,Kamiah,ID,83536,208-983-6099
Bon-eff Transportation,21174 Pine Lane,Greenleaf,ID,83626,208-867-4581
E & J Mcdade Livestock Transportation,1804 S 2050 E,Gooding,ID,83330,208-539-9644
Rose Trucking,Rt 1 Box 22b,Kendrick,ID,83537,208-289-3574
"Lemaster Enterprises, Inc.",83 Gibbonsville Road,Gibbonsville,ID,83463,208-865-2021
R&r Trucking,1025 Catyrn,Idaho Falls,ID,83404,208-542-6215
Michael R Smith Trucking Co,2034 Powers Ave #2,Lewiston,ID,83501,208-798-3362
Diamond Auto Transport,P O Box 672,Bayview,ID,83803,208-683-7703
Alfalfa Express,920 E 1200 N,Shelley,ID,83274,208-357-3799
B & L Transport,46 South 1300 W,Blackfoot,ID,83221,208-680-0468
T & B Smith Trucking,2034 Power's Ave #2,Lewiston,ID,83501,208-798-3362
Bill Rodgers Lowbed Services,5057 E Royal Dr,Post Falls,ID,83854,208-773-0982
Hit Man Express,594 W 75 S,Blackfoot,ID,83221,208-313-7632
M & T Transport,609 Broadway Street,Salmon,ID,83467,208-756-6534
Morris Trucking,3135 E 3300 N Box A,Twins Falls,ID,83301,208-732-8546
Matt Renner Mason & Stone,1040 Airport Way,Hailey,ID,83333,208-788-9012
Running M Trucking,1044 Swisher Rd,Pocatello,ID,83204,208-233-3913
"Ag Services, Inc.orporated",9211 Lakeshore,Nampa,ID,83686,208-467-9610
Windriver Trucking,331 N 200 E,Blackfoot,ID,83221,208-681-9957
Hiers Transportation,3314 S Holdow Ave,Boise,ID,83706,208-867-5789
Brian Anderson Transportation,4132 E 100n,Rigby,ID,83442,702-435-7829
Shurtliff Brothers Trucking,4522 E 250 N,Rigby,ID,83442,208-351-5209
Earthquake Express,2632 Access Road N #b,Hagerman,ID,83332,N/A
B S Taylor Trucking,123 Gold Run St,Murray,ID,83874,208-660-4266
John Regan Trucking,101 Willowouby Dr,Pierce,ID,83546,208-464-2242
Ccr Trucking,Chestnut Way,Hammett,ID,83627,208-599-1397
Wallis Roberts Transportation,27925 Gotsch Road,Parma,ID,83660,208-880-3013
Suitter Loading,6944 Beatrice,Fruitland,ID,83619,208-452-9931
John Molt Trucking,429 N 200 W,Jerome,ID,83338,208-644-1370
"Cunningham Trucking, Inc.",10218 Shields Ave,Boise,ID,83714,208-939-9843
D & Y Trucking,13167 N 175 E,Ririe,ID,83443,208-538-7211
"Avera Trucking, Inc.",500 42nd St N,Nampa,ID,83687,208-466-4842
Mad Dog Express,1160 E 3600 N,Buhl,ID,83316,909-720-2412
Jo Trucking,532 W Idaho,Weiser,ID,83672,208-549-0978
Mac Transport,143 Ash,Twin Falls,ID,83301,208-734-5710
Wininger Trucking,397 Doe Rd,Naples,ID,83847,208-661-4772
Outdoor Trucking,189 W Baseline,Rupert,ID,83350,208-436-9000
Bower Transport,1072 E 3700 N,Buhl,ID,83316,208-543-6719
Sun Mountain Trucking,3247 Upper Fords Ck Rd,Orofino,ID,83544,435-896-4435
H & L Trucking,2311 Herron Lp,Nampa,ID,83686,208-461-4379
Walter Helmick Trucking,10100 Hwy 52,Horseshoe Bend,ID,83629,208-584-3209
Grampas Trash Service,4700 W 65th S,Idaho Falls,ID,83402,208-357-1998
Tgn Transportation,2832 W Cherry Lane F101,Boise,ID,83705,208-338-0256
Barnes Trucking,11248 N Boyer Ave,Sandpoint,ID,83864,208-263-5217
Rod Briggs Trucking,520 Clary Ave,Idaho Falls,ID,83401,208-523-9328
C A Burtenshaw Transportation,13500 N 35 E,Idaho Falls,ID,83401,208-522-7036
Elk Ridge Transport,1112 W3200 S,Preston,ID,83263,208-852-5625
3-m Trucking,171 No 70 East,Malad City,ID,83252,208-766-4272
Western Mayflower,210 Industrial Lane,Pocatello,ID,83204,208-237-6900
Thiessen Oil Company,815 Snakeriver Ave,Lewiston,ID,83501,208-743-6201
Dan L Wilmore Transportation,7228 Proctor Ln,Marsing,ID,83639,208-989-9042
Willmore Transportation,405 N Street,Filer,ID,83328,208-300-5246
James P Waddoups,6240 East Sidehill Ln,Idaho Falls,ID,83401,208-524-1504
Micheal Stahn Livestock Hauling,Old Bruneau Hwy,Marsing,ID,83639,208-896-5651
Gordon Transportation,2034 Powers #5,Lewiston,ID,83501,208-413-0201
Reachout Transportation,Po Box 967,Kimberly,ID,83341,208-731-0589
Amg Trucking,16378 Franklin Road G12,Nampa,ID,83687,000-000-0208
R Cerna Trucking LLC,629 Fillmore St,American Falls,ID,83211,208-406-9697
East Valley Transport,75 S 5th West Sp25,Rexburg,ID,83440,208-390-3032
Advanced Freight Systems,1935 Us Hwy 26,Gooding,ID,83330,208-934-4487
Orozco Trucking,312 N Fillmore St,Jerome,ID,83338,208-324-1399
Tas Transport,5632 W Amity Rd,Nampa,ID,83687,208-888-7483
Pividor,2241 N Gracie Way,Post Falls,ID,83854,208-773-0921
Streakin Six Trucklines,358 N 4100 E,Rigby,ID,83442,208-745-5755
Bat Blake Ashcraft Trucking,4700 E 3300 N,Murtaugh,ID,83344,208-438-5085
Larsen Trucking,9440 S 1475 W,Malad,ID,83252,208-766-6304
Jamac Trucking LLC,370 Linden Dr,Idaho Falls,ID,83401,208-524-3126
B & F Trucking,115 1/2 E Park Ave,Kellogg,ID,83837,208-783-9261
Newman Trucking,4301 N Ramsey Lot E24,Coeurdalene,ID,83815,208-769-3140
J W Johnson Trucking,26374 Jacka Loop,Athol,ID,83801,N/A
Old School Express,240 S Street East,Hagerman,ID,83338,208-837-6391
Wind River,5432 Country Club Drive,Pocatello,ID,83204,208-244-2243
A&h Small Excavation & Trucking,660 N Fir Street,Genesee,ID,83832,208-285-0139
Lt Enterprises,21457 Batt Corner Rd,Wilder,ID,83676,208-482-6016
Captain America Trucking,178 Leaning Firs Lane,Priest River,ID,83856,208-255-5959
Mccall Delivery Service,Po Box 4355,Mccall,ID,83638,208-325-8104
Ramco Transportation,4504 E 266 N,Rigby,ID,83442,208-538-7118
Greenough Mobile Technician Service,28486 Peckham Rd,Wilder,ID,83676,208-841-9705
Fast Track Transportation,807 Franklin 50,Nampa,ID,83687,208-890-6391
Lone Wolf Trucking,1994 E 400 N,Saint Anthony,ID,83445,208-624-7039
Grumpy Auto Transport,28255 Old Hwy 30,Caldwell,ID,83607,208-463-1399
The Rock Transfer Co,119 E 6th St-south,Oldtown,ID,83822,208-699-3198
Bruce Lynde Trucking,26075 Doi,Payette,ID,83660,208-722-7555
Two Feathers Transport,1055 Wilson Number 15,Pocatello,ID,83201,801-231-0119
A & T Trucking,288 S 123 W,Burley,ID,83318,208-677-2055
Mckee Transport,2121 N Lark Pl,Meridian,ID,83642,208-888-6637
Goin Trucking,393 N Cohant,Burley,ID,83318,208-679-2816
Lone Pine Logistics,509 E 2nd S,Weston,ID,83286,208-747-3829
Uk Transit,150 S Main,Basalt,ID,83218,208-346-6651
Skooter Transportation,361 Eagle Glen Lane,Eagle,ID,83616,208-939-0931
Diamond P Transport,453 W 800 S,Preston,ID,83263,208-852-0701
"Val Parsons Trucking, Inc.orporated",2002 Blue Spruce Lane,Boise,ID,83716,208-331-0406
R&k Trucking,1685 E 400 N,Saint Anthony,ID,83445,208-624-3637
Leaton Trucking,334 4th Ave N,Payette,ID,83661,208-642-5064
Matteson Trucking,8182 Florenece,Letha,ID,83636,208-365-2294
Burroughs Trucking,4920 Canterbury Rd,Coeur D Alene,ID,83815,208-769-7349
All Seasons Septic Service,2900 N Government Way 244,Coeur D Alene,ID,83815,208-699-1349
Wages Livestock,628 S 300 W,Heyburn,ID,83336,208-677-3728
Avalanche Transport,4539 John Adams Parkway,Ammon,ID,83406,208-419-0615
Duclos Farms Trucking,5620 Old Hwy 95,Ferdinand,ID,83526,208-962-5651
Beverly Hills Express,1323 E Bonneville St,Pocatello,ID,83201,208-232-7436
Westfall Trucking Company,3027 West Hayden Rd,Hayden,ID,83858,208-762-8704
Ada Express,1151 Wells Street,Meridian,ID,83642,208-855-9765
Ooops,356 W 170 N,Blackfoot,ID,83221,417-861-1905
Byler Transport,3295 Bristol,Coeur D Alene,ID,83815,208-765-4662
Wing And A Prayer,10 North 1st West,Grace,ID,83241,208-425-9985
Enviro World Lite Transport,1442 South 3rd Avenue,Popcatello,ID,83204,208-233-1162
Quality Transport LLC,545 East 300 South,Jerome,ID,83338,208-324-8537
Westside Trucking,450 S 370 W,Heyburn,ID,83336,208-436-0319
Marshall Bishop Trucking,604 Lincoln St,Kimberly,ID,83341,208-423-4823
Burgin Trucking,8998 N Mcguire Rd,Post Falls,ID,83854,208-777-0110
North Idaho Truck Center,2416 N Government Way,Coeur D Alene,ID,83814,208-665-0891
Dna Trucking LLC,2875 Sh 25,Hazelton,ID,83335,208-829-5132
M B Express,3490 W Echo Dr,Post Falls,ID,83854,208-777-1961
Orban Trucking,730 18th Avenue East,Jerome,ID,83338,208-644-1446
Diamond 8 Trucking,1762 Gibler Rd,Kamiah,ID,83536,208-935-0943
Budget Auto Sales,159 W Hwy 30,Burley,ID,83318,208-678-8874
Springer Trucking,659 Malta Ace,Burley,ID,83318,208-678-7340
Barra Trucking,643 Oriental Ave #1,Burley,ID,83318,208-678-8021
"W B Trucking, Inc.",350 Lomax,Idaho Falls,ID,83401,208-523-5475
J&k Trucking,56400 Hwy 3,Clarkia,ID,83812,208-661-3387
Perrigo Trucking,1090 Trestle Rd,Viola,ID,83872,208-882-7870
Newby Custom Hauling,Hcr 61 Box 146ab,Bonners Ferry,ID,83805,208-267-5170
"Serenity Trucking, Inc.orporated",1262 N 1130 E,Shelley,ID,83274,208-357-0899
Bedke Trucking,1230 Falls Ave,American Falls,ID,83211,208-226-7931
Cochran Transport,Hc 66 Box 217,Kooskia,ID,83539,208-926-7753
C Lewis Trucking,2030 East 300 South,Declo,ID,83323,208-219-9559
Hayden Lake Transportation,6208 E Hudlow Road,Hayden Lake,ID,83835,208-762-9837
Hayes Building Services,445 N 3400 E,Lewisville,ID,83431,208-754-8525
Xtrux,644 Eastland Dr N,Twin Falls,ID,83301,208-734-1989
Jim Ferguson Trucking,416 W Dewey Ave,Nampa,ID,83686,208-465-9979
Deweese Transportation,17156 11th Ave N,Nampa,ID,83687,208-466-2993
D P Services,2705 Rawhide Ridge Rd,Post Falls,ID,83854,208-777-7166
T&l Transport,725 Tower Lane,Caldwell,ID,83607,208-453-1903
Gray Wolf Transport,13236 Manning Lane,Pocatello,ID,83202,208-238-3534
Gaxiola Trucking,203 South 1200 West,Murtaugh,ID,83344,208-432-6041
J & P Transport,34 Teton Ranchettes Dr,Victor,ID,83455,208-787-4037
Dsi Of Utah,149 E Main,Saint Anthony,ID,83445,208-624-0910
Wolf Pack Transport,415 South 400 West,Preston,ID,83263,208-852-9260
Dogwood Transport,210 S 600 W,Paul,ID,83347,208-438-4794
4 Sisters Transport,219 S Canyon,Nampa,ID,83686,208-468-6655
Bixler Trucking,9725 Liberty Rd,Sweet,ID,83670,208-584-3359
S & G Trucking,556 North University Apt 1,Blackfoot,ID,83221,208-782-2042
W B Trucking,176 7th St,Idaho Falls,ID,83401,N/A
Iht,644 Eastland Dr,Twin Falls,ID,83301,208-734-1989
J&e Trucking,175 Earl Drive ,Twin Falls,ID,83301,208-735-5081
Webb Distributing,2817 Taylor Court,Nampa,ID,83686,N/A
Garcia Transport,6350 S Lodgepole Pl,Boise,ID,83716,208-345-2655
Denver Unruh Trucking,5136 Butte Rd,New Plymouth,ID,83655,530-934-7234
Lep Moseley Trucking,398 W 400 S-b,Heyburn,ID,83336,208-312-2014
Targhee Fire Services,4974 East 105 North,Idaho Falls,ID,83401,360-779-6101
Chapa Transport,430 E Chester Lane,Boise,ID,83706,208-860-0971
John Wurzer Transport,2663 North Inkom Road,Inkom,ID,83245,208-244-1696
C & M Skiles Trucking,265 E Settlement Rd,Priest River,ID,83856,208-448-0496
Eastern Idaho Trucking,437 West Riverton Rd,Blackfoot,ID,83221,208-782-0170
"D Cook Trucking, Inc.",206 Kuhl St,Council,ID,83612,208-253-4372
Zamora Express,1102 Pintail St,Fruitland,ID,83619,208-452-1244
Broken Tree Fire Service,164 Tweedy Lane,Kooskia,ID,83539,208-926-7328
Eagle Farms Trucking,4050 East Lincoln Rd,Idaho Falls,ID,83401,800-680-4046
Southwestern Transports,1148 E 900 S,Eden,ID,83325,208-825-4146
Blue Coyote Firewater,78 S State St,Nampa,ID,83651,208-870-3934
Bee-line Express,970 West Hwy 39,Blackfoot,ID,83221,208-684-3896
Five Star Auto Wholesale LLC,114 W Willowbrook Dr,Meridian,ID,83642,208-898-9409
Call And Haul,1923 East Saint Maries Ave,Coeur D Alene,ID,83814,180-048-5428
Hammon Trucking,5150 Se 2nd Avenue,New Plymouth,ID,83655,208-278-5887
Long Hauling Trucking,1254 Whitesands Drive,Meridian,ID,83646,208-887-5605
"Tom Wimer Trucking, Inc.",425 Division,Ferdinand,ID,83526,208-962-5197
Alan Ruark Trucking,3834 15th Street,Lewiston,ID,83501,008-746-8701
Baldy's Express Shuttle,591 2nd Ave South #3,Ketchum,ID,83340,208-726-2650
Pathfinder Transportation,1740 S Fairway,Pocatello,ID,83201,208-233-2904
C & C Trucking Company,E 14595 Alder Creek Rd,Coeur D Alene,ID,83814,N/A
Crossfire Trucking,236 N 2000 E,Rexburg,ID,83440,N/A
Mpr Trucking,318 S 100 Street West,Bancroft,ID,83217,208-648-7135
Moyer Trucking,7538 Mossy Cup,Boise,ID,83705,800-484-9916
Enright Trucking Co,700 E Fairview Ave Sp #73,Meridian,ID,83642,208-888-7538
Silver Express,802 N 6th St,Coeur D Alene,ID,83814,N/A
Bob Lish Trucking,293 N 480 W,Blackfoot,ID,83221,208-785-0568
David Hogg Trucking,174 S 3rd West,Rexburg,ID,83440,208-356-9642
Silver Express,802 North 6th Street,Coeur D Alene,ID,83814,N/A
K & D Trucking,6213 E Carson,Nampa,ID,83687,208-467-6962
Rawhide Trucking Partnership,1321 Creekside Dr,Hailey,ID,83333,208-788-1408
M E L T Express,428 West Montana Street,Homedale,ID,83628,208-337-4746
Saginaw Trucking,9145 West Velma,Boise,ID,83704,208-383-8282
Airborne Express,3045 South Denver,Boise,ID,83704,208-344-1586
L T Trucking,S 2950 North Idaho Rd Box A,Rathdrum,ID,83858,N/A
"G P & D, Inc.",4989 Briggs Ln,Marsing,ID,83639,208-250-8011
K & D Trucking,818 N Illinois,Caldwell,ID,83605,208-454-0539
Howerton Trucking,703 Lancaster Street,Rathdrum,ID,83858,208-687-0505
D & L Transport,733 Audrey Drive,Homedale,ID,83628,208-337-4813
Bill Burrell,7279 E Hampshire Lane,Nampa,ID,83687,208-861-4128
Becker Heavy Hauling L C,117 S Howard,Moscow,ID,83843,208-882-4200
North Idaho Transport,625 W Dalton Ave,Coeur D Alene,ID,83814,208-772-4681
Nortom Transportation Co,27998 Wamstad Rd,Parma,ID,83660,N/A
Jim Gage Trucking,395 Duffy Lane,Sagle,ID,83860,208-263-8916
Schritter Family Trucking,2970 West 2000 South,Aberdeen,ID,83210,208-397-4915
T And C Trucking,Rt 1 Box 435 4th Ave East,Wendell,ID,83355,208-536-6306
Connor's Trucking,Hwy 77 & 81,Declo,ID,83323,208-638-5517
"Los Delgado's Trucking, Inc.",1096 S 1700 E,Eden,ID,83325,208-404-8803
Farmer Trucking,2702 North 28th Street,Boise,ID,83703,208-386-7896
Barbee Trucking,3890 Canyon Creek Rd,Mountain Home,ID,83647,208-587-7439
T A Forest Trucking,1115 Davis St,Mc Call,ID,83638,208-634-5760
J R A Trucking,440 S 1 Ave,Caldwell,ID,83605,208-454-9555
Powder River Transportation,4893 Hwy 51,Mountain Home,ID,83647,208-587-9371
B & B Trucking,1376 W Avalon,Kuna,ID,83634,208-922-5765
C & S Trucking,1223 W Main St,Jerome,ID,83338,208-324-7557
Musgrave Trucking,3527 Federal Way Sp 59,Boise,ID,83705,208-385-7920
Mckinney Trucking,Woodside Rd 2 Miles East,Winchester,ID,83555,208-924-5814
Munguia Installation,1931 18th St Apt 1,Heyburn,ID,83336,208-312-1421
Bluu Mule Transport,1945 Weimaraner,Meridain,ID,83642,N/A
Banes Trucking,1 Mill Street,Calder,ID,83808,208-245-4210
Bill Hanson Trucking,102 View Cir,Horseshoe Bend,ID,83629,208-793-2706
Lunders Trucking,Rt 2 Box 1a,Reubens,ID,83548,509-780-9626
Schmidt Distributing,Hc 79 Box 48c,Melba,ID,83641,208-495-2107
"Parmenter Trucking, Inc.",403 Katherine St,New Meadows,ID,83654,208-347-2218
Big Foot Transport,11958 State Hwy 78,Melba,ID,83641,208-495-2169
Miland Trucking,40 Stinson Street,Nampa,ID,83651,916-877-8690
R E Thomas Trucking,P O Box 25,Payette,ID,83661,N/A
"Ksj Trucking, Inc.",9149 Carolyn Street,Nampa,ID,83686,208-463-9718
Dutra Trucking,336 N Cottonwood Ln,Blackfoot,ID,83221,N/A
Olander Trucking,470 Golf Course Road,Jerome,ID,83338,208-324-1092
R & R Trucking,Po Box 487,St Maries,ID,83861,208-245-3426
Hartt's Trucking,856 Eastside Rd,Priest River,ID,83856,208-448-2158
Rollin Transport,15108 West Destiny Drive,Post Falls,ID,83854,208-277-5660
Shasta Dispatch Service,16670 Rosebriar Ln,Nampa,ID,83687,208-465-0522
Halden Transport,625 N Grove Way,Nampa,ID,83651,N/A
R & D Transport,16266 W Oak,Caldwell,ID,83605,208-454-0271
D E W Trucking,5380 Lowland View Pl,Boise,ID,83709,208-362-2010
Lake City Transport,627 Bottle Bay Rd,Sagleoint,ID,83860,208-265-5091
Prairie Schooner Transport,3698 S Mill Road,Emmett,ID,83617,208-365-0703
R & M Trucking,1508 Warner Ave,Lewiston,ID,83501,208-798-5550
Doug Ross Trucking,1265 Monros Cr Rd,Weiser,ID,83672,208-549-0702
Denton's Ag Trans,Hc 85 Box 115,Bruneau,ID,83604,208-845-2064
Woods Trucking,2857 W Hwy 39,Aberdeen,ID,83210,208-397-3394
Boise Air Cargo-boise Express Delivery-sun Valley Expre,1718 Kastle Falls,Meridian,ID,83642,208-331-2220
Mitton Trucking,5918 S Fox Haven Rd,Coeur D Alene,ID,83814,208-667-6865
Angela K Trucking,214 N Utah,Fruitland,ID,83619,208-452-4023
Stephon Coley Trucking,Hc76 Box 2209,Garden Valley,ID,83622,208-462-3551
Friend Truck'n,610 Illinois Ave,Council,ID,83612,208-253-4347
B & W Express,2999 Cemetery Rd,Cambridge,ID,83610,916-925-4000
Gem Distribution Service,2668 S Cole Rd,Boise,ID,83704,208-362-0149
P S Trucking,603 N Fillmore Ave #b,Jerome,ID,83338,208-324-9273
C L Rose Express,2755 S W 3rd Ave,Fruitland,ID,83619,208-278-3365
J & W Trucking,2380 N E 23rd Ave,Payette,ID,83661,208-642-3735
Pdq Auto Transport,3320 Airport Rd Trlr 1,Nampa,ID,83687,208-989-1258
Hoo Doo Valley Trucking,Vay Road,Priest River,ID,83856,208-263-5406
Sandy Trucking,12722 N 55th E,Idaho Falls,ID,83401,208-528-9311
Wolf Trucking,2837 Nw 4th Ave,Fruitland,ID,83619,208-452-5192
Wild Rose Truckin,1700 N Atlas Rd,Rathdrum,ID,83858,208-687-0812
Hammer Lane Express,326 8th Ave No,Payette,ID,83661,208-642-1756
D & S Trucking,4 Mi W Of Desmet On Tensel Rd,Desmet,ID,83824,208-274-5631
Stanger Trucking,575 S Worthington St,Oakley,ID,83346,208-432-5672
Portable Out House Express,724 Creashaw St,Rathdrum,ID,83858,208-687-3245
Nielsen Trucking,5325 West 500 South,Malad Ciy,ID,83252,208-240-0973
Bear Claw Trucking,106 E 8th N,Mountain Home,ID,83647,800-310-9647
Outlaw Express,2615 Shoshone St,Boise,ID,83705,208-342-2441
Larry Crandall Trucking,5827 E Little Basin Rd,King Hill,ID,83633,208-366-7973
Addington Light Haul,28096 Wagner Rd,Caldwell,ID,83607,208-454-3175
T & M Trucking,24 Blue Spruce Ln,Cascade,ID,83611,208-382-4550
Castaneda Trucking,632 N 3rd W,Rigby,ID,83442,208-745-0612
David M Russell Trucking,419 3rd Street,St Maries,ID,83861,208-245-4095
Al Humphrey Trucking,613 Oak,Kamiah,ID,83536,208-935-2438
Gary Ray Trucking,6 N Primerose Dr,Salmon,ID,83467,208-756-4397
Ellis Trucking,316 Fafnir,Kimberly,ID,83341,208-423-6160
Vernon Jeffs Trucking,382 West Main,Rigby,ID,83442,208-745-8921
P&s Trucking,1202 Sunset Drive,Emmett,ID,83617,208-365-7277
Csw Leasing,6000 N Glenwood #c9,Boise,ID,83602,208-250-1354
Yacht Club Sales & Service,1000 Marina Drive,Coeur D Alene,ID,83814,208-664-8274
Wkx Trucking,31325 N Riffle Rd,Spirit Lake,ID,83869,008-687-2649
Crane Service,702 E 3rd,Post Falls,ID,83854,208-457-1727
Ricky Day Trucking,59494 S Hwy 97,St Maries,ID,83861,208-689-3918
Butch Soward Trucking,12120 Highlander,Boise,ID,83709,208-362-0537
Mcdowell Trucking,7750 Hwy 95 N,Sandpoint,ID,83864,208-263-0495
Dennis Robert Wood Trucking,9214 E Morning Glory Ave,Athol,ID,83801,208-683-0767
Larry Rynearson Trucking,Airport Rd,Kamiah,ID,83536,208-835-0584
Hat Livestock Trucking,111 Lillian St,Salmon,ID,83467,208-756-4353
Zimmers Hauling,706 E 3700 North,Buhl,ID,83316,208-537-9104
Dependable Moving & Delivery,3335 Hern Rd,Coeur D Alene,ID,83854,208-773-3671
Big Snow Trucking,225 Bell St,Twin Falls,ID,83301,208-733-4585
Hds Express,1941 Moran St,Idaho Falls,ID,83402,208-522-9478
Wing Auto Transport,11208 Hickory Bark Drive,Boise,ID,83713,208-386-6393
B & B Transportation,400 Broadway,Salmon,ID,83467,208-756-8477
Mike Larson Trucking,3013 Cemetary Rd,Weippe,ID,83553,208-435-4520
B & D Express,645 Paridise Pl #4,Twin Falls,ID,83301,208-734-1538
Hollaway Trucking,Hcr 5 Box 82 A,Priest River,ID,83856,208-448-1763
Mckendrick Trucking,291 South 1st West,Soda Springs,ID,83276,208-547-2413
Local Motion Transportation,811 W Plymouth,Caldwell,ID,83606,208-880-5603
Stamper Transport,3757 E County Line Rd,Idaho Falls,ID,83401,208-529-2948
Pieper Trucking,17286 Us Hwy 30,Bliss,ID,83314,208-352-1115
Conley Johnson Trucking,1150 October Cv,Shelley,ID,83274,208-357-3604
Jack Rabbit Express,827 Pine,Lewiston,ID,83501,208-746-9181
Bar Jl Trucking,413 Nevada St,Gooding,ID,83330,208-734-0517
Boston Transport,2600 East Mullan Avenue #35,Post Falls,ID,83816,208-777-8730
Special Services,1226 Burrell Avenue #10,Lewiston,ID,83501,208-743-9484
Kinzer Trucking,719 Warner Ave,Lewiston,ID,83501,208-746-6878
Boston Transport,2600 E Mullan,Post Falls,ID,83854,208-777-8730
Atoz Delivery Service,P O Box 221,Laclede,ID,83841,000-008-3841
Do-rite Trucking,540 Blue Lakes Blvd N,Twin Falls,ID,83301,760-868-1064
Soto Trucking,127 West 335 South,Rupert,ID,83350,208-436-1927
Ashlee Transport,2686 N Blue Springs Ave,Meridian,ID,83642,208-846-8349
Trails North Transportation,Hc 66 Box 384,Kooskia,ID,83539,208-983-0386
Centennial Supply,627 N Dupont Ave,Boise,ID,83713,208-377-1750
Eidson Trucking,275 Duffy Lane,Sagle,ID,83860,208-263-4841
Ameriquest Mfg Home Services,900 W Addison,Twin Falls,ID,83301,208-734-5509
"Floyd E Turner Trucking, Inc.",319 - 14th,St Maries,ID,83861,208-245-4703
Tony Janssen Trucking,1803 Main Avenue,St Maries,ID,83861,208-245-3426
Robert M Janssen Trucking Logging,77120 Hwy 3 South,St Maries,ID,83861,208-245-0132
G & Me Trucking,237 Orchard Drive,Gooding,ID,83330,208-934-4485
Kevin Rigby Trucking,3754 East 900 North,Ashton,ID,83420,208-652-3917
Galindo Trucking,409 4th Ave E,Twin Falls,ID,83303,208-358-3839
Smith Trucking,655 Teuples,Idaho Falls,ID,83401,208-529-5037
C K Express,608 E Avenue F,Jerome,ID,83338,208-331-2098
Scott Trucking,169 Goslin Loop,Cascade,ID,83611,208-382-3037
Sheffield Bros Transportation,978 Cahoon Avenue,Pocatello,ID,83201,208-238-7139
T J Deliveries,615 N Kimberly Dr,Idaho Falls,ID,83401,208-523-9660
D & K Trucking,1612 Willow Lane,Twin Falls,ID,83301,208-736-1932
Rick Cunningham Trucking,184 Quinns Ln,Cocolalla,ID,83813,208-263-1715
G & R Trucking,324 W Crestwood Dr,Nampa,ID,83686,208-465-9978
B L G Express,2016 S Latah,Boise,ID,83705,208-345-7296
Jolley Trails Transport,266 E 300 N,Rupert,ID,83350,208-436-9704
Bob Enneking Trucking,512 Myrtle,Cottonwood,ID,83522,208-962-3755
Ted Smith Trucking,279 N 4100 E,Rigby,ID,83442,208-589-1662
St Maries Trucking,910 Main #8,St Maries,ID,83861,208-245-4339
Jim Deardorff Hauling,1299 Island Circle,Soda Springs,ID,83276,208-547-2538
Butlers And Sons Trucking,47 West 50 South,Blackfoot,ID,83221,208-785-4161
Jim Hebert Trucking,650 E Hazel Ave,Coeur D Alene,ID,83814,208-664-2947
Mike O'maley Trucking,1740 W 3900 N,Howe,ID,83244,208-767-3449
Mike Henson Trucking,4251 N 1600 E,Buhl,ID,83316,208-543-5446
Anderson Trucking,640 1/2 Neufeld Lane,Post Falls,ID,83854,208-723-2008
Maverick Hot Shot Trucking & Wrecker,1205 Hyperion,Soda Springs,ID,83276,208-547-3176
Mark Hagen Truck'n,1450 Burton Ave,Burley,ID,83318,208-678-0937
Riley Trucking,1623 W 3400 S,Rexburg,ID,83440,208-356-5873
Jack R Bates Trucking,706 3rd Ave South,Payette,ID,83661,208-642-6193
H O Automotive,2795 West Hayden Ave,Hayden,ID,83835,208-762-3270
Algoma Truck Service,43 Algoma Place,Sagle,ID,83860,208-263-9367
Fast Pitch Courier Of Idaho,3303 E Lewis Lane,Nampa,ID,83686,208-461-3727
Northwest Moving Services,1301 E Sherman,Coeur D Alene,ID,83814,208-772-0153
J P Trucking,639 Utah St,Gooding,ID,83330,208-934-5318
Haro Trucking,59 So Inverness Dr,Nampa,ID,83651,208-442-2576
Only One Dollar,6883 Overland Rd,Boise,ID,83709,208-322-7511
Robert C Giles Trucking,3388 N 4500 E,Murtaugh,ID,83344,N/A
Gordon Chase Trucking,6850 Mcglohlin,Boise,ID,83709,208-899-4778
Jack Knight Trucking,608 Meadowdale Ave,Oldtown,ID,83822,209-810-5714
Tamayo Trucking,610 Shamrock St,Rupert,ID,83350,208-436-0398
Ralph Dalley Farms LLC,525 Gardner Dr,Blackfoot,ID,83221,208-684-4097
John D Irvin Trucking L L C,4701 W Idaho Blvd,Emmett,ID,83617,208-365-1664
Only One Dollar Superstores,5957 W Vandal Ln,Boise,ID,83709,208-362-1111
Kimbur Hyer Distributing,795 North Main,Preston,ID,83263,435-232-5905
Sun Valley Express Tamarack Express,3201 Airport Way,Boise,ID,83705,208-342-7750
Hammer Time Express,394 W Mule Ct,Kuna,ID,83634,208-922-9330
Larry Williams Trucking,2029 Chippewa Place,Boise,ID,83709,208-375-9983
H K Hauling Hal Simmons Gen P T R,8206 Blacktail Rd,Careywood,ID,83813,208-263-3497
Russ Wright And Son Trucking,4598 So 4600 W,Malad,ID,83252,208-766-4836
Ferrero Trucking,529 2nd Ave West,Gooding,ID,83330,208-934-4053
Jack L Jensen Trucking,706 1st Ave,Deary,ID,83823,208-877-1285
Rc Trucking,1780 S 2050 E,Gooding,ID,83330,208-934-8505
Nichols Mfd Home Service,5742 Moses,Chubbock,ID,83202,208-237-8429
Perez Trucking,101 S Campbell,Middleton,ID,83644,208-585-6560
Travis Balles Trucking,2442 Oakley Avenue,Twin Falls,ID,83301,208-655-4150
Maynard Wahl Trucking,3833n 3300e,Kimberly,ID,83341,208-734-0382
Rvh Transportation,1339 E 4400 N,Buhl,ID,83316,208-543-5844
"Olde Range Transport, Inc.",568 Geerway,Clarks Forks,ID,83811,208-266-1242
Aaction Marine Services & Transport,3075 Gold Creek Rd,Sandpoint,ID,83864,208-263-4111
Schimpiff Transportation,4012 N 1400 E,Buhl,ID,83316,208-543-2711
Idaho Wrecker Sales,3195 Industrial Way,Mt Home,ID,83647,208-587-2888
John Cabral Trucking,3981 Hwy 93,Filer,ID,83328,208-326-2277
Mountain Aire Trucking,272 Grove Addition,Old Town,ID,83822,208-437-0937
Ike's Asphalt Service,1795 W Broadway,Idaho Falls,ID,83401,208-680-6482
Surf Trucking,826 David Street,Rathdrum,ID,83858,208-687-1564
On Site Service,7608 Buckskin Road,Pocatello,ID,83201,208-234-4216
"L&a Trucking, Inc.",3075 Gold Creek Cut Off Rd,Sandpoint,ID,83864,208-263-1365
J D Trucking,375 Annis Hwy,Rigby,ID,83442,208-745-0740
Michael Payette Trucking,1975 N Meyer Rd,Post Falls,ID,83854,208-664-5607
Meredith Transport,9171 Ustick Rd,Nampa,ID,83687,208-465-0248
Cuddy Mountain Transportation,140 S Railroad,Cambridge,ID,83610,208-257-3284
Rex Ginn Trucking,3551 N Little Lost River Hwy,Howe,ID,83244,208-767-3404
Dave Easterday Trucking,780 E 3500 N,Castleford,ID,83321,208-731-4590
D & B Transport,8250 Ustick Rd,Boise,ID,83704,208-322-1817
Gemini Express,521 N 10th Ave,Caldwell,ID,83605,208-459-8283
T A Reed Trucking,1701 Ripon Ave,Lewiston,ID,83501,208-743-2467
Worthless Trucking,8103 Hill Rd,Boise,ID,83703,208-853-1329
Garza Trucking,445 W Riverton Rd,Blackfoot,ID,83221,208-785-5460
A & G Transport,24821 Homedale Rd,Wilder,ID,83676,208-337-4395
Ogburn Trucking,953 Nw 10th Ave,Payette,ID,83661,208-642-9585
4 B Trucking,71 N 160 E,Shoshone,ID,83352,208-886-7087
"Bill Whitney Trucking, Inc.",1271 Cassandra Hills Rd,St Maries,ID,83861,208-245-1131
Ridgeway Trucking,2536 N 800 E,Monteview,ID,83435,208-657-2285
Mansfield Trucking,597 Hwy 34,Grace,ID,83241,208-425-3416
Mdb Trucking,14340 Hwy 12,Orofino,ID,83544,208-476-7398
Egan Trucking,4766 E 75th N,Rigby,ID,83442,208-538-5146
C E I Transport,823 Chicago St,Caldwell,ID,83605,208-454-2057
Raft River Sod Transport LLC,345 N Yale Rd,American Falls,ID,83211,208-349-5735
B W Trucking,343 N 2800 E,Roberts,ID,83444,208-228-3027
West Mountain Trucking,10875 Hwy 55,Cascade,ID,83611,208-382-6298
Dave Bowne Hauling,11391 Meadowbrook Dr,Nampa,ID,83686,208-466-0092
Fernandez Distributing,213 Monroe St,American Falls,ID,83211,208-226-1292
John Frei Trucking,127 Freilane,Ferdinand,ID,83526,208-962-7087
Millsaps Transportation,539 Fall Drive,Canyon,ID,83686,208-466-0510
Mtsi,2661 Federal Way,Boise,ID,83705,208-342-6653
T & L Services,2958 E 3rd,Post Falls,ID,83854,208-777-9714
Delgado Trucking,400 W 50 S,Paul,ID,83347,208-438-5861
Poverty Ridge Trucking,2852 2 1600 S,Aberdeen,ID,83210,208-397-4252
Eddy Trucking,905 N Boyer,Sandpoint,ID,83864,N/A
Sumit Transport,1632 Parkwood,Idaho Falls,ID,83401,208-542-9575
Ltl Trucking,375 E 700 N,Jerome,ID,83338,406-965-3815
Wolf Bite Trucking,P O Box 729,Osburn,ID,83849,208-784-9795
Jim Fuller Trucking,35 Charlie Creek Road,Emida,ID,83861,208-245-4627
S&w Stelly Trucking,355 Swan Falls Rd Apt A,Kuna,ID,83634,208-453-1622
Martin Construction- Independent Trucking & Rentals,2426 12th Avenue,Lewiston,ID,83501,208-743-6300
Sherman Trucking,25704 Lon David Road,Parma,ID,83660,208-722-7526
Jms Express Trucking,N 17025 Ramsey,Rathdrum,ID,83858,208-687-3344
Mings Trucking,1385 E 4150 North,Buhl,ID,83316,208-543-5354
"Palm Trucking, Inc.",1117 Shingle Mill Rd,Sandpoint,ID,83864,208-255-1037
Translogix,6310 E Seltice Way Ste 205,Post Falls,ID,83854,208-665-7166
Wayne Stippich Trucking,3362 E 3700 N,Kimberly,ID,83341,N/A
Dave Best Trucking,2333 Powers Ave,Lewiston,ID,83501,208-743-9614
Brandt Bros Trucking,Rte 2 Box 304,Moscow,ID,83843,N/A
Lewiston-oliver Sales & Service,620 Thain Road,Lewiston,ID,83501,N/A
"Grangeville New Meadows Auto Freight, Inc.",Hill & D Street,Grangeville,ID,83530,208-983-1402
K L Stagmeyer Trucking,1946 Highland Ave E,Twin Falls,ID,83301,208-734-1855
Worthington Tk,1966 Sherry Drive,Twin Falls,ID,83301,208-733-9438
N J L Distributing Company,17035 N Hwy 89,Paris,ID,83254,208-945-2836
A & M Trucking,815 S Cleveland St,Jerome,ID,83338,208-324-4425
Rj Transportation,100 South 50th West,Rupert,ID,83350,208-436-3126
Messenger Trucking,1995 North Holmes,Idaho Falls,ID,83401,208-522-5952
Rolling Frito Lay Sales Lp,2860 S Vala Hala,Boise,ID,83709,208-362-8204
Day Trucking,3133 Overland Ave,Burley,ID,83318,208-678-8285
Smith & Son Transport,6211 Branstetter St,Boise,ID,83714,208-375-2714
Evans Limited,1057 Jefferson Ave,Idaho Falls,ID,83402,208-529-2945
Pipe Line Distributing,Rt 2 Box 19,Potlatch,ID,83855,208-875-0688
Clinton H Hutchins Trucking,2365 Freeman Lake Road,Oldtown,ID,83822,208-437-2389
"Intermountain Express, Inc.",550 Blue Lakes Blvd,Twin Falls,ID,83301,208-733-2282
Kerbs Trucking,2295 N Yellowstone,Idaho Falls,ID,83401,N/A
"Roto Rooter Service, Inc.",11671 W President Dr,Boise,ID,83713,208-562-8040
Link Transportation Systems,2216 S Main Suite 33,Moscow,ID,83843,208-882-1223
Dennis Woolf,1188 S 2400 E,Preston,ID,83263,208-852-3213
Dale C Corbit Trucking,2755 Central Ave,Idaho Falls,ID,83406,208-881-9115
"Dales Service, Inc.",7755 Mossy Cup Street,Boise,ID,83709,208-344-8607
Adco Services,2033 3rd Ave N,Lewiston,ID,83501,208-746-3282
Garry Schritter Trucking,2703 W 1400 S,Aberdeen,ID,83210,208-397-4761
Western Air Express,3669 W Wright St,Boise,ID,83705,208-343-2756
Sign Service & Manufacturing Co,10014 N Government Way,Hayden Lake,ID,83835,208-772-8571
S & V Trucking,405 Forest Avenue,Sandpoint,ID,83864,208-263-2802
Patterson Trucking,531 Hooper Ln,Old Town,ID,83822,208-437-2028
Western Mayflower,210 Industrial Ln,Pocatello,ID,83201,208-237-6900
Scott Greene Trucking,1219 Woodland Meadows,Orofino,ID,83544,206-476-5539
"Donald Grove Trucking, Inc.",1580 Lookout View Rd,Naples,ID,83847,208-267-5102
Gh Trucking,295 North 2900 East,Roberts,ID,83444,208-228-2316
Fred's Mobile Transport,706 Laurel St,Caldwell,ID,83605,208-459-2000
K&b Distributing,Rt 2 Box 236 B,Rigby,ID,83442,208-538-7751
Grogan Trucking,6145 W Maryland Street,Spirit Lake,ID,83869,208-623-5362
Allstate Freight Co,1688 Kimberly Rd,Twin Falls,ID,83301,208-734-6006
Roger Davis Trucking,1505 Weiser River Rd,Weiser,ID,83672,208-549-3289
Vallad & Sons Trucking,4500 Lonesome Lane,Boise,ID,83709,208-362-2292
J & P Trucking,P O 32,Richfield,ID,83349,N/A
Ses Distributors,13097 Homedale Road,Caldwell,ID,83605,208-454-8480
Moss Transport,Rt 1 Box 105,Declo,ID,83323,208-654-2848
Reay Trucking,1145 W Kwinn,Pocatello,ID,83201,N/A
Davis Trucking,Box 309 Route 1,Athol,ID,83801,N/A
Lee Anson Trucking,1110 Imperial Way,Boise,ID,83704,208-336-8323
Paul Abbott Trucking,124 E 5th,Troy,ID,83871,208-835-4341
Amen Express,815 W 200 S,Paul,ID,83347,208-678-7670
Truman Bennett Trucking,1605 Baldy Road,Sandpoint,ID,83864,208-263-8026
Jones We Haul,5 3/4 Miles W Of Jerome,Jerome,ID,83338,208-324-3490
L & L Express,P O Box 3054,Pocatello,ID,83206,208-879-4293
J & H Trucking,1658 Oakley Ave,Burley,ID,83318,208-878-8803
Larrea Trucking,200 Rosalyn Ct,Meridian,ID,83642,208-888-7440
Fowler Trucking,Po Box 623,Ashton,ID,83420,N/A
Joe Mihan Trucking,2709 Canyon Road,Melba,ID,83641,208-891-0099
Mark Bremner Trucking,25372 Ni Vista View Ct,Rathdrum,ID,83858,208-687-0519
Cook Enterprise Carriers,Hc 79 Box 120a,Melba,ID,83641,N/A
"T & S Transport, Inc.",2713 South 800 West,Preston,ID,83263,208-852-3342
Hirschi Trucking,West Wilford,St Anthony,ID,83445,208-624-3541
D & E Trucking,538 L Street,Idaho Falls,ID,83402,N/A
Modern House Moving,2700 E Seltice Way # 2-131,Post Falls,ID,83854,307-682-0989
Jack Kirby Trucking,21323 Hwy 30,Filer,ID,83328,208-410-2426
W W Express,621 No A St,Grangeville,ID,83530,208-983-1249
Lcj Bovine Express,4825 High Hope Lane,Nampa,ID,83686,208-922-5635
"K G Trucking, Inc.",4102 E 300 N,Rigby,ID,83442,208-745-7874
Ge`ste Transportation Co,8936 Desert Ave,Boise,ID,83709,N/A
Russ Farnes Trucking,10295 King Arthur Dr,Boise,ID,83704,208-377-4630
Auto Parts & Repair,1240 12th Ave So,Payette,ID,83661,208-642-9490
E Drahiem Trucking,4701 Hwy 95,Cocolalla,ID,83813,N/A
Traders Transport,7659 Mossy Cup,Boise,ID,83709,208-362-0300
W I & M Transportation,515 3rd Street,Post Falls,ID,83854,208-773-9011
Western Construction & Logging,911 Vista Ave,Lewiston,ID,83501,208-743-4278
Klh LLC,2195 Westmond Rd,Sagle,ID,83860,208-255-6369
Tp Trucking,506 East B,Jerome,ID,83338,208-324-8013
Super Truck Express,645 North 350 West,Blackfoot,ID,83221,208-785-1459
Busy B Express,210 North Pennsylvania Ave,Fruitland,ID,83619,N/A
Tj Harrison Trucking,Mill Rd,Cambridge,ID,83610,208-257-3545
S L Edwards Trucking,1534 W Castro Drive,Kuna,ID,83634,208-922-2941
Service Transport,3108 N & S Hwy,Lewiston,ID,83501,N/A
Ellsworth Trucking,549 North 3470 East,Lewisville,ID,83431,208-754-4605
Dale Green Express,303 Blaine St,Caldwell,ID,83605,208-455-1948
S & S Produce Express,103 Poplar,Bellevue,ID,83313,208-788-9370
Sugar Bear & Cub Trucking,143 Manley Cr Road,Laclede,ID,83841,208-263-1269
Ty Foltz Transport,3605 North 17th,Coeur D Alene,ID,83814,208-664-8578
Dan Potter Trucking,64 Mcdonald Creek Rd,Blanchard,ID,83804,208-755-6054
Kenneth Ross Trucking,Rr 1 Box 212,Cottonwood,ID,83522,208-962-5647
John Ekberg Trucking,1208 Dearborn,Caldwell,ID,83606,N/A
L R Transport,5115 Lasher,Caldwell,ID,83605,208-454-8015
D & B Transport,16456 Homedale Rd,Caldwell,ID,83607,208-454-8437
Transport Tire Co,72 E Frontage Rd,Jerome,ID,83338,208-324-3200
Kiss Enterprises,5885 Main St,Spirit Lake,ID,83869,208-623-6913
Harl Fisher Trucking,15655 Hollow Rd,Caldwell,ID,83605,208-454-8530
E & W Fry Express,10220 N Government Wy,Hayden Lake,ID,83835,208-762-0750
Miller Farms,6767 Highway 95,Marsing,ID,83639,208-896-4316
"S Blood Enterprises, Inc.",422 Elm St,Ponderay,ID,83852,208-263-4650
S R Trucking,1605 S Phillippi St,Boise,ID,83705,N/A
Woodstock Transport,P O Box 358,Potlatch,ID,83855,208-875-1438
R W Reneau Trucking,2825 Laurel Way,Nampa,ID,83686,N/A
Tyler Trucking,1050 Big Meadow Rd,Troy,ID,83871,208-835-4844
Van E Christensen Trucking,75 North 4563 East,Ririe,ID,83443,208-538-7824
Quick Delivery,1316 29th St,Lewiston,ID,83501,N/A
Sutton's Body Shop,416 E 5th Ave,Post Falls,ID,83854,208-773-3535
Emerald City Transport & Structure Movers,1212 B Street,Coeur D Alene,ID,83814,208-667-0914
Rudy Raymond Trucking,223 East Beech,Caldwell,ID,83605,208-454-9957
Gem Trucking,432 Tolo Lake Rd,Grangeville,ID,83530,208-983-0998
P R O Trucking,Corner 5 North 1st West,Rockland,ID,83271,208-548-2431
Hanson Trucking,256 Birkland Rd,Ferdinand,ID,83526,208-962-1133
Double B S Trucking,3015 N Cottonwood Lane,Rexburg,ID,83440,208-359-0994
Homburg Trucking,368 Melrose,Idaho Falls,ID,83401,208-524-8237
Pacific Coast Hauling,256 Dollar Hide Way,Jerome,ID,83338,208-944-2230
Nedway Transportation,4770 North Mcguire,Post Falls,ID,83854,N/A
Western Hauling,454 Pershing,Pocatello,ID,83202,208-237-3498
All American Trucking,599 Cove Rd Bldg In Rear,Weiser,ID,83672,208-549-1164
Comanche Transport,110 South 10th East,Mountain Home,ID,83647,N/A
High Country Transport,West 625 Dalton Ave,Coeur D Alene,ID,83814,208-762-2503
"Griswold Trucking & Excavation, Inc.",1217 E Rock Crk Rd,Potlatch,ID,83855,208-875-1335
J & B Motor Carrier,200 West 42nd St #4,Boise,ID,83714,903-628-6513
Clyde Molyneux,Hwy 26 Mile Post 209,Carey,ID,83320,208-823-4545
Tim Haderlie Trucking,10577 East Ririe Highway,Idaho Falls,ID,83401,208-525-8504
Professional Courier Service,4845 Ann St,Coeur D Alene,ID,83814,N/A
King Trucking,6625 Pine St Loop,Sandpoint,ID,83864,208-265-6789
Larry Padrta Trucking,3972 Hwy 13,Stites,ID,83552,208-986-7163
Triple Ell Transport,807 B Russet St,Twin Falls,ID,83301,208-734-2788
Barba Trucking,23811 Homedale Road,Wilder,ID,83676,208-337-5363
E S D Express,747 South Bliss #9,Wendell,ID,83355,N/A
J & H Trucking Co,4465 N Cloverleaf Rd Sp#1,Post Falls,ID,83854,208-773-8297
Pg Transportation,Meadow Creek Rd #34a,Bonners Ferry,ID,83805,208-267-5207
G L Cox Trucking,9472 N Cottonwood Dr,Idaho Falls,ID,83401,208-524-5667
Athol Transportation Service,Box 587,Athol,ID,83801,N/A
A S A P High Gear Delivery,646 W Sublette St,Pocatello,ID,83204,208-233-3514
C W Calkins Express,8513 Hwy 95,Payette,ID,83661,N/A
C & M Distributing,1102 South Main,Moscow,ID,83843,N/A
"Table Rock Transport, Inc.",4857 Heath Way,Nampa,ID,83687,208-465-3540
Silver Eagle Trucking,725 Fletcher Dr,Nampa,ID,83686,208-466-7396
John Lane Trucking,Rt 1 Box 1054b,Homedale,ID,83628,208-337-3724
Kevin Zatica Trucking,524 3rd St S #136,Nampa,ID,83651,541-586-2666
Erickson Hauling,4770 Cascade Rd,Emmett,ID,83617,208-365-7397
Hansen Farm's,602 N 600 W,Malad City,ID,83252,208-766-4692
Von L Scheer Trucking Co,510 Oregon St,Gooding,ID,83330,208-934-8392
Torrid Springs Trucking,1247 Lewis & Clark Road,Buhl,ID,83316,N/A
Pioneer Wrecker Service,70 South 100 East,Driggs,ID,83422,208-354-2457
Diamond Transport,500 E So Slope Rd,Emmett,ID,83617,208-365-2756
Carroll And Son Trucking,W 10450 Bennion Rd,Worley,ID,83876,208-666-0230
Solly's,225 Highway 30,Inkom,ID,83245,208-775-3424
Palmer Trucking,860 Eaton Road,Weiser,ID,83672,N/A
G & G Auto,1720 E 16th,Burley,ID,83318,208-678-5054
Deary Automotive,307 Main Street,Deary,ID,83823,208-877-1273
C & C Trucking,505 East Florida #5,Nampa,ID,83686,208-465-5076
J M Palmer Trucking,655 Singer Road,Rathdrum,ID,83858,208-687-1821
Mica Transport,625 West Dalton,Coeur D Alene,ID,83814,N/A
Jake's Wrecker Service,1182 Merrill Road,Mc Cammon,ID,83250,208-254-3242
Doty's Farm Express,1894 S Linder,Eagle,ID,83616,208-870-1279
Twin Lakes Transport,2324 Twin Lakes Rd,Rathdrum,ID,83858,N/A
Hileman Trucking,2378 Mill Creek Road,Council,ID,83612,208-253-4420
Gary Anderson Auto Sales,Highway Us-93 South,Salmon,ID,83467,208-756-4211
Twin Falls Crane Service,1740 Osterloh Ave,Twin Falls,ID,83301,208-734-8320
H & H Trucking,3rd B Street,Tensed,ID,83870,208-305-2500
Ash Trucking,1845 North Haskett,Mountain Home,ID,83647,N/A
Jeff Mancini Trucking,Hoop Loop Road,Priest River,ID,83856,208-448-2391
Layman Express,6000 Glenwood,Garden City,ID,83714,208-376-1537
Albert's Service,17 South Main St,Malad City,ID,83252,208-766-4502
Acuario Trucking,410 N Kimball Ave,Caldwell,ID,83605,208-454-9151
Bob Lane Trucking,17871 N Ramsey Road,Rathdrum,ID,83858,208-687-0756
Kuhn Trucking,1481 S 2000 E,Gooding,ID,83338,208-934-5336
Jiri Stanislav Trucking,6400 Oreana Circle,Boise,ID,83709,208-375-5173
Armstrong Trucking,670 North Fanning,Idaho Falls,ID,83401,208-529-2972
Gould Trucking,5th And Washington,Old Town,ID,83822,208-437-2202
Ken Haakenson Trucking,338 Blue Lakes,Twin Falls,ID,83301,208-734-3880
Jatco Just Another Trucking Company,116 North 812 Lane West,Paul,ID,83347,208-438-8967
K Bar K Trucking,497 Industrial Road,Weiser,ID,83672,208-549-8125
Ba Berry Trucking,3163 S 1700e,Wendell,ID,83355,208-536-6251
Neibaur Transport,3881 W 5200 S,Rexburg,ID,83440,208-351-2244
Lyle Santos Custom Hauling,23 E 400 N,Rupert,ID,83350,208-436-3997
"Ellis Express, Inc.",27890 Peckham Rd,Wilder,ID,83676,520-459-4109
Mecham Trucking,200 South 254 West,Rupert,ID,83350,208-436-0670
Tom Wetzel Trucking,4235 Meadowood Drive,Meridian,ID,83642,N/A
Ronald Bradshaw Trucking,1577 East 352 North,St Anthony,ID,83445,208-624-7152
Srs Transport LLC,1207 N Robinson Blvd,Nampa,ID,83687,208-870-1837
Aztec Excavation,Po Box 306,Ucon,ID,83454,208-521-7266
Broken Arrow Cattle LLC,291 N 3500,Rigby,ID,83442,208-528-4277
Idaho Alaska Transport,Po Box 1050,Orofino,ID,83544,208-476-3080
"Stones Town And Country Motor, Inc.",Po Box 215,Rexburg,ID,83440,208-356-9366
Kcw Transport,P O Box 112,Notus,ID,83656,208-577-8269
Tillman Equipment,1270 W Poplar Street,Pocatello,ID,83201,208-223-3228
Cowboy Trucking,5004 North Ice Springs Way,Boise,ID,83713,208-577-1425
Hall Transport,1140 9th Ave East,Twin Falls,ID,83301,208-736-8696
Last Chance Enterprises LLC,684 Centennial Loop,Rexburg,ID,83440,208-201-2086
"Afe & Efi, Inc.",18157 Cedar Grove Lane,Hayden,ID,83835,208-772-0999
D R Madsen Trucking,4994 N Daniels Road,Malad City,ID,83252,208-766-9925
Servicemaster Of North Idaho,1007 N Boulder Ct,Post Falls,ID,83854,208-667-6633
Us King Trucking,512 Jefferson St Apt A,Twin Falls,ID,83301,713-835-6295
Tim Denton Trucking,8317 East Bunco,Athol,ID,83801,208-457-8048
Footwear Outfitters,2003 S 25 E,Ammon,ID,83406,208-522-9545
"Car Masters, Inc.",1800 W Garrett Way,Pocatello,ID,83204,208-404-1487
Limited Partner,4915 Trent,Chubbuck,ID,83202,208-317-9480
Langley Services,3335 Owen,Ammon,ID,83406,208-521-9111
Tri Harder Farmer,300 East 4200 North,Buhl,ID,83316,208-543-4746
Taas Transportation,801 E Court,Weiser,ID,83672,208-739-5481
Youngbergs One Hour Heating And Air Conditioning,1720 7th Ave N,Payette,ID,83661,208-642-9846
Treasurer,12604 N 25th East,Idaho Falls,ID,83401,208-529-8519
Kauer Construction,2440 West 2600 South,Rexburg,ID,83440,208-356-6101
Blake Jones Construction,3333 East 65th Street,Idaho Falls,ID,83406,208-529-0440
Bear River Water Tender,2493 Nounan Rd,Mentpelier,ID,83254,208-847-1614
Nice Finish,1001 East Sherman Avenue,Coeur D Alene,ID,83814,208-699-7822
Hcc Trucking,10886 N Yellowstone Hwy,Idaho Falls,ID,83401,208-529-5564
Xfl Barron Farms,281 N 125 W,Rupert,ID,83350,208-431-4283
"Cox Brotger Farms, Inc.",325 S 2950 E,Declo,ID,83323,208-349-5541
Rantz Trucking,5672 West Arco Highway,Idaho Falls,ID,83402,208-521-5494
Mountain Comfort Furnishings And Design,310 W Haycraft Ave,Coeur D Alene,ID,83815,208-667-8686
Detail Transport,582 West 300 South,Heyburn,ID,83336,208-431-6036
Tri-sukll Paving,2184 Channing Way,Idaho Falls,ID,83404,480-415-4589
Avant Garde Home Care LLC,13857 North 115 East,Idaho Falls,ID,83401,208-604-0306
"Stealth Development, Inc.",3710 E Man O War Ln,Nampa,ID,83686,208-463-8828
Hencley Transport Services,1040 Wingate Dr,Pocatello,ID,83201,208-716-0591
Spudnut Trucking,415b South Contrail Ave,Mountain Home,ID,83647,208-591-3009
Ramirez Brothers Trucking,5422 E Main St,Kinghill,ID,83633,208-409-4866
Groat Transit,421 Hattie Avenue,Coeur D Alene,ID,83814,208-625-0996
Oram Trucking,1529 Cascade Rd,Emmett,ID,83617,208-365-0965
2009,1403 South Giraffe Road,Preston,ID,83263,208-852-2242
Stefani Ranch,140b River Ridge Lane,Ketchum,ID,83340,208-726-5613
Lykm Trucking,435 Partridge Lane,Twin Falls,ID,83301,208-320-7833
Bam Ent Asset Recovery Services,281 Jefferson,Blackfoot,ID,83221,208-785-6047
T & T Auto Hauling,724 E Commercial,Weiser,ID,83672,208-549-2740
High West Trucking,1627 S Orchard Street Suite 24,Boise,ID,83705,208-336-5355
D N W Transportation,2701 N Alder Drive #52,Fruitland,ID,83619,208-452-2554
H D Transport,1310 Baldy View Drive,Hailey,ID,83333,208-788-9360
Smarts Trucking LLC,40 Frontage Rd,Grangeville,ID,83530,208-983-1814
Travel All Hotshot Services,710 Buffalo Trail,Driggs,ID,83422,701-651-3265
Paving & Seal Coating,2200 North Yellowstone,Idaho Falls,ID,83401,208-356-8821
Black Gold Sealing,15152 N Mill St,Rathdrum,ID,83858,208-818-4424
T & R Express,451 Eastland Drive Suite 1c,Twin Falls,ID,83301,208-293-8887
Wind River Heavy Haul,100 Nw 16th St #95,Fruitland,ID,83619,208-740-7394
Wt Custom Hauling,908 E Ball Ave,Parma,ID,83660,208-722-6376
Wind River Ii Transport,1113 N. Benewah St.,Nampa,ID,83651,208-841-8944
Mid-knight Towing & Transport,8166 Mckenzre Avenue,Nampa,ID,83687,208-585-8064
Camasprairiewinery,110southmain,Moscow,ID,83843,208-882-0214
Snake River Curb,1507 Saddle Dr,Filer,ID,83328,208-731-5278
Western Refrigeration Contractors,2311 Wright Ave,Twin Falls,ID,83301,208-736-6246
Hauling Farm Products,19786 Adirondack Way,Caldwell,ID,83605,208-453-8681
C B Farms,1316 E Belmont St,Caldwell,ID,83605,208-871-4683
Jamm Transport LLC,23944 Hwy 30,Caldwell,ID,83607,208-573-6289
9 Lives Welding,45 Whisper Ridge Rd,Salmon,ID,83467,208-940-1227
Noble Trans,231 Stuart,Chubbuck,ID,83202,208-241-0112
New Horizon Moving,12566 West Palm Street,Boise,ID,83713,208-724-0682
Stills Trucking,17240 Elmcrest Dr,Caldwell,ID,83607,208-697-9566
Madison County Trucking,3808 W 6800 S,Rexburg,ID,83440,208-317-6555
Victory Homes,2120 Northwest Blvd Ste B,Coeur D Alene,ID,83814,208-777-7000
Beare Cave Trucking,1591 N 1600 E,Terreton,ID,83450,208-663-4570
F & N Trucking,1477 Bradley St,Twin Falls,ID,83301,208-329-1931
Tj Larson Trucking,358 Ne Mashburn,Mountain Home,ID,83647,208-871-5423
Mighty Tuff Equipment & Fencing,9257 Foothill Road,Middleton,ID,83644,208-649-5461
Paul Sverdsten Logging LLC,27443 E Schoolhouse Lp,Cataldo,ID,83810,208-682-3366
Hauling Sand And Water In The Oil Fields,3810 Deer Stream,Idaho Falls Id,ID,83401,208-522-4356
Mcginnis Clan,735 Illinois St,Gooding,ID,83330,208-934-5725
Box B Ranch,1011 Wally Rd,Troy,ID,83871,208-835-6491
Johnson Dad Robert,1031 Trestle Road,Viola,ID,83872,298-882-6189
Ace Trucking,153 N 4663 E,Rigby,ID,83442,208-390-4676
Banks Fire Fighting Catering,1450 South Blue Jay Place,Eagle,ID,83616,208-573-5527
Ferreira Trucking,3904 Dundee Drive,New Plymouth,ID,83655,208-559-4938
Nelson Angus Ranch,74 Lemhi Rd,Salmon,ID,83467,208-756-4748
Jr Sprute Transport,43 E Fairview Ave,Meridian,ID,83642,208-922-3474
Juniper Station Trucking,3350 W Americana Terrace Suite 340,Boise,ID,83706,206-349-5599
Redtfeldt Trucking,810 Pioneer,Emmett,ID,83617,208-365-3222
Jtw Trucking,1448 S Highway 27,Oakley,ID,83346,208-862-3809
Evans Transport,4486 W Fairway Drive #227,Coeur D Alene,ID,83815,208-771-1439
B C Transport,722 Williams Rd,Emmett,ID,83617,208-860-5018
"Mambo Trucking, Inc.",Hayshed Rd Trailer #3,Dubois,ID,83423,208-569-3987
Dorash Transport,3521 Ridgepark Street,Cadlwell,ID,83605,510-754-9184
Elements Building Specialties,7168 South Highway 33,Victor,ID,83455,208-354-0123
Little Bear Home Services LLC,Teton Springs,Victor,ID,83455,307-699-4752
Fat Tire Trucking,1107 Fulton Street,Salmon,ID,83467,208-993-1484
Cbk Trucking,7 N Main St,Paul,ID,83347,208-670-5448
Ar Trucking,311 Orchard Street East,Hagerman,ID,83332,208-316-0126
"D L Trapp Woodworks, Inc.",439 Lupine Lane,Victor,ID,83455,208-787-2752
Big Stick Timber,230 W 1st S,Teton,ID,83451,208-220-5194
Underwater LLC,894 Easy St,Driggs,ID,83422,208-313-3636
Smith Farms & Livestock,393 W 113 N,Idaho Falls,ID,83401,208-524-2310
Lovell And Cook Ag,280 East Ririe Hwy,Ririe,ID,83443,208-538-7215
United Farms,2489 Kimberly Road Ste N,Twin Falls,ID,83301,208-595-1611
Chris Wendt Distribution Co,1574 Westminster,Coeur D Alene,ID,83815,208-620-0412
Lucky's Transport,932 N Cottage Cove Way,Star,ID,83669,208-353-7352
4jboss Wellding LLC,25 W Park St,Weiser,ID,83672,208-691-0433
Spencer Boyz Trucking LLC,2nd N 90 W,Malta,ID,83342,208-312-2649
Mythril Transport Systems,814 Meadowview Dr,Nampa,ID,83651,208-600-0000
Delta Services LLC,2698 Mesa Way,Meridian,ID,83642,208-888-2922
"Am West Courier, Inc.",4195 E 3rd St,Post Falls,ID,83854,208-773-2920
Crimson R&r,16823 N. Reservoir Rd.,Rathdrum,ID,83858,208-691-0901
Canyonside Towing & Recovery,361 Golf Course Rd,Jerome,ID,83338,208-324-7484
Newdale Towing,310 Park St,Newdale,ID,83436,208-458-4196
Thomas Trucking,347 E 200 S,Burley,ID,83318,208-431-6564
North Ranch Transport,1354 New Port,Arbon,ID,83212,208-317-5587
44 Land & Livestock,370 W 450 S,Heyburn,ID,83336,208-436-6338
Don Cole -donk Cole - Don Kelly Cole,2583 Council Cuprum Rd,Council,ID,83612,208-253-4428
Tcm Courier,321 17th St,Lewiston,ID,83501,208-746-4929
Darrell Mingo,2984 E 990 S,Hazelton,ID,83335,208-438-4395
Lane Cow Horses & Right Lane Hay Co,2023 East & 3600 South,Malta,ID,83342,208-824-5518
Lloyd Hall Logging,204 Main Street,Bovill,ID,83806,208-826-3234
Rod Walker,6116 Hillview Rd,Emmett,ID,83617,208-365-3398
Advanced Concrete Pumping,2839 East Wheelbarrow Road,Post Falls,ID,83854,208-660-3355
Jereme Grove Trucking,1584 Lookout View Rd,Naples,ID,83847,208-267-2931
Merwins Repair & Towing,2025 W Dakota Ave,Hayden,ID,83835,208-772-7327
Ray Gross Farms,19161 Travis Rd,Wilder,ID,83676,208-880-6070
Blackhawk Industries,1433 N Hartman St Suite 201,Boise,ID,83704,775-846-7649
Eden Landscaping,2416 N Montana Ave,Caldwell,ID,83605,208-459-3579
Afr,216 S Main St ,Malad City,ID,83252,208-766-2032
J & S Towing LLC,5684 Se Poppy Ave,Mountain Home,ID,83647,208-919-1050
Jts Excavation,7842 Rainbow Pl,Nampa,ID,83687,208-312-3134
Bar Lazy R Cattle,301 Gilmore Ave,Leadore,ID,83464,208-303-0185
Huckleberry Nursery,12655 N Goverment Way,Hayden,ID,83835,208-762-4825
C R Transportation,14802 S Robinson Rd,Melba,ID,83641,208-573-3744
J Bear Transportation,3332 E 1000 N,Ashton,ID,83420,208-881-1371
Gale Bower Trucking,1625 Maple St # 20,Buhl,ID,83316,208-490-1900
Dtm Enterprises,2024 Alder Avenue,Lewiston,ID,83501,208-798-1984
Trisha Line,30056 Leigh Lane,Parma,ID,83660,208-695-7185
T C & B Trucking,7694 Edgebrook Dr,Nampa,ID,83687,208-936-2760
Half Daddy Enterprises LLC,1002 Main St,Clark Fork,ID,83811,208-266-1299
Run Home Transport,21407 Boehner Rd,Caldwell,ID,83607,208-477-8833
V&a Transport LLC,2385 E Lake Hazel Rd,Meridian,ID,83642,517-507-0612
Creative Habitats LLC,25029 Cheranda Ln,Middleton,ID,83644,208-371-6378
Silver Bullet Trucking LLC,324 N 200 E,Blackfoot,ID,83221,208-785-3049
Dd North Idaho Transport,1421 S Yaquina Dr,Post Falls,ID,83854,208-457-7228
The Pressure's On,5 N 4000 E,Rigby,ID,83442,208-351-7663
Wreking Crew Towing,714 W Wildrye Ct,Nampa,ID,83686,208-830-6432
Sunceyrey Transport,28160 Wagner Rd,Caldwell,ID,83607,208-459-6618
Indigo Star Ranch,6276 S Old Highway 191,Malad City,ID,83252,208-766-4807
Marc Rolland Trucking,605 Riggs Ave,Emmett,ID,83617,208-369-0655
M&m Equipment Company,320 Sw 2nd Street,Fruitland,ID,83619,208-452-2070
Coeur D Alene Honda,2745 Seltice Way,Coeur D Alene,ID,83814,208-765-5005
Mccully Trucking LLC,1712 Highway 9,Deary,ID,83823,208-301-0325
Gary Stowell,Hc 74 Box 16,Bruneau,ID,83604,208-587-5939
Cabin Works,4710 S 500 W,Victor,ID,83455,208-270-0275
Wright Ranch,29957 E Hardy Loop,Cataldo,ID,83810,208-682-4234
J D Trucking,5011 Oxbow Ave,Caldwell,ID,83607,208-402-3022
West Mountain Carriers,705 Harmon Way,Middleton,ID,83644,208-585-3464
Brett Boutillier Trucking,51 Dale Drive,Fernwood,ID,83830,208-245-3603
Morning Star Transport,610 E 400 S,Burley,ID,83318,208-300-0079
C E I,2000 E Overland Rd,Meridian,ID,83642,208-855-9204
Golden Sunset Equipment LLC,578 N 100 W,Blackfoot,ID,83221,208-604-2291
Split Rock Trucking,466 N 4108 E,Rigby,ID,83442,208-745-5911
R & S Trucking,1376 W Garwood,Rathdrum,ID,83858,208-687-5092
Moulton Hot Freight,2408 S Mill Rd,Emmett,ID,83617,208-398-8665
Authorized Franchisee For Snap-on Tools,1936 West Boekel Road,Rathdrum,ID,83858,208-640-1750
Premier Electric,10139 N Navion Drive,Hayden,ID,83835,208-762-4506
Eco Of Idaho,1412 N 8th Street,Biose,ID,83702,208-867-9626
Trw Transport,S 50 Greensferry Road,Coeur D Alene,ID,83814,509-464-1061
9 Legacy Transport,1515 W Elm Pl,Meridian,ID,83642,319-331-3764
Dba Snap-on Tools,13128 North 15 East,Idaho Falls,ID,83401,208-390-7521
Jm Masonry,780 Buffalo Trail,Driggs,ID,83422,208-351-0298
Smith's Mobil Express,854 N 1350 E,Jackson,ID,83350,208-790-4800
Haibach Tomac Trucking,1519 Malta Ave Apt B,Burley,ID,83318,814-822-1692
Infinite Transportation Solutions,10102 W Cayuse Lane,Boise,ID,83714,208-315-4956
Bar Z Bar Trucking,312 Oak Street,Castleford,ID,83321,208-421-0549
Wdk Trucking,720 Van Buren St,Kimberly,ID,83341,208-731-1764
5 Bar S,2478 Rock Creek Rd,Hansen,ID,83334,208-733-3982
Merica Standard Trucking,1102 N 18th St,Boise,ID,83702,208-215-5427
Cnd Transport,2466 West Spring Ave,Athol,ID,83801,208-699-3133
Aaa Rainbow Local Moving,1205 E Mullan Ave,Coeur D Alene,ID,83814,208-930-4253
Scd Custom Peroglass,6451 Washington St,Bonners Ferry,ID,83805,208-946-3021
Moto Transport,5960 N Rothmans Ave,Boise,ID,83713,208-860-4223
777 Enterprises,12200 Liberty Rd,Sweet,ID,83670,208-412-1345
Jim Davis Logging,124 Greer Rd,Orofino,ID,83544,208-476-0727
Itb,3321 E 1300 N,Ashton,ID,83420,208-123-4567
Rett Cameron Farms LLC,245 W 700 N,Rupert,ID,83350,208-312-5539
Rob Lambert,100 2nd St,Ferdinand,ID,83526,208-507-1461
Wholesale Unlimited,238 S Emerson,Shelley,ID,83274,202-521-1484
Big Valley Land & Livestock,25895 Weepy Willow,Middleton,ID,83644,208-573-4952
Heavy Haulerz,15 Willow,Owyhee,ID,83604,775-401-1260
Landlocked Divers,1117 Linden Ave,Lewiston,ID,83501,509-534-7313
Bar Hopper,13320 N Nannas Nook Ln,Hayden Lake,ID,83835,208-659-1144
Got It Right Facility Services Sara Lee Breads,845 Barton Road #50,Pocatello,ID,83204,208-221-7815
Jc Trucking,125 Larch Lane,Oldtown,ID,83822,202-521-1484
Road Striping,5120 Scoresby,Iona,ID,83427,208-201-1909
Brush Creek Trucking LLC,708 5th Ave,Deary,ID,83823,120-830-1317
W Kaye Young,574 South 490 East,Burley,ID,83318,208-670-5706
M And E Farms,5111 W Prairie Ave,Post Falls,ID,83854,208-704-2824
"Thurcorp, Inc.",125 E 1st N,Rexburg,ID,83440,208-123-4557
Smart Steel,8550 East 109 North,Idaho Falls,ID,83401,208-524-1287
Charlie's Repair,122 16th Ave,Lewiston,ID,83501,208-305-5216
Gail Severn Gallery,400 First Avenue North,Ketchum,ID,83340,208-726-5079
The Salsa Factory,8016 W Main Street,Rathdrum,ID,83858,208-687-2464
Wv Ranch,607 Barger,Nampa,ID,83687,208-867-8274
David Johnson Trucking,140 Old Main Street,Juliaetta,ID,83535,208-791-7711
Event Horizon Transport,3944 E 185 N,Rigby,ID,83442,208-569-7360
Tj Trucking,205 7th Ave E,Wendell,ID,83355,200-835-8054
Sawtooth Services LLC,49 Hanson Dr,Horseshoe Bend,ID,83629,208-783-2955
Les Boise Express,6139 Corporal Lane,Boise,ID,83706,517-507-0612
Crossett Logistics,1737 N Pewter Ave,Kuna,ID,83634,208-573-6541
Rick Hawker,590 W 1800 S,Oakley,ID,83346,208-862-3474
Tike Transport,10234 Arnold Rd,Boise,ID,83714,208-283-4677
Coeur D Alene Limo And Taxi,1024 N 4th St,Coeur D Alene,ID,83814,208-676-8294
"Groundskeeper, Inc.",55 N Cedar,Post Falls,ID,83854,208-683-5444
H & H,2701 E 3300 N,Twin Falls,ID,83301,208-308-7776
Complete Comfort,2994 S Hitt Rd,Idaho Falls,ID,83404,208-522-3332
"The Dirt Doctor, Inc.",12750 Walker Lake Road,Caldwell,ID,83607,208-459-1688
Todd Amoth Trucking,185 Tuttle Loop,Wendell,ID,83355,208-731-6326
Hooked Up Transport,4264 North 2656 East,Twin Falls,ID,83301,208-320-6181
Sky Rock Trucking,134 W 19th Ave,Lewiston,ID,83501,208-816-1028
Stolarski Enterprises,5350 Us Highway 93,Jerome,ID,83338,208-961-0485
Teton Fasteners,718 Valley Centre Dr #12,Driggs,ID,83422,208-360-3793
All Seasons Moving,425 N Division,Sandpoint,ID,83864,208-263-8090
Juba Express Trucking,1069 N Vine St #d11,Boise,ID,83703,208-392-3382
Hank's Hot Washers,346 N 3700 E,Rigby,ID,83442,208-339-1624
Lions Den Trucking,11404 Hall Dr,Nampa,ID,83651,208-440-4026
Ml Enterprise,1240w 600s,Pingree,ID,83262,208-351-4019
Rosenau Farms,404 Thorn Springs Road,Kamiah,ID,83536,208-983-8773
T&e Development LLC,1811 Fairoaks Drive,Caldwell,ID,83605,208-249-5283
Poor Boys Hookn,209 E 1st N,Saint Anthony,ID,83445,208-690-9562
Hot Shot Portable Pressure Wash LLC,585 W 1st S,Rigby,ID,83442,208-681-4973
Rck Trucking,6709 Fernwood Dr,Boise,ID,83709,701-770-5555
Barzee Transport LLC,3999 E 20 N,Rigby,ID,83442,208-521-1817
Rocky Mountain Express,16781 N Ramsey Road,Rathdrum,ID,83858,208-691-0577
Ws Trucking,18438 North Ramsey Road,Rathdrum,ID,83858,208-661-2940
"Esp Asbestos Abatement, Inc.",842 N Boulder Court Suite 2,Post Fall,ID,83854,120-826-2951
Saving Grace Shipping,3324 E Friar Tuck Ct,Nampa,ID,83687,208-860-5241
Cedarmountian Shims,177 Bent Twig Lane,Bonners Ferry,ID,83805,208-267-8607
C Perez Trucking,6488 Tamarack Ln,Bonners Ferry,ID,83805,208-257-0740
Mr Raley Transport,151 Chip N Dale,Priest River,ID,83856,509-998-6254
Three Style Elite,645 W 100 S,Blackfoot,ID,83221,208-604-3345
Lamm Contruction And Fabrication,2903 W Capriana Drive,Meridian,ID,83646,208-585-1942
50cal Hotshot,555cochise Ave,Pocatello,ID,83204,208-241-5214
Affordable Awnings And Sunrooms,2701 N Vision Circle,Idaho Falls,ID,83401,208-542-6225
Bil Trucking,1550 Yellowstone #116,Pocatello,ID,83201,208-241-6042
Superior Hardwood Floors,105 E Locust Street,Shelley,ID,83274,208-403-9075
Titanic Transport Service,827 S Wack Circle,Boise,ID,83705,208-392-3382
Hendren Ranch,954 N 1150,Richfield,ID,83349,208-487-2226
Quality Appliance,16077 N Franklin Blvd #1,Nampa,ID,83687,208-345-6800
Owner,58 Tacho Pl,Nampa,ID,83687,208-442-2596
M C Transport,11173 W Race St,Boise,ID,83713,208-440-8204
Rocky Mountain Transport,2142 E Hwy 54,Athol,ID,83801,208-691-5554
Fisher Transport LLC,3923 East 154 North,Rigby,ID,83442,208-569-6886
Ditzy Operations,217 E Pine Ave Suite 102,Meridian,ID,83642,208-573-6541
Ballinghamgolf And Turf,204 S Cobblestone Way,Eagle,ID,83616,208-867-5295
"Rebound Trucking,, Inc..",1321 Burnett Dr,Nampa,ID,83651,208-461-2690
Rocky Mountain Motor,285 N 4th Ave,Pocatello,ID,83201,208-232-0735
Swan Basin Trucking,63 Upper Humbird Drive,Sandpoint,ID,83864,208-263-0054
Fireplace Outfitters,408 E Oak Street,Pocatello,ID,83201,208-232-2240
Ara Auto Transport,5950 W Grunder Dr,Boise,ID,83709,208-972-0125
Smith D Trucking,4022 N 125 W,Idaho Falls,ID,83402,208-881-4909
Maezinha Farm,2349 E 3300 N,Twin Falls,ID,83301,970-286-5534
B&k,11477 S Snake River Road,Rexburg,ID,83440,208-313-1076
Pacnow Cargo Transport,67 W Chrisfield Dr,Meridian,ID,83646,208-794-9919
S & D Trucking,824 5th Ave N,Nampa,ID,83687,208-703-8068
Bookkeeper,1182 Eastland Drive N,Twin Falls,ID,83301,208-308-5626
Prudent Trucking,565 West Fork Pine Creek Rd,Pinehurst,ID,83850,208-512-2609
Too Slim Trucking,2423 W Salesyard Rd,Emmett,ID,83617,208-514-8755
Swensen's Markets,991 Washington Street South,Twin Falls,ID,83301,208-733-8987
Mj Ranch & Hauling,6425 Hwy 52,New Plymouth,ID,83655,208-249-8983
Blue Oval Trucking,2908 E 3600 N,Twin Falls,ID,83301,208-260-1090
Ceo,2009 S Sandcrest Loop,Nampa,ID,83686,612-888-3132
Pacifica Senior Living Coeurd'alene,840 East Dalton Avenue,Coeurd Alene,ID,83815,208-665-2100
C A Trucking,10524 W Landmark Ct,Boise,ID,83704,818-429-7914
"Allstar Electric Of Washington, Inc.",6040 Government Way Unit 301,Dalton Gardens,ID,83815,832-721-1219
Big Creek Transport,24159 Sheryl Ln,Caldwell,ID,83607,208-409-7383
S S,334 Golf Course Road,Jerome,ID,83338,520-371-9350
Smart Cents Auto Sales LLC,250 West Main Street,Rexburg,ID,83440,208-206-2669
"Kennys Const, Inc.",5073 N Webster,Coeur D'alene,ID,83815,208-765-3882
Hindsight Trust,1775 West State Street,Boise,ID,83702,541-495-2222
Ox-yoke Ranch,165 South Main,Bloomington,ID,83223,208-945-2051
Spikes Golf Supplies,4112 Sunnyridge Rd,Nampa,ID,83686,208-465-1948
Odie's Asphalt,2200nyellowhwy22,Idahofalls,ID,83401,928-358-8357
Hot Haul Trucking,4097 E 370 N,Rigby,ID,83442,208-351-6599
Dnc Transport,3225 6th #4,Lewiston,ID,83501,509-780-2284
Snyder Transport,406 Lapwai Rd,Lewiston,ID,83501,208-816-9715
Dline Hotshot Trucking,6407 Tamarack Ln #9,Bonners Ferry,ID,83805,208-627-8034
Sbt,4491 N Haroldson Dr,Idaho Falls,ID,83401,123-456-7890
James P Woodworth,3551 Waterwheel Rd,Emmett,ID,83617,208-369-6980
Herzog Trucking,210 Sunset Ave,Fernwood,ID,83830,208-245-0317
Table Rock Trucking,482 Valley St,Middleton,ID,83644,208-573-3334
Double D Horse Transportation,494993 Highway 95 Rd,Naples,ID,83847,208-920-3321
Trailered Com,411 5th St S,Nampa,ID,83651,907-687-1951
Tom Bartausky Transport,281 N Cottonwood Ln,Blackfoot,ID,83221,208-785-2392
Timber Logging,16253 Highway 57,Priest River,ID,83856,208-659-6499
Dan Massee,1800 E 672 S,Jerome,ID,83335,208-825-5010
All Around Curbing,2652 N Simmons Lane,Idaho Falls,ID,83401,208-523-1217
Journeys End Ranch,1468 Westlake Rd,Ferdinand,ID,83526,208-870-5469
Northern Pines Wood Products,Hcr 85 Box 304,Bonners Ferry,ID,83805,208-267-0823
A L Raney & Co,87 Sunnyside Dr,Jerome,ID,83338,208-324-4831
J-bar Farm & Ranch,360 Hwy 95,Weiser,ID,83672,208-549-8552
Idaho Contractor,8289 N Westview Drive,Coeur D'alene,ID,83815,208-676-9288
Atrs Wholesale,203 S Juniper Street,Nampa,ID,83686,208-756-7253
"Branch Cattle Company, Inc.",619 Sharp Lane,Emmett,ID,83617,208-365-3501
Rancho Idaho LLC,5749 Morning Dove Dr,Nampa,ID,83686,208-466-2697
Double A Livestock,353 E 200 N,Preston,ID,83263,208-852-7101
K & T Baskets,13440 Bentz Road,Coeur D Alene,ID,83835,208-772-5637
Titus Potable Water,16684 Highway Five,St Maries,ID,83861,208-245-4791
W Vollmer Enterprise,16476 Galloway Rd,Caldwell,ID,83607,503-969-4998
Edward Jolley Trucking,698 Saratoga Dr 101,Twin Falls,ID,83301,208-944-0975
Western Traffic,256 Dollar Hide Way,Jerome,ID,83338,208-320-7451
Navarro Cattle Co,377 N 4420 E,Rigby,ID,83442,208-745-7611
Reo Trucking,580 Grandview Dr,Malad,ID,83252,208-766-4200
Klement Ranch,13663 Chisum Trail,White Bird,ID,83554,208-839-2387
Gooding County Choppers,1884 S 2100 E,Gooding,ID,83330,208-539-1634
Sts,8700 Morning Glory,Athol,ID,83801,208-683-0349
Magee Trucking LLC,472 W Orchard Ave Apt G205,Nampa,ID,83651,541-480-7089
Broken Heart Trucking,2913 Maverick Dr,Caldwell,ID,83605,801-230-5810
Pug Puppy Express,406 Monroe West,Kimberly,ID,83341,208-293-5780
Ironman Transportation LLC,10330 Kit Fox Ct,Boise,ID,83709,208-362-2149
Rocking K Services,8423 Colorado Street,Rathdrum,ID,83858,208-251-7220
Joe Bower,3700 North 1072 East,Buhl,ID,83316,208-803-5278
Cross Border Trucking,17569 N Wrangler Rd,Rathdrum,ID,83858,509-999-3802
Fossil Transport,4308 W Kootenai,Boise,ID,83705,208-446-8273
Charlie's Trucking,4030 Gateway Circle,Ammon,ID,83406,208-681-5258
Vila Trans,6057 S Egemont Ave,Boise,ID,83709,208-724-2234
Florea And Lederhos Helicopter Transport,7583 Main Street,Bonners Ferry,ID,83805,208-267-3535
Jakes Transport,611 Autumn Pl,Nampa,ID,83686,208-697-1443
Nine Peas Deliveries,401 E Ave F,Gerome,ID,83338,208-316-7512
Spitz Trucking,3687 North 1318 East,Ashton,ID,83420,860-815-0728
Bdg Transport,977 Smith Lane,Weiser,ID,83672,208-315-4217
Van Sickle Trucking,1179e 4325n,Buhl,ID,83316,208-358-1020
Mike Bohnenkamp Trucking,10568 Highway 44,Middleton,ID,83644,208-965-6403
Mgp Transport LLC,1448 S Spring Valley Dr,Nampa,ID,83686-3109,208-860-7335
Diamond Ridge,2576 Brookcliff Dr,Idaho Falls,ID,83402,208-522-3202
Jordan Transport LLC,136 Larkspur Dr,Twin Falls,ID,83301,208-329-0800
Art Hanson Trucking,15 Tara Lane,Horseshoe Bend,ID,83629,208-781-2120
Carrier,827 South Phillippi Street,Boise,ID,83705,208-293-2909
Asp Transportation,2389 W Santa Clara Dr,Meridian,ID,83642-4329,208-779-1474
Rnj Truckin,377 S 200 W #3,Rupert,ID,83350,208-670-9269
Stump Shot LLC,1511 Moonshadow Road,Bonners Ferry,ID,83805,208-290-1487
"Hard Rock Masonry, Inc.",979 West Highway 33,Tetonia,ID,83452,208-313-2111
P G O Finegrades,15108 W Destiny Dr,Post Falls,ID,83854,208-659-6742
Greeneck Earthworks,784 Rocky Road Loop,Driggs,ID,83422,208-354-7336
Quality Installation,324 Hwy 24 Space 43,Heyburn,ID,83336,208-312-1042
West Tech Industries LLC,830 Grelle Ave,Lewiston,ID,83501,509-751-0401
Rjs Welding,19716 Country View Lane,Caldwell,ID,83607,208-608-1995
Mobileservicetech Com,6270 Babe St,Coeur D Alene,ID,83815,208-660-9845
Decorative Edge,1213 E Ezra,Hayden,ID,83835,208-651-3693
J L Wright Enterprises,2605 Fall Creek Rd,Council,ID,83612,208-741-1511
Aparicio Trucking,239 N 10th St,Payette,ID,83661,208-899-5888
Cross Border Trucking,17569 N Wrangler Rd,Rathdrum,ID,83858,509-999-3802
Boise Fruit,1835 S Crimson Rose Ave,Boise,ID,83709-8228,208-957-0116
Atm,9351 W Highway 52 ,Emmett,ID,83617,208-940-2157
Wackerli Auto Center,1363 N Holmes Ave,Idaho Falls,ID,83401-2002,208-522-6060
Kirk S Egbert,1402 E 1300 N,Terreton,ID,83450-0087,208-663-4505
Jd Auto,7373 Deer Flat Rd,Nampa,ID,83686,208-761-5450
Escutia Transport,11498 W Mcgraw Dr ,Nampa,ID,83651,208-249-6193
Willow Creekpleasant View,1164 E Beacon Light Rd ,Eagle,ID,83616,208-841-8127
Clark Timber Products,991 North 3300 East,Ashton,ID,83420,208-652-7262
Ethan Allen Home Interiors,400 N Cole Road,Boise,ID,83704,208-377-1111
K Kinzer,3435 14th St,Lewiston,ID,83501,208-791-9109
"Ace Crane, Inc.",4444 S Yellowstone,Idaho Falls,ID,83402,208-529-6868
Oxarango Lamb & Wool,1505 Bailey Creek Road,Soda Springs,ID,83276,208-431-0777
Scott Investments - Pellet Co,163 Birch,Malad City,ID,83252,775-738-0490
Rodriguez Trucking,430 Broadway Ave S,Buhl,ID,83316-1311,208-969-1979
Chris Mccarthy Trucking,115 Hillside Dr,Kamiah,ID,83536,208-935-8999
Russ Simpson Trucking,12982 N Smith Rd,Rathdrum,ID,83858,208-771-1005
Yerby's Earth Movers,3100 W Sheryl Dr,Meridian,ID,83462,208-447-9298
1 With Nature LLC,5390 S Five Mile Rd,Boise,ID,83709-5219,208-284-6623
100 Percent Truckin LLC,625 Northrup St,Idaho Falls,ID,83401,208-270-6519
18 Wheeler Trucking LLC,12600 W Ustick Rd Apt 102,Boise,ID,83713,847-505-5557
1928 LLC,1200 Shoup St,Salmon,ID,83467,208-340-6407
Jaws Transportation,3103 Spvr,American Falls,ID,83211,208-226-7597
"1st Propane Of Boise, Inc.",5615 Aviation Way,Caldwell,ID,83605,208-455-5260
1st Trax Trucking LLC,2232 Gladys Dr,Idaho Falls,ID,83401,208-681-0618
2 Broke Boys Trucking LLC,2080 Whispering Pines Drive,Idaho Falls,ID,83401,208-200-6437
2 Lane Trucking LLC,1463 W Coquille Ct,Post Falls,ID,83854-5183,720-361-6678
2 Lazy B,9838 W Mossywood Dr,Boise,ID,83709,208-421-0704
"2 M Livestock, Inc.",1862 E 2900 S,Wendell,ID,83355,208-961-1394
2 R Trucking LLC,1280 Borgen Road,Genesee,ID,83832,208-285-1239
2 Weekes Hotshot LLC,1825 Dove Dr,Ammon,ID,83406,860-815-0728
2 Y Transport,2550 Mesa Way,Meridian,ID,83642,208-484-4286
2 Young Transport LLC,2065 Widner Rd,Midvale,ID,83645,208-972-3783
20 Mule Express,671 Summerwood Drive,Rexburg,ID,83440,208-317-7735
208 Eot LLC,4518 Kadie Ct,Caldwell,ID,83607,701-893-0005
208 Excavate,6800 W Hill Rd ,Boise,ID,83714-7617,208-941-4488
Mcintyre Hay,514 Morning Dove Way,Marsing,ID,83639,208-250-9921
208 Freight LLC,842 Singletree Ln,Idaho Falls,ID,83402,208-521-0400
208 Appliance Installation,2219 N Doe Ave,Kuna,ID,83634-3352,208-906-9425
208 Logistics LLC,2788 N Updale Ave,Kuna,ID,83634,208-761-2710
208 Logistics LLC,2877 N Updale Ave,Kuna,ID,83634,208-761-2710
208 Transport LLC,817 9th Ave N,Buhl,ID,83316,208-404-0035
20th Century Homes,1090 Fordway,Blackfoot,ID,83221-1668,208-785-1900
211 Trucking LLC,6243 N 13th E,Idaho Falls,ID,83401,208-391-5802
2b Trucking LLC,186 Homestead Loop,Jerome,ID,83338,208-320-0052
2c Transport LLC,414 Elm St,Middleton,ID,83644,208-866-8775
"2d Stewart Enterprises, Inc.",52 East Prospectors Drive,Cascade,ID,83611,208-382-6365
2nd Amendment Transport LLC,248 E Avenue A,Wendell,ID,83355-5301,208-362-7017
2rivers Excavation LLC,1097 Kidder Ridge Rd,Kamiah,ID,83536-7003,208-935-5339
"2s Trucking, Inc.",1310 Taft Ave,Salmon,ID,83467,208-756-7149
2t Logistics LLC,3581 N 3230 E,Kimberly,ID,83341,208-404-4709
Iron Horse Express,745 Buffalo Trail,Driggs,ID,83422,208-681-6662
3 C Trucking LLC,31 N 500 W,Paul,ID,83347,208-590-4482
3 Girls Trucking,23885 Boehner Rd,Wilder,ID,83676,208-921-3077
3 K Transport LLC,1414 W Blaine Ave,Nampa,ID,83651,208-365-8388
3 Os Trucking LLC,60 N Yellowstone Hwy #28,Rigby,ID,83442,208-351-2030
"3 P Trucking, Inc.",608 S Church St,Salmon,ID,83467,208-940-0509
3 Potros Trucking,1349 Olympia Dr,Jerome,ID,83338-2129,208-320-1044
3 R Trucking LLC,953 N 2600 E,Roberts,ID,83444,208-228-6152
3 Rivers Transport,390 Clabby Rd,Weiser,ID,83672,208-830-4154
3 Strings Cattle Of Idaho LLC,13 E 400 S,Rupert,ID,83350,208-436-1461
3-6 Trucking LLC,1916 Wyoming Ave,Caldwell,ID,83605,208-786-7748
3b Ranch LLC,1701 North 1000 East,Terreton,ID,83450,208-663-4469
3b Trucking LLC,570 S College Ave,Oakley,ID,83346,208-862-3343
3bs Transportation Co,1545 7th Ave N,Lewiston,ID,83501,208-743-1546
"3c Concrete, Inc.",4650 Stanfield Ln,Idaho Falls,ID,83404,208-524-1629
3d Trucking,612 8th Ave N,Buhl,ID,83316,208-539-4654
3g Excavating And Services LLC,1104 Springfield Way,Sagle,ID,83860,208-610-0142
3j Trucking,724 E 800 N,Firth,ID,83236,208-604-3580
3j's Transport LLC,19722 Susquehanna Way ,Caldwell,ID,83605,208-830-8814
3rd Coast America LLC,5173 W Stoker Ln Apt 201,Boise,ID,83703,208-573-8014
3t Ranches LLC,145 N 100 W,Blackfoot,ID,83221-5823,208-681-3757
4 B Trucking LLC,2434 Ne 15th Ave,Payette,ID,83661,208-642-2153
4 D Excavation,239 N 3900 E,Rigby,ID,83442,208-390-2678
4 D Trucking Of Idaho LLC,17810 Mesa Springs Ave,Nampa,ID,83687,208-989-6057
4 Moon Trucking LLC,4230 E Vision Dr,Idaho Falls,ID,83401,208-766-6515
Antelope Trucking,2915 West 1800 South,Aberdeen,ID,83210,208-406-8249
4 Point Logistics,903 N William St,Post Falls,ID,83854,208-626-3106
Medallion Builders,3911 N 5th E,Idaho Falls,ID,83401,208-542-1616
"4 Tb, Inc.",3515 North 25 East,Idaho Falls,ID,83401,208-529-2277
T&s Trucking,421 S 2nd St,St Maries,ID,83861,208-582-0128
48 Freight LLC,10729 Farner Rd,Nampa,ID,83686,208-468-6633
4b&g Livestock LLC,3817 E 310 N,Rigby,ID,83442,208-521-9512
4j's Distributing,1138 Kingswood Cir,Ammon,ID,83406,208-313-4177
"4k Trucking, Inc.",50 South State Street,Franklin,ID,83237,208-646-2669
4k Trucking LLC,210 N 700 W,Blackfoot,ID,83221,208-243-7494
4t Trucking LLC,6523 W Russett St,Boise,ID,83704,208-713-1253
4t Trucking LLC,6523 W Russett St,Boise,ID,83704-7663,208-713-1253
4x Livestock LLC,445 E 200 N,Blackfoot,ID,83221,208-313-3604
4y Yantis Ranch LLC,2562 Hwy 95,Council,ID,83612,208-566-1164
5 One 5 Trucking LLC,823 Anthon Ave,Idaho Falls,ID,83401,208-123-4567
5 Star Express LLC,1004 Arrow Wood Ct,Twin Falls,ID,83301,208-731-3309
5 Star Movers LLC,11280 W Minuet St,Nampa,ID,83651,626-926-3827
50x Transport LLC,2741 East 500 North,Roberts,ID,83444,208-663-4469
5star Four U LLC,45355 S Highway 95,Worley,ID,83876,907-887-1762
6 G's Transport LLC,2925 C Southside Blvd,Melba,ID,83641,208-546-1835
684 Trucking LLC,2805 W Ebbtide Ct,Meridian,ID,83642,562-234-5732
7 Lazy S Express LLC,274 Idaho 25,Delco,ID,83323,208-431-7180
7 Lazy S Livestock LLC,923 6th St,Rupert,ID,83350,208-650-9720
7 Star Transport LLC,3913 N Weston Ave,Meridian,ID,83646,208-559-5598
7 Wonders Transport LLC,3417 Sage Dr,Caldwell,ID,83605,208-353-9129
"77 Livestock Transportation, Inc.",4434 E 3500 N,Murtaugh,ID,83344,208-432-5530
786 Black Horse LLC,775 Honey Locust Ln Apt 2,Twin Falls,ID,83301,208-410-3561
7b Boring LLC,Lot 2 Stevens Elk Ranch,Clark Fork,ID,83811,208-705-7786
"7b Moving, LLC",Po Box 654,Ponderay,ID,83852,208-290-2435
7j Transportation LLC,3031 E 600 N,Roberts,ID,83444,208-313-3036
7k Livestock LLC,16991 Highway 20-26,Caldwell,ID,83607,208-454-6778
"7s Trucking, Inc.",10 Eagle Lane,Salmon,ID,83467,208-940-0804
88 Express LLC,3730 E 343 N,Rigby,ID,83442,208-260-1369
88 Transport LLC,451 N Liberty St Apt A102,Boise,ID,83704,208-996-3338
957 Self Loading LLC,245 S 9th St,Saint Maries,ID,83861,208-582-0814
9r Trucking LLC,932 S Main St Apt 6,Payette,ID,83661,208-405-1781
A & B Excavation LLC,1606 North 55 East,Idaho Falls,ID,83401,619-888-6833
A & B Trucking LLC,3925 E Sienna Cir,Idaho Falls,ID,83401,208-390-8125
A & D Transport LLC,9568 Canterbury Dr,Boise,ID,83704,208-861-3797
A & H Timber LLC,107 E Montana Ave,Homedale,ID,83628,208-221-0669
A & L Associate's LLC,534 N 132 E,Shoshone,ID,83352,405-576-3188
"A & M Trucking, Inc.",3981 E 480 N,Rigby,ID,83442,208-681-5435
Lezah's Transport,1521 Ruby Court,Nampa,ID,83686,208-463-4914
A & P Solutions LLC,344 Hymas Ln,Ovid,ID,83254-5062,208-221-4248
A & R Crane Service,515 W 19th St,Idaho Falls,ID,83402,208-529-9190
A & S Services LLC,525 W Main St,Emmett,ID,83617,208-631-9928
A & S Trucking,811 11th Ave N,Nampa,ID,83687,208-409-5602
A 1 Express LLC,1126 Trail Crest Rd,Twin Falls,ID,83301,208-293-7005
A 1 Towing Recovery,261 S Main,Malad,ID,83252,208-220-7804
A 1 Transport LLC,1132 Trail Crest Rd,Twin Falls,ID,83301,208-293-7005
"A 1 Trucking, Inc.",5107 East Roberts Land,Nampa,ID,83651,N/A
"A Actiontech, Inc.",12170 N Brighton Ct,Hayden,ID,83835,208-920-0005
A And J Trucking LLC,317 W Oneida Ave,Aberdeen,ID,83210,208-123-4567
A And M Quick Haul LLC,12594 Deadwood Ct,Nampa,ID,83651,208-318-6796
A And S Produce LLC,605 South Sneddon,Nampa,ID,83686,208-442-0296
A B & C Trucking LLC,268 Cherry,Ashton,ID,83420,208-970-7505
A C A Excavation LLC,125 East Ithaca Street,Caldwell,ID,83605,208-989-9704
T S C Hay,1091 Harrison St South,Twin Falls,ID,83301,208-280-0839
A C Hightower,335 Montana St ,Kamiah,ID,83536,208-935-2269
A Company Portable Restrooms,3975 S Eagleson Rd,Boise,ID,83705-4930,208-362-3193
"A D Quality Hydroseeding, Inc.",850 Boise St,Kuna,ID,83634,208-922-5451
A I Logistics LLC,12614 Sunstone St,Nampa,ID,83651,208-409-6879
A J Transport LLC,759 Amanita,Eagle,ID,83616,208-939-1295
A J Trucking,1229 Burrell Ave,Lewiston,ID,83501,N/A
"A J Trucking, Inc.",1248 Barney Dairy Rd,Rexburg,ID,83440,208-356-9009
"A K Sign Company, Inc.",2294 E Iona Rd,Idaho Falls,ID,83401-1777,208-524-4458
A L Trucking,510 Bash Apt 2,Cottonwood,ID,83522,208-962-5343
"A M R Transportation, Inc.",17136 Can Ada Rd,Nampa,ID,83687,208-466-3989
"A M S Trucking, Inc.",P O Box 433,Twin Falls,ID,83303,N/A
A M Transport LLC,11074 W Abram,Boise,ID,83713,208-954-3133
A N Transport LLC,2163 E 200 N #3,St Anthony,ID,83445,208-419-8494
A N Trucking,1648 2nd Ave E,Twin Falls,ID,83301,208-734-6335
A Peterson Trucking LLC,3666 N Scotch Pine Ln Apt 1,Coeur D Alene,ID,83815,208-691-8803
A Plus LLC,3514 S 2400 E,Jerome,ID,83338,208-420-8775
"A Plus Towing And Recovery, Inc.",14129 Hwy 30 West,Pocatello,ID,83201,208-478-5410
A Plus Transport LLC,11886 West Demeyer St,Boise,ID,83713,208-936-7330
A R B Trucking LLC,737 Honey Locust Ln Apt 3,Twin Falls,ID,83301,208-490-6910
"A Scott Jackson Trucking, Inc.",311 Rose St,Jerome,ID,83338,208-324-3004
"A Shade Better Painting, Inc.",655 E King St,Meridian,ID,83642,208-855-0575
A Star Trucking LLC,476 Feather Ave,Twin Falls,ID,83301,208-731-4525
A To B Auto Movers,2724 Pebble Way,Nampa,ID,83686,208-463-1688
A To B Trucking LLC,1412 7th Ave E,Twin Falls,ID,83301,208-308-2398
A To Z Transportation LLC,2679 N Ridge Haven Way,Meridian,ID,83646,208-841-8522
A Trentsmith,3480w 2850n,Moore,ID,83255,208-390-0863
"A W Logging, Inc.",4288 N Linwood Way,Meridian,ID,83646,208-866-7400
A&a Direct Transport LLC,320 N 200 W,Jerome,ID,83338,801-980-0099
A&a Escobedo Transportation,507 E 45th St Ste 500,Garden City,ID,83714-4861,877-659-9442
A&a Trucking Limited Liability Company,863 Hollyann Ct,Twin Falls,ID,83301,208-421-0331
A&b Hauling LLC,3605 Silverstone Dr,Idaho Falls,ID,83401,208-123-4567
A&f Transportation LLC,2326 Garey Ln,Filer,ID,83328,208-410-2208
A&j Valley Trucking LLC,14057 Santa Cruz St,Caldwell,ID,83607-9114,208-803-8069
A&m Equipment LLC,Box 2584,Hayden,ID,83835,208-660-3715
A&m Transportation LLC,11893 W Reutzel Dr,Boise,ID,83709,253-277-8705
A&p Associated LLC,359 W 100 S,Burley,ID,83318,208-312-8132
A&t Logistics LLC,2006 Talus Loop,Twin Falls,ID,83301,208-371-3787
Hernandez Trucking,1451 Locust St N,Twin Falls,ID,83301,208-794-0773
A&y Ramos Trucking LLC,817 W 40 S,Blackfoot,ID,83221,208-123-4567
"A-1 Heating & Air Conditioning, Inc.",327 N Linder Road,Meridian,ID,83642,208-343-4445
A-1 Towing & Heavy Haul LLC,1431 Kimberly Rd,Twin Falls,ID,83301,208-734-0473
"A-core Of Idaho, Inc.",4452 N Haroldsen Dr,Idaho Falls,ID,83401,208-523-3930
"A-plus Automotive, Inc.",205 S Main St,Grace,ID,83241,208-425-3376
A-s Rv Transport,400 S 12th W,Saint Anthony,ID,83445,208-200-6622
A1 Crane,5195 W Portneuf Road,Inkom,ID,83245,208-775-3299
"A1 Plumbing Service, Inc.",119 E 42nd St,Boise,ID,83714,208-376-7473
A1 Way Transport LLC,155 4th Ave W,Wendell,ID,83355,208-934-7009
A2b Logistics LLC,144 Smith Ave Apt 3,Nampa,ID,83651,208-505-7571
Wb Transport,2910 Cove Rd,Cambridge,ID,83610-5110,208-718-0247
A&a Cattle,1480 Highway 78,Grandview,ID,83624,208-834-2174
Aa Express LLC,11773 W Tahiti St,Boise,ID,83713,208-353-0599
Aa Reliable Freight LLC,3107 N Cole Rd,Boise,ID,83704,208-572-0333
"Aa Sealcoat, Inc.",22931 S 21st Ave W,Middleton,ID,83644,208-454-1178
Aaa Enterprises LLC,1999 Candleridge Dr,Twin Falls,ID,83301,208-731-0515
Aaa Freight Systems LLC,1419 Andy Ln,Caldwell,ID,83605,208-834-4444
Express Plumbing Service,4007 E Summit Ln,Nampa,ID,83687,208-466-4645
Aaa Sewer Service,3405 Edwards Dr,Idaho Falls,ID,83401,208-522-6557
Aaa Sweeping LLC,3330 N Huetter Rd #11,Coeur D Alene,ID,83814,208-773-4376
"Aaa Urethane, Inc.",674 E 1550 N,Shelley,ID,83274,208-357-7418
Aac Unlimited LLC,520 W Lacrosse Ave,Coeur D Alene,ID,83814,214-810-6902
"Aagesen Millworks, Inc.",3700 E Covington Ave,Post Falls,ID,83854,208-777-2728
Aah LLC,1251 N 300 W,Rupert,ID,83350,208-532-4344
Aai Transportation LLC,1107 Vanity Peak Dr,Emmett,ID,83617-8106,208-995-9214
"Aaj Transportation, Inc.",361 West Rd,Jerome,ID,83338,208-420-7151
Aak Transport LLC,2325 West Rattlesnake Drive,Meridian,ID,83646,208-850-2691
"Aamodt, Inc.",66776 Hwy 2,Bonners Ferry,ID,83805,208-267-3269
Aap Transport LLC,1100 N Cecil Road,Post Falls,ID,83854,206-788-5233
"Aardvarks, Inc.",226 Walnut Creek Way,Nampa,ID,83686,208-890-7773
Family Corvera Trucking,1648 S 26th St,Nampa,ID,83686,208-467-6568
Durango Gravel,5015 S Old Hwy 91,Mccammon,ID,83250,208-251-2895
Aaron Lassen Trucking,518 Main Street,Kellogg,ID,83837,208-786-1104
Aaron Mcdougal,3581 W 4050 N,Moore,ID,83255,208-588-2614
Marler Transport,17858 N Newdale Ave,Nampa,ID,83687,916-201-5704
Aj Stolzman Trucking,1230 B Thousands Springs Road,Wendell,ID,83355,208-536-1805
Ab & Sons Trucking LLC,167 New Hampshire Way,Twin Falls,ID,83301,208-293-7483
Hilltop Transportation,239 Alta Vista Dr,Mccall,ID,83638,208-634-8607
Abc Movers LLC,2230 W Everest Ln Ste 150,Meridian,ID,83646,208-789-3671
Abc Horse Transportation LLC,3620 Colburn Culver Rd,Sandpoint,ID,83864,208-263-4478
"Abc Well Drilling & Pump, Inc.",2502 E Hubbard Rd,Kuna,ID,83634,208-898-9141
"Abco, Inc.",2161 E Lanark,Meridian,ID,83642,208-888-0039
"Abco Northwest, Inc.",1918 Browning Way,Sandpoint,ID,83864,208-660-3399
Fadaks Transportation,2730 N Bluewater Ave,Boise,ID,83713,208-918-7990
Habibullah Trucking ,2732 W Jordan St,Boise,ID,83702,208-801-0758
Abdullatiff A Abdirahman,1020 S Lusk St Apt 272,Boise,ID,83706,208-293-2277
Abel & Sons Trucking & Dirtwork LLC,2217 Amethyst Ave,Meridian,ID,83646,208-407-9758
Transportation Of Cargo,25678 Hop Rd,Caldwell,ID,83607-8728,208-562-1618
Gutierrez Transport,#5 12th Ave N,Payette,ID,83661,208-794-9068
Abie O Welch,851 Battleridge Rd,Kooskia,ID,83539,208-926-0117
Abm Transport LLC,3139 N Columbine Ave,Boise,ID,83713,234-352-0464
Above And Beyond Transport LLC,4663 S Enterprise St,Boise,ID,83705,612-386-0606
Abp Trucking LLC,21069 W Hwy 53,Rathdrum,ID,83858,208-772-8552
A Monreal Trucking,17852 Batt Corner Rd,Wilder,ID,83676,208-337-5759
Absolute Foam Insulation Systems Corp,7879 South 2750 West,Victor,ID,83455,208-313-3757
"Absolute Insulation, Inc.",27001 N Dove Haven Ln,Athol,ID,83801,208-818-7725
Jewett Crushing,26430 Central Grade,Lewiston,ID,83501,208-798-0703
Beverage Distributors,745 W Bedke Blvd,Burley,ID,83318,208-878-5000
"Abt Towing, Inc.",106 C Taylor St,New Meadows,ID,83654,208-347-2766
Abt Transport LLC,2775 St Clair Rd Apt #l106,Idaho Falls,ID,83404,408-509-0497
Aby Transportation LLC,11491 W Zachery Ave,Nampa,ID,83651,208-957-0490
Abyabis Logistics LLC,4659 W Wylie Ln,Boise,ID,83703,208-577-0429
Abz Trucking LLC,11194 W Red Maple Dr,Boise,ID,83709,208-960-5446
Ac Transportation LLC,617 Saratoga Dr Apt 201,Twin Falls,ID,83301,208-293-4862
Ac Williams Trucking LLC,250 W 2nd N,Rigby,ID,83442,208-390-0644
Accelerate Freight,5214 Pahala Drive,Idaho Falls,ID,83404,208-521-1167
Accelerated Dairy Systems,571 S Idaho,Wendell,ID,83355,208-536-2156
Accelerated Transport LLC,845 West Center C-10,Pocatello,ID,83204,208-232-4144
Accent Express LLC,1090 Caswell Ave W,Twin Falls,ID,83301,208-280-2004
"Access Excavation, Inc.",6254 Silhouette Mountain Ln,Nampa,ID,83686,208-249-4747
"Accurate Collision Services, Inc.",6818 Denver St,Bonners Ferry,ID,83805,208-267-2432
"Acds, Inc.",1015 N 5th Ave,Caldwell,ID,83605,208-455-0600
Blaze Sign & Graphic Design,525 W Maple St,Pocatello,ID,83201,800-226-3696
"Ace Duce Trucking, Inc.",432 20th Ave E,Jerome,ID,83338,208-283-9294
Ace High Transport LLC,165 N 710 W,Blackfoot,ID,83221,208-948-8003
Ace Septic Tank Service,105 Olson Rd,Sagle,ID,83860,208-263-5219
Easyway,7837 E Foothill Rd,Idaho Falls,ID,83401,208-525-8344
Aces Transport,12694 S Racoon Dr,Lava Hot Spgs,ID,83246,801-391-7375
Acevedo Trucking LLC,515 E Avenue I,Jerome,ID,83338,208-404-3227
"Aci Northwest, Inc.",6600 N Government Way,Coeur D Alene,ID,83815,208-209-0199
Ackerman Trucking LLC,920 3rd Ave N,Nampa,ID,83687,208-466-7126
Acme Insulation,11252 W Executive Dr,Boise,ID,83713,208-376-5449
Acme Sewer Service,11415 Arch St,Boise,ID,83713,N/A
"Acosta Trucking, Inc.",535 Williams Rd,Emmett,ID,83617,208-365-5513
"Acoustic Specialties, Inc.",3000 N Main,Pocatello,ID,83204,208-233-2694
Acoustical Supply & Distributing LLC,5410 West State,Boise,ID,83703,208-853-2023
Acoustical Supply Distributing LLC,5410 W State St,Boise,ID,83713,208-853-2023
Action 3 Transport,1015 8th St S,Nampa,ID,83651,208-353-3402
Action Ag Transport LLC,5202 E Ustick Rd,Caldwell,ID,83605,208-459-0901
"Action Couriers, Inc.",212 Nw 10th St,Meridian,ID,83642,208-378-7500
Action Excavation LLC,12 E 300 S,Driggs,ID,83422,208-354-3478
Action Movers Group LLC,1788 W Salerno St,Meridian,ID,83646,925-890-3694
Action Sign & Crane,1619 Southside Blvd,Nampa,ID,83686-8650,208-466-5889
Action Truck Brokerage,13 E Main,Weiser,ID,83672,208-549-2950
Acuna Harvesting,25255 Lon Davis Rd,Parma,ID,83660,208-989-2222
Ad Customs Trucking,4017 E 146 N,Rigby,ID,83442,208-313-7972
"Ada Sand & Gravel, Inc.",9501 S Pleasant Valley Rd,Boise,ID,83705,208-368-0100
Ada Trucking LLC,4228 N Rosepoint Ave,Meridian,ID,83646,208-695-6787
"Adair Trucking, Inc.",3313 W Cherry Ln #304,Meridian,ID,83642,208-914-0608
Boustead Excavating,133 This A Way,Spirit Lake,ID,83869,208-946-1343
Mad Dog Trucking,29428 Hwy 20/26,Parma,ID,83660,208-674-1133
Adam J Uhlenkott,55 Twin House Rd 450 Keuterville Road ,Cottonwood,ID,83522-5179,208-962-2355
"Adam Roe Painting, Inc.",10360 La Honlan Dr,Boise,ID,83709,208-941-7420
Amh Trucking,1872 Turner Rd,Grace,ID,83241,208-547-7105
Adam R Telly,9340 Washoe Rd,Payette,ID,83661,208-740-4697
Rocky Mountain Trucking,1514 Hemlock Ct,Sandpoint,ID,83864,208-946-7733
Adam's Freight Services LLC,950 Bannock Street Suite 1100,Boise,ID,83702,208-398-4614
"Adams, Inc.",13930 N 175 E,Ririe,ID,83443,208-538-7781
Burley Tractor Salvage,403 N Main Street,Paul,ID,83347,208-438-5420
"Adams Petroleum, Inc.",210 E 27th St,Burley,ID,83318-3018,208-678-1101
"Adamsons, Inc.",20481 N Main,Carey,ID,83320,208-823-4314
Popocas Trucking,447 E 5th Ave,Glenns Ferry,ID,83623,208-366-2521
A & R Trucking,1102 Mallard St,Fruitland,ID,83619,208-452-2037
Addington Long Haul,1402 Grant Ave,Boise,ID,83706,208-343-8870
Addison Trucking LLC,404 Addison Ave W,Twin Falls,ID,83301,208-539-1511
Adh-idaho LLC,3855 E Poleline Ave,Post Falls,ID,83854,208-457-4020
Adm Express LLC,1850 N Lakes Pl,Meridian,ID,83646-1921,208-631-0258
Smg Construction Clean Up Services,30779 Sabin Rd,Parma,ID,83660,208-794-2480
Ads Transportation LLC,3048 N Big Rock Pl,Meridian,ID,83646,208-999-8409
Advance Transportation Logistics Ltd Co,1113 Canyon Creek Road,Orofino,ID,83544,208-476-3140
Advanced Bark Blowing LLC,1616 E Seltice Road,Post Falls,ID,83854,208-777-2700
"Advanced Custom Cabinets, Inc.",9896 Chelsea Ct,Hayden,ID,83835,208-772-2377
Advanced Design Services LLC,330 Homestead Hollow,Careywood,ID,83809,N/A
"Advanced Industrial Supply, Inc.",3235 Poleline Road,Pocatello,ID,83201,208-237-2222
Advanced Recovery Solutions,3024 Samuels Rd,Sandpoint,ID,83864,208-265-1532
Aer Trucking LLC,189 S 3926 W,Rexburg,ID,83440,208-220-5868
Aaron Williams,201 E South 10th St,Grangeville,ID,83530-5127,208-553-0190
"Aero Mark, Inc.",1940 International Way,Idaho Falls,ID,83402,208-524-1202
Aero Trucking,672 Sarah Ave,Twin Falls,ID,83301,208-410-5412
"Affinity Freight, Inc.",5920 North Government Way Suite 1,Coeur D Alene,ID,83814,800-553-8608
Affordable Excavating Excavation LLC,19409 Faith Court,Rathdrum,ID,83858,208-762-7657
Affordable Excavation & Repairs LLC,13424 W Meadow Lark Lane,Pocatello,ID,83204,202-521-1493
Affordable Waste Disposal LLC,33 Mecham Lane,Carey,ID,83320,208-720-4284
Afk Transportation LLC,1300 S Tanager Way,Boise,ID,83709,208-509-1106
Aft Express LLC,1971 W Windchime Dr,Meridian,ID,83646,208-353-1151
Afterburner Stove Corporation,4187 E 550 N,Rigby,ID,83442,208-270-9060
Nw Mixer Feeders,414 N Kit Ave,Caldwell,ID,83605,208-459-1831
Ag Equipment Southwest Corp,16285 Locust Ln,Caldwell,ID,83607,208-941-6000
Ag Equipment Southwest Corp,1106 W Simplot Blvd,Caldwell,ID,83605,208-941-6000
"Ag Express, Inc.",22 South 200 West,Burley,ID,83318,208-678-4625
Ag Industrial Equipment Repair LLC,607 W Hazel,Genesee,ID,83832,208-285-1564
Ag Nutrients LLC,130 South 100 West,Burley,ID,83318,208-678-2610
"Ag Rows, Inc.",321 S Hwy 27,Burley,ID,83318,208-678-2451
Ag Tech,1247 W Main,Burley,ID,83318,208-678-9358
"Ag West Distributing Company, Inc.",199 W 2nd N,Burley,ID,83318,208-678-3589
Aga Logistics LLC,5134 W Waterwheel Ct,Boise,ID,83703,214-810-6902
Aga Transport LLC,3389 S Arno Ave,Meridian,ID,83642,208-891-2797
Agape Excavation & Trucking LLC,1411 S Secretariat Way,Nampa,ID,83686,208-467-9502
"Agri Service, Inc.",3204 Kimberly Rd,Twin Falls,ID,83303,208-734-7772
Agri Services LLC,3204 E Kimberly Road,Twin Falls,ID,83301,208-734-7772
"Agricultural Services, Inc.",403 Collins Road,Blackfoot,ID,83221,208-785-1717
"Agrisource, Inc.",999 West Main St,Burley,ID,83318,208-678-2286
Agsource,391 W Hwy 26,Blackfoot,ID,83221,208-785-7000
Aguero Trucking I LLC,174 South 250 East,Burley,ID,83318,208-670-3774
Aha Transportation LLC,601 W Ramsbrook St,Meridian,ID,83646,502-260-1323
Aim High Transportation LLC,65 W 4th S,Preston,ID,83263,435-512-3073
Aircare LLC,1772 E State St,Eagle,ID,83616,208-939-2566
Aj Phoenix Hauling LLC,3230 N 4750 E,Murtaugh,ID,83344-5348,916-562-5028
Aj's Excavation LLC,2330 Garey Ln,Filer,ID,83328-5543,208-326-5878
Akre Logging,3830 Hwy 2,Priest River,ID,83856,208-448-0230
Al B Underground,4609 Southside Blvd,Nampa,ID,83686,208-466-1820
Al Worman Excavation,6884 W Warren Spur Rd,Melba,ID,83641,208-495-2603
Al-naami Brothers LLC,339 Ash St,Twin Falls,ID,83301,208-613-9460
"Alamo Excavating, Inc.",South 3306 Greensferry Road,Coeur D Alene,ID,83814,208-661-4694
Alan Brooks,1039 Sunnyside Loop Rd,Orofino,ID,83544,208-476-4105
Browns Honey,911 Pioneer Dr,Soda Springs,ID,83276,208-547-2415
Harber Drilling Co,10 Raghorn Rd,Carmen,ID,83462,208-756-3531
"York Excavation, Inc.",2088 Hwy 95,Council,ID,83612,208-253-4284
Ams Enterprise,1148 Hyll,Weippe,ID,83553,208-435-4188
Alaska Inner Coastal Transport LLC,715 Idaho Ave,Filer Idaho,ID,83328,907-822-3252
Alba Trucking,950 N 8th St,Payette,ID,83661-2249,208-405-5855
Alba Trucking LLC,422 W 270 N,Blackfoot,ID,83221,208-782-9664
Ruzicka Trucking,301 E N 6th St,Grangeville,ID,83530,208-983-0433
Alberto Arredondo Trucking LLC,627 Bailey Dr,Heyburn,ID,83336,208-260-1437
Luna's Fertilizing,5823 Airport Rd,Nampa,ID,83687,208-466-4299
4 A' S Trucking,1008 Braeburn St,Fruitland,ID,83619,541-823-8068
2b-3g,455 Hyde,Pocatello,ID,83201,208-244-2928
Albertson's LLC,250 Parkcenter Blvd,Boise,ID,83726,N/A
Atc Communications,225 West North Street,Albion,ID,83311,208-673-5335
"Alborz Safe Transportation, Inc.",758 W Nannyberry St,Kuna,ID,83634,208-813-8392
Alces Properties LLC,602 Dishman Place,Caldwell,ID,83605,208-459-4069
Alder Ranch LLC,2154 So Old Hwy 191,Malad,ID,83252,208-766-4946
"Aldous Trucking, Inc.",680 N 3950 E,Rigby,ID,83442,208-390-1982
Orizabas Transportation,2365 S Mill Rd,Emmett,ID,83617,208-369-3553
Jaurequi's Trucking LLC,715 Center Street #50,Kimberly,ID,83341,208-320-4531
R A Trucking,2195 N. Glennfield Way,Meridian,ID,83646,425-737-6210
Seven Star,219 Sabastian Pl,Nampa,ID,83687,360-887-0151
Powdercoat Service Of Idaho,3316 Sycamore Dr,Boise,ID,83703,208-338-5638
Ultimate Foam,22144 River Rd,Grand View,ID,83624-5016,208-590-3594
Alex Trucking LLC,1133 Blake St N,Twin Falls,ID,83301-3128,208-539-3973
Alexander Fisher,3859 E Aphrodite Crt,Boise,ID,83716,208-841-3792
Alexander Lupanov,6810 Ironwood,Boise,ID,83709,503-341-9351
Alexander R Larios,2851 Little Creek Rd,American Fls,ID,83211-4908,208-680-4922
Alfa Transportation LLC,242 S View Rd,Jerome,ID,83338,208-539-2688
Gutierrez Trucking,724 N 5th Ave,Caldwell,ID,83605,208-459-4496
Alfredo Lopez Trucking LLC,760 Sw Huebert St,Mountain Home,ID,83647,208-590-2717
Alh Enterprises LLC,5520 N Arbon Valley Rd,Holbrook,ID,83243,941-584-9868
Alhamzah Transport LLC,4643 W Wylie Ln,Boise,ID,83703,208-760-3007
J A G Trucking,17662 Galloway Rd,Caldwell,ID,83607,208-454-3547
"Alk-abello Source Materials, Inc.",448 S Lochsa St,Post Falls,ID,83854,208-777-3400
All A Board,443 Parkway Cir,Twin Falls,ID,83301,208-539-4758
All Across America Transport & Logistics LLC,18208 Royal Way,Nampa,ID,83687,562-477-4948
All American Logistics LLC,5096 W Deer Spring Dr,Meridian,ID,83646,208-800-8777
All American Towing LLC,206 E 41st,Garden City,ID,83714,208-429-6553
"All Coast Transportation, Inc.",179 Mcdonald Creek Road,Blanchard,ID,83804,208-304-3952
"All Freight Transportation, Inc.orporated",405 Boeing,Boise,ID,83707,208-343-2122
All My Sons Interstate Carriers LLC,3987 W Chinden Blvd,Garden City,ID,83714,469-461-5000
All My Sons Moving & Storage Of Idaho LLC,2240 S Cole Rd #140,Boise,ID,83709,208-672-8220
All Newcom LLC,17035 N Franklin,Nampa,ID,83687,208-388-4500
All Occasions Limosine Service,2720 Cougar Ave,Nampa,ID,83687,208-468-4078
All Phase Mfg Home Service,Po Box 1741,Hayden,ID,83835,208-762-2539
All Pro Concrete Pumping,218 Drupdend Dr Suite 1,Rexburg,ID,83440,208-351-7867
"All Pro Linen, Inc.",500 E 10th St,Burley,ID,83318,208-300-1928
All Season Tire And Automotive Corp,1695 Hayden Avenue,Hayden,ID,83835,208-762-2229
"All Seasons Tree Moving, Inc.",690 Swan Valley Highway,Ririe,ID,83443,208-538-5243
"All Star Auto Of Idaho, Inc.",2715 N 15 E,Idaho Falls,ID,83401,208-523-4187
All Star Excavating LLC,11109 E Ririe Hwy,Idaho Falls,ID,83401,208-552-1428
"All State Trucking, Inc.",6881 W State St 7,Boise,ID,83714,208-891-0262
All State Waste Management LLC,258 Washington St N,Twin Falls,ID,83301-5034,208-734-7283
All Terrain LLC,335 N 2149 E,St Anthony,ID,83445,208-624-3141
"Treasure Valley Septic Service, Inc.",1583 Crystal Lane,Weiser,ID,83672,208-549-3603
"All Vehicle Transport, Inc.",2155 Waltman,Meridian,ID,83642,208-571-9630
All Ways Trucking,13257 N 95th E,Idaho Falls,ID,83401,435-760-1495
All Weather Trucking LLC,5498 Spirit Lake Cut Off Rd,Spirit Lake,ID,83869,208-217-3019
"All Wet, Inc.",5615 W Chinden Blvd,Meridian,ID,83642,208-884-2694
"All-tran Transmissions And Automotive, Inc.",3058 Poleline Road,Pocatello,ID,83201,208-237-4486
All-ways Deliveries Expediting LLC,2404 S Pond St,Boise,ID,83705,208-860-5377
All-ways Hauling LLC,3780 S Beverly St B,Boise,ID,83709,208-573-4097
Allegiant Truck Sales LLC,3065 Devonwood,Idaho Falls,ID,83406,208-681-7007
A&s Auto,1038 Overland Ave,Burley,ID,83318,208-677-2743
Allen Enterprises,7980 S Chisum Way,Meridian,ID,83642,208-870-1276
Als Trucking,8776 Fairfield Road,Plummer,ID,83851,509-283-4260
Allen Search,33069 Hwy 6,St Maries,ID,83861,208-859-3497
Allen Wolfe Trucking,1253 Rouleau Loop,Weippe,ID,83553,208-435-4457
Allen York Trucking LLC,6637 Soldier Creek Ave,Rathdrum,ID,83858,208-661-9828
Allen's Custom Hauling LLC,3937 Country Club Dr,Lewiston,ID,83501,208-298-6002
"Allens Water Tender Service, Inc.orporated",3922 N 1500 E,Buhl,ID,83316,208-653-2345
Allenscavanaugh,Pobox2337,Pocatello,ID,83206,208-237-2130
Aller Excavation & Transport,505 Rock Face Dr,Sandpoint,ID,83864,208-255-2738
Alleycat Services LLC,4455 W 1250 S,Driggs,ID,83422,708-969-0662
Allfather Freight Solutions LLC,1380 E Lake Creek St,Meridian,ID,83642,N/A
"Alliance Dairy Service & Supplies, Inc.",205 Evans St,Caldwell,ID,83605,208-459-0680
"Alliance Moving, Inc.",5071 Building Center Dr,Coeur D Alene,ID,83815,208-676-1088
"Alliant, Inc.orporated",7107 E Ririe Hwy,Idaho Falls,ID,83401,208-522-6409
"Allied Business Solutions, Inc.",10394 W Emerald St,Boise,ID,83704,208-334-3833
"Allied Vending, Inc.",3760 N Walrus Ct,Post Falls,ID,83854,208-263-6218
"Allison Mills, Inc.",405 Front St,Filer,ID,83328,208-326-4315
"Allred Precision Millwork, Inc.",200 County Shop Road,Carey,ID,83320,208-788-8572
"Allwest Logistics, Inc.",4437 Chippewa Ln.,Idaho Falls,ID,83406,208-524-9061
"Alnco Transport, Inc.",1825 South Lincoln,Jerome,ID,83338,208-324-3306
Aload LLC,3597 East Monarch Sky Lane Suite 240 #4568,Meridan,ID,83646,N/A
Alota Luck Cattle LLC,2692 Bragg Rd,American Falls,ID,83211,208-226-2272
"Alpha Masonry, Inc.",2645 South Substation Rd,Emett,ID,83617,202-521-1493
Alpha Services LLC,1141 N 3rd Street,Coeur D Alene,ID,83814,208-765-0880
Alpha Sod,435 N 55th E,Idaho Falls,ID,83401,208-538-9207
"Alpha Sod, Inc.",368 East 3rd South,Rexburg,ID,83440,208-356-6849
Alpha Towing LLC,5634 S Yellowstone,Idaho Falls,ID,83402,208-569-2885
Alpha Trans LLC,216 Arabian Way,Nampa,ID,83687,208-899-0007
Alpha Trucking LLC,4947 W Albion St Apt 201,Boise,ID,83705,208-912-9090
"Alpine Backhoe Service, Inc.",Po Box 458 Sandpoint,Bonner,ID,83864,208-263-1697
Alpine Bark Blowing LLC,19282 W Rice Ave,Hauser,ID,83854,208-772-8552
Alpine Expedite LLC,7193 E Hampshire Ln,Namp,ID,83687,208-599-3223
"Alpine Logistics, Inc.",3735 S. Capulet Way,Meridian,ID,83642,208-867-5710
Dane Transport,4408 N Arthur,Coeur D Alene,ID,83815,208-666-8840
"Alpine Transport, Inc.",4010 West Victory Road,Meridian,ID,83642,208-887-6688
Alpine Trucking,5634 S Yellowstone,Idaho Falls,ID,83402,208-569-2885
Alta Transportation LLC,7475 Denver Rd,Fruitland,ID,83619,800-215-5594
Atls,808 Agusta Dr,Nampa,ID,83686,800-215-5594
Altman Trucking LLC,2843 E 700 N,Saint Anthony,ID,83445,208-123-4567
Alva E Roldan,139 4th St N #1,Nampa,ID,83687,208-919-0506
Alvarado Transport,121 N 4100 E,Rigby,ID,83442,208-745-0217
Alvarado Trucking,318 W Ellis St,Paul,ID,83347,208-431-1230
Alvarez Trucking LLC,664 N 2872 E,Roberts,ID,83444,208-521-4484
Alvarez Transport Services LLC,2352 Yellowstone Trl,Burley,ID,83318,208-670-2527
Alvarez Transportation LLC,599 Spring Creek Rd,Burley,ID,83318,208-431-7946
Alvaro Magana,166 W 50 S,Rupert,ID,83350,208-436-0343
Action Drilling,1626 Blakecreek Rd,St Maries,ID,83861,208-245-5879
J & L Trucking,19266 Symms Rd,Caldwell,ID,83607,208-454-7927
See R Services LLC,2362 Grangemont Rd,Orofino,ID,83544,208-476-7899
Alw Trucking LLC,427 Taylor St,Kimberly,ID,83341,208-440-8750
Always Active Petroleum LLC,68 Porterhouse Dr,Sagle,ID,83860,206-353-6374
Am Express LLC,10168 W Holt St,Boise,ID,83704,208-284-3627
Am Pm Transport,5601 E Deer Flat Rd,Kuna,ID,83634,916-963-0042
Am West Logistics LLC,2004 W Rosten Ave,Nampa,ID,83686-4854,425-941-6011
Ama Trucking LLC,210 N Coston St,Boise,ID,83712,208-850-9234
Amane Load Service LLC,3302 Addison Ave. E.,Twin Falls,ID,83301,208-736-7336
Amar Trucking LLC,11763 W Azure Dr,Boise,ID,83713,208-972-3159
"Amazing Movers, Inc.",601 E Schiller Ln,Meridian,ID,83642-5033,857-326-5372
Ambrose Trucking LLC,1114 Birch Street,Buhl,ID,83316,208-731-8982
"Amc Express, Inc.",40 E Butte Ave,Athol,ID,83801,208-699-4217
American Auto Express LLC,3634 East 19th Street North,Idaho Falls,ID,83401,208-542-6366
American Carriage Transportation,1241 Michigan St,Sandpoint,ID,83864,208-290-3793
American Dream Transport LLC,1555 Three Fountains Dr,Idaho Falls,ID,83404,208-520-7448
"American Excavating, Inc.",925 E Lacey,Hayden,ID,83835,208-772-1973
American Lenders Service Co Of Coeur D Alene Idaho LLC,2318 Government Way,Coeur D Alene,ID,83814,208-667-2100
"American Materials, Inc.",1107 Black Mountain Road,Bonners Ferry,ID,83805,208-267-3312
"American Movers, Inc.",1345 Nest View Ct,Eagle,ID,83616,208-703-1608
American Moving,3172 W Siltice Wy,Post Falls,ID,83854,208-777-0929
American Patriot Trucking LLC,2260 Ne 21st Ave,Payette,ID,83661,208-809-7098
American Pie Trucking Company LLC,3080 Talache Rd,Sagle,ID,83860,214-810-6902
"American Star, Inc.",682 Quincy St Apt A,Twin Falls,ID,83301,208-293-6464
American Transport LLC,1446 Mill Rd,Emmett,ID,83617,208-365-5400
American Truss Systems,2685 E Lanark St,Meridian,ID,83642,208-287-0205
American Western Professional Services,P O Box 873,Coeur D Alene,ID,83816,208-667-3878
"Amigo International, Inc.",2184 Channing Way #327,Idaho Falls,ID,83404,800-345-2644
Montoya Trucking,2223e 1725 S,Malta,ID,83342,208-431-2433
Amraias Express LLC,4663 S Enterprise St,Boise,ID,83705,702-824-4017
Ams Trucking LLC,5111 W Emerald St,Boise,ID,83706-1533,503-516-4802
"Amwest Courier, Inc.",4195 E 3rd Ave,Post Falls,ID,83854,208-773-2920
Family Farm,3875 N Chase Rd ,Post Falls,ID,83854-8439,208-773-7445
Ana Transport LLC,2880 Cherry Lane Apt A #103,Boise,ID,83705,208-991-6367
"Anaruk Griffiths, Inc.orporated",3562 E 3895 N,Kimberly,ID,83341,907-242-7009
Anatoly Andriyaka,1200 Artesian Rd Trlr 24,Eagle,ID,83616,208-631-7143
"Anderson & Wood Construction Co, Inc.",2120 Lanark St,Meridian,ID,83642,208-888-7917
"Anderson Aeromotive, Inc.",824 N D Street,Grangeville,ID,83530,208-983-3435
Anderson Lake LLC,106 East Norma Street,Mountain Home,ID,83647-5374,208-653-2230
Anderson Trucking,206 Huckleberry Circle,Rexburg,ID,83440,208-356-4968
"Andersons, Inc.",531 S 2nd Ave,Pocatello,ID,83201,208-233-1654
Anderson Trucking,46 Deerwood Dr,Grangeville,ID,83530,208-983-7736
Andrade Trucking LLC,3039 S 2000 E,Wendell,ID,83355-3136,208-421-3606
Andrew Barnes Trucking Company,Po Box 458,Burley,ID,83318,N/A
Andrew Bailey Trucking,15959 Hwy 5,St Maries,ID,83861,208-245-7217
Andrew Horning,408 Electric Ave,Kingston,ID,83839,208-661-8925
Andrew Jantz,26166 Shoo Fly Cutoff Rd,Bruneau,ID,83604,208-834-2643
Andrew Michael Cortinas,4135 E Evergreen Dr,Post Falls,ID,83854,208-777-5001
Ware Trucking,116 Ritchie Dr,Ketchum,ID,83340,208-726-5321
Adr Logistics,W Shoup Ave,Boise,ID,83709-0557,208-600-2287
Mcchesnie & Sons,2196 West Spring Cr Rd,Hope,ID,83836,208-264-5480
Apex Crane Service LLC,7149 S Shadow Moss Ave,Boise,ID,83709,208-407-4343
Andrew Trucking LLC,323 Garfield St,American Fls,ID,83211,208-530-1546
