Company Name,Street Address,Address Locality,Address Region,Postal Code,Telephone
Smartbox Chicago,150 N 25th Ave,Melrose Park,IL,60160,312-564-2700
Luthys Service,Rr1 Bx 154,Versailles,IL,62378,217-225-3506
Tonkatoy Trucking,118 Park Street,Gorham,IL,62940,618-684-2379
Martens Trucking,8621 Park Street,Shirley,IL,61772,309-829-4779
R W Smith Trucking,2135 Huff Rd,New Berlin,IL,62670,217-488-7502
George's Trucking,116 Deleware Street,Westville,IL,61883,217-267-9729
Chief Well Service,808 N West Street,Olney,IL,62450,618-395-7765
Elliott Trucka Nd Tire Service,709 South Maple Street,Mulberry Grove,IL,62262,618-326-8366
Detmer Automotive,1680 North 4th,Breese,IL,62230,618-526-8705
Pepitas Candies & Snacks,9710 Grand Ave,Franklin Park,IL,60131,847-451-1106
Tim Jenness Trucking,17991 East 2125th Road,Chrisman,IL,61924,217-712-6321
Hitz Trucking,406 County Road 2000 E,Sidney,IL,61877,217-530-1359
Tqs,476 Country Place,Lindenhurst,IL,60046,224-616-4922
Devil Dog Trucking,615 Washington Street,Galena,IL,61036,815-281-0950
Illiana Transport,17849 Ridgeland Ave,Tinley Park,IL,60477,708-785-2612
Minard Family Horse Transport,509 W Main St,Watseka,IL,60970,815-383-6434
Unique Transport,6006 Elm Ct Apt 4,Loves Park,IL,61111,815-601-9114
Martin Morales Jr Trucking,517 Shadow Dr,Harvard,IL,60033,815-560-7009
Noel Reeker Equipment & Service Sales,304 W 8th St,Belle Rive,IL,62810,618-756-2268
Wyatt Trucking,163 Locust,Carrollton,IL,62016,217-248-4788
"Mic Construction, Inc.",6029 W Melrose St,Chicago,IL,60634,708-566-0461
Trucking,11107 S 84th Ave Ste 3b,Palos Hills,IL,60465,708-529-3626
Phillips Trucking,815 E Lafayette St,Olney,IL,62450,618-553-1563
Henderson Transportation,1121 N Ellis St,Bensenville,IL,60106,630-595-5025
Hassons Mobile Truck And Trailer Repair,1372 300 Street,Sherrard,IL,61281,309-292-2193
Ct Sledge Transport,1113 Warren Ave,Mount Vernon,IL,62864,618-214-2020
Maffett Transport,519 First St,Anchor,IL,61720,309-723-6649
Mi-box Moving & Mobile Storage,2640 W Divsion Street,Melrose Park,IL,60160,708-410-1599
Copano Transport Co,462 W Touhy Ave,Des Plaines,IL,60018,847-561-4281
Gonzalez Trucking,1949 Hilltop Ct,Woodstock,IL,60098,909-238-3928
Christ One Transportation,16140 Vandustrial Lane,South Holland,IL,60473,708-333-6815
Phil's Trucking,1611 West 3rd Street,Dixon,IL,61021,815-994-1155
Dents Transport,3936 Eagle Drive #204,Rockford,IL,61103,815-654-2665
Dmj Trucking,15744 East 2500 North Road,Hudson,IL,61748,309-726-1105
Piper Trucking,23671 2300 North Ave,Princeton,IL,61356,815-878-6969
Hall Trucking,4766 Us Highway 51,Tamaroa,IL,62888,618-218-7411
D L Cartage,320 Lra Drive,Aurora,IL,60506,630-299-3793
Cm Trucking,4858 S Indiana Ave Unit 104,Chicago,IL,60615,773-216-8588
Murray Truck Service,7988 Blaine Road,Poplar Grove,IL,61065,815-509-7886
Aerovan Travel And Services,5101 Washington St Suite 1101,Gurnee,IL,60031,847-782-0948
Wuebbels Trucking,401 N 2nd St,Mascoutah,IL,62258,618-531-5051
Hrm Trucking,321 South Elmwood Drive,Aurora,IL,60506,N/A
Global Tower Corp Distributions,424 Fort Hill Dr Ste 134,Naperville,IL,60540,888-577-3250
Burke Trucking,533 W Summer St ,Hillsboro,IL,62049,217-259-8478
Anr Piano Service,2211 Curtiss St,Downers Grove,IL,60515,630-852-5058
Gateway Distribution,720 West Mcallister,Lebanon,IL,62254,618-537-6121
Gdc Trucking,3718 Northhaven Court Apartment 1d,Decatur,IL,62526,217-875-6090
Schulthes Trucking,1221 Knox Co Hwy 29,London Mills,IL,61544,309-875-3366
Mike Lawler Trucking,117 N Poplar St,Fillmore,IL,62032,618-780-7576
Ab&c Moving And Delivery,501 S 2nd Street,Belleville,IL,62220,618-233-3130
Worldex Logistics,455 State Parkway Suite 105,Schaumburg,IL,60173,847-884-2400
Fidelitone Logistics,1260 Karl Court,Wauconda,IL,60084,847-487-3300
Bland Trucking,2441 Old State Road,Jacksonville,IL,62650,217-245-2106
Mc And Sk Group,2009 Ammer Ridge Ct Suit 302,Glenview,IL,60025,847-224-8085
John B Trucking,517 East Railroad,Shipman,IL,62685,618-836-7064
R & L Fryman Trucking,R Route 1 Box 83,Bonegap,IL,62815,618-446-5214
L O N E Star Transportation,16562 Winding Creek Rd,Plainfield,IL,60586,815-267-3027
Matt Suttner Transport,229 S Valter St,Ridgway,IL,62979,618-218-4967
Bsb Logistics,16w754 Jason Ct,Willowbrook,IL,60527,630-863-4537
"Choat Distributing, Inc.",209 Hickory,Alhambra,IL,62001,618-550-4774
Commercial Delivery & License Consultations Ltd,1600 Seaton Lane,Elgin,IL,60123,847-695-6453
Pork Chop Express,12257 Waterman Rd,Waterman,IL,60556,773-251-2454
Anderson General Hauling,2575 N 3350 Rd,Marseilles,IL,61341,815-795-4241
Bliss Trucking,2515 E 1704 Rd,Ottawa,IL,61350,815-616-1336
Dillingers Hotshot Express,6119 Elm St,Union,IL,60180,815-923-2610
R&d Refrigerated Trailers,533 Il Route 173,Caledonia,IL,61011,815-964-0433
Superior Auto Transport,11306 W 75th Street,Burr Ridge,IL,60527,630-330-0989
Vice Trucking,263 Blackberry Drive,Bolingbrook,IL,60440,630-914-5013
J&h Trucking,1225 Sw 7th Street,Fairfield,IL,62837,618-847-7751
S C S A A Deliveries,2425 Old Tavern Road,Lisle,IL,60532,630-364-9227
Brannan Bros Trucking,3720 West Hagener Road,Beardstown,IL,62618,217-248-9121
Brl Trucking,5301 Oakwood Drive,Oakwood Hills,IL,60013,847-431-3419
Swisher Trucking,2865 N County Road 2300,Dallas City,IL,62330,217-659-3231
R R Transport,602 Mt Nebo Ave,Greenville,IL,62246,618-664-3103
Ml Transport,1731 Dorchester Ave,Algonquin,IL,60102,847-458-9221
Hrp Trucking LLC,4353 S Vincennes Ave,Chicago,IL,60653,773-484-3473
Ert,134 Washington Ave,La Grange,IL,60525,312-375-1054
Dmt,1400 S Glenwood Ave,Springfield,IL,62704,217-953-0039
Ef Express,839 East Hwy 96,Lomax,IL,61454,319-850-2707
Your Way Travel Services,413 Ridge Street,Alton,IL,62002,618-462-4100
Schindel Trucking,3075 Westview Drive,Tampico,IL,61283,815-438-4304
Wiley Trucking,68 Cockatill Drive,Louisville,IL,62858,618-665-3686
Ringwood Auto,5000 Barnard Mill Road,Ringwood,IL,60072,815-728-1051
Dct Express,8695 S Archer Ave 2-g,Willow Springs,IL,60480,708-467-0881
Rojas Trucking,3126 N Rutherford Ave,Chicago,IL,60634,773-889-6858
Jg Trucking,6101 South Keeler Ave,Chicago,IL,60629,678-776-2390
"Reyes Delivery Services, Inc.",2743 N Lavergne,Chicago,IL,60639,773-592-8700
4k Trucking,33353 Lowery Rd,Mackinaw,IL,61755,309-369-0269
Sardee Installation Services,5100 Academy Drive Suite 400,Lisle,IL,60532,630-824-4200
Car Carrier Service,14225 S Mallard Drive,Orland Park,IL,60467,773-491-4344
Cambria Technical Services,5699 West Howard Street,Niles,IL,60714,847-647-7011
Landshark,1363 Shermer Rd,Northbrook,IL,60062,847-239-7244
Moore Trucking,2532 E County Road 020n,Mattoon,IL,61938,217-259-3796
L M N Trucking Co,3101 N Paris Ave,River Grove,IL,60171,708-548-7389
Zamiras Trucking,5001 Carriage Way Dr Apt 116,Rolling Meadows,IL,60008,224-848-2250
Dj&l Distributing,26 East 34th Place,Steger,IL,60475,708-254-0267
Flecks Express,16649 Silver Creek Court,Plainfield,IL,60586,815-405-8631
Advanced Intellingence LLC,1364 Newport ,Mundelein,IL,60060,773-990-0903
Bm Trucking,508 Spring St,Aurora,IL,60505,N/A
Millennium Development Trucking,10142 S Winston,Chicago,IL,60643,773-881-8202
Clauson Trucking,24333 Jackson Rd,Canton,IL,61520,309-645-5591
Trotter Trucking,13542 Il Rt 29,Pekin,IL,61554,309-348-3588
Jonathan Simpson Transport,Rt 1 Old Home Road,Eddyville,IL,62928,618-672-4745
Mcmurray Auto Transport,1077 Mine Road,Du Quoin,IL,62832,618-318-0384
Aaron's Delivery Service,1517 W Jefferson Ave #304,Naperville,IL,60540,773-447-4336
Wg United Express,1416 N Burning Bush Ln,Mount Prospect,IL,60056,847-533-8124
Tnt Rv & Generator Services,874 Il Rt 127,Greenville,IL,62246,618-664-4868
Atf Trucking,5387 Hickory Manor Lane,Clinton,IL,61727,877-263-0213
Srm Transportation,1110 Quebec Dr,East Saint Louis,IL,62203,618-972-0437
Triple G Trucking,1457 State Route 121,Lincoln,IL,62656,217-732-3295
27 Cents Trucking,6 Melody Dr,Rochester,IL,62563,217-553-5322
Lucas Trans,630 Mesa Drive Apt 313,Hoffman Estates,IL,60169,773-937-5222
Gravel Truck Hauler,227 N Main,Stockton,IL,61085,815-275-0537
Hernandez's Produce Distributor,14422 S Palmer Ave Unit A,Posen,IL,60469,773-366-4815
Donoho Trucking,612 S Kennedy Drive,Georgetown,IL,61846,765-414-6372
Mover,735 Mildred Av,Cahokia,IL,62206,314-581-8111
Anajen Transport,2000 N 70th Court,Elmwood Park,IL,60707,312-206-5958
One Way Trucking,6121 Xenia Ioia Rd,Xenia,IL,62899,618-665-4440
Idle R Truckin,17320 68th Crt,Tinley Park,IL,60477,708-429-6550
Wenger Trucking,203 South Maple Street,El Paso,IL,61738,812-870-9579
Wesley Express,1075 Higgins Quarter Dr Apt 305,Hoffman Estates,IL,60169,773-882-0255
Waugamon Trucking,209 W Fourth St,Pecatonica,IL,61063,815-997-7979
Reed Farm Trucking,102 South Locust St,Assumption,IL,62510,217-226-3756
Shadow Transportation,1929 E 3000 North Rd,Martinton,IL,60951,815-428-7238
Dietz Trucking,1535 N Meridian,Harristown,IL,62537,217-521-7504
Biddings Transport,19804 Arroyo Ave,Lynwood,IL,60411,708-259-7395
Service Garage Doors,29w201 North Ave,West Chicago,IL,60185,630-293-3667
Bry-beck Transport,12684 State Route 127,Nashville,IL,62263,618-478-2424
Chi-town Transportation Specialist - Cts,516 Davis St,Park Forest,IL,60466,773-527-9689
France Trucking,4401 N Us Hwy 24,Astoria,IL,61501,309-759-4122
H&h Freight Logistics,2350 W Superior St,Chicago,IL,60612,773-875-9373
Halverson Trucking,188 Aspen Dr,Mount Vernon,IL,62864,618-315-2780
Stevenson Farms,705 Second Avenue,Mendota,IL,61342,815-538-3513
Dryden Farms,852 Co Rd 1100 E,Toledo,IL,62468,217-849-2136
"Encore Charter, Inc.",1405 South Banker St,Effingham,IL,62401,217-342-1111
Richard Hancock Trucking,14622 E 300 North Rd,Heyworth,IL,61745,N/A
Coartney Farms Trucking,215 W Charleston Rd,Ashmore,IL,61412,N/A
Gdr Trucking,Rr#4 Box183a,Mount Sterling,IL,62353,217-491-0500
Cooper Trucking,237 W Main St.,Williamsville,IL,62693,217-280-0338
Teutopolis Auto Sales,802 W Main St,Teutopolis,IL,62467,217-857-6805
Hanson Trucking,201 John Street,Sublette,IL,61367,630-330-7829
Ltl Express Delivery,7431 E State St Apt 119,Rockford,IL,61108,847-331-5943
Paul Davis Trucking,450 W Mulberry St,Watseka,IL,60970,815-432-3692
Wilson Trucking,204 Robert Street,Heyworth,IL,61745,309-473-2430
Tf Trucking,9821 Gentian Dr,Machesney Park,IL,61115,815-282-9450
Nelly Bell Express,2310 S Rock City Rd,Ridott,IL,61067,815-275-3874
Todd Trucking,1850 N Goodwin,Palatine,IL,60074,847-385-1771
Willvon Trucking,241 Crane Street,Edwardsville,IL,62025,618-659-0898
Pruemer Auto Exchange,9475 N 1000th Road,Effingham,IL,62401,618-483-5000
Covered Transport,19013 Center Ave,Homewood,IL,60430,N/A
Quick Recovery Service,521 E Wyandotte St,Freeport,IL,61032,815-990-1698
Bmp Trucking,77 Jerusha,Elgin,IL,60123,847-760-6487
Kieser Brothers Trucking,6120 Elm St,Union,IL,60180,815-703-1942
Galsan & Son Transportation,5961 Mackinac Lane,Hoffman Estates,IL,60192,224-542-8995
Express Usa,218 Logan Street,Joliet,IL,60433,N/A
Brenda's Trucking,25 Hillcrest C,Havana,IL,62644,309-543-1065
Evans Trucking,4242 W Potomac,Chicago,IL,60651,773-278-6928
Lg Trucking,Washington Street House 6,Keenes,IL,62851,618-895-2912
Jl Transport,15965 Onyx St,Effingham,IL,62401,217-881-0053
L & Y Transportation,16560 Plymouth Drive,Markham,IL,60428,708-331-4674
J&p Enterprises,910 South Low,Bloomington,IL,61701,309-261-1429
Oliver Transport,5024 Willow Creek Dr Unit A,Machesney Park,IL,61115,815-621-2633
Schultze Trucking,1371 N 700 East Road,Sibley,IL,61773,217-745-2395
T&tt,1755 Park St,Naperville,IL,60563,630-803-1148
Norm's Service,302 S Railroad,Buckley,IL,60918,217-394-2012
Laster Transport,1760 State Route 127 N,Jonesboro,IL,62952,618-833-6138
2nd To None Transportation,4280 W Ford City Drive Unit 404,Chicago,IL,60652,773-444-8939
G Greenwood Trucking,1808 Dewitt Avenue,Mattoon,IL,61938,217-456-1152
Mac's Truck Service,Rr 1 Box 67a,Eldred,IL,62027,217-983-2307
Agw Logistics,2321 N 75 Th Ave,Elmwood Park,IL,60707,847-454-5753
Mckee Bros Trucking,1185 Sweet Potato Rd,Dongola,IL,62926,618-306-2850
Kinnett Trucking,10553 Est 3550 North Road,Rossville,IL,60963,217-649-1192
Brian L Kaeb,842 N 1100 East Rd,Cissna Park,IL,60924,815-457-3480
Christensen Trucking,3904 179st,East Moline,IL,61244,309-496-2073
Jjj Transport,2 West Ash St,New Baden,IL,62265,618-588-2007
Badgett Trucking,287 S 8th,Nason,IL,62816,618-204-4357
E Stanislauskis Team,17642 Alta Dr,Lockport,IL,60441,708-935-7969
Phd,106 Easter Ln,Spillertown,IL,62959,618-997-5149
Pullman Transport,700 E 107th St,Chicago,IL,60628,773-491-8061
Evans Farms,211 W Oak St,Ashmore,IL,61912,217-549-5066
Northland Trucking,9224 Longfellow Ln,Machesney Park,IL,61115,815-703-6397
Ac Trucking,14515 S Albany,Posen,IL,60469,773-598-6912
Walker Trucking,2656 E Empire Dr,Altamont,IL,62411,217-343-9523
Snyder Services,34592 Jim Town Hollow Rd,Pleasant Hill,IL,62366,217-491-1318
Mnd Xpress,2 Baker St,Kankakee,IL,60901,815-304-5309
P & T Trucking,507 E 5th Street,Rock Falls,IL,61071,815-716-3556
Cameron Trucking,1526 County Road 900 Notth,Carmi,IL,62821,618-382-7101
L & G Enterprises,14410 S Dobson Ave,Dolton,IL,60419,773-419-2094
Tlc,15243 Elm St,Grafton,IL,62037,618-786-2466
Tjc Trucking,9917 W Streitmatter Rd,Princeville,IL,61559,309-385-2130
Rs Transport,233 30th Ave,Bellwood,IL,60104,708-714-1214
Short Farms,Rr1 Box 168,Broughton,IL,62817,618-378-3400
Miller Trucking Service,705 South Rosewood,Effingham,IL,62401,217-347-2361
C&ei Trucking,2827 North 1400 East Road,Moweaqua,IL,62550,217-768-3170
Cleveland Cartage Carriers,7219 South Yates Blvd 3a,Chicago,IL,60649,773-676-5479
Ceci Auto,1806 N Illinois Ave,Carbondale,IL,62901,618-529-2990
Broadway Limo,1215 East Walnut,Carbondale,IL,62902,618-529-5511
Wesselhoff Trucking,1205 Nixon Drive,Pontiac,IL,61764,815-844-7631
Ultimate Party Bus Rentals LLC,12515 Drive In Rd,Breese,IL,62230,618-526-2158
"S&c Adams Distribution, Inc.",8010 Janes Ave Apt 101,Woodridge,IL,60517,630-985-0458
Kix,965 S Elm Ave,Kankakee,IL,60901,815-939-0702
Davis Trucking,7156 W 127th St Unit 62,Palos Heights,IL,60463,708-321-0218
Houle Transport,333 West North Ave #391,Chicago,IL,60610,847-912-2068
Myers Automotive,13638 Us Hwy 150,Orion,IL,61273,309-526-3577
Ron Christensen Trucking,3030 24th St Apt 5,Rock Island,IL,61201,309-292-6355
Rock Road Trucking,1481 Cedar Street,Hamilton,IL,62341,319-795-3574
Boley Trucking,1260 Walnut Street,Hamilton,IL,62341,319-795-3564
Wow Coaches,17623 Ford Rd,Geneseo,IL,61254,309-944-3957
S & D Express,1482 Fairway Dr Apt 204,Naperville,IL,60563,586-604-7617
J & C Short Hauling & Transportation,417 N Gibson St,Clinton,IL,61727,N/A
La Auto Sales,730 Montgomery Road,Montgomery,IL,60538,630-820-4156
"C & B Transfer, Inc.",7341 E Center Rd,Stockton,IL,61085,815-947-9155
Lynch Lawn And Home Services,7280 Buncombe Rd,Buncombe,IL,62912,161-865-8263
Me Autobody,8424 Old Us 50,Breese,IL,62230,618-526-2124
Jbe Three Amigos,5000 S Talman,Chicago,IL,60632,773-940-9607
Kodiak Truck Lines,105 E Knoxville St Apt A,Brimfield,IL,61517,309-678-3149
Taylor & Son Trucking,4194 Sycamore Rd,Carterville,IL,62918,618-534-4042
Bailey & Sons Transport,Rr1 Box 588,Herrick,IL,62431,618-292-4876
A Transport,434 West Hanssler Place,Peoria,IL,61604,281-854-8249
Gst LLC,R R 4 Box 197c,Shelbyville,IL,62565,217-343-9960
Hollywood Limo,1304 30th Street,Rockford,IL,61108,815-484-3676
Tq Carriers,100 Fairwood Court,Bolingbrook,IL,60440,630-378-4305
Fortunes Transportation,3607 Laurel Lane,Hazel Crest,IL,60429,773-879-4220
Joshua Longeville Trucking,21783 E 3100 N Rd,Gridley,IL,61744,309-507-1466
J P Transfer,427 Pine St,Adair,IL,61411,N/A
Devo Cartage,3118 S Wells Apt 3,Chicago,IL,60616,732-208-5553
"Ses Freight, Inc.",4518 Rose St,Schiller Park,IL,60176,630-918-5492
Headman Auto Transport,8220 S Harper Ave,Chicago,IL,60619,773-263-1612
Dadz Trucking,18562 East Gibson Road,Lindenwood,IL,61049,815-393-4989
Tim Thornsbrough,29169 North 2000 East Road,Alvin,IL,61811,217-765-4522
J & T Trucking,882 E 3rd St,Coal City,IL,60416,815-651-9283
Powell's Trucking,6800 Stonechurch Rd,Addieville,IL,62214,618-201-2758
"X V C Trucking, Inc.",935 Glenmore Ln,Elgin,IL,60124,224-422-6202
Solid Ground Trucking,21141 S Governors Highway,Matteson,IL,60443,708-748-5230
Hedrick Trucking,14130 South Street,Pekin,IL,61554,N/A
"Jj Enterprises, Inc.",511 E Van Buren St,Clinton,IL,61727,217-521-0482
Hammond Trucking,2068 New Lake Rd.,Jacksonville,IL,62650,217-370-3117
Earl Transportation Service,22520 Moline Road,Sterling,IL,61081,815-441-7315
John Bartolomei Trucking,2818 Sierra Ave,Plainfield,IL,60586,815-325-8700
Bw Trucking,901 State Street,Chicago Hts,IL,60411,708-935-5132
J & R Trucking,174 N Monterey Dr,Kankakee,IL,60901,815-932-8921
Big Star Transit,112 West Adams Ave,Altamont,IL,62411,618-322-5991
DeLLCo Transport,1905 W. National Ave.,Effingham,IL,62401,217-347-7771
C & J Trucking,18382 Glen Oaks Ave,Lansing,IL,60438,708-474-4120
Rosser Trucking,914 West Elizabeth St,Paris,IL,61944,217-465-5708
Best Trans Co,2833 N Montclare Ave,Chicago,IL,60634,443-761-9796
David Farrell Trucking,531 Brickyard Road,Danville,IL,61832,217-304-4479
Ajm Trucking,St Rt 97 Box 8,Petersburg,IL,62675,N/A
Mills Ag Service,13145 E 3100 N Road,Potomac,IL,61865,217-286-3300
Rex Express,920 Diana Ct,Round Lake Beach,IL,60073,312-714-9592
Rl Hauling,928 Best Street,Staunton,IL,62088,618-307-6001
The Party Bus Il,7558 Mcgirr Rd,Waterman,IL,60556,815-793-5476
M&m Transport,1427 E 22nd Rd,Streator,IL,61364,815-672-5798
Cody Lee Trucking,3098 Blue Mound Rd,Flora,IL,62839,618-508-3348
Kingsley-knox Trucking,1506 S Houston St,Taylorville,IL,62568,217-825-3464
American Commercial Services,6594 S Meridian Rd,Rockford,IL,61102,815-520-8594
Eslick Trucking,1912 Tappan Street,Woodstock,IL,60098,815-338-3665
Federal Transportation,6518 Roth Dr,Joliet,IL,60431,847-544-1349
Cts,6252 N Avers Ave,Chicago,IL,60659,773-317-8231
G & F Recovery,1220 Bedford Ln,Rockford,IL,61107,815-708-6681
"Capital Building Services Group, Inc.",550 Telser Road,Lake Zurich,IL,60047,847-847-3800
Mct Trucking,204 E Clinton,Pleasant Hill,IL,62366,217-440-3660
Shredstation Express,14092 Lambs Lane,Libertyville,IL,60048,847-367-4600
Euroline Trucking,4953 N Elston Ave,Chicago,IL,60630,773-628-7580
Mike Gross Excavating And Land Clearing,9652 E 400th Rd,Paris,IL,61944,217-264-1025
Motor Carrier,4612d W Diversey Ave,Chicago,IL,60639,773-286-5200
Wholesaler,2701 W Armitage Ave,Chicago,IL,60647,773-227-8996
Dehart Carriers,Rr 2 Box 209,Clay City,IL,62824,N/A
B B Trucking,1460 Pioneer Rd Apt 2,Crest Hill,IL,60403,815-573-4043
Transleasing LLC,70 East Lake Street Suite 500,Chicago,IL,60601,312-551-1522
Busozene,400 Oakwod Circle,Coal Valley,IL,61240,309-234-5176
Pickens Transports,5295 28th Ave,Rockford,IL,61109,815-703-1875
Sport Of Kings Transportation,22 W O60 22nd St,Glen Ellyn,IL,60137,312-988-9999
Rhodes Trucking,1024 Maple,Pekin,IL,61554,309-347-8036
Blueprint Transport,1815 W 107th Street,Chicago,IL,60643,773-233-9160
Djap Trucking,3223 Liberty Drive,Rockford,IL,61101,815-289-2977
Christie Trucking,1712 Grace,Streator,IL,61364,815-867-0661
Copenbarger Trucking,3103 N 1600 E Rd,Mt Auburn,IL,62547,217-676-2729
Unique Trucking Services,458 Sycamore St,New Lenox,IL,60451,815-717-8377
Express Freight,1386 Knollwood Circle,Crystal Lake,IL,60014,815-893-6290
Homestead Bin Service,303 E National Rd,Montrose,IL,62445,217-924-4516
4040i Xpress,413 Dawn Ave,Glen Ellyn,IL,60137,877-814-4040
Tenasity Investments LLC,9624 S Cicero Ave #114,Oak Lawn,IL,60453,708-418-1746
"Rdb Truck Lines, Inc.",2305 County Road 400 N,Toluca,IL,61369,815-878-4049
Av Trucking,7599 Magnolia Trail,Cherry Valley,IL,61016,815-222-6590
"Laurent Trucking, Inc.",808 Brummel St,Evanston,IL,60202,847-733-0341
Express Air Coach,57 Greenbriar Drive,Gilberts,IL,60136,773-610-0374
Glw Trucking,32340 White Street,Kirkland,IL,60146,815-761-0076
Family First Trucking,1803 West 95th St Ste 175,Chicago,IL,60643,312-213-3717
Winters Trucking,103 Walnut St,Elizabethtown,IL,62931,618-287-4082
Left Lane Transport,4332 North 11000 West Road,Bonfield,IL,60913,815-530-2302
R&d Distribution,1902 7th Street,Peru,IL,61354,815-200-2112
Peterson's Custom Manure Hauling,30393 Elm Rd,Lanark,IL,61046,815-499-1260
Xtreme Transportation I,3000 Research Drive Ste 6,Champaign,IL,61822,217-355-7584
Weiland Trucking,2600 Wills,Eldorado,IL,62930,618-841-2475
Morton Trucking,39225 N Shore Ave,Antioch,IL,60002,847-366-1848
Rohrer Trucking,4195 E 21 St Rd,Sheridan,IL,60551,181-549-5948
Lynn Trucking,29686 Lynn Road,Oakford,IL,62673,217-635-5391
Conger Creek Trucking,2425 S Conger Rd,Pecatonica,IL,61063,815-247-8727
Sancken Trucking,30312 E 2400 North Rd,Emington,IL,60934,815-934-5405
Mcdaniel Trucking,306 S Wall St,Griggsville,IL,62340,217-833-2332
Express Freight Transport,1386 Knollwood Circle,Crystal Lake,IL,60014,815-893-6290
Sherwood Trucking,3131 North Sherwood Avenue,Peoria,IL,61604,309-370-2565
Picks Professional Trucking,3232 Cornell Road,Waukegan,IL,60087,224-636-7002
R And S Trucking,5730 W 82nd Street,Burbank,IL,60459,773-951-3106
Marsala Paving Maintence And Trucking,1014 Bergen Ave,Ottawa,IL,61350,815-431-9248
Dale Youngblood Trucking,22287 E Il 15,Bluford,IL,62814,618-231-5607
Alberdi Logistics,232 Bedford Road,Bolingbrook,IL,60440,770-205-0218
Payne's Express Moving & Hauling,41 N Iowa,Addison,IL,60101,630-589-9339
Owner,1511 14 1/2 St,Rock Island,IL,61201,309-948-8092
Mik Transport,5431 W Henderson St,Chicago,IL,60641,773-727-0540
Jim Raleigh Trucking,1560 N Coal Rd,Colchester,IL,62326,309-776-4231
C C Adolphson Trucking,222 East Chestnut,Washburn,IL,61570,309-303-5753
D & D Trucking Co,1805 Arbor Lane Apt 305,Crest Hill,IL,60403,630-270-0983
Angel's Deliveries,283 South 3rd Ave,Kankakee,IL,60901,815-573-1316
Gingerich Farm Services,460 Ferrel Road,Stonefort,IL,62987,618-499-6808
S&b,1199 Dogwood Lane,Aurora,IL,60504,630-378-0093
Navis Pack & Ship,5024 Chase Ave,Downers Grove,IL,60515,630-663-1310
Lrd Solutions,4998 N Junction Rd,Davis Junction,IL,61020,815-499-2393
Nordstrom Independent Distributor,13 Timberlane Dr,Geneseo,IL,61254,309-441-6656
Howard Trucking,Rt 2box 303a,Ramsey,IL,62080,618-423-2874
Transportes El Bajio,2714 W 47 Th St,Chicago,IL,60632,773-847-9621
Us Highway,8526 West Grand Ave,River Grove,IL,60171,773-396-2074
Wisexpress,411 Floral Ave,Kewanee,IL,61443,312-968-3457
Mckee Trucking,105 Park Dr,Mcclure,IL,62957,618-661-1817
Deer Country Co,101 E Cedar St,Moweaqua,IL,62550,217-259-4352
Harley Express,1932 S 55th Ct,Cicero,IL,60804,708-699-8971
"Herrera & Sons Delivery, Inc.",608 W Briarcliff Rd,Bolingbrook,IL,60440,630-532-2252
C & J Trucking,30242 Middle Creek Rd,Lanark,IL,61046,815-499-1805
Stanley L Reed Trucking,6117 N Co Rd 3150 E,Mason City,IL,62664,217-737-5545
R S Trucking,104 Fritz Drive,Milford,IL,60953,815-889-4556
Wog,5100 W 123rd Street,Alsip,IL,60803,708-655-7823
Rath Services,116 Tomahawk,East Dubuque,IL,61025,815-747-2315
Snow Trucking,1006 Clarence St,Greenville,IL,62246,618-339-0536
Barajas Transport,6513 Gold Haber Ln,Plainfield,IL,60586,815-302-0499
Hirte Farms,5483 Larkspur Rd,Coulterville,IL,62237,618-210-1066
Klein Trucking,604 N Il Rt 180,Williamsfield,IL,61489,309-639-4453
M & M Transport,16508 Newbury Court,Crest Hill,IL,60435,312-952-9666
Cowman Trucking,6512 E Mt Pleasant Lane,Olney,IL,62450,618-838-2071
G & M Hauling,222 East 4th St,Cutler,IL,62238,618-318-0902
Schnur Enterprises,515 S 5th,Elkville,IL,62932,618-568-2140
Caam Trucking,18065 N 1280th,Hidalgo,IL,62432,618-793-2755
Big Smith Trucking,201 E Lewis,Anna,IL,62906,618-833-8804
Klinefelter Trucking,2198 Poole Rd,Belvidere,IL,61008,815-547-7416
David Yaw Trucking,11619n 1190th St,Newton,IL,62448,618-421-5448
Tackett Trucking,1111 N 19th St,Murphysboro,IL,62966,618-314-2255
Polux Transportation,206 Glengarry Dr Unit 107,Bloomingdale,IL,60108,708-670-3828
Ert,5712 Tallpines Pkwy Apt 2,Roscoe,IL,61073,815-508-3005
Hiswheeltransport,1354 Hull Ave,Westchester,IL,60154,708-345-3494
Ftw X-press,11g Ross Rd,Rushville,IL,62681,217-883-1004
Half Pint Haulers,1003 Oak Ave,Sterling,IL,61081,815-499-3709
Trans Romex,3335 N Ottawa Ave,Chicago,IL,60634,773-304-8819
Jim's Auto,1102 E Main,Benton,IL,62812,618-435-3954
Mj Express,10929 Franklin Ave Suite M,Franklin Park,IL,60131,847-671-8070
Morrison Trucking,103 Church St,Vermilion,IL,61955,217-275-6190
Hilmes Trucking,18946 2500 North Ave,Ohio,IL,61349,815-878-3363
Foglesong Trucking,11029 N Main Gate Rd,Ipava,IL,61441,309-337-1234
M C Transport LLC,807 Eunice Avenue,Joliet,IL,60433,815-482-5780
Ken Emling Trucking Company,115 Stanford St Box 45,Bonfield,IL,60913,815-933-0836
D & M Freight,Rr 1 Box 218,Thebes,IL,62990,618-764-2553
B & H Trucking,9136 E Mill Creek,Troy,IL,62294,618-531-4529
Automated Recycling,4716 Shattuck Rd,Belvidere,IL,61008,815-323-3022
Evans Trucking,4242 W Potomac,Chicago,IL,60651,773-278-6928
Freedom International,15 W 700 N Frontage Road # 207,Burr Ridge,IL,60527,630-325-2400
Kirback Trucking,Rr 3 Box 181a,Carrollton,IL,62016,217-983-2728
Bbt Freight,2035 S Arlington Heights Rd 119d,Arlington Heights,IL,60005,708-669-1174
Rsps,4824 S Tripp,Chicago,IL,60632,773-927-3285
Doug Freed Trucking,325 East Ludlow Street,Ludlow,IL,60949,217-396-8869
R N G,2416 Greenleaf,Evanston,IL,60202,773-299-4837
Hovis Transportation,4780 Tunbridge Hill Rd,Clinton,IL,61727,217-935-8134
Circle S Trucking,180 Smola Ln,Glen Carbon,IL,62034,940-577-6996
C&l Transfer,586 Territorial Drive Bldg 3 Unit D,Bolingbrook,IL,60440,708-485-4717
Nicholas Rohr Snap-on Tools,3928 Urbana Rd,Millstadt,IL,62260,618-606-3250
Vision Trucking,9838 S Calhoun St,Chicago,IL,60617,708-720-2291
Contegra Construction,37 Gateway Commerce Centerdr,Edwardsville,IL,62025,618-931-3500
4 Corners Logistics,64 Centerview,Kankakee,IL,60901,815-936-1596
Cabeno Environmental Field Services,16714 Cherry Creek Ct,Joliet,IL,60433,815-774-3747
Five Star Trucking,2567 Greenleaf Ave Suite B2,Elk Grove Village,IL,60007,847-357-0087
Fomby Trucking,1224 East 151st Street,Dolton,IL,60419,708-841-0357
Elijah's Express,23304 State Hwy 3,Dow,IL,62022,618-580-0864
Eads Farms,12838 Douglas St,Oakland,IL,61943,217-346-3393
Fannie Mae Trucking,3818 West 169th Street,Country Club Hill,IL,60478,708-785-1696
"Pilsen Meats, Inc.",2455 South Damen Avenue,Chicago,IL,60608,773-650-7690
Bryko Transport,10583 Chaplin Ave,Beach Park,IL,60099,847-833-5966
R Shawback Trucking,214 W Walnut St,Larose,IL,61541,309-399-7811
Triple Digit Trucking LLC,2495 J D Turner Dr,Jacksonville,IL,62650,217-473-3445
R & M Transfer,709 East 13th Avenue,Coal Valley,IL,61240,309-799-5087
Flackus Trucking,33326 Fairfield Rd,Round Lake,IL,60073,847-344-9827
Infinity Movers,2221 E 75th St,Chicago,IL,60649,773-731-3558
Pipher Trucking,3600 E White Lane,Olney,IL,62450,618-838-1127
Jethro Logistics Group,803 South School Street,Lombard,IL,60148,630-424-8687
Lrc Transport,1425 Waldron Ln,Desoto,IL,62924,618-985-4507
Walt's Express Delivery Service,14346 S Maryland Ave,Dolton,IL,60419,708-926-5062
Pyramid Auto Transport,78 West Fairview Lane,Springfield,IL,62701,951-737-4477
Hortenstine Custom Hauling,Rr1 Box 445,Herrick,IL,62431,217-259-9667
Hyson,612 Supreme Drive,Bensenville,IL,60106,630-238-1600
Hf Transport,32457 N Mackinac Ln,Lakemoor,IL,60051,815-385-3045
Movern Trucking,16 N Pine,Piper City,IL,60959,815-471-6708
Randy Clair Farms Trucking,1784 N 2700th Ave,Loraine,IL,62349,217-938-3252
Tug Boat,37452 East Park Lane,Lake Villa,IL,60046,847-973-0711
Heritage Hill Farms,Rr 3,Fairfield,IL,62837,618-756-2207
Cam Corporation,781 West Flagg Road,Dixon,IL,61021,708-774-0083
All Seasons Movers,6204 N Claremont,Chicago,IL,60659,773-338-1214
All Seasons Delivery,14483 Cyril James Road,Ewing,IL,62836,618-927-3680
Hunt Trucking,27323 Concord Rd,Palmyra,IL,62674,217-436-2284
Powell Enterprises,18145 Lawndale,Homewood,IL,60430,708-991-2784
Pearce Trucking,395 Doc Road,Eldorado,IL,62930,618-559-9473
Jm Transport,37 East Rosewood Lane,Round Lake Beach,IL,60073,224-643-7564
Djh Hauling,422 Damon,Marengo,IL,60152,630-514-0315
Hartz Distributing,Rr #2 Box 227,Lawrenceville,IL,62439,618-928-2569
Thompson Trucking,Rr 1 Box 73 B,Stewardson,IL,62463,217-644-3097
Seitz And Sons,R R #1 Box 250,Gladstone,IL,61437,309-627-9980
Elburn Coop,108 North Main Street,Sycamore,IL,60178,815-899-8964
Roberson Trucking,3630 173rd Ct,Lansing,IL,60438,708-205-6392
Environmental Technology Roll Off Services,6105 Route 31,Ringwood,IL,60072,815-728-9600
C & K Logistics,180 N Mitchell St,Braidwood,IL,60408,815-458-0581
B & E Trucking,205 West Jefferson Box 92,Kansas,IL,61933,217-948-5161
Dc Torrence Transport,12823 W Regan Rd,Mokena,IL,60448,708-969-1414
Korando Agri Transport,3131 State Rt 150,Chester,IL,62233,618-826-3952
Scott Nelson Trucking,7233 E 3550 N Rd,Rossville,IL,60963,217-497-4335
Reynolds Trucking,2540 Co Rd 400 East,Mill Shoals,IL,62862,618-383-4888
Trans 48,306 East Meacham,Loami,IL,62661,217-391-4726
Hanson Material Services Corporation,181 West Madison,Chicago,IL,60601,708-442-8500
Rdv Enterprises,5965 Chandler Dr,Rockford,IL,61114,815-540-7506
Stephens Trucking,624 Riebold Rd,Troy,IL,62294,618-667-6096
Lincoln Transports,Rr# 1 Box 117,Sigel,IL,62462,217-844-2175
Hauling My Own Horses,5309 Oak St # 288,Quincy,IL,62305,217-938-4347
Justrite Trucking,316 155th St,Calumet City,IL,60409,708-825-5777
Bassen Farms,111 Lyle Drive,Hoffman,IL,62250,618-495-9028
Eric Roush Trucking,2731 Lynnville Ct,Lindenwood,IL,61049,815-739-3658
Flanagan Freight Transport,204 N Beech St,Centralia,IL,62801,618-533-2059
Hall Transport,20184 Hwy 14,Macedonia,IL,62860,618-439-4255
Ds Transport,7042 Westwood Dr,Carpentersville,IL,60110,847-830-9976
Timber Creek Pallets,447 E County Rd 200 N,Arcola,IL,61910,217-268-3062
Jk Avaro,4836 S Lamon Av,Chicago,IL,60638,773-582-1672
Ringenberg Trucking,312 E Van Buren Pob 71,Ohio,IL,61349,815-376-2151
Bukdam Transport,3160 Cobblestone Lane Apt 1,Springfield,IL,62701,217-899-1354
Ctl,5403 Broad Street,Roscoe,IL,61073,815-316-9185
Morris Trucking,18896 East Jefferson Road,Mount Vernon,IL,62864,618-780-7931
"K Trucking, Inc.",501 Industrial Dr,Bensenville,IL,60106,630-227-0600
Bryant Trucking,12423 S Yale,Chicago,IL,60628,773-263-2218
Pjc Trucking,813 Marlboro Rd,Ava,IL,62907,618-521-2227
Hp Harrison,722 W Maine Rr 1,Stewardson,IL,62463,217-682-5519
Tepa Wholesale,2503 S Blue Island Ave,Chicago,IL,60608,773-927-3224
May Trucking,3010 N Wilson Dr,Peoria,IL,61604,309-682-1389
Mike Cawthon Trucking,2001 B W Jackson,Macomb,IL,61455,309-833-3079
Lorance Transport,11735 E 625th Ave,Robinson,IL,62454,618-544-4024
Gary Bland Jr Trucking,2441 Old State Road,Jacksonville,IL,62650,217-245-2106
Jimmy Collins Trucking,4240 N 1475 East Road,Heyworth,IL,61745,309-807-2070
Twisted Hauling,625 Florence Avenue,Dupo,IL,62239,314-486-9714
Cornwell Trucking,507 S Jefferson,Greenup,IL,62428,217-923-5104
Garay Carriers,140 South Roy Avenue,Northlake,IL,60164,708-345-5013
R-car Transportation,644 Pomona Rd,Pomona,IL,62975,618-599-1217
Starfire Trucking Service,11273 East Lake Edward Lane,Effingham,IL,62401,217-868-5501
Wilson Farm Services,2426 E 2800 N Road,Martinton,IL,60951,815-428-7474
Jrn Trucking,415 West 11th Avenue,Milan,IL,61264,309-558-0606
Wilson's Express,118 W Lincoln St,Harrisburg,IL,62946,618-841-1169
Jps Express,3619 S Elizabeth Scales Mound Rd,Elizabeth,IL,61028,815-541-1899
Turkey Run Transport,2785 N Hamilton,Belle Rive,IL,62810,618-736-2788
Servpro Of Buffalo Grove Lake Zurich,544 Windy Point Drive,Glendale Heights,IL,60139,847-279-1940
Blackjack Trucking,422 S Snipe Hollow,Elizabeth,IL,61028,815-275-6359
Stamm Transport,9662 S Prairie Road,Red Bud,IL,62278,618-282-2060
Across County Farms,8491 E 1000th Ave,Newton,IL,62448,618-553-7871
Newport Truck Lines,1013 Lowell Lane,Schaumburg,IL,60193,847-466-2757
Navarro's Transport,35452 Zilm Rd,Custer Park,IL,60481,630-816-8377
Schick Farms,2377 E Illiniwick Rd,Decatur,IL,62526,217-519-4095
Fairchilds Transportation LLC,19725 Terrace Avenue 1,Lynwood,IL,60411,708-251-5989
Special Delivery,6480 Majors Lane,Decatur,IL,62521,217-972-7375
"R L Logistics, Inc.",600 E Higgins Road 2d,Elk Grove Village,IL,60007,224-659-7578
S & L Express,614 Lincoln,Minonk,IL,61760,309-432-2211
Rn Trucking,1027 Coyote Ave,Greenville,IL,62246,618-664-4935
Guinn Farms,1004 Dragonfly Lane,Xenia,IL,62899,618-665-3323
Karlson Trucking,6983 Cora-lee Drive,Belvidere,IL,61008,815-544-3957
Rushing Trucking,601 N Green St,Anna,IL,62906,618-697-1041
J D M Transport,41304 State Hwy 3,Mc Clure,IL,62957,618-661-1279
Midwestern Transportation And Construction,18 W 470 91st St,Lemont,IL,60439,630-390-5747
River Valley Chariot Transfer Company,1202 Kent Street,Rockford,IL,61102,815-964-3003
A & J Trucking,1494 East 1500th Ave,Fowler,IL,62338,217-434-8104
African Express,3015newyork 2a152,Aurora,IL,60504,630-926-6329
Chicago Limousine,4727 S Cicero Ave,Chicago,IL,60632,773-735-2200
4a Trucking,200 South C Street,Laharpe,IL,61450,217-659-3258
Bbs Transport Service,5154 Stacey Drive,Granite City,IL,62040,618-797-1214
Adkins Trucking,605 Betty St,Earlville,IL,60518,815-970-6399
Rah Rahs Trucking,253 Black Hawk Dr.,Park Forest,IL,60466,630-865-4403
Camfield & Sons Auto Repair,1555 18th Avenue A,Moline,IL,61265,309-797-6778
Kruse Earth Moving,209 W High Ave,Stockton,IL,61085,815-297-2024
Just In Time,500 Davy Ln,Wilmington,IL,60481,815-476-9610
John Gurniak Trucking,163 E 800 North Rd,Buckley,IL,60918,815-530-1839
Adams Trucking,242 Ash Street,Park Forest,IL,60466,708-466-0885
Cravers Hay Service,1607 23rd Ave,Avon,IL,61415,309-465-3519
Regional Trucking Service,119 Miller Street,Steward,IL,60553,815-396-2428
Patriot Automotive,1400 Old Hwy 51 North,Anna,IL,62906,618-833-3530
Brent Bishop Trucking,1208 Berry Street,Dennison,IL,62423,217-463-2572
Wilson Trucking,528 South Peoria Street,Bradford,IL,61421,309-897-8243
C Lark,912 B Market Ave,East Saint Louis,IL,62201,618-271-4528
Dale A Colaw Trucking,604 Nw Maple,Atlanta,IL,61723,217-648-2825
Hopkins Trucking,6418 Rt 126,Yorkville,IL,60560,630-553-7465
Dehlinger Trucking,3589 North Illinois 130,Olney,IL,62450,618-395-4212
Cribbett Trucking,1024 Klein Ave,Rantoul,IL,61866,217-892-9750
Leakakos Ltl Service,300 Pinecroft Dr,Roselle,IL,60172,630-307-1352
R L Gauthier Trucking,2149 Lancaster Rd,Cherry Valley,IL,61016,815-670-3993
Roberts Trucking,1100 E Illiniwick Rd,Decatur,IL,62526,217-972-2201
Gary Olson Trucking,6209 Pleasant Ave,Loves Park,IL,61111,815-742-0152
"Volk And Rabbit, Inc.",1709 Lucylle Ave,St Charles,IL,60174,630-800-9967
Allen Trucking,6877 Delavan Road,Delavan,IL,61734,309-244-7888
Valumax Transport,2032 C R 125 E,Mahomet,IL,61853,847-360-1963
5 Star Transportation System,5717 Old Alton Rd,Granite City,IL,62040,618-797-2230
Fletcher Trucking,1284 Hoffman Road,Murphysboro,IL,62966,618-924-0093
Kdf Trucking,1430 N Fifth St,Chillicothe,IL,61523,309-256-6701
Globe International,10 S 481 Whittington Ln,Naperville,IL,60564,630-863-2323
Tna Trucking,392 Greenspire Drive,Machesney Park,IL,61115,815-654-2421
Varner's Sanitation,Rural Route 1 Box 12f,Bridgeport,IL,62417,618-945-7300
18 Wheels Rolling,5418 S Dearborn,Chicago,IL,60609,773-733-1590
Lfi,217 Concord Dr,Normal,IL,61761,309-706-9514
Cunningham Trucking,6910 North Keating Ave,Lincolnwood,IL,60712,312-388-3494
"Jptcartage, Inc.",5407 Pioneer Rd,Ringwood,IL,60072,815-675-9095
North Express Co,2232 Techny Road,Northbrook,IL,60062,847-498-0647
Timothy R Burks Trucking,24570 Empire Ave,Sterling,IL,61081,815-441-0635
H&s Trucking,3705 Bull Valley Rd,Mchenry,IL,60050,847-366-0663
Sb Trucking,35150 E 500 N Rd,Arrowsmith,IL,61722,309-261-2048
Williams Trucking,1845 N 56th,East Saint Louis,IL,62204,618-875-7870
Troy Sieberg Trucking,13095 Albany Road,Albany,IL,61230,309-887-9433
Jim A Hunt Trucking,601 Parkside Court,Oakland,IL,61943,217-346-2452
Triumph Packaging Group,515 West Crossroads Parkway,Bolingbrook,IL,60440,630-771-0900
Crow Trucking,286 Mutch Road,Murrayville,IL,62668,217-882-3259
B M Lynn Construction,119 Meadowlands,Sherman,IL,62684,217-496-2709
Orbit Transport,6309 N Legett Ave,Chicago,IL,60646,773-775-8630
Delap & Sons,14747 E Eddy Rd,Davis Junction,IL,61020,815-262-3560
Byford Klebba Trucking,8621 East Boyd Road,Mount Vernon,IL,62864,618-244-1999
Galena Moving,9157 Rt 84 N,Galena,IL,61036,815-777-3746
Maa Trucking Company,5602 S Racine Ave,Chicago,IL,60636,773-434-8697
Marcas Food Distributors,10208 Franklin Ave,Franklin Park,IL,60131,847-678-2200
Monzel Trucking,2434 Grand Ave,Lindenhurst,IL,60046,847-356-8126
Chepive,14n763 Brier Hill Rd,Hampshire,IL,60140,815-970-1964
Schuler Trucking,19 Louis Wides Drive,Murphysboro,IL,62966,618-967-7143
J & F Trucking,218 S Ridgewood Dr,Chillicothe,IL,61523,309-868-1520
"Rbf Transportation, Inc.",7015 S Wasbash,Chicago,IL,60637,708-417-4132
Mwr3 Deliveries,7130 E State St,Rockford,IL,61108,608-490-0125
Koehn Transport,516 Forrest Lane,Arthur,IL,61911,217-543-3200
M & S Trucking Services,7987 Hwy 20 West,Eleroy,IL,61027,312-859-5906
Fabyans Trucking Service,514 W Main Street,St Charles,IL,60174,630-631-9337
R & S Express,13937 Exeter Ct,Orland Park,IL,60467,708-307-8046
Bob Nelson Trucking,208 Main St,No Henderson,IL,61466,309-464-5203
T&b Home Improvement,7306 W 114th St,Worth,IL,60482,708-704-1212
Dean Trucking,88e 800n,Buckley,IL,60918,217-898-5342
Kites Auto Center,8607 Collinsville Road,Collinsville,IL,62234,618-346-8162
Carrell Trucking,5262 County Hwy 13,Mattoon,IL,61938,217-962-0303
A & L Transport,2102 Il Rt 26 N,Freeport,IL,61032,815-235-4218
Phat Trucking,14158 Kirane Court,South Beloit,IL,61080,815-298-8118
Ozburn Trucking,4478 N Five Corners Rd,Lena,IL,61048,815-238-2760
Briggs Trucking,229 N Pleasant St,Princeton,IL,61356,815-915-7716
T Hoover & Son Trucking,622 Tally St,Earlville,IL,60518,630-768-9544
Nm Double C Trucking,109 West Virgina Rd,Arenzville,IL,62611,217-370-6412
Fidelitone Logistics,1260 Karl Ct,Wauconda,IL,60084,847-487-3300
Transportation Services,2122 N Mohican Dr,Round Lake Heights,IL,60073,847-546-3738
Adam Wallace Trucking,17752 Finney Rd,Girard,IL,62640,217-971-1299
"Thomas Trucking, Inc.",1363 Lily Ln,Greenville,IL,62246,618-664-0949
Jarrett Trucking,11136 Darrell Rd,Dawson,IL,62520,217-364-5623
Eddy Trucking,14077 Black Stone Dr,South Beloit,IL,61080,815-289-0488
Buzzard Trucking,Rt 2 Box 227,St Elmo,IL,62458,618-829-5521
T D H Transport,26230 E Cr 1400 N,Easton,IL,62633,309-363-5520
Lonehill Farms,28417 North 2200 Ave,Annawan,IL,61234,309-935-6540
The Utltimate Backyard Company,2239 N Rand Rd,Palatine,IL,60074,847-514-9528
Cunningham Trucking,586 N Dean St,Bushnell,IL,61422,309-255-8191
Embassy Coffee Service,3175 Macarthur Blvd,Northbrook,IL,60062,847-291-0470
River Rock Logistics,851 Locust St,Lanark,IL,61046,815-493-2177
Moore Transport,Rt 1 Box 88,Thebes,IL,62990,618-776-6105
Ray's Sureshot,16 W 115 83rd Street #2,Burr Ridge,IL,60527,630-887-0265
"Johnson Golf Course Construction, Inc.",4043 4th Street A,East Moline,IL,61244,309-792-2805
"Icc, Inc.",344 St Paul Blvd,Carol Stream,IL,60188,630-682-9300
"Pack & Load Moving Services, Inc.",3344 S Carpenter St,Chicago,IL,60608,773-927-2356
Premier Transport Solutions,618 7th Ave,Fulton,IL,61252,563-249-6208
Jubilee Hills Trucking,16503 West Us Highway 150,Brimfield,IL,61517,309-446-9532
Dodds Transportation,18950 N 400th Road,Adair,IL,61411,309-254-3666
Royl L Horn Trucking,262 N Appleton Rd,Olney,IL,62450,618-843-9301
Olson Farm Trucking,2709 East 28th Road,Marseiles,IL,61341,815-357-6578
Cruz Transport,3945 So Archer Ave,Chicago,IL,60632,773-247-3244
Johnson's Trucking,2748 N 1500 E County Rd,Mahomet,IL,61853,217-766-6061
"Root Trucking, Inc.",219 West Charles,Plano,IL,60545,630-327-8095
Mws Trucking & Son,906 W Hudson,Princeton,IL,61356,815-915-3824
K C Delivery,1832 42nd St,Rock Island,IL,61201,309-786-4356
Bluff Lake Transport,41304 State Hwy 3,Mcclure,IL,62957,618-661-1279
Jeremiah Weaver Trucking,Route 3 Box 126,Mcleansboro,IL,62859,618-599-4300
L & L Sharp Trucking,204 Illinois St,Karnak,IL,62956,618-634-9600
Ted A Watts Trucking,112 Third Street,Hamel,IL,62046,618-633-2314
Nelson Trucking,129 Charing Cross Rd,Lombard,IL,60148,630-629-6835
L & G Trucking,310 W Hanover,New Baden,IL,62265,618-588-3669
Brooks Trucking,106 S Jefferson,Ellsworth,IL,61737,309-275-9721
R & R Transport Services,3216 Phillips,Steger,IL,60475,708-935-2942
Minter Trucking,301 West Main Street,Monroe Center,IL,61052,815-739-4512
Lar-jon Transport,1244 North Mason Street,Chicago,IL,60651,773-379-1810
Birkbeck Farms - Council Hill Transport,7958 Council Hill Road,Galena,IL,61036,815-777-3167
Cory Quinn Trucking,19157 State Hwy 109,Jerseyville,IL,62052,618-498-7295
Jbt,10604 South Mayfield,Chicago Ridge,IL,60415,708-423-1816
Sellers Trucking,24 Champaign St,Westville,IL,61883,217-799-1099
"Mr Ike's Transportation Services, Inc.",2931 201st Place,Lynwood,IL,60411,707-889-1491
Durango Overland Express,1260 Olive Road,Homewood,IL,60430,970-946-3894
Meridian Express,2200 South Loomis St,Chicago,IL,60608,312-432-0270
Mueller's Excavating & Truck Center,Route 31 Box 8813,Cary,IL,60013,847-658-8094
D&r Trucking,3225 Friendship Loop,Goreville,IL,62939,618-995-1463
A J Trucking,1888 County Road,Greenup,IL,62428,217-923-3765
G & R Transport,514 Wolf Road,Avon,IL,61415,309-465-7642
Tanguay Truck And Transport,8726 S 81 St Avenue,Hickory Hills,IL,60457,708-430-1762
Acffc Transportation Services,7410 Westchester Drive,Belleville,IL,62223,618-397-2233
Rlw Trucking,Route 2 Box 36a4,Brownstown,IL,62418,618-292-1809
Angus Trucking,9202 Best Road,Pecatonica,IL,61063,815-703-6438
Tnt Transportation & Logistics,3259 W North Ave,Chicago,IL,60647,310-516-0065
Wagoner Trucking,714 N Main,Georgetown,IL,61846,217-662-2001
Shaver Trucking And Dump Service,4381 State Rt 162,Pontoon Beach,IL,62040,618-797-3331
Gregory Lowe Trucking,4140 Berkeley,Chicago,IL,60653,773-931-6945
Bob Midgett Trucking,3193 Wards Mill Rd,Marion,IL,62959,618-996-3431
Bourlands Trucking,5813n Wacker Dr,Peoria,IL,61615,309-692-4168
Brandt Farms,3365 Brandt Road,Fults,IL,62244,618-458-6860
Darryl Davis Trucking,Us Rt 54,Rockport,IL,62370,217-437-2023
Arcuri Cartage,35 East Monterey,Schaumburg,IL,60193,847-891-1987
C & L Trucking,Rr1 Box 196,Brownstown,IL,62418,618-829-5222
Dr Evil Performance Transmissions,731 Lunt Avenue,Schaumburg,IL,60193,847-524-4857
"Nova Express, Inc.",8156 W Walsh Ln,River Grove,IL,60171,708-453-3437
Franco R L Trucking,510 Barrette St,Elgin,IL,60120,224-628-4402
Mass Transportation,1940 Milligen Hill Rd,Alto Pass,IL,62905,618-889-8755
Jennings Tire & Auto Repair,290 Colfax Street,Tunnel Hill,IL,62972,618-658-2886
Alan Dryer,15931 N 2300 East Rd,Merna,IL,61761,309-261-0985
Miro Trucking,649 Kingsbrook Crossing,Bolingbrook,IL,60440,630-378-3688
Mile By Mile Express,142 Park Hill,Carol Stream,IL,60188,630-510-2769
S & R Trucking,113 Constatine Street,Bloomington,IL,61704,309-827-3445
R & W Auto Transit,1502 N Olive,Flora,IL,62839,618-838-9105
American Container Net,7664 Plaza Court,Willowbrook,IL,60527,630-321-2012
Lil Bo's Tow,15000 Schumm,Manito,IL,61546,309-241-6344
Slm Transportation,345 Magnolia,Louisville,IL,62858,618-665-3079
Nevarez Trucking,1320 N 33rd Ave,Melrose Park,IL,60160,847-606-5381
R & R Transport,15749 E 1200th Ave,Teutopolis,IL,62467,217-857-1651
Cartwright Trucking,324 W Hudson St,Princeton,IL,61356,815-875-4029
Christophor C Conway,10 South Vine,Grafton,IL,62037,618-786-2527
Todd's Transmission & Repair,2507 4th St,Fulton,IL,61252,815-589-2039
B W Lowe Trucking Co,1801 North State Route 1 Suite 3,Watseka,IL,60970,815-432-3082
Aim Transportation,4001 Olympic Blvd,Joliet,IL,60431,815-207-4508
Metro East Transport & Recovery,307 Railroad Avenue,Collinsville,IL,62234,618-410-4743
Big's Car & Truck Hauler,956 Olive Road Unit 3d,Homewood,IL,60430,708-799-9430
Krause Enterprises,937 Clearbrook Pk Drive,Mundelein,IL,60060,847-561-7214
Nelson Farms,1022 Oklahoma Hill Road,Columbia,IL,62236,618-286-4192
Ltl Express,4100 R Road,Waterloo,IL,62298,618-410-7964
Pieper Trucking,111 Knox Road 650 North,Abingdon,IL,61410,309-462-2867
Schultz Handy Transport,28126 S 120th Avenue,Peotone,IL,60468,815-478-4775
T & K Trucking,29770 White Oak Drive,Mackinaw,IL,61755,309-359-8953
Winters Express,1229 W 3rd Street,Milan,IL,61264,309-787-7421
Wilson Trucking,4408 N Ridge Rd,Noble,IL,62868,618-723-2761
Double C Trucking,6309 South Barrett St,Downers Grove,IL,60516,630-964-4751
Comstock Trucking,402 E Monroe,Paris,IL,61944,217-466-2602
Double Creek Trucking,404 Hilldale,Washington,IL,61571,309-444-9712
Auto One Motor Company,5330 N Belt West,Belleville,IL,62226,618-277-7200
Shankel & Sons Trucking,1202 3rd Avenue,Sterling,IL,61081,815-622-5014
Ben Drinsky Express,901 W Cermak Rd Apt 1,Broadview,IL,60155,708-508-1318
Access Services,3217 Hopkins Avenue,Steger,IL,60475,708-743-6445
Abba Trucking,2509 Pell Road,Brookport,IL,62910,618-564-2464
Michelle Fredericks Trucking,5413 Il Rt 84,Thomson,IL,61285,815-259-6380
Deadline Express,5251 Harlem Ave,Chicago,IL,60153,773-807-0101
C R Smith Trucking,404 S Clinton St,Bunker Hill,IL,62014,618-585-6708
Gibson Son Trucking,3317 East 2059 Road,Ottawa,IL,61350,815-434-4387
William Hood Trucking,6175 N 2700 E Rd,Leroy,IL,61752,309-962-9600
"All Road, Inc.",6468 W North Ave,Chicago,IL,60707,773-988-8886
Strohl Transportation Company,Rr 2 Box 325,Shelbyville,IL,62565,303-229-7193
Rjm Transport Corp,281 Brashares,Addison,IL,60101,630-628-8110
Iti Transport,1225 Bryn Mawr,Itasca,IL,60143,630-775-9900
Ces Tire Service,4140 Spring Center Rd,Belvidere,IL,61008,815-703-2213
Inabit Services,212 Dodge St,Peoria,IL,61602,309-696-1350
Dewitt Trucking,1235 E 2000th St,Liberty,IL,62347,217-645-3970
Koerner Transportation,1152 Illinois Rte 127,Greenville,IL,62246,618-972-0772
Jerry White Trucking,18252 N Livingston Road,Marshall,IL,62441,217-826-2424
Larsen Trucking,5161 Hummingbird Trail,Lovespark,IL,61111,815-703-5871
Bill Martin Trucking,1395 Morgan Sangamon Rd,New Berlin,IL,62670,217-478-4691
Randy Beyer Trucking,7283 E Thoren Rd,Elizabeth,IL,61028,815-598-3141
Eggen Transport,1961 120th Avenue,Aledo,IL,61231,309-582-7664
Turbo Transport,1305 James St,Streator,IL,61364,815-673-4020
Baumgart Trucking,678 County Rd 1725 East,Carmi,IL,62821,618-968-2483
Cardinal Delivery,4695 Battleford Rd,Stonefort,IL,62987,618-994-2721
Frank Davis Trucking,13932 Christmas Tree Rd,Johnston City,IL,62951,618-964-4707
Calavera Transportation,6227 S Massasoit Avenue,Chicago,IL,60638,773-744-7137
Robinson Trucking,1208 East Thompson,Hoopeston,IL,60942,217-283-7641
"Damian Trucking, Inc.",5636 W 84th Street,Burbank,IL,60459,708-423-6998
Hmx Delivery,4304 Kendall Road,Winnebago,IL,61088,815-335-1970
Casas Trucking,818 1st Ave,Silvis,IL,61282,309-269-4142
Sns Transport,212 E First Street,Cutler,IL,62238,618-497-8360
Bultrans Express,1458 Crowe Ave,Deerfield,IL,60015,847-572-9437
Brainard Transport,415 E Hamilton St,Odell,IL,60460,815-252-0715
Watsons Trucking,8917 South Sacramento,Evergreen Park,IL,60805,708-422-9590
Auto Express,300 Washington Street,South Roxana,IL,62087,618-254-3300
J E Johnson Trucking,4525 S Laramie,Chicago,IL,60638,773-284-7069
A & Y Transport,5730 W 82nd Str,Burbank,IL,60459,708-907-5663
S Conde Carriers,21 East 138 Street,Riverdale,IL,60827,708-705-2969
Trampala Contracting,510 W Broadway,Mchenry,IL,60051,847-497-9700
J Line Transport,12600 South 74th Avenue,Palos Heights,IL,60463,708-448-4347
Profit Maintenance Delivered,561 N Kansas,Edwardsville,IL,62025,618-656-3193
Schoellermann Trucking,339 43nd Ave,East Moline,IL,61244,309-796-9807
Brad Bergschneider Trucking,700 Mcneeley Road,Franklin,IL,62638,217-675-2405
Lambert Trucking,2664 Missouri Ave,Granite City,IL,62040,618-451-0414
Skirvin Trucking,280 E 2400 St,Barry,IL,62312,217-335-2603
Regina Trucking,721 25th Ave,Roseville,IL,61473,309-774-4156
Mg Trucking,14325kilbourn,Midlothian,IL,60445,708-388-1971
Cory Bourquin Trucking,5270 N Broadway Rd,Apple River,IL,61001,815-594-2480
Jarosz Trucking,8308 W Oak Avenue,Niles,IL,60714,847-803-4414
Barbara Munch Trucking,219 S State St,Poplar Grove,IL,61065,815-765-9978
Btl,653 Academy Drive,Northbrook,IL,60062,847-509-9955
Alcaraz-vargas Trucking LLC,1703 So Arago St,Peoria,IL,61605,309-550-6753
"Stanford & Son, Inc.",1019 East Benton,Aurora,IL,60505,630-820-5819
Geneos Hauling,91a County Rd 150n,Teutopolis,IL,62467,217-844-4438
J L Coble & Sons Oilfield Service,7505 Old Highway 50,Flora,IL,62839,618-662-5239
Rds,# 6 Dogwood,Carrolton,IL,62016,618-779-2608
G Chaidez Trucking,3205 N Dora,Franklin Park,IL,60131,847-928-2811
"Charleemick Trucking, Inc.",708 S Calumet,Marion,IL,62959,217-377-0863
Etherton Trucking,1546 Cr 1800 N,Sullivan,IL,61951,217-254-9114
Hitchcock Trucking,402 N Swift St,Winnebago,IL,61088,815-703-8601
Ryan Britton Farms,620 Olmsted Road,Villa Ridge,IL,62996,618-342-6651
Bag Transport Services,16249 Hamilton Ave,Tinley Park,IL,60477,708-633-0469
Cross Roads Transport,5500 State Rt 177,Okawville,IL,62271,618-243-6516
Neal & Son Trucking,2225 Loganberry Lane,Joliet,IL,60433,815-726-4072
Rd Trucking,408 East Archer,Laharpe,IL,61450,217-659-3780
Huzar Express,513 Washington Sq,Wood Dale,IL,60191,630-656-8537
Oggies Transport,Rr 2 Box 262b,Shelbyville,IL,62565,217-774-4700
Adams Transports,21100 Walcott Rd,Carlyle,IL,62231,618-749-2199
Meyer Trucking,Rr 1 Box 75b,Kinderhook,IL,62345,217-432-1142
Drum Trucking,18 Massie Drive,Toledo,IL,62468,217-849-3580
Rick Harris Trucking,491 Cr 400 N,Sadorus,IL,61872,217-598-2401
C 1 Transport,5665 Old Cape Road,Jonesboro,IL,62952,618-833-2207
Tpa Trucking,3130 S St Louis Ave,Chicago,IL,60623,773-376-8450
"Zuno Transportation Services, Inc.",14812 Independence Court,Plainfield,IL,60544,815-577-5419
Fitzpatrick Back Hoe Service,1398-265 Street,Sharrard,IL,61281,309-754-9007
Kohl's Kartage,211 W Lincoln Road,Mchenry,IL,60051,815-759-0375
Mar-lin Delivery,2670 Greenleaf,Elk Grove,IL,60007,847-593-0416
"Jazzee Trucking, Inc.",4621 South Leclaire,Chicago,IL,60638,773-905-8517
J And S Trucking,302 E Palm St,Roodhouse,IL,62082,217-589-4529
Pete Hanley,1400 Chestnut St,Ottawa,IL,61350,815-735-6812
Ms Freight,125 Flora Ave,Glenview,IL,60025,847-834-0023
Robinson Trucking,25304 N Cr 2500 E,Manito,IL,61546,309-968-3089
Lee Markert Trucking,Rr #1 Box 29,Timewell,IL,62375,217-773-2442
"Als Trucking, Inc.",10918 South Beverly Avn,Chicago,IL,60643,773-238-9682
Tbonn Trucking,6 North State Street,Freeburg,IL,62243,618-539-9818
On Call Transportation,9925 Farley Lane,Gillespie,IL,62033,618-362-6454
James Bolton Trucking,963 Poplar,Shawneetown,IL,62984,618-269-3575
M & S Trucking,25722 South Linden Ave,Monee,IL,60449,708-534-8340
B & M Charter Services,6636 S Greenwood Apt 2b,Chicago,IL,60643,773-288-0114
Mts Trucking,22074 E Cr 1700 N,Oakland,IL,61943,217-346-2519
Heston Trucking,14 Sunny Lane,Pinckneyville,IL,62274,618-525-0006
"B&l Transaportation, Inc.orporated",226 Tyler Creek,Gilberts,IL,60136,847-426-2810
Maurer Wrecker,105 W Franklin,Carlock,IL,61725,309-376-3731
Great Northern Trucking,3309 Chapel Hill Rd,Mchenry,IL,60050,815-719-0758
Steve Meade Trucking,8542 E 1425 N Rd,Fairmount,IL,61841,217-733-2831
J & P Trucking,Rr#1 Box 189,Ramsey,IL,62080,618-292-7256
Cripe Trucking,1101 Red Ball Trail,Greenville,IL,62246,618-664-3352
Richard J Stehman Dba,105 South Seminary Street,Collinsville,IL,62234,618-344-0287
Gibson Trucking,15938 2200 N Avenue,Princeton,IL,61356,815-878-9561
Wettstein Bros Trucking,825 County Road 1850e,Eureka,IL,61530,309-467-2588
Bell Trucking,1184 Route 30,Dixon,IL,61021,815-284-0377
Gardner Trucking,5077 Fleur De-lis Road,Coulterville,IL,62237,618-758-1304
Buhs Farm Trucking,130 N Church,Gibson City,IL,60936,217-784-8773
J & J Trucking,31 Cedar St,Minooka,IL,60437,815-886-8534
Hazelwood Trucking,344 Washington St,Winchester,IL,62694,217-371-2540
Daniel L Beutke Trucking,2953 E 2550 N Rd,Long Point,IL,61333,815-822-2360
Calhoun Trucking,10113 S Beverly Avenue,Chicago,IL,60643,773-779-1212
Bill Whitaker's Collectibles & Hauling,30392 N 575 East Road,Streator,IL,61364,815-257-6548
Kessler Trucking,Rr 1 Box 44,Stewardson,IL,62463,217-682-3322
Hubner Trucking,30922 Grandview Terrace,Mackinaw,IL,61755,309-359-8330
"Lt Express,, Inc..",5240 West 47th Street Suite # 3,Forest View,IL,60638,877-594-8775
E & T Trucking,101 Cedarwood Ave,Bolingbrook,IL,60440,630-783-0681
Marty May Farms,1780 Cord 925n,Greenup,IL,62428,217-923-5016
"Gromex Transportation, Inc.",600 Kenilworth Ave,South Elgin,IL,60177,847-608-6660
Holt Trucking,204 Joliet Ct,East Peoria,IL,61611,309-370-7312
Ohl Distributing,1600 Wayne Lanter Avenue,Madison,IL,62060,618-452-9500
Camb Farms & Trucking,5920 E Pleasant View Road,Rock City,IL,61070,815-266-9223
A-1 Services,195 Fair City Road,Jonesboro,IL,62952,618-833-9755
J And J Trucking,6483 Perry County Line Road,Coulterville,IL,62237,618-317-2501
Richard E Kesterson Trucking,371 E Springfield,Virginia,IL,62691,217-452-3984
Tlc Transport,5332 W Congress Apt 221,Chicago,IL,60644,773-251-9964
Bosshart Trucking,6245 W Pines Rd,Oregon,IL,61061,815-946-3856
Joe Walsh Trucking,Rr 2 Box 84,Farmer City,IL,61842,309-928-2220
P & K Trucking,2831 Ruby St,Franklin Park,IL,60131,847-451-9717
Robert And Corey Ranken Trucking,5543 Mulford Road,Rochelle,IL,61068,815-384-5101
Pony Express,1407 W Willcox Ave,Peoria,IL,61604,309-713-3461
"Jackson Moving Services, Inc.",740 Frontenac,Naperville,IL,60563,630-357-4400
Paul Radtke Trucking,15490 Plank Road,Sycamore,IL,60178,815-895-9360
L Vaughn Trucking,405 South Front Street,Kansas,IL,61933,217-948-5291
Bob & Glenda Persinger Trucking,4899 East Wayne Lane,Parkersburg,IL,62452,618-442-5240
H E Hooven,25 Hancock Drive,Villa Grove,IL,61956,217-832-3704
Kimz Trucking,17 Main St Apt 1,Jacksonville,IL,62650,217-243-5150
Boris Cvijetic,208 Long Ave,North Aurora,IL,60542,630-525-1019
M & D Trucking,Rr 2 Box 116,Vandalia,IL,62471,618-283-3649
B G Trucking,510 S Illinois,Streator,IL,61364,815-822-4093
Rogers Trucking,154 East Dunn,Macon,IL,62544,217-972-4761
Mjk Trucking,7041 Dralle Road,Monee,IL,60449,708-534-2090
Fultz Custom Service,27097 2300 E Street,Ohio,IL,61349,815-380-5220
Wayne Beckert Trucking,1621 Ripson Bridge Ave,Sorento,IL,62086,217-537-3975
Piper Trucking,Rt3 Box147 A,Roodhouse,IL,62082,217-589-5386
Curry's Transport,15479 Willis Rd,Benton,IL,62812,618-439-3100
Am Trucking,7121 Summit Rd,Darien,IL,60561,847-922-5370
Byczek Delivery Service,3627 S Normal Avenue,Chicago,IL,60609,773-924-0466
Laible Trucking,314 E Parkside Drive,Washburn,IL,61570,309-248-7605
Reedy Trucking,10950 N 1700 Th Rd,Macomb,IL,61455,309-255-8042
R W Services,303 E Center,Bellflower,IL,61724,309-722-3368
Thurman Trucking,558 Knox Rd 1400e,Maquon,IL,61458,309-875-3387
Ve Watkins Trucking,1767 County Rd 1220 N,Lacon,IL,61540,309-364-3505
Mar Trucking,1949 N 19th Ave,Melrose Park,IL,60160,773-447-4215
Gerald L Weaver Trucking,22724 Oak Hill Road,Ewing,IL,62836,618-218-6923
M D Hunt Transport,15628 2600 North Ave,Walnut,IL,61376,815-878-9434
Midnight Transport,260 St Andrews Dr,Boilingbrook,IL,60440,630-739-3423
M & M Logistics,8820 State Route 147,Simpson,IL,62985,618-695-3360
Gary Mason Trucking,4379 Berger Lane,Beardstown,IL,62618,217-323-1873
"Acm Distributing, Inc. Oc",406 North Iowa Ave,Streator,IL,61364,815-673-2337
C A Trucking,400 W Mt Vernon,Metamora,IL,61548,309-253-5827
Cusic Specialized Transport,2695 Douglas Road,Eldorado,IL,62930,800-383-7785
"Hpt, Inc.",8661 1/2 W Foster #3b,Chicago,IL,60656,773-732-6604
Blue Sky,350 Randy Rd Unit 5,Carol Stream,IL,60188,630-260-5122
D Sublett & Son,9604 Alden Road,Harvard,IL,60033,815-648-2802
Doug Palmer Trucking,2176 N County Road 2980,Blandinsville,IL,61420,309-652-3383
Wesco Courier,903 Atlantic Dr,West Chigago,IL,60185,630-639-5124
"A & S Home Express, Inc.",2003 Serenity Lane,Woodstock,IL,60098,815-206-1021
John Mullen Trucking,201 Elevator Road,Ashland,IL,62612,217-726-8689
T & M Trucking,485 East 1900th Street,Plainville,IL,62365,217-656-4076
"Rvm Transport, Inc.",400 W Rea St,Valier,IL,62891,618-554-4520
Hip Transport,903 Singer Ave,Lemont,IL,60439,708-533-8690
Garner Trucking,9541 Ishmael Rd.,Green Valley,IL,61534,309-348-2133
Drw Enterprises,3920 49th Ave,Moline,IL,61265,309-743-0579
Ezell Excavating & Trucking,1574 Co Road 100 N,Villa Grove,IL,61956,217-832-9066
Dirt Works,314 W Grove Avenue,Rantoul,IL,61866,217-893-9571
Rob Sherman Delivery,778 Stonebridge Lane,Buffalo Grove,IL,60089,847-870-0700
M G Trucking,21089 Davis Drive,Malta,IL,60150,815-825-2025
Feenstra Trucking,18724 Sara Road,Mokena,IL,60448,708-479-1049
J & J Trucking,205 E North Ave,Sumner,IL,62466,618-936-2979
"Globetrotter Cargo, Inc.",610 68th St,Willowbrook,IL,60527,909-647-5503
Jn Trucking,515 S Pearl St,Griggsville,IL,62340,217-836-2428
Rex Huff Trucking,1710 N State St,Marion,IL,62959,618-998-0343
Gerdes Transportation Services,5161 North 950th Street,Mason,IL,62443,217-821-9645
Direct Auto Transport,9014 Laramie,Skokie,IL,60077,847-652-7388
Riley's Trucking,3210 N Elmcroft Terrace,Peoria,IL,61604,309-472-1586
K &k Delivery,1951 Hope Court,Lynwood,IL,60411,708-757-9787
Slade Trucking,16341 North 970 East Road,Oakwood,IL,61858,217-304-7699
D Butler Trucking,35586 State Hwy 107,Griggsville,IL,62340,217-236-3310
Fulton Trucking,1761 N 40th,East Saint Louis,IL,62204,618-482-5405
Steve Morris Trucking,Rural Route 1 Box 383-d,Vandalia,IL,62471,618-283-4538
"Ok Express, Inc.",437 Hanging Rock Rd,Flora,IL,62839,618-662-9179
Eaton Transport,106 Edson Circle,Poplar Grove,IL,61065,815-765-3624
Roseme Trucking,4713 Elkville Road,Vergennes,IL,62994,618-319-3427
Jmatt Wrecker Service,200 E Main,Hoopeston,IL,60942,217-283-4600
Cross Roads Trucking,606 Woodridge Dr,Rockford,IL,61108,815-997-7270
Sunstone Home Builders,11510 Maple Street,Hebron,IL,60034,815-648-4444
Willie B & Sons Trucking,1112 N Wasson St,Streator,IL,61364,815-672-6389
Kmt Enterprises,304 Liberty Street,Yorkville,IL,60560,630-553-5101
M&d Trucking,324 Railroad St,Earlville,IL,60518,815-246-8801
Auto Transport Services,3132 Willow,Granite City,IL,62040,618-223-7847
Brad Boeding Trucking,39 Ponderosa Rd,Rushville,IL,62681,217-491-4587
W P Trucking,107 West Center St,West Point,IL,62380,217-743-5574
Mark Hansen Trucking,26031 Il Hwy 92,Van Orin,IL,61374,815-866-4461
Potter Trucking,14758 Long Road,Danville,IL,61834,217-446-8609
Bogy's Enterprise,11325 S Marathon Lane,Plainfield,IL,60585,630-639-1515
7737338309,6905 N Avers Ave,Lincolnwood,IL,60712,847-983-4863
Heller Trucking,3381 N Broadway Rd ,Apple River,IL,61001,815-541-1919
A & R Trucking,1921 North Saint Louis Avenue,Chicago,IL,60647,773-457-6090
D And C Transport,16095 East 400 Avenue,Dieterith,IL,62424,217-663-0296
Kesterson Trucking,121 West Hardin,Virginia,IL,62691,217-371-2518
Ei Logistics,2300 E Higgins Road Suite 205,Elk Grove Village,IL,60007,847-690-9834
Tgv Transport,4317 Mckenzie St,Coello,IL,62825,618-663-3096
Larry Allen Trucking,551 State Hwy 40,Speer,IL,61479,815-878-7539
Djb Trucking,6275 E 8000 N Rd,Manteno,IL,60950,815-468-1933
Joseph Miller Trucking,122 W Main Street,Wyanet,IL,61379,815-519-7037
Quggie Transportation,24254 S Volbrecht Rd,Crete,IL,60417,708-243-3987
Simmons Trucking,Rr 1 Box 276,Geff,IL,62842,618-854-2329
Miracle Transport,361 Founders Way,Park Forest,IL,60466,866-873-0713
Trucking,3910 S Loomis,Chicago,IL,60609,773-843-3504
Mizeur Farms,1978e 1200n Rd,Taylorville,IL,62568,217-226-4382
Ce & Je Hunt Farms,26318 E Cr 1600 N,Oakland,IL,61943,217-346-2996
R & J Wood Trucking,3614 36th Street,Moline,IL,61265,309-230-4815
Lowery Logistics,29 Pulaski,Calumet City,IL,60409,708-890-1798
Conaway Trucking,30419 120 Ave West,Illinois City,IL,61259,309-537-3324
Tiger,7908 W 111th Pl,Palos Hills,IL,60465,630-270-2100
Shilex Transport,2804 E 2525th Rd,Marseilles,IL,61341,815-382-4691
"M O B Transportation, Inc.",1207 Gould,Joliet,IL,60432,815-744-1567
Response-express,20170 Crystal Lake Way,Frankfort,IL,60423,630-257-9311
Edingtons Wrecker Service,1914 N Industrial Drive,Marshall,IL,62441,217-826-2621
Tipsword Express,7 South Oak St,Villa Grove,IL,61956,217-766-3956
Tonys Trucking Co,279 East 148th Street,Harvey,IL,60429,708-288-9872
Wkp Transfer,2006 Griswold Street,Peoria,IL,61605,309-677-5833
Cabrera Trucking,849 Lepere Ave ,St Louis,IL,63132,312-545-0970
Hosanna Transport,1-s 280 Holyoke Ln,Villa Park,IL,60181,708-344-1606
Brooks Trucking,505 North Buchanan Street,Heyworth,IL,61745,309-473-3076
Nungesser Trucking & Excavating,13528 St Rose Rd,Highland,IL,62249,618-781-4797
Log Erection Services,1989 County Road 900 N,Greenup,IL,62428,217-923-5595
Jmr Transport,25 W Fullerton,Addison,IL,60101,773-327-8776
New Line Freights,6305 West Ogden Avenue,Berwyn,IL,60402,708-243-6117
"Hy Tech Specialized Services, Inc.",4201 Sand Hill Road,Springfield,IL,62702,217-528-7616
Future Automotive,70 East Hintz Road,Wheeling,IL,60090,847-419-9014
Twin Lakes Auto,1977 E 600 N Road,Paxton,IL,60957,217-379-9140
Caudle Trucking,18670 Leefers Road,Raymond,IL,62560,217-494-8848
Dikkers Trucking,6539 West Rink Rd,Lena,IL,61048,815-369-4667
Vincent Trucking,13926 Illinois Highway 81,Cambridge,IL,61238,309-937-2236
Gnls Trucking,21448 Franklin Circle,Plainfield,IL,60544,815-372-0244
"Transport America, Inc.",2656 W Montrose,Chicago,IL,60618,773-588-7937
Bruniga Trucking,211 North Grove,Milford,IL,60953,815-889-5233
B & T Trucking,327 South Walnut St,Mount Carmel,IL,62863,618-262-5906
Bogdan Soltys Trucking,4152 C Cove Lane,Glenview,IL,60025,847-298-6943
Ftta Trucking,622 North Avon,Rockford,IL,61101,815-964-8509
Paul Guy Trucking,5779 E River Rd,Ridott,IL,61067,815-232-5172
Tyrone's Trucking,2030 N 36th St,East Saint Louis,IL,62204,618-274-9477
Manal Express,2337 Linden Ave,Waukegan,IL,60087,847-971-8682
J L Trucking Service,11455 Plum Hill Church Rd,Addieville,IL,62214,618-434-7989
"Donku Trucking, Inc.",10 S 351 Argonne Ridge Rd,Hinsdale,IL,60521,630-920-0833
Roberts Used Auto Parts,R R 1 Box 108c,White Hall,IL,62092,217-374-6194
"Express Trucking Service, Inc.",20 W. 109th Street,Chicago,IL,60628,773-785-3902
Connector Service Corp,9200 W Belmont Avenue,Franklin Park,IL,60131,956-782-9017
M & M Trucking Service,Rr 2 Box 206,Jerseyville,IL,62052,618-498-6732
"Law Ready Mix, Inc.",510 E Benton St,Mount Carroll,IL,61053,815-244-2653
C F Baker Trucking,7790 S 10000 W Rd,Herscher,IL,60941,815-426-2740
M Cluver Milk Transport,606 N Glover Ct,St Joseph,IL,61873,217-469-2560
Blue Line Freight Systems,412 North Seymour,Mundelein,IL,60060,847-838-5466
Steder Trucking,200 W Veterans Parkway,Rochelle,IL,61068,815-561-8600
Sm Marina Trans,104 Jennifer Drive,Mahomet,IL,61853,270-577-2117
Vmh Trucking,1337 Herman St,Romeoville,IL,60446,815-293-1330
Gonet Logistics,230 Evergreen Ave Unit1,Bensenville,IL,60106,630-595-7382
M & M Trucking,4845 W 24th Place,Cicero,IL,60804,708-863-0819
Mcbride Trucking,1st & Railroad Street,Kennesburg,IL,62852,618-298-2254
Zion Trucking,505 E Monroe,Olney,IL,62450,618-392-2183
Paulsmeyer Trucking,24336 West 10th Street Road,Centralia,IL,62801,618-495-2564
Daniel E Eastman Trucking,905 79th Avenue West,Rock Island,IL,61201,309-756-0064
Youngmark Trucking,504 Dori Ct,Pecatonica,IL,61063,815-239-9205
Shawnee Transport & Leasing,14828 Chicago Road,Dolton,IL,60419,708-849-1911
"El Jarocho, Inc.",211 South Watermarket,Chicago,IL,60608,312-455-2709
T R Worrick Trucking,105 Walnut,Chillicothe,IL,61523,309-274-6356
Eastham Trucking,212 Chestnut Street,Paris,IL,61944,217-712-0185
Larson Excavating,13682 Willow Brook Rd,Roscoe,IL,61073,815-601-4774
Auto Antiques,313 West Colfax,Palatine,IL,60067,N/A
Lyons Trucking Company,7045 South Constance,Chicago,IL,60649,773-667-8191
Superior Transfer,7425 Terrace Dr,Justice,IL,60458,708-642-6862
Schlueter Enterprises,11038 N Pleasant Hill Rd,Dakota,IL,61018,815-789-4266
Morhardt Trucking,301 S Miller Street,Mount Carroll,IL,61053,815-244-4289
Steininger Trucking,340 Globe Rd,Earlville,IL,60518,815-246-6117
Honest Haulers,305 W Park Ave,Sheridan,IL,60551,815-431-0253
Wayne Durbin Transportation,109 N Pine,Stewardson,IL,62463,217-682-3815
Mcleod Trucking,4010 Blackhawk Road,Rock Island,IL,61201,309-788-5880
Culligan,9399 West Higgins Road / Suite 1100,Rosemont,IL,60018,847-430-2800
Foster Trucking,4873 Oil Valley School Rd,Thomson,IL,61285,815-259-8282
Heininger Self-service Storage,906 Tonsor Road,Alton,IL,62002,618-462-2684
Jeff Landes Trucking,506 Il St,Alma,IL,62807,618-547-3282
P & A Vantiger Trucking,365 6th St,Pontoosuc,IL,62330,309-755-7880
Leverton Trucking,706 N Warren Ave,Freeport,IL,61032,N/A
Gradert Trucking,865 Meadow Lawn Drive,Genesco,IL,61254,309-755-7550
Kreke Trucking,18479 E State Highway 33,Teutopolis,IL,62467,217-857-3632
Waste Division,1750 S Kilbourn,Chicago,IL,60623,773-277-9905
Area Rigging & Millwright Service,5894 Sandy Hollow Road,Rockford,IL,61109,815-874-5300
Carroll & Carroll Transportation,12633 S Edbrooke,Chicago,IL,60628,773-206-0760
M D Turner Transport,9712 South Merrill Avenue,Chicago,IL,60617,773-734-2513
Brugger Trucking,248 Doza Creek Rd,Marissa,IL,62257,618-295-2742
K Hauling Service,1409 W Illinois Route 72,Leaf River,IL,61047,815-738-2947
Nor Way Trucking,136 Eastwood Lane,Barrington,IL,60010,847-922-7425
William Randolph Trucking,7860 Hwy 146 W,Jonesboro,IL,62952,618-833-7125
"More Ton Trucking, Inc.",8921 Oriole,Morton Grove,IL,60053,847-420-0605
J O Trucking,Rr 1 Box 138,Elpaso,IL,61738,309-527-3356
Lowery Transport,2500 Light Rd #204,Oswego,IL,60543,630-554-7436
Cozart Trucking,6194 Tudor Lane,Loves Park,IL,61111,815-232-6065
Gilmore Trucking,15524 N 1100 Ave,Granville,IL,61326,815-579-1359
R J L Distributing,327 Walnut Street,Carrollton,IL,62016,217-942-9814
Kl Trucking,910 S Chester,Steeleville,IL,62288,618-317-1878
Combined Partners,Box 66328,Chicago,IL,60666,847-614-2288
Britt Hazelwood Trucking,Rt 1 Box 103-2,Grafton,IL,62037,618-786-3227
Janssen Trucking,437 E 3300 N R,Herscher,IL,60941,815-426-2372
Wizzard Deliveries,636 Yucca Tr,Rockford,IL,61102,815-963-3994
D & D Trucking,2360 31 St St,Moline,IL,61265,309-797-5207
Sanders Trucking,2022 School St,Rockford,IL,61101,815-968-2192
Edward Culjan Trucking,58382285 North Avenue,Sheffield,IL,61361,815-445-6454
Kerk Transport,11701 S Ridgeland Ave,Worth,IL,60482,708-448-1690
Dylan Transport,18143 Millcreek Lane,Girard,IL,62640,217-627-2510
Mustang Express,11 Timber Lane #5,Vernon Hills,IL,60061,847-816-9227
Landover Express,16770 Highway 20 East,East Dubuque,IL,61026,815-747-6129
Walbridge Equipment Installation,1275 Aurora Ave Lane,Aurora,IL,60505,630-906-6860
Anchor Express,831 Schomer Road,Aurora,IL,60505,630-844-0741
Printz Farms,19990 E 260 North Rd,Fairbury,IL,61739,309-377-3161
North Freight Express,2431 S Sawyer,Chicago,IL,60623,773-251-2837
Islam Trucking,7000 W Mather Ave,Chicago Ridge,IL,60415,708-227-5770
Don's Trucking,315 N Charles St,Naperville,IL,60540,708-309-5768
Youngster Trucking,616 Edgar,Mattoon,IL,61938,217-258-8854
F & P Trucking,2822 S Lawndale,Chicago,IL,60623,773-522-4508
True Family Auto,1700 A North Mannheim Rd,Stone Park,IL,60165,708-615-0695
Mustang Express,210 Circle Dr,Salem,IL,62881,618-548-6227
Earvin Sanders Trucking,4137 Bond Ave,Alorton,IL,62207,618-874-4843
Djt Trucking,1000 Newton Ave,Johnston City,IL,62951,618-407-2602
Golden Pen,4134 N Austin Ave,Chicago,IL,60634,773-427-6485
N & W Transport,6644 Hazel Street,Morton Grove,IL,60053,847-980-5578
The Chuman Companies,Po Box 138008,Chicago,IL,60613,773-315-0615
Dan Davis And Son,7824 Townline Rd,Manito,IL,61546,309-202-2334
The Chuman Companies,P O Box 138008,Chicago,IL,60613,773-315-0615
Tempel Trucking,2713 Ill Hwy 26 N,Freeport,IL,61032,815-235-2241
Scott's Trucking,818 N Mulberry St,Mount Carmel,IL,62863,217-415-2862
Ssdd Trucking,130 E 5th St Apt #1,Byron,IL,61010,815-222-3398
Cjc Trucking,3622 South Union,Chicago,IL,60609,708-227-6390
Cew Carrier,6718 N Fieldstone Ct,Peoria,IL,61615,309-691-7886
Industrial Transport,851 Expressway Drive,Itasca,IL,60143,630-595-1230
R R R Trucking,8974 Limestone Rd,Rockford,IL,61109,815-509-4580
Lake Region Transport,222 Cherry Ave,Rochelle,IL,61068,815-562-7987
Spangler Trucking,602 Maple St,Lawrenceville,IL,62439,618-943-1089
Wilsons Trucking,Rr 2 Box 253,Sumner,IL,62466,618-936-2320
Ericksen Heavy Transport,26415 South Harvest Lane,Crete,IL,60417,708-672-9472
P Transportation,5137 N Paulina,Chicago,IL,60640,773-506-9239
Alexander Trucking,2400 Catlin & Homer Road,Fairmount,IL,61841,217-896-2686
Anderson Trucking,26743 2100 N Avenue,Princeton,IL,61356,815-643-2546
Henry Trucking,210 E Myrtle,Baldwin,IL,62217,618-785-2504
Taylor Transfer Moving And Storage,529 North Morgan,Decatur,IL,62521,217-423-0220
Mjb Transport,560 Portsmith Ct,Crystal Lake,IL,60014,847-417-9595
Corey Taylor Trucking,401 N Elm Street,Pana,IL,62557,217-562-4048
Roadlink North America,5 N Ridge Avenue,Arlington Heights,IL,60005,847-392-7904
Four Wheel Auto Transfer,3520 Wrightwood,Chicago,IL,60647,773-588-2562
E & E Trucking Co,8715 Maple St,Caseyville,IL,62232,618-394-0035
Radford Mobile Home Service,9958 N Alpine Rd #103,Machesney,IL,61115,815-636-8160
Speedys Towing,3780 Pontoon Rd,Pontoon,IL,62040,618-980-1498
L E B Trucking & Transportation,1008 E 193rd St,Glenwood,IL,60422,708-758-8281
G & K Trucking,1203 20th Ave,Rockford,IL,61104,605-249-2468
President,115 East 103rd Place,Chicago,IL,60628,773-926-5355
"Usm Freight, Inc.",1050 Busse Road Suite 250,Bensenville,IL,60106,630-227-9700
Larson Enterprise,113 N Park Rd,Machesney Park,IL,61115,815-654-1094
B & D Truck Repair,487 Co Rd 600n,Neoga,IL,62447,217-821-5938
Charles Michels Transport,7965 Wagner Rd,Millstadt,IL,62260,618-538-5100
B & S Transportation,906 18 Street,Viola,IL,61486,309-596-2492
Genesis Transportation,6400 Curtiss Steinberg Drive,Cahokia,IL,62206,618-646-8000
Gosnell's Trucking,5070 N 1350th St,Robinson,IL,62454,618-584-3737
Magic Transportation,4257 West Wilcox,Chicago,IL,60624,773-722-6293
S & M Services,P O Box 93,Thornton,IL,60476,715-745-4818
Rose Farm Trucking,213 E Walnut Street,Parkersburg,IL,62452,618-442-5219
Nelson Trucking,28619 Woodside Drive,Rockfalls,IL,61071,815-564-9092
B & J Trucking,13235 Wolf Road,Geneseo,IL,61254,309-944-6566
T R I Logistics,855 East Golf Rd Ste 2135,Arlington Heights,IL,60005,847-593-4850
D & K Trucking,314 E West Street,Georgetown,IL,61846,217-662-2932
Bill Hutchinson Trucking,19088 E 3rd St,Opdyke,IL,62872,618-756-2429
Supreme Trucking,205 Second Ave,Joliet,IL,60433,815-724-0661
Greleckis Automotive,148 156th Street,Calument,IL,60409,708-868-6600
B & L Trucking,22272 Lincoln Road,Farmer City,IL,61842,309-928-2286
Ackman Trucking,1305 Harbor Drive,Rock Falls,IL,61071,815-631-5228
Nimtz Trucking,12222 Center Rd,Durand,IL,61024,815-248-3737
W M Trucking,1523 Watkins Ln 204,Napierville,IL,60540,630-252-5493
Miller Trucking Service,737 Cr Road 725 E,Toledo,IL,62468,217-849-3424
"David Roberts Transport, Inc.",Rt 123,Ashland,IL,62612,217-478-4003
Perfect Logistics Express,36588 Mary Dr,Lake Villa,IL,60046,847-323-9725
Bobs Auto Transport,16050 Suntone Drive,South Holland,IL,60473,312-914-7336
R & L Trucking,2146 East 100 North Road,Pana,IL,62557,217-273-5581
M & M Trucking,7356 S Drexel Ave,Chicago,IL,60619,773-651-7708
J & T Distributing,1000 A E Southline Road,Tuscola,IL,61953,309-310-5905
Craters And Freighters,14411 Coil Plus Drive Unit B 101,Plainfield,IL,60544,815-609-7201
Carry All Transport,14212 Washington Street,Woodstock,IL,60098,708-602-4510
Alternative Movers,2190 Nimtz Road,Loves Park,IL,61111,815-654-1351
E Z Care Car Transport,2214 Lakeshore Drive,Centralia,IL,62801,618-548-5344
Thompson Trucking,14077 Agnew Rd,Sterling,IL,61081,815-626-8979
Jeramy Foes Trucking,215 E Park Ave,Manlius,IL,61338,815-716-6636
J & C Trucking,102 5th Avenue,Moline,IL,61265,319-757-9061
J & C Trucking,102 5th Avenue,Molline,IL,61265,309-757-9061
J J Transportation,8440 W Commons Dr 6,Hickory Hills,IL,60457,312-952-5971
Abc Foodservice,4433 S Springfield Ave,Chicago,IL,60632,773-523-4478
John White Trucking,1110 W Goodnow Road,Beecher,IL,60401,708-946-6384
Allstar Custom Transfer,147 Brenta Ct,Lynwood,IL,60411,708-757-4917
J & J Trucking,201 W Locust,Sumner,IL,62466,618-936-9500
Hot Buns Trucking,424 Justine Ave,Bolingbrook,IL,60440,630-739-9030
Mak's Auto Transport,2843 County Road 1800 North,Minonk,IL,61760,309-432-3861
Temko Transport,833 S Cleveland Ave,Arlington Heights,IL,60005,847-259-0291
Brecks Trucking,303 W 2nd Street,Lostant,IL,61334,815-252-0510
Monza Auto Transport,3411 N. Ridge,Arlington Heights,IL,60004,773-617-1398
Ohrberg Trucking,1424 20th Avenue,Silvis,IL,61282,309-269-6936
Terrys Rv And Truck Center,20450 S Lagrange Road,Frankfort,IL,60423,815-464-7510
J Austin Trucking,18400 Ridgeland Ave,Tinley Park,IL,60477,708-995-4943
Kovalak Freight Lines,11620 S Marathon Ln,Planfield,IL,60544,815-577-2541
Trisha Braun Hauling,323 N 36th St,Belleville,IL,62226,618-235-7876
Hyperspeed Transport Co,409 N Jackson St,Litchfield,IL,62056,217-324-6399
Canady Trucking & Hauling,4558 Sherman Rd,Sherman,IL,62684,217-496-9291
Met Trucking,8455 11th Street,Davis Junction,IL,61020,815-874-2653
"B I G Transportation, Inc.",1537 W 33rd Street,Chicago,IL,60608,773-523-5238
Mana C & D Transportation,1037 23rd Avenue,Rock Island,IL,61201,309-786-0286
Midwest Transport,78508 25th Street,Milan,IL,61264,309-787-6081
Robert Pate Trucking,45 Pine Hill Lane,Harrisburg,IL,62946,618-253-7283
51 State Moving Corp,6214 Madison Court,Morton Grove,IL,60053,847-967-5150
Midwestern Truck And Trailer Repair,1516 40th St,Rock Island,IL,61201,309-269-8897
Wave Trucking,1255 South Street,Nachusa,IL,61057,815-285-0416
Wm Abbott Transfer,8465 Cr 150 N,Chandlerville,IL,62627,309-338-5525
Weeks Excavating & Trucking,379 N Co Rd 480,Warsaw,IL,62379,217-256-3260
"Weaver Trucking Company, Inc.orporated",4210 221 Street North,Port Byron,IL,61275,309-523-2155
1st Choice Transportation & Limousine,4351 Mayfair Ct,Country Club Hills,IL,60478,708-799-4585
Service First Company,9476 East River Road,Ridott,IL,61067,815-239-2253
Ace Courier Services,2622 W Peterson Ave # 6,Chicago,IL,60659,773-761-2223
Wallgren Trucking,11720 E Wilson Rd,Stockton,IL,61085,815-947-3347
Mike Eddy & Son Trucking,4418 Crabtree Ct,Peoria,IL,61604,309-671-2725
Ralph White Racing,Suite 118 211 W Chicago Ave,Hinsdale,IL,60521,708-352-4058
Nattier Tank Truck Service,Rr 2 Box 148,Xenia,IL,62899,618-835-2500
Dorrell Office Services,3115 Twin Lakes Dr,Springfield,IL,62707,217-622-6360
Ravenscraft Maintenance Service,Rr 1 Box 77a,Lomax,IL,61454,217-659-3652
D & S And Sons Trucking,18107 S Harlem Ave,Tinley Park,IL,60477,708-429-9094
J P Trucking,9404 Saratoga Dr,Hickory Hills,IL,60457,706-528-3802
Ne Transport,5136 W 149th Street,Oak Forest,IL,60452,708-687-5279
Sameday Express Cartage LLC,8635 W 93 Pl,Hickory Hills,IL,60457,708-606-6565
Dan G Trucks,1106 W 6th St,Sterling,IL,61081,815-625-8026
Joe Payne Trucking,9346 South Manistee Street,Chicago,IL,60617,773-793-0772
"Jax Services, Inc.",4018 New York Rd,Nashville,IL,62263,618-327-8123
Kahl's Trucking,13751 Halliday Rd,Plainview,IL,62685,618-836-7735
Millner Trucking,15702 Farm School Rd,Durand,IL,61024,815-248-4599
Mabe Townsend Trucking,112 S Clevland,Panama,IL,62077,217-537-3440
Roadrunner Transit,108 Linden Lane,Williamsville,IL,62693,217-566-2805
Hastings Trucking,604 N Emma St,Christopher,IL,62822,618-724-4947
Wilson Trucking,1202 Cr 2600e,Homer,IL,61849,217-896-2131
Jrm Transportation,1111 Harvester Rd,West Chicago,IL,60185,630-876-5500
Grobe Trucking,8637 E 1050 Street,Cambridge,IL,61238,309-937-1443
Robert Campbell Trucking,613 W Main Street,Teutopolis,IL,62467,217-857-3419
Jd Byrider Of Waukegan LLC,550 N Greenbay Road,Waukegan,IL,60085,847-599-1100
Stewart Trucking,58 Farthing Lane,Belleville,IL,62223,618-397-2841
Choice Furniture,10800 Lincoln Trl Ste 12,Fairview Heights,IL,62208,618-632-6100
1100 Express,295 E 1100 N Rd,Sibley,IL,61773,217-745-2226
D M Carlson Trucking,2444 N 2900 East Rd,Donovan,IL,60931,815-486-7442
Burke Transportation,42 Parkview Road,Rushville,IL,62681,217-322-6357
Fischers Transport,7439 Willowood Ct 2ne,Orland Park,IL,60462,708-532-2920
Hale Transportation,1971 Stave Mill Rd,Murphysboro,IL,62966,618-565-8195
Ace Courier & Messenger Services,66 Briar Street,Glen Ellyn,IL,60137,630-673-4759
Mid-west Transport,2537 W 45th St 2nd Floor,Chicago,IL,60632,312-682-0444
Spectrum Technical Services,520 8th Ave,S Wilmington,IL,60474,888-787-9337
Illinois - Northern Trucking Company,6920 Flamingo Ct,Peoria,IL,61614,309-692-3417
Hinton Transportation Services,4457 W Madison St 2nd Floor,Chicago,IL,60624,773-287-0641
Odom Farms Transportation,11093 Moses Drive,Benton,IL,62812,618-439-6228
Tatum Trucking,1620 N Claremont Ave,Chicago,IL,60647,773-278-1750
D & M Tank Truck Service,8152 N 2100 Ln,Mount Carmel,IL,62863,618-299-3900
J Seesengood Farms,2994 East Us 50,Olney,IL,62450,618-302-0108
John Dyson Trucking,508 N Henderson Rd,Freeport,IL,61032,815-235-4660
"T M Bauer Trucking, Inc.",805e 1400 N,Melvin,IL,60952,217-388-2271
Walls Trucking,916 Main St,Scales Mound,IL,61075,815-845-2042
Lion City Trucking,3319 W Hirsch,Chicago,IL,60651,773-316-5705
Js Carriers,946 Crafford,Bushnell,IL,61422,309-775-1044
Conner Trucking,2987 County Rd 1250 North,Wenona,IL,61377,815-368-3233
La Canada Distributor,2021 W 18th St,Chicago,IL,60608,312-421-2452
Duke Trucking,703 Douglas,Paris,IL,61944,217-466-4703
Dehahn Trucking,509 N Main St,Pearl City,IL,61062,815-443-2558
Koeppen Heavy Hauling,11967 Illnois Rte 72,Genoa,IL,60135,815-739-8672
"Jalisco Express, Inc.",4515 Thomas,Chicago,IL,60651,N/A
Bates Trucking,11348 S Stewart,Chicago,IL,60628,773-785-5976
Rite Price Hospitality Supply,330 South Grand Avenue East,Springfield,IL,62703,217-553-7642
"Jbs Logistics, Inc.",200 Regency Drive,Glendale Heights,IL,60139,630-924-2000
D & L Hauling,4307 Short St,Belleville,IL,62226,618-272-8840
Thomas M Kozlowski & Sons,1944 N 35th Rd,Ottawa,IL,61350,815-433-3204
Hartland Logistics,6801 Armstrong Road,Kinmundy,IL,62854,618-547-3649
Rlram Trucking Co,3206 Anton Dr,Aurora,IL,60504,630-204-5163
Martinez Auto Transport,1658 N Milwaukee #437,Chicago,IL,60647,773-719-2294
Kidd Trucking,2620 N 1200 E Rd,Mansfield,IL,61854,217-489-9283
Trier Transport,621 W 7th St,Belvidere,IL,61008,815-544-6941
Triple T Trucking,4488 N Norwich Ln,Bonnie,IL,62816,618-242-8620
Carl D Mocaby Trucking,1462 S Thompsonville Rd,Thompsonville,IL,62890,618-627-2367
Mocaby Trucking,1205 E 6th St,W Frankfort,IL,62896,618-937-2508
Tmw Logistics,4153 North Mcvicker Ave,Chicago,IL,60605,773-545-9744
R & D Trucking,204 N Cedar St,Lexington,IL,61753,309-365-8892
Advanced Tree Transplanting & Nursery,10757 Owen Center Rd,Rockton,IL,61072,815-624-2488
Lonesome Dove Trucking,209 East North 2nd,Findlay,IL,62534,217-756-3388
Vic Simpson Trucking,R R 4,Barnhill,IL,62809,618-896-2225
R E I Transport,7414 Ll Road,Red Bud,IL,62278,618-282-4500
Nelson's Chauffeured Transportation,421 Broadway Avenue,Mattoon,IL,61938,217-258-5466
Horn Trucking,4315 N Passport Rd,Noble,IL,62868,618-723-2075
"Double R Trucks, Inc.",206 S Green St,Piper City,IL,60959,815-686-2221
Bkb Trucking,13618 Atlantic Ave,Riverdale,IL,60827,708-841-6034
Randolph Trucking,407 6th St,Matherville,IL,61263,309-754-9110
Daves Trucking,1506 Carroll Avenue,Urbana,IL,61802,217-328-2905
Sikkema Trucking,611 W 2nd Avenue,Lyndon,IL,61261,815-778-4948
Saltsgaver Trucking,7143 Chickasaw Lane,St Francisville,IL,62460,618-948-2549
Steward Trucking,9779 South Rd,Waynesville,IL,61778,217-949-1301
Wilcox Custom Services,1210 W Ash,Springfield,IL,62704,217-793-1395
Southern Truckin,1211 E Chestnut Street,Olney,IL,62450,618-392-5085
Aj Express,2810 South Fillmore,Springfield,IL,62704,N/A
Riverside Pet And Livestock Feed,203 Spring St,Quincy,IL,62301,217-224-3231
"Napa Transportation System, Inc.",978 Ocean Side Terrace,Bartlett,IL,60103,N/A
Langellier Trucking,854 N 2860 E Rd,Milford,IL,60953,815-682-4307
Stargate Transport,2694 E Miracle Dr,Kankakee,IL,60901,815-932-3101
Hiatt's Trucking,210 Shamrock Ln,Vienna,IL,62995,618-771-2015
All American Transport,3751 West Agatite,Chicago,IL,60625,773-253-7299
David Oakes Trucking,3046 E 1929th Rd,Ottawa,IL,61350,815-434-0796
Murray Enterprises,115 S. Regency,Bloomington,IL,61701,309-827-7059
G-n-l Trucking,110 N Ridge St,Shannon,IL,61078,815-864-2286
Do-rite Septic Tank Service,809 12th St,Rapids City,IL,61278,309-755-2116
Maldaso Trucking,1828 S Austin Blvd,Cicero,IL,60804,708-420-3736
Benton Trucking,1530 W Melrose Ct,Decatur,IL,62526,217-875-1424
"Ragar Trucking, Inc.",1608 Wesley Ave # 12,Berwyn,IL,60402,708-652-4045
Kendrick Trucking,10979 S Church Street,Chicago,IL,60643,773-779-4357
C & C Trucking-1,3919 W Belden,Chicago,IL,60647,773-235-1660
Davi's Local Deliveries Of Ill,1550 Abbott Dr,Wheeling,IL,60090,847-215-9300
Smartvan,5123 Hunter Road,Rochester,IL,62563,217-498-9341
K W Enterprise,2853 E 24th Rd,Marseilles,IL,61341,815-409-2107
Ruby Trucking,7628 W Balmoral Ave,Chicago,IL,60656,773-775-7027
Sauerbrunn Trucking,Prospect Lane,Olmsted,IL,62970,618-742-8282
Shafran Trucking,228 Bingham Circle,Mundelein,IL,60060,847-949-4234
"Delta Truck Lines, Inc.",7929 W. Grand Ave. # 209,Elmwood Park,IL,60707,773-968-5888
Paid Tow & Hauling,212 N 84th St,Centreville,IL,62203,618-213-6184
Advanced Medical,1490 Bernard Dr Suite A,Addison,IL,60101,N/A
S & J Trucking,13 Oakwood Dr,Springfield,IL,62711,217-502-2259
Don Dupre Trucking,308 North B St,Monmouth,IL,61462,309-734-2017
Calhoun Delivery Serv,910 N Main,Kewanee,IL,61443,309-852-3386
Little Trucking,21 South Henson Road,Villa Grove,IL,61956,217-832-8537
S K Trucking,3746 North Orlole Ave,Chicago,IL,60634,773-294-3136
Hot Shots Delivery Service,7415 N Tripp Av,Skokie,IL,60076,847-568-1600
R & R Logistsics,11306 Cindy Ct,Plainfield,IL,60585,630-904-9558
X Pert Trucking,285 S Hoisington Road,Pecatonica,IL,61063,815-247-8859
Arnold Brothers,10 South 335 Schoger Dr,Naperville,IL,60564,630-820-8661
Marco Farms Trucking,Rr#1 Box 25,Serena,IL,60549,815-498-3189
Boone Trucking,406 E Bullock Street,Eureka,IL,61530,309-467-2236
T M O Trucking,32088 E 1600 North Road,Colfax,IL,61728,309-275-9277
Blomer Trucking,6515 East 5000 South,St Anne,IL,60964,815-427-9879
Delaware Springs Transportation,8735 Maple Ave,Caseyville,IL,62232,618-407-0921
Mix Express,9400 West Foster Avenue Suite L3,Chicago,IL,60656,773-992-2206
"Potts Trucking, Inc.",910 Stewart St,Pocahontas,IL,62275,618-669-2173
"C & R Finch Trucking, Inc.",4405 S Gonnam Rd,Verona,IL,60479,815-287-2615
H&h Rv Express,200 S Hazel St,Oakland,IL,61943,217-218-0042
Solomon Trucking,2450 Terrace Dr,Lynwood,IL,60411,708-757-0676
Daryl Babler Trucking,6920 E Farm School Rd,Rock City,IL,61070,815-449-2607
Gil Jacobs Trucking,11610 N Lasalle Rd,Newark,IL,60541,815-695-5888
Metric Services And Machinery,601 First Ave,Rochelle,IL,61068,815-562-6410
Short Brothers Transportation,15 Commercial St,El Paso,IL,61738,309-527-6242
Tkk Trucking,647 Tamarac Blvd,Addison,IL,60101,630-705-9497
Broshous Tire & Auto,202 S Main St,Stockton,IL,61085,815-947-2454
Mawson Trucking,1602 Old Rte 36,Jacksonville,IL,62650,217-243-1956
Creech Trucking,16507 Otis Drive,Paris,IL,61944,217-465-5449
Freight Shakers Transport,10641 Ave H,Chicago,IL,60617,N/A
D&b Trucking,517 E Grove Street,Mundelein,IL,60060,847-344-5523
B & B Truck Leasing,10501 Terry Drive,Palos Hills,IL,60465,708-430-0201
Lazy D Trucking,536 White Oak Lane,Pocahontas,IL,62275,618-669-2107
Freight Flow,552 Welch Circle,Lake Barrington,IL,60010,630-307-6540
Kennedy Transport,25327 Reed St,Channahon,IL,60410,815-467-1990
Jim Allen Trucking,207 Willis St,Norris City,IL,62869,618-841-3588
E Z Pick Up & Delivery,6748 W 88th Place,Oak Lawn,IL,60453,708-732-4081
Harrawood Trucking,1255 Deneal Rd,Harrisburg,IL,62946,618-253-3276
Scott Weaver & Son Trucking & Excavating,105 W Jefferson,Washington,IL,61571,309-696-2459
Junior Sharp Trucking,420 Gallatin,Shawneetown,IL,62984,618-269-3427
Campbell Trucking,2539 Co Rd 1475e,Grayville,IL,62844,618-375-3027
"Hobtat Trucking, Inc.",542 E 75,Chicago,IL,60619,773-651-6488
Logan Trucking,113 South Sycamore St,Franklin Grove,IL,61031,815-456-2900
Logan Trucking,113 South Sycamore St,Franklin Grove,IL,61031,815-456-2900
Wm Transportation,251 Ellis Rd,Lake In The Hills,IL,60182,312-310-0487
M & A Express,151 Foxglove Ct,Romeoville,IL,60446,815-509-8917
Rebel Trucking,233 W Courtland,Mundelein,IL,60060,847-566-9809
Joe Crabtree Trucking,208 Gilbert St,Rossville,IL,60963,217-748-4032
Foiles Distributing,4827 Fosterburg Rd,Alton,IL,62002,618-972-5566
Pat Oller Trucking,847 E 750 N Rd,Palmer,IL,62556,217-526-3314
Dan E Jones Trucking,612 Hunt Street,Paris,IL,61944,217-822-4548
R & L Trucking,372 N 3rd St,Albion,IL,62806,618-445-2493
"Maravillo's Transport Services, Inc.",1809 Heather Drive,Aurora,IL,60506,630-333-5001
Valley Mobile Home Services,919 Depot Avenue,Dixon,IL,61021,815-288-4554
Crase Hauling,577 Mcbride,Dupo,IL,62239,618-286-0105
Ryan's Trucking,6700 S Wabash,Chicago,IL,60637,773-483-9883
Nik Transport,1005 N Harlem Apt F,Oak Park,IL,60302,708-660-0293
C K Yates Trucking,515 S Lincoln,Kinmundy,IL,62854,618-547-7643
My Way Transportation Services LLC,1441 E 142nd Street,Dolton,IL,60419,N/A
Hawley Express,2075 North County Road 1000,Nauvoo,IL,62354,217-847-3469
Price Trucking,2164 E Il 250,Noble,IL,62868,812-890-0328
Jacobs Auto Service,623 Glenn,Kincaid,IL,62540,217-237-4362
Dm Transportation,895 155th St,Aledo,IL,61231,858-735-0840
Coryell Trucking,100 E Franklin,Mackinaw,IL,61755,217-280-0051
Wilkey Trucking,1002 N Adams,El Paso,IL,61738,309-527-5158
"Rwc Trucking & Service, Inc.",20210 St Andrews Ct,Olympia Flds,IL,60461,708-924-5402
Grt,313 E 1st Street,Maquon,IL,61458,309-875-3052
Bryan Campbell Trucking,18591 E 200 St,Coalvalley,IL,61240,309-234-5714
Haskins Trucking,14019 N 1790 E Rd,Danville,IL,61834,217-442-8941
T&r Trucking,29525 Grennan Rd,Rock Falls,IL,61071,815-625-2980
"E R A Trasnportation, Inc.",1063 Principal Ador,Park Ridge,IL,60068,847-720-0003
"Kbl Trucking, Inc.",4144 W 15th,Chicago,IL,60651,580-436-3948
G M Z Trans,33066 Glidden Rd,Kingston,IL,60145,815-784-6265
Dj Williams Trucking,Rr5 Mcleonsboro Box 183c,Mcleonsboro,IL,62859,618-308-0557
Thomas A Gray Excavating & Trucking,3524 St Rt 111,Pontoon Beach,IL,62040,618-550-5969
"Efe, Inc.",3665 177th Place,Lansing,IL,60438,866-333-4621
Dmc Trucking,304 Washington,Harvel,IL,62538,217-229-3507
A & B Bus Service,3528 Martens,Franklin Park,IL,60131,847-671-0533
Jerry Basiger Transportation,1308 Florist Dr,Rockford,IL,61108,815-509-0323
"Wildey Trucking, Inc.",4511 N Hickoryway Dr,Mchenry,IL,60050,815-385-2159
Bolden Transportation,17740 Springfield,Country Club Hills,IL,60478,708-798-4986
Roberson Trucking,1310 N Elmwood,Peoria,IL,61606,309-676-1139
"A-excellence Service, Inc.",5630 W 65th Street,Chicago,IL,60638,800-783-4235
Orie's Trucking,335 N C R 475 E,Arthur,IL,61911,217-621-8143
Schratz Trucking,7930 State Route 4,Sparta Ii,IL,62286,618-443-6164
Hougland Trucking,149 E Mansfield,Bement,IL,61813,217-678-2020
M & R Freight,3924 W Collum Avenue Apt 1,Chicago,IL,60618,773-415-1147
Roy's Trucking,2137 W 52nd Street,Chicago,IL,60609,773-776-9192
"Vea Consulting, Inc.",9313 W 142nd Street,Orland Park,IL,60462,708-525-7507
Hubs Transportation Service,1101 Rodgers St,Barry,IL,62312,217-335-7056
Hummel Trucking,934 N 1903rd Lane,Quincy,IL,62305,217-964-2511
Custom Transport,1822 East 28th Road,Ransom,IL,60470,815-586-4413
Duane Allen Trucking,301 E Frederick Street,Milford,IL,60953,815-383-9042
B A R K,5029 Hammerich Road,Mapleton,IL,61547,309-565-3280
Schultz Trucking,25075 East 1200th Street,Geneseo,IL,61254,309-441-6668
Thad Mool Trucking,203 E Lincoln,El Paso,IL,61738,309-208-8200
Jls,1248 Reno Court,Edwardsville,IL,62025,618-530-5639
Unity Transport,2018 Brummel Street,Evanston,IL,60202,773-350-9420
Owens Tandem Trucking,27866 Potomac Collision Rd,Potomac,IL,61865,309-202-5374
"Lyons Transportation, Inc.",7114 West 35th Street,Berwyn,IL,60402,708-749-0444
Worldwide Freight Xpediters,146 E 120th Street,Chicago,IL,60628,773-294-0219
Higgins Construction Service,# 5 Industrial Drive,Jerseyville,IL,62052,618-882-4685
A L S,13585 Yellow Pine Dr,Huntley,IL,60142,847-727-4381
J Williams Trucking,26624 Highway 3 South,Olive Branch,IL,62969,618-776-5490
J K Eggs,2210 Robinhood Lane,Arlington Heights,IL,60004,847-867-6767
Johnson Trucking,Rt 1 Box 96,Bingham,IL,62011,618-423-9574
Ulrich Container Service LLC,26 Kelly Drive,Granite City,IL,62040,618-797-0702
Justin Anderson Trucking,Rr 2 Box 181,Wayne City,IL,62895,618-898-1262
Norder Trucking,393 W North Street,Watseka,IL,60970,815-432-2039
"Bcm Transport, Inc.",7420 W Lawrence Ave Apt 202,Harwood Heights,IL,60706,708-867-4906
"M P Trucking, Inc.",5875 N Lincoln Avenue Suite 112,Chicago,IL,60659,773-506-7149
John T Underwood Trucking,14200 Russland Rd,Aviston,IL,62216,618-567-1480
Barker Trucking,10555 Highway 1,Junction,IL,62954,618-276-5157
Anderson Transport,1700 N 2400th Ave,Mendon,IL,62351,217-936-2359
Genesis Transportation,34080 N Hwy 45 Apt 1s,Grayslake,IL,60030,847-942-9643
"Westward Express, Inc.",11218 Helena Dr,Palos Hills,IL,60465,708-974-0719
First Impressions Shuttle Service,12604 South Harlem Ave,Palos Heights,IL,60463,630-832-8759
Harris Trucking,1622 S Maple Ave,Berwyn,IL,60402,708-788-0547
Ortiz Trucking,2648 W 52 St,Chicago,IL,60632,312-778-4762
Paul A Morgan Trucking,Rr 1 Box 53,Raymond,IL,62560,217-324-2779
"Witmer Trucking, Inc.",4098 W Midtown Rd,Mt Morris,IL,61054,815-734-6236
Dwain Forby Trucking,72 Whippoorill Lane,Makanda,IL,62958,618-549-4954
Martben Trucking,4845 W 24th Place,Cicero,IL,60650,708-222-9215
Road West Trucking,8501 So Major,Burbank,IL,60459,708-425-7922
Hunter Trucking,1306 St Raphael,Cahokia,IL,62206,618-337-1930
Keith Construction,604 Colona Road,Colona,IL,61241,309-792-1436
"Jiffy Express, Inc.",2910 N Sheridan,Peoria,IL,61604,309-685-8761
Preferred Trucking,315 East 10th St,Rock Falls,IL,61071,708-917-6747
Wkm Trucking,2841 York Rd,Springfield,IL,62703,217-585-1889
Miller Trucking,710 North Main St,Monmouth,IL,61462,309-734-4194
Michael Hoang Ha Trucking Co,3750 West Wilson,Chicago,IL,60625,N/A
Dooley Trucking,113 South Macarthur,Springfield,IL,62704,N/A
Krp Express,Route 1 Box 300b,Nauvoo,IL,62354,217-453-6687
Lerick's Enterprise,1513 12th St,Waukegan,IL,60085,847-662-5778
Anderson Trucking,Rr #5 Box 330,Olney,IL,62450,618-393-4756
Esselborn Family Partnership,702 W Legion,Columbia,IL,62236,618-281-3759
"R & S Truck Service, Inc.",777 E Rosedale,East Alton,IL,62024,618-258-0553
S & D Trucking,2735 South Hillock,Chicago,IL,60608,312-247-4425
Vancorp Transport,26652 S State Line,Crete,IL,60417,708-672-8409
Quad Transportation,2661 N Illinois St,Swansea,IL,62226,314-436-7329
So-il Service,91 South Adams,Carthage,IL,62321,217-357-2360
Eurostar Express,8845 Willow Terrace Dr,Orland Hills,IL,60477,708-349-4592
V B Trucking,304 Haller Ave,Romeoville,IL,60441,800-405-1121
Sunset Cartage Company,11530 S Lawler Avenue,Alsip,IL,60803,708-926-9852
Kangaroo Express,769 Merrimac St,Cary,IL,60013,847-639-1152
Steves Yard Service,3431 - 14th Ave,Rock Island,IL,61201,309-786-5779
Western Trucking,1700 West 48th Street,Chicago,IL,60609,312-247-9387
Swanson Transportation,494 South Scout Camp Rd,Stockton,IL,61085,815-858-2252
B & K Automotive,518 W Dowell Rd #1 A,Mchenry,IL,60050,815-344-0560
"Bond Movers, Inc.",3509 Kings Lair Dr ,Spring Grove,IL,60081,312-237-1385
Fuqua Trucking,3000 No 2250th St,Paris,IL,61944,217-275-2373
Dunavan Trucking,690 Euclid Ave,Hoopeston,IL,60942,217-283-5794
Dave Justice Trucking,104 West Knox,Morrison,IL,61270,815-772-7915
Tnt Delivery,154 N County Rd 1000 E,Gibson City,IL,60936,217-794-2397
Dan Bahler Trucking,23170 E 300 N,Fairbury,IL,61739,309-377-3281
Knisley Trucking,2055 169th St,Mt Pulaski,IL,62548,217-674-3360
S & H Racing,525 Crossen Ave,Elk Grove Village,IL,60007,708-956-0105
Jeff's Express,3316 W Chain Of Rocks Rd,Granite City,IL,62040,N/A
R P & Sons,Po Box 1362,Peoria,IL,61654,309-685-7099
R & R Trucking Co,511 S Clinton St,Bloomington,IL,61701,309-827-2251
Thomas Trucking & Moving,14933 Turlington Ave,Harvey,IL,60426,708-596-9920
Faith Auto Transport,114 Sinclair,South Roxana,IL,62087,618-779-3007
Speedy Transport Company,6445 South State Street,Chicago,IL,60637,773-488-0166
"S P Trans, Inc.",12339 Legend Lake Dr,Roscoe,IL,61073,815-519-1636
Ray E Link Trucking,Rr 1 Box 200 K,Oquawka,IL,61469,309-867-2506
H & Y Food Service,2715 Halsted Street,Chicago,IL,60608,312-567-0988
C W S I,1338 Enterprise Dr,Romeoville,IL,60446,630-771-0735
Crossway Standard Wrecker Service,Jct 251 And Us 30,Compton,IL,61318,815-497-3724
B G Transportation,3316 W Chain Of Rocks Rd,Granite City,IL,62040,N/A
Cobble's Welding & Service,14553 Cobble Lane,Charleston,IL,61920,217-345-7752
Komperda Trucking,8019 West 124th Street,Palos Park,IL,60464,708-448-0488
Ace Oxygen Supply Service,1508 North Main Street,Dupo,IL,62239,314-712-8313
A & A And Sons Machinery Moving Co,3939 Albany Drive,Mc Henry,IL,60050,815-385-9151
Hill's Trucking,2014 Evans Ave,Loves Park,IL,61111,815-633-2461
Kenny's Car Carrier,14340 S Black Stone,Dolton,IL,60419,708-841-4965
Taylor Transportation,1423 W 100 And 10th Place,Chicago,IL,60643,N/A
Kevin E Beegle Trucking,302 Kay's Lake Rd,Mounds,IL,62964,618-967-2476
"A & G Transport, Inc.",2615 W Fullerton,Chicago,IL,60647,312-772-2466
Silver Phoenix Express,13500 South End Lane,Crestwood,IL,60445,708-385-7100
K S M Freight Haulers,1512 Pickford St,Robinson,IL,62454,800-489-0019
Botica Transport,34 Saint Francis Dr,Bourbonnais,IL,60914,708-424-2352
Atlantic Western Express,175 Marquette Place,Manteno,IL,60950,815-468-8646
Freddy G's Wrecker Service,501 20th Street,Rock Island,IL,61201,309-764-4179
Walter Wolff Trucking,416 W Garrison,Dorchester,IL,62020,618-362-6428
"T N Transportation, Inc.",4626 S Homan,Chicago,IL,60632,312-523-2048
Hall's Hauling,738 Post Pl,East Saint Louis,IL,62205,618-482-4251
Burt Pfluger Trucking,8434 Lawrenceville Rd,Garden Prairie,IL,61038,815-547-8447
Tim Pedigo Trucking,25501 Cr 750 N,Easton,IL,62633,309-562-7540
Carlson Trucking,12705 176th Ave,Orion,IL,61273,309-526-3301
J E Toppert Trucking,27605 Rt 2 N,Hillsdale,IL,61257,309-658-2286
Zabel Farms LLC,2430 N 2700 E Rd,Donovan,IL,60931,815-486-7470
S & W Trucking,3841 W 78th Place,Chicago,IL,60652,312-585-6333
C & S Transportation,655 Verona Rd,Morris,IL,60450,815-685-9188
M-bral 3,2713 Bond Ave,East Saint Louis,IL,62207,618-271-6802
Atom Transfer,133 S Bellwood,Rosewood Heights,IL,62024,618-258-7374
Squibb Aquesition And Transportation Sales Company,1315 E Main,Salem,IL,62881,618-548-0800
Ottinger's Transportation,1309 Deerfield Ln,Collinsville,IL,62234,618-975-2157
Norms Mh Transport,7697 N Indian Ridge Rd,East Dubuque,IL,61025,815-747-6275
R K Express,1321 W Dundee Rd,Palatine,IL,60067,N/A
"K&l Heavy Haul, Inc.",8621 E Boyd Rd,Mount Vernon,IL,62864,618-244-1999
Grant Farms,10365 C Hwy 19,Cambridge,IL,61238,309-521-8582
Quality Mobile Home Service,205 Cedar Street,Coulterville,IL,62237,618-758-3141
Supreme Moving & Storage,1006 Fairway Dr,Bensenville,IL,60106,708-350-0002
Res Auto Transport,3110 Rosiclaire Court,So Chicago Heights,IL,60622,708-755-7320
T & T Trucking Excavating & Backhoe,3704 Trendley,Centreville,IL,62207,618-235-1626
Jes Express,1600 Marlboro Lane,Crest Hill,IL,60435,815-727-2746
Facile Messenger Service,647 South Clark,Chicago,IL,60605,312-360-0781
J P Cavanah Trucking,R 2 Box 256,Beecher City,IL,62414,618-487-5961
R R & B Trucking,1113 N Leclaire St,Chicago,IL,60651,N/A
On Time Transportation,1250 Franklin Grove Rd,Dixon,IL,61021,815-288-5206
Fan Fares Catering Service,742 E 95 St,Chicago,IL,60619,312-568-3293
Tom Smith Trucking,Rr 2 Box 221,Oakland,IL,61943,217-822-5465
"M-hauling, Inc.",502 Monroe Street,Highland,IL,62249,618-654-4461
Zti,602 W Burr Oak Dr,Arlington Heights,IL,60004,708-577-0421
R W Miller Trucking,1150 14th Ave,Moline,IL,61265,309-797-9553
J J Express,4430 N New England Ave,Hardwood Heights,IL,60656,773-822-8537
Wil Step Hauling,572 Gray Blvd,East Saint Louis,IL,62205,618-874-4730
Tondini Wrecker Service,P O Box 1012,Marion,IL,62959,N/A
H & H Delivery,801 N 21st Street,Mattoon,IL,61938,217-234-6938
K S Transportation,110 E 6th St,St Jacob,IL,62281,618-644-5646
Mcginnis Trucking LLC,200 E Pine,Springfield,IL,62704,217-753-3377
Chicago Transmission Parts,3016 North Cicero Avenue,Chicago,IL,60641,312-283-2855
R - Trucking,539 Deer Run Dr,Palatine,IL,60067,708-359-8507
Shaw Transportation,302 E Lawrence Ave,Springfield,IL,62703,217-527-8296
Service Enterprises,3943 N Richmond,Chicago,IL,60618,312-478-1288
Cj Energy Corp,519 West Third Street,Mount Carmel,IL,62863,618-263-3000
Diamond K Trucking,Po Box 742,Pawnee,IL,62558,217-625-7944
Holtmann Trucking,7817 Goshen Rd,Edwardsville,IL,62025,618-656-7793
W F Dry Mix,4241 State Route 111,Granite City,IL,62040,618-931-0023
Bob's Backhoe Service,1660 W Williams,Danville,IL,61832,217-442-7369
J & G Trucking,660 Timber Road,Dongola,IL,62926,618-833-7796
E & J Used Auto & Truck Parts,315 - 31st Avenue,Rock Island,IL,61201,309-788-7686
J T Trucking,26539 Murray Drive,Crete,IL,60417,N/A
Chase Transportation Co,7653 S Mason,Burbank,IL,60459,N/A
"All-ways Express, Inc.",320 31st Ave,Rock Island,IL,61201,309-786-3598
Bond Trucking,17630 Highway 3,Ava,IL,62907,618-763-5594
Tom Martin Trucking,1 Martin Ln,Industry,IL,61440,309-257-2251
Quickdraw Special Express,30 W Pebble Beach Circle,Glendale Heights,IL,60139,708-871-2318
Mwm Trucking,7143 E Flagg Road,Ashton,IL,61006,815-751-9014
Sears Trucking,880 Bear Road,Decatur,IL,62522,217-963-2126
Coyne Excavation & Trucking,13217 13th Street,Milan,IL,61264,309-787-0819
Ivy Health Systems,P O Box 366,Gurnee,IL,60031,N/A
Wom Trucking,3908 West 64th Place,Chicago,IL,60629,N/A
La Kalaka Transport,2343 N Talman St,Chicago,IL,60647,N/A
Broshous Trucking,418 N Hudson St,Stockton,IL,61085,815-947-3689
Tumbleweed Trucking,496 S Keith Rd,Winnebago,IL,61088,815-335-2203
City Auto Rec Services,38 N Broadway,Des Plaines,IL,60016,847-297-9700
Zimmerman Transport Servicef,14254 Shiloh Cemetery Road,Whittington,IL,62897,618-629-2717
"Leingang Trucking & Excavating, Inc.",801 E 1st St Suite 1400,Milan,IL,61264,309-787-2000
Ballegeer Trucking,21533 Ballegeer Lane,Colona,IL,61241,309-792-1682
Myers Trucking,4068 Montague Rd,Baileyville,IL,61007,815-362-2575
R & M Delivery,390 S Lodge Ln,Lombard,IL,60148,708-629-8732
Sleeth Tower,48w605 Hinckley Rd,Big Rock,IL,60511,630-556-3608
First Edge Transport,2626 Bristol Ridge Road,Bristol,IL,60512,708-553-2427
Grove Brothers Trucking,100 Mew St,Gifford,IL,61847,217-586-7255
Zoomers Messenger & Reliable Trucking,9337 Harlem Ave,Morton Grove,IL,60053,847-967-7464
Dale Stearns Transport,61 Dale Drive,Carbondale,IL,62902,618-549-6618
Jg Auto Transport,264 W 5th,Xenia,IL,62899,618-678-2425
"Elite Transporters, Inc.",3480 B Gatlin Drive,Springfield,IL,62707,217-522-4560
D B F Hauling,445 Washington,Barrington,IL,60010,847-304-1189
Clayborne Trucking,285 W 154th Street,South Holland,IL,60473,708-210-9998
Twin Service Co,109 Princeton Dr,Belleville,IL,62223,618-538-5991
D J Distributing Co,110 N 3rd,Vandalia,IL,62471,618-283-1854
"Orsi Oriential Rug Service, Inc.",2025 Dempster St,Evanston,IL,60201,847-864-9473
Ashdan Transportation,507 Busse Highway,Elk Grove Village,IL,60007,N/A
Ginnmar Transportation,Unknown,Cisne,IL,62823,N/A
D L White Construction Company,2900 Old Creal Springs Road,Marion,IL,62959,618-993-3440
John Brogdon Trucking,843 Brogdon Rd,Jacksonville,IL,62650,217-673-4221
Leka Trucking,Rr 1 Box 66,Buffalo,IL,62515,N/A
Harvey Clark Trucking,547 N 31 St Road,La Salle,IL,61301,815-223-8983
Russell Transport,Rr 2 Box 82g,Clinton,IL,61727,217-935-4664
Services By Yancy,7117 Delmar Dr,East Saint Louis,IL,62203,618-397-3092
Gna Trucking,Po Box 25-217,Chicago,IL,60625,N/A
Big Dog Express,7541 La Sabre Drive,Rockford,IL,61103,N/A
Reyes Distributing,11306 Cindy Ct,Plainfield,IL,60585,219-462-5650
Hawley Trucking,1880 Oak St,Hamilton,IL,62341,217-847-3206
Lawson Trucking,7279 Us Hwy 150,Lynn Center,IL,61262,309-299-8382
Chicago Sun-times,2800 S Ashland Ave,Chicago,IL,60608,773-890-7330
Ronnie Todd Trucking,Route 5 - Box 97,Mcleansboro,IL,62859,618-647-2566
Sara Lee Heiners Earthgrains Of Wv,3500 Lacey Road,Downers Grove,IL,60515,630-598-7711
H L Hayes Trucking,2036 Paw Paw Rd,Steward,IL,60553,815-751-0841
Dartt Service,407 Fackney St,Carmi,IL,62821,618-382-8816
Go-go Trucking,24396 N Co Hwy 2,Smithfield,IL,61477,309-293-2781
Flying T Charter Service,384 W 14th Pl,Chicago Heights,IL,60411,708-754-4632
Flatt Woods Trucking,4170 Flatt Woods Road,Simpson,IL,62985,618-695-3566
Mott Trucking,1755 Rushing Road,Simpson,IL,62985,618-695-3337
Varnes Transport,228 Trivoli Ave,Peoria,IL,61569,309-362-2291
"Geo Trucking, Inc.",1158 Sweetwater Ridge,Lake In The Hills,IL,60102,847-854-7724
Dennis Trucking,Rt 1 Box 152,Broughton,IL,62817,618-647-2419
Lt Transportation,1455 N 5th St,Charleston,IL,61920,217-348-0719
Small Change Monster Truck,16495 B E 10500 N,Grant Park,IL,60940,815-465-6518
Choat Excavating & Trucking,1111 N Main St,Carrier Mills,IL,62917,618-994-2063
Gary Gillmore Trucking,483 E Mason St,Easton,IL,62633,309-562-7216
Leffner Trucking Co,831 West South Street,Dubois,IL,62831,618-787-4181
M Trucking,7446 West 58th Place,Summit,IL,60501,N/A
Performance Plus Transportation,9 S 125 Lake Dr,Clarendon Hills,IL,60514,708-655-0893
Mark One Express,301 Charles St,South Beloit,IL,61080,815-389-9404
Walters Trucking Co,411 Rister Rd,El Dorado,IL,62930,N/A
Jack Willman Jr Truck Service,2122 Hilebrand,Madison,IL,62060,618-877-5871
Hendricks Contracting,319 North Main,Rankin,IL,60960,217-397-2573
Rhino Express,30 N Iowa Avenue,Addison,IL,60101,630-782-5220
Horizon Transport Co,4158 N Old River Road,Schiller Park,IL,60176,847-928-1300
Farmers Pellet Co,609 Main St,Farmersville,IL,62533,217-227-3622
3-k Wood Service,206 N Bridge Box 64,Aroma Park,IL,60910,815-939-0810
"Transylvania Express, Inc.",3137 N Monitor,Chicago,IL,60634,312-745-1170
Mike Tapscott Trucking,719 East 2100 North Road,Edinburg,IL,62531,217-623-4421
Sinclair Transport,16985 State Hwy 97,Petersburg,IL,62675,217-632-3972
Goodman Trucking,203 S 3rd St,Easton,IL,62633,309-562-7333
Dew Trucking,2306 W Proctor St,Peoria,IL,61605,309-673-5925
John's Mobile Home Service,26 Sunny Lane,Pinckneyville,IL,62274,618-357-6032
Voss Truck Service,1216 Brown St,Alton,IL,62002,618-462-4240
B & G Movers,809 North County St,Waukegan,IL,60085,847-662-1956
L & M Services Of Ill Ltd,8622 S Kostner Ave,Chicago,IL,60652,773-581-1121
Brad Wilkey Trucking,4th & Walnut,Kilbourne,IL,62655,309-538-4463
Eddie Beck Excavation & Trucking,920 Filmore,Metropolis,IL,62960,618-524-3255
Double L Transportation,632 2000th St,Hartsburg,IL,62643,217-642-5331
Cusick Trucking,822 W Elizabeth,Paris,IL,61944,217-466-6345
Monson Truck Service,Rt 94 N,Aledo,IL,61231,309-582-2515
Eckhardt Trucking,3387 130th Ave,New Windsor,IL,61465,309-667-2660
Newton Trucking Company,1206 E Co Rd 2300 N,Burnside,IL,62318,217-363-9866
C M Evens Transportation,220 Colburn Avenue,Joliet,IL,60433,815-722-3669
Gunzel's Backhoe Service,Rr 1 Box 149 A,Saint Francisville,IL,62460,618-948-2467
Wilson Truck Service,Rr 1 Box 106,Pocahontas,IL,62275,618-664-3630
Dickinson Trucking Company,3082 State Route 161 East,Centralia,IL,62801,618-533-0260
Geiss Trucking,11090 Gabbys Road,Chandlerville,IL,62627,217-458-2328
Paul Jonas Trucking,2908 So 10th Ave,Broadview,IL,60153,708-344-0847
Behling Scott Express,6135 Forest Hills Road,Rockford,IL,61114,815-877-4094
"Auto Connection, Inc.",2203b Lakeside Drive,Bannockburn,IL,60015,800-687-2464
Jams Trucking,19404 Pine Drive,Country Club Hills,IL,60478,708-922-1405
G H Transpoirtation,501 Apollo St,Joliet,IL,60435,815-729-3645
Mahr Trucking,30663 N Coal Creek Rd,Canton,IL,61520,309-647-8361
Gallagher Farms,12534 W Wilmington Rd,Peotone,IL,60468,708-258-9522
Wilton Hauling & Excavating,33480 Sanders Rd,Medora,IL,62063,618-729-4365
"K G Trucking, Inc.",5309 W Harrison,Chicago,IL,60644,312-921-5296
Professional Airport Transportation,108 Dean Ave,O Fallon,IL,62269,618-624-8669
Christian Brothers Trucking,405 Garver Avenue,Rockford,IL,61102,815-964-6819
Asiana Freightway,8801 W Golf Rd Apt 9e,Niles,IL,60714,847-296-3961
P & D Transportation,7951 South Green,Chicago,IL,60620,773-488-8910
Hans Transportation & Moving Service,1093 Lincoln St,Galesburg,IL,61401,309-342-1244
Maverick Motor Service,1905 Bradley Dr,Montgomery,IL,60538,630-896-6915
A & M Transport,841 N Kostner Ave,Chicago,IL,60651,708-343-3570
Scott Leischner Trucking,23335 Sparrow Road,Farmer City,IL,61842,217-736-2349
Parker Transport,215 N 111th Pl,Chicago,IL,60628,313-863-8445
Horne Trucking,1147 E 161st Place,South Holland,IL,60473,708-596-3946
R & C Eakle Trucking,21284 Douglas St,Newman,IL,61942,765-828-0442
J & J Transportation,560 W Depot,Colchester,IL,62326,309-776-3430
C & L Trucking,6264 Warren,St Anne,IL,60964,815-936-1877
Dl Trucking,1 N 752 N Villa Ave,Villa Park,IL,60181,630-833-6451
Shepherds Trucking,4778 J Rd,Red Bud,IL,62278,618-282-2469
Dulian Trucking,8905 North Knight Avenue Suite #412,Des Plaines,IL,60016,708-599-0272
C & S Trucking,603 Laura Drive,Westville,IL,61883,217-260-3749
Devries Trucking,1311 Shore Acres Road,Rock Falls,IL,61071,815-626-5912
Blair Trucking,3105 W Lakeview Rd,Marion,IL,62959,618-997-2326
"Forms Imprinting Warehousing & Delivery, Inc.",63 Douglas Ave #301,Elgin,IL,60120,847-622-1313
Sandridge Trucking,9409 Shaller Rd,Lenzburg,IL,62255,618-475-2468
Greenwell Motor Freight,155 Northview Drive,Highland,IL,62249,618-654-6063
Ted Francis Trucking,107 Diane Dr,Lexington,IL,61753,309-365-8732
Earl's Mobile Home Service,Rr 1,Mt Olive,IL,62069,217-999-2175
Younger Brothers Transportation,14717 S Karlov,Midlothian,IL,60452,708-371-9263
R V Trailer Transport,Po Box 123,Grant Park,IL,60940,615-465-2457
K K Trucking,2305 Long Lane,Mc Henry,IL,60050,815-344-3717
Morris Trucking,219 S 4th St,Edwards,IL,62806,618-445-3230
L & B Trucking,16 Ponderosa Drive,Colona,IL,61241,309-441-5396
R J's Refrigerated Express,8026 W 84th Pl,Justice,IL,60458,708-430-0125
Plainfield Motor Service,724 W Route 126,Plainfield,IL,60544,815-727-1820
Kream-n-wheel Trucking,416 Cooper Drive,Cahokia,IL,62206,618-337-3836
Illinois Southern Express,239 Orchard Street,Zeigler,IL,62999,618-995-1914
Mjm Transport,3645 W Rt 17,Kankakee,IL,60901,N/A
R & L Trucking,19 Carol Louise,Caseyville,IL,62232,618-344-0918
Double R Trucking,5485 Hwy 13 W,Harrisburg,IL,62946,618-252-0131
Mdi Spanish Foods,3403 W 48th Place,Chicago,IL,60632,773-843-9888
Jet Express Transportation,11447 S Natoma Ave,Worth,IL,60482,708-448-7188
Teetor Hauling,114 West 5th North,Mount Olive,IL,62069,217-999-3517
G & B Trucking,405 S Roosevelt St,Oblong,IL,62449,618-592-4524
Castleberry Trucking,Rr #3 Box 132a,Roodhouse,IL,62082,217-589-4298
E L Trucking,1443 S Maple,Berwyn,IL,60402,708-788-8341
Browns Express,231 E Sherman,White Hall,IL,62092,217-374-2028
R L Grasher Express,12725 Jolliff Bridge Road,Centralia,IL,62801,N/A
Clint Morehouse Trucking,4430 17 Ave,Rock Island,IL,61201,309-786-5058
Sponsler Trucking,200 W 1st St,Seaton,IL,61476,309-582-7009
Davis Trucking,20219 East 100 North Road,Fairbury,IL,61739,309-377-3015
West Trucking Co,1818 Greenwood St,Evanston,IL,60201,N/A
All Temperature Supply,2611 Lake Street,Melrose Park,IL,60161,708-344-0810
Little Mac Trucking Co,15 Midland Drive,Metropolis,IL,62960,618-524-9408
Dan Oltmanns Trucking,4311 Lincolnway,Sterling,IL,61081,815-622-9485
Randy's Trucking,17220 South 71st Avenue,Tinely Park,IL,60477,708-532-5228
Rei,391 Hollow Hill Drive,Wauconda,IL,60084,847-526-1570
B & M Trucking & Excavating,7121 Lockmann Rd,Collinsville,IL,62234,N/A
R D Trucking,6534 W 79th Street,Burbank,IL,60459,708-599-0216
Moreland Transport,Rr 2 Box 89,Sumner,IL,62466,618-936-2401
Ward Custom Application,17623 Ford Road,Geneseo,IL,61254,309-944-3957
Eagle Movers,5321 Choctaw Trail,Rockford,IL,61109,815-874-4679
Al's Hauling And Odd Jobs,1377 North 40th Street,East Saint Louis,IL,62204,618-482-4910
"G L M Distributing, Inc.",314 5th St Apt A,Carrollton,IL,62016,618-972-2462
E Z Haul Away,11647 W 11th St,Zion,IL,60099,847-731-1323
Ideal Rolloff Service,3600 Pacific Ave,Gurnee,IL,60031,847-623-9110
Sher Services Co,6542 N Navajo Ave,Chicago,IL,60712,847-933-0069
Sj Trucking Company,1815 W 107th St,Chicago,IL,60620,773-239-3688
Steve's Trucking,13306 Lincoln Road,Morrison,IL,61270,563-212-5058
Zickefoose Trucking,261 E Twyman Street,Bushnell,IL,61422,309-331-4959
Hooks Trucking,10946n 1460 E Rd,Westville,IL,61883,217-267-2796
Steve Hupp Trucking,1105 Carroll St,Pawnee,IL,62558,217-625-2400
Triple D Trucking,3900 Peoria Rd,Springfield,IL,62702,217-744-9033
Jam Bam Trucking,2128 Cummins,Dixon,IL,61021,815-288-7407
"John Armstrong Cartage, Inc.",8020 S Perry Ave,Chicago,IL,60620,773-846-3155
River Bottom Logistics,1491 Highway 75 East,Freeport,IL,61032,815-232-5782
Jason Hari Trucking,120 North Market,Paxton,IL,60957,217-379-9982
Blue Rocks Trucking,1423 46th Court,Melrose Park,IL,60160,708-220-6539
Boyer Trucking,1733 E County Rd 2200,Dallas City,IL,62330,217-746-9009
Ourway Transport,140 W Hickory,Chicago Heights,IL,60411,708-754-6376
Kdm Freight Systems,8100 S Scottsdale St,Chicago,IL,60652,773-585-2660
Gusty Transportation,430 Stevens Dr Apt 2g,Addison,IL,60101,847-952-9751
Expressions Custom Furniture,3920 N Mulford Rd,Rockford,IL,61125,815-654-7632
Holmes Trucking & Repair,285 E Elm St,Alton,IL,62002,618-465-5634
Heap Trucking,20541 E 500 North Rd,Downs,IL,61736,309-378-4286
Michael Enterprises,709 W. Sheridan Road,Lakemoor,IL,60051,N/A
M S Muffler & Brakes,38900 N Greenbay Rd,Beach Park,IL,60087,224-656-5275
Clif Nebelsick Heavy Hauling,1313 Chestnut St #5,Delkalb,IL,60115,815-787-7079
Stuber And Son Trucking,205 S State St,Bryant,IL,61519,309-668-2974
Avl Transport,111 North Loxa,Mattoon,IL,61938,217-345-9551
Bush Transport,16901 Van Dam Road,South Holland,IL,60473,708-331-7960
D & R Transportation,6161 W Higgins Unit 204,Chicago,IL,60630,312-590-0386
Steele Transportation,725 N Mechanic St,Macomb,IL,61455,309-833-3016
Crull Trucking & Const,Patterson Rd,Patterson,IL,62078,217-927-4340
L & J Trucking,Rt 1 1950 E,Teutopolis,IL,62467,217-857-3343
Lincolnland Trucking,419 W Lincoln Ave,Charleston,IL,61920,217-345-4230
Bohl Trucking,8156 N 16000 East Road,Grant Park,IL,60940,815-465-6471
Fischera Over The Road Freight,4n030 Church Road,Bensenville,IL,60106,630-766-6410
Unique Express,Route 16 East,Shelbyville,IL,62565,217-774-4600
Butler Trucking,608 S Lott Blvd,Gibson City,IL,60936,217-784-5964
"R W & Son Trucking Co, Inc.",2027 W 120th St,Blue Island,IL,60406,708-597-7660
The Newsrack Servicenter,221 So Main Street,Georgetown,IL,61846,217-662-6181
Nelson Trucking,18 Tyler St,Oswego,IL,60543,630-554-9269
Gabriel Trucking,6421 S Carpenter,Chicago,IL,60621,773-592-6155
D W B Trucking,24101 Veterans Rd,Morton,IL,61550,309-694-7183
Schierbaum Exc & Trucking,Box 3152 Fox Hollow Lane,Metropolis,IL,62960,618-524-8491
Schwegel Enterprises,16943 Suncrest,Jerseyville,IL,62052,618-885-5635
Potts & Son Truck Service,207 Ridgeview,Columbia,IL,62236,618-281-3920
Bradrick's Trucking,254 N Monroe,Bradley,IL,60915,815-932-8480
Joe A Smith,Rr #1 Box 22,Hillview,IL,62050,217-983-2080
Smitty's Express Trucking,1011 Bunting Street,Machesney Park,IL,61115,815-874-4473
Platinum Trucking,3025 21st Place,North Chicago,IL,60064,847-785-0100
The Master Bedroom,104 E Main,Heyworth,IL,61745,309-423-2727
"William D Zimmerman Trucking, Inc.",1059 South Hoisington Rd,Winnebago,IL,61088,815-247-8786
Daam Trucking,2812 S Ridgeway,Chicago,IL,60623,773-521-0296
Canes Automotive,1201 Locust Street,Quincy,IL,62301,217-222-2010
Davis Trucking,1012 County Road 700 E,Carmi,IL,62821,618-265-3355
Craig's Trucking Excavation,Rr #2 Lot 191,Charleston,IL,61920,217-345-5433
"Milk Haulers, Inc.",500 Mitchell,Benton,IL,62812,618-435-2053
Kitty Pallets,1003 Cernan Dr,Bellwood,IL,60104,708-493-0701
Mcknelly Trucking,7238 Glenwood Road,Newton,IL,62448,N/A
"Rea Rea Transport, Inc.",2022 S Griswold St Ste B,Peoria,IL,61605,309-673-1855
Just Trucking,272 S 1st St,Kankakee,IL,60901,219-947-0164
Jerry Heimburger Trucking,2925 169th St,East Moline,IL,61244,309-792-1471
Azael Delvillar Trucking,1009 Solfisburg Avenue,Aurora,IL,60505,630-585-7656
Neisen Farms & Trucking,Rr 2 Box 298d,Camp Point,IL,62320,217-593-6658
Mansfield Farms,R R 1 Box 162d,White Hall,IL,62092,217-374-2470
Ed's Repair & Trucking,9602 S Beyer Rd,Pearl City,IL,61062,815-443-2314
O A A M Trucking,14318 Kimbark Avenue,Dolton,IL,60419,708-849-1838
Tmb Trucking,6074 Charles Street,Rockford,IL,61108,815-229-1835
Kness Trucking,5312 106th Ave,Milan,IL,61264,309-787-1378
John John The Mover & Express Delivery,103 Staffire,Schaumburg,IL,60194,312-719-2438
Pencil Express Trucking,22816 Millard Ave,Richton Park,IL,60471,708-503-1170
Grizzly Trucking & Excavating,1514 35th Avenue,Moline,IL,61265,309-797-6734
"Fortuna Transport, Inc.",2312 W 35th St,Chicago,IL,60609,773-523-0107
Michlig Transport,Rr #1 Box 180,Wyanet,IL,61379,815-445-4841
R & N Trucking,841 Corn Flower Road,Marissa,IL,62257,618-587-3981
J & R Trucking,625 1/2 Monroe,Quincy,IL,62301,217-224-4917
Grace & Mercy Trucking,1702 N Parkside Ave,Chicago,IL,60639,773-237-4122
J C Britt Transportation,14525 Rt 71,Yorkville,IL,60560,630-553-9008
Golden Express,241 South Frontage Rd Ste 44,Burr Ridge,IL,60521,630-325-0640
B & T Smith Transport,1925 Pierra Dr,Marion,IL,62959,618-993-8510
Charlestowne Cabinet & Countertop Distributors,1519 E Main St,St Charles,IL,60174,630-377-7878
D J Brown Transportation,15541 South Hoyne,Harvey,IL,60426,708-333-3777
H & R Trucking,Rt 1 Box 10,Broughton,IL,62817,618-647-2593
Aurora Logistics,662 Spruce,Aurora,IL,60506,630-892-6204
Vvk Transport,256 E St Charles Rd Apt 2a,Carol Stream,IL,60188,630-681-1264
Double H Enterprises,3815 Constant View,Decatur,IL,62526,217-233-4525
Charleston Mobile Home Transport Service,530 Reynolds Drive No 54,Charleston,IL,61920,217-345-5559
David Trucking,1431 North 49th,Washington Park,IL,62204,618-271-7471
Stevenson Trucking,Mcguire Ave,Pocahontas,IL,62275,618-664-2747
Wade Trucking,2177 N Rte 26,Dixon,IL,61021,815-288-4179
A-1 All American Services,39575 Dilleys Rd,Wadsworth,IL,60083,847-828-9673
Jr Protano Trucking,32698 Genoa Rd,Genoa,IL,60135,815-739-1255
Two Feathers Trucking,1233 Springdale Drive,Rochelle,IL,61068,815-562-6280
M & A Trucking,5334 W 24th St,Cicero,IL,60804,708-642-8626
Systems Equipment Trucking,15448 S Wentworth,S Holland,IL,60473,708-333-0130
"Nasser Distribution, Inc.",12940 S Wester Avenue,Blue Island,IL,60406,708-388-1600
Lionel A Trevino & Sons,1403 Tall Oaks Drive,Carol Stream,IL,60188,630-561-4819
Don Day Trucking,905 Green St,Ottawa,IL,61350,815-488-2173
Brandenburg Farms,306 W Main Street,Casey,IL,62420,217-232-5821
"E J & J Transports, Inc.",21951 So Jeffrey Ave,Sauk Village,IL,60411,708-757-9535
Rb Transport,3747 W Rt 64 Lot #158,Mount Morris,IL,61054,815-734-7788
Massie Trucking,109 W Pembroke,Tuscola,IL,61953,217-253-2171
Pprf Transportation,6850 W 63rd Street,Chicago,IL,60638,773-788-9441
Bi State Auto Auction,101 Main,Carman,IL,61425,309-873-2208
American Mobile Medical Services,25532 S Linden Ave,Monee,IL,60449,708-534-3514
Bergstrom Trucking Of Rockford,614 Rome Avenue,Rockford,IL,61107,815-395-1904
Midwest Conference Service,35 N Garden Avenue,Roselle,IL,60172,630-351-3976
Mccray Trucking,Rr 2 Box 273 B,Greenville,IL,62246,618-664-4580
C & S Trucking,1681 Us Hwy 67,Preemption,IL,61276,309-534-8136
Arctic Fox Express No 42,6918 Flamingo Court,Peoria,IL,61614,309-692-3417
Tom Davis Trucking,917 E Black Ave,Springfield,IL,62702,217-652-8888
Motor Safety Intermodal & Trucking Co,5626 N Spaulding Avenue,Chicago,IL,60659,773-539-1592
Lloyd D Duty Construction,200 W Front Street,Dongola,IL,62926,618-827-4102
Massey Farms,4525 Raleigh Chapel Road,Raleigh,IL,62977,618-268-6176
K C Trucking,2522 Natalie,East Saint Louis,IL,62204,618-830-5962
Woodland Express,P O Box 549,Coulterville,IL,62237,618-758-1021
Roger Smith Trucking,414 East Ash Street,Brownstown,IL,62418,217-240-0909
Reno Excavating & Trucking,R R 1,Medora,IL,62063,618-729-4495
S & R Trucking,321 N Chicago St,Milford,IL,60953,815-889-4522
Dukhan Auto Transport,4107 N Lawler,Chicago,IL,60641,773-852-0107
Miller Trucking,495 Byers Rd,Murrayville,IL,62668,217-882-3198
Bergmann Truck Service,Rr 1 Box 81 Bb,St Peter,IL,62880,618-349-8787
Sherry Jean Truck Lines,1001 Second Avenue,Sterling,IL,61081,815-626-7619
C & C Enterprise,261 E Shawnee Avenue,Shawneetown,IL,62984,618-269-3832
Roesch Trucking,74 Wedgewood Terrace,Springfield,IL,62702,217-522-1328
Finley Trucking,1103 Saratoga Dr,Danville,IL,61832,217-443-1132
Craters & Freighters,2750 Greenleaf Avenue,Elk Grove Village,IL,60007,847-427-0319
Nepermann Trucking,7055 Garden Prairie Road,Garden Prairie,IL,61038,015-597-1606
Scott Moore & Son Trucking,210 E Division Street,Amboy,IL,61310,815-857-4120
R-express,Route 1 Box 152,Bridgeport,IL,62417,618-945-9361
Conaty Trucking,3950 Spirit Rd,Clinton,IL,61727,217-944-2394
Kar Trucking Co,6024 Aspen St,Matteson,IL,60443,780-720-1244
Brian Nollman Trucking,108 South Walnut,Ohlman,IL,62076,217-563-7861
Van Krugher Trucking Co,2321 N Rockwell Apt 1b,Chicago,IL,60647,773-342-9550
Van Krugher Trucking Co,2321 North Rockwell Apt 1-b,Chicago,IL,60647,773-342-9550
H I S Express,120 Oliver Ct,Schaumburg,IL,60193,847-524-4891
Transcend Corporation,861 Anita Ave,Antioch,IL,60002,847-395-6622
D L S Express,4900 N Monticello #1,Chicago,IL,60625,773-588-2495
M And J Tire Service,6458 Smith Sawmilkl Ln,Brookport,IL,62910,618-564-3353
Jim Barr Trucking,Rt 1 Box 61,Farina,IL,62838,618-483-6726
A & K Trucking,315 Kimble St,Paris,IL,61944,217-465-5779
Aaron Weaver Trucking,Rr #3 Box 126,Mcleansboro,IL,62859,618-757-2531
Gene Kerker Trucking,502 Orchard,Augusta,IL,62311,217-392-2237
Fleming Trucking,501 Schroeder Ave,Peotone,IL,60468,708-258-0173
Rhinehart Farms,1218 N 1st Street,Grayville,IL,62844,618-375-7067
New Life Transportation,2236 73rd Ct,Elmwood Park,IL,60707,708-583-3038
"Rsc Auto Sales, Inc.",1400 3rd Street,Fulton,IL,61252,815-589-4122
Peter Pan Trucking,4615 Grace Street,Schiller Park,IL,60176,847-671-6910
East Alton Auto Mart,300 West St Louis Avenue,East Alton,IL,62024,618-259-6180
S M Trucking,5713 S Sacramento,Chicago,IL,60629,773-476-2823
J & L Auto Recycling,57 Cora Avenue,Fox Lake,IL,60020,847-587-8415
Allstates Auto Sales & Transport,4732 W 135th St,Crestwood,IL,60445,708-385-5355
Wm Hanahan Trucking,8823 West 89th St,Hickory Hills,IL,60457,708-598-1932
Wilson & Son Trucking,324 E 4th Street,Flora,IL,62839,618-662-3032
Double A Trucking,123 Vine Street,Charelston,IL,61920,217-345-8270
Bernice Trucking Co,3645 South State Street,Chicago,IL,60609,773-536-3044
"American Delivery Service, Inc.",834 East Rand Road,Mount Prospect,IL,60056,847-253-0084
R & D Trucking,995 Plum Tree Drive,Crystal Lake,IL,60014,815-477-2369
"S J's Distributing, Inc.",6 Ridge Point Drive,Jerseyville,IL,62052,618-498-1017
Roth Trucking,Rr #2 Box 122,Carlinville,IL,62626,217-854-3756
Jim's Repair Service,610 E National Mine Road,Nashville,IL,62263,618-327-3978
Sauk Valley Farms,1270 Il Route 26 S,Dixon,IL,61021,815-288-2323
Price Trucking,14969 Sand Road,Fulton,IL,61252,309-887-4026
Diesselhorst Transportation,083 Matterville Lane,New Douglas,IL,62074,618-488-7861
Parker Services,1257 Oakdale Drive,Elgin,IL,60123,847-494-5058
Jim Walters Trucking,1702 Erie Avenue,Savanna,IL,61074,815-273-3279
Rskco Loss Control Services,333 South Wabash 28 South,Chicago,IL,60604,312-822-4354
Midtown Auto Sales,4307 4th Avenue,Moline,IL,61265,309-762-2230
Berrios Trucking,Cambell 6627 N,Chicago,IL,60645,773-761-7226
Straight Line Trucking,10324 S Prairie,Chicago,IL,60628,773-995-8286
G J Transport,8500w 103rd Ter Bldg 16 #206,Palos Hills,IL,60465,708-599-3255
Timber Wolf Trucking,1810 Timber Lane,Monticello,IL,61856,217-762-3058
U S Truck Body-midwest,1807 N Bloomington St,Streator,IL,61364,815-672-3211
Zwettler Trucking,110 North John,Teutopolis,IL,62467,217-342-4844
Courtney Trucking,124 Benton Street,Equality,IL,62934,618-276-4729
A & E Auto & Truck Repair,505 West Main,Geneseo,IL,61254,309-944-3407
Northwest Machinery Moving,916 Windsor Rd,Loves Park,IL,61111,815-962-6565
Express Transportation,539 S Lewis,Lombard,IL,60148,773-785-6866
Steininger Trucking,3969 Little Rock Rd,Plano,IL,60545,630-552-4341
Efficient Delivery Systems,280 Daniels Way,Geneva,IL,60134,630-668-4529
R & L Trucking,5032 N 1500th St,Robinson,IL,62454,618-584-3905
Russ Bell Trucking,Rt 1 Box 128,Wapella,IL,61777,309-473-3611
Dlr Transport,110 Sharon Dr Apt 2,Morris,IL,60450,815-467-5210
Curtis Nelson Trucking,1340 Liberty Street,Aurora,IL,60505,630-675-7375
"Nolte Grading And Trucking, Inc.",Box 115a,Golden Eagle,IL,62036,618-883-2653
Longnecker Trucking,Rr 2 Box 140,Sumner,IL,62466,618-947-2731
Scaman Trucking,14585 Lisbon Road,Newark,IL,60541,815-736-9806
Brighton Amoco Service,101 N Maple Street,Brighton,IL,62012,618-372-3952
Rosebud Trucking,10544 S Avers,Chicago,IL,60655,773-779-7670
Waggon Wheel Transportation,20 Cottonwood Trace,Glen Carbon,IL,62034,618-973-0638
J Cantu Trucking,4665 Russelwood Ct,Hanover Park,IL,60103,630-372-1178
Henshaw's Backhole & Dumptruck Service,627 Cemetary Road,Grayville,IL,62844,618-375-7136
Lincolnland Express Illini Express Illini Tours,310 Tiffany Court,Champaign,IL,61822,217-352-6682
"C A S H, Inc.",R R # 1 Box 130,Bonfield,IL,60913,815-426-2937
Chandler Trucking,24301 Sugar Creek Rd,Fieldon,IL,62031,618-498-1310
Cy Trucking,7060 N Kinbourn,Lincolnwood,IL,60646,312-213-7831
Reising Son Trucking,9465 Church Rd,Worden,IL,62097,618-633-2402
D & D Transport,0072 Olive Branch Road,Mounds,IL,62964,618-745-9701
Quincy Waste Services,1720 Silverthorne,Quincy,IL,62301,217-228-8810
Brooks Trucking,Rr #1 Box 10,Brocton,IL,61917,217-822-8469
Bosco Trucking,5800 N 800 Rd,Colchester,IL,62326,309-776-4559
Dunn Road Transportation,1931 165th Ave,Aledo,IL,61231,309-372-8473
A S Transportation,1755 Rand Road #14,Des Plaines,IL,60016,847-803-8007
Omega Charter Service,836 E 87th Street,Chicago,IL,60619,773-734-6688
Thunder Road Transportation,451 76th St,Keithsburg,IL,61442,309-374-2354
Grafton's Trucking,Rr 1 Box 73,Carman,IL,61425,309-924-1847
Maxi Trucking Plus,129 Ridgemoor Dr,Glen Carbon,IL,62040,N/A
Krans Trucking,2371 Knox Hwy 24,Lafayette,IL,61449,309-879-2546
