Company Name,Street Address,Address Locality,Address Region,Postal Code,Telephone
J And J Transport,815 12th St,Tell City,IN,47586,812-719-1711
Diamond Transportation,3109 Monroe Ave,Evansville,IN,47714,270-454-3899
Phillippi Transportation,72433 Cr 11,Nappanee,IN,46550,574-773-5294
Overholts Hauling,5130 W 600 S,Topeka,IN,46571,260-593-2570
George Marchand Transit,11567 Cr 30,Goshen,IN,46528,574-536-5760
Kadeez Transport,5044 Hodson Rd,Indianapolis,IN,46241,317-694-5488
Lee's Transport,414 E Lincoln,Millersburg,IN,46543,574-312-5649
B And B Transportation,702 N Main St,Topeka,IN,46571,260-593-0766
Dina Care Medical Transportation,335 W Essex Ln,Fort Wayne,IN,46825,260-482-2700
Pizo Opco,7901 West Morris St,Indianapolis,IN,46231,870-762-1209
Ta Transport,220 Williams St,North Liberty,IN,46554,574-656-4868
Saylor Trucking,5415 N St 23,Grovertown,IN,46531,574-867-1141
Independent Transport,2946 Treehouse Pass,Greenwood,IN,46143,317-889-1984
Berry Trucking,9958 W 950 S,Kewanna,IN,46939,574-721-4729
Tac Trucking LLC,2519 E Cr 1850 N,Dale,IN,47523,812-937-4431
C & K Hauling,45 N Turkey Creek Road,Liberty,IN,47353,765-580-2293
Ihnen Trucking,4817 N 400 W,Wabash,IN,46992,765-833-6096
H B Transfer,Hwy 150,Shoals,IN,47581,812-296-1492
Hot Wheels Express,3026 Barrington Court,New Albany,IN,47150,502-468-1000
M And B Trucking,1205 Missouri St,Ferdinand,IN,47532,812-309-2348
First Service,5414 East Morgan Ave,Evansville,IN,47715,812-425-3478
Mmttm Trucking,502 N Main St,Lynnville,IN,47619,812-499-3811
Pearson Recovery Service,314 N Burke St,Wolcott,IN,47995,760-430-5035
Haulk Grain Transport,11253 Poplar Grove Rd,Shoals,IN,47581,812-295-3170
Jsn Trucking,309 Pearl Street,Medaryvilly,IN,47957,219-669-4156
Slabaughs Transport,1107 15 B Rd,Bourbon,IN,46504,574-858-2879
T & J Express,937 North State Street,Sullivan,IN,47882,812-564-2233
Hensley Transport,3975 S 325 W,Rochester,IN,46975,574-952-4552
Drew Trucking Co,11917 Tedrow Lane,Shoals,IN,47581,812-709-0645
Rg Transport,2146 Wayne Street,Auburn,IN,46706,260-385-0362
Mueller Automotive Transport,2009 Lawrence Ave,Indianapolis,IN,46227,317-352-2166
L And T Trucking Company,101 Garrettson Ave,Michigan City,IN,46360,219-878-1388
Green Tech Transfer,2500 Green Tech Drive,South Bend,IN,46613,574-232-6000
Auto 64,21 W Sr 64,Oakland City,IN,47660,812-598-9635
Crown Medical Transport,4637 Round Lake Rd Ste G,Indianapolis,IN,46205,317-724-8449
Lsi Auto,9811w Smith St,Yorktown,IN,47396,765-759-8278
Opm Trucking,1639 Sw 39th St,Richmond,IN,47374,765-914-0407
T&c Custom Manure Hauling,25657 Us 6,Nappanee,IN,46550,574-773-4181
Joseph N Jackson Transport,3901 N Kercheval Dr,Indianapolis,IN,46226,317-430-4657
H And K Trucking,9067 W 100 N,Kewanna,IN,46939,574-817-0891
S And S Trucking,5028 Trentwood Ct,Columbus,IN,47201,219-916-0030
"D&m Auto Repair Service, Inc.",1801 Longley Ave,South Bend,IN,46628,574-233-8252
Indiana Technical Service,8443 E 1100 N,Seymour,IN,47274,812-522-2078
Buggy Haulers,4230 N 525 E,Montgomery,IN,47558,812-295-6354
Westmoreland Transportation,1556 Croft Court Ste F,Indianapolis,IN,46260,317-201-6414
Norman Knepp Trucking,4678 E 150 S,Montgomery,IN,47558,812-486-3504
S B Hess Trucking,7397 Janean Dr,Brownsburg,IN,46112,317-858-7566
Glenn Friesen Trucking,18925 Wilderness Dr,Goshen,IN,46528,208-731-2677
International Food Service,900 S Lincoln Way,Ligonier,IN,46767,260-237-7005
Price Excavating And Trucking,27750 Price Lane,West Harrison,IN,47060,812-637-2528
K And T Trucking,431 E 1025 S,Haubstadt,IN,47639,812-615-0152
Schmucker Transport,903 W Centennial St,Nappanee,IN,46550,574-354-2891
Carlson Trucking,1734 State Road 129,Versailles,IN,47042,812-756-0354
Trucks Unlimited,215 Chili Av,Peru,IN,46970,765-327-1585
Dons Auto Sales,126 W 2nd Street,Connersville,IN,47331,765-825-7730
Collins Trucking,4757 Spring Flower Ct,Indianapolis,IN,46237,317-784-8468
Moodys Fleet Service,12550 Charles Rd,Economy,IN,47339,765-993-0738
Machinery Moving,1360 Jackson St,Columbus,IN,47201,812-372-8486
Pritchards Service Center,601 E 10th Street,Bloomington,IN,47408,812-332-9003
Muzi Transport,202 A Oxmoor Way,Avon,IN,46123,317-603-2746
L B Transport,24780 Cr-38,Goshen,IN,46526,574-721-0334
Tennant Trucking,249 Nw J,Linton,IN,47441,812-699-2098
Nature's Transport,2i731 East Fairway Village Drive,Greenfield,IN,46140,317-430-1381
Wermuth Distributing LLC,5016 Blum Drive,Fort Wayne,IN,46835,260-486-4268
Maser Trucking Co,419 S Strawberry Hall Road,Wheatland,IN,47597,812-321-5051
Hummingbird Delivery,3355 East Mitchell Rd,Liberty,IN,47353,765-580-1554
Gregorys Hauling,102 South Arlington St,Greencastle,IN,46135,765-721-2228
Sigma Transportation Services,105 S Kentucky Ave,South Bend,IN,46619,574-307-1442
Mechanics Unlimited,1004 South Huntington,Syracuse,IN,46567,574-457-8606
E Z Way Rental Sales & Service,502 Sr 267,Mooresville,IN,46158,317-831-8601
Troy Hollen Trucking,2455 N Dillard Rd,Birdseye,IN,47513,812-685-2379
Viper Transport,4901 Massachusetts Ave,Indianapolis,IN,46218,317-377-1765
R&k Transport,20017 Cr 6,Bristol,IN,46507,574-524-5985
Jeffers And Sons Transport,100 S Center St,Marshall,IN,47859,765-597-2086
D&k Express,7227 Moeller Road Lot 65,Fort Wayne,IN,46806,260-245-0369
"Madden Distributing, Inc.",1621 Mctavish Drive,Clarksville,IN,47129,812-945-1517
D&l Distributing,5848 Bigge Lane,Evansville,IN,47712,812-985-3230
Ecw Transport LLC,3569 West Co Rd 400 North,Winchester,IN,47394,765-584-2072
Equipment Service,14331 Sanganaw Road,Dillsboro,IN,47018,812-667-5066
Auto Citi Sales,5411 Decatur Rd,Fort Wayne,IN,46806,260-744-8272
Bope Transportation,554 North Elm,Nappanee,IN,46550,574-773-4972
T And T Trucking,3005 N 5th Street,Terre Haute,IN,47804,812-201-6686
D S Trucking,526 Sturdy Rd #203,Valparaiso,IN,46383,219-617-9142
A Ton Trucking,114 Hickorywood Ct,Brownsburg,IN,46112,317-607-4597
R A K Services,19033 Duck Creek Road,Metamora,IN,47030,765-338-9398
Yes Truck,205 N Broadway,San Pierre,IN,46374,219-828-7982
Chn Cable Services,5240 W Barnwood Drive,New Palestine,IN,46163,904-614-2269
Thacker Trucking,1973 Stonington Rd,Mitchell,IN,47446,812-849-5089
Hoyti Toyti Trucking,1077 Greenleaf Blvd #309,Elkhart,IN,46514,574-206-1828
Wild Pony & Trucking,12767 York Hills Dr,Middlebury,IN,46540,574-825-8918
M L K Hauling,4784 East 200 South,Washington,IN,47501,812-486-2907
Donnie Phillips Trucking,167 Emily Lane,Bedford,IN,47421,812-675-1184
Authorized Matco Tools Distributor,51328 Harbor Ridge Drive,Granger,IN,46530,574-344-6437
Bair Boys Trucking,8125 East Us 33,Churubusco,IN,46723,260-693-9320
Jrt,3800 Hwy 41 North,Vincennes,IN,47591,812-882-4415
Brooks Transport,3826 North Arlington Ave,Indianapolis,IN,46226,317-217-0493
Hodan Transportation Service,4237 Holly Hill Dr,Indianapolis,IN,46221,317-856-5644
Amco Trucking,11799 W Drew Rd,Campbellsburg,IN,47108,812-755-4578
Lakeshore Express,4195 N 675 W,Michigan City,IN,46360,219-545-8828
King Trucking,294 South Teddy Bird Ln,Bedford,IN,47421,812-279-8647
Gray Trucking,1147 N Saint Johns Rd,Washington,IN,47501,812-254-0764
1800 Got Junk,5215 B Charlestown Rd,New Albany,IN,47150,502-419-3065
Outlaw Trucking,11962 Bennington Pike,Vevay,IN,47043,513-310-5088
Ray Mcgarrity's Trucking,1778n 1700w,Medaryville,IN,47957,219-843-2018
Ctc LLC,5339 W 38th,Indianapolis,IN,46254,317-412-5818
M W Daugherty Trucking,9805 Old State Road 37,Tell City,IN,47586,812-547-6237
Mid Indiana Auto Transport,2134 Monon Ave,Lafayette,IN,47904,765-430-6499
Bradleys Auto Care,1933 Lexington Ave,Indianapolis,IN,46239,317-752-5608
Veld Trucking,2269 E 700 N,Lake Village,IN,46349,219-345-4561
Rodney Smith Trucking,3202 South Kingman Road,Kingman,IN,47952,765-397-3934
Jones Farrier Services,5022 N Cr 400 W,North Salem,IN,46165,317-442-1611
Pes,5032 South Plaza Drive,Newburgh,IN,47630,812-853-2400
24/7 Emergency Big Rig Service,8234 North State Rd 101,Sunman,IN,47041,816-623-3016
V G Trucking,1016 Rochelle Dr,Lafayette,IN,47909,765-414-1976
Canary Outdoor Power Equipment,538 7th Street,Cannelton,IN,47520,812-547-6464
Personal Touch Transportation,10201 Tournon Dr,Fishers,IN,46037,317-332-8515
C Bar S Cattle Services,570 W State Road 44,Franklin,IN,46131,317-412-1658
C And R Transport,227 N Gladstone,Greentown,IN,46936,765-398-0283
Jeffrey Ravellett Trucking,3303 Polan Hill Rd,Lafayette,IN,47909,812-910-0261
Christy Electric,2561 N Oak Ridge Way,Martinsville,IN,46151,317-752-3050
Delon,9922 North Royal Center Pike,Royal Center,IN,46978,765-586-8128
Ye Ole Speedy Deliveries,530 East Lexington Ave Suite175e,Elkhart,IN,46516,574-294-1299
Djb Trucking,9071 W 400s,South Whitley,IN,46787,260-723-4044
Victory Auto,1804 Victory St,Mishawaka,IN,46544,574-340-9229
"Sjd Transport, Inc.",8218 N Waterford Drive,Columbus,IN,47201,812-929-9841
Superior Trucking Service,7654 Geist Estates Cir,Indianapolis,IN,46239,866-914-1738
Rogers Farms,9658 E Cr 50 N,Logansport,IN,46947,574-721-3452
Triple J Trucking,62840 Cr 35,Goshen,IN,46528,574-238-2523
Schmidt Trucking,5435 W Apple Ln,Salem,IN,47167,812-472-3617
Paul Arroyo Trucking,1903 Morning Light Lane,Greenwood,IN,46143,812-239-3025
Mac Trucking,1391 Snead Circle,Avon,IN,46123,317-272-0463
Indiana State Recovery Services,4379 N 1200 E,Grovertown,IN,46531,574-936-2800
B&b Transport,6951 Highway 335 Ne,New Salisbury,IN,47161,812-366-4838
Gilbert Hauling,4472 W Cr 640 S,Paoli,IN,47454,812-631-0577
Ent Transportation Services,1910 Theodore Dr,Indianapolis,IN,46214,317-248-0385
Team Johnson,1602 Chinook Dr,Bristol,IN,46507,574-215-9907
Schell Transport,1256 S Dequincy St,Indianapolis,IN,46203,317-356-7715
Butler Trucking,7178 N Halls Ridge Rd,Madison,IN,47250,812-839-2098
Technical Services,401 W Chicago St,Syracuse,IN,46567,574-457-4135
My 2 Sons Trucking,1410 W 148th St Apt 2,East Chicago,IN,46312,219-512-4805
Epic Transport,315 E 316 N Ste D,Valparaiso,IN,46383,219-462-3306
Mr Freight Transport,4680 W Nevada Mills Rd,Angola,IN,46703,260-668-6834
E&t Trucking,618 S Cr 175 E,Winslow,IN,47598,812-789-2640
Tds Hauling Services,513 E Lawrence St,Mishawaka,IN,46545,574-255-7866
Sweet Logistics,158 North Street,Westville,IN,46391,219-785-7197
Driving Force,1736 Norwood Drive,Griffith,IN,46319,219-246-6004
C& G Auto Sales,5222 East Melton Road,Gary,IN,46403,219-938-2000
Blaze Transport,512 S Main St,Middlebury,IN,46540,574-312-4919
Tims Hauling,911 South Main St,Clay City,IN,47841,812-201-0167
American Transport,1926 S Gladstone Av,Indianapolis,IN,46203,317-322-3955
U S E,105 N Elm Street,Earl Park,IN,47942,219-474-3893
Greers Hauling,9040 Valley City Mauckport Rd Sw,Mauckport,IN,47142,812-732-8024
Affordable Mobile Home Transport,6300 S Wildwood Dr,Rossville,IN,46065,765-379-2194
Cornerstone Hauling,16210 Willow Lane,Charlestown,IN,47111,812-256-0085
D P J Trucking,8027 East 47th Street,Indianapolis,IN,46226,317-731-5872
Sweet Chariot Transportation,10316 Hornton St,Indianapolis,IN,46236,317-493-1440
Big Glenns Trees Service,3307 Manor Ct,Indanapolis,IN,46218,317-428-9462
Ex Wife Trucking,5118 Sandhurst Drive,Indianapolis,IN,46217,317-694-3361
Gray Moving,1126 Trowbridge St,Indianapolis,IN,46203,317-833-2566
Levites Auto Transport,679 Old Plank Rd,Franklin,IN,46131,N/A
For Hire,716 211th Street,Dyer,IN,46311,219-308-6418
Coys Wrecker Service,2310 E Lee Dr,Indianapolis,IN,46227,317-859-1083
The Runner Delivery & Transport Specialist,3711 N Sherman Dr,Indianapolis,IN,46218,317-426-4970
Km Carrier,3455 Summer Breeze Ln,Indianapolis,IN,46239,N/A
Sjs Trucking,6590 Hartford Pike,Aurora,IN,47001,812-532-9123
Jd's Transport & Services,52608 County Road 21,Bristol,IN,46507,574-848-1026
"Do It Right Transmission, Inc.",4024 Broadway Ave,Evansville,IN,47712,812-401-4456
Elite Concrete Services,1023 Nicholas Drive,Boonville,IN,47601,812-641-0370
Harris Home Services,241 S Court St,Sullivan,IN,47882,812-905-0048
Summit Trucking,743 N Main St,Auburn,IN,46706,260-925-1539
Holt Mobile Home Transport,7668 Tommy George Rd,Shoals,IN,47581,812-388-6518
Kevins Transmissions,4525 Andrews St,Columbus,IN,47203,812-343-5678
Millers Chimney Lining Service,59725 Cr 35,Middlebury,IN,46540,574-825-2681
Jmh Trucking,1984 Hamilton St,Portage,IN,46368,219-762-2582
Tours Juz4u,3320 N Emerson,Indianapolis,IN,46218,317-523-4317
Grannys Fleet,10891 S 47,Waveland,IN,47989,765-435-2726
Mid America Transport & Trucking Services,726 Syracuse Drive,Lebanon,IN,46052,765-891-0858
Dave's Delivery,646 E 38th Street,Indianapolis,IN,46205,317-931-1040
T C Transport,979 Highfield Ct,Middlebury,IN,46540,607-280-0088
Lllinc,3311 Willowcreek Rd Ste 167,Portage,IN,46368,219-406-4425
Bill-lin Trucking,19870 Elm Rd,Tippecanoe,IN,46570,574-498-6371
Husky Express,2490 Mayhew Drive # 2,Indianapolis,IN,46227,317-333-4989
Slr Transport,Rr 2 Box 253,Elberfeld,IN,47613,812-677-7382
Mills Trucking,3935 E Beulah,Terre Haute,IN,47805,812-240-2265
Wbtts,66160 Us Hwy 31,Lakeville,IN,46536,574-307-0297
Erss,3370 W 1000 S,Pendleton,IN,46064,765-778-8040
A And J Transport,2785 S 900 W,Topeka,IN,46571,478-244-9667
Whitford Transport,2956 E 275 N,Rockville,IN,47872,765-569-0003
Indy Limo Transport,10622 Howe Rd,Fishers,IN,46038,317-417-7712
Kernan & Son Trucking,92 Tebbs Avenue,Greendale,IN,47025,513-313-5969
Indy Truck Sales,1325 West Thompson Road,Indianapolis,IN,46217,317-787-0200
Scott Shannon Trucking Company,6600 Central Avenue,Portage,IN,46368,219-808-5991
Black Diamond Express LLC,5506 Riviera Dr,Fort Wayne,IN,46825,334-328-7678
Conner Hauling,2300 Norton Ln,Bedford,IN,47421,812-583-1958
Grumpys Trucking,2205 Versailles Dr,Kokomo,IN,46902,765-860-9867
Mclaughlin Service And Sales,2700 S Madison St,Muncie,IN,47302,765-282-6319
Giles Trucking,6128 Ashbrooke Rd,Evansville,IN,47710,812-454-1314
Jarms,2731 Denison St,Indianapolis,IN,46241,317-388-9089
Jrs Junior Non Medical Transportation,23737 Us Hwy 33,Elkkhart,IN,46517,574-875-4019
Howard Trucking,1650 W 57th St,Indianapolis,IN,46228,317-674-6988
T & S Trucking,12938 5a Rd,Plymouth,IN,46563,574-248-2913
Bobo Transport,10525 Windward Drive,Indianapolis,IN,46234,317-286-3748
Combs Septic Service,2031 South Sr 119,Winamac,IN,46996,574-946-6864
R A Stratman Trucking,11866 Bluebell Rd,Elberfeld,IN,47613,812-983-3481
West Coast Trucking,618 Waterview Dr,Indianapolis,IN,46224,661-916-9876
Mfd Trucking,1685 N Us 41,Williamsport,IN,47993,765-585-3918
T & M Distribution,8600 Calumet Ave,Munster,IN,46321,219-577-4504
Fryar Lowboy Service,4743 N Greege Co Line Rd,Bloomington,IN,47803,812-327-2208
Hopes Truck Service,11660 N 700 E,Odon,IN,47562,812-486-9109
Tobin Brothers Moving & Storage,8010 Castleton Road,Indianapolis,IN,46033,317-849-7900
A-1 Pioneer Moving & Storage,8010 Castleton Road,Indianapolis,IN,46250,317-849-7900
Laras Auto Service,308 Ohio St,Crawfordsville,IN,47933,765-299-3652
Harley Trucking,10253 N 775 E,Odon,IN,47562,812-259-5725
Caring Hands Transportation,3136 N Tacoma Ave,Indianapolis,IN,46218,317-428-9460
Csk Transport,1814 Prairie St,Elkhart,IN,46516,574-849-9911
Victory Lane Auto,3364 N Sr 9,Anderson,IN,46012,765-551-2202
R & R Fultz Trucking,5232 N St Rd 63,Cayuga,IN,47928,765-585-4210
Ken2yu Transports,6522 Whitethorn Ct Apt 2b,Indianapolis,IN,46220,817-292-9358
Cook Trucking,3426 W Us Hwy 150,Paoli,IN,47454,812-723-5948
Pic Wheels Transport,10261 Toll House Way,Fishers,IN,46037,317-385-4127
Casebolt Trucking,3455 Boundary Way,Tell City,IN,47586,812-457-3001
Jimenez Transport,4938 Columbia Ave,Hammond,IN,46327,773-908-5676
Gregory G Anderson Trucking,7720 Camby Rd,Camby,IN,46113,317-407-7900
Browns Auto Hauling Plus,7048 Liberty Rd,Tell City,IN,47586,812-836-2008
Prime Transportation,5035 Edinburgh Lane,Indianapolis,IN,46241,317-351-1201
Love And Kindness Transportation,1802 Edinburge Sq #6,Indianapolis,IN,46219,317-352-0027
Perdue Trucking,9930 S 100 W,Columbus,IN,47201,812-342-6835
Gods No 1 Trucking Co,19 Hemlock Dr,Washington,IN,47501,812-259-0633
Ms Transporter,22931 Foxfire Drive,Elkhart,IN,46514,904-383-2820
K & E Trucking,798 Steam Engine Rd Nw,Corydon,IN,47112,812-267-1446
Countywide Auto Repair Service,801 West Church Street,Lynn,IN,47355,765-874-2651
No Limit Trucking,5425 Sampson Dr,Indianapolis,IN,46237,317-919-0592
Cbs Express,8031 E 157th Ave,Hebron,IN,46341,219-996-6228
Kts Express,11981n 1000e,Odon,IN,47562,770-205-0218
Kestler Trucking Co,3010 Dr Andrew J Brown Ave,Indianapolis,IN,46205,317-920-1112
All Star Wrecker Service,3303 Westfield Road,Noblesville,IN,46062,317-520-6261
Syb Trucking,7444 Hiner Lane,Indianapolis,IN,46219,317-409-4762
Griffin Trucking,3992 Broadway,Gary,IN,46409,219-938-7103
Indiana Auto Connection,6620 N 675 W,Shipshewana,IN,46565,260-768-3101
Dove Transportation,327 Elizabeth Ct,Bainbridge,IN,46105,765-522-3024
J And B Cannon Trucking,1683 S Cr 300 W,Petersburg,IN,47567,812-354-6127
Alexander Express,4210 Winter St,Fort Wayne,IN,46806,260-744-4321
Golden Rule Auto,3401 North Arlington Ave,Indianapolis,IN,46218,317-546-9128
Dodds Trucking,2105 Mayfair Dr,Indianapolis,IN,46260,317-726-0836
Lowers Service,R T 1 Box 660,Springville,IN,47462,812-825-2150
R V Wagler Trucking,11499 E 275 N,Loogootee,IN,47553,812-295-3466
Paula Price,1115 Welworth Ave,Evansville,IN,47714,812-303-4997
B N Express,8007 Whittier Ct,Fort Wayne,IN,46818,260-399-3827
Juarez Trucking,6814 Maryland Avenue,Hammond,IN,46323,219-513-8112
Quinn Trucking,331 S Cr 1075 W,French Lick,IN,47432,812-936-2213
Quinn Transportation,319 S Cr 1075 W,French Lick,IN,47432,812-936-7608
Complete Higlift Service,8101 Voyles Rd,Greenville,IN,47124,812-923-8976
Jkm Trucking,227 Virginia St,Sellersburg,IN,47172,502-639-1550
Lws Trucking,7150 S Ott Rd,Connersville,IN,47331,765-825-4462
Sparkle Pool Service And Supply,5820 Massachusetts Ave,Indianapolis,IN,46218,317-545-1980
Katie Truck Lines,315 Jodi Ln #a,Valparaiso,IN,46385,317-535-7262
Johnsons Lawn Mowing Service,721 E Broadway Street,South Bend,IN,46601,574-289-0235
Timber Wolf Trucking,5440 N Sr 5,Shipshewana,IN,46565,260-463-0108
Jmj Trucking,6276 Quail Ridge West,Plainfield,IN,46168,317-839-3138
Two Men And A Truck,11614 Mckinley Hwy,Osceola,IN,46561,574-675-9700
Pyramid Express Shuttle,3502 N Emerson Ave,Indianapolis,IN,46218,317-591-1829
Dilsco Trucking,110 Nw 1st Street,Paoli,IN,47454,812-865-0288
Obs Trucking,56581 Cr 13,Elkhart,IN,46516,574-295-7121
Chigger Trucking,9600 Mill Road,Shoals,IN,47581,812-709-0023
Sedo And Duncan Transportation,401 Ohio St,Laporte,IN,46350,219-325-9623
H & H Grave Service & Excavating,8487 N Co Rd 100 W,Orleans,IN,47452,812-653-2947
R And C Trucking,601 E 5th Street,N Manchester,IN,46962,260-982-1060
Stamp Distributing,561 Nowlin Ave,Lawrencburg,IN,47025,812-537-3253
Dlm Trucking,202 N Short St,St Paul,IN,47272,765-525-6661
Ballard Construction Services,3673 E 200 N,Peru,IN,46970,765-472-2874
Indiana Pontiacs,7901 N Co Rd 600 W,Gaston,IN,47342,765-748-3105
J And V Trucking,2551 E Epler Ave,Indianapolis,IN,46227,317-524-8426
Falcon Distributing,1556 W Lusher Ave ,Elkhart,IN,46517,574-234-9135
Inside Out Trucking,14822 Rosebud Dr,Noblesville,IN,46060,765-623-7220
Ampro,616 S 4th Street,Elkhart,IN,46516,574-293-3073
Beights Trucking,771 International Drive,Franklin,IN,46131,317-300-0109
Dons Family Trucking,2824 N Keystone,Indianapolis,IN,46218,317-357-8001
Overholt Trucking,52353 Cr 17,Bristol,IN,46507,574-266-6772
Fultz Trucking,8786 N Meridian Rd,Perrysville,IN,47974,765-230-0705
Dalton Distributing,1118 Historic Lincoln St,Anderson,IN,46016,765-642-1659
Rhino Transport,9176 Springhill Dr,St John,IN,46373,219-730-1779
Refiners Worldwide,101 Chateau Dr,Laporte,IN,46350,219-898-0088
Semento Trucking,7940 E Us Hwy 50,Montgomery,IN,47558,812-257-1505
Anvil Trucking,27827 N Arthur Baker Rd,Atlanta,IN,46031,317-250-2852
V And L Trucking,121 E 3rd St,Cannelburg,IN,47519,812-486-3997
Grays Hauling,8244 Chestnut,Newburgh,IN,47630,812-842-0498
Atlantic Express,2022 S Scott St,South Bend,IN,46613,269-845-9906
Expressway Dodge,5531 East Indiana St,Evansville,IN,47715,812-471-2000
Smith Forklift Service,1840 Whiskey Run Rd,New Salisbury,IN,47161,812-347-0239
Douglas Transport,4800 Andover Ct,Bloomington,IN,47404,812-325-1572
Nite Out Transportation,607 Railroad Avenue,Aurora,IN,47001,812-926-4057
J & D Trucking,1102 W Private Rd 1040 N,Brazil,IN,47834,812-443-0207
Bob's Transport,2324 4th St,Mishawaka,IN,46544,574-256-0581
Pendley Trucking,207 S Co Rd 1075 W,French Lick,IN,47432,812-936-2748
Johns Hauling,3359 N 500 W,Peru,IN,46970,765-472-4252
Turnkey Trucking,779 Peru St,Cicero,IN,46034,317-984-4824
Lubana Trucking,7809 Ella Dobbs Lane #108,Indianapolis,IN,46227,317-534-7151
Whitetail Trucking,9650 Mill Rd,Shoals,IN,47581,N/A
Foster Transports,907 May St,Hammond,IN,46320,219-937-2915
Ecs Trucking,5927 River Walk Circle,Newburgh,IN,47630,812-962-1847
Jake Knepper Trucking,2764 E 1100 N,Chrisney,IN,47611,812-362-8123
Belters Seamless Gutter Service,9943 E St Rd 46,Greensburg,IN,47240,812-663-6909
Airlift Services International,8201 N State Road 9,Alexandria,IN,46001,765-643-9480
Jackson Trucking,10024 East North 00 Sourth,Marion,IN,46952,765-998-2531
Rsl Transportation,9843 Ellis Drive,Indianapolis,IN,46235,317-201-6852
D A Smith Transport,508 N High School Road,Westport,IN,47283,812-591-3964
Watson Trucking,7111 Westfield Blvd,Indianapolis,IN,46240,317-726-0860
Jrs Trucking,882 S Burnettsville Rd,Burnettsville,IN,47926,574-826-2092
Johnathon Frink Trucking,7848 E State St,Dugger,IN,47848,812-789-6161
Ken Mar Farms & Trucking,3980 East Us Hwy 20,Angola,IN,46703,260-665-3068
"Triple X Trucking, Inc.",6658 E 45th Street,Indianapolis,IN,46226,317-402-8540
Trio Trucking,10755 W 050 N,Middlebury,IN,46540,260-336-6698
Bts,3925 East New York Street,Indianapolis,IN,46201,317-632-5374
Himes Automazing,18642 Tomlinson Rd,Westfield,IN,46074,317-867-5965
Cockerham's Wrecker Service,1874 South Hart Street Road,Vincennes,IN,47591,812-885-0800
Ml Transport,3620 W 200 N,Marion,IN,46952,765-384-7511
Banter Transport,2782 W 200 N,Hartford City,IN,47348,765-348-1526
"Bren Shar Transportation, Inc.",13711 State Road 46,Sunman,IN,47041,812-623-4458
K And M Medical Transportation,5904 Laketon Dr,Indianapolis,IN,46205,314-444-9665
H2,1481 E 600 N,Huntington,IN,46750,260-494-2276
Everdry Of Northern Indiana,5417 Sr 930 E,Fort Wayne,IN,46803,260-493-4100
Arlie Campbell Hauling,1739 Blue Bluff Rd,Martinsville,IN,46151,765-352-9697
Burris Transports,7199 Sandlick Rd,Freedom,IN,47431,812-829-2892
C And S Transport,1847 Bachelor Ln,Rochester,IN,46975,574-223-7636
Tapia Transportation,3227 Watergate Malls Apt 4,Indianapolis,IN,46224,317-431-8716
Ibarra Auto Sales,3120 W Western Ave,South Bend,IN,46619,574-286-0618
Kc Enterprizes,20 W Butcher St,Geneva,IN,46740,260-849-2785
Bonds Dumptruck Service,7745 W Cr 600 S,Reelsville,IN,46171,765-672-4053
Assured Irrigatioin Services,8218 E 550 S,Zionsville,IN,46077,317-769-5041
The Mccampbells,2817 New Haven Av,Fort Wayne,IN,46803,260-420-0087
Stogsdill Trucking,519 Harvest Meadow Way,New Whiteland,IN,46143,317-535-5565
My Way Trucking,100 Washington St,Saint Joe,IN,46785,260-337-0214
J And P S Routine Trucking,3281 N Centennial St,Indianapolis,IN,46222,317-927-9592
Touchwood Express,2977 Sentiment Lane,Greenwood,IN,47143,317-215-4912
Aj Trucking,8274 West 425 South,Medora,IN,47260,812-966-2370
Cole Trucking,3547 W Cr 600 N,Shelburn,IN,47879,812-397-5572
T And R Hauling,4970 Bellsville Pike,Nashville,IN,47448,812-988-7382
Advanced Auto Recovery,2532 Central Dr,Fort Wayne,IN,46803,260-486-2474
Krueger Farms And Trucking,12838 E Cr 900 N,Seymour,IN,47274,812-445-3044
K And D Trucking,10388 Ehwy 450,Shoals,IN,47581,812-388-5744
Jeff W Dike Farms & Trucking,12733 Nsr 161,Dale,IN,47523,812-536-4020
J & S Transfer,484 S 500 West,Valparaiso,IN,46385,219-988-4011
Holloways Haul Away,1533 S Rural,Indianapolis,IN,46205,N/A
Mills Trucking,400 Lowery Ave,Crothersville,IN,47229,812-793-2623
Wetzel Trucking,1851 W County Road 600 N,Brownstown,IN,47220,812-497-2600
Marner Trucking,2497 S Sr257,Washington,IN,47501,812-486-3575
Quick Freight Express,1100 W 4th St Lot 79,N Manchester,IN,46962,260-982-4477
Drc,5343 Montavia Ln,Indianapolis,IN,46239,317-640-1100
"Jwa Distributions, Inc.",2943 Woodrow Ave,Michigan City,IN,46360,574-988-0020
Josh Brown Trucking,8510 S Cr 50 W,Clay City,IN,47841,812-241-0636
A G Trucking,6315 Silvermoon Ct,Indianapolis,IN,46259,317-245-8492
Scott Truck And Trailer Repair,2856 S Mountain Rd,Waynetown,IN,47990,765-234-2324
Sta Dry Waterproofing,1828 E 725 S,Washington,IN,47501,812-644-7692
J Line Express,2520 W 750 N,Decatur,IN,46733,260-547-4651
A & J Express,1146 S 1450 East,Akron,IN,46910,574-893-1781
Finnegan Trucking,4521 East 100 South,Francesville,IN,47946,219-567-2866
Brian Martin Trucking,224 N Maple,Dana,IN,47847,217-251-7411
Fast Lane Trucking,3958 S Co Rd 300,Winslow,IN,47598,812-789-5481
Ewing Custom Transport,3812 E Greenwood Church Rd,Liberty,IN,47353,765-458-6473
Keeylen Trucking,2045 Silver Drift Ct,Indianapolis,IN,46229,317-223-8236
Asa Delivey Service,8408 Becks Mill Ln,Camby,IN,46113,317-856-1495
Yoders Transportation Service,6705 N 550 W,Shipshewana,IN,46565,260-562-3731
Chipman Excavating Services,3436 Dutch Ridge Road,Rising Sun,IN,47040,812-438-3255
Matt's Hauling,5200 Tennyson Rd,Tennyson,IN,47637,812-567-9877
Dj Trucking,6828 E 47th St,Indianapolis,IN,46226,317-546-2595
T Fox Trucking,305 Moore Ave,Pendleton,IN,46064,765-661-6786
Wz Trucking,911 Chicago St,Valparaison,IN,46383,219-462-6501
Eubank And Son Mobile Home Transport And Service,3130 N Sr 75,North Salem,IN,46165,317-371-7958
Z And R Trucking,418 E 1100 N,Alexandria,IN,46001,765-724-2711
Pine Ridge Transport,6785 N 1150 W,Shipshewana,IN,46565,574-825-9187
Raw Trucking,2580 E 275 N,Rockville,IN,47872,765-569-3479
Carrico Transportation Co,112 Clark Street,Jeffersonville,IN,47130,812-282-5337
Daniels Family Express,122 E Mill St,Topeka,IN,46571,574-202-0846
Overlord Logistics,206 White Street,Shirley,IN,47384,765-737-6350
F And I Material Hauler,3569 West 159th Court,Lowell,IN,46356,219-696-7543
B And K Trucking,8372 E 100 N,Cannelburg,IN,47519,812-486-3734
Lewis Trucking,767 E Cr 450 N,Milan,IN,47031,812-689-5277
Krauz Distributing,301 South Street Apt B,Howe,IN,46746,260-562-3167
Tractorhaulic,206 East Carr St,Milan,IN,47031,812-654-4498
Nifong Hauling And Excavating,9270 W 500 N,Etna Green,IN,46524,574-858-2687
D And J Trucking,5999 N Finks Rd,Osgood,IN,47037,812-852-4326
Lucky National,2957 Sentiment Lane,Greenwood,IN,46143,317-881-9151
Richter Transportation,9270 E State Road 120,Howe,IN,46746,260-350-3053
Cfa Staffing,7120 Zionsville Rd,Indianapolis,IN,46268,317-354-1102
Dondiego Transportation,9331 136 Pl,Cedar Lake,IN,46303,219-880-6648
Gateway Management,546 E 17th Street,Indianapolis,IN,46204,800-518-8467
Asphalt Engineers Paving And Trucking Co,58805 Beech Rd,Mishawaka,IN,46544,574-876-2570
Twisted Trucking,1746 Midnight Pass,Brownsburg,IN,46112,317-456-4100
Stagecoach Transportation,120 Curtis Street,Shipshewana,IN,46565,260-768-4434
"Nuborn Delivery, Inc.",19085 Dresden Dr,South Bend,IN,46637,574-271-3291
S & L Transport,1949 Cedar Ave,Huntington,IN,46750,260-519-2184
Wakarusa Tree Spade,30413 Cr 38,Wakarusa,IN,46573,574-862-3121
Ra Ha Delivery Service,4435 Monroe St,Gary,IN,46408,219-884-5495
Bills Custom Hauling,1230 Heth Washington Rd Sw,Corydon,IN,47112,812-732-1174
Kat & Chrissy Trucking,6288 Turner Dr,Clayton,IN,46118,317-539-2489
Otr Express,9219 Indianapolis Blvd,Highland,IN,46322,574-307-0177
Lucky 7 Distributing,46 E Tilden Dr,Brownsburg,IN,46112,317-858-0557
Express Mobile Washing,2803 Stevenson St,Gary,IN,46406,219-384-6248
Gm Transport,8992 West State Road 64,Huntingburg,IN,47542,812-536-3567
Stidds Delivery Service,5720 South Victor Pike,Bloomington,IN,47403,812-824-7927
D And D Trash Service,234 W Oak Hill Rd,Crawfordsville,IN,47933,765-359-1610
Ben Carpenter Trucking,7525 N 900 E,Darlington,IN,47940,765-794-8435
Wallers Bobcat Service,1 Ivan Allen Rd,Bennington,IN,47011,812-427-9026
Money Concrete Service,318 Reba Jackson Dr,Jeffersonville,IN,47130,812-288-7793
Wolf Pak Trucking,427 West King Street,Franklin,IN,46131,317-738-3648
Cherokee Trucking Co,28 Park Forest Ct,Crawfordsville,IN,47933,765-376-2505
Tango Express,2555 Brown Chapel Road,Boonville,IN,47601,812-897-5700
Rk Trucking,615 E Elnora St,Odon,IN,47562,812-636-8559
G & G Trucking,534 Sheridan Rd,Noblesville,IN,46060,317-773-5653
Hubbells Transport,3599 South Cr 200 W,Greencastle,IN,46135,765-655-3293
Tournament Towers,757 E 86th St ,Indianapolis,IN,46240,317-251-4732
American Jaitorial Service,4510 N Lesley Ave,Indianapolis,IN,46226,317-549-2803
How About That,1840 N 700 W,Rensselaer,IN,47978,219-866-8559
Ward Trucking,630 N East St,Greenfield,IN,46140,317-462-2898
Jett Carrier,1306 Brecken Ridge Pass,Fort Wayne,IN,46845,260-637-9294
J And S Transport,1403 E Franklin,Evansville,IN,47711,812-303-7124
Smith's Automotive,5595 S State Road 1,Connersville,IN,47331,765-825-2044
Beckman Transport,28776 Orangetown Road,English,IN,47118,812-843-4193
Showtime Transport,8235 Mcfarland Rd Ct 10,Indianapolis,IN,46227,317-910-8546
Goeppner Trucking,2368 Mechanics St,Otwell,IN,47564,812-354-8582
Ocelot Priority Logistics,57195 County Road 35,Middlebury,IN,46540,574-536-0079
Wheelers Auto Sales,1321 Mccullough Pk,Clarksville,IN,47129,812-542-0703
Mt Pockets Limo Service,52119 Fieldstone Ln,Granger,IN,46530,574-707-8535
Certified Auto Exchange,9801 Fall Creek Road # 324,Indianapolis,IN,46256,317-250-0343
Wheelers Auto Parts,1301 Mccullough Pk,Clarksville,IN,47129,812-944-1421
Recycle Management Service,2232 Burton Lane,Martinsville,IN,46151,812-325-3811
Hill Top Trucking,Rr 1 Box 522,Linton,IN,47441,812-847-2988
Curry Trucking,348 W Co Rd 200 South,Versailles,IN,47042,812-689-5758
B & B Trucking,410 S Mill Street,Veedersburg,IN,47987,765-294-4385
Lil Fella Trucking,2705 N Keystone Ave,Indianapolis,IN,46227,317-650-3909
R & D Transportation LLC,7465 N 300 W,Howe,IN,46746,260-562-2958
Bundy Transport,6364 Rivervalley Way,Indianapolis,IN,46221,317-856-1154
Rl Service,5479 W. State Rd. 54,Switz City,IN,47465,812-360-7919
B And C Smith Trucking,6590 S Beal Road,Vincennes,IN,47591,812-887-3030
Dobbs Transportation,5527 W Beechwood Ln,New Palestine,IN,46163,317-710-4676
Brandon Palmer,3310 N Shadeland,Indianapolis,IN,46226,317-591-9000
Mcdowell Trucking,5493 S Sr 61,Winslow,IN,47598,812-789-9559
J E Cook Trucking,6618 S 300 W,Boswell,IN,47921,765-299-2943
A And E Salvage And Recycling,478 E Sr 54,Sullivan,IN,47882,812-268-1900
R And J Trucking,2050 S Kings Ridge Rd,Birdseye,IN,47513,N/A
D&s Transport,9244 W 500 S,Mentone,IN,46539,574-353-1913
Office Relocation And Installation Services,4505 Lower Huntington Road,Fort Wayne,IN,46809,260-478-5599
Jaffe Trucking,52261 Holly Hock Road,South Bend,IN,46637,574-272-4298
Mccrarys Trucking,2073 S 310 W,Vallonia,IN,47281,502-794-4559
Mcadams Freight Express,14868 Victory Lane Box 99,Moores Hill,IN,47032,812-744-1047
Two Step Express,927 N Main St,Sullivan,IN,47882,812-564-1740
Gregory Trucking,849 S Harvey Rd,Greenwood,IN,46143,317-862-1697
Tradewinds Transport,107 Leatherwood Circle,Bedford,IN,47421,812-583-3021
Low Cost Mobility Services,19 E Ames,Anderson,IN,46012,765-608-6143
R L Smith Trucking,500 E Maple St,Washington,IN,47501,812-698-0329
Jeffrey W Lee Trucking,10255 Eagle Crest Lane,Elberfeld,IN,47613,812-983-3504
C & J Transportation,14414 Spencerville Rd,Grabill,IN,46741,260-704-1169
Kevin Stantz Trucking,1504 Lampher Farms Rd,Coal City,IN,47427,812-585-0271
Db Trucking,1740 E 200 S,Knox,IN,46534,574-772-4362
Barrett Enterprises,212 N Main,Reynolds,IN,47980,765-490-7462
"Bnk Logistics, Inc.",1939 N Lafayette Court,Griffith,IN,46319,708-880-3466
Sollman Farms,11500 S 150 E,Haubstadt,IN,47639,812-768-5962
Edc Distributing,1057 Hermatige,South Bend,IN,46614,574-299-9020
Ann Foust Trucking,3890 West State Road 56,Petersburg,IN,47567,812-354-7439
Ted Harlan Trucking,132 Sw 13th St,Richmond,IN,47374,765-977-7356
Drake Transport,1191 S Nineveh Rd,Franklin,IN,46131,317-736-4609
St Rt 121 Service Center,5239 New Paris Pk,Richmond,IN,47374,765-962-4000
Windy City Distributors,3883 S Sycamore Ln,Columbia City,IN,46725,260-503-5000
L And M Transport,7056 Sybil Rd,Cannelton,IN,47520,812-608-0694
Eric Sebasty Trucking,404 S Maple Street,Akron,IN,46910,574-598-2988
Double K Trucking,11227 S 300 W - 90,Montpelier,IN,47359,765-728-2837
Just-in Time Trucking,2887 W Market St,Liberty Center,IN,46766,260-694-6476
C And W Trucking,9714 W 650 S,West Point,IN,47992,765-572-2205
T S Express,4835 Pebble Way East Apt G,Indianapolis,IN,46268,317-299-4633
Kirby's Rv Transportation,118 Benwell Place,Yoder,IN,46798,260-403-0758
Msk Enterprises,3321 Pavetto Ln,Indianapolis,IN,46203,317-222-6536
Phantom Express,5002 S 325e,Franklin,IN,46131,317-491-4697
Money Getters,1309 E 9th Street,Jeffersonville,IN,47130,812-285-0040
Klass Trucking,3342 Old Hwy 67,Freedom,IN,47431,812-829-9329
Coops Wrecker Service,4622 E 34 St,Indianapolis,IN,46218,317-546-4735
Smith Enterprises,101 North Mckinley,Angola,IN,46703,260-665-2168
E Rose Trucking,5910 E 700 S,Wolcottville,IN,46795,260-351-2702
Digger's Amish Van Service,825 S 500 E,Lagrange,IN,46761,260-463-2199
County Line Angus,18470 S St Rd 58,Seymour,IN,47274,812-342-2858
Abrams G And S,9911 W Mallory Rd,Bloomington,IN,47404,812-876-5705
R & R Transport,56398 County Road 33,Middlebury,IN,46540,574-825-9370
Buds Auto Sales,4113 National Road West,Richmond,IN,47374,765-969-0961
Marsh Transportation,801 W Wilden Ave,Goshen,IN,46528,574-533-9603
Ss Express,Po Box 4,Winchester,IN,47394,765-744-7934
A & R Transport,4240 E 275 S,Lagrange,IN,46761,260-499-0326
Skiles Trucking,9172 W 225 N,Delphi,IN,46923,765-564-6862
Pinnacle Lawn Care,1707 Winters Road,Fort Wayne,IN,46819,260-385-2716
Miller's Driving Service,955 S 200 E,Lagrange,IN,46761,260-463-2812
Mdr Trucking,8474 N County Rd 800 E,Sunman,IN,47041,812-623-2613
Hammerhead Hauling And Septic Service,7636 E Woodlawn Ave,Indianapolis,IN,46239,317-691-7599
Personal Service Limousine,700 Meridian St Suite 140,Anderson,IN,46016,765-643-9797
Rock Run Taxi Service,15499 Cr38,Goshen,IN,46528,574-642-4787
Mm Express,7075 S 750 W,Topeka,IN,46571,260-593-2162
Sr Transport,61575 County Road 133,Goshen,IN,46528,574-202-9060
Gutswear,4933 W 12th St,Speedway,IN,46224,317-240-1053
American Mitsuba,21600 Monroeville Rd,Monroeville,IN,46773,260-623-3700
Gardner Lawn Care Service,0160 W 600 N,Howe,IN,46746,260-562-2790
Trudeau,9482 N 307 W,Lake Village,IN,46349,219-992-9411
Tcl Transport,12380 Cr24,Middlebury,IN,46540,574-825-5629
Herm's Transport,6659 W 1100 N,Nappanee,IN,46550,574-536-1199
Yoders Taxi Service,5518n 1100w,Etna Green,IN,46524,574-354-0720
P And J Trucking,1053 S 525 E,Rensselaer,IN,47978,219-394-2601
Mb Transport,457 N Benton,Millersburg,IN,46543,574-642-0034
J Mars Trucking,1638 171st Place,Hammond,IN,46324,219-669-7026
Roth's Pony Express,8990w 350n,Shipshewana,IN,46565,260-768-4464
D & A Frye Transport,0198e Sunny Acres South,Rome City,IN,46784,260-854-3096
Robertsons Transport,6873 E Old Sr 144,Mooresville,IN,46158,317-834-8258
Fergusons Hauling,0440 W 025 N,Lagrange,IN,46761,260-336-4446
J And J Trucking,9307 W Zimmerman Rd,Birdseye,IN,47513,502-753-9029
Ammons Lawn And Garden Service,4700 Glass Sand Road Se,Elizabeth,IN,47117,812-969-3698
J And V Delivery,6218 Beghsedia Rd,Coal City,IN,47427,812-859-4615
Hp Hauling,224 S Stewart St,Bremen,IN,46506,574-546-4257
Abner Trucking,1965 Mangus Rd,Poland,IN,47868,812-829-0244
Brown Trucking,2628 N Alabama,Indianapolis,IN,46205,317-925-1617
Express Transport,291 Cobble Lane,Hebron,IN,46341,708-705-5228
Ramsey Building Service,7574 East 350 South,Akron,IN,46910,574-893-7009
Winding Roads Beverages,2421 S Nappanee Suite I,Elkhart,IN,46517,574-295-3565
Dagwood Transport,7188 Phllips Rd,Tennyson,IN,47637,812-567-4050
Ju Jus Limo Service,6924 Vistamere Way,Indianapolis,IN,46250,317-201-7342
Chaler Express,506 Nw 5th Street,Richmond,IN,47374,765-939-6116
Jcm Wholesale Distributers,733 Wellington Dr,Dyer,IN,46311,219-322-8105
Aluminum Metals Co LLC,52760 Bridger Ct,Elkhart,IN,46514,574-206-1317
Brown Trucking,2200 W Tunnel Hill Rd,English,IN,47118,812-338-3400
M & H Delivery,5912 Village Plaza South Dr,Indianapolis,IN,46219,773-565-7546
Spencer Trucking,1528 Kilbourn St,Elkhart,IN,46514,574-293-2834
Dunn Trucking,Box 92,Versailles,IN,47042,812-689-3255
T And R Trucking,1110 Csokasy Ct,Hobart,IN,46342,219-759-4046
Shane Flora Trucking,303 Sunset Dr,North Manchester,IN,46962,260-774-9374
Euriga Transport,410 E Gallagher St,Farmersburg,IN,47805,812-696-2157
Rose Auto Transport,4805 E Raymond St,Indianapolis,IN,46203,317-252-9578
"Indiana Truck Sales And Service, Inc.",1325 West Thompson Rd,Indianapolis,IN,46217,317-787-0200
D & B Construction,1700 South Road,Garrett,IN,46738,260-704-4971
S & B Auto Transport,7138 Fields Way,Indianapolis,IN,46239,317-865-3613
A And J Transport,305 S Cr 750 W,North Vernon,IN,47265,812-352-1275
K And L Auto Parts And Salvage,55 W 250 S,Wabash,IN,46992,260-563-0257
Tichenors Auto,11057 Country Pines Rd,Shoals,IN,47581,812-247-2220
A World Entertainment Limosine Service,2143 Snead Circle,Indianapolis,IN,46229,317-894-7295
Bmj Mold And Enginering Co Adept Custom Molders Touchstone Measurement Service,1104 N Touby Pike,Kokomo,IN,46904,765-457-1166
Remy Carriers,7312 Corwin Ct,Indianapolis,IN,46259,317-862-2917
Vsv Group,1110 D I Drive,Elkhart,IN,46514,574-264-7511
Retail Car Sales,30586 Old U S 20,Elkhart,IN,46514,574-679-4683
Brotherhood Trucking,2907 Heart Side Dr,Greenwood,IN,46143,209-992-2838
Dougs Standard Service,21 S Locust,Poseyville,IN,47633,812-874-3419
Inserv,401 Lincoln Way West,Osceola,IN,46561,574-674-0161
Quality Satellite Sales And Service,788 W New Hope Rd,Boonville,IN,47601,812-897-4941
Pike Trucking,5157 Us 31 South,South Bend,IN,46614,574-231-1371
Kline Transport,21386 County Road 40,Goshen,IN,46526,574-534-7211
Jack And Vernons Service Co,3685 E 36th Ave,Lake Station,IN,46405,219-962-2019
United Transportation,2351 Kentucky Ave,Indianapolis,IN,46221,317-244-2335
Rock Hard Drilling,6104 N Kellerville Rd,Jape,IN,47546,812-295-6048
Dan Saltsgaver,2743 East County Road 725 South,Paoli,IN,47454,812-723-5362
Express Electric,8186 W Cr 575 N,Middletown,IN,47356,765-354-4521
Lynear Logistics,708 S State Street,Sullivan,IN,47882,812-249-1788
Mckibbin Cargo Express,3425 W 400 N,Shipshewana,IN,46565,260-336-3179
Greg Kiesel Trucking,12957s525w,Cynthiana,IN,47612,812-845-3550
Dave Ogle Dump Trucking,10330 E 50 S,Akron,IN,46910,574-893-4893
Canganys Emerten Auto Service,975 N Mitthoeffer Rd,Indianapolis,IN,46229,317-895-8222
On Tyme Transport,7879 E Cr 250 S,Pierceton,IN,46562,260-723-4293
Paul Kuhn Trucking And Excavating,14404 N 700 W,Silver Lake,IN,46982,574-551-3363
Bob Measel Trucking,8505 Us 36 W,Green Castle,IN,46135,765-739-6498
Moo La Transport,56179 Cr 35,Middlebury,IN,46540,574-642-4287
M & N Trucking,41 West 300 South,Morocco,IN,47963,219-863-8003
Brewer Wood Waste Grinding,3501 North State Road 37,Paoli,IN,47454,812-865-2275
Getting It Done Trucking,9009 Red School Rd,Laurel,IN,47024,765-478-4436
Dale E Miller General Hauling,809 Twyckingham Ln,Kokomo,IN,46901,765-432-5298
Springs Valley Limo,29 Main Street,Crisney,IN,47611,812-362-8217
D Houchin Trucking,939 Ash St,Griffith,IN,46319,219-306-7296
S And W Trucking,2952 Hillside Ave,Indianapolis,IN,46218,317-418-8461
Younger Tire And Wrecker Service,801 W Church St,Lynn,IN,47355,765-874-1534
Simmerman Trucking,R R 3 Box 142,Shoals,IN,47581,812-388-5744
J & M Trucking,1130 N Dwiggins Street,Griffith,IN,46319,219-670-3834
Rac Trucking,1608 Edgewood Dr,Crawfordsville,IN,47933,765-230-0611
North Central Mobile Truck Repair,2988 N Knoll Dr,Macy,IN,46951,574-382-5057
All Ways Trucking,309 Melching Ct,Ossian,IN,46777,260-622-9101
"Ate, Inc.",6251 Coffman Road,Indianapolis,IN,46268,317-295-8355
Redhead Express,1373 W 950 S,Columbus,IN,47201,765-438-6956
Crossroads Trans,6343 Monarch Dr # C,Indianapolis,IN,46224,317-328-9077
Last Chance Auto Transport,4560 East 1029 North,Demotte,IN,46310,219-345-3563
Smith Family Trucking,9997 Thacker Rd,Bloomington,IN,47403,812-825-4089
Dolan,348 King St,Gary,IN,46406,219-951-9495
A New Way Transportation,3538 N Station St,Indianapolis,IN,46218,317-313-2280
Two Men And A Truck,117 S Kentucky Ave,Evansville,IN,47714,812-401-4757
Boone Transportation,727 N Cr 150 E,Sullivan,IN,47882,812-268-0323
J And S Trucking,9526 Us Hwy 40,Centerville,IN,47330,765-855-1784
Owens Trucking,4627n Cold 550 E,Mooreland,IN,47360,765-766-5714
Colliers Heating & Air Conditioning Earthlink,702 S Jefferson,Ossian,IN,46777,260-622-6622
Mickeys Transportation,204 Pequeen,Fort Wayne,IN,46804,260-413-4121
Frey Logistics,8197 E Cassandra Dr,Syracuse,IN,46567,574-457-3739
T And R Transport,3261 E Wilson Dr,Mooresville,IN,46158,317-831-4193
B And E Cabs,417 East Taylor Street,Kokomo,IN,46901,765-459-9999
Jts,23 South 8th Street,Noblesville,IN,46060,859-486-3000
Tri State 24 Hour Road Service,8671 S 400 E,Rushville,IN,46173,765-561-2745
Love Medical Transportation,3470 Sherburne Lane,Indianapolis,IN,46222,317-920-8153
Neace Trucking,3211 W Byrkit,Indianapolis,IN,46217,317-783-2034
Lifes Trucking,432 S Meridian,Redkey,IN,47373,765-369-3014
Williams Auto Sales,7480 Old Sr 37 S,Bloomington,IN,47403,812-824-7927
Copeland Trucking,7510 S Cr 100 E,Versailles,IN,47042,812-667-7643
"Tims Quality Transport, Inc.",7912 Taft St,Merrillville,IN,46410,219-545-2655
City Transportation,4924 Olympia Dr,Indianapolis,IN,46228,317-603-1118
Sls Trucking,1534 N 155 E,Connersville,IN,47331,765-827-4059
Custom Line Hauling & Fence Building,1401 W 200 S,Logansport,IN,46947,574-735-3635
D And B Trucking,736 Minnie St,Michigan City,IN,46360,219-872-8489
Thompson Tire And Truck Shop,213 N 7th St,Cannelton,IN,47520,812-547-0942
Burnau Trucking,7505 N 300 W,Markle,IN,46770,260-638-4805
Servicemaster,1200 Bell Lane,New Albany,IN,47150,812-944-5094
Burris Trucking,C R 675 N,Midland,IN,47445,812-665-4159
Two Rivers Transport,4213 Copperline Rd E,Mt Vernon,IN,47620,812-453-1140
Martin Welding Machine Rental And Repair,4605 Cedar Ave,Hammond,IN,46327,219-931-8739
Hoover The Mover,4307 Arden Drive,Fort Wayne,IN,46804,260-459-6926
"Mid America Fuel Injection Services, Inc.",8501 Baumgart Rd,Evansville,IN,47725,812-867-0060
Kiger Trucking,1882 W 900 S,Brookston,IN,47923,765-427-7688
Sifford Transport,5643 Centerhurst Drive,Fort Wayne,IN,46835,260-437-2522
D C Mitchell Transport,7150 Dark Oak Ln #1,Indianapolis,IN,46237,317-859-8785
Hunter Transport,12792 Pennsylvania Pl,Crown Point,IN,46307,219-662-9215
Raymond Doyle Trucking,21976 Salt Fork Rd,Lawrenceburg,IN,47025,812-637-1778
R And B Auto Sales And Service,3811 S Sr 3,Hartford City,IN,47348,765-348-4805
Moore Trucking,120 Illinois St,Lacrosse,IN,46348,219-754-0906
Pollack Avenue Auto Sales,2010 Pollack Avenue,Evansville,IN,47714,812-476-9262
M And M Hauling,7509 W Cr 550 S,Coatsville,IN,46121,765-386-2037
Sean Hoffman Auto World,1646 Lincolnway E,South Bend,IN,46613,574-237-1004
Ms Medical Transportation,1222 Parkview Ln,Fishers,IN,46038,317-598-3877
Green Grow Lawn Care Service,5843 Cr 59,St Joseph,IN,46785,260-337-5300
Evans Transport,1418 S 250 W,Shelbyville,IN,46176,317-398-1008
Paradise Trucking,10354 East County Road 700 South,Cloverdale,IN,46120,765-719-1965
Skip Chasers,1609 S 10th St,Noblesville,IN,46060,317-281-1221
Moons Transport,3508 N Payton Avenue,Indianapolis,IN,46226,317-945-5596
Perry Express,2164 Duffy Avenue,Madison,IN,47250,812-599-8048
Skip Davidson Service,8989 8th A Rd,Plymouth,IN,46563,574-935-5769
Pacific Transportation,5813 Sebring Dr # A,Indianapolis,IN,46254,317-829-5599
Jobsite Skidsteer Service,6309 Bells Branch Road,Dillsboro,IN,47018,812-667-5617
Boxer Express,9120 Hwy-3,Marysville,IN,47141,812-289-1913
Everson Trucking,7535 E Cr 300 N,Brownsburg,IN,46112,317-858-3827
Top Gunn Transport Co,624 Ann Street,Lebanon,IN,46052,765-482-3296
Davis Trucking,8071 West 700 South,Lexington,IN,47138,812-866-8044
Brubacher Trenching & Backhoe Service,22542 Cr 44,New Paris,IN,46553,574-831-5863
Larry's Auto Serivce,605 East Main St,Danville,IN,46122,317-745-2428
All City Delivery,4808 Kroemer Rd Ste 200,Fort Wayne,IN,46818,260-478-9988
Davis Trucking,3690 Jones Drive,Kingman,IN,47952,765-397-8325
Van Note Wrecker Service,951 W 250 N,Winchester,IN,47394,765-584-6963
Legacy Transport,705 Harbour Town Dr Apr D,Noblesville,IN,46062,317-804-9224
Pryor Trucking Co,4149 Flamingo E Dr,Indianapolis,IN,46226,317-546-4579
Mcclain Trucking,3013 N St Rd 1,Pennville,IN,47369,260-731-5001
P And L Transport,3961 E 500 S,Lynns,IN,47355,765-874-1801
Six J Trucking,212 N Harrison Street,Topeka,IN,46571,574-848-7050
Awt Asset Recovery,2071 Clark Road,Dyer,IN,46311,219-322-0719
Davis Trucking,8933 E Cr 0 Ns,Frankfort,IN,46041,765-249-5260
Rollins Transport,636 E 14th St,Seymour,IN,47274,812-523-3136
D & M Trucking,4355 N 525 E,Howe,IN,46746,260-463-1502
J & S Transport,65730 Cr 33,Goshen,IN,46528,574-238-6682
Moeller Auto,1649 Mississippi,Vincennes,IN,47591,812-882-9099
Horse Power Express,1308 Tishman Lane,Indianapolis,IN,46260,317-223-8815
Super Test Hauling,3410 State Rd 38 E,Lafayette,IN,47905,765-447-9344
Ac Trucking,7285 E Inter Urban Ave,Gwynville,IN,46144,765-763-0202
Harden Truck,1641 S 3rd St,Merom,IN,47861,812-690-1050
Bottom Line Distributing,7623 W E Oler Rd,Williamsburg,IN,47393,765-960-5153
T R Williams Trucking,6847 S 675 W,Pendleton,IN,46064,765-274-7063
Town Transportation,1129 Whitcomb Ave #c,Indianapolis,IN,46224,317-486-0173
Enm Delivery,120 S Mason St,Mishawaka,IN,46544,574-257-8131
Richard G Speedy Trucking,8050 W Leasor Rd,Eckerty,IN,47116,812-685-2239
David Anderson Trucking,1121 S Melody Lane,Santa Claus,IN,47579,812-544-3194
Barajas Services,2141 Lincoln Ave,Whiting,IN,46394,219-473-9581
Ricketts Trucking,427 S Maple St,Veedersburg,IN,47987,765-294-2921
S A M Specialized Auto Moving,1324 Farwood Ave,Fort Wayne,IN,46816,260-414-8306
Blackman Trucking,3600 N Hwy 11 Se,Elizabeth,IN,47117,812-969-2339
Donaldson Trucking,302 Noble St,Bicknell,IN,47512,812-735-2372
Schneider Services,540 E Cr 450 N,North Vernon,IN,47265,812-346-7783
Lawrence Trucking,8906 Arcola Rd,Fort Wayne,IN,46818,260-625-3280
Ab Haul Away,14201 Ireland Road,Mishawaka,IN,46544,574-259-9008
Wyrick Trucking,5963 N 200 E,Windfall,IN,46076,765-945-7571
Ramey Transport,820 W 1085 N,Fountaintown,IN,46130,317-861-1015
Ronnies Wrecker Service,2345 Willian Lane,New Albany,IN,47160,502-941-6808
Ross Transport,840 Ponderosa Pine Dr,Whiteland,IN,46184,317-539-2255
Yuvi Trucking,6525 Fiesta St,Indianapolis,IN,46237,317-286-2865
K And B Express,4950 E 600 S,Montgomery,IN,47558,812-644-6217
Mills Truck Equipment,5900 Old Boonville Hwy,Evansville,IN,47715,812-479-9700
Pitts Hauling,2902 N Maple Place,W Terre Haute,IN,47885,812-533-3442
Deweys Trucking,9430 Hogan Creek Rd,Aurora,IN,47001,812-744-3090
Mckinley Automotive Service,916 E Mckinley Avenue,Mishawaka,IN,46545,574-256-0501
D Lynn Transport,10140 Hillview Dr,Evansville,IN,47720,812-963-9191
4 Fergz,10706 Compass Ct,Indianapolis,IN,46256,317-542-8518
Maxwell Trucking,5726 Windmill Drive,Indianapolis,IN,46254,317-557-3734
Yomar Trucking,3528 N Brouse Ave,Indianapolis,IN,46218,317-546-8007
Rogers Auto Center,6428 E 500 N,Leesburg,IN,46538,574-834-2774
Dmw Hauling,Rr 2 Box 297,Bloomfield,IN,47424,812-863-7170
Millers Marathon,5472 E 16th,Indianapolis,IN,46218,317-359-0658
Hunter Transport,6624 Mallard Lane,Mccordsville,IN,46055,317-335-2841
Thurman Trucking,10185 N Us Hwy 231,Roachdale,IN,46172,765-522-1191
Garvin And Lidster Auto Service,2331 S 7th St,Terre Haute,IN,47802,812-323-9124
Wright Way Automotive,207 S Main St,Parker City,IN,47368,765-468-6281
Jims Bp Amoco,6090 Central Ave,Portage,IN,46368,219-762-4282
Yesteryears Classic Auto,1454 South State Rd 2,Valparaiso,IN,46385,219-531-1955
Wrb,111 74 S 285 E,Ferdinand,IN,47532,812-630-7889
Bucks Services,700 S Bray Street,New Carlisle,IN,46552,574-654-7421
Stinson Transportation,2004 Dale Run,Greenwood,IN,46143,317-966-9193
Hopes Medical Transportation,2340 Gerrard Ave,Indianapolis,IN,46224,317-850-8032
Joes Wrecker Service,348 Miller Rd,Nashville,IN,47448,812-988-6264
Meeting The Needs Medical Transportation,6901 Baer Rd,Fort Wayne,IN,46809,260-478-5877
Buds Hauling,3496 W Co Rd 450 S,Greencastle,IN,46135,765-653-2860
Elizabeth Auto,5375 Main Street Se,Elizabeth,IN,47117,812-969-2919
Excavating Transport,476 Jefferson Valley,Coatesville,IN,46121,765-386-7281
Bents Service Garage,504 E Locust St,Ft Branch,IN,47648,812-753-4561
Jimmy Trucking,378 Dougherty Lane,Greenwood,IN,46143,317-865-9110
Johnson Service,720 W Montgomery St,Francesville,IN,47946,219-567-9106
Hinseys Wrecker Service,526 Fulton St,Fort Wayne,IN,46802,260-420-4665
Pony Express Delivery,2832 Brittany Ct,Evansville,IN,47710,812-449-9627
Schmaltz & Sons Trucking,6590 Hartford Pike,Aurora,IN,47001,812-926-2339
Wood Trucking,4044 E St Rd 240,Greencastle,IN,46135,317-653-6473
Tippecanoe Waste Removel,6925 New Castle Rd,Lafayette,IN,47905,765-523-2993
Bayles Marathon,3000 Us Hwy 41 South,Terre Haute,IN,47802,812-235-1235
Biszantz Trucking,4793 Old Smith Valley Rd,Greenwood,IN,46143,317-859-6558
Leroy Davis Ii Wrecker Service,3321 N Co Rd 900 E,Seymour,IN,47274,812-522-3405
T And T Auto,8190 S Old Union Church Rd,Englis,IN,47118,812-739-2039
Dinette Showcase Gallery & America's Mattress,871 S Green River Road,Evansville,IN,47715,812-473-0489
Specialty Foods Distribution,1705 E Main Street,Griffith,IN,46319,219-924-9413
Van Allen Wrecker Service,1105 Cr 54,Garrett,IN,46738,260-357-0873
Andy Cook Trucking,2275 Strother Dr,Lawerence,IN,47025,812-637-2314
Bennett Trucking,218 S Virginia St,Rockville,IN,47872,812-251-2553
D And D Auto Sales,5045 W 400 N,Decatur,IN,46733,260-565-3601
Expediting Service,5050 Knottingham Dr,Crawfordsville,IN,47933,765-866-7054
Fn Trucking,21 N Chestnut St,Poseyville,IN,47633,812-598-5878
Mcguyer Trucking,822 Emison Ave,Vincennes,IN,47591,812-886-0528
Rolling Stone Transport Co,10599 Sr 57,Elberfeld,IN,47613,812-983-4104
Lahrdale Trucking,129 W 700 S,Warren,IN,46792,260-468-2716
Sawyer Auto Sales,14233 St Rd 1,Brookville,IN,47012,765-647-0725
Robinson And Sons Trucking,6991 E Red Road,Vincennes,IN,47591,812-726-5244
Timbuktu Roadway Xpress,11 West Branson,Lafontaine,IN,46940,765-981-9035
Triple B Trucking,1587 E Co Rd 650 S,Versailles,IN,47042,812-667-6240
Lane Medical Transportation,131 Victor Dr Ste 336,Hobart,IN,46342,219-306-0111
National Products Transportation,7517 South 1st Road,Kingsbury,IN,46352,800-998-6941
Ajs Trucking,10337 Sr 331,Bourbon,IN,46504,574-342-0077
Independent Road Service,1450 Gardendale Ave,Huntington,IN,46750,260-356-1848
Bills Service Center,45 Eads Pkway,Lawrenceburg,IN,47025,812-537-3881
Bloomington Septic Service,1523 N Oard Rd,Bloomington,IN,47404,812-876-9399
Saalmans Sanitation Services,1408 Mozart St,Tell City,IN,47586,812-719-2070
Russ Moore Transmission Specialist,1121 West Coliseum Blvd,Fort Wayne,IN,46808,260-482-9414
H And H Trucking,9551 W 700 N,Fair Oaks,IN,47943,219-987-2528
Strouse Trucking,1903 Splinter Ridge Rd,Spencer,IN,47460,812-829-3035
Ipt,14602 Leesburg Rd,Fort Wayne,IN,46818,260-625-3878
Jackson Seed Service,14420 Old State Rd,Evansville,IN,47725,812-867-3167
Circle Drive Trucking,5359n - 300w,Huntington,IN,46750,260-519-0565
Net Transport,1243 Poplar St,Terre Haute,IN,47807,812-235-4347
Tow Unlimited,5400 Pumping Station Rd Se,Elizabeth,IN,47117,812-968-0324
Nick Nacks & Transportation,3818 Pulaski St,East Chicago,IN,46312,219-201-4840
Dc Tire And Auto,4443 W Western Ave,South Bend,IN,46619,574-235-8473
Premier Freight,9511 East Walker Road,Salem,IN,47167,812-967-8900
Gf Hauling,8423 N Sr 550,Bruceville,IN,47516,812-324-2331
Barker Trucking,605 W Elm St,Gaston,IN,47342,765-358-4114
Nu Born Delivery Service,50851 Michigan Rd,South Bend,IN,46637,574-340-5210
Brewer Transport And Trucking,1501 Miller Ave,Shelbyville,IN,46176,317-398-3505
Move 4 Less,3709 Shadeland Ave Ste J,Indianapolis,IN,46226,317-359-5556
Central Indy Deliveries,3490 W 79th St,Indianapolis,IN,46268,317-652-3122
Tdm Trucking,109 Durbon St,Glenwood,IN,46133,765-570-2181
Witson Mail Service,5665 W 1200 S Rd,Brookston,IN,47923,815-486-7120
Tlc Trucking,Lakeside Estates Lot Suite 10,Mitchell,IN,47446,812-849-0479
Handlin Trucking,11063 East Rio Grande Avenue,Brazil,IN,47834,812-877-3115
Pro Freight Expeditors,15202 Edgerton Rd Bldg 208 Sec 4,New Haven,IN,46774,260-493-9448
Funky 3 Transportation,57948 Jemian Dr,Goshen,IN,46528,574-312-0440
Kts LLC,2515 Macarthur Ave,South Bend,IN,46615,574-286-9660
J And J Trucking,6434 N Cr 600 W,Greencastle,IN,46135,765-739-6153
Jrw Trucking,19988 Elm Rd,Tippecanoe,IN,46570,574-498-6534
Marvel Trucking,R R 3 Box 110 C,Owensville,IN,47665,812-664-2589
North Vernon Transporation,1396 Magnolia Place,North Vernon,IN,47265,812-346-3830
Acme Machine,729 Chapel Hill Road,Indianapolis,IN,46214,317-409-3006
Kays Trucking,408 W Olive St,Bruceville,IN,47516,812-890-3056
Nwi Towing,2559 Clay Street,Lake Station,IN,46405,219-313-6250
Players Transport,1226 New Jersey Street,Gary,IN,46402,219-938-3490
Mlr Transportation,902 Persimmon Tree Circle,Bloomington,IN,47403,812-339-8458
Caldwell Expedited Freight C E F,526 North Howard Apt 12,Union City,IN,47390,765-964-4954
Hammons Trucking,1817 South Carmel Rd,Hanover,IN,47243,812-498-5572
Wisdom Transport,500 Monroe St,Laporte,IN,46391,219-785-7477
T & J Trucking,1030 N Harrison Street,Rushville,IN,46173,765-938-5096
Carrier One Express,6261 Gasline Rd,Frankfort,IN,46041,765-654-9288
S & S Trucking,Box 69,Nineveh,IN,46164,317-933-9497
Andrew Young Trucking,5733 E 300 S,Bowling Green,IN,47833,812-859-4830
Deere Run Trucking,22907 Boyer Rd,New Washington,IN,47162,812-293-2814
Yell-ton Trucking Co,12442 Rullman Dr,Dillsboro,IN,47018,812-926-4148
Kern Electricial Service,2217 Us Hwy 50 E,Bedford,IN,47421,812-275-8606
Ferguson Trucking,6657 Sr 331 S,Brementh,IN,46506,219-935-0807
Cates Trucking,307 W First St,Monroe City,IN,47557,812-743-2717
Keene Trucking,585 W Broad St,Lyons,IN,47443,812-659-3238
Roller Express Expediting,6264 S Appaloosa Drive,Columbia City,IN,46725,219-244-7670
P B Trucking,1780 Mccall Drive,Shelbyville,IN,46176,765-739-6777
Jar Express,8823 Miami Ridge Rd,Columbus,IN,47201,812-343-7911
L & G Logistics,19005 Schubert Place,Noblesville,IN,46060,317-776-2049
"Kht, Inc.",8316 W Morris Street,Indianapolis,IN,46231,317-202-9602
Dependable Mobile Home Service,2657 Pennsylvania St,Gary,IN,46407,219-266-5425
Exodus Moving,803 Gardenside Dr,Greencastle,IN,46135,765-653-4774
G & P Trucking,14091 N 900 W,Demotte,IN,46310,219-987-6019
Simmons Trucking,8772 E Cr 500 N,Milan,IN,47031,812-839-3297
C S Delivery,7753 Birch Dr,Hammond,IN,46324,219-932-7083
Precision Concrete And Trucking,63200 Beech Rd,Wakarusa,IN,46573,574-633-2188
Carls Carrier,59465 Cr 17,Goshen,IN,46527,219-875-6426
Bixler Family Trucking,106 N Main St,Burnettsville,IN,47926,574-826-4411
Kara Kares Transportation,16440 Wicker Blvd,Lowell,IN,46356,219-365-3906
Arthur's Transport,6800 W 10th Street,Indianapolis,IN,46214,317-243-6969
Evansville Arc Industries,2515 Kotter Avenue,Evansville,IN,47715,812-471-1633
W D Transportation,10871 Sr 120,Middlebury,IN,46540,574-825-9120
Marshall Trucking,8164 W New Bethel Rd,Lexington,IN,47138,812-866-3704
Automotive Cores,555 N County Line Rd,Hobart,IN,46342,219-942-4378
Mmcs Trucking,8114 Siear Dr,Indianapolis,IN,46227,219-924-7903
B & E Express,9040 South 800 West,Daleville,IN,47334,765-334-2217
Frey Transport,27899 St Rd 1,West Harrison,IN,47060,812-576-4490
Mountainhawk Trucking,8600 W Cr100 S,Jamestown,IN,46147,317-201-3904
Lnr Transport,7863 W Kent Rd St Rd 256,Madison,IN,47250,812-866-3200
D & L Trucking,52353 Cr 17,Bristol,IN,46507,219-266-6772
G J Leep Trucking,756 N Main St,Nappanee,IN,46550,574-848-7050
C E M S Express,10026 West 1500 South,Wanatah,IN,46390,219-733-2722
Freightmax Com,8837 Sundrop Rd,Indianapolis,IN,46231,317-243-0000
D T Construction,2175 Sr 14 E,Silver Lake,IN,46982,260-839-0335
Kenneth T Braun Trucking,1839 Us Hwy 231,Loogootee,IN,47553,812-709-0031
R & P Trucking,921 N Main St #200,Bluffton,IN,46714,260-402-1792
S And B Trucking,3131 Cr 43,Waterloo,IN,46793,260-235-1014
Protein Express,3840 Nutmeg Rd,Plymouth,IN,46563,574-936-1290
J & M Trucking,Rr 3,Montgomery,IN,47558,812-486-2595
A D Mulzer Trucking,6688 Vann Road,Newburgh,IN,47630,812-853-2573
Taf Services,4919 W 50 S,Kokomo,IN,46901,765-456-3070
Better Weigh Scales And Service,1263 E Cr 75 N,Logansport,IN,46947,219-735-0448
D & J Trucking,13268 North 400 West,Silver Lake,IN,46982,260-352-2458
Deliveries,1710 Bartlett Ave,Evansville,IN,47711,812-423-5692
"Payne Transport, Inc.",408 S Main St,Avilla,IN,46710,260-897-4206
Mccammon And Son Trucking,1004 Chaney St,Sullivan,IN,47882,812-268-3921
Bargers Wrecker Service,574 W Moonglo Road,Scottsburg,IN,47170,812-752-4254
Glover Trucking,8122 W 600 N,Connersville,IN,47331,765-679-5941
Taulbee Trucking,41 Varble Rd,Vevay,IN,47043,812-689-5543
Coon Transport LLC,7470 N 1000 W,Wingate,IN,47994,765-275-2633
Lazy W Transport,9905 N Cr 600 E,Sunman,IN,47041,812-623-7771
H L J Express,35 S State,N Vernon,IN,47265,812-352-8057
Webster Trucking,123 North Main Street,Crown Point,IN,46307,219-996-6600
Montenegro Independent Trucking,591 W South St,Crown Point,IN,46307,219-662-2818
Harker Sales And Service,14005 N 900 E,Hope,IN,47246,812-546-5402
Holland Farms Trucking,4605 Stoneview Dr,Charlestown,IN,47111,812-293-3387
J And K Trucking,5401 E 100 S,Mill Creek,IN,46365,219-369-9711
Mitchell Trucking,428 East Locust Street,Vincennes,IN,47591,812-886-9232
Luke Trucking And Excavating,9883 Texas Gas Rd,Aurora,IN,47001,812-926-3474
Winn Transport,7525 N Co Rd 150 W,Lulerne,IN,46950,219-721-5758
Gm Transport,1814 Leininger,Elkhart,IN,46517,219-293-0241
"Blackhawk Pas, Inc.",8395 Keystone Crossing Ste 315,Indianapolis,IN,46240,317-479-2060
M & R Trucking,2605 Mcarthur Dr,Fort Wayne,IN,46809,219-787-7471
Dj's Delivery,921 Keck Ave,Evansville,IN,47711,812-618-8424
Black Diamond Trucking,719 S Depot St,Brazil,IN,47834,029-760-0202
Woosley Transport,330 Wellington Blvd,Shelbyville,IN,46176,317-392-4820
Dee Gee Trucking,664 W Us Hwy 30,Valpariso,IN,46385,219-759-5674
Wabash Work Truck Center,1301 S Holt Rd,Indianapolis,IN,46241,317-244-6811
Carman Logistic Partners,7641 N Whitsitt Rd,Deputy,IN,47230,937-867-4064
M And S Enterprise,5281 W U S 6,Union Mills,IN,46382,219-767-2531
Louis Inabnitt Trucking,7327 Sandalwood Dr,Indianapolis,IN,46217,317-889-6253
Platinum Delivery Service,7050 Jackson Ave,Hammond,IN,46324,219-933-0802
B And T Farms,1016 E 700 N,Fortville,IN,46040,317-326-7031
Pitcock Service,747 N Carr Rd,Plainfield,IN,46168,317-839-9438
The Brake Shop,800 S 5th Street,Richmond,IN,47374,765-939-8150
Saylor's Transport,13127 N Western Rd,Camby,IN,46113,N/A
Hines Trucking,1908 Stillwell St,Lafayette,IN,47904,765-742-2034
Doug Jackson Trucking,144 O'dea Court,Mitchell,IN,47446,812-201-5230
Teddy Bear Express,6632 Melton Rd #10,Gary,IN,46403,219-938-9170
Hass Trucking,2241 E 415 N,Albion,IN,46701,219-848-7050
Rh Trucking,3335 E 800 N,N Manchester,IN,46962,260-774-9367
Dawn Transport,8896 W St Rd 236,Middletown,IN,47356,765-354-2374
Cycle Dispatch & Delivery,2152 South Lynhurst Dr,Indianapolis,IN,46241,317-241-0085
Mobile Home Transport,400 N Center,Eaton,IN,47338,812-823-8992
P H One Trucking,1 Martin Rd,Vevay,IN,47043,812-427-3800
Sherrick's Transport,0444 E Us 20,Laporte,IN,46350,219-778-9216
Allied Waste Services,15469 State Rd 17,Culver,IN,46511,574-842-3003
Steele's Wrecker Service,1903 New Paris Pike,Richmond,IN,47374,765-966-2460
Veld Trucking,7614 Sr 43 N,Batlle Ground,IN,47920,765-567-3072
Embertons Express,406 E Jackson,Hymera,IN,47855,317-371-3562
Rdp Trucking,245 Ferguson Dr,Martinsville,IN,46151,765-342-5646
Rhodes Trucking,576 S 1100 W,Rensselaer,IN,47878,219-394-2990
Quick Trip Trucking,344 Walnut St,Butler,IN,46721,260-868-0602
Lonnie Gene Martin Trucking,3804 N 600 W,Farmland,IN,47340,765-468-6398
S A Y Trucking Co,23686 Salt Fork Rd,Lawrenceburg,IN,47025,812-637-5889
Cole Mcalister Trucking,4143 N Sr 25,Waynetown,IN,47990,765-230-7353
Top Notch Trucking,1510 E Jefferson St,Kokomo,IN,46901,765-677-1889
Goldsmith Excavating & Trucking,4096 Harveys Branch Rd,Oldenburg,IN,47036,812-934-5478
Outlaws Trucking,5002 W James Rd,Connersville,IN,47331,765-827-0229
T And S Trucking,R R 1 Box 199,Oakland City,IN,47660,812-749-4646
Neirbo Transit,1916 Fieldhouse Ave,Elakhart,IN,46517,574-522-6185
Adm Trucking,6756 Manning Road,Economy,IN,47339,765-886-4218
R G S Trucking,9195 Sr 129,Cross Plains,IN,47017,812-667-6642
Jb's Transport,265 B Fulkerson,Charlestown,IN,47111,N/A
Mike Zackmire,1409 E Bonebrake Rd,Veedersburg,IN,47987,765-585-7406
Hancock Bros Trucking,709 W Broadway St,Shelburn,IN,47879,812-268-9240
"J & G Transport, Inc.",768 Mann Ave,Austin,IN,47102,812-794-0892
Keith Hedinger Trucking,2175 Fern Dr,Ferdinand,IN,47532,812-367-9988
Wdj Trucking,9218 W 155th Ave,Lowell,IN,46356,219-696-0754
D C Transport,1035 S Cr 40,Millersburg,IN,46543,219-642-3887
Streamline Transportation,5891 W 177 Th Ave,Lowell,IN,46356,219-696-0728
K & A Delivery Service,37071 E Wilson Rd,Muncie,IN,47303,765-747-5942
Jeannie Transport,5656 County Road 427 South,Auburn,IN,46706,219-925-9285
Weedmans Trash Service,21755 Omar Road,St Croix,IN,47576,812-843-5075
Ashley Trucking,2682 S Morristown Pike,Greenfield,IN,46140,317-862-6785
Weirwolf Enterprises,156 E Market St Suite 1300,Indianapolis,IN,46204,859-983-8660
Kirby Trucking,401 E Hackberry St,Salem,IN,47167,812-883-1925
Mark Eskew Septic Tank Service,4285 E Co Rd 1100 N,Eaton,IN,47338,765-396-9962
Mayberry's Haulers,5344 Lee Aeres Dr,Boonwilly,IN,47601,812-453-1263
Clark Appliances,8767 Boehning Lane,Indianapolis,IN,46219,317-898-0135
Harris Affordable Tours And Charter Service,6306 North Michigan Road,Indianapolis,IN,46268,317-255-0765
Double E Trucking,4400 W Concannon Ave,W Terre Haute,IN,47885,812-535-3561
Beedles Auto Sales And Service,1658 E Us Highway 41,Attica,IN,47918,765-764-4728
T Meeks Trucking LLC,175 E 400 South,Valparaiso,IN,46383,219-462-4097
Mahoy Trucking,1220 W Grant St,Thorntown,IN,46071,765-436-2771
Smith And Son Trucking,5867 W 500 N,Shelburn,IN,47879,812-382-4744
Nicky Dale Fields Trucking,2350 N Cr 200 W,Paoli,IN,47454,812-569-1015
Knb Trucking,4849 Hickory Ave,Hammond,IN,46327,630-886-8373
Kerson Hauling,6183 Motsinger Rd,Peking,IN,47165,812-883-2465
Dnb Trucking,2535 S G Street,Elwood,IN,46036,765-620-3999
K J Jones Trucking,1003 N Main St,Winslow,IN,47598,812-789-5307
Kunkel Trucking,8115 N Private Dr 375 W,Brazil,IN,47834,765-672-4320
Cars,6731 Columbia Avenue,Hammond,IN,46324,219-844-2277
Schoettmer Transport,3523 W Cr 400 N,Greensburg,IN,47240,812-663-4841
Electric Power Service,5423 Sr 930 E,Fort Wayne,IN,46803,219-493-4913
Finney Transport & Mobile Home Service,714 Emma Dr,Seymour,IN,47274,812-523-6119
W & T Trucking,450 Reminton Pt 208,Greenwood,IN,46143,N/A
Par 3 Trucking,6803 E 1400 N,Roann,IN,46974,574-893-4145
D & J Trucking,35chigger Hollow Dr,Crawfordsville,IN,47933,765-366-0881
R C Lowder Trucking,3491 N 400 W,Greenfield,IN,46140,317-894-0218
A And A Cleaning Service,1631 N 150 W,Wabash,IN,46992,260-563-6837
Turners Trucking,1000 Arrow Ave,Anderson,IN,46016,N/A
Allens Trucking,4542 W 700 S,Greensburg,IN,47240,812-591-3447
"Fit For Freight, Inc.",2204 N Broadway St,Indianapolis,IN,46205,317-283-1287
River City Trucking,5252 Old Maumee Rd,Fort Wayne,IN,46803,260-749-5311
Kurtis Hill Trucking,11058s Rangeline Rd,Clinton,IN,47842,765-828-0868
Mccoy Trucking,5160 Carolina St,Gary,IN,46409,219-980-3217
"Calumet Auto Recycling & Sales, Inc.",6205 Indianapolis Blvd,Hammond,IN,46320,219-844-6600
Countryside Backhoe & Dozer Service,6302 Pendleton Ave,Anderson,IN,46013,765-649-0271
"R& K Transportation, Inc.",2462 Union St,Lake Station,IN,46405,219-962-6116
Transportation Agency International,2441 Hazelnut Ln,Kokomo,IN,46902,714-883-6093
William Hughes Trucking,2212 Juliette Avenue,Fort Wayne,IN,46802,646-522-0797
Tr Transport,110 S Vine St,Muncie,IN,47305,765-744-7375
Htr Auto Transport,9173 S 300 E,Markleville,IN,46056,765-623-7962
Jones Trucking,541 E Main,Jasonville,IN,47438,812-665-3658
Vitos Trucking,745 Whitehall Pl,Carmel,IN,46033,317-571-8888
Scott's Way,423 S 4th Street,Chesterton,IN,46304,219-787-9400
Jeri Lynn Transit,5306 W 1150 N,Wheatfield,IN,46392,219-987-3503
A P H Trucking,312 N 13th St,Richmond,IN,47374,765-935-1220
Aa Trucking,1030 Brittney Blvd,Seymour,IN,47274,812-522-6732
Truck Driving Acadamy,5699 Hwy 41 N,Evansville,IN,47725,877-434-0454
K & R Boswell Trucking,6405 E Co Rd 650 N,Butlerville,IN,47223,812-458-6470
Sw Trucking,8671 St Rd 331,Bourbon,IN,46504,574-342-2337
Salt Express,10501 Hague Rd,Fishers,IN,46038,317-915-7258
R And R Trucking,325 S Co Rd 1075 W,French Lick,IN,47432,812-936-2653
Sampson Trucking,107 W College Ave,Morocco,IN,46963,219-285-0117
Great Lakes Peterbilt-gmc Truck,5900 Southport Road,Portage,IN,46368,219-763-7227
M T M Trucking,1339 E 800 N,West Lafayette,IN,47906,765-296-9305
Henning Trucking,1860 N Us Hwy 35,Knox,IN,46534,574-772-8049
Demaree Trucking,6370 Sr 421,Versailles,IN,47042,812-667-5036
Hatco Truck Driving Academy,4103 Hamburg Pike,Jeffersonville,IN,47130,812-284-2820
K B Specialized Freight,1139 S Armstrong,Kokomo,IN,46902,765-459-8245
Miclures Trucking,810 W 10th St,Greensburg,IN,47240,812-663-9435
Hostetler Wrecker Service,0215w Us 20,Lagrange In,IN,46761,260-463-7463
Rpg Core,7321 Marshall Dr,Nineveh,IN,46164,317-560-4432
Koonce Trucking,309 S Dongola Rd,Oakland City,IN,47660,812-779-8465
Cox Trucking,1619 E Cr 3 Se,Carlisle,IN,47838,812-398-2132
Pittsburgh Power Transportation Tech,9646 Bayview Ct,Indianapolis,IN,46256,317-485-3174
Lind Z Trucking,4104 N 900 East,New Carlisle,IN,46552,574-654-3630
Sds Transport,1657 Commerce Drive Ste 10a,South Bend,IN,46628,574-234-1600
Steeles Auto And Wrecker Service,201 S Main St,Cloverdale,IN,46120,765-795-4099
Autoplex Lsg Rental Sales,430 11th Ave,Jasper,IN,47546,512-634-2444
R L Anderson Trucking,1345 Ashley Ave,Fort Wayne,IN,46825,260-740-7600
A A Auto Sales,100 E National Ave,W Terre Haute,IN,47885,812-533-9269
First Choice Transportation,2541 Appleton Ter,Indianapolis,IN,46227,317-888-8214
Hobson Trucking,1002 E Taylor,Kokomo,IN,46901,765-456-3063
Dad & Son Auto Repair & Service,4830 Miami Bend Rd,Logansport,IN,46947,574-737-7300
C & D Trucking,4906 Kennedy,East Chicago,IN,46312,708-417-5371
Elite Limo Service,1876 Northwood Plaza Box 315,Franklin,IN,46131,317-346-7007
Union County Transit,615 West High Street,Liberty,IN,47353,765-458-7277
Holmes Trucking,2601 West 61st Place Unit #2,Merrilville,IN,46410,N/A
Land Trucking,9838 W Co Rd 75 S,French Lick,IN,47432,812-936-2849
Mw Logistics,1900 Prairieton Rd,Terre Haute,IN,47802,812-235-1382
One Way Transportation,5840 East 16th Street,Indianapolis,IN,46218,317-353-9803
Jordan Trucking,2455 E Lutheran Church Rd,Hillsboro,IN,47949,765-397-8281
Rector Trucking,4456 Kent Street,Fair Oaks,IN,47943,219-866-3318
Earth Movers,12886 E Co Rd 100 W,Frankfort,IN,46041,765-947-5600
Pendygraft Trucking,5272 S Organ Spring Road,Salem,IN,47167,812-521-4248
"Duncan Trucking Co, Inc.",967 S Villa Dr,Evansville,IN,47714,270-831-2279
Parker Trucking,3431 Chevy Chase Circle,Crown Point,IN,46307,219-662-7113
Dillard Trucking,3165 S Cr 475 E,Paoli,IN,47454,812-723-5181
Joes Trucking,500 W,Angola,IN,46703,N/A
Senteney Trucking,5200 Mcdaniel Rd,Terre Haute,IN,47802,812-299-4811
Childress Transport,3554 N Chester,Indianapolis,IN,46218,317-546-7196
Lazy J Express,718 S Main,New Harmony,IN,47631,812-682-4297
M M And D Trucking,5057 Woodbridge Ave,Portage,IN,46368,219-763-9029
Sjm Trucking,14633 St Rd 350 L 48,Mooreshill,IN,47032,812-744-4936
Kenny White Trucking,16038 Lindsey Rd,Milton,IN,47357,765-478-6230
Nicks Transport LLC,774 N 425 W,Valparaiso,IN,46385,219-545-4310
Triple H Trucking,R R 1 Box 153 A,Shoals,IN,47581,812-295-9328
Lane Transport,1914 Tyler Ct,Gary,IN,46407,219-886-9163
All Seasons Trucking,4241 W Whiteland Rd,Bagersville,IN,46106,317-535-1628
Ar Service,7788 Quail Ridge South Dr,Plainfield,IN,46168,317-839-2691
Keith Marshalls Auto Sales And Service,1318 Emery Lane,Clarksville,IN,47129,812-945-5505
Shepherd Distribution,2505 Marina Drive,Elkhart,IN,46514,574-266-3603
M & D Marvel Transportation,21860 Quinn Rd,Lakeville,IN,46536,574-276-7212
T C's Auto Transport,60worman Ave,Indianapolis,IN,46227,317-786-4762
Pdk Wheels & Auto Accessories,3493 E 83rd Place,Merrillville,IN,46410,219-947-1735
C & C Cores,507 Lafayette St,Laurel,IN,47024,765-309-3521
Cox Trucking,16 N Water St,Chesterfield,IN,46017,765-378-2187
R L Thompson Transport,1448 S Co Rd 400 E,Dillsboro,IN,47018,812-689-5063
Eagle Transport,4944 Magoun,East Chicago,IN,46312,219-378-1030
Southside Trucking,3077 W 525 N,Albion,IN,46701,260-336-0117
Newman & Son Logistics,316 Walnut Street,Mt Vernon,IN,47620,618-273-6209
Five Stars Transport,4877 N Sr 127,Fremont,IN,46737,260-833-3111
A-elite Transportation,3512 Rockville Rd Ste 145-c,Indianapolis,IN,46222,317-484-1118
B&e Trucking,501 S Lincoln St,Fort Branch,IN,47648,N/A
C & C Transportation,861 W Troy Avenue,Indianapolis,IN,46225,317-634-5322
Esl Trucking LLC,1804 Prairie Ln,Fort Wayne,IN,46818,260-489-6800
Kidz Cab,8618 Rail Fence Rd,Fort Wayne,IN,46835,260-486-2205
All Types Expediting & Transportation Services And Midwest Expediting,15735 Lima Rd,Huntertown,IN,46748,260-637-4330
Shane Miley Transport,10715 E 450 S,Oakland City,IN,47660,812-677-0338
Down To Jesus Trucking,7050 S Harmony Rd,Bloomington,IN,47403,812-825-7008
Northern Dreams Logistics,1896 N 600 E ,Shelbyville,IN,46176,765-932-3669
Fox Septic Tank Service,3632 W Sr 56,Hanover,IN,47243,812-866-5235
Laney Transport,7431 N 975w,Norman,IN,47264,812-995-2586
Mack's Trucking,1315 W 37th Pl,Hobart,IN,46342,219-945-1643
Happy Movers,12375 Rodeo Ct,Granger,IN,46530,574-243-9062
Royer Transport,11233 Patterson Rd,Wakarusa,IN,46573,574-862-1420
Hurst Backhoe And Trucking,10465 Co Rd 625 W,Petersburg,IN,47567,812-749-4273
D&s Home Services,53194 County Road 35,Middlebury,IN,46540,574-825-9181
Hobart Sales & Service,4314 Technology Drive,South Bend,IN,46628,574-232-8751
Buchanan Trucking,2284 S Old Michigan Rd,Holton,IN,47023,812-689-5760
Auto Parts By Trier,308 S Washington St,Columbia City,IN,46725,260-244-6617
Michael Allgood Trucking,2230 Freeman Road,Spencer,IN,47460,812-890-6218
R & L R Trucking,1599 W Bloomfield Rd ,Bloomington,IN,47403,812-323-9686
Food Service Ventilation,1720 Wales Ave,Indianapolis,IN,46218,317-375-7600
Automotive Component Recycling,2720 Lofty Dr,Fort Wayne,IN,46808,260-348-8547
C And D K Trucking,5165 N 525 W,Laporte,IN,46360,219-325-9713
S & S Melvin Express,4134 S 800 E,Elwood,IN,46036,765-552-9321
Mike Moore Trucking,606 S High St,W Lebannon,IN,47991,765-893-4917
D And R Trucking,546 N Helm St,Paoli,IN,47454,812-723-5183
Sphere Freight,10228 Yosemite Lane,Indianapolis,IN,46234,317-915-9159
D T C Trash Service,R R 2 Box 207,Spencer,IN,47460,N/A
Kevin's Delivery Service,1833 Winston Drive,South Bend,IN,46635,574-232-9956
Robby Truck Service,1714 Black Bear Dr,Fort Wayne,IN,46808,908-419-4598
Lonewolf Trucking,62 Long St,Cloverdale,IN,46120,765-795-4528
Dave Hetser Trucking,6567 Rocky Hill Rd,Spencer,IN,47460,812-879-9587
Rta Transport,2121 Sherwood Lake Drive Apt 6,Schererville,IN,46375,219-864-8407
Glk Trucking Co,1042 West 850 South,Union Mills,IN,46382,219-767-2460
Harris Trucking,806 Pearl Dr,Vincennes,IN,47591,618-884-1001
Eastside Auto Parts,4779 E 100 S,Crawfordsville,IN,47933,765-230-1030
Bull Dog Transportation,24579 Perkins Ave,Elkhart,IN,46516,260-463-0151
Safeway Transportation,1729 West Nelson,Marion,IN,46952,765-662-2555
A Plus Express,3512 Rockville Rd #134c,Indianapolis,IN,46222,317-490-0151
Williams Backhoe Service,15911 State Road 60,Borden,IN,47106,812-246-1555
Hendrickson Trucking,7837 East 500 North,Lafayette,IN,47905,765-589-3373
"Maintenance Solutions, Inc.",313 West Rush Street,Kendallville,IN,46755,260-349-1901
Indiana Frozen Express,980 W 2nd Street,Brownstown,IN,47220,812-358-4104
Pinkerton Trucking,8136 S 800 E-90,Geneva,IN,46740,260-334-5485
The Teacher Handyman Service,58863 Cr 19,Goshen,IN,46528,574-202-9986
Shively Trucking,1914 W Washington Ctr Rd,Fort Wayne,IN,46818,260-747-0044
Sturgis Garage And Wrecker Service,2810 Hensonburg Rd,Bloomington,IN,47404,812-332-2424
Aqua Haul,141 Siefferman Rd,West Harrison,IN,47060,513-328-3362
Mt Transportation,406 Colfax Ave,Laporte,IN,46350,219-324-3633
Peddler's Auction L And S Movers,2909 Peddlers Village Rd,Goshen,IN,46526,574-875-3233
Burress Trucking,16958 E Vine St,West Phalia,IN,47596,812-696-7494
Aaa Moving & Storage,1214 Deloss Street,Indianapolis,IN,46203,317-632-1933
"Tnt Auto Sales & Services, Inc.",811 S Independence,Windfall,IN,46076,765-945-7306
R Campbell Trucking,2020 Old Us 31 E,Jeffersonville,IN,47130,812-283-4955
Notestine Trucking Co,3280 North State Road 3,Mongo,IN,46771,260-367-2267
Huntington-fort Wayne Express,1304 Ash St,Huntington,IN,46750,219-359-0815
Hassell & Sons Trucking,1100 N 200 E Near Us 57 N,Plainville,IN,47568,812-687-7837
Bearly Home Transport,1501 E Foxcliff Dr South,Martinsville,IN,46151,317-342-8312
Cardinal Farm Services,7053 N State Road 550,Bruceville,IN,47516,812-324-2172
Trackside Marketing Services,525 Bent Tree Lane,Indianapolis,IN,46260,317-466-3675
"Luxury Transport, Inc.",1400 N Elm St Box 8,Fairmount,IN,46928,317-948-5072
C K Express,1585 S State Rd 135,Vallonia,IN,47281,812-358-3349
3 D Express,55015 Currant Rd,Mishawaka,IN,46545,219-257-2416
Cart Carriers,247 Jefferson St,Cromwell,IN,46732,219-856-3784
Witsman Bros Trucking,13034 South Wabash River Rd,Decker,IN,47524,812-769-4433
Number One Transporter,R 3 Box 210 B,Shoals,IN,47581,812-288-6682
R & L Trucking,414 Newman Ave,Clarksville,IN,47129,502-817-8134
Rendezvous Express,573 Accrusia Ave,Clarksville,IN,47129,812-285-0574
Dale West Trucking,7690 N State Road 19,Denver,IN,46926,317-985-9345
Elgin Service,229 W Jefferson St,Cromwell,IN,46732,219-894-7396
Baker Express,501 Howard Ave,Arcadia,IN,46030,317-984-3229
E-z Deliveries,3008 Cleveland St,Hammond,IN,46323,219-845-8403
Toms Auto Sales,2103 S Kentucky Avenue,Evansville,IN,47714,812-422-4300
B & R Delivery,637 W Memorial,Muncie,IN,47302,765-282-1452
Longacre Trucking LLC,231 Sival Rd Ne,Corydon,IN,47112,812-366-4708
Discover Volvo Trucks,5905 U S Hwy 30 East,Fort Wayne,IN,46803,219-749-9745
Lawrence Trucking,1626 Mentor St,Vincennes,IN,47591,812-886-5196
Lil Digger Transport LLC,11625w 700s,Millersburg,IN,46543,574-642-3343
Fox Trucking,6076 N Dearborn Road,Guilford,IN,47022,812-637-2465
J & L Sales - Distribution,38b Eastview,Bloomfield,IN,47424,812-384-0351
Austa's Distribution Services,Rt 52 Box 119,Carrollton,IN,46129,317-624-4078
Mike & Steve's Auto Repair Center,252 Morthland Dr,Valparaiso,IN,46383,219-464-1499
Days Dry Dock,7360 E 800 N,North Webster,IN,46555,219-834-1186
Maurice G Cardinal Trucking,6968 N Old 41,Bruceville,IN,47516,812-324-2964
Jam Trucking,3962 Chase St,Gary,IN,46408,219-981-3949
"Eds Trucking, Inc.",58027 Riley St,Elkhart,IN,46517,574-293-3532
Miller Hardwoods,7927 E 1000 S,Rushville,IN,46173,765-938-3414
Reagan Trucking,2738 Margesson Crossing,Lafayette,IN,47909,765-477-6235
Scott Casey Trucking,3516 E 650 S,Macy,IN,46951,574-382-3606
Elm Transportation Services,4674 E Compton Drive,Edinburgh,IN,46124,N/A
"Ctd, Inc.",5830 Industrial Rd,Fort Wayne,IN,46825,260-484-2556
"Simon's Complete Auto Service, Inc.",4495 Cleveland St,Gary,IN,46408,219-980-2569
Jj's Trucking,309 S Iowa St,South Bend,IN,46619,219-233-9808
Safe-way Delivery,1017 East Main St,Richmond,IN,47374,317-966-1099
Circle R Transport,3300 W 1000 N,Knightstown,IN,46148,317-345-2603
Sumajo Transfer Company,327 1/2 Norman Rd,Evansville,IN,47712,812-985-2983
Creekside Transport,11180 Us 20,Middlebury,IN,46540,219-825-9215
B J Trucking,2350 Sr 25 W,Lafayette,IN,47905,317-477-6313
R E Rowe Jr Trucking,4473 S 250 W,Dana,IN,47847,765-665-0000
Wolf River Transport,12017 W Bethel Ave,Muncie,IN,47304,317-759-6680
N P Express Trucking,0345 E Hupp Rd,Kingsbury,IN,46345,219-393-5512
Kevin Cox Trucking,4147 N 750 W,Rochester,IN,46975,219-542-2771
Cook's Trucking,8602 N 500 W,Michigan City,IN,46360,219-878-0728
Nichols Trucking,356 E 700 South,Berne,IN,46711,219-589-8299
Iron Wheel Trucking,7200 S 400 W,Williamsport,IN,47993,765-869-5443
L And H Trucking,103 E Cary Street,Fairland,IN,46126,317-439-9853
Joe Goodnight Trucking,Box 4222,Lafayette,IN,47903,317-564-4028
Rose Trucking,4050n 225e,Howe,IN,46746,219-562-3885
Birky Farms,862 S Baums Bridge Rd,Kouts,IN,46347,219-766-0206
Eley Trucking,3602 W 200 N,Winchester,IN,47394,765-584-3531
F Sons Trucking,2782 West 800 North,Lake Village,IN,46349,219-992-9180
Knox Transit,1700 W 61st St,Merriville,IN,46410,708-755-2312
Phil Baker Trucking,5779 W 900 S,Modoc,IN,47358,317-853-5159
Meek Trucking,R R 1 1box 39,Elnora,IN,47529,812-659-3431
Williams Farms Trucking,2653 E Cr 475 N,Petersburg,IN,47567,812-354-1717
West Trucking,25624 Sawdon Ridge,Guilford,IN,47022,812-637-1781
Morton Sanition Service,R 2,Brook,IN,47922,219-275-4564
Wachowski & Son Trucking,4754 N Rocky Ford Rd,Attica,IN,47918,219-884-3737
Gene Nuest Trucking,45 E State Rd 8,Kouts,IN,46347,219-766-2349
J & Y Services,4001 King Rd,Bremen,IN,46506,219-936-8998
Walker Trucking,2052 Cr 43,Waterloo,IN,46793,260-837-7412
M & E Trucking,1095 N 450 E,Columbia City,IN,46725,219-244-4741
V G Agri Services,2485 E 300 S,Hartford City,IN,47348,317-348-2178
Raven,3581 W 50 S,Morocco,IN,47963,219-285-6901
"D C Trucking, Inc.",3111 Venture Blvd,Bloomington,IN,47404,812-336-8530
Sands & Son Wrecker Service,3720 Caney Rd,Henryville,IN,47126,812-294-4833
Fields Trucking,11147 Fields Dr,Laurel,IN,47024,317-698-2453
J W Robinson Trucking,1907 N Bazil,Indianapolis,IN,46219,N/A
Manny's Delivery Service,715 S 14 Street,Goshen,IN,46526,219-533-4601
C & N Transport,256 N Jefferson,Berne,IN,46711,219-997-6217
"Hoffman Bus Services, Inc.",4014 St Rd 252,Brookville,IN,47012,317-647-3957
Craig Trucking,8076 Sr 48,Aurora,IN,47001,812-926-2028
F & F Trucking Farm And Salvage,R 3 Box 356,Sullivan,IN,47852,317-435-3176
Mcmahon Trucking,9804 E 186th St,Noblesville,IN,46060,317-758-4493
Jr Barks Excavating,6125 St Hwy 135 Sw,Corydon,IN,47112,812-732-4666
Dave Cobb Trucking,5200 N 1000 W,Earl Park,IN,47942,219-474-6644
W R Bruce Trucking,7840 W Deduty Pike,Madison,IN,47250,812-866-2884
B And D Truck Services,1922 Sweet Blossom Ln,Indianapolis,IN,46229,317-696-3878
Craig Trucking Company,7875 Cr 28,Butler,IN,46721,219-868-5763
R V Express,2250 Cassopolis,Elkhart,IN,46514,219-262-9026
Archer Trucking Co,106 West Prairie Street,Leesburg,IN,46538,574-453-4961
Black Trucking,2212 S 16th St,Vincennes,IN,47591,812-882-5708
J & B Trucking,Dead Level Road,Hazelton,IN,47640,812-784-2587
A S A P Delivery Service,1605 Johnson Avenue,Anderson,IN,46016,N/A
T B Trucking,5458 W Cr 450 S,Holton,IN,47023,812-689-6765
I M C,1739 Ridge Rd,Munster,IN,46321,219-972-1250
Greg Johnson Trucking,242 E 500 N,Valparaiso,IN,46383,219-462-5556
Horizon Transport,6505 W 800 S,West Point,IN,47992,765-538-2429
Lins Trucking,10535 W 129th Ave Lot 3,Cedar Lake,IN,46303,219-374-5296
Carl's Backhoe Service,1465 N Thorn Rd,Walkerton,IN,46574,219-586-3214
Hatfield Trucking,737 S 10th,Vincennes,IN,47591,812-882-1706
Blue Angel Express,3209 Evening Song,Indianapolis,IN,46241,N/A
Investments Unlimited Package Service,1110 East Chicago Ave,East Chicago,IN,46312,N/A
Dragon Transport,506 W Grant,Decatur,IN,46733,219-724-2919
Greene Trucking,400 Hillcrest St,Washington,IN,47501,812-254-7360
Payne's Trucking,1900 Caney Rd,Memphis,IN,47143,812-246-0690
Dps Charter Service,4954 East 56th St Ste 3,Indianapolis,IN,46220,317-251-2255
Miller Fresh Delivery,16039 W Bear Creek,Hagerstown,IN,47346,317-489-4987
R & K Trucking,1208 W York Rd,Austin,IN,47102,812-820-1187
J & M Autto Transport,3913 Oak Crest Lane,Hammond,IN,46323,N/A
Between The Lines Trucking,105 E 4th Street,Earl Park,IN,47942,765-477-0859
Demaree Freight Lines,1946 E St Rd 8,Albion,IN,46701,260-636-3136
Wagner Trucking,Cr 200 S South Of Sr 64,Owensville,IN,47665,812-386-7999
Eazy Move,9816 W 1100 N,Greenfield,IN,46140,317-462-7451
Mcgill Trucking,3380 E 1200 S,Romney,IN,47981,317-538-2174
Players Trucking Co,5042 East 10th Avenue,Gary,IN,46403,N/A
M And D Howland Trucking,18153 W 4b Rd,Walkerton,IN,46574,574-935-4345
Hayes Transportation Services,3100 Rear S 9th St,Terre Haute,IN,47802,812-234-5267
Paxton Farms,2764 S Us 41,Veedersburg,IN,47987,765-397-3839
Jim Thatcher Trucking & Excavating,1042 N 1200 E,Sheridan,IN,46069,317-370-0973
Jackson Hauling,6846 St Rd 25 N,Lafayette,IN,47905,317-589-8797
Charles Jackson,5404 W 200 N,Kokomo,IN,46901,317-454-9876
S & G Wrecker Service,6334 Salisbury Dr,Fort Wayne,IN,46816,219-447-1709
S & K Trucking,8018 W 200 N,North Salem,IN,46165,317-539-4084
K M Trucking,2959 E 1200,Marshall,IN,47859,765-597-2116
Patton Delivery Service,815 College Hwy,Evansville,IN,47714,812-422-0651
Hertz Car & Truck Licensee,979 Poplar St,Terre Haute,IN,47807,812-232-0542
"Midwest Logistics, Inc.",114 South Lafayette Street,North Liberty,IN,46554,574-656-3212
Wayne E Riffey Trucking,3194 W 150 S,Flora,IN,46929,219-967-3119
Aurora Express,P O Box 337,Aurora,IN,47001,N/A
Mcalpine Transportation Service,101 Grandview Ave,La Porte,IN,46350,219-324-2558
Tag Mobile Homes & Transporting,2385 S Co Rd 400 E,North Vernon,IN,47265,812-873-8382
Fleet Trailer Service,901 Progress Dr,Richmond,IN,47374,317-966-6599
Barton Disposal Service,4261 Princeton St,Wadesville,IN,47638,812-673-4279
Wells Hauling,21238 Fuch's Rd,Guilford,IN,47022,812-487-2923
Midwest Pallet Company,7118 West Us Hwy 24,Logansport,IN,46947,574-735-0904
Katie Express,5508 Zappia Drive,Mishawaka,IN,46545,574-274-9083
Charlie Quigg Trucking,2002 N 425 E,Crawfordsville,IN,47933,765-794-4145
Shafer's Auto,37 West State Road 64,Oakland City,IN,47660,812-749-6247
Rays Trucking,1316 East Calvert,South Bend,IN,46613,219-289-4053
M A W Trucking,9091 Mt Tabor Rd,Aurora,IN,47001,812-926-3075
Equipment Sales & Service,8300 Angel Dr,Newburgh,IN,47629,812-853-2269
U Save Auto Rental,710 Sagamore Parkway North,Lafayette,IN,47904,317-447-0121
Decker Trucking,Rr 1 Box 83,Bruceville,IN,47516,812-324-2709
Farrell Trucking,530 S Cr 800 W,North Vernon,IN,47265,812-346-8950
Rolling Rock Trucking,59312 Mayflower Rd,South Bend,IN,46619,219-287-1086
Barry Whitehead Trucking,13028 E St Rd 66,Rome,IN,47574,812-836-2971
Davis Farms Trucking,9823 W 900 S,Attica,IN,47918,765-275-2135
Kelly Trucking,2705 N C St,Elwood,IN,46036,317-552-1235
Jeffrey R Shaw,703 Pleasant Dr,Crawfordsville,IN,47933,317-362-8628
Simisons Trucking,6233 E 300 N,Warsaw,IN,46582,574-594-5575
Gregory D Byrnes,226 Mission Trail,Mooresville,IN,46158,317-839-4173
Jerry Suetterlin,119 W Hollis Lane,Fort Wayne,IN,46807,219-744-5685
Keesee Frank,2844 Skyline Dr,Indianapolis,IN,46241,317-684-2070
Shaggy Trucking,508 Seminary Street,Rockport,IN,47635,812-660-0253
"T F D Of Indiana, Inc.",12942 Ford Dr,Fishers,IN,46038,317-841-2810
"Reinhart Transport, Inc.",Rr2 Box 234,Portland,IN,47371,219-997-6145
Haddix Trucking,8853 S 600 W,Edingburgh,IN,46124,317-696-2556
William H Johnson,4147 Contenental Ct,Indianapolis,IN,46227,317-783-6935
Richard P Lawson And Or Terry Lawson,108dh Box 231,Lacrossei,IN,46348,219-754-2152
Swift Leroy,255 N Third St,Scottsburg,IN,47170,812-752-3327
Us Hwy 6 Tire & Auto Service,452 W Main Street,Westville,IN,46391,219-785-1977
T And R Traffic Services,3867 North Commercial Parkway,Greenfield,IN,46140,317-891-8065
Robert Oostdyk,7101 Carl Ross Drive,Charlestown,IN,47111,812-256-3730
K C Trucking,Ceiadon One Ceiadon Drive,Indianapolis,IN,46235,763-753-4669
Packwood Trucking,603 E 32nd St,Anderson,IN,46106,317-642-1012
Stine Trucking,854 W Cr 500 N,Orleans,IN,47452,812-865-2915
K K Marcol Trucking,5820 W 100 N Lot 6,Lagrange,IN,46761,219-768-4113
Kan & Kirsten Richardson,4186 E 1000s,Blufton,IN,46714,219-346-2114
Devor Trucking,2034 East County Rd 375 South,Connersville,IN,47331,765-825-1979
Randell W Scott,3743 E Stop 11 Rd,Indianapolis,IN,46227,317-881-6495
4 J Express,8728 S Shelby,Indianapolis,IN,46227,317-509-6297
"Jim Engleking Trucking Services, Inc.",9681 W Hwy 24,Wolcott,IN,47995,219-279-2050
M & G Trucking Hicube Express,407 3rd Ave,Jonesboro,IN,46938,317-674-6737
Bozzay Delivery,1911 Stoutfield E Dr,Indianapolis,IN,46241,317-487-2200
Midnight Express,4500 W White Rd,Muncie,IN,47302,317-284-0324
G And J Trucking,1005 N Dan Patch Dr ,Oxford,IN,47971,765-884-1242
E I C Bulk Transport,1100 Park St,Rochester,IN,46975,219-563-7814
Hurst Trucking,1219 W 9th St,Rochester,IN,46975,219-223-3864
G & R Transport,21412 Protecta Dr,Elkhart,IN,46516,574-266-8201
Riverside Truck,305 Franklin St,Troy,IN,47588,812-547-1099
Shoreman Trucking,8015 W 750 S,Ambia,IN,47917,765-366-4725
Kurt Ernstes Trucking,2040 S 750 W Manilla,Manilla,IN,46150,317-663-2887
Todd Thomas Trucking,200 Senic View Dr Sw,Laconia,IN,47135,812-737-2708
Przybocki Trucking,925 Kankakee St,Lowell,IN,46356,219-696-4862
Fraasman Trucking,1569n Cr 575 E,Milan,IN,47031,812-654-3698
"Golden Savage Transport, Inc.",905 N Nappanee St,Elkhart,IN,46514,219-262-4594
Patrick E Moore Trucking,Cr 350n Box 132a,Rockville,IN,47872,765-344-0824
Virgo Trucking Co,3240 N Illinois St,Indianapolis,IN,46208,317-926-3757
D And R Merlau Trucking,5013 W 100 N,Greenfield,IN,46140,317-894-7872
Becker Distributing,9611 Colvin Rd,Centerville,IN,47330,317-855-5354
J & G Trucking,2212 Morton Ave,Elkhart,IN,46517,219-848-5597
Elijah Trucking,6272 S 125 W,Brook,IN,47922,219-275-7281
Morning Star Trucking,724 North Mill St,No Manchester,IN,46962,260-982-8473
G L Transport,4022 Leslie Court,Franklin,IN,46131,317-535-0438
Barbara Regina Deliveries,7625 Howard Avenue,Hammond,IN,46324,N/A
J & C Insulation Service,351 Ridge Rd,Charlestown,IN,47111,812-256-5778
"Summit Express, Inc.",2312 Northyard Ct,Fort Wayne,IN,46818,260-469-0881
Byers Construction,1938 E St Rd 28,Attica,IN,47918,765-764-4340
Triangle Trucking,1806 Leer Street,South Bend,IN,46613,219-287-1294
Coles Backhoe Service,175 Morningside Dr,Charlestown,IN,47111,812-256-6007
Rogers Logging & Trucking,2444 Lower Sandford Rd,West Terre Haute,IN,47885,812-533-3110
Penner Trucking,3135 S 1075 E,Lagrange,IN,46764,269-689-7457
"H E R K Express, Inc.",205 Percy Julian Dr,Greencastle,IN,46410,317-653-9165
Utilities Poles Delivery Services,3979 W Vincennes Trail,Salem,IN,47167,812-883-6327
A & K Express,3843 W 25th St,Anderson,IN,46011,317-622-1891
Garboni Trucking,69 Ems Ln C24c,Warsaw,IN,46580,219-269-6930
E And J Hauling,10754 N Hicks Ridge Rd,Canaan,IN,47224,812-839-0027
Wrightway Logiistics,767 W Chippewa Ave,South Bend,IN,46614,866-912-5336
Thomas Trucking,3630 Glen Arm Rd,Indianapolis,IN,46224,317-328-9349
"Oliver Kelly, Inc. Transportation",1811 S Windpoint Dr,Muncie,IN,47302,317-289-4512
Rod Jentzen Trucking,56138 Hollingshead Dr,Mishawaka,IN,46545,800-521-6393
R & D Sutton Trucking,808 E Chestnut St 17,Jeffersonville,IN,47130,812-282-5527
"Jenks Trucking, Inc.",314 E Montgomery Avenue,Clarksville,IN,47129,812-283-8531
Hart Trucking,3027 S 725 E,Franklin,IN,46131,317-738-3807
Chesnut Moving & Storage,302 W Hefron St,Washington,IN,47501,812-254-0612
Dennison Trucking,8065 N 465 E,Howe,IN,46746,616-659-4983
J R's Trucking,2965 East County Road 150 S,North Vernon,IN,47265,812-873-5775
C & C Trucking,3284 S Ladoga Rd,Crawfordsville,IN,47933,317-866-8192
L S Trucking,1203 N Main St,Bicknell,IN,47512,812-890-9160
Indiana State Recovery,1535 E Naomi,Indianapolis,IN,46203,317-788-2927
B And M Transportation,4674 Cr 7,Garrett,IN,46738,260-357-3260
Fleet & Co Transportation,307 N Walnut St,Columbus,IN,46124,812-526-7244
Hometown Delivery Service,249 Sw 4th St,Richmond,IN,47374,317-962-8367
R & S Express,5335 Us Hwy 20 W,Angola,IN,46703,219-665-5135
J & K Trucking,6900 S Angling Rd,Manilla,IN,46150,765-679-5414
Martins Farm,64756 Cr 3,Wakarusa,IN,46573,574-862-2024
K & W Trucking,2249e 400s,Washington,IN,47501,812-644-7414
Donald Ray Bottorff Jr,11155 East Division Rd,Knox,IN,46534,219-772-5753
R F Trucking,1401 Tieman St,Washington,IN,47501,812-254-0787
Coal Creek Trucking,R R 1 Box 137 A,New Richmond,IN,47967,317-275-2183
Roberto Anciso,5229 West 500 North,Galvesto,IN,46932,N/A
Kanizer Trucking,96 North Chestnut Ave,Clinton,IN,47842,317-832-6157
Woodland Services,2905 W 100 N,Angola,IN,46703,517-765-2929
Xanadu Transport,8121 N St Rd 9,Hope,IN,47246,812-546-1000
S Kirkham Trucking,6061 W 200 N,Rochester,IN,46975,812-852-2170
Kj Express Transport Trucking Company ,27840 Willard Road,Elkhart,IN,46514,157-458-4695
Night Hawk Trucking,500-3 N Sagamore Pkwy Ste 320,West Lafayette,IN,47906,800-974-0247
Independent Logistics Ltd,3190 Sr 142,Martinsville,IN,46151,317-349-9128
Painter Salvage Service,Rr 6 Old Terre Haute Road,Vincennes,IN,47591,812-886-5309
Castor Trucking Co,2305 Pitt St,Anderson,IN,46016,765-640-1124
M & L Trucking,216 Third St,Worthington,IN,47471,812-875-3633
Ctco Transportation,10975 North Rd Nw,Depauw,IN,47115,219-884-3183
S & D Trucking,400 Railroad Blvd,Orland,IN,46776,219-833-6796
Tradewinds,1318 E 236th Street,Arcadia,IN,46030,317-819-2563
B & B Moving,11690 3rd Street,Osceola,IN,46561,219-674-5248
J & M Trucking,3807 W 200 S,Lafayette,IN,47905,317-477-7178
Hardesty Moving And Storage Corp,3400 Commerce Drive,Muncie,IN,47303,317-288-4413
C & N Trucking,9385 Church Rd,New Salisbury,IN,47161,800-759-8888
P I K Express,602 S 2nd Street,Booneville,IN,47601,812-897-3707
Rader Trucking,East Conteras Pike,Bath,IN,47010,317-732-3396
Nichols Trucking,505 South Grant,South Bend,IN,46619,219-289-0219
B & A Trucking,221 Collier St,Columbus,IN,47201,812-379-2640
Jerry Davis Trucking,P O Box 68,Otwell,IN,47564,402-389-1647
K C Trucking,1730 Elmwood Dr,Clarksville,IN,47129,812-848-2997
Dennis Cornett Trucking,407 Ridge Road,Williams,IN,47470,812-388-7110
Michiana North American,903 S Main St,South Bend,IN,46601,219-288-1229
"Longshot Trucking, Inc.",14506 Rupert Road,Grabill,IN,46741,800-219-8282
Webebad Truckin,9661 E 700 N,Albany,IN,47320,317-789-6864
Goldsby Trucking,5303 E 250 N,Orleans,IN,47452,812-272-5026
D W Trucking,2880 N 1450 E,Burnettsville,IN,47926,219-826-4205
C B Trucking,3940 W 770 N,Howe,IN,46746,260-562-3669
"Wynn Trucking, Inc.",10835 E St Rd 120,Howe,IN,46746,219-768-4773
Lanie Trucking,272 N 600 W,Wolcott,IN,47995,219-279-2798
M & J Transportation,2473 N 350 E,Winchester,IN,47394,317-584-7018
Crisp Trucking,4313 Santa Fe Court,Indianapolis,IN,46241,317-486-9717
"Long-short Delivery, Inc.",5287 South 800 East,Waldron,IN,46182,317-364-1529
Bowling Trucking,1499 E Delaney Park Road,Salem,IN,47167,812-883-4999
Rick Jones Trucking,37 Nassau Dr,New Albany,IN,47150,812-944-8154
Steve Stewart Trucking & Contracting,1573 S 350 W,Princeton,IN,47670,812-386-6633
Double D Express,5632 West Washington Street,Indianapolis,IN,46241,317-243-1600
Dave Gagnon Trucking,701 S Kabrina Street,Morocco,IN,47963,219-285-2303
Hogan Transfer And Storage Corp,825 E St Clair Street,Indianapolis,IN,46202,317-639-9583
B & H Trucking Com,605 N Main St Apt B,Montecello,IN,47960,574-583-6880
Plus-a Transport,1929 Robin Hood Blvd,Schererville,IN,46375,219-864-9049
Denton Truck,8974 Mckennett,Redkey,IN,47373,317-584-9026
"Metro Courier Management, Inc. Desperado Press",933 Western Drive,Indianapolis,IN,46241,317-481-8181
"Freelin Express, Inc.",3348 West Cr 700 South,Clay Pool,IN,46510,574-566-2223
Grimes Mobile Home Service,517 E Jefferson Street,Crawfordsville,IN,47933,317-364-0736
Corey Trucking,4451 E Oregon Church Road,Terre Haute,IN,47802,812-299-5814
Taylor Trucking,9426 N 400 W,Monon,IN,47959,219-253-8447
Jean's Trucking,1924 N Stone Maple Ln,Elkhart,IN,46514,219-264-5578
S & K Trucking,1779 Concord Drive,Princeton,IN,47670,812-385-4531
Kenny Industrial Services,Route 2 Box 311,Crawfordsville,IN,47933,765-364-1945
Struewings Trucking,4556 S Co Rd 375 W,Connersville,IN,47331,765-827-9723
Sullivan Transport,809 South Court Street,Sullivan,IN,47882,812-268-5186
P And L Trucking,3425 E Lovers Lane,Scottsburg,IN,47170,812-752-3380
Redline Express,532 W 450 N,Hobart,IN,46342,219-364-8012
Formerly Forrest W Jackson,8000 N Mt Tabor,Ellettsville,IN,47429,812-876-7740
Heaston Trucking,4128 W 300 S,Huntington,IN,46750,219-468-2765
J H Mccart And Son Trucking,9281 E Cuzco Road W,French Lick,IN,47432,812-678-5819
Cla Transport,2601 S Mary's Lane,Rensselaer,IN,47978,219-866-7764
Chambers Trucking,Redwing Dr Lot #13,Loogootee,IN,47553,812-295-4326
Hamilton Trucking,6415 E Spring Lake Rd,Mooresville,IN,46158,317-831-0660
Marty's Backhoe Service,Box 56,Corydon,IN,47112,812-732-5108
Rollings Transport,8920 W New Bethel Road,Lexington,IN,47138,812-866-4737
Anderson Trucking,908 Stanley St,Seymour,IN,47274,812-522-2132
Estes Express,783 S 250 West,Hebron,IN,46341,219-718-0911
"Lynch Trucking, Inc.",508 W Orchard Lane,Greenwood,IN,46142,317-885-6705
Sandpiper Trucking,101 Pennsylvania Avenue,Crothersville,IN,47229,806-678-7990
"Gwinn Trucking, Inc.",1738 Sloan Ave,Indianapolis,IN,46203,405-283-0698
L & S Transport,875 Clark Street,Gary,IN,46406,219-887-7818
Miranda Trucking Partnership,6923 Patricia Lynn B59,Hammond,IN,46323,219-844-1680
"Alpis, Inc.",14611 West Commerce Road,Daleville,IN,47334,317-378-6147
Engel Logistics Services,1935 Markle Street,Elkhart,IN,46517,219-522-6641
Tri State Trailer & Truck Sales,5920 Oak Grove Rd,Evansville,IN,47715,812-471-1550
P & P Trucking,400 W 157 Douth,Bloomfield,IN,47424,812-875-3087
B & C Transportation,701 E Kohlmetz,Muncie,IN,47303,765-286-5427
Phoebe Trucking,3008 177th Dr Bldg 11 Apt 22,Hammond,IN,46323,217-844-7713
Blackman Trucking,4293 Losson Rd Ne,Palmyra,IN,47164,812-364-4336
Aj Trucking,3414 Highway Avenue,Highland,IN,46322,219-838-8304
Griffitts Trucking,4501 Nice Park Road,Salem,IN,47167,812-472-3571
Mckee Trucking,303 North Main,Lynn,IN,47355,765-874-2635
O K F Transportation,22 North Fifth Street Ste 315,Terre Haute,IN,47807,812-238-0444
Jim Walters Auto Sales,1210 Goshen Ave,Elkhart,IN,46516,219-522-3855
R & G Auto Transporters,301 East North Street,Boswell,IN,47921,765-869-4177
Bolser's Milk Hauling,14092 State Road #1,Brookville,IN,47012,765-647-2522
Joe Richardville Trucking,2345 W Baseline Road,Evansville,IN,47725,812-454-0230
Don Murphy Trucking,19371e 300 S,Elizabethtown,IN,47232,812-579-5160
Saul's Transportation Co,1951 Garrison Chapel,Bloomington,IN,47407,812-825-3416
R & J Trucking,1815 N Dequincy Street,Indianapolis,IN,46218,317-375-9890
Sommerville Trucking,23043 South 800 West,La Crosse,IN,46348,219-754-2291
M & M Trucking,3441 West County Road 425 N,Rockport,IN,47635,812-359-4489
Ld Helms Trucking,Hwy 54 5 Mi E Of Bloomfield,Bloomfield,IN,47424,812-384-4039
Wade J Symons Trucking,347 S 1100 E,Greentown,IN,46936,765-628-2101
Hat Trucking Co,532 North Cass Street,Wabash,IN,46992,219-563-3568
Wall Trucking,4997 N 400 E,Rushville,IN,46173,765-932-2019
G&m Trucking,8623 S Co Rd,Straughn,IN,47387,765-977-2273
Ivak Trucking,14106 Wicker Ave,Cedar Lake,IN,46303,219-374-4107
Grabill Home Food Service,13211 West Street,Grabill,IN,46741,260-627-3691
Gk Transit,510 S Morton St,Warsaw,IN,46580,219-269-5688
G J Doyle Transportation,2175 W Fiesback Ct,Columbus,IN,47201,817-526-5119
Tri State Liquid Waste Services,2018 S Evans,Evansville,IN,47713,812-421-9797
"P Young Truckng, Inc.",8050 Old Us 33,Churubusco,IN,46723,219-693-3155
Anron Express Company,2400 Andrews Ave Apt 518,Laporte,IN,46350,219-325-8334
Hoosier Distributing,3009 W Sample Street,South Bend,IN,46619,574-232-0033
Terry Osborne Backhoe Service,617 Frederick Street,New Harmony,IN,47631,812-682-3344
Wester Trucking,521 West Taylor,Chandler,IN,47610,812-925-6361
Wraich Trucking,1276 Pamela Ct,Franklin,IN,46131,317-736-8558
Scott Trucking,4000 N Wilson Rd,Cloverdale,IN,46120,765-528-2218
B & R Truck Equipment,2351 Kentucky Ave,Indianapolis,IN,46221,317-248-8159
Dave Ernstes & Sons Trucking,2652 S Miller Avenue,Shelbyville,IN,46176,317-392-1847
Dale E Perry Trucking,4350 N Camp Arthur Rd,Bruceville,IN,47516,812-882-0597
Pattengale Trucking,5216 N Riverside Road,Attica,IN,47918,765-762-6864
Houser Trucking,1431 County Road 68,Auburn,IN,46706,260-908-0001
R & B Trucking,4820 S St Phillips Road,Evansville,IN,47712,812-985-5696
Shamrock Transporters,435 East Main Street,Greenwood,IN,46142,317-888-0147
Valley Branch Transport,786 Valley Branch Road,Nashville,IN,47448,812-988-7307
"Automotive Technologies, Inc.",217 West 10th Street,Indianapolis,IN,46202,317-630-5515
Jet Delivery Service,Pmb 110 5776-51 Grape Rd,Mishawaka,IN,46545,517-768-0635
Dpk Trucking,1116 Bancroft Ave,Rochester,IN,46975,219-223-9593
Andrew Lewsader Trucking,6395 South Canal Street,Riley,IN,47871,812-894-2503
Jordan Trucking,5959 Fiscus Road,Bloomington,IN,47401,812-824-2735
Reed Trucking,3453 W 12th St,Indianapolis,IN,46222,317-440-9202
Stenger Construction & Trucking,10016 Holland Road,Brookville,IN,47012,765-647-3778
Perry Trailer Transport,1005 S Waldemere Ave,Indianapolis,IN,46241,317-241-3285
Joy Trucking,3624 Old Paris Road,West Terre Haute,IN,47885,812-533-2595
B&s Trucking,Po Box 207-204 West High,Parker City,IN,47368,765-468-7304
Hopper Trucking,126 West Vine Street,Mitchell,IN,47446,812-849-6331
N Paperburg Trucking,11055 W 750 N,Shipshewana,IN,46565,574-825-5869
Raw Transportation,7272 S 700 W,Union Mills,IN,46382,574-850-4800
Cook Trucking,3932 Torrence,Hammond,IN,46327,219-933-0295
D & M Trucking,819 W Shore Dr,Culve,IN,46511,219-842-4760
Vic Zeiger Trucking,6955 E Sr 47,Lebanon,IN,46052,765-325-2447
Clark Trucking,1074 South Popular Street,Dugger,IN,47848,812-648-2986
"D R Bush Transport, Inc.",Po Box 646,Francesville,IN,47946,219-567-9217
Manhattan Transport,515 W Superior St,Fort Wayne,IN,46802,219-423-3669
Ross Mobile Home Transport Co,540 S 600 E,Portland,IN,47371,219-726-9811
Funches Trucking,7779 Red Mill Drive,Indianapolis,IN,46226,N/A
S & D Delivery Service,5017 Goldfinch Lane,Fort Wayne,IN,46818,260-466-0309
Eytchison Trucking,7911 S 250 E,Markleville,IN,46056,765-533-3492
Don Good Trucking,3501 W Cr 100 S,Danville,IN,46122,317-745-0937
East Angola Trailer & Storage,8100 East Metz Road,Angola,IN,46703,260-668-7379
Acton Trucking,7707 E Triple Crown Ln,Camby,IN,46113,812-824-4178
Broadripple Movers,1828 English Ave,Indianapolis,IN,46201,317-693-9112
Frazier Trucking,751 N Rd 700 W,Bargersville,IN,46106,317-422-9172
Brad Spencer Trucking,1653 Howe Street,Valparaiso,IN,46385,219-464-4027
Steven Gutt Trucking,245 W 100 S,Valparaiso,IN,46385,219-464-8726
Barrett Trucking,3590 W 350 S,Chalmers,IN,47929,219-984-5226
River Valley Trucking,621 Fifth Street,Rising Sun,IN,47040,812-438-4849
Jerry Brown Trucking,971 S Prairiewood Dr,Rochester,IN,46975,219-223-2740
J & I Trucking,3900 Cranberry,Greenfield,IN,46130,317-326-3826
B & F Cutting & Hauling,5295 N Finks Road,Osgood,IN,47037,812-852-2254
Dowden Trucking,1311 State Street,Shelbyville,IN,46176,317-392-2399
Three J's Trucking,4375 East 500 South,Warsaw,IN,46580,219-839-2901
M And J Ag Trucking,4045 Sr 8,Auburn,IN,46706,219-925-1770
Williams Trucking,6087 W Mt Auburn 2nd Street,Edinburgh,IN,46124,317-729-5654
Mark Chizum Trucking,7400 St Rd E 110,Rochester,IN,46975,219-892-6287
Pruitt Trucking,10785 N Little Point Rd,Stilesville,IN,46180,317-539-2187
Roberts Trucking,6350 Wheeling Pike,Jonesboro,IN,46938,765-677-9997
Bixler's Mobile Home Transportation,340 E Radio Tower Road,Scottsburg,IN,47170,812-752-3678
K & J Trucking,2470 S Cr 250 West,North Vernon,IN,47265,812-346-6533
James A Hancock Trucking,6714 W 900 S,Edinburgh,IN,46124,N/A
Lower Trucking,6648 E St Rd 252,Morgantown,IN,46160,812-597-4786
Richard K Marshall Trucking,4600 E Michigan Rd,Shelbyville,IN,46176,317-392-3198
T R Mcquern Trucking,1478 E St Rd 38,Frankfor,IN,46041,765-659-1446
Baker Backhoe Service,326 S Main St,Leesburg,IN,46538,574-834-4559
Wilkerson Trucking,200 E Adams Street,Franklin,IN,46131,317-736-9544
Biege Sewer & Septic Service,1702 E Lincolnway,Laporte,IN,46350,219-324-2270
Mccullough Backhoe Service,R #3 Box 134,Washington,IN,47501,812-254-3250
Blackhawk Express,1001 South Mayflower Rd Lot389,South Bend,IN,46619,219-877-7227
Pro Con Equipment,7020 Cline Ave Bldg #2,Hammond,IN,46323,219-845-5600
Moore Trucking & Excavating,4206 E 500 S,Franklin,IN,46131,317-736-4261
Mcdougalds Trucking,4502 N Shady Lane,Indianapolis,IN,46226,317-549-9278
Duane Goffinet Trucking & Excavating,H C 64 Box 141,Tell City,IN,47586,812-836-2435
Campbell Trucking,3313 N Dequincy Street,Indianapolis,IN,46218,317-470-7575
Statewide Medical Services,3601 E 9th Street,Indianapolis,IN,46201,317-634-0801
Triple Crown Carrier Services,5023 Northcote,East Chicago,IN,46312,219-378-1237
"Mcfarland Grain, Inc.",4539 E 1100 N,Pendleton,IN,46064,765-778-3126
Mcintire Trucking,8700 S Cr 600 W,Daleville,IN,47334,765-358-3178
Good Trucking,10895 W 800 N,Culver,IN,46511,219-842-4008
Tom's Express,1000 Main Street,Lagro,IN,46941,219-782-1209
G And S Trucking,4748 East 400 South,Middletown,IN,47356,765-208-8080
Charles Garner Trucking,256 South 600 West,Hebron,IN,46341,219-916-2899
Rishel Trucking,4812 N Kerlin Avenue,Delpi,IN,46923,765-564-4802
All American Trucking,3969 Denwood Drive,Indianapolis,IN,46226,317-546-7757
Wise Wrecker Service,5984 South South West,Trafalger,IN,46181,317-933-2458
D & S Trucking,8115 Boyd Rd,Cannelton,IN,47520,812-836-2724
Baker Trucking,4522 Farnsworth Street,Indianapolis,IN,46241,317-990-9070
Rolling Rock,5380 C R 45,Auburn,IN,46706,260-925-2135
Crenshaw Trucking,1506 Rembrandt Street,Indianapolis,IN,46202,317-632-9823
Double R Dump Trucking,6617 West Co Rd 200 South,Cory,IN,47846,812-239-3944
E B Trucking Co,1807 Ashley Dr,Lebanon,IN,46052,765-482-5846
Lepley Mobile Home Moving,390 S Center Street,Waterloo,IN,46793,260-837-6645
D And T Trucking,2706 East 27th Street,Indianapolis,IN,46218,317-924-9359
4 C Transport Services,8811 Schneider Ave Door 24,Highland,IN,46322,219-923-1722
Scott Pickett Trucking,9150 E 1175 S,Clarks Hill,IN,47930,765-523-3087
David Vehslage Trucking,3283 N 100 W,Brownstown,IN,47220,812-497-3285
L&a Trucking,396 Lakeside Drive,Westiville,IN,46391,219-324-0535
R M T Trucking,2265 Ellsworth Place,Gary,IN,46404,219-949-5746
Winkler Farms & Trucking,3445 E Cr 500 N,Grandview,IN,47615,812-649-9265
Ellis Trucking,R 1 Box 173,Wheatland,IN,47597,812-321-5019
Rabey Trucking,2515 Sampson St,South Bend,IN,46614,219-733-2266
Delivery Boy Express,6127 Old Mill Dr,Indianapolis,IN,46221,317-856-1683
Stroh-ler Trucking,1774 E 100n,Washington,IN,47501,812-254-9027
Michael D White Trucking,509 S Taft,Indianapolis,IN,46241,317-244-3839
Ajax Trucking,2284 N County Road 200 W,Sullivan,IN,47882,812-268-4643
Jaime Zamarron,4306 Clark Avenue,Hammond,IN,46307,219-933-1004
Patten Trucking,2655 Tecumseh St,Portage,IN,46368,219-763-2013
Paul Hastings Trucking,5876 S Jeffers Street,Terre Haute,IN,47802,812-894-2394
"Long Gone Trucking, Inc.",4289 Inglewood Court,Greenwood,IN,46143,317-889-7089
Lillies Trucking,2818 N Station,Indianapolis,IN,46218,317-546-0460
Jay H Kramer Trucking,303 S Victor,Ft Branch,IN,47648,812-753-3103
Olivers Residential Trash Service,8974 W Delchar Middle Drive,Edinburgh,IN,46124,812-526-9189
Stout Trucking Co,3651 N Fruit Ridge Ave,Terre Haute,IN,47804,812-466-4866
Lawrence County Trucking,3148 S 125 East,Washington,IN,47501,618-936-2366
Barber Trucking,R#2 Box 175 B,Montgomery,IN,47558,812-644-7641
Britt Transport,265 Argonot,Crawfordsville,IN,47933,765-364-1886
Double S Trucking,7084 Paradise Rd,Greensburg,IN,47240,N/A
J & J Tractor Services,1435 Everson Road,Woodburn,IN,46797,260-632-4446
Joel Mick Trucking,772 N Mccool Rd,Valparaiso,IN,46385,219-980-0238
B T Trucking,P O Box 132,Hazleton,IN,47640,812-784-2587
Hamman Excavating And Piledriving,7743 N Syra Webster Rd,North Webster,IN,46555,574-834-7900
John Carters Worldwide Moving,4219 S High School Road,Indianapolis,IN,46241,317-856-1700
Harris Trucking,4511 Coburn Ave,Indianapolis,IN,46228,317-925-7486
Barkers Sameday Express,9205 W State Road 25,Mentone,IN,46539,219-353-7099
Lynnville Wrecker Service,584 N Main St,Lynnville,IN,47619,812-922-5627
Steve Barker & Sons Wrecker Service,410 South 13th Street,Decatur,IN,46733,260-724-7262
Williams Brothers Trucking,1826 Vale Ct,New Albany,IN,47150,812-945-4158
Wiley Trucking,4501 Penfold Road,New Harmony,IN,47631,812-682-4217
W & D Trucking,1128 Barbor Rd,W Harrison,IN,47060,812-637-3950
Big E Trucking,2276 N 300 W,Wabash,IN,46992,219-569-1613
Reed Manufacturing Services,R R 2 Hurricane Road,Franklin,IN,46131,317-736-8014
Pit Stop Mobile Services,6519 Grand Ave,Hammond,IN,46323,219-845-7804
World Transportation Services,9510 Arthur Street,Crown Point,IN,46307,800-229-3587
Wfl Service,10360 E 30th St,Indianapolis,IN,46229,317-895-0056
Rick Carman Trucking,407 N College Street,Greencastle,IN,46135,765-653-5607
The Movers W M S,917 S Council Street,Muncie,IN,47308,765-282-4419
Officeworks,12000 Exit 5 Pkwy,Fishers,IN,46038,317-577-3510
Sagamore Transportation Services,4602 Swisher Road,West Lafayette,IN,47906,765-420-7300
Indy Idealease,1325 W Thompson Rd,Indianapolis,IN,46217,317-787-0200
Andirsonville Auto Parts,1405 S Riebolt,Rushville,IN,46173,765-698-2529
Tim Ellis Trucking,10137 Sherfick School Rd,Shoals,IN,47581,812-247-2414
Mehling Trucking,3449 S 162,Huntingburg,IN,47542,812-482-5134
Lamb & Sons Trucking,5445 E County Road 200 N,Butlerville,IN,47223,812-458-6999
Dave Newlin & Son Trucking,1906 E 375 South,Paoli,IN,47454,812-723-3766
Lyons Trucking,1311 Gasburg Road,Mooresville,IN,46158,317-996-3842
Moreland Trucking,301 R R,North Salem,IN,46165,765-676-6151
Heart Auto,6965 E S R 16,Monticello,IN,47960,219-278-7800
Tompkins Transport,5957 N 150 E,Rushville,IN,46173,765-932-4777
Lowers Service,Co Rd 165 S,Springville,IN,47462,812-825-2150
Pinkerton Backhoe & Trucking,5341 W 400 N,Portland,IN,47371,219-731-4311
Graef Trucking,5425 Singleton Street,Indianapolis,IN,46227,317-784-5464
Mjv & Son Trucking,2800 Crystal St,Anderson,IN,46016,765-643-1268
Read's Auto Sales,1805 Elmwood Avenue,Lafayette,IN,47904,765-448-4094
Doc Gilliatt Trucking,2147 N Williams Ridge Road,Eckerty,IN,47116,812-695-2208
R & N Trucking,13928 Wicker Avenue,Cedar Lake,IN,46303,219-374-6616
John J Vela Trucking,11622 N Sr 63,Farmersburg,IN,47850,812-898-1268
"Simmons Trucking, Inc.",2628 Linwood Dr,Vincennes,IN,47591,812-886-5581
Ernie & Annie Transport,709 S Vine,Seymour,IN,47274,812-524-7927
Gts,5644 Rains Lane,Indianapolis,IN,46254,317-387-0206
Strain Trucking,14285 S Keegan Pl,Terre Haute,IN,47802,812-898-2202
Hoosier Relogistics,2411 Fox Harbour Dr,Indianapolis,IN,46227,317-899-7700
D B Transport,901 Harry Kelley Blvd ,Angola,IN,46703,219-495-2427
Heydes Family Trucking LLC,5776 5th Rd,Bremen,IN,46506,219-546-5403
Value Freight Services,3702 W Sample St #249,South Bend,IN,46619,219-250-2062
Allen Transport,659 Florida Dr,Sellersburg,IN,47172,812-246-9887
S R B Enterprises,133 Mill Street,Lowell,IN,46356,219-696-1505
Transportation Services,11997 N E Adams St,Decatur,IN,46733,260-728-9168
Mills Trucking,4863 S Sr 61,Monroe City,IN,47557,812-743-5285
Keith Smith Trucking,70 Depot Court,Bargersville,IN,46106,N/A
Spill Recovery Of Indiana,510 South Park Drive,Mooresville,IN,46158,317-831-1971
Silver Lake Industrial Services,3630 E St Rd 14,Columbia City,IN,46725,260-248-2378
Rose Transportation,2351 Us 52,Laurel,IN,47024,765-698-2592
Midway Truck & Equipment,64080 Us 31,Lakeville,IN,46536,574-291-1095
Tom Bussiere Trucking,7762 S Organ Springs Road,Salem,IN,47167,812-844-1763
Jh Trucking,7760 E 450 N,Francisco,IN,47649,812-385-3091
Williams Moving & Storage,7402 E County Road 725 N,Seymour,IN,47274,812-522-9920
Clipper Dedicated Logistics,55300 Co Rd 31,Bristol,IN,46507,219-825-5469
Neff Trucking,8008 St Rd 25 S,West Point,IN,47992,765-538-2028
Brugger Trucking,55 Idleway Court,Greenwood,IN,46142,317-888-4959
M M D P Trucking,1205 S 29th Street,South Bend,IN,46615,219-234-6654
Lawson Trucking,3212 South Rybolt Avenue,Indianapolis,IN,46221,317-486-0134
Eastlane Trucking,6401 S 1100 W,Westville,IN,46391,219-785-2387
Ellis Trucking,2206 W Hibbs Road,Kingman,IN,47952,765-397-8277
Burcham Transfer,1509 S Meridian,Lebanon,IN,46052,765-482-0852
Kard Co,124 A E Merritt,Rensselaer,IN,47978,219-866-5055
Lj Miller Trucking,6405 Us 20 W,Lagrange,IN,46761,N/A
Rsk Transport,6752 W 200 N,Rochester,IN,46975,574-223-1866
A S A P Trucking,11738 E 415 N,Kendallville,IN,46755,N/A
Mel's Trucking,4673w 1200n,Topeka,IN,46571,219-593-2510
Trash Haulers,2855 W Cr 100 N,North Vernon,IN,47265,812-346-2530
Rte Trucking,6632 Us Highway 231 Lot 9,Bainbridge,IN,46105,765-739-6199
Madden's Trucking,20177 Stone Church Road,Laurel,IN,47024,765-698-2354
D & M Transportation,312 S Indiana St,Warsaw,IN,46580,219-248-8974
Sowles Well Service,242 W 900 S,Hebron,IN,46341,219-996-5998
Master Movers,R1 Box 420,Linton,IN,47441,812-659-2460
Mrk Mccoy Trucking,737 N Livingston Ave,Indianapolis,IN,46222,317-856-9129
Shaver Dolsen Transport Service,6334 Constitution Dr,Fort Wayne,IN,46804,260-490-4000
Kclt Trucking LLC,2176 E St Rd 350,Osgood,IN,47037,812-689-5714
J & M Trucking,7931 W 275 S,Greencastle,IN,46135,765-653-2862
R & M Trucking,Rr 1 Box 37 E,Linden,IN,47955,765-339-4297
L & R Trucking,Corner Of Bus 50 & 57 S,Washington,IN,47501,812-257-0762
Mbc Trucking,165 E Hoehn St,Wheatfield,IN,46392,219-663-1778
Chuckim Trucking,32 Metamora Road,Brookville,IN,47012,812-637-6373
Lake Effect Trucking,20520 Us 6,Walkerton,IN,46574,219-233-1342
Running Cool Express,865 W Parkway Dr ,Pleasant Lake,IN,46779,260-833-1130
Jp & Son Trucking,2485 Oakhaven Dr,W Harrison,IN,47060,812-637-6693
B Green Livestock Logistics,157 Main St,Morristown,IN,46161,317-607-4326
Vaughn Trucking,2305 Freeman Rd,Spencer,IN,47460,N/A
Wagner Trucking,4912 N Fail Rd,Laporte,IN,46352,219-778-9383
Mtl,465 W Drake,Kendallville,IN,46755,219-347-8529
Squires Flying Service,9126 Fayette County Line Road,Brownsville,IN,47325,765-825-1243
Myers Trucking,3505 N 500 E,Shelbyville,IN,46176,765-458-6046
Williamson Trucking,1339 N Co Rd 875 E,Bowling Green,IN,47833,812-986-3058
Barker Water Hauling,836 12th St,Tell City,IN,47586,812-547-1276
Howell's Trucking,9191 E S Shore Drive,Unionville,IN,47468,812-334-7868
Rons Auto Parts & Service,904 W Main St,Mitchell,IN,47446,812-849-2380
A & S Transportation,527 W 10th St,Seymour,IN,47274,812-523-2366
Price Trucking,1981 N C R 175 E,Sullivan,IN,47882,812-268-3277
Michael G Jones Trucking,541 E Main St,Jasonville,IN,47438,812-665-3618
J & S Trucking,165 South 5th Street,Austin,IN,47102,812-794-2525
D & L Smith Trucking,2170 E Jordan Rd,Decker,IN,47524,812-769-9005
Wbc Trucking,9378 E Rio Grande Ave,Terre Haute,IN,47805,812-243-0856
Bret Conner Trucking,Rr1 Box 141 Bb,Denver,IN,46926,765-985-9553
Thatcher Trucking,15040 Vine St,Coal City,IN,47427,812-859-3681
Cdl Trucking,4902 Tillman Rd,Fort Wayne,IN,46816,219-447-7303
Shelton Trucking,R4 Box 20,Bloomfield,IN,47424,812-384-8241
Barodge Auto Pool,0696 E State Road 26,Hartford City,IN,47348,765-348-4600
Mike Warren Trucking,4525 Wycombe Lane,Indianapolis,IN,46226,317-543-9440
Dreyer,12109 Columbus Mann Rd,Sellersburg,IN,47172,812-246-9667
G R T Transport,51555 Forestbrook,South Bend,IN,46637,219-277-8222
J & T Trucking,3311 Lillie St,Fort Wayne,IN,46806,219-744-5425
Williams Trucking,5479 E Crd 550 N,Orleans,IN,47452,812-865-1482
Greg Strain Trucking,6455 W Evans Dr,Terre Haute,IN,47802,812-898-2104
Hoosier Fence,2576 E Market,Nappanee,IN,46550,574-773-5549
J S Cotter Co,1858 E 700 N,Ridgeville,IN,47380,765-584-2521
Christner Trucking,131 South Jefferson St,Cromwell,IN,46732,260-856-4591
Owen Transit,1841 Hollsdale Rd,Motecello,IN,47960,219-583-5731
J A T Co,7707 Taft St,Merrillville,IN,46410,N/A
Red S Express,314 Sunstar Circle,Angola,IN,46703,260-665-9570
Moonlight Trucking,16517 E 251 Sr Street,Noblesville,IN,46060,765-617-9653
Fargo Equipment,P O Box 919 O,Portage,IN,46368,219-879-4374
"Choice Movers, Inc.",1238 South Centennial Avenue,Indianapolis,IN,46241,317-244-1747
R S Horton Utilities,442 N Cr 900 West,Merom,IN,47861,812-382-4167
Affordable Trucking,1817 Elder Road,Mishawaka,IN,46545,219-254-7667
Dans Trucking,260 W Middlebury St,Shipshewana,IN,46565,260-768-4576
Rwb & Sons Trucking,1529 North Ave,Terre Haute,IN,47804,812-466-6746
Jones' A C E,217 N Main St,Fillmore,IN,46128,765-246-6883
Barry Transport,162 N 1125 E,Idaville,IN,47950,574-870-3712
Cripe Earth Services,9889 W 800 N,Huntington,IN,46750,260-344-1185
Roberts Trucking,8527 W Cr 700 S,Greensburg,IN,47240,812-591-4163
Wrecker Service,2929 S Robinson Place,West Terre Haute,IN,47885,812-533-1877
Hamilton Transport,117 E Lusher Ave,Elkhart,IN,46517,219-293-5349
Bamish Trucking,10664 East 450 South,New Ross,IN,47968,765-723-1655
Jay E King Trucking,121 E Second St,Huntingburg,IN,47542,812-683-3436
C & C Trucking,R R #6,Spencer,IN,47460,812-829-9367
Mid States Auto Auction,25784 Sr2 West,South Bend,IN,46619,219-289-7767
Hurley Transport,4673 Autumn Leaves Dr,Columbus,IN,47203,218-350-3006
Topline Cartage And Recycling,14751 W 84th Ct,Dyer,IN,46311,219-865-9283
Williams Trucking,4260 St Rd 56 W,Rising Sun,IN,47040,N/A
Rolling Thunder Transfer,3985 W Sanford,W Terre Haute,IN,47885,812-535-4402
Indy Air Express,1407 E Buchanan,Plainfield,IN,46168,317-839-2289
Metcalf Transport,58583 Norway Ln,Elkhart,IN,46517,219-875-8007
A J Yoder Trucking,11125 W 750 North,Shipshewana,IN,46565,219-825-7818
Spas Trucking,892 Essex Dr,Chesterton,IN,46304,219-395-9286
A A Auto Sales,1002 E Winona Ave,Warsaw,IN,46580,219-268-9387
R & B Trucking,11 Dewey Ave,Washington,IN,47501,812-254-6110
Nomad Trucking,2160 Henroitt Rd,Georgetown,IN,47122,812-951-1090
Larry Berry Trucking,6698 E Cr 700 S,Crothersville,IN,47229,502-643-7769
Thacker Trucking,1335 Cross St,Martinsville,IN,46151,765-342-9787
J & J Motor Express,10325 Hillview Dr,Evansville,IN,47720,812-354-8815
Baldwin Trucking,601 Helen,Terre Haute,IN,47802,812-232-0675
Rugg Trucking,20086 N Manchester Rd,Sunman,IN,47041,812-926-0501
Cameron Trucking,989 E 900 N,Mays,IN,46155,765-645-5424
WaLLCe Trucking,70 Old Trail Dr,Bargersville,IN,46106,317-413-1718
S & J Enterprises,4535 W 900 S,Stilesville,IN,46180,317-539-6539
Midwest Hot Shots,R R #1 Box 696,Springville,IN,47462,812-825-5555
Rainwater Trucking,1214 Potomac Ave,Lafayette,IN,47905,765-477-9066
Reynolds Trucking,95 East Brown St,Campbellsburg,IN,47108,888-500-0410
W E B Transportation Co,1812 Koehine St,Indianapolis,IN,46202,317-685-8139
Jerrys Auto Sales,3102 Kratzville Road,Evansville,IN,47710,812-424-2565
Paul Millikan Trucking,6055 South 360th East,Hillsdale,IN,47854,765-245-0125
Boggs Tree Transplanting,4784 S 450 W ,Claypool,IN,46510,574-491-2516
Da-vic Transport,1465 West Drake Road,Kendallville,IN,46755,219-347-5528
Rk Transport,2472 Us Highway 50,Loogootee,IN,47553,812-295-3055
Alp Trucking,1782 S Lower Hart Street Rd,Vincennes,IN,47591,812-886-5760
Non Stop Freight,1621 Wimmenauer Dr,Indianapolis,IN,46203,317-791-6704
Sunset Trucking,502 E Lafayette,Winslaw,IN,47598,812-789-2161
James Garner Trucking,346 S St Rd 2,Hebron,IN,46341,219-988-4725
B & T Expedite Service,9046 E Cr 300 S,Greensburg,IN,47240,812-934-5803
Graham Transport Service,153 Sixth Street,Roanoke,IN,46783,219-672-3131
Double D Trucking,3242 S Main St Rd,Vincennes,IN,47591,812-886-9293
Broken Bar Trucking,6925 County Rd 62,St Joe,IN,46785,219-337-5135
L & S Transport,10719 Us 27s Lot 47,Fort Wayne,IN,46816,219-639-0103
H And A Hauling,1095 E 150 N,Lagrange,IN,46761,219-463-2398
Storm Transport,3558 W 350 S,Hartford City,IN,47348,765-215-0512
Southbound Trucking,R R 3 Box 25a,Vincennes,IN,47591,812-886-4046
Z Miley Trucking,6092 South Augusta Main,Winslow,IN,47598,812-789-2369
North Alabama Poultry Express,116 Pineview Dr,Vincennes,IN,47591,812-886-9357
Paul Randall Movers,8350 E 48th St Po Bx,Indianapolis,IN,46226,N/A
Legg Farm Service,Po Box 356,Waynetown,IN,47990,N/A
Collins Moving Systems,904 W Morgan St,Kokomo,IN,46901,765-457-6648
John Francis Brokerage,1608 East 18th Street,Muncie,IN,47302,765-289-7371
"Jet, Inc.",903 South Main Street,Middlebury,IN,46540,574-825-0522
Yankee Motor Freight,1136 W 500 S,Marion,IN,46952,317-674-7745
Marathon Transportation,1833 W 84th Dr G189,Merrillille,IN,46410,773-396-4012
Indian Trucking,900 George Nelson Dr,Portage,IN,46368,219-787-8666
Thrifty Delivery Service,3204 Lower Huntington Rd,Fort Wayne,IN,46809,219-426-3284
Har-ley Express,1501 Keller Express Ste E Bx 5,Evansville,IN,47710,812-467-0840
Internal Honing Service,782 North Greenbrair Drive,Paoli,IN,47454,812-723-3837
D & D Trucking,6830 West 200 North,Angola,IN,46703,260-665-2568
Joe Grinstead Farms,802 W 246th Street,Sharidan,IN,46069,317-758-4151
Egenolf Contracting & Rigging,2916 Bluff Road,Indianapolis,IN,46225,317-787-5301
Boot City,11800 Us Hwy 41 S,Terre Haute,IN,47802,812-299-8379
Velox Express - Blitz Pack Courier,720 Executive Park Dr,Greenwood,IN,46143,180-069-0633
Qadco,509 9th Ave,Evansville,IN,47712,812-426-1404
Cold Express Transportation Services,17655 Cumberland Rd,Noblesville,IN,46060,317-776-3757
J & J Farms,5980 S 100 E,Oxford,IN,47971,765-376-4774
Adesa Impact,13085 Hamilton Crossing Blvd,Carmel,IN,46032,401-434-8760
Hedden Trucking,513 Stone Hedge Dr,Vincennes,IN,47591,812-886-6910
Ervin Trucking Co,1908 Augusta Dr,Jeffersonville,IN,47130,812-283-4506
L S Ayres & Co,1 W Washington St,Indianapolis,IN,46204,317-262-4411
Four Star Transportation,Box 51488,Indianapolis,IN,46251,800-489-7827
South Bend Motor Freight,600 United Blvd,South Bend,IN,46601,574-239-1300
Murray Trucking,8569 W 900 N,Elwood,IN,46036,765-623-1511
Randy Lawyer Trucking,357 W Wilson Street,Orleans,IN,47452,812-865-3124
Littles Delivery Service,136 W & Cr400,Crawfordsville,IN,47933,317-362-9540
Hi Way Transport Services,220 East Centennial Avenue,Muncie,IN,47303,765-288-7795
Gonser Trucking,66764 Cr 3,Wakarusa,IN,46573,219-862-2997
Walterman`s Mobile Home Moving,Rural Route 7 Box 157,Greensburg,IN,47240,N/A
Csi Logistics,2741n Foundation Dr,South Bend,IN,46628,574-233-1047
Schulze Farms,9432 Emison Mill Road,Oaktown,IN,47561,812-324-2390
Roto-rooter,1766 Brent Dr,Newbrough,IN,47630,812-422-3184
Group Dekko Services LLC,Cr 400 East & Us 6 West,Kendallville,IN,46755,260-347-0700
Fleet Vehicle Auction,3600 E Washington,Fort Wayne,IN,46803,219-422-9577
Miller Brothers,10433 Telephone Road,Chandler,IN,47610,812-853-8497
Builders Express,2414 Larman Dr,Indianapolis,IN,46227,812-949-2922
Burrow Trucking Co,5965 E 169th St,Noblesville,IN,46060,317-773-3696
D K J Express,Rural Route 1,Elizabeth,IN,47117,N/A
R&j Enterprise,7575 East Deer Lick Road,Bloomington,IN,47401,812-332-0082
Fred Black Enterprises,2786 Main St,Patriot,IN,47038,812-594-2622
C & N Trucking,177 N Bennett St,Paoli,IN,47454,812-849-2085
Pride Enterprises,3900 S Coffing Bros Rd,Kingman,IN,47952,765-492-3712
Transport America,Rt 3 Box 44 C,Loogootee,IN,47553,812-295-4635
Bothast Trucking,1814 Velocipede Pike,Liberty,IN,47353,317-732-3834
L & E Timber Transport,Rr 8 Box 439,Anderson,IN,46017,317-378-5766
Eugene Fair Trucking,6556 Middletown Rd,Waldron,IN,46182,317-696-3137
Egloff Trucking Co,301 E 5th St,Ferdinand,IN,47532,812-367-2803
Harold Bault Trucking,7706 State Hwy 43,Spencer,IN,47460,812-876-1785
Fort Wayne Relocation Services,7002 Ardmore Ave,Fort Wayne,IN,46809,260-747-5625
Earls Excavating And Trucking,6605 E Cr 550 S,Hardinsburg,IN,47125,812-472-3964
Couch Trucking,1005 W New Road,Greenfield,IN,46140,317-462-2343
T W Elmore Trucking,10029 W N County Line Road,Stilesville,IN,46180,317-539-6297
Gick Trucking,8777 W 1100 S,Brookston,IN,47923,765-563-6223
He,1835 North New Jersey Street,Indianapolis,IN,46202,317-926-1575
Hawkins Farms,303 Anderson St,Rockville,IN,47872,765-569-2118
Dwenger Trucking,2362 W State Road 352,Boswell,IN,47921,765-869-5265
Tek,610 George Street,Aurora,IN,47001,859-341-6692
Hess Trucking,4100 Citation Drive,Newburgh,IN,47629,812-858-5678
Lightning Bolt Express,51591 Us Highway 31 Busin,South Bend,IN,46637,219-295-2200
Kaylor Drums,3136 Dickson Rd,Cedar Grove,IN,47016,765-647-1717
4 D Trucking,2214 Huron St,South Bend,IN,46619,219-233-1904
D And M Desperado Trucking,18 West Columbus Street Apt 1,Cloverdale,IN,46120,317-795-4811
Baker Trucking,413 1 2 Odlitic Rd,Bedford,IN,47421,812-279-2992
Garrison Trucking,411 Gladstone,Columbus,IN,47201,812-379-4815
Logston Auto Supply,2904 E Broad St,New Castle,IN,47362,765-529-6690
Lou Meyer Trucking,Rr2 Box 166-f,Yorktown,IN,47396,N/A
Rex Trucking,1117 E Main St,Richmond,IN,47375,317-966-7527
C & C Trucking,9281 W Sr 46,Bowling Green,IN,47833,812-585-0083
Max Waltz Trucking,2328 South 650 East,Walton,IN,46994,574-732-1524
Bills Body Shop,5460 E State Rd 14,North Manchester,IN,46962,260-839-2735
Harris Express Service,926 Ardsley Drive,Indianapolis,IN,46234,N/A
Yellow Transit Co,1231 E Jackson St,Muncie,IN,47362,N/A
K L Myers Farm Transport,19996 County Road 146,New Paris,IN,46553,219-831-2207
Allen Brothers Trucking,5755 S State Road 145,French Lick,IN,47432,812-936-9398
Maurice Collier Trucking,300 Harry Hughes Rd,Charlestown,IN,47111,812-285-1810
Ron Seals Trucking,Rr 1 Box 32-b,Camden,IN,46917,N/A
Alliance Transport,2875 W 300 N,Bluffton,IN,47614,219-543-2444
Gary's Auto Sales,2881 E Us Hwy 41,Attica,IN,47918,317-762-3163
"Wilcher Trucking, Inc.",1035 South Keystone Avenue,Indianapolis,IN,46203,317-638-9356
H & F Trucking,2571 E Main St,Star City,IN,46985,574-595-7173
La Nan Company,2799 S State Rd 1,Bluffton,IN,46714,219-824-1717
Power Train,2334 Production Dr,Indianapolis,IN,46241,317-241-9393
Scherer Trucking,400 E 7th St,Fowler,IN,47944,N/A
Moser Trucking,5211 W 400 S,Berne,IN,46711,260-334-5383
Polk Scale Service Div,11129s 125w,Romney,IN,47903,765-447-3215
Klump Trucking,9948 N Dearborn Rd,Guilford,IN,47022,812-623-4855
Jochem Trucking Company,11291 S 100 W,Ferdinand,IN,47532,812-367-2814
Icd Commercial Flooring Solutions,5255 Winthrop Ave,Indianapolis,IN,46220,317-283-5574
Tines Wrecker Service & Mobil Home Movers,R R 1 Box 329,Cayuga,IN,47928,317-492-4339
T & T Trucking,Po Box 146,Rensselaer,IN,47978,N/A
Professional Delivery Service,719 Treeline Dr,Newburgh,IN,47630,N/A
B & M Trucking,8430 N Us Hwy 31,Seymour,IN,47274,812-445-3122
L G Gray Trucking,402 W Hefron,Washington,IN,47501,812-254-2522
Star Linen Service,438 S State St,Kendallville,IN,46755,219-347-3060
Mcafee Farms Trucking,3395 Mcafee Lane,Depauw,IN,47115,812-347-3529
Foust Farms Trucking,2336 West State Road 56,Petersburg,IN,47567,812-354-9426
H V Smith Trucking,1562 John St,Taylorsville,IN,47280,812-526-2097
Kraft Marathon Service,600 N Clark Blvd,Clarksville,IN,47129,812-283-8003
Lash Transport,0693 Cr 62,Garrett,IN,46738,260-348-2348
Weaver Farms,13255 Roosevelt Rd,Mishawaka,IN,46544,219-633-4400
