Company Name,Street Address,Address Locality,Address Region,Postal Code,Telephone
Lynn Cummings Trucking,206 3rd Ave,Charles City,IA,50616,641-228-3642
J R O Transportation,606 S Maple,Creston,IA,50801,641-202-0063
Smb Trucking,1520 Cherokee Dr,Marion,IA,52302,319-350-1803
David Kleppe Trucking,7234 Great River Road,Clermont,IA,52135,563-380-4864
Jss Delivery,1527 Cedarview,Muscatine,IA,52761,563-260-4168
Jeremy Taylor Trucking,2083 110th Ave,Lake Park,IA,51347,712-309-0511
Sons & Daughters Truck Line,108 Hwy 14 S,Monroe,IA,50170,641-259-2723
Steve Fox Trucking,5235 Texas Circle,Ames,IA,50014,515-292-5452
Gene Myers Trucking,28 North 2nd Street,Lansing,IA,52151,563-535-7162
H & T Trucking,2642 So Cecelia,Sioux City,IA,51106,712-258-4529
Bullet Transport,114 Grant Street N,Bondurant,IA,50035,515-957-8357
Bringman Trucking,19001 Hwy 12,Westfield,IA,51062,712-568-0046
Gm Bus Service,412 Colony Drive,Davenport,IA,52806,563-391-8959
Wiskus Trucking,513 Nameless St,Manning,IA,51455,712-653-2154
Flugge Trucking,2976 310th St,Cresco,IA,52136,563-547-5519
Dubuque Motor Carriers,900 Cedar Cross Road,Dubuque,IA,52003,563-543-2894
Rks Trucking Company,3256 180th St,Muscatine,IA,52761,563-263-3268
"Omara Ag Services, Inc.",5090 G24 Hwy,Hartford,IA,50118,515-223-5391
Double K Trucking,117 Lake Street,Lake View,IA,51450,712-265-1096
Bandstra Trucking,12935 640th St,Mccallsburg,IA,50154,515-571-4285
"Jhk Trucking, Inc.",19857 Sunset Avenue,Remsen,IA,51050,712-540-5075
Ts Trucking,3320 Taft Ave,Hartley,IA,51346,712-729-5259
Two Rivers Express,1782 F Ave,Knoxville,IA,50138,641-828-6928
Shaun Swanger Trucking,308 3rd St,Persia,IA,51563,712-488-2081
Minutemen Express,212 Pearl St,Onawa,IA,51040,712-423-3773
S & B Trucking,809 E Rocksylvania Ave,Iowa Falls,IA,50126,641-648-2231
Frank Uthe Trucking,340 Oakland Drive,Alden,IA,50006,515-689-9159
Zee Trucking,1602 Se Hayes Dr,Ankeny,IA,50021,515-963-8319
B And K Trucking,514 Merchant St,Wapello,IA,52653,319-523-8812
Rens Trucking,4743 Grant Ave,Maurice,IA,51036,712-470-4221
Steel Horse Trucking,314 W 16th Street N,Newton,IA,50208,641-831-3647
Big T Transportation,2391 Lafayette Ave,Marshalltown,IA,50158,641-745-7043
C And B Trucking,306 Nw 9th Street,Leon,IA,50144,641-446-7867
Big C Transport,5545 Vista Dr Apt 425,West Des Moines,IA,50266,N/A
Arlette's Trucking,6630 Se 5th Street Apt 2,Des Moines,IA,50315,515-943-1291
F J M Trucking,119 Main St,Fruitland,IA,52749,563-262-8064
Pb Trucking,27492 120th Street,Parkersburg,IA,50665,319-415-2335
Eff Logistics,4659 20th Street,Norwalk,IA,50211,941-875-2291
Egdorf Trucking,3511 290th St,Hull,IA,51239,712-439-2257
Bee Kleen Linen & Uniform Service,511 3rd Avenue,Sheldon,IA,51201,712-324-4047
Terry's Hauling,1400 9th St,Onawa,IA,51040,712-433-1662
Jbird Trucking,107 Grand,Kingsley,IA,50128,712-870-1325
Hammer Lane Express,1417 - 15th Avenue,Eldora,IA,50627,641-373-4843
Lindsay Trucking,2618 Centerlake Dr,Spirit Lake,IA,51360,712-330-5580
Waddell's Trucking,1911 Charles St,Burlington,IA,52601,319-750-4707
Drv Trucking,20125 176th Ave,Mystic,IA,52574,641-895-8288
Mark Brundige Trucking,3721 T Ave,Manning,IA,51455,712-790-0407
Staley's Catering,42 Main Street,Charter Oak,IA,51439,712-678-3567
Van Engen Trucking,4724 Ibex Ave,Orange City,IA,51041,712-567-3673
Olsen Trucking,11655 U Ave,New Hartford,IA,50660,319-983-2305
Smith Transportation,5276 Sun Valley,Dubuque,IA,52002,563-599-5683
Wuorinen Transport,3316 Johnathan Ave,Bettendorf,IA,52722,563-529-1544
Pederson Trucking,100 Blaine Street,Bondurant,IA,50035,515-313-6374
Engelkes Trucking,901 7th St,Sheldon,IA,51201,712-324-9802
Erickson Trucking Of The Quad Cities,521 S Dittmer St,Davenport,IA,52802,563-386-7901
K & N Express,1907 Mitchell St,Ruthven,IA,51358,712-266-5733
K & K Trucking,1122 Bank Street,Webster City,IA,50595,515-227-2273
Septic Services Of Iowa,4401 Preserve Lane,Cedar Rapids,IA,52411,319-365-8665
J M James Transportation,1532 42nd St,Des Moines,IA,50311,515-279-1719
Ness Trucking,2820 310th Ave,Dickens,IA,51333,712-853-6426
J L B Trucking,707 Ne 4th St,Eagle Grove,IA,50533,515-448-9035
Mj Kunkel Trucking,403 N Ash,Marcus,IA,51035,712-540-0353
Cy Hawk Trucking,717 W 4th Street,Boone,IA,50036,515-432-4475
J & J Trucking,4126 160th St,Little Rock,IA,51243,712-470-0491
Anderson Trucking,621 Nw 2nd St,Eagle Grove,IA,50533,515-570-9841
Decker Express,505 Main Street,Elliott,IA,51532,712-767-2258
Denhartog Trucking,3703 Bladensburg Road,Batavia,IA,52533,641-934-5020
Alexander Trucking,2117 Oxford Avenue,New Sharon,IA,50207,641-673-5038
Brodi Trucking,180 11th Ave Se,Le Mars,IA,51031,712-548-4082
Boucher Trucking,1740 Bristol Dr,Dubuque,IA,52001,563-513-5699
Sleep Distributing,302 South Woodlawn Rd,Long Grove,IA,52758,563-285-7110
Lcb Trucking,21757 County Rd E34,Anamosa,IA,52205,319-462-6160
Freeborn Auto Transport,4204 Hayes Ct,Davenport,IA,52804,563-343-3938
Donald Seylar Mac Tools Distributor,1107 Oak Hill Road,Estherville,IA,51334,712-362-5080
Dti,2912-78th Street,Urbandale,IA,50322,515-250-4990
Low Rider Express,630 Chicago Street,Sumner,IA,50674,319-240-5547
Schmidt Trucking,307 Liston St,Danbury,IA,51019,712-883-2383
Kidd Transportation Services,721 West 7th Street,Waterloo,IA,50702,319-429-6631
Vince Nelson Transport,203 High Acres,Danville,IA,52623,319-750-7440
Krukow Trucking,1644 Easton Ave,Waverly,IA,50677,319-276-3494
Don Foust Trucking,11011 165th Ave,Indianola,IA,50125,515-961-3465
Cantrell Trucking,104 Center St,Manning,IA,51455,712-653-2100
Midwest Truck Parts,13454 170th St,Ottumwa,IA,52501,641-684-4862
Mark Suhr Trucking,1105 North Street,Walnut,IA,51577,N/A
Darren M Hieber Trucking,832 Main St,Mapleton,IA,51034,712-880-0115
Sl Fish Trucking,10020 74th Street,Maquoketa,IA,52060,563-652-5802
Bs Trucking,104 N Lowe St,Algona,IA,50511,515-295-2185
Summers Transportation,314 N Madison,Winthrop,IA,50682,319-935-3171
C & R Transport,104 Mulberry Street,Massena,IA,50853,712-779-0292
Rieken Trucking,630 Rr St,Bristow,IA,50611,641-775-3402
Skyraider Transport,1410 Hillcrest Dr,Waverly,IA,50677,641-751-3325
Ed Ritter Trucking,906 Linn Street,Atlantic,IA,50022,402-250-8099
B & B Trucking,12421 190th Ave,Keswick,IA,50136,319-738-2944
W & W Transportation,2328 Hwy 59,Defiance,IA,51527,712-748-6006
Robert Trucking,727 Townsend Ave,Wapello,IA,52653,563-260-8313
Dkd Trucking,2229 30th Street,Spirit Lake,IA,51360,712-209-1416
"Precision Transmission Of Dubuque, Inc.",806 Wacker Plz,Dubuque,IA,52002,563-585-0270
Rudy Trucking,104 1st Street,Persia,IA,51563,712-579-4344
Wheeler Trucking,708 2nd St Sw,Clarion,IA,50525,515-689-5737
Moore Trucking,509 2nd St,Griswold,IA,51535,712-789-0681
Hart-low Trucking,115 W Wilbur Street,Hawkeye,IA,52147,563-427-4852
Selle Trucking,3700 28th St Lot 69,Sioux City,IA,51105,712-574-6627
Als Auto & Equipment,308 N Main,Blakesburg,IA,52536,641-777-4004
Long Way Home Transportation,506 South Military St,Martelle,IA,52305,319-743-5900
Oceanway Express,2644 Hwy 75,Salix,IA,51052,712-204-2093
Greenpath Environmental Services,1225 East River Drive Suite 310k,Davenport,IA,52803,563-345-6500
3 G Trucking,21077 Power Plant Road,Ottumwa,IA,52501,641-954-1577
Vanengen Hauling,2848 250th Street,Doon,IA,51235,712-726-3214
Brandon Hansen Trucking,2003 Eagle Ave,Audubon,IA,50025,712-563-2042
Stan Ver Steeg Trucking,110 6th St Ne,Orange City,IA,51041,605-929-7266
Meyer Trucking,1936 Windfall Avenue,Charles City,IA,50616,641-220-0168
Core And Diesel Service,1626 Bank,Keokuk,IA,52632,319-795-6171
Mc Transport,2865 Hwy 61,Muscatine,IA,52761,563-554-0240
Bodley Transportation,103 West Larabee Street,Hawkeye,IA,52147,563-427-4850
H & C Trucking,408 Washington St,Diagonal,IA,50845,641-202-4802
Autocrafters,4407 1st Ave Sw Apt 203,Cedar Rapids,IA,52405,319-241-5180
Dory Trucking,3140 Racoon St,Des Moines,IA,50317,515-265-4393
Bacc Trucking,412 E 5th St,Aurelia,IA,51005,712-749-0075
Dejong Trucking,3748 Jay Ave,Orange City,IA,51041,712-737-2339
Doug Erickson Trucking,502 16th St,Corning,IA,50841,641-322-5456
The Auto Matrix,1708 Washington,Pella,IA,50219,641-628-1804
Edmundson Trucking,12526 190th Ave,Keswick,IA,50126,319-738-2803
Mj Miller Trucking,15183 Mill Ridge Lane,Council Bluffs,IA,51503,712-325-9012
Country Boy Trucking,1750 480th St,St Ansgar,IA,50472,507-993-3738
Blackmer Trucking,5527 1st Ave Sw,Cedar Rapids,IA,52405,319-540-4496
Brad West,10660 250th Street,Lamoni,IA,50140,515-208-8126
Arends Transport,16551 130 Th St,Aplington,IA,50604,319-240-2931
Eddie J Cartage,423-10th Ave S 3,Clinton,IA,52732,563-243-5157
United Services By R G Iossi,21220 N Brady St,Davenport,IA,52806,563-391-5822
Executive Transportation,701 Park Place,West Burlington,IA,52655,319-850-1336
Berte Trucking,1007 440th St,Swea City,IA,50590,515-320-1102
Gater Express,407 Ne Street,Hedrick,IA,52563,641-680-7290
Northland Auto & Marine,1204 N 13th St,Humboldt,IA,50548,515-332-2222
Teig Farms,3414 Emerald Dr,Ames,IA,50010,515-388-4815
Mcdanolds Trucking,15434 490th,Mystis,IA,52574,641-649-2900
Dlc Conerd Trucking,209 7th Ave Se,Independence,IA,50644,319-327-1072
Scholbrock Trucking LLC,23867 Quartz Rd,Hawkeye,IA,52147,563-380-6984
Foley Trucking,300 2nd Street,Bradford,IA,50041,641-373-2136
Vanhouten Trucking,2361 Union Avenue,Battle Creek,IA,51006,712-369-2044
Lukins Auto,346 Hwy 1 & 92n,Washington,IA,52353,319-653-3568
S&s Transport,739 N Neisse St,Blue Grass,IA,52726,563-349-2924
Troyer Trucking,408 Church Street,South English,IA,52335,319-667-2969
Handke Express,3429 Jones St,Sioux City,IA,51104,712-574-0522
"Smitty's Distributing, Inc.",201 Roy-el Road,Wapello,IA,52653,319-523-9982
Owen Transport,27478 670th Ave,Maxwell,IA,50161,515-387-8670
D&d Trucking,28182 219 Th St,Leclaire,IA,52753,563-289-8222
Dean Dundee Trucking,1230 Maplecrest Dr,Marion,IA,52302,319-929-6567
Gj Trucking,1621 460th Street,Hawarden,IA,51023,712-552-1789
Davison Trucking,131 Carter Lake Club,Carter Lake,IA,51510,712-355-0345
Lakes Limo And Taxi Service,806 25th Street,Spirit Lake,IA,51360,N/A
Gratna Logistics,1550 65th St,Iowa Falls,IA,50126,641-648-6746
England Transportation,703 5th St,Clearfield,IA,50840,641-202-6707
Moeller And Sons Trucking,1128 Parkway Drive,Bettendorf,IA,52722,563-359-5145
Dac Trucking,21452 330th St,Blencoe,IA,51523,402-630-3641
T Burke Trucking,4409 310th St,Clear Lake,IA,50428,641-357-6016
C & K Trucking,714 1st Street,Manning,IA,51455,712-653-2082
Hilgenberg Trucking,28205 Zephyr Avenue,Coon Rapids,IA,50058,712-210-0750
Kitelinger Trucking,2702 300th St,Exira,IA,50076,712-249-1149
Starbuck Trucking,104 E Van Buren,Mitchell,IA,50461,641-732-3970
Gravel Trucking,24947 21st Ave,Bernard,IA,52032,563-543-8264
Michael Webb Trucking,300 N West St,Ionia,IA,50645,641-394-4438
Barhoppers,1318 W 38th Street,Davenport,IA,52806,563-676-9347
Jd Custom,5037 510th St,Rolfe,IA,50581,515-320-1807
Tobey Farms Trucking,2268 330th Avenue,Dewitt,IA,52742,563-659-9620
Gaul Farms,22214 James Rd,Holy Cross,IA,52053,563-552-1255
Jdo Transport,1429 62nd Street,Des Moines,IA,50311,515-419-2833
Aies,3584 Xavier Avenue,Auburn,IA,51433,712-830-9646
Midwest Express,208 K D Av,Eldon,IA,52554,641-652-9011
Hoofin It Trucking,2339 280th St,Mt Ayr,IA,50854,641-344-8855
Walvatne Industrial Services,14835 Q Ave,Dike,IA,50624,319-266-3060
Hoof N It Express,3549 W 31st St,Davenport,IA,52804,309-716-4466
Hilltimber Farms,11816 Christensen Lane,Dubuque,IA,52001,563-582-7261
Circle K Transportation,2685 470th Sw,Iowa City,IA,52240,319-683-2242
Benet Trucking,2340 Ep True Parkway #24,West Des Moines,IA,50265,515-473-2807
Bibler Trucking,214 35th Ave W,Spencer,IA,51301,712-260-6388
Left Lane Express,2150 Ne 18th St 106,Grimes,IA,50111,515-339-2225
Ewing Trucking,2460 285th St,Greene,IA,50636,641-816-3095
Ba Trucking,306 E 5th St,Lake Park,IA,51347,712-330-1499
Bts,708 6th St,Sloan,IA,51055,712-428-1208
Bob Fink Trucking,1885 Hwy 39,Deloit,IA,51441,712-263-9548
Todd Shockey Trucking,2911 120th Street,Charlotte,IA,52731,563-677-2825
Grant Trucking,702 S King St,Ida Grove,IA,51445,712-898-9879
Louw Stables,36479 Osage Ave,Van Meter,IA,50261,515-468-3863
Jzt,207 Center St,Manning,IA,51455,712-212-3456
Don Buhrman Trucking,2426 West 4th St,Sioux City,IA,51103,712-251-1253
Gary Bales Trucking,940 130,Pilot Mound,IA,50223,515-351-1612
Star Express,104 W 8th St Lot 259,Sergeant Bluff,IA,51054,402-404-0284
Roze,1057 Colorado Ave,Ottosen,IA,50570,641-931-0152
Parks One Trucking,1261 Garner Ave,Moville,IA,51039,712-873-3873
Hoss Transport,25973 - 120th Street,Greene,IA,50636,641-816-3000
Rocha Trucking,204 N Miller St,West Liberty,IA,52776,319-627-4843
B & S Trucking,2244 Francis St,Dubuque,IA,52001,563-582-2477
Hawkeye Contracting Exterior Expressions,1708 21st St,Harlan,IA,51537,712-579-1757
B And B Marketing,706 Joseph Road,Dunkerton,IA,50626,319-822-7406
Woods Trucking,500 Powells Addition,Crescent,IA,51526,402-639-4002
Boyd Trucking,12236 Oak Brook Drive,Urbandale,IA,50323,515-727-6026
Brandt Express,1901 Allen St,Sioux City,IA,51103,712-258-2889
Petty Automotive,5356 400th Street,Archer,IA,51231,712-348-3759
Krambeer Trucking,3550 Ulmus Ave,Plymouth,IA,50464,641-696-5918
United Transportation,2419 East 36th Street,Des Moines,IA,50317,515-326-0163
Ralerro Direct,446 North Booth,Dubuque,IA,52001,563-556-6926
Studer Trucking,208 150th Street,West Bend,IA,50597,515-887-3433
Qcss,101 East Jefferson Street,Wheatland,IA,52777,563-374-1505
J D Grimm Trucking,405 N Green St,Keota,IA,52248,319-321-4215
Whitewater Transport,908 Clare Court,Cascade,IA,52033,563-852-3500
Spc Transports,1448 Capitol Avenue,Des Moines,IA,50316,515-360-2882
Ron Bruner Distributing,2263 Figtree Ave,Batavia,IA,52533,641-693-4833
Des Moines Express,1940 Nw 82 St,Clive,IA,50325,615-243-5875
Buckshot Express,104 Meadow Lane,Laporte City,IA,50651,319-342-4342
Pms Express,1004 Valley View Drive Box 370,Schleswig,IA,51461,712-676-3329
Pearson Trucking,2153 125th,Corning,IA,50841,641-322-4837
Foreman Transport,1255 206th St,Batavia,IA,52533,641-662-2461
Bengtson Trucking,204 120th Street,Paton,IA,50217,515-846-6485
R Wiley Trucking,407 W Lowell Ave,Shenandoah,IA,51601,712-246-2649
Ferkel Trucking,1751 Ziegler Avenue,Blue Grass,IA,52726,563-210-5890
Paw Trucking,2496 Hwy 34,Osceola,IA,50213,641-342-3420
Ben Abbas Trucking,604 4th Street Ne,Hampton,IA,50441,641-456-2868
Clark Express,206 2nd St,Beaver,IA,50031,515-275-4391
Trans Tec Ii,1416 E Ave,Kalona,IA,52247,319-656-3012
Ebel Trucking,2211 M Av,Toledo,IA,52342,319-478-8436
Dempster Trucking,821 East 4th Street,Wellsburg,IA,50680,641-869-3405
B & L Trucking,139 Fairlawn Court,Marengo,IA,52301,319-350-1957
Ron Lickiss Trucking,1755 Neon Rd,Oelwein,IA,50662,319-283-2798
Rolling West Trucking,20420 Saint Joseph Drive,Centerville,IA,52544,877-437-1443
Reineke Trucking & Salvage,5272 360th Street,Archer,IA,51231,712-348-4622
Sires Trucking,1145 Glenny Ave,Waterloo,IA,50702,319-232-3250
Naki Transport,734 75th Avenue,Pleasantville,IA,50225,515-848-3747
Ferguson Trucking,2037 130th Street,Charter Oak,IA,51439,712-678-3379
Patterson Trucking,202 S John Wayne Dr,Winterset,IA,50273,515-468-0761
Timm Trucking,319 N Cedar St,Monticello,IA,52310,319-821-1706
Parks & Son Trucking,1525 Pleasant Court Dr,Sheldon,IA,51201,712-324-2967
Van Beek Trucking,318 Douglas Dr,Inwood,IA,51240,712-753-4893
Speedy Express,2964 Hickory Ave,Hull,IA,51239,712-439-2662
Josh Catlett Trucking,2104 Arglye St,Hamburg,IA,51640,712-623-0065
Andy Kockler Trucking,68330 150th Street,Zearing,IA,50278,641-487-7736
S Heintz Trucking,7783 18th Avenue,Blairstown,IA,52209,319-454-9976
Chad Lappe Trucking,15191 370th Street,Forest City,IA,50436,641-581-2113
Uncle Joe's General Store,5201 Lorraine Ave,Sioux City,IA,51106,712-253-2681
Blunk Wurx,407 Somerset,Vail,IA,51465,712-677-5500
Malone & Sons Trucking,3124 Earling Rd,Dow City,IA,51528,N/A
Cantrell Transport,12022 Flax Blvd,Drakesville,IA,52552,641-722-3639
Hoskins Trucking,538 N 3rd St,Marshalltown,IA,50158,641-752-7689
Don's Shuttle Service,308 4th Ave Nw,Independence,IA,50644,719-493-8298
Synaptic Response Transport,218 West 4th Street,Vinton,IA,52349,319-472-3833
Bt Trucking,Lot 18 Woodland Trailer Court,Wapello,IA,52653,563-554-0691
Dry Run Transport,4280 Redwood Ave,Paullina,IA,51046,712-448-2090
Rmc Trucking,110 2nd Ave Nw,Britt,IA,50423,641-843-3072
Htl,2103 9th Avenue,Camanche,IA,52730,563-259-1924
R & R Trucking,18003 Heron Road,Fayette,IA,52142,563-425-3545
Van Ko Farms,12027 Killdeer Ave,Kellogg,IA,50135,641-526-8555
Jonas Trucking,2388 E Ave,Scranton,IA,51462,712-651-2240
M & S Trucking,3226 - 3rd Ave,Council Bluffs,IA,51501,712-256-5461
Diamond S Trucking,26653 Delta Ave,Manning,IA,51455,712-653-2368
Double T Transport,1900 290th St,Rowley,IA,52329,319-938-2248
Short Creek Trucking,10759 142nd Ave,Grand River,IA,50108,641-773-5404
J Tegland Trucking,2320 River Rd,Forest City,IA,50436,641-581-2230
Wadsley Trucking,503 E Park Street,Spencer,IA,51301,712-580-1902
Direct Transport,2329 Ave H,Council Bluffs,IA,51501,402-980-9927
Davis Trucking,14277 120th Street,Ottumwa,IA,52501,641-682-2605
S & C Trucking,1657 Marsh Avenue,Little Rock,IA,51243,712-479-2819
Jbt,302 S 12th Ave,Rock Rapids,IA,51246,712-472-3634
Js Transportation,7815 Douglas 109,Urbandale,IA,50322,515-727-7875
Arp Trucking,4112 52nd Street,Desmoines,IA,50310,319-478-8410
Custom Trucking,905 S Grant St,Lake Mills,IA,50450,641-590-1395
Dejong Farms,1590 - 220th Street,Leighton,IA,50143,641-660-1600
L & M Trucking,601 S Park St,Inwood,IA,51240,712-753-4463
Maas Trucking,26382 Hwy 175,Eldora,IA,50627,641-939-2651
Schallock Trucking,1984 290th Street,Greene,IA,50636,319-290-8198
The Cattle Drive Xpress,213 E Mission Street,Strawberry Point,IA,52076,563-920-8654
Jats Trucking,601 Main Street,Brandon,IA,52210,319-310-8803
Minteer Transport,11768 240 Th Street,Eldora,IA,50627,641-485-2563
Db Trucking,120 Oak Avenue,Charter Oak,IA,51439,712-678-3584
Whitaker Transport,6901 South East 14th Street Lot 234,Des Moines,IA,50320,515-287-3935
Southern Cross Transport,2817 Macinery Dr Unit 1101,Council Bluffs,IA,51501,712-366-4611
Haney Auto Repair & Sales,407 N Main,Libertyville,IA,52567,641-693-4807
Kbl Farms,2428 Nebraska Ave,New London,IA,52645,319-367-2682
Pfister Trucking LLC,17472 Gunder Road,Postville,IA,52162,563-880-6643
Gdt,5270 180th St,Armstrong,IA,50514,712-868-3967
Ites Trucking,557 Grouse Avenue,Alden,IA,50006,515-859-7829
Stieneke Enterprise,2075 Hwy 3,Cherokee,IA,51012,712-490-9047
Samson Trucking,213 E State St,Baxter,IA,50028,641-227-3644
Goldy's Auto,613 Richmond Ave,Ottumwa,IA,52501,641-684-5630
Al-lin Transportation,10451 Timothy St,Dubuque,IA,52003,563-513-2136
Free Bird Limo Service,563 3 Avenue S,Clinton,IA,52732,563-593-6423
Travis Meysenburg Trucking,5070 Hwy 9,Dolliver,IA,50531,712-362-3410
G Trucking,112 N 24th St,Denison,IA,51442,712-263-6495
Ce Trucking,1955 Vine Ave,Marshalltown,IA,50158,641-752-6566
Ss Transportation,2820 26th Street,Des Moines,IA,50310,515-277-6968
An Transport,710 Jefferson Ste 2,Waterloo,IA,50701,319-287-9022
Moennich Trucking,1475 230th Street,Ladora,IA,52251,319-623-7688
Wood Duck Tree Farms,1589 Hwy 4,Yale,IA,50277,641-439-3297
Hs&s,80 2nd Ave Sw,Bagder,IA,50516,515-545-4523
Matthew D Beer Transport,6062 Quail Avenue,Lime Springs,IA,52155,563-203-0551
Saul Trucking,24177 Westbrook St,Parkersburg,IA,50665,319-215-5737
Dry Run Farms,5768 440th St,Paullina,IA,51046,712-448-3879
Troy Mutert Trucking,1017 E Grove,Maquoketa,IA,52060,563-652-4954
Jesse James Express,57397 230th Avenue,Lacona,IA,50139,641-862-3731
Al Schneider Trucking,19 So 9th,Denison,IA,51442,712-263-5797
Nic Mcelmeel Trucking,651 N Brich Street,Monticello,IA,52310,319-465-4200
Dawley Trucking,2418 Hitching Post Road,Decorah,IA,52101,563-735-5767
Dan's Sales And Service,506 Hwy 71,Braddyville,IA,51631,712-589-3512
Mcgriff Trucking,107 W North Street,Monroe,IA,50170,309-297-0452
Bernauer Trucking,3475 295th Street,Camanche,IA,52730,563-370-1082
Lodermeier Trucking,318 Wilder Blvd,Ames,IA,50014,515-291-2236
Aldag Trucking,6375 310th St,Kiron,IA,51448,712-369-0716
Rozema Trucking,1176 Oak St,Ocheyedan,IA,51354,712-758-3292
Pella Wrecker Services,2439 Blue Street,Pella,IA,50219,641-628-9347
Bob Allen,3859 560th Ave,Whittemore,IA,50598,712-899-6133
Haack Trucking,4630 460th Ave,Mallard,IA,50562,712-425-3238
3 Star Trucking,206 Spring St,Calamus,IA,52729,563-246-2121
Service Business,1111 24th St,Marion,IA,52302,319-269-6176
Brandon Hall,500 W Main St,Clarinda,IA,51632,712-542-3395
Uitermarkt Farms Trucking,138 25th Place,Runnells,IA,50237,515-966-2557
Gibsky Trucking,608 3rd St E,Newhall,IA,52315,319-223-6023
Dubberke Trucking,303 East Maple Street,Hubbard,IA,50122,641-485-4069
Longs R V Transport,626 4th Street,Buffalo,IA,52728,563-381-3085
J & S Service,1134 South 32nd Street,Fort Dodge,IA,50501,515-227-8616
James Trent Keefe,401 W 1st Ave,Iowa Falls,IA,50126,515-943-9182
Gambell Trucking,4929 580th Avenue,West Bend,IA,50597,515-320-1285
Heath Authier Ara,586 Hwy G-40,Pleasantville,IA,50225,515-848-3055
Adt,4219 Lloyd Ave Se,Iowa City,IA,52240,319-351-8095
Proctor Trucking,3422 Xx Ave,Belle Plaine,IA,52208,319-491-1292
Full Sail N West Shipping & Transport,735 125th Street,Mechanicsville,IA,52306,563-432-6439
David J Rieks Transportation,14434 Hwy 65,Iowa Falls,IA,50126,641-648-3990
Huisman Trucking,506 Providence Ave Se,Orange City,IA,51041,712-707-9336
Sam Express,2718 College Drive,Decorah,IA,52101,563-382-4726
N B V Trucking,1712 Court St,Harlan,IA,51537,712-579-0254
Two Men And A Truck,901 4th St Sw,Cedar Rapids,IA,52404,319-362-1100
Bierle Trucking,405 330th St,Fenton,IA,50539,515-925-3539
B L L Unlimited,404 N Maple,Bancroft,IA,50517,515-885-1055
Eh Trucking,1894 N Dubuque Rd,Iowa City,IA,52245,319-358-1700
Toms Transportation,317 5th Ave Se,Independence,IA,50644,319-334-4316
Nelson Transport,1928 N Rustin,Sioux City,IA,51105,712-204-3443
Triple H Trucking,504 Market Street,Delmar,IA,52037,563-574-4053
Siebarth Trucking,4114 Jackson Circle Nw,Cedar Rapids,IA,52405,319-651-7055
Mages Trucking,201 1st Street,Panama,IA,51562,712-579-9903
Lee R Jacobs Trucking,1604 Ohio Ave,Charles City,IA,50616,641-220-2178
Bended Knee Trucking,2728 River Road,Iowa Falls,IA,50126,641-648-3370
Property Preservation Services,104 W Main St,Treynor,IA,51575,712-487-3247
N G Trucking,26692 Forest Ave,Aplington,IA,50604,319-347-2740
Bell Trucking,205 Clayton Circle,Colo,IA,50056,641-377-2330
S & G Trucking,531 East State Street,Corydon,IA,50060,641-414-4135
Gene Wilkins Trucking,1705 North Main St,Osceola,IA,50213,641-342-3620
Bruce E Swenson Trucking,3659 Fog Road,Cresco,IA,52136,507-459-1518
Jrc Trucking,967 S Webster Street,Ottumwa,IA,52501,641-455-0107
Dvorak Trucking,2729 K Ave,Toledo,IA,52342,641-751-2801
Gosnell Trucking,3104 223rd Avenue,Montrose,IA,52639,319-470-4336
Little D Trucking,235 4th St,Struble,IA,51031,712-541-8704
Schroeder Trucking,2616 University Ave,Dubuque,IA,52001,563-583-5261
Harman Transport,404 South 11th Ave West,Newton,IA,50208,641-792-1992
Dawdy Trucking,5425 Bushnell,Sioux City,IA,51106,712-266-1454
Joe Soukup Trucking,2716 Hwy S 26,Allenton,IA,50008,641-873-6670
Guenther Trucking,307 West Jones St,Wyoming,IA,52362,563-488-3180
Tj Transport,14695 680yh Ave,Zearing,IA,50278,641-487-7660
Cutsforth Trucking,2694 Roanoke Avenue,Fredericksburg,IA,50630,319-240-6282
Dan's Auto Transport,1217 Bertch Ave,Waterloo,IA,50702,319-404-3446
Mikes 24 7 Auto Delivery Service,206 Nw Beaverbrooke Blvd,Grimes,IA,50111,515-707-2560
Lazy S Trucking,4218 400th St,Hospers,IA,51238,712-230-0596
Dcb Trucking,3011 253rd Ave,Ridgeway,IA,52165,563-382-5201
Pearl City Tire & Wheel,3206 Hershey Avenue,Muscatine,IA,52761,563-263-3011
T & T Trucking,4150 Highway 136,Clinton,IA,52732,563-242-5125
R T N,413 2nd Ave Nw,Cascade,IA,52033,563-852-3373
Pmt Trucking,60 54th Avenue,Des Moines,IA,50313,515-480-3737
Bme,1562 Apple Creek Drive,Mt Vernon,IA,52314,319-895-8273
Hammer Trucking,1206 Rainbow Drive,Cedar Falls,IA,50613,319-269-4334
Eric Postel Trucking,1178 170th St,Dundee,IA,52038,563-920-9865
J And A Express,2789 Hwy 22,Riverside,IA,52327,319-648-4160
Thunder 7 Transportation,4854 White Post Road,Bettendorf,IA,52722,563-332-9552
M & M Trucking,1535 390th,Westside,IA,51467,712-663-4210
Nash Trucking,39382 C70,Kingsley,IA,51028,712-251-6850
M M & K Trucking,1470 Welch Ave,Klemme,IA,50449,641-202-5000
Bob Johnson Trucking,1070 110th Street,Kanawha,IA,50447,641-843-8105
Berg Trucking,3902 200th Ave,Lakota,IA,50451,515-886-2439
Double Nickel Trucking,704 410th St,Swea City,IA,50590,515-272-4439
Bw Transfer,508 Westridge Dr,Carroll,IA,51401,712-792-2777
Cliff Lund Trucking,2614 212th St,De Witt,IA,52742,563-659-2125
Mead Trucking,2334 - 245th Street,Delhi,IA,52223,563-922-2964
Robuck Automotive And Wrecker,409 N Lincoln Street,Knoxville,IA,50138,641-842-2165
Davis Farms,18597 160th St,Birmingham,IA,52535,319-293-3556
Coast Express,3523 University Ave Apt 5d,Des Moines,IA,50311,612-205-7584
Hemmingsen Trucking,11074 Diamond Ave,Akron,IA,51001,712-568-3083
B & B Trucking,30055 Co Hwy J66,Lineville,IA,50147,641-876-2396
Mayall Trucking,105 1st Avenue N,Rutland,IA,50582,515-890-2414
Fast Break Distributing,2501 Franklin Ave Ne,Cedar Rapids,IA,52402,319-399-2547
Stevens Trucking,544 197th Lane,Scranton,IA,51462,712-790-6122
Hill Transport,507 North Arcade St,Maquoketa,IA,52060,563-542-4290
Eric Conover Trucking,1932 Faith Ave,Holstein,IA,51025,712-368-2205
D&t Repair,2036 265th St,Bedford,IA,50833,712-523-2550
Carlson Trucking,664 3rd St,Ocheyedan,IA,51354,712-330-9070
Wehling Trucking,526 Volney Road,Monona,IA,52159,563-535-3052
T Hughes Trucking,109 Circle Drive,Luana,IA,52156,563-539-2435
Erwin Orwig Trucking,3940 330th Ave,Ruthven,IA,51358,712-837-4490
K & E Ellis Trucking,505 N 2nd Ct,Sully,IA,50251,712-792-8690
Wildone Trucking,3247 Dugan Av,Brandon,IA,52210,319-290-1315
Davis Trucking,2370 Elm St,Ft Dodge,IA,50501,515-972-4147
Mitchell Trucking,1693 220th St,Independence,IA,50644,319-334-6910
Taylor Trucking,6363 190th St,Galva,IA,51020,712-282-4380
Rjd Trucking,903 Se 5th St,Leon,IA,50144,641-446-7730
Dhmrt Express,802 N 8th Street Apt #7,Clear Lake,IA,50428,641-512-1000
Tim Bunda Trucking,4091 460th Ave,Emmetsburg,IA,50536,712-852-3227
Advanced Cleaning Service,507 Central Ave,Bedford,IA,50833,712-523-2057
Obrien Transport,1218 190th St,Creston,IA,50801,641-340-1038
Triple A Transport,1013 Dillon Ave,Fairbank,IA,50629,319-415-1074
Messamaker Trucking,806 N Main,Centerville,IA,52544,641-437-4682
Kremer Custom Service,36658 253rd Ave,Lamotte,IA,52054,563-773-8168
Gravy Train Express,2967 Mallard Ave,Lorimor,IA,50149,N/A
"Farmer Trucking, Inc.",4770 195th St,Estherville,IA,51334,712-362-8016
Steven Evanson Farmer Custom Trucking,1047 Waterville Road,Waterville,IA,52170,563-535-7635
Hilltop Freight,2286 350th Avenue,Dewitt,IA,52742,563-659-9239
"Lamoni Livestock Auction, Inc.",900 E Main,Lamoni,IA,50140,641-784-3323
Wyhe's Guy Transport,1035 Dement St,Larchwood,IA,51241,712-477-2757
Johnson Farms,1615 Quail Avenue,Schaller,IA,51053,712-275-4792
Oasis Transport,1323 Oasis Ave,Winfield,IA,52659,319-931-6026
Scott Farms,14292 Ulmus Ave,Rockford,IA,50468,641-424-9585
Chilcote Trucking,618 Seventh Ave,Belle Plaine,IA,52208,319-444-3825
Holtz Express,108 5th Street Nw,Dyersville,IA,52040,319-290-8292
Advantage Endeavors Transfer,3499 7th Avenue,Marion,IA,52302,319-447-2886
Ron Main Trucking,6483 Hwy 9,Buffalo Center,IA,50424,641-561-2044
Hackbarth Farms,596 110th St,Dows,IA,50071,515-852-4184
Ehlinger Trucking,809 Pleasant St,La Motte,IA,52054,563-580-5358
Teepe Trucking,5975 Ne Berwick Dr Lot 148 Roger,Berwick,IA,50032,515-262-2728
Classic Tractor Transport,3347 280th St,Redfield,IA,50233,515-490-3280
Jdd Trucking,109 Wood Acres,Algona,IA,50511,515-295-7092
Dorhout Trucking,1820 19th St,Rock Valley,IA,51247,712-476-5797
Kgt Housemoving,40 Washington Mills Rd,Zwingle,IA,52079,563-495-5562
Rick Johnson Trucking,322 2nd St,Sibley,IA,51249,712-754-2937
Bar 36 Express,6326 90th Avenue,Storm Lake,IA,50588,712-732-6519
South Dakota Distributing,307 S 5th St,Dakota City,IA,50529,515-332-1588
T & D Trucking,27059 257th St,Princeton,IA,52768,319-899-7638
Special K Trucking,3237 Hwy 1 Sw,Iowa City,IA,52240,319-621-0580
Lake Mills Auto Savage,4601 Apple Ave,Lake Mills,IA,50450,641-592-2400
C & C Trucking,3313 Hwy 3,New Vienna,IA,52065,563-875-7995
Lundberg Trucking,301 4th St Ne,Dayton,IA,50530,515-547-2966
Arends Brothers Transportation,1011 South 3rd Ave,Rock Rapids,IA,51246,712-472-2808
Tnt Services,4315 Wapello Ave,Davenport,IA,52802,563-441-0086
R H Trucking,3151 Ave D,Kiron,IA,51448,712-675-4250
The Classic Connection,702 N 1st St,Greene,IA,50636,641-823-4129
Tire Recycling,1602 Musser Street,Muscatine,IA,52761,563-288-1963
Horizon Transport,1010 West 5th St,Dubuque,IA,52001,563-580-8372
Dunkin Truckin,502 West Street,Grand Mound,IA,52751,563-847-1261
B H W Trucking,3063 Taylor Ave,Gilman,IA,50106,641-478-3395
Butikofer Trucking,201 2nd Ave Ne,Tripoli,IA,50676,319-882-3519
Severseike Farms,33253 E Ave,Radcliffe,IA,50230,515-893-2004
J & W Transport,310 N Eliza,Maquoketa,IA,52060,912-265-0449
D & D Trucking,505 W 6th St,Hedrick,IA,52563,641-653-2221
Drd Express,5114 310th St,Sheldon,IA,51201,712-324-2728
Wolf Trucking,19468 Hwy 52 N,Durango,IA,52039,563-552-2726
Riediger Trucking,35601 320th St,Hinton,IA,51024,712-947-4838
Doug Hopkins Trucking,144 63rd Place,Prairie City,IA,50228,515-480-0541
Hna Logistics,201 Chamberlin,Denison,IA,51442,712-854-0733
Triple E Transfer,4020 Ne 43rd Ct,Des Moines,IA,50317,515-262-8125
Pa Cobb Trucking,2997 Redwood Ave,Sanborn,IA,51248,712-729-5454
"Bloomer, Inc.orporated",27253 County Rd X17,Columbus Jct,IA,52738,319-728-8862
Bahr Trucking,2246 Bluebird Road Sw,Waukon,IA,52172,563-568-3817
Farrell Transport,210 3rd Street Se,Waucoma,IA,52171,563-776-7911
Abeln Trucking,35669 Bellevue Cascade Road,Bellevue,IA,52031,563-872-9985
Means Trucking,3283 170th St,Creston,IA,50801,641-202-0232
"Rockn Robin Xpress, Inc.",501 1/2 Wood Street,Webster City,IA,50595,515-832-7916
Jr Trucking,2226 Andrews Ave,Sergeant Bluff,IA,51054,712-277-4633
Davis Hauling Company,2601 Allison Ave,Des Moines,IA,50310,515-274-0280
Carpenter Erosion Control,3718 South West Court Ave,Ankeny,IA,50021,515-965-9191
Nolte Trucking,2708 270th St,Fredricksburg,IA,50630,563-237-5962
Little River Trucking,142 Quince Road,Avoca,IA,51521,712-249-4519
Meisel Trucking,1325 Avenue I,Council Bluffs,IA,51501,712-325-0224
"Uam, Inc.",201 E Market St,Odebolt,IA,51458,712-668-4238
Tr Transport,152 10th St N E,Sioux Center,IA,51250,712-722-4092
B & M Trucking,620 Winchester Drive,Ottumwa,IA,52501,641-684-6500
J And J Trucking,4054 570th Avenue,Whittemore,IA,50598,515-320-2236
Jerry's Grain Moving,1990 Highway 59,Sibley,IA,51249,712-461-0025
D's Reliable Transportation,2321 Liberty Ave,Missouri Valley,IA,51555,712-600-6358
R & L Trucking,2939 175th St,Corydon,IA,50060,641-895-0267
J & A Trucking,1577 110th St,Clarence,IA,52216,563-452-4554
M J M Transportation,1642 W Mt Vernon Rd,Mt Vernon,IA,52314,319-366-2103
Tim Murphy Trucking,2 Julien Aubuque Dr,Dubuque,IA,52003,563-581-8756
Bruns Trucking,2734 320th Avenue,Weldon,IA,50264,641-445-6055
Oostenryk Trucking,813 Market St,Delmar,IA,52037,563-212-1311
Don & Janets Trucking,2596 285th Avenue,Dewitt,IA,52742,563-659-2896
Country Auto,2043 300th Ave,Earlville,IA,52041,563-875-7528
Fawcett Trucking,2891 330th St,Cedar,IA,52543,515-868-1779
Easton Transportation,19947 247th Street,Manchester,IA,52057,563-663-2402
Kipp's Transporting,207 Iowa Ave,Urbana,IA,52345,319-443-2910
Simpson Trucking,512 E Walsh,Centerville,IA,52544,660-988-4175
Storm Trucking,13109 507th Lane,Lucas,IA,50151,641-766-8002
Rechkemmer Trucking,915 - 1st Street Ne,Oelwein,IA,50662,563-608-0504
Moore Family Equine Express,2529 140th St,Belmond,IA,50421,515-865-6754
"R & M Hydraulic Services, Inc.",1400 Mt Pleasant St,Burlington,IA,52601,319-752-4017
Anderson Trucking,16742 Gunder Road,Postville,IA,52162,563-423-7024
Steven R Havens Sales & Service,101 N Allen,Wiota,IA,50274,712-783-4213
Mether Farms Trucking,106 Linden Dr,Woodbine,IA,51579,712-647-2290
Steven Mueggenberg Trucking,124 E Hwy 30,Vail,IA,51465,712-269-2701
Griffin Trucking,40 North 2nd Ave East,Hartley,IA,51346,712-348-1784
Rolling B Trucking,2536 E 40th Street,Des Moines,IA,50317,515-266-8031
Yates Trucking Company,2409 N Nevada Ave,Davenport,IA,52804,563-388-9458
C & C Realty,205 E 18th Street,Des Moines,IA,50316,515-299-9311
S & S Trucking,19160 Breezy Rd,Dubuque,IA,52002,563-599-3966
Safe-way Transport,3329 W 52nd St,Davenport,IA,52806,563-579-0675
Mark & Lyn Reekers Trucking,2990 Us 75 Ave,Hull,IA,51239,712-439-1528
Rydberg Trucking,209 South Main,Schaller,IA,51053,712-275-9965
Krueger Trucking,1505 North Avenue,Norwalk,IA,50211,515-981-5115
Kuhlemeier Trucking,504 S 8th Street,Clear Lake,IA,50428,641-357-6632
Johnson Trucking,1225 Meadow Lane,Webster City,IA,50595,515-832-6675
A & D Trucking,115 5th Ave Ne,Clarion,IA,50525,515-293-1848
Raska Trucking,600 Isabella Street,Radcliffe,IA,50230,515-899-7964
"Mccrary Enterprises, Inc.",410 Wiley Blvd Nw,Cedar Rapids,IA,52405,N/A
Kirks Meter And Inspection Service,2548 Brady Avenue,Battle Creek,IA,51006,712-365-4507
D & R Trucking,3822 300th St,Boyden,IA,51234,712-725-2051
Sitzmann Trucking,811 E Frontage Road Lot 21,Moville,IA,51039,712-541-8312
Rj Express,202 W Washington St,Lake City,IA,51449,712-464-7405
Livestock Transport,163 Franklin Road,Luana,IA,52156,563-864-6010
Aces & 8's Trucking,1010 Washington St # 109,Pella,IA,50219,503-602-1604
Ze Transport,3610 Patricia Drive Apt 18,Urbandale,IA,50322,515-988-1220
S & S Trucking,21700 490th Street,Centerville,IA,52544,641-856-5737
Dc Trucking,921- 75th Ave,Pleasantville,IA,50225,515-205-8897
Bashbull Trucking,25533 Otter Trail,Bloomfield,IA,52537,641-664-2909
Gm Limo Service,412 Colony Drive,Davenport,IA,52806,563-391-8959
Deep View Farms,1499 235th Avenue,Delmar,IA,52037,563-674-4652
Sellers Trucking,759 Rodeo Ave,Monroe,IA,50170,641-259-2994
Butler's Transport,2345 162nd Street,West Point,IA,52656,559-897-9530
Steelsmith Trucking,13468 - 330th Street,Conrad,IA,50621,641-366-2555
Kirkland Auto Sales,19481 Hwy 5,Centerville,IA,52544,641-437-4882
Priority Express,3915 Delaware,Des Moines,IA,50313,515-564-1357
Mitch Koch Trucking,303 - 1st Street,Wellsburg,IA,50680,641-869-3971
Trevor Enterprises,701 14th Ave South,Denison,IA,51442,712-263-3077
Enterprise Transport,202 Oak St,Audubon,IA,50025,712-249-7404
Meek Excavating,4815 Kirkwood Avenue,St Ansgar,IA,50472,641-737-2395
Proehl Trucking,3204 Telegraph Road,Davenport,IA,52804,563-322-7465
Sportsman Two Trucking,204 4th Ave Se,Dayton,IA,50530,515-571-9448
Doug Bowen,60269 325th Street,Malvern,IA,51551,712-624-8995
Kalsows' Limo Service,180 Helms Drive,Arnolds Park,IA,51331,712-332-9820
R Bar C Trucking,7336 168th Street,Albia,IA,52531,641-938-2171
Kuhlemeier Auto Sales,1790 Glass Ave,Rudd,IA,50471,641-395-2799
Smt Research Service Center,2626 Salem Road,Danville,IA,52623,319-392-4674
R And M Douglas LLC,2900 Oakwood Trail,Camanche,IA,52730,563-259-1067
James Acres,1674 Poplar Ave,Prescott,IA,50859,641-335-9447
Brandel Trucking,2485 360th St,Harcourt,IA,50544,515-547-2609
Azores Express,1405 Ve L,Hawarden,IA,51023,712-552-2249
Olson Auto Express,100 Amy Street,Baxter,IA,50028,641-227-3054
Andrew S Beer Transport,6062 Quail Ave,Lime Springs,IA,52155,563-203-0785
Deni Transport,2623 57th Street,Des Moines,IA,50310,515-252-1895
K & D,7415 Canterbury Rd,Urbandale,IA,50322,515-745-8844
Otherline Transport,105 W Harrison,Pomeroy,IA,50575,712-468-2760
T N R Transport,58919 648th Street,Atlantic,IA,50022,712-243-8222
Peter D Barton Trucking,2164 Hickory Avenue,Mt Pleasant,IA,52641,319-217-3689
Hughell Farms,2255 Dewberry Ave,Batavia,IA,52533,641-662-2827
Duey Taylor Trucking,9521 Hill Road,Fayette,IA,52142,319-360-0321
Inman Trucking,203 W Ohio St,Lenox,IA,50851,712-621-6442
Krambeck And Son Trucking,413 S Toronto St,Wheatland,IA,52777,563-374-1703
Sliger Trucking,1799 Red Ball Road,Nora Springs,IA,50458,641-756-3514
Sl Distributing Qca,4245 Apple Valley Drive,Bettendorf,IA,52722,563-332-0074
P J Trucking,23764 Hwy 92,Columbus Junction,IA,52738,319-728-3398
Torres Trucking,1205 Laura Dr Trlr 58,Iowa City,IA,52245,319-358-9312
Rj Trucking,212 Brady Street,Brooklyn,IA,52211,641-522-5832
B And R Trucking,9050a 300th Street,Clear Lake,IA,50428,641-357-0291
Rdg Trucking,11742 300th Street,Milton,IA,52570,641-656-4656
Atkinson Trucking,6930 Ne 56th St Lot 20a,Altoona,IA,50009,515-556-3892
Opperman Transport,29454 A Ave,Wadena,IA,52169,563-633-5073
Ed Nelson Trucking,1824 Willow Blvd,Lockridge,IA,52635,319-696-2130
J & H Trucking,4345 Larch Ave,Alton,IA,51003,712-752-8390
Agk Trucking,3040 290th St,Fredericksburg,IA,50630,563-237-5032
Hopper Systems,200 Zenith Drive,Council Bluffs,IA,51503,712-323-1171
Ivan's Trucking,308 South Broad Street,What Cheer,IA,50268,641-634-2118
Mabe Trucking,21133 U Ave,Steamboat Rock,IA,50672,641-858-5283
Davenport Transportation,31036 Main St,Booneville,IA,50038,515-979-4081
Highway Hobo Express,934 21st St Se,Cedar Rapids,IA,52403,319-366-4563
White Rose Bus Service,1004 2nd Avenue Se,Dyersville,IA,52040,563-875-7544
Don Ney Trucking,4276 Marsh Ave,Granville,IA,51022,712-727-3593
Chad Koch Trucking LLC,402 W Southridge Rd,Marshalltown,IA,50158,641-752-3534
Gkm Trucking,2434 Jay Avenue,George,IA,51237,712-475-3249
Madden Ii,605 East Lincolnway,Ames,IA,50010,515-432-5765
Ryan Burgers Trucking,501 Hoogie St,Lester,IA,51242,712-478-4023
Flying T Trucking,205 South 1st St,Worthington,IA,52078,563-543-5128
Rens Trucking,4930 Fig Ave,Ireton,IA,51027,712-278-2291
Jim Rolfes Trucking,1324 1st Ave E,Dyersville,IA,52040,563-875-6141
Wood Expressions,1015 So 2nd St,Oskaloosa,IA,52577,641-673-3182
Ivesco LLC,124 Country Club Road,Iowa Falls,IA,50126,641-648-2529
Gardner Trucking,3788 250th Street,Farragut,IA,51639,712-385-8341
Matt Elbert Trucking,3868 560th Ave,Whittemore,IA,50598,515-884-9151
Taylor Trucking,3596 10th Street,Lamont,IA,50650,319-830-0676
Ben Hall Trucking,2376 390th Avenue,Farragut,IA,51639,712-246-8098
Pippert Cars And Trucks,2047 Hwy T-47,Gladbrook,IA,50635,641-473-3121
Troy Olmstead Trucking,503 3rd Avenue Nw,Hampton,IA,50441,641-456-7007
"Mulkins Trucking, Inc.",2600 T Ave,Clarinda,IA,51632,712-542-2945
Gsc Transport Lllp,1530 280th St,Tipton,IA,52772,563-732-3444
Peterson Transportation,311 Walnut Street,Alden,IA,50006,515-859-3885
Brett Pellett Enterprises,60131 585th St,Atlantic,IA,50022,712-243-4758
Petersen Trucking,2252 308th Ave,Dewitt,IA,52742,563-659-3061
Olson Trucking & Excavating,708 Rowan Rd,Dows,IA,50071,515-852-3646
R D M Trucking,911 Mills Street,Brooklyn,IA,52211,641-990-7533
Niklasen Trucking,1928 250th St,Walnut,IA,51577,712-784-3500
John Baumgartner Trucking,507 1st Street Ne,Waukon,IA,52172,563-568-4807
James Routh Trucking,300 3rd Street,Clearfield,IA,50840,641-336-2870
Pamm Trucking,1723 West 70th Street,Davenport,IA,52806,563-391-3785
Post Trucking,2455 300th St,Rock Valley,IA,51247,712-470-3222
J & K Trucking,822 4th Ave,Ackley,IA,50601,641-847-2001
G B Trucking,3620 Ronald Road,Council Bluffs,IA,51501,712-366-9204
Vsb Trucking,1707 E Madison Ave,Des Moines,IA,50313,515-265-4225
Schipper Express,1131 Chestnut Ave,Larchwood,IA,51241,712-477-2748
Moser's Trucking,914 W Washington,Centerville,IA,52544,641-658-2341
Monster Truck Entertainment Group,2307 Packard Avenue,Charles City,IA,50616,641-228-1965
D R Trucking,27901 620th St,Manson,IA,50563,712-469-2777
Ron Davis Trucking,1113 325th Street,Macksburg,IA,50155,515-975-3972
Marty Welper Trucking,316 Railroad Ave,New Albin,IA,52160,563-544-4473
North Liberty Auto,70 Sugar Creek Lane,North Liberty,IA,52317,319-626-2190
Limo Service,4th Fremont,Farmington,IA,52626,319-878-4145
Dustin Kaestner Trucking,7381 16th Ave,Luzerne,IA,52257,319-442-5304
Still Trucking,18995 300th Ave,Leon,IA,50144,641-446-4655
Shred Express,6090 Ne 14th Street,Des Moines,IA,50313,515-965-9343
Kuhlemeier Hauling,514 N Shore Dr,Clear Lake,IA,50428,641-357-6421
Bar B Transport,400 Fir Ave,Schleswig,IA,51461,712-676-3370
Tom Schneiter Trucking,511 S Maple Street,Monticello,IA,52310,319-465-5730
Buzz Mann Trucking,2302 3rd Ave S Lot # 11,Estherville,IA,51334,712-362-7007
Marvin E Winter Trucking,319 Madison ,Manning,IA,51445,712-653-3792
Clint Scheffler Trucking,704 Broadway,Harlan,IA,51537,712-755-5202
Chezik Bell Ford Lincoln Mercury,2343 Mormon Trek Blvd,Iowa City,IA,52246,319-338-7811
Lott's Trucking,1355 O Hagen St,Dubuque,IA,52001,563-589-0765
Jade Transportation,324 1st Avenue,Clinton,IA,52732,319-243-0734
Bishop Trucking,104 N Main Street,Stanwood,IA,52337,319-945-3934
Art Smith Trucking,110 Sixth St,Superior,IA,51363,712-858-4520
Jon Thornton Trucking,405 3rd St West,Monona,IA,52159,563-568-1214
Tanner Trucking,879 500th Street,Rembrandt,IA,50576,712-286-5030
Scott Transportation,504 S Walnut St,Odebolt,IA,51458,712-668-2452
Adams Trucking,2515-400th St,Spencer,IA,51301,712-262-7828
C & M Trucking,2407 350th Street,Casey,IA,50048,641-524-2288
Sydain Trucking,1395 Curtis Bridge Road Ne,Swisher,IA,52338,319-848-8180
Chuck Wagon Express,432nd Avenue,Teeds Grove,IA,52771,563-682-7731
G & K Trucking,Rt 1 Box 22a,Leon,IA,50144,641-446-4029
E J Transport,26214 Giard Road,Mc Gregor,IA,52157,319-539-4131
Rasmussen Construction,800 Adams Street,Gravity,IA,50848,712-537-2251
Tim Ferneding Trucking,313 2nd Street,Manning,IA,51455,712-655-3293
Masching Auto Repair & Tire,304 N Adams,Carroll,IA,51401,712-792-9132
Rick Gudenkauf Trucking,2577 Greeley St,Dubuque,IA,52001,319-590-6946
Knutson Trucking,32072 Hedge Ave,Sioux City,IA,51108,712-239-3193
County Line Trucking,30781 Butler Ave,Cedar Falls,IA,50643,319-266-8784
Jacobs Trucking,3026 Yorkshire Dr,Charles City,IA,50616,641-228-2273
Freund Trucking,902 Tarkington St.,Harlan,IA,51537,712-482-3149
Nelsen Trucking & Ag Service,802 3rd St,Lohrville,IA,51453,712-465-1600
Carl Broach Trucking,571 250th Ave,Pella,IA,50219,641-628-9342
Anthony Birkey Trucking,527 Main Street,Manson,IA,50563,712-469-3854
Richey Trucking,809 6th Ave Apt 1,Council Bluffs,IA,51501,712-323-1431
Woodin Transportation,2085 210th Street,Clarion,IA,50525,515-602-6494
Titus Transportation,310 S 3rd Street,Quasqueton,IA,52326,319-934-3675
Done Rite Trucking,3540 Nw 83rd Pl,Ankeny,IA,50023,712-348-1290
K T J C Express,114 Sherman Street,Dysart,IA,52224,319-476-3451
Gateway News & Distributing,505 9th Street,Camanche,IA,52730,319-259-1407
P S Express Trucking,902 2nd St,Batavia,IA,52533,641-683-1691
B R Holmes Trucking,3021 Grandview Ave,Muscatine,IA,52761,563-554-9100
Grimes Auto Sales,2174 S E 92 Street,Runnells,IA,50237,515-966-0135
R B Trucking,805 E 5th St,Vinton,IA,52349,319-472-9108
Mayland Transport,4791 Roseman Dr,Clear Lake,IA,50428,641-357-3034
Hansen Trucking,1955 Washington Ave,Goldfield,IA,50542,515-890-1699
Oak Crest Trucking,14872 232nd Street,Delta,IA,52550,641-624-2237
Heart To Heart Trucking,117 Lake Street,Lake View,IA,51450,712-657-3219
Ron's Trucking,944 15th St Ne,Mason City,IA,50401,641-423-6310
Don Lantz Trucking,907 Ely St,Woodbine,IA,51579,712-644-4465
Robbins Farms Trucking,904 Emerald Avenue,Scranton,IA,51462,515-389-3612
Jeff Bowlin Trucking,1001 N 6th St #a,Indianola,IA,50125,515-961-4488
Mc Farland Trucking,728 Walnut St,Osage,IA,50461,641-832-2659
Henrich Trucking,3943 Olive Ave,Archer,IA,51231,712-723-5617
Raman Tree Trucking,1418 Birch St,Hull,IA,51239,712-439-2024
Swiss Valley Farms Cooperative,13841 150th Street,Maquoketa,IA,52060,563-468-6600
Brad Warner Trucking,298 W Main St,Marengo,IA,52301,319-784-7789
Mike Hargens Trucking,1351 140th,Charter Oak,IA,51439,712-679-2284
Dc Transport,3208 1st Street,Des Moines,IA,50313,515-244-8402
R L Wright Trucking,1446 Plato Rd,West Branch,IA,52358,319-643-7450
Goucher Trucking,2009 75th St,Riceville,IA,50466,641-985-2590
Reinhart Trucking,400 Irving,Scranton,IA,51462,712-652-3497
Vanderbrink Brothers,401 Seefield St,Alvord,IA,51230,712-473-2208
Scott's Transportation,2718 N Michigan,Davenport,IA,52804,319-340-2058
Delivery Express,105 Grand Street,Burlington,IA,52601,319-754-0421
"Lmb Trucking, Inc.",2052 Van Buren Ave,Manson,IA,50563,712-469-2261
Davidson Trucking,6098 145th Trail,Albia,IA,52531,641-946-7214
Paul Stankee Trucking,208 1/2 Vine Street East,Wheatland,IA,52777,319-374-3145
J Bar K Trucking,2465 Oriole Ave,Ashton,IA,51232,712-724-6151
Jim Hall Hauling,18785 Hwy 99,Burlington,IA,52601,319-937-5538
J & L Trucking,344 Ave E,Fort Dodge,IA,50501,515-576-5407
Eddie L Tomas Trucking,1973 190th Street,Creston,IA,50801,515-347-8044
Jitterbug Express,207 N Walnut,Winfield,IA,52659,319-257-3358
M & B Trucking,103 Water St,Clermont,IA,52135,563-423-7270
J E T,1144 Marks Hill Rd,Northwood,IA,50459,888-440-1964
Kelly Distributing,1647 468th Avenue,Clinton,IA,52732,319-243-1063
Wes Shutt Trucking,211 2nd Street,Oakville,IA,52646,319-766-2071
Robert Owens Trucking,4601 Euclid Ave,Des Monies,IA,50310,515-274-0152
Clark Farms,2799 220th St,Fredericksburg,IA,50630,641-394-5144
Campbell Trucking,622 N Poplar,Creston,IA,50801,515-782-0109
C W Trucking,3000 Mary Lynn Drive,Urbandale,IA,50322,352-245-2139
Wild Bill's Trucking,3313 Eagle Ave,Rock Valley,IA,51247,712-476-9907
Kness Services Ltd,3100 86th St Suite A,Urbandale,IA,50322,515-253-0012
Country Express Ii,10279 165th Ave,West Burlington,IA,52655,319-753-1869
L & L Hauling,3711 2nd Avenue S,Clinton,IA,52732,563-242-1261
Olson Trucking LLC,2041 510th Street,Albert City,IA,50510,712-843-5813
Car Hop,2746 240th Street,Dallas Center,IA,50063,515-491-9654
Davis Trucking,2300 61st Street,Vinton,IA,52349,319-472-3676
C & C Transfer,207 E 4th Street,Galva,IA,51020,712-282-4763
Ideal Trucking & Excavating,2814 Cleveland Street,Clinton,IA,52732,319-243-1617
Pet Nav Transportation,1740 Adams Taylor Street,Corning,IA,50841,641-322-4331
Hb's Automotive,2631 Highway 63,Oskaloosa,IA,52577,641-673-4286
J & J Trucking,904 Prairie,Essex,IA,51638,712-379-3296
Better Solutions Distributing,101 Virginia Street Suite 1,Sioux City,IA,51101,712-277-8149
Main Street Trucking,908 Main Street,Ocheyedan,IA,51354,712-204-4914
Pete Janssen Trucking,312 11th Ave Ne,Sibley,IA,51249,712-754-2744
Chad Hintz Trucking,120 Lincolnway W,Wheatland,IA,52777,563-374-1243
Prairie Queen Distributing,1270 Western Ave,Sheldon,IA,51201,712-324-3208
Lane Trucking,1010 Oregon Street,Muscatine,IA,52761,563-262-5484
Stanek Trucking,110 4th Ave Se,Oelwein,IA,50662,319-283-4097
Joe Lowders Repair Service,302 Iowa St,Stockton,IA,52769,319-785-0128
Knobloch Trucking,302 N Main P O 142,Inwood,IA,51240,712-753-2066
A & D Trucking,1510 3rd Street,Hull,IA,51239,515-573-8676
Blue Diamond Enterprises,2460 190th St,Moville,IA,51039,712-948-3610
Hughes Trucking,1794 Michigan Avenue,Humboldt,IA,50548,515-332-5774
Uren Trucking,1001 1100th Street,Harlan,IA,51537,712-744-2400
B & D Transportation,2363 170th Street,Ames,IA,50014,712-269-4143
Schroeder Trucking,25844 Martin Drive,Spirit Lake,IA,51360,712-336-4946
R & S Truckng,3833 Killdeer Avenue,Kensett,IA,50448,641-420-7190
K & R Trucking,1515 Floral,Ft Dodge,IA,50501,515-955-6448
Jada Enterprises,1063 Ocean Avenue,Moscow,IA,52760,563-724-3581
Rindler Trucking,24880 190th Street,Bettendorf,IA,52722,563-332-9795
Tas Trucking,3017 W 72nd Street Apt 2,Davenport,IA,52806,319-388-8475
M & T Express,5052 A 320th St,Sheldon,IA,51201,712-324-2160
Loren Hageman Trucking,2182 B32,Ossian,IA,52161,563-534-3035
Skyline Wood Service,2121 Claussen Street,Davenport,IA,52802,563-324-7449
Chambers Auto Transport,Po Box 133,Shambaugh,IA,51651,712-542-5803
Myers And Sons Trucking,16 Ella Court,Rockwell,IA,50469,641-822-3660
Knn Trucking,1126 Easton Av,Waterloo,IA,50702,319-233-0709
Stockman Transfer,1308 Sunshine Run,Arnolds Park,IA,51331,712-332-9571
Roger Norgren Trucking,2058 W Ave,Rippey,IA,50235,515-436-7479
Barrett Moving And Storage,1625 N 30th Street,Fort Dodge,IA,50501,515-576-6333
Eckstein Express,518 6th St Sw,State Center,IA,50247,641-483-9008
S & K Trucking,4407 30th Street,Lamont,IA,50650,319-634-3731
Mason Auto Recovery,3139 W 73rd Street,Davenport,IA,52806,319-386-0497
A & D Trucking,1237 Pembroke Ave,Lawler,IA,52154,641-394-2192
Dale E Pringnitz Trucking,2185 Highway 69 South,Garner,IA,50438,641-923-3077
Newlan Trucking,1325 Palean Street,Keokuk,IA,52632,319-524-5187
Circle B Trucking,P O Box 45,Crescent,IA,51526,402-301-9660
S W B Trucking,1013 E Locust Street,Davenport,IA,52803,563-940-0913
Theilen Auto Sales,10536 265th St,Clear Lake,IA,50428,641-424-3352
Richard A Thompson Trucking & Excavating,2101 8th Street Nw,Clinton,IA,52732,563-243-5148
Ward Enterprises,200 3rd St Se,Bondurant,IA,50035,515-967-4747
Auto Edge,4750 4th Street Sw,Mason City,IA,50401,641-423-1393
Siddell Farms Trucking Co,414 2nd Ave E,Coggon,IA,52218,319-435-2392
R I Transport,215 Denver Street,Waterloo,IA,50701,319-493-0771
Wigant Trucking,1011 Pleasant Street,Osage,IA,50461,641-732-1377
T J Trucking,424 N 18th Street,Clinton,IA,52732,563-219-1323
Isle Of Iowa Trucks,2745 155th St,Earlville,IA,52041,319-923-6365
Tim Trucking,3840 H Avenue,Tama,IA,52339,641-484-6111
Caffery Trucking,1231 Devils Glen Road,Bettendorf,IA,52722,563-359-8948
Hervey Trucking,707 N Lake Street,Hedrick,IA,52563,641-653-2174
Sw Iowa Auto Transport,700 King St,Emerson,IA,51533,712-824-7605
Kagemann Trucking,1661 140th Street,Lost Nation,IA,52254,563-678-2467
Hershberger Farms Trucking,1785 Larch Ave,Wellman,IA,52356,319-640-2588
D & L Swalve Trucking,2875 Oak Ave,Garner,IA,50438,641-923-3225
Airfreight Express,1025 Secrist Road,Springville,IA,52336,319-854-6659
Willgo Trucking,113 Main Street,Royal,IA,51357,712-933-5562
Tj K Trucking,6440 584th Avenue,Sabula,IA,52070,819-432-7217
O'dell Logging,22505 Millville Rd,Epworth,IA,52045,563-876-9749
Woellert Trucking,1213 N 6th Street,Manchester,IA,52057,563-927-2481
Mica Transfer,4233 Ne 26th Street,Des Moines,IA,50317,515-554-6063
J P Balmer Trucking,720 28th Street,Fort Madison,IA,52627,319-372-2910
Sikkema Construction Services,1913 7th Ave,Camenche,IA,52730,563-259-8689
C T I,4018 Hummingbird Lane,Hiawatha,IA,52233,619-430-3819
Chuck Engels Trucking,510 2nd Ave Ne,Rockford,IA,50468,641-425-4257
Amato Trucking,3108 Nabis Drive #6,Davenport,IA,52802,N/A
Diamond G Trucking,2231 Washington Rd,Eldon,IA,52554,641-653-2186
Fischels Trucking,7018 Poyner Road,Jesup,IA,50648,319-404-0940
Brent Pevestorf Trucking,1013 Summit Dr,Webster City,IA,50595,515-838-2749
Global Security Services,1003 West 4th Street,Davenport,IA,52802,563-359-3896
N B C Delivery,3305 12th Ave,Council Bluffs,IA,51501,402-981-4152
Cox Trucking,110 Highland Avenue,Charles City,IA,50616,641-257-2008
T & S Trucking,318 E Fayette,Osceola,IA,50213,515-250-9633
Matthiesen Trucking,620 9th Street,Sibley,IA,51249,712-754-4244
Welte Transport,6044 19th Av,Garrison,IA,52229,319-477-5989
R&d Trucking,908 E 10th St,Spencer,IA,51301,712-260-9369
Dewitt Silver Bullet Trucking LLC,108 Centennial Drive,Mediapolis,IA,52637,319-394-3833
Barlow Farms,3293 280th Street,Nashua,IA,50658,641-330-4464
"I Haul, Inc.",957 350th Street,Grinnell,IA,50112,319-360-5464
R & R Trucking,522 High Street,Arlington,IA,50606,563-633-2007
Mud Creek Auto,205 Main St,Alvord,IA,51230,712-473-2122
Greg Sexton Trucking,2452 140th Street,Moscow,IA,52760,319-533-3284
Nelson's Auto Sales,1667 Lincoln Ave,Humboldt,IA,50548,515-332-3105
Loyd Kildow Trucking,103 W Pine St,Hillsboro,IA,52630,641-722-3348
Schroyer Trucking,113 S Walnut Street,Sumner,IA,50674,563-578-5949
Ames Trucking,2618 S Adams Ave,Mason City,IA,50401,641-423-1662
Van'thof Trucking,14 Ninth St Se,Sioux Center,IA,51250,712-722-4219
Classic Reaction,100 S Locust St,Dubuque,IA,52003,563-590-6285
Jims Digging Service,529 4th St Nw,Sioux Center,IA,51250,712-722-0983
Rick Selk Trucking,7235 16th Ave,Keystone,IA,52249,319-442-3322
H&h Farm,1572 180th Ave,Manchester,IA,52057,563-920-0328
"Kelly's Auto Center, Inc.",510 S Riverside Dr,Iowa City,IA,52246,319-337-0500
Professional Grain Services,779 Hwy 65/69,Indianola,IA,50125,515-961-5085
Saxton Trucking,2711 Zearing Avenue,Somers,IA,50586,515-467-5704
C & H Hauling,21 2nd St,Woodbine,IA,51579,712-647-2139
Willson Trucking,4664 280th Street,Danbury,IA,51019,712-883-2457
Big Deal Auto,524 S Lewis Blvd,Sioux City,IA,51106,712-252-5958
Pataska Trucking,12797 475th Avenue,Miles,IA,52064,563-682-7661
Fortmann Distributing,17555 John Deere Rd Lot 13,Dubuque,IA,52001,563-590-4411
Papa's Trucking,501 1st Street,Corwith,IA,50430,515-583-2482
Access Transport,2424 Macomb Avenue,Sioux City,IA,51106,712-276-5351
Rockit Gutter Service,25128 Mcpherson Ave,Council Bluffs,IA,51503,712-566-9866
Diamond B Trucking,1334 310 Avenue,Randolph,IA,51649,402-669-0459
Allendorf Auto Transport,859 Camburn Ct Se,Cedar Rapids,IA,52403,319-981-0452
2 C Trucking,2719 Elmwood Avenue,Rock Valley,IA,51247,712-476-9382
D & J Trucking,101 W Valley Box 11,Shenandoah,IA,51601,712-246-4818
Quinn Kelly Construction,22102 Hackberry Road,Council Bluffs,IA,51503,712-323-2357
Js Reid Transportation Co,10212 County Road 61,Wapello,IA,52653,319-523-3414
Jack Dehaai Trucking,10253 Highway 14 S,Monroe,IA,50170,641-594-3435
Teeny Trucking,2415 W 1st St,Sioux City,IA,51103,712-255-1721
Laverne & Troy Arndt,3473 300th St,Sac City,IA,50583,712-662-4896
T & K Trucking,344 Bellville Street,Palmer,IA,50571,712-359-7738
Paris Express,1423 Washington Ave,Lamont,IA,50650,563-924-2917
Roy's Auto Repair,100 E 2nd Street,Prairie City,IA,50228,515-994-2449
F & B Trucking,1901 1/2 Rockdale Road,Dubuque,IA,52004,563-556-3552
Grassworks Transportation,405 Ashbury Drive,Waverly,IA,50677,319-269-4392
Tw Freight Services,2706 Spruce Ave,Ainsworth,IA,52201,319-652-2597
Als Plowing Service,26623 Kayak Road,Farmersburg,IA,52047,563-964-2001
Walsh Auto Sales,3585 5th Ave So,Fort Dodge,IA,50501,515-573-4111
Automotive Solutions,1735 Radford Rd,Dubuque,IA,52002,563-588-2245
Cannon Trucking,715 E Linden,Chariton,IA,50049,641-744-2112
Mti,3634 Stoneview Circle Sw,Cedar Rapids,IA,52404,319-447-0402
Fish Transportation,1102 Ness Ridge Rd,Waterville,IA,52170,563-535-7640
Dugger Trucking,1909 Cordova Ave,Leighton,IA,50143,641-626-3185
Battles Transportation & Restoration,491 Se 72nd Street,Des Moines,IA,50327,515-266-7266
Headington Hauling,2409 365th St,Decorah,IA,52101,507-450-9116
M & M Trucking,2314 Hoosier St Sw,Cedar Rapids,IA,52404,319-390-3725
R & M Trucking,1619 Clay Street,Moscow,IA,52760,563-724-3518
Alexander's Liberty Farms,3808 Nw Kline St,Ankeny,IA,50023,515-370-3320
W D Atfab,2880 559th Avenue,Sabula,IA,52070,563-682-7137
Larson Trucking,2710 Ne Trilein Dr,Ankeny,IA,50021,785-841-1560
Tg Trucking,4788-230th St,Battle Creek,IA,51106,712-365-4483
Gary Bernhard Trucking,1110 Roosevelt,Dubuque,IA,52001,563-599-7823
Scck Transportation,204 S Main Street,Boone,IA,50036,515-432-8915
Matt Voss Trucking,602 Ely Blvd,Walker,IA,52352,319-448-4209
Aure Transport,901 11th Ave N,Humboldt,IA,50548,515-332-5792
Mize Trucking,405 E 3rd Street,Bronson,IA,51007,712-948-3316
Sunrise Lake Trucking,1950 260th Street,Washington,IA,52353,319-653-3032
Rockin S Express,15591 141st,Perry,IA,50220,515-465-4226
K & P Trucking,1808 8th St,Rock Valley,IA,51247,712-476-9061
Heartland Auto Transport,739 610th Street,Storm Lake,IA,50588,712-732-0021
Tyler Trucking,2252 Hwy 34,Corning,IA,50841,641-322-5490
Grau Transport,1211 Circle Dr,De Witt,IA,52742,563-659-3394
Schwarz Haul,8490 Nw Beaver Drive,Johnston,IA,50131,515-270-6296
Caquelin Trucking,1405 Sw Emma,Des Moines,IA,50315,515-284-7475
Rascals Trucking,2035 K Ave,Traer,IA,50675,319-478-2169
Mandel Express,809 Court Street,Dunlap,IA,51529,605-350-8774
D C Trucking,1020 460th Street,Peterson,IA,51047,712-295-7192
A 2 Z Taxi Service,708 Jefferson Street,Burlington,IA,52601,319-752-6866
C & K Trucking,1095 1st St,Terril,IA,51364,712-853-6479
Nelson Monument Services,804 9th Street,Harlan,IA,51537,712-755-7338
Ricklefs Trucking,200 N Walnut St,Marcus,IA,51035,712-376-2441
Norma's Trucking,911 Main St,New Market,IA,51646,712-585-3744
Nts Trucking,2212 130th Avenue,Wheatland,IA,52777,563-374-1354
Raska Transport,30244 Co Hwy S27,Radcliffe,IA,50230,515-893-2381
Iron And Lace,301 1st Street,Lewis,IA,51544,712-769-2618
D D R C Auto Haulers,1339 20th Avenue Sw,Cedar Rapids,IA,52404,319-364-6951
Scott Van Der Brink Trucking,2320 320th St,Rock Valley,IA,51247,712-476-3356
Tdj Transport,1002 N 9th St,Fairfield,IA,52556,641-469-6558
Jay & Kara Foote,1407 Linden Street Lot 5,Hull,IA,51239,712-439-1592
Beckman Trucking,2799 Des Moines Henry Ave,Danville,IA,52623,319-367-5179
Ziesman Trucking,590 45th St ,Alden,IA,50006,515-689-8057
Thumpers Express,108 First Street,Vanhorne,IA,52346,319-228-8829
Vb Transport,4915 Nw Lovington,Des Moines,IA,50310,515-251-3977
R&r Transport,6018 Edison Street,Cedar Falls,IA,50613,319-266-0957
Cerka Truck Sales,8303 Angle Rd Sw,Cedar Rapids,IA,52404,319-360-1528
A R A Distributing,51951 Burr Oak Circle,Glenwood,IA,51534,712-526-2312
Geoffrey Weeks Trucking,63051 Richland Rd,Griswold,IA,51535,712-774-5620
Mc Michael Trucking,1105 Kingbird Ave,Audubon,IA,50025,712-563-3848
Bmw Trucking,308 Obrien Street,Sanborn,IA,51248,712-930-5781
Russell J Thornton Trucking,207 Worth St,Hedrick,IA,52563,641-653-2354
Koedam Trucking,1831 Eagle Ave,Alvord,IA,51230,712-473-2292
Strait Trucking,18877 Iowa Oak Grove Ave,Keosauqua,IA,52565,319-293-3471
Schaefer Trucking,1151 432nd Avenue,Teeds Grove,IA,52771,563-357-7754
Mmc Trucking,215 Oak St,Ringsted,IA,50578,712-866-1922
"Rar T Trucking, Inc.",2504 3rd Ave,Councilbluffs,IA,51501,712-256-0375
Greg Larson Trucking,309 Iowa Street,Clermont,IA,52135,563-423-7289
Action Xpress,1601 E Aurora Ave,Des Moines,IA,50313,515-266-6460
Wade Thompson Trucking,2375 330th St,Forest City,IA,50436,641-581-3056
Jrs Trucking,408 S Lincoln,Kellerton,IA,50133,641-783-2247
Forney Transport,730 E Williams Street,Ottumwa,IA,52501,N/A
Bobby Rigdon Trucking,301 West Main Street,Dunkerton,IA,50626,319-822-2516
Stepphanies Trucking LLC,2209 Riverwoods Av,Desmoines,IA,50320,515-229-4573
"Midwest Pipeline Services, Inc. A Corporation",5614 460th Street,Paullina,IA,51046,712-949-2786
Dryden Trucking,506 E Fremont Street,Creston,IA,50801,641-782-3796
Hp Trucking Of Iowa,1617 K St Sw,Cedar Rapids,IA,52404,319-290-7266
Bob's Hauling,313 West St,West Chester,IA,52359,319-698-7925
Fudge Trucking,603 N Pine St,Creston,IA,50801,641-782-4228
Huffine Transport,105 Timber Ridge Drive,Pella,IA,50219,641-628-4923
Tom Wharf Trucking,665 Alpine Drive,Waterloo,IA,50702,319-232-2349
Hansen Transfer,62706-610th St,Atlantic,IA,50022,712-243-3779
3 G Trucking,622 N 5th Street,Osage,IA,50461,641-732-4122
Goebel Farms,32502 Klas Lane,New Vienna,IA,52065,563-875-6093
Seidel Trucking,314 1st Street,Coulter,IA,50431,641-430-3157
Herr Trucking,2618 Delta Ave,Bridgewater,IA,50837,641-221-0140
Putman Trucking,108 Cherry St ,West Union,IA,52175,563-426-5104
"Silver Fox Transportation, Inc.",705 Central Avenue,Dubuque,IA,52001,563-690-1234
All Around Town Outdoor Services,2602 N Utah Ave,Davenport,IA,52802,563-324-6450
Oconnor Freight Lines,1622 Northwest Dr,Des Moines,IA,50310,515-255-5549
Hansen Trucking,1741 470th Ave,Estherville,IA,51334,712-362-2054
Orval Dady Trucking,2518 Hwy 2,Corydon,IA,50060,641-872-1765
Grycol Corp Miller Farm & Freight Co,Po Box 61,Silver City,IA,51571,712-525-1061
Joanna Trucking,25716 Plymouth,Sioux City,IA,51108,712-239-1412
J Oetken Trucking,302 E Cleveland St,New London,IA,52645,319-367-0253
R A Mccabe Trucking,Rr 4 Box 298e,Council Bluffs,IA,51503,712-328-9750
Unbarger Repair,1777 69 St,Keystone,IA,52249,319-442-3275
Wayne Tschumper Trucking,2877 130st,Aurora,IA,50607,319-634-3932
Eagle Express,517 S Main St,Ionia,IA,50645,641-228-2101
Tom Mather Trucking,843 W 190th St #50,Ames,IA,50010,515-232-8278
John German Trucking,9229 Bishop Ave,La Porte City,IA,50651,319-342-2351
D Mowery Trucking,19 N 36th St,Council Bluffs,IA,51501,712-388-3770
Nighthawk Express,206 South Jefferson,Clearfield,IA,50840,641-336-2976
Walter Trucking,711 Pacific Street,Walnut,IA,51577,712-784-2250
Pat Lahey Trucking,3281 130th Street,Lamont,IA,50650,319-924-2310
D S V Transfer,6906 E Reinbeck Rd,Laporte City,IA,50651,319-342-3748
Park Avenue Service,5 Park Ave,Glenwood,IA,51534,712-352-7549
Thola Trucking,Rr 3,Bellevue,IA,52031,319-872-3768
Andersen Trucking,401 Washington,Kirkman,IA,51447,712-766-3351
King Trucking,26 Spencer,Council Bluffs,IA,51503,712-323-7019
Kbd Kitchen & Bath Design,4519 N Brady St,Davenport,IA,52806,563-391-5041
"Hagans Trucking, Inc.",208 North Benton,Brighton,IA,52540,319-694-5200
Arrow Express,1552 Ohio Street,Des Moines,IA,50314,515-244-1923
Waddell Trucking,3341 Hillcrest Rd,Dubuque,IA,52002,319-582-0523
Robert Mattes Trucking,2418 Cave,Shenandoah,IA,51601,712-246-4267
Apel Parking Lot Service,4485 Dodge St,Dubuque,IA,52003,563-556-6231
Boogies Trucking,1022 Primrose Rd,Farmington,IA,52626,319-878-4163
Wilson's,1219 Hackberry St,Correctionville,IA,51016,712-372-4117
Walton Trucking,1224 N Clark St,Davenport,IA,52804,319-391-2184
John Tomasek Trucking,24667 White Tail Road,Waucoma,IA,52171,319-776-7761
C & W Trucking,209 S Colorado St,Glidden,IA,51443,712-659-3762
5-r Trucking,510 East 18th St Apt B2,Carroll,IA,51401,712-792-3385
Law Trucking,402 Loomis,Corning,IA,50841,641-322-4036
C & N Trucking,504 West Fountain,Brighton,IA,52540,319-694-4006
S & L Auto Parts,315 E 13th St N,Newton,IA,50208,641-791-2945
P B R Express,3935 270th St,Boyden,IA,51234,712-475-3633
Lux Trucking,404 Travis St,Salix,IA,51052,712-946-5472
D R Hauling,Route 2 Box 190,Lenox,IA,50851,641-333-4499
Frerichs Trucking,30686 Lake Ave,Hinton,IA,51024,712-947-4035
D & B Trucking Co,2122 S Glass St,Sioux City,IA,51106,712-274-2076
Chumbley Trucking,1 1/2 School St,Carlisle,IA,50047,515-989-4550
Mtc Trucking,601 Troy Drive,Carroll,IA,51401,712-792-2799
Gm Transfer,1391-270th Street,Lytton,IA,50561,N/A
Wilfred Meiners Trucking,606 1st St,Dedham,IA,51440,712-683-5653
Mitch's Delivery,15860 310th St,Mason City,IA,50401,641-422-9211
Martin Trucking,1575 Calhoun Ave,Renwick,IA,50577,515-824-3316
K B White Trucking,1111 9th Ave,Wellman,IA,52356,319-646-2134
Thimmesch Trucking,419 Woodruff St,Aurora,IA,50607,319-634-3954
Gunderson Trucking,Rr 4 Box 153,Grinnell,IA,50112,641-623-3225
Havener Trucking,8626 70th Ave Ne,Bondurant,IA,50035,515-967-6129
F & E Trucking,512 West Elm,Pocahontas,IA,50574,712-335-4521
Harold's Trailer Wash & Shagging Service,3100 Brunskill Rd,Dubuque,IA,52003,319-582-7500
Edwin L Brose Trucking,307 2nd St Nw,Mitchellville,IA,50169,515-967-5570
Blackhawk Lighting,2515 Dean Ave Suite A,Des Moines,IA,50317,515-262-8083
Jarrett Trucking,307 10th Ave,Charles City,IA,50616,N/A
Ron Kruger Trucking,111 Monroe Street,West Union,IA,52175,319-422-5456
T M Struble Trucking,24597 Oak Ave,Turin,IA,51040,712-353-6702
"J Weddell Services, Inc.",652 L Ave,Boone,IA,50036,515-432-4278
Spetman Trucking,Rt 1 Box 222,Council Bluffs,IA,51503,712-366-4206
Reyerson Transport,1013 Iowa Ave East,Marshalltown,IA,50158,641-753-2100
Radcliffe Construction,4882 C Ave,Marcus,IA,51035,712-376-4857
Ferber Trucking,527 Sw 2nd St,Greenfield,IA,50849,641-743-2836
Midwest Trucking,204 4th St,Aspinwall,IA,51432,712-653-3136
G & G Express,712 4th Ave Ne,Independence,IA,50644,319-334-3947
Bud Neth Trucking,1220 14th Street Se,Sheldon,IA,51201,712-324-4464
Pro-ag Services Trucking,1431 Mormon Ridge Road,Union,IA,50258,641-496-5426
Bill Leibold Trucking,8400 Brady St,Peosta,IA,52068,319-556-4323
Riggle Trucking,3066 Penn St Nw,Iowa City,IA,52240,319-626-6935
Price Trucking,205 Grand Ave,Rowley,IA,52329,319-938-2876
Sachau Trucking,1649 L Ave,Charter Oak,IA,51439,712-678-3487
Johnson Chemicals Co,1820 State St,Osage,IA,50461,641-732-4246
David Zaiser Trucking,222 W 8th Street,Logan,IA,51546,712-644-3713
Iwen Trucking,303 1st St,Mallard,IA,50562,712-425-3644
A-1 Crane Service,19394 150th St,Rockwell,IA,50469,641-822-3432
D & K Petersen Trucking,200 Leroy Street,Audubon,IA,50025,712-563-3740
Stieneke Equipment,1975 610th Street,Aurelia,IA,51005,712-434-5500
Roose Trucking,14541 Forrest Avenue,Bristow,IA,50611,641-894-3448
Stannard Trucking,23986 Fawn Hollow Road,Elkader,IA,52043,563-245-1521
Sampson Farms,3434 330th Street,Ellsworth,IA,50075,515-899-7748
Fay Trucking,1401 Doon Street,Ayrshire,IA,50515,712-426-2101
Chuck Peters Trucking,503 Lake Street,Webb,IA,51366,712-838-7708
Menke Truck Line,121 E Ramsey,Bancroft,IA,50517,515-295-7921
Bowers Trucking,164 280th Street,West Branch,IA,52358,319-643-2007
Four Seasons Auto,201 South Frederick,Oelwein,IA,50662,319-283-1004
B M Enterprises,11 North Kearney St,Morning Sun,IA,52640,319-868-7937
Metzger Trucking,20387 Eastern Ave,Yarmouth,IA,52660,319-865-5900
Nick Schmitt Trucking,18323 Balltown Road,Sherrill,IA,52073,563-552-1016
Bliedorn Express,1823 220th Ave,Delmar,IA,52037,563-246-2335
"Sons & Daughters Trucking, Inc.",532 1st Ave Ste 312,Council Bluffs,IA,51503,800-292-7170
R D Trucking,3204 Avenue N,Fort Madison,IA,52627,319-372-8338
Marek Trucking,1675 Orange Ave,Kalona,IA,52247,319-656-4565
Madden Trucking,422 Cody Rd,Le Claire,IA,52753,563-289-3924
High Roller Express,218 Main Street,Mcgregor,IA,52157,319-873-9644
Meier Trucking,619 Center Street,Tabor,IA,51653,712-629-1725
Michael Randell Trucking,3082 Rowland Ave,Oskaloosa,IA,52577,641-673-7715
M & P Trucking,316 - 2st Ne,Orange City,IA,51041,712-737-4452
Harry Hefel Trucking,15824 Haberkorn Rd,Sherrill,IA,52073,563-552-2649
Graf Trucking,703 W Monroe,Washington,IA,52353,319-653-7406
Triple G Trucking,4788 230th St,Battle Creek,IA,51006,712-239-3902
Motor Line Express,900 3rd Ave Sw,Cedar Rapids,IA,52404,319-364-0058
Sackett Trucking,204 W Busker Street,Schaller,IA,51053,712-275-4588
Gilland Trucking,1930 So 10th St,Council Blufffs,IA,51501,402-306-5792
G&s Transport,524 Pelletier Dr,Sioux City,IA,51104,712-277-8699
Jerry Reighard,19155 Co Hwy D-20,Alden,IA,50006,515-231-4717
Mckibbin Trucking,35779 340th St,Kingsley,IA,51028,712-378-2187
Cherokee Transport,729 N Roosevelt,Cherokee,IA,51012,712-225-5267
Almelien Trucking,158 360th St,Joice,IA,50446,641-797-2438
Clubine Trucking,947 Jolene Drive,Dunkerton,IA,50626,319-822-4478
Mather Trucking,101 2nd Ave,Keystone,IA,52249,319-558-6988
Charles Whitt Trucking,1511 N Carolina Ave,Mason City,IA,50401,641-423-0759
G G Reber Trucking,2671 B Ave,Kiron,IA,51448,712-675-4754
Scott Fisher Trucking,1245 Underwood Avenue,Conrad,IA,50621,515-366-2351
Lundgren Trucking,1706 Vine Street,Dallas Center,IA,50063,515-992-3615
Ceaser Trucking,365 310th Ave,Grinnell,IA,50112,641-236-6159
D & S Peters Trucking,219 1st Street,Lakeview,IA,51450,712-657-2706
Mowery Trucking,1518 2nd Avenue,Council Bluffs,IA,51501,712-323-8067
Custom Auto Rebuilders,2642 9th Avenue,Council Bluffs,IA,51501,712-323-4746
Salter Trucking,2836 Austin Avenue,Modale,IA,51556,712-651-3375
Donth Trucking,6308 W Kimberly Road,Davenport,IA,52806,N/A
Broihier Contract Hauling,3466 State St,Betlendorf,IA,52722,563-370-9919
Leslie D Olson Trucking,109 Ely St,Woodbine,IA,51579,712-647-9919
Adkisson & Son's Trucking,820 7th Avenue Apt E,Council Bluffs,IA,51501,712-323-3798
M & K Trucking,2104 N Raymond Rd,Dewar,IA,50623,319-291-3017
Fred Parks Trucking,31622 277th St,Moorhead,IA,51558,712-886-5596
Robinson Trucking,400 Lindhardt Road,Carlisle,IA,50047,515-989-0445
Richardson Trucking,3279 Louisa-washington Road,Crawfordsville,IA,52621,319-658-2015
Cameron Trucking,4th And Plum,Redding,IA,50860,816-564-2674
R W Bainter Trucking,4806 Wakonda Drive,Norwalk,IA,50211,515-285-2502
Gordon Trucking,Route 1 Box 238,What Cheer,IA,50268,641-634-2511
T & J Truck Repair,3281 Jewel Ave,Salem,IA,52649,319-469-4310
Diamond D Trucking,4106 Hickory Grove Road # 9,Davenport,IA,52806,319-388-9680
T J Trucking,326 So Rutledge,Paullina,IA,51046,712-848-3920
R P Northouse,3919 E 30th St,Des Moines,IA,50317,515-265-3478
Gailey Trucking,19769 205th Avenue,Centerville,IA,52544,N/A
Prairieview Trucking,Rural Route 2 Box 43,Masonville,IA,50654,319-927-4997
Wallie Nelson Trucking,105 S White Street,Olds,IA,52647,319-254-8822
Malkemus Trucking,318 E 4th Street,Kingsley,IA,51028,712-277-4145
Terry Johnson Trucking,228 Sage Street,Lime Springs,IA,52155,563-566-2394
Lloyd Soetmelk Trucking,2665 194th St,Logan,IA,51546,712-647-3064
Rj Trucking,2366 Graham Circle,Dubuque,IA,52001,608-748-4693
Tuttle Trucking,905 Eastern Ave,Marengo,IA,52301,319-642-7783
Reik Bros,1651 280th Street,Odebolt,IA,51458,712-668-4223
Hageman Transportation,2363 190th St,New Hampton,IA,50659,641-394-3739
"Corson's Full Service Center, Inc.",313 Eleventh Street,De Witt,IA,52742,563-659-5411
Schollite Trucking,416 7th Ave Apt E,Clinton,IA,52732,319-243-8410
Golden Dream Jerseys,1191 Old Stage Rd,Decorah,IA,52101,563-447-0811
L & L Trucking,1621 N Marion,Washington,IA,52353,319-653-3430
Melvin Wiseman Trucking,25357 435th Street,Moravia,IA,52571,641-724-3457
Robert Kenneth Trucking,P O Box 1054,Oskaloosa,IA,52577,N/A
Schmadeke Ii Transportation,311 Fir Street,Schleswig,IA,51461,712-263-8667
T & S Express Ltd,1634 240th St,Schaller,IA,51053,712-275-4476
B & B Express,25413 Hwy K-30,Merrill,IA,51038,712-938-2434
Rutter Trucking,5968 E Avenue,Marcus,IA,51035,712-445-2449
Miller Trucking,14981 160th Street,Randalia,IA,52164,563-428-8812
Dme,509 1st Avenue N,Estherville,IA,51334,712-362-7459
Lenz Trucking,499 Main,Lansing,IA,52151,319-538-4531
R & J Trucking,318 N 4th Ave,Logan,IA,51546,712-644-3378
Paradigm Transportation,2193 Hwy 34,Mount Pleasant,IA,52641,319-986-5288
Mike Liggett Trucking,831 2nd Ave,Manilla,IA,51454,712-654-6052
Kohn Trucking,1817 Alpine Ave,Cushing,IA,51018,712-384-2258
R C Trucking,1833 Highland Drive,Carroll,IA,51401,712-792-6797
Hafner Transit LLC,18149 County Road X-43,Letts,IA,52754,319-726-3612
Gerard Trucking,222 West State Street,Oxford,IA,52322,319-628-4004
Lehman Trucking,25 Nw 46th Place,Des Moines,IA,50316,515-288-9343
"M D Transport, Inc.",5084 Hwy 3 West,Cherokee,IA,51012,712-225-3148
S & L Transportation,12 S.w. Jackson,Des Moines,IA,50315,515-284-7916
Von Ahn Valley,519 Duffie,Sac City,IA,50583,712-662-7258
Bryan Sinn Trucking,113 West 4th Street,Wayland,IA,52654,319-256-4074
Vander Weerdt Trucking,10122 Station Street,Sully,IA,50251,641-594-4359
Timothy P Leuer,4263 390th St,Emmettsburg,IA,50536,712-852-2315
Anthony Trucking,19512 Spruce Avenue,Mason City,IA,50401,641-424-8722
Wrecker Express,1001 South 5th,Burlington,IA,52601,319-754-1575
Richard C King Trucking,312 Sw Westview Drive,Ankeny,IA,50023,515-257-4976
N P Engelkes Trucking,19709 170th,Holland,IA,50642,319-989-2598
Meyer Trucking,4785 East Shellsburg Road,Palo,IA,52324,319-436-2230
"Ctm, Inc.",3139 West 73rd St,Davenport,IA,52806,563-386-6992
Koedam Trucking,2951 230th St,Doon,IA,51235,712-726-3423
Lenz Trucking,205 South Berwick,Schaller,IA,51053,712-275-4286
K & L Farms,1635 260th St,Inwood,IA,51240,712-470-2349
Carstensen Trucking,301 Farmer Street,Stanwood,IA,52337,319-942-6232
Rhonda's Transport,1105 F Avenue,Vinton,IA,52349,319-472-4915
Abkes Trucking,908 Cerro Gordo,Ackley,IA,50601,641-847-2175
R And A Transportation,P O Box 71241,Des Moines,IA,50325,N/A
Double O Trucking,2699 Glass Rd,Marble Rock,IA,50653,641-397-2702
Ron Claman Trucking,Rr 1 Box 26 Aa,Mount Stering,IA,52573,319-494-5537
Quality Foundry Co,3672 Hwy 61,Blue Grass,IA,52726,563-381-4491
Djm Transportation,2711 Ashby Ave,Des Moines,IA,50310,515-277-3818
Hedrick Trucking,922 E 10th,Davenport,IA,52803,319-326-1397
D L M Trucking,103 Golf Course Dr,Armstrong,IA,50514,712-864-3273
Valley Auto Transport,1402 Meadowview Dr #23,Marion,IA,52302,319-377-8395
Sisbro Trucking,577 240th Street,Thornton,IA,50479,641-998-2204
John Link Trucking,809 West Main,Epworth,IA,52045,319-876-3177
Alan Berg Trucking,1630 Nw 80th St,Clive,IA,50325,515-221-9281
W D Trucking,409 3rd Street Nw,Mitchellville,IA,50169,515-967-1444
Morrow Trucking,203 West 3rd,Fonda,IA,50540,712-288-6451
Nebelsick Trucking,501 West 1st Street,Lake Park,IA,51347,712-832-3392
James J Meyer Trucking,709 S Cayuga #2,Pomeroy,IA,50575,712-468-2717
Kellen Trucking,633 Se 60th St,Des Moines,IA,50317,515-265-6456
J W Transport,2046 Norton Avenue,Logan,IA,51546,712-644-2792
Johnson Trucking,613 Sw 62nd St,Des Moines,IA,50312,515-255-6013
J & A Transportation,600 S 8th St,Akron,IA,51001,712-568-9557
Clayton Diischer Trucking,5710 30th Ave,Alta,IA,51002,712-284-1589
Cozy Corner Truck & Auto,1435 38th Street,Ft Madison,IA,52627,319-372-0105
Mcgrew Trucking,205 Lombard,Clarence,IA,52216,319-452-3686
Gary Holthaus Trucking,23729 P Ave,Hawkeye,IA,52147,563-427-3742
J & S Trucking S Son,708 Division,Lucas,IA,50151,N/A
Bills Dozer Service,1704 Washington,Hamburg,IA,51640,712-382-1061
Dave Helm Trucking,130 2nd Street,Alburnett,IA,52202,319-842-2578
B & C Transport,1132 540th Street Sw,Wellman,IA,52356,319-646-2633
Denny's Trucking,402 Palmer St,Modale,IA,51556,712-645-9009
J Segovia Trucking,229 S Jackson,Mason City,IA,50401,641-424-5342
Cedar Valley Mobile Home Service & Transporting,206 Woodland Dr,Dunkerton,IA,50626,319-822-7357
Rhm Trucking,20417 Walnut Street,Yarmouth,IA,52660,319-865-5481
I D I Trucking Co,6118 230th St,Ida Grove,IA,51445,712-365-4831
Holdorf Trucking,401 East Indiana Ave,George,IA,51237,712-475-3859
A & R Trucking,2425 Jessup Ave,Marshalltown,IA,50158,641-752-2972
Gjerde Livestock Transportation,13262 650 Avenue,Mccallsburg,IA,50154,515-434-2434
Doug Poe Trucking,2550 Helotrope Dr,Des Moines,IA,50315,515-284-5683
C & J Hauling,5455 Appomattox Rd Apt 8,Davenport,IA,52806,319-388-6131
Glory Bound Express,2329 E 24th St,Des Moines,IA,50317,515-262-8815
Wilson Express,3102 N 15th St Lot 8,Fort Dodge,IA,50501,515-576-6542
Hankins Trucking,325 W Leclaire Rd,Eldridge,IA,52748,309-756-0042
Van Roekel Trucking,3689 Kiwi Ave,Sheldon,IA,51201,712-752-8351
Double D Trucking,533 Elkhorn Trail,Iowa City,IA,52240,319-358-9348
Bodensteiner Trucking,1130 190th St,Charles City,IA,50616,641-985-2107
Nielsen Trucking,3 River Vista Drive,Adel,IA,50003,515-993-4243
K & E Express,205 W South St,Macksburg,IA,50155,641-768-2464
Np Trucking,112 Delong Avenue,Council Bluffs,IA,51503,N/A
Kies Trucking,207 South Clark,Paullina,IA,51046,712-448-2723
Freedom Transport,504 Ne 9th Street,Leon,IA,50144,641-344-5028
J A L E Trucking,2019 Ellis,Iowa Falls,IA,50126,641-648-4997
Jack Moore Trucking,27287 Nuthatch Ave,Bloomfield,IA,52537,641-929-3944
Two Guns Transportation,608 Eastview,Sloan,IA,51055,712-898-7012
Gary Sears & Son,1205 North Washington Street,Lineville,IA,50147,641-876-6571
Monson Trucking,20069 Allis Road,Pacific Junction,IA,51561,712-366-1003
"Bird Trucking, Inc.",3517 N Pine St,Davenport,IA,52806,319-320-2478
D & L Trucking,310 Main St,Rose Hill,IA,52586,641-632-8385
B & E Trucking,1221 Fillmore,Davenport,IA,52803,319-323-0420
Double H Trucking,919 Nishnabottna,Manning,IA,51455,712-653-2193
James Schumann Trucking,822 1/2 1st Ave West,Dyersville,IA,52040,319-875-2134
Monty Anderson Trucking,820 Willow Dr,Clarion,IA,50525,515-532-6565
Douglas D Royster Trucking,1804 Highland Street,Ruthven,IA,51358,712-837-4338
R Mills Trucking,7967 Old Massey Rd,Dubuque,IA,52003,563-556-7244
Farmers Feed & Grain,206 Cedar St,Schleswig,IA,51461,712-676-3345
S & R Trucking Partnership,2907 Arnold Drive,Marshalltown,IA,50158,641-752-6155
J & W Transport,P O Box 350,Shelby,IA,51570,712-627-4148
M L Dann Trucking,713 North 4th St,Clinton,IA,52732,319-243-7359
Harvey Kaiser Trucking,108 E Iowa St,Bassett,IA,50645,515-228-7361
Jack Wyatt Trucking,618 E Main,Seymour,IA,52590,641-872-3509
R W Trucking,103 N Grove,Glenwood,IA,51534,712-527-5290
H & D Trucking Co,1701 Richie Dr,Dubuque,IA,52002,N/A
Bell Trucking,106 West Elm Street,Lone Tree,IA,52755,319-629-5330
R D Trux,403 S Main St,Centerville,IA,52544,641-856-2127
Jack's Trucking,1703 4th Ave,Council Bluffs,IA,51501,712-328-7422
Gerry's Pony Express,3203 Jackson,Dubuque,IA,52001,319-588-0611
R B K Trucking,708 Hardin St,Whitten,IA,50269,641-486-2369
J L Trucking,1524 235th Street,Letts,IA,52754,319-726-4142
Harris Trucking,37501 County Hwy E54,Moorehead,IA,51558,712-886-5269
L J Leonard Express,5611 16th Ave Sw,Cedar Rapids,IA,52404,319-390-0411
Stevens Trucking,101 Main St,Centerville,IA,52544,641-856-8287
Bryson Trucking,1404 Marquette,Davenport,IA,52804,319-322-1884
Breuer Wrecker Service,1801 E Monroe Street,Mount Pleasant,IA,52641,319-385-3860
Nicholls Transport,828 Riehl St,Waterloo,IA,50703,319-235-9447
Jsr Trucking,3757 Quail Ave,Dayton,IA,50530,515-547-2539
M J Behrens Trucking,125 S Walnut,Carroll,IA,51401,712-792-6420
Surface Maintenance Services,226 S Fawcett Street,Sioux City,IA,51103,712-277-4412
Sterk Auto & Sales,121 South St,Pella,IA,50219,641-628-2054
D & S Trucking,4015 340th Avenue,Ruthven,IA,51358,712-837-5453
Carley Trucking,47902 260th St,Kingsley,IA,51028,712-378-3804
Elite Logistics Services,1535 Linden Street,Des Moines,IA,50309,515-243-5470
Probasco Motor Express,27056 300th Ave,Moulton,IA,52572,641-642-3618
De Boer Trucking,3491 Polk Avenue,Sanborn,IA,51248,712-729-5458
Eyres Trucking,106 Franklin 4th,West Point,IA,52656,319-835-9573
Dirksen Trucking,14708 Agate Rd,Elgin,IA,52141,563-426-5275
Burgart Trucking,715 E Main St,New Hampton,IA,50659,641-394-4082
Jt Auto Transport,47254 170th Ave,Scarville,IA,50473,507-402-6856
Clark Transportation,1321 Urbana Avenue,Barnes City,IA,50027,641-644-5281
Dan Halverson Trucking,205 Larabee St,Clermont,IA,52135,319-423-5186
Brodersen Trucking,1870 K Avenue,Charter Oak,IA,51439,712-263-2033
Scott Trucking,4839 Balsam Ave,Saint Ansgar,IA,50472,641-326-2204
Gary Danner Trucking,26495 305th St,Dedham,IA,51440,712-683-5642
D And G Transportation,1175 210th St,Gilmore City,IA,50541,515-373-6170
Dale's Wrecker Service,601 Popejoy Ave,Iowa Falls,IA,50126,641-648-2732
Kruse-warthan Dubuque Auto Plaza,600 Century Dr,Dubuque,IA,52002,563-583-7345
Turner's Transportation,25168 Bellevue Cascade Rd,Bellevue,IA,52031,609-723-8292
Harlan Kies Trucking,2470 620th Street,Newell,IA,50568,712-272-4206
Neumann Transport,131 Morningside Dr,Denison,IA,51442,712-263-4782
Martin Arensdorf Quarry,10481 St Joseph St,Dubuque,IA,52003,563-773-2203
Just In Time Deliveries,292 Harrison St,Council Bluffs,IA,51503,712-322-1309
B & J Trucking,3410 Mckinley Ave,Sheldon,IA,51201,712-324-3120
Strawhackers Food Service,219 Fox And Sauk Road,Ottumwa,IA,52501,641-682-8164
William Haussmann Trucking,1122 Gayman,Davenport,IA,52802,563-324-5853
Circle W Trucking,101 South Main,Donnellson,IA,52625,319-835-5316
Mike Thuney Trucking,224 South Marshall Street,Boone,IA,50036,515-298-0883
T & D Trucking,3224 190th Street,Estherville,IA,51334,712-858-4664
K N L Trucking,3537 Stewart Street,Ruthven,IA,51358,712-837-5371
"D & B Trucking Services, Inc.",1703 15 Avenue,Council Bluffs,IA,51501,712-322-4999
"Thunder Transportation, Inc.",109 E 28th Court,Des Moines,IA,50317,N/A
Schroyer Trucking,205 Toedt St,Laurel,IA,50141,641-476-3440
Woods Trucking,1008 8th Ave,Council Bluffs,IA,51501,712-322-9246
Lone Star Truck Parts,101 Williams Blvd,Fairfax,IA,52228,319-846-2889
Glen Dawson Trucking,400 East Hayes,Hazelton,IA,50641,319-636-2060
Sconyers Transport,1561 Olive Ave,Hampton,IA,50441,641-456-4357
Triple R Transportation,1100 Walnut Street,Dallas Center,IA,50063,515-992-3677
3 Oaks Trucking,6282 Simonsen Road,Washta,IA,51061,712-447-6449
Wiltse Trucking,404 N Douglas St,Ionia,IA,50645,641-394-5017
M & B Truck Line,417 North Madison,Ottumwa,IA,52501,641-684-4425
Loren Slick Trucking,208 E Wilson,Alta Vista,IA,50603,641-364-4004
Morgan Transport,200 Church St,Gilman,IA,50106,641-498-2282
All-ways Trucking,25542 Main Street,Sioux City,IA,51108,712-239-6857
Terri Boeckman Trucking,4061/2 Main,Wall Lake,IA,51466,712-664-2015
Ace Trucking,510 2nd Avenue,Armstrong,IA,50514,712-864-3399
Abby Lynn Transportation,27832 Erie Street,New Providence,IA,50206,641-497-5704
Whites Bucket Truck Service,307 State,Bedford,IA,50833,712-523-3327
G Bar C Express,2611 Union Ave,Winthrop,IA,50682,319-934-3355
Gosch Trucks,1417 580th Street,Storm Lake,IA,50588,712-732-4545
Ken Huling Trucking,233 21st Place,Clinton,IA,52732,563-242-5964
Shuttle Express,207 One Half Ave Ne,Independence,IA,50644,319-334-9818
Wilson Trucking,107 Main Street,Ryan,IA,52330,319-932-2052
S & T Trucking,1302 5th Ave South,Fort Dodge,IA,50501,515-576-2267
M Zadow Trucking,652 3rd St Sw,Britt,IA,50423,641-843-3253
Ram Trucking Ii,720 Fulton St,Keokuk,IA,52632,319-524-6069
Ohanesian Trucking,2205 Kimberly Road,Bettendorf,IA,52722,319-355-7695
B & B Trucking,2016 210 St,Early,IA,50535,712-273-5375
Cambier Trucking,611 Sherman St,Boyden,IA,51234,712-725-2231
John D Kendall Trucking,509 N 6th,Council Bluffs,IA,51503,712-322-1538
"Springdale Trucking, Inc.",301 South Center,Wall Lake,IA,51466,712-664-2931
Jim Paulson Trucking,125 Marion Ave,Council Bluffs,IA,51503,712-325-4531
Martin Trucking,Rr 8 Box 41,Bloomfield,IA,52537,641-664-3886
Eddie Bartz Trucking,725 West Prospect,New Hampton,IA,50659,641-394-4979
Eagle Avenue Transit,1197 Bluebird Avenue,Manning,IA,51455,712-653-3020
Steve Fitzgerald Trucking,10306 Richland Rd,Monticello,IA,52310,563-852-5250
J L Trucking,304 5th,Lohrville,IA,51453,712-465-2020
East Valley Trucking,1708 N Zenith #8,Davenport,IA,52804,319-371-2877
Gary D Johnson Trucking,Rr 8,Bloomfield,IA,52537,641-664-1053
D & J Trucking,2742 Paragon Ave,Lehigh,IA,50557,515-547-3376
Rj Stephas Trucking,807 6th Ave Sw,Spencer,IA,51301,712-262-5319
R & B Trucking,2759 8th St,Logan,IA,51546,712-644-2522
Goodwin Trucking,630 Sunset Ave,Farnhamville,IA,50538,515-544-3797
Jerry R Stumbo Trucking,413 S First Street,Ogden,IA,50212,515-275-2727
Southpaw Trucking,430 East Lincoln Hwy Lot 22,Missouri Valley,IA,51555,712-642-2932
D & K Services,4959 Se 72nd Ave,Carlisle,IA,50047,515-238-7062
Hansen Trucking,102 E First Street,Casey,IA,50048,641-746-3949
Trytten Trucking,310 N Park St,St Ansgar,IA,50472,641-736-2486
Corporation Pipeline Services Of Iowa,2149 225th Street,Milford,IA,51351,712-338-4242
J & J Trucking,2212 16th Ave,Rock Valley,IA,51247,N/A
Road Runner Trucking,57795 310th Street,Cambridge,IA,50046,515-291-4464
River City Transport,729 1/2 Lincoln,Dubuque,IA,52001,319-556-4315
Smith Boys Trucking,701 E State St,Colfax,IA,50054,515-674-4039
Richard A Thompson Trucking & Exv,2101 8th St Nw,Clinton,IA,52732,319-243-5148
Crs Trucking,3090 Cedar,Missouri Valley,IA,51555,712-642-4514
G & J Trucking,P O Box 292,Atlantic,IA,50022,712-250-0639
Vogel Trucking,3764 Valley Ave,Lohrville,IA,51453,515-544-3222
J & K Trucking,Rt 1 County Road T20,Cincinnati,IA,52549,641-658-2759
"Kat's Trucking, Inc.",1105 West 46th Street,Davenport,IA,52806,319-391-9085
L & C Trucking,414 South 13th Street,Sac City,IA,50583,712-662-7494
Critchfield Trucking,12753 280th St,Conrad,IA,50621,641-486-5400
Merkes Trucking,602 7th Avenue Ne,Farley,IA,52046,319-744-3042
Brood Trucking,Box 4,Swaledale,IA,50477,641-995-2264
Country Side Auto Repair,2728 Steinbach Rd,Dorchester,IA,52140,319-497-3624
Rokn R Trkn,105 Church St,Webb,IA,51366,712-838-4454
Heineman Trucking,2919 270th St,Readlyn,IA,50668,319-279-3136
Olson Trucking,4400 Tyler,Sioux City,IA,51108,712-239-1759
Main Street Logistics,706 Main Street,Brandon,IA,52210,319-350-0974
R A Williams & Sons,1700 Fox Hollow Road,Marion,IA,52302,319-377-7934
Pella Swine Services,916 W 8th St,Pella,IA,50219,641-628-3121
Powers Transport,2162 Stage Coach Rd,Webster City,IA,50595,515-832-2762
O-lane Transport,2939 Iowa Ave,Rowley,IA,52329,319-938-2263
Troutman Service,24515 Eagle Drive,Bonaparte,IA,52620,319-592-3374
A&r Pedersen,754 Hwy 3,Alta,IA,51002,712-296-3932
Roy Rinderknecht Trucking,109 Third Street,Swisher,IA,52338,319-857-4439
Heck's Transfer,5001 Lincoln Hts Dr Se,Cedar Rapids,IA,52403,319-364-1107
J-r Trucking,403 S Ewing,Grimes,IA,50111,515-986-3724
Knights Trucking,2553 Durham Ave,State Center,IA,50247,641-483-2084
Gudmonson Trucking,38671 150th Ave,Leland,IA,50453,641-567-3522
Howard Wilson Trucking,906 Hillside Drive,Bettenforf,IA,52772,319-788-6090
Rci Express,3905 9th Street,Des Moines,IA,50313,515-244-5932
"Bauer Trucking, Inc.",103 N 1st Street,Ida Grove,IA,51445,712-369-1023
D And D Transport,2423 1st Avenue South West,Cedar Rapids,IA,52405,319-362-9461
Gary Bazyn Trucking,2496 Ee Avenue,Ladora,IA,52251,319-623-3135
Kirkhart Skid Loader Service,108 Brown St,Cantril,IA,52542,319-397-2328
Charles M Kelley Jr Trucking Co,3411 E Aurora Ave,Des Moines,IA,50317,515-265-3197
L & K Trucking,200 East Main Street,Garrison,IA,52229,319-477-8291
Hulsebus Trucking,705 Stanley Blvd,Tennant,IA,51574,712-744-3410
Benge Trucking,302 Broad Street,Rolfe,IA,50581,712-848-3187
Mcintyre Trucking,706 Charles Street,Delhi,IA,52223,319-922-2554
Ihde Trucking,14782 230th Street,Hawkeye,IA,52147,563-422-5111
Duane Boell Trucking,2938 330th St,Manilla,IA,51454,712-654-2922
Speedy Delivery Service,5101 First Ave Nw,Cedar Rapids,IA,52405,319-369-1918
Ruckdaschel Truck Line,10242 Aspen Ave,Postville,IA,52162,319-864-3716
Pansegrau Farms,2195 310th St,Toledo,IA,52342,641-484-3396
Johns Moving & Storage,3121 Farnam,Davenport,IA,52803,319-324-5416
Sun Construction Service,7016 Winston,Urbandale,IA,50322,515-252-5036
Frey Trucking,106 National Dr Apt 112,Huxley,IA,50124,319-452-3361
Vaughn Trucking,29553 440th St,Rolfe,IA,50581,712-848-3634
4th Street Auto,214 Myrtle,Davenport,IA,52802,563-323-7588
"Jim's Cartage Service, Inc.",10863 140th Street,Davenport,IA,52804,319-381-4907
K D M Trucking,1362 Juniper Ave,Corning,IA,50841,641-322-4182
Daugherty Trucking And Const,17778 Skunk River Rd,Wever,IA,52658,319-528-6147
Daco Service,626 Leffler,West Burlington,IA,52601,319-754-7806
Wagner Auto Sales Service,204 W Main,New London,IA,52645,319-367-5011
Ken's Auto Works,105 1/2 S Dodge St,Bloomfield,IA,52537,641-664-2670
B & G Automotive,7179 Hurstville Rd,Maquoketa,IA,52060,563-652-3162
Freight Express,66 Summitt Av S E,Swisher,IA,52338,319-857-4532
Gotta Go Truck-n,Rr 1 Box 149,Lewis,IA,50544,712-769-2213
Bill Hammond Trucking,4430 N Main,Elk Horn,IA,51531,712-764-4011
Hainline Service,311 West St,Bonaparte,IA,52620,319-592-3105
T & J Transport,2045-200th Street,Guthrie Center,IA,50115,641-747-2150
Everett Body Shop & Auto Sales,5675 State Street,Bettendorf,IA,52722,563-355-6240
Gary L Walker Trucking,522 S Cedar,Kirkville,IA,52566,641-933-4800
Bob's Trucking,1138 190th St,Gladbrook,IA,50635,641-473-2516
Knight Logistics,4311 Cheyenne Ave Apt 8,Davenport,IA,52806,319-388-8747
Kfa Trucking,503 Lake St,Sprit Lake,IA,51360,712-320-0001
Grell Trucking,311 Main,Danbury,IA,51019,712-883-2393
Dalo Trucking Co,802 Hammond Avenue,Waterloo,IA,50702,319-232-5227
Zach's Express,1020 N 31st Place,Fort Dodge,IA,50501,515-955-1598
Meseck Transport,1106 Ridge Rd,Denison,IA,51442,712-263-5245
Lahr Trucking,102 Prince,Dow City,IA,51528,712-674-3762
Dave Liske Trucking,3414 291st St,Camanche,IA,52730,319-225-2589
Gb Trucking,3204 Chippowa Lane,Council Bluffs,IA,51501,402-510-4637
Morey Trucking,1226 No Monroe St,Mason City,IA,50401,641-421-1732
2 R's Trucking,522 S 24th St,Council Bluffs,IA,51501,712-325-4698
H & S Trucking,23505 250th Street,Carroll,IA,51401,712-792-8366
John Beach Trucking,3057 165th St,Fort Madison,IA,52537,319-528-6254
D&s Trucking,603 School Street,Churdan,IA,50050,515-370-1843
Scot L Taylor Trucking,111 E 7th St,Tama,IA,52339,641-484-4492
Goodrich Trucking,1130 1/2 Spring Street,Grinnell,IA,50112,641-236-0205
C R C Trucking,2050 Utah Ave,Goldfield,IA,50542,515-825-3691
Jmt Truck Services,800 W Milwaukee Lot 41,New Hampton,IA,50659,641-394-4910
Huff Trucking,317 East Dupue,Monona,IA,52159,319-539-2719
B J S Partners & Company,20586 290th Street,Waucoma,IA,52171,563-429-2941
B C D Transport,27961 280th St,Coon Rapids,IA,50058,712-659-2196
"Tlp Trucking, Inc.",2026 Avenue F,Council Bluffs,IA,51501,402-981-4175
Mcvay Trucking,410 Greene Street,Walker,IA,52352,319-448-4253
Coffman Enterprises,101 W Hwy 2,Milton,IA,52570,641-656-4971
Hulsey Family Trucking,15980 106th Avenue,Davenport,IA,52804,309-286-6016
Cardoza Trucking,906 Woodlawn,Muscatine,IA,52701,319-288-0377
Pillatzki Trucking,703 11th St N,Northwood,IA,50459,641-324-1969
Boudreau Trucking,408 3rd St,Keystone,IA,52209,319-442-3733
Tmh Transport,1512 Apple Rd,Clermont,IA,52135,563-423-5218
Merten Trucking,1371 615th St,Storm Lake,IA,50588,712-732-2367
Gary Tyler Trucking,3108 Roberts Ferry Rd Ne,Solon,IA,52333,319-848-4457
Manzer Hauling,344 N Central,Carson,IA,51525,712-484-3965
Larry's Trucking,3325 Hubbell Ave #71,Des Moines,IA,50317,515-262-7462
Adelmund Concrete & Trucking,601 Park Street,Greene,IA,50636,641-823-5651
Kenneth Troyer Trucking,211 B Ave,Kalona,IA,52247,319-656-5198
K C C Trucking,620 Howard St,Aplington,IA,50604,319-347-6227
Dick's Home Auto,120 W Spring St,Sigourney,IA,52591,641-622-2981
Dons Trucking,3612 Ave A,Council Bluffs,IA,51501,712-323-9168
Wayne Den Hartog Custom,4866 280th St,Sheldon,IA,51201,712-324-2311
"Schumen Truck & Auto, Inc.",132 1st Street South West,Hopkinton,IA,52237,319-926-2708
R & S Thompson Trucking,106 Division St,Alta,IA,51002,712-284-1753
Meyers Trucking,5806 Stone Ave,Sioux City,IA,51106,712-276-8488
Todd's Transportation,712 2nd Ave N,Clear Lake,IA,50428,641-529-1240
Budden Trucking,3876 Hospers Drive North,Hospers,IA,51238,712-752-8205
Albertson Auto Sales,2748 Co Rd B16,Spillville,IA,52168,563-562-3237
Vomacka Trucking,200 West Street,Henderson,IA,51541,402-651-2133
Wilson Trucking,502 E Vine,Toledo,IA,52342,641-484-2977
Iowa Burial Service,15805 Crystal Ln,Council Bluffs,IA,51503,402-680-1669
Schinstock Trucking,1556 110th St,Salem,IA,52649,319-469-7981
Lawler Trucking,3238 State Ave,Des Moines,IA,50317,515-263-0755
Frantz Road Solutions,2691 Calaveras Lane,Muscatine,IA,52761,563-264-2073
"Nevada Transfer, Inc.",755 10th St,Nevada,IA,50201,515-382-6760
Deinken Trucking,207 3rd Ave Ne,Sioux Center,IA,51250,712-722-1954
Reed Trucking,3378 Schmickle Rd,Marion,IA,52302,319-443-7333
Dr Auto,119 S Ave B,Washington,IA,52353,319-653-7065
Lock Trucking,2378 St Hwy 148,Bedford,IA,50833,712-523-2997
Vetter Farms,2920 190th Ave,Calamus,IA,52729,319-843-2384
Concessions & Catering,228 Meryhill Dr,Cedar Falls,IA,50613,319-277-0751
Barber Trucking,107 North Polk,Linden,IA,50146,641-744-9012
Lappin Trucking,328 South Pine,Fremont,IA,52561,641-673-9274
Auto Lord,1414 Rockford Rd Sw,Cedar Rapids,IA,52404,319-365-6566
Robert Mayfield Trucking,414 1st Ave S E,Lemars,IA,51031,712-548-4233
N & B Transport,420 Catherine St,Oyens,IA,51048,712-548-4995
Schoen Trucking,13545 Diamond Ave,Akron,IA,51001,712-389-5025
Arduc Trans,901 Avenue Q,Carter Lake,IA,51510,712-347-6208
Russell Transportation,3577 Wirtz Lane,Keokuk,IA,52632,319-524-1353
Richard Hagedorn Trucking,4729 Hwy T12 North,Newton,IA,50208,641-792-5332
Forret Transport,6121 Nw 49th St,Johnston,IA,50131,515-224-8457
Dennhardt Trucking,1004 West Wall Street,Jefferson,IA,50129,515-386-2982
Harbison Salvage,Hwy 61 S,Morning Sun,IA,52640,319-394-3401
Big John Lard Trucking,6419 Western Avenue,Davenport,IA,52806,319-386-8648
Uts,112 Ewing Street Suite A,Grimes,IA,50111,515-986-3399
Dale Kirkpatrick Trucking,1807 Main Street,Hamburg,IA,51640,712-382-1345
Jensen Trucking,3444-135th Street,Charlotte,IA,52731,563-577-2427
Dutch Transport,203 N 16th Street,Marshalltown,IA,50158,641-752-2211
D & T Trucking,3329 190th St,Fort Madison,IA,52627,319-372-4746
R E Bosma Trucking,108 W Broadway,Leland,IA,50453,641-567-3467
High Street Transport,2467 Patriot Ave,Oskaloosa,IA,52577,818-519-0318
Terry Mc Vey Trucking,127 E Howard St,Colfax,IA,50054,515-674-0150
Melton Trucking,4942 U Avenue,Cherokee,IA,51012,712-229-9589
Mersman Trucking,1459 Irvin St,Sac City,IA,50583,641-864-2373
West Branch Trucking,3682 340th St,Boyden,IA,51234,712-439-2329
Ice House Trucking,1418 East Madison,Des Moines,IA,50313,515-299-9812
Eddy Bauer Specialized Courier Services,645 Arnold Ave,Council Bluffs,IA,51501,712-323-5044
Watterson Trucking,23677 K18 North,Westfield,IA,51062,712-568-2495
Balichek Trucking,2574 38th Street,Oxford Junction,IA,52323,563-826-2087
Lti,1247 Us 75 Ave,Rock Rapids,IA,51246,712-472-2628
Carpenter Trucking,307 E Prospect,New Hampton,IA,52403,641-394-6419
Gilbert Transport,33027 310th St,New Hartford,IA,50660,319-983-2528
Rj Delivery Poe Enterprises Delivery,1775 E Guthrie,Des Moines,IA,50316,515-262-9000
Ryan Trucking,1011 N 17th Street,Chariton,IA,50049,641-774-8655
M & D Trucking,715 - 10th Avenue S,Clinton,IA,52732,319-242-0157
B R Trucking,5088 Hwy 63,Montezuma,IA,50171,641-623-5928
T & B Auto Repair,5216 Sw 32nd Street,Daveport,IA,52802,319-326-6023
R & M Smith Trucking,202 E 5th,Alta,IA,51002,712-284-1268
J & K Trucking,614 Corning Ave,Des Moines,IA,50313,515-280-5370
Farrier Trucking,1911 Willow Ave,Ainsworth,IA,52201,319-657-3709
Schmitt Trucking,2295 Co Rd B32,Ft Atkinson,IA,52144,319-334-7071
Slick Trucking,1419 Kenwood Avenue,New Hampton,IA,50659,641-364-2045
"Ace's Trucking, Inc.",1115 21st Ave Apt 1,Rock Valley,IA,51247,712-476-9032
Dead End Trucking,4962 Front Ave,Saint Ansgar,IA,50472,641-326-2514
Gonnerman Trucking,3712 Hope Ave,Odebolt,IA,51458,712-675-4756
Kotto Trucking,31371 653rd Avenue,Maxwell,IA,50151,515-321-1588
C D Enterprises,207 Pine St,Massena,IA,50853,712-779-3601
Van Beek Trucking,5488 410th Street,Primghar,IA,51245,712-757-4671
R & R Trucking,2525 S W 80th Avenue Lot 146,Des Moines,IA,50321,515-285-1188
Gray Trucking,2608 Vail Avenue,Bedford,IA,50833,712-523-2365
Beam Trucking,434 Burton Street,Arion,IA,51520,712-674-3508
Byker Trucking,2053 460th Street,Ireton,IA,51027,712-278-2254
Cutkomp Trucking,2435 Vine Avenue,Ainsworth,IA,52201,319-863-3657
Cmr Trucking,2371 Shadow Ave,Charles City,IA,50616,641-228-2426
G & C Transport,3015 Lemon St,Dubuque,IA,52001,563-583-1053
J & J Transport,226 Washington St,Davenport,IA,52802,319-383-0852
Don Ferkel Trucking,1926 Zachary Ave,Blue Grass,IA,52726,319-381-2965
Boswell Trucking,504 Davenport,Shelby,IA,51570,712-544-2102
M Bauer Transportation,5565 Ne Berwick Dr,Berwick,IA,50032,515-266-5956
K & L Trucking,612 East Church Street,Deep River,IA,52222,641-595-4161
S & L Trucking,2225 Avery St,Norwalk,IA,50211,515-981-0645
Grimes Trucking,402 2nd Street,Little Sioux,IA,51545,712-649-2604
Julius Winter Trucking,23452 Highway D15,Iowa Falls,IA,50126,641-648-2192
Faas Trucking,1112 West Third,Vinton,IA,52349,319-472-3879
Scott Brehm Trucking,102 1/2 Walnut Street,Traer,IA,50675,319-472-5422
Krum Trucking,1615 West D Street,Vinton,IA,52349,319-361-6783
Harlan Gorter Trucking,3144 260th St,Doon,IA,51235,712-726-3525
Gumball Express,4213 43rd St,Des Moines,IA,50110,515-276-7179
Curt Scheffler Trucking,303 7th St,Harlan,IA,51537,712-755-2498
Ries Trucking,3462 200th Street,Elma,IA,50628,641-393-2456
Hogs Breath Trucking,2418 Payne Road,Des Moines,IA,50310,515-279-3452
Gibson Trucking,2778 Oak Crest Dr,Dubuque,IA,52001,042-142-7729
4 F Trucking,Rr1 Box 63,Bonaparte,IA,52620,319-796-4303
A & L Automotive,2120 277th St,Donnellson,IA,52625,319-835-9348
Lobdell Trucking,3888 And Half Hwy 22,Montpelier,IA,52759,563-349-0128
Outlaw Trucking,1016 26th Avenue,Council Bluffs,IA,51501,712-329-0797
Montgomery Trucking,404 8th Ave,Sibley,IA,51249,712-754-2640
Kma Transportation,381 Willard,Lime Springs,IA,52134,319-566-2315
Rick Hartman Trucking,311omaha Ave,College Springs,IA,51637,712-542-6865
M Burke Trucking,1512 Linda Lane,Harlan,IA,51537,712-755-5809
Manning Transportation,2003 Kennedy,Granger,IA,50109,515-999-9090
Mc Cormick Trucking,720 N 23,Council Bluffs,IA,51501,712-325-0035
"Fletcher Trucking, Inc.",208 Union,Diagonal,IA,50845,641-464-3548
Mh Distributing,801 Oakhill Drive,Humboldt,IA,50548,515-545-4712
B & A Tisor Trucking,536 Monroe,Ainsworth,IA,52201,319-657-2405
D & K Trucking,2319 E 38th Ct,Des Moines,IA,50317,515-266-1806
Ski Transport,2526 520th Ave,Melrose,IA,52569,641-726-3555
Bear Creek Auto Sales,1436 E 14th St,Des Moines,IA,50316,515-262-9525
Kennedy Trucking,2000 Dows St,Ely,IA,52227,319-848-4089
Kyger Truck Tire Center,641 31st Ave Sw,Cedar Rapids,IA,52404,319-362-4721
C & C Transport,1735 Cleveland Street,Carlisle,IA,50047,515-989-3800
C & D Miller Trucking,30517 Ridge Avenue,Parkersburg,IA,50665,319-983-2418
Matthes Trucking,3606 Hwy 9,Estherville,IA,51334,712-362-2662
Day Trucking,903 22nd Avenue,Council Bluffs,IA,51501,402-651-2633
"Erickson Transport, Inc.",108 W Division,Ogden,IA,50212,515-275-2929
Haupt Trucking,2210 Page Avenue,Clarion,IA,50525,515-532-2486
Goeser Trucking,406 2200 St,Earling,IA,51530,712-643-2196
Thompson Trucking,1537 Charles Ave,West Branch,IA,52358,319-643-2709
Qcsa,3601 So 1st Street,Eldridge,IA,52748,563-285-2100
Phil Fehrle Trucking,1961 Adams Union Avenue,Creston,IA,50801,641-782-6693
Aherns Trucking,1904 Ave F,Council Bluffs,IA,51501,402-215-9392
R L A Trucking,108 B Ave,Newhall,IA,52315,319-223-7415
Opperman Farms & Trucking,15264 190th Street,Hawkeye,IA,52147,563-427-4881
W-p Trucking,5112-1 280th St,Sheldon,IA,51201,712-324-3536
"Deran Transport, Inc.",P O Box 1362,Waterloo,IA,50704,319-233-3806
Putney Trucking,22685 Hwy 65,Lacona,IA,50139,641-466-3524
Gotta Be Truckin,1263 270th St,Coin,IA,51636,712-583-3406
Wilson Distributor Service,313 N Lee St,Mount Pleasant,IA,52641,319-385-9494
King Trucking,2425 80th St,Allerton,IA,50008,641-873-6875
Roger's Auto Repair,1605 Airport Rd,Shenandoah,IA,51601,712-246-2176
Black Dog Trucking,314 N 2nd,Klemme,IA,50449,641-587-2009
Venenga Trucking,403 Lincoln Ave,Holland,IA,50642,319-824-3975
C & D Express,509 West Ohio,Lenox,IA,50851,641-333-4490
Jones Trucking,122 Somers St,Dickens,IA,51333,712-836-2361
Jay Hausman Trucking,17453 245th St,Carroll,IA,51401,712-653-3139
R & K Trucking,515 South 4th,Washington,IA,52353,641-919-2296
R & J Norris Trucking,623 6th Street,Ainsworth,IA,52201,319-657-3961
Van Otterloo Trucking,308 2nd Ave So,Hospers,IA,51238,712-752-8918
Coldren Trucking,108 East Grand,Paullina,IA,51046,712-448-3726
Outdoor Services,405 High St,Dixon,IA,52745,563-843-3049
Fox Trucking,404 Wayne St,Corwith,IA,50430,515-583-2115
Pletcher Transfer & Storage,Po Box 206,Forest City,IA,50436,N/A
Price Truck Sales & Service,Hwy 150,Rowley,IA,52329,N/A
Sage Truck Lines,Gen Delivery,Lamont,IA,50650,N/A
Ulrichs Trucking,2854 March Ave,Greene,IA,50636,N/A
Strawhorn Transportation,1805 8th Ave,Belle Plaine,IA,52208,N/A
Bennett & Roth Trucking,9453 Glenmark Drive,Burlington,IA,52601,800-322-3942
"Adams Motors, Inc.",1930 E 13th Street,Ames,IA,50010,515-232-5048
"Red Oak Moving & Storage, Inc.",506 Market St,Red Oak,IA,51566,712-623-2434
Schueman Transfer,108 Freeman Avenue,Oakland,IA,51560,712-482-6612
Wambold Trucking,1559 250th St,Fontanelle,IA,50846,641-745-4031
H D Pforts Trucking,2574 Redwood Ave,Washington,IA,52353,319-653-2727
D M T,815 3rd St S E,Primghar,IA,51245,712-757-5305
R J Green Trucking,603 West Street,Lake View,IA,51450,712-657-2161
Kirchner Trucking,211 3rd Street,Gruver,IA,51344,712-362-3929
"Schoellerman Trucking, Inc.",2149 380th Street,Sioux Center,IA,51250,605-574-2293
Stieneke Trucking,115 Stanford,Washta,IA,51061,712-229-1443
Ver Steeg Transfer,604 2nd St Se #1,Orange City,IA,51041,712-737-4621
Tom Johnson,1330 Us Highway 34,Emerson,IA,51533,712-623-2420
Atlantic Agriland Fs,Rte 2 Box 82,Atlantic,IA,50022,N/A
Mccord Trucking,Hwy 183 South,Pisgah,IA,51564,712-456-2539
G T L Transportation Services,1200 Prairie Drive Sw,Bondurant,IA,50035,515-967-6684
Bob Johnson Trucking,804 South Main,Delmar,IA,52037,563-674-4635
Vernon Mackie Trucking,24001-235th St,Grundy Center,IA,50638,319-824-3232
Emhoff Trucking Co,1500 255th St,Sheffield,IA,50475,641-892-4965
G & M Truck Line,301 North East 3rd,Ogden,IA,50212,515-275-4178
Bork Truck Line,403 E 4th Street,Saint Ansgar,IA,50472,641-713-2106
"Oligmueller Trucking, Inc.",309 Fell St,Larchwood,IA,51241,605-425-2594
City Carton Recycling,3 E Benton St,Iowa City,IA,52240,319-351-2848
Merrill Davenport Trucking,2216 34th Street,Des Moines,IA,50310,515-255-7150
Jon Norton Trucking,1576 275th St,Salix,IA,51052,712-946-5419
Ferneau Trucking,2768 Zeller Ave,Marshalltown,IA,50158,641-479-2330
Fred Hoxsie Jr Trucking,126 3rd Ave Se,Le Mars,IA,51031,N/A
Onawa Truck Equipment,P O Box 192,Blencoe,IA,51523,712-423-1121
Harding Transport,117 N Elm,Cresco,IA,52136,319-547-5312
Pitz Trucking,501 3rd Street,Elma,IA,50628,641-393-2629
Watnem Farms,2023 190th St,Humboldt,IA,50548,515-332-3286
Werning Trucking,Route 1,Luzerne,IA,52257,319-444-2907
Gabeline Trucking,25900 205th Avenue,Yarmouth,IA,52660,319-868-7990
Iowa Grain Express,304 3rd Ave,Clarence,IA,52216,N/A
Southern Iowa Transportation Company,304 W Main Street,Seymour,IA,52590,641-898-7363
Stans Auto Service,901 River Drive,Sioux City,IA,51109,712-233-2410
Schiebout Tire Company,815 West 10th,Pella,IA,50219,641-628-3153
Davis Trucking,107 7th St,Prescott,IA,50859,641-335-2561
Schutjer Trucking,432 Way Ave,Woden,IA,50484,641-926-5547
John Thimmesch Trucking,Woodruff St,Aurora,IA,50607,319-634-3388
Roy's Motor Service,155 South 13th,West Des Moines,IA,50265,515-225-6088
Flynn Century Concrete Co,801 Kerper Court,Dubuque,IA,52001,563-583-6494
R & R Auto Recycler,2476 Ne Broadway,Des Moines,IA,50317,515-265-5903
Larry Devin Trucking,65657 550th St,Griswold,IA,51535,712-778-5150
"Floss Trucking, Inc.",6236 Douglas St,Dunkerton,IA,50626,319-822-2524
Hubka Trucking,20597 180th St,Cresco,IA,52136,563-569-8587
Charles Phelps Trucking,1509 Tormey St,Red Oak,IA,51566,712-623-6997
Kenneth L Menke Trucking,411 Richland Street,Ledyard,IA,50556,515-646-2730
Velky Truck Lines,3270 120th St Ne,Solon,IA,52333,319-848-4639
Lipper Trucking,711 Walnut Street,Montrose,IA,52639,319-463-5527
Paaschs Trucking,1128 Seventh St,De Witt,IA,52742,N/A
Taylor Refrigerated Express,16555 Dixon Drive,Honey Creek,IA,51542,712-545-3960
Pauls Trucking,Box 68,Lowden,IA,52255,N/A
Market Express,Broadway St Box 156,Barnes City,IA,50027,N/A
Alderson Trucking Co,P O Box 156,West Bend,IA,50597,N/A
Moudry Trucking,268 S Alta Ave,New Hampton,IA,50659,641-394-5289
K & K Trucking,11600 Hwy 22,Davenport,IA,52804,563-579-5912
Moore & Son Trucking,Route 1,Udell,IA,52593,N/A
M & S Transfer,1815 W 3rd Street,Davenport,IA,52802,319-323-6083
Bcm Express,915 Highway 76 South,Waukon,IA,52172,319-535-7230
Wayne J Miene Trucking,702 S Egbert,Monona,IA,52159,536-539-4486
"Quality Mat Co, Inc.",410 Rath Street,Waterloo,IA,50703,319-233-0833
Moser Trucking,R R 2,Guttenberg,IA,52052,319-252-1840
Tauke Transfer,25174 N Cascade Road,Cascade,IA,52033,563-852-3105
Doran Trucking,P O Box 70,Harlan,IA,51537,N/A
Farwell Trucking,3564 120th St,Preston,IA,52069,563-689-6249
Hobson Transfer,2551 280th St,Clarinda,IA,51632,712-582-3352
Horton Trucking,Rr 2 Box 48,Allerton,IA,50008,641-874-5759
Grosse Transfer,225 Parkwood Drive,Council Bluffs,IA,51503,712-366-1773
Anderson Livestock & Trucking,4524 Hwy 59 Box 124,Larrabee,IA,51029,712-437-2215
Rtc Ltd,34 Lakewood Villa,Council Bluffs,IA,51501,712-366-5039
Mc Clain Trucking,3109 240th Street,Charles City,IA,50616,641-228-7172
Wayne Howe Trucking,520-5th Avenue Nw,Waukon,IA,52172,563-568-4716
Shoppers Supply,2912 N Highway Blvd,Spencer,IA,51301,712-262-4583
Richland Truckline,705 Highway 78 E,Richland,IA,52585,319-456-8111
Caribe Express,4214 47th Street,Sioux City,IA,51108,712-239-5624
American Truck Trailer Midwest,260 29th Ave Box 988,Council Bluffs,IA,51501,712-323-3992
Vos Trucking,33823 340th Street,Kingsley,IA,51028,712-944-5110
B J W Trucking,707 Second Ave,Audubon,IA,50025,N/A
Rmr Trucking,17631 290th Street,Long Grove,IA,52756,319-285-6306
Bates Trucking,1018 1st Street,Spring Hill,IA,50125,515-961-8349
J R Trucking Co,Route 1 Box 104,Ridgeway,IA,52165,319-547-2591
B-t,1443 Industrial Road Southwest,Le Mars,IA,51031,712-546-8168
Frank Hammons Trucking,1011 West Summit Ave,Shenandoah,IA,51601,712-246-4179
Shultz Trucking,P O Box 98 C,Peterson,IA,51047,N/A
R D Mckinley Trucking,303 1/2 West Jackson Apt 4,Centerville,IA,52544,641-895-0938
Beck Metal Express,22926 Park Loop,Onawa,IA,51040,712-423-1203
Mike Kuhn Trucking,Rr 2,Schaller,IA,51053,712-275-4500
T J K Trucking,654 Adkins St,Prairie City,IA,50228,515-994-2989
Wilson Trucking,3412 9th Avenue,Council Bluffs,IA,51501,712-323-8485
Ghost Trucks,1375 Hoak Dr,West Des Moines,IA,50265,515-223-6609
Silver Creek Livestock Express,3106 Hwy 75 North,Sioux City,IA,51105,712-258-8601
"Truck Leasing, Inc.",4109 Delaware Ave,Des Moines,IA,50313,515-266-2611
Ranger Trucking Service,1134 South 32nd Street,Fort Dodge,IA,50501,515-576-2300
Van Houten Trucking,3353 275th St,Oto,IA,51044,712-323-6675
J L T Services,1408 Havens Rd,Des Moines,IA,50315,515-285-2120
Downing Construction,2404 Tamarack Drive,Decorah,IA,52101,563-387-0525
Pcs Express,741 Goether St,Dubuque,IA,52001,N/A
Wells Farms Ray,30301 Hwy T20,Cincinnati,IA,52549,641-658-2247
Clif Soper Trucking,18507 E 23 County Home Rd,Monticello,IA,52310,319-462-2897
"Humiston Grain Company, Inc.",18112 Highway 70,Conesville,IA,52739,319-728-3227
Betzel Transportation,P O Box 2142,Davenport,IA,52809,N/A
Brittain Trucking,238 Se 4th St,Ogden,IA,50212,515-275-2735
Muscatine Farm Equipment,3309 Lucas Street,Muscatine,IA,52761,563-264-3276
Wolfe Trucking Co,1503 E Locust,Algona,IA,50511,515-295-9224
Stastny's Auto Repair,2001 J St Sw,Cedar Rapids,IA,52404,319-363-5618
Hochstetler Hay Service,2463 Bittersweet Ave,Winterset,IA,50273,515-462-3854
Whitecotton Trucking,General Delivery,Bagley,IA,50026,N/A
Dakota Distributing,Po Box 326,Humboldt,IA,50548,515-332-1717
E J K Trucking,R R 2 Box 11,Tama,IA,52339,641-484-2403
Ahlers Trucking,4471 470th St,Granville,IA,51022,712-727-3350
Arbegast Trucking,316 3rd Ave,Arthur,IA,51431,712-367-2365
Truck And Livestock Concepts,R R 2 Box 111a,Tipton,IA,52772,319-886-3144
Erion Freight System,1798 210th St,New Hampton,IA,50659,641-394-5444
Fonley Livestock Hauling,2885 Asherton Ave,Nashua,IA,50658,641-435-2643
Gebers Trucking,508 N Main St,Holstein,IA,51025,712-368-2179
Hawkeye Truck Leasing,2600 W 76th St,Davenport,IA,52806,319-323-9743
Ed Megrath Trucking,106 West Oak Street,Milton,IA,52570,641-656-4268
Gordon B Howe Trucking,30509 Butler Center Rd,Shell Rock,IA,50670,319-231-1445
Hurtig Trucking,205 N Bunce Ave,Calumet,IA,51009,712-446-2478
Ron Lettow Trucking,Hwy 65 S,Iowa Falls,IA,50126,641-648-2801
Robinson Trucking,Rr1,Hornick,IA,51026,N/A
Lrb Trucking,806 W Montgomery,Knoxville,IA,50138,641-828-7464
Thorco,5613 Hwy 117 South,Colfax,IA,50054,518-865-4473
Double R Transport,Rural Route 1,Council Bluffs,IA,51501,712-366-4713
Western Iowa Diesel,411 Railroad Ave,Mc Clelland,IA,51548,712-566-2891
Virgil Johnson Trucking,1216 William Lane,Waukon,IA,52172,563-568-2262
Harold's Trailer Wash And Shagging Service,1190 Rosevelt Ext,Dubuque,IA,52003,319-582-7500
Graeve Trucking,2341 Hackberry Rd,Defiance,IA,51527,712-747-6381
Dickson Service,4601 South Ridge Road,Sioux City,IA,51106,712-943-4381
Gabes Trucking,24142-330th St,Lamotte,IA,52054,563-773-2266
Valley Auto Transport,1230 Marion Airport Road,Marion,IA,52302,319-854-6517
Rasmussen Trucking,1891 Washington Ave,Goldfield,IA,50542,515-825-3156
Larry's Wrecker & Crane Service,676 12th St Se,Mason City,IA,50401,641-424-4372
V And B Trucking,2126 W 30th St,Davenport,IA,52804,319-391-7943
"R M Distributing Co, Inc.",2915 W 73rd Street,Davenport,IA,52806,563-391-8424
Miraco,1000 Ferguson Road,Grinnell,IA,50112,641-236-5822
Bradleys Distributing,1025 12th Avenue #5,Rock Valley,IA,51247,712-476-5654
Miller Trucking,Rr 1 Box 214,Shell Rock,IA,50670,319-885-4879
Moore Truck Line,2143 Taylor Road,Oxford Junction,IA,52323,319-452-3236
Gary Mines Trucking,4800 N E 30th Street,Des Moines,IA,50317,515-266-5550
Dmp Enterprises,23109 330th St,Adel,IA,50003,515-834-2052
Knisley Trucking,7085 Se Bloomfield Rd #76,Des Moines,IA,50320,515-961-4018
Wellman Trucking,1494 265th Ave,West Point,IA,52656,319-837-6207
Jim's Trucking,Highway 52 South,Guttenberg,IA,52052,319-252-1270
Roger Peter Trucking,1873 320th St,Stanhope,IA,50246,515-826-3684
Express Parts,100 E 5th Street,Waterloo,IA,50703,319-234-3414
Aspen Delivery,6732 Cresthill Dr,Davenport,IA,52806,563-445-1723
Swanson Trucking,14623 355th St,Forest City,IA,50436,641-581-3422
"Four Seasons Homes, Inc.",300 Se Oralabor Rd,Ankeny,IA,50021,515-964-2881
Hammond Trucking,122 Third Street,Ringsted,IA,50578,712-866-0609
Merchant Contracting,1582 120th St,Sioux City,IA,51108,712-239-4659
Kevin J Myers Trucking,2300 Military Rd,Sioux City,IA,51103,712-255-7134
Hines Trucking,2655 S Benjamin Ave,Mason City,IA,50401,641-423-3557
Farmers Feed Service,718 Highway Road,Carson,IA,51525,712-484-3801
Vinton Auto,2293 58th St,Vinton,IA,52349,319-472-4022
Readlyn Farm Automation,418 1st Street East,Readlyn,IA,50668,319-279-3332
Magnussen Trucking,R R 2,Newell,IA,50568,712-272-4333
Casey's,1242 440th Ave,Malcolm,IA,50157,641-528-3535
Liberty Transportation,15980 106th Avenue,Davenport,IA,52804,563-381-1683
Scott Trucking,3914 195th St,Shenandoah,IA,51601,712-385-8151
Pope Livestock Transportation,1098 290th Street,Kiron,IA,51448,712-675-4600
Double O Trucking,5246 Hwy 9,Sibley,IA,51249,712-490-0778
Schmidt Trucking,217 Jackson,Cumberland,IA,50843,712-774-5711
Fantasy Auto,Highway 18,Rock Valley,IA,51247,712-476-2090
Schnuelle Transportation,106 Hammer St,Castalia,IA,52133,563-567-8253
Jeff Smid Auto,10330 Hwy 65 N,Iowa Falls,IA,50126,641-648-2375
Dohlman Trucking,R R 2,Riceville,IA,50466,641-985-2383
Tri State Engine Service,6125 Valley Dr,Bettendorf,IA,52722,563-332-6684
Gail Braathen Trucking,3325 Hubbell Avenue Lot 77,Des Moines,IA,50317,515-266-8114
Conner Trucking,31501 Marh Ave,Malvern,IA,51551,712-624-8835
Larry Tenner Trucking,601 West Michigan,Lenox,IA,50851,N/A
Schwab Trucking,Rr 1,Belle Plaine,IA,52208,319-444-3389
Buddenberg Trucking,101 Merrll Road,Castalia,IA,52133,319-567-8454
Mcgee Trucking,1805 730 Ave,Albia,IA,52531,641-932-2533
Millstone Transport,1885 Vizaleea Dr,Dubuque,IA,52002,N/A
Coffman Trucking,722 Commercial Street,La Porte City,IA,50651,319-342-2757
Joe Seiter,1410 A Avenue N E,Cedar Rapids,IA,52402,319-362-5172
North Iowa Truck & Tractor,Rural Route,Floyd,IA,50435,641-398-2338
J P Luna Trucking,419 E State Apt 1,Mason City,IA,50401,641-210-2732
Less Stress Express,4471 Redwing Ave,Paulina,IA,51046,712-448-2859
Christensen Farm,1737 Maple Road,Defiance,IA,51527,712-627-4602
Gene's Auto,2409 Buffalo Creek Boulevard,Winthrop,IA,50682,319-935-3086
Dave's Trucking,508 E Washington Street,Exira,IA,50076,712-268-2304
S Bar D Trucking,203 Hampton St,Rudd,IA,50471,641-395-2998
Dean Troutman,808 Division Street,Keosauqua,IA,52565,319-750-2947
V & G Express,4027 15th Street,Des Moines,IA,50313,515-244-6439
Jolor Trucking Ltd,5324 320th St,Sanborn,IA,51248,712-729-3848
Thomas Trucking,R R 1,Crescent,IA,51526,712-323-6565
Preowned Auto Sales,1528 Ave E,Council Bluffs,IA,51501,712-322-4382
John Krumm Trucking,2113 6th Ave,Grinnell,IA,50112,641-236-6066
Midwest Related Food Products,5005 C St Sw,Cedar Rapids,IA,52404,319-362-9633
Hydro-klean,333 Nw 49th Place,Des Moines,IA,50313,515-283-0500
K & K Express,124 West Willis,Perry,IA,50220,515-465-5304
Riedemann Transport,429 North Main,Paullina,IA,51046,712-448-3763
J P Trucking,1560 Hickory Avenue,New Hampton,IA,50659,515-462-1699
Leroy Fischer Trucking,423 East 4th St,Kingsley,IA,51028,712-378-3230
Double D Trucking,8547 172nd St,Muscatine,IA,52761,319-263-0503
Shrago Auto Parts,609 Rupp Road,Sidney,IA,51652,712-374-2265
Kjose Trucking,48044 310th St,Akron,IA,51001,605-565-2280
Hinds Trucking,Rt 1 Box 52a,Garden Grove,IA,50103,641-446-4394
Shamrock Express,406 Amsterdam Dr,Orange City,IA,51041,712-737-4406
Ranney Trucking,310 Spruce St,Massena,IA,50853,712-243-4392
L B Trucking,703 South Second Street,Fairfield,IA,52556,641-472-9639
P & P Trucking,7171 West 60th St,Davenport,IA,52804,N/A
J & J Pool Spa & Billiards,2600 Dodge St,Dubuque,IA,52003,563-582-6745
Timothy Mowery Trucking,308 Oakland Ave,Oakland,IA,51560,712-347-5714
Hansen Hauling,201 N Cottage Street,Exira,IA,50076,712-268-2627
Dennis Dirks Trucking,802 Black Hawk,Reinbeck,IA,50669,N/A
Diamond F Express,1644 County Home Road,Sioux City,IA,51106,712-943-6384
Priority Express,3915 Delaware Ave,Des Moines,IA,50313,515-564-1400
Hansmeier Truck & Trailer,1620 Old Hwy 9,Waukon,IA,52172,563-568-4623
James Auto Sales,805 South Locust,Glenwood,IA,51534,712-527-4352
Certified Fleet Service,1707 Broadway,Red Oak,IA,51566,712-623-5134
Boles Auto Sales,2249 Hwy 34,Mount Pleasant,IA,52641,800-859-5518
G & G Trucking,Rt #1 Box 211,Sanborn,IA,51248,712-729-3773
R H Transport,719 9th St,Somers,IA,50586,N/A
White Horse Transportation,Rr 1 Box 91,Bonaparte,IA,52620,N/A
Gil Gau Trucking,31283 Forrest Rd,Hinton,IA,51024,712-239-3591
R & J Ltd,1424 210th St,Gladbrook,IA,50635,641-473-2011
Quality Plus Seed Stock Service,21 1/2 Ply St Nw,Le Mars,IA,51031,800-345-0536
D & K Trucking,8796 160th Street,Davenport,IA,52804,319-381-4136
D & S Trucking,2346 260th Ave,De Witt,IA,52742,319-659-2498
"Roger's Backhoe Service, Inc.",2110 Stewart Road,Muscatine,IA,52761,319-263-8417
Sanders Trucking,24159 180 Street,Bettendorf,IA,52722,319-332-5389
Tollakson Trucking,108 W 1st St,Everly,IA,51338,712-260-3841
Blevins Trucking,7306 N Pine,Davenport,IA,52806,356-391-8419
Paul Trei Trucking,548 Ashton Ave,Ashton,IA,51232,712-724-6541
Van Wyhe Trucking,1970 480th,Ireton,IA,51027,712-278-1970
R & T Trucking,2802 Ester Ave,Odebolt,IA,51458,N/A
G & K Trucking,3rd Ave Box 2,Jamaica,IA,50128,N/A
R & N Trucking,Rr 1 Box 152,Dawson,IA,50066,N/A
Moore Transfer,16165 300th Street,Treynor,IA,51575,712-487-3666
Grote Trucking,5609 Nw 112th Pl,Grimes,IA,50111,515-986-4233
Ldl Trucking,704 410th Street,Swea City,IA,50590,515-272-4782
Larson Backhoe Service,R Rt 1 Box 173g,Honey Creek,IA,51542,712-545-3430
Yetman Trucking,Rt 1,Underwood,IA,51576,712-566-2668
Donovan Trucking,2775 State Hwy 9,Ridgeway,IA,52165,563-737-2756
R And S Trucking,11003 650th St,Storm Lake,IA,50588,N/A
Selective Petfood Services,101 Virginia St,Sioux City,IA,51101,712-255-2545
G & J Trucking,704 Jackson Ave,Farragut,IA,51639,712-385-8576
Schaefer Trucking,507 W Howard,Creston,IA,50801,515-991-3046
K Specialties,Rr 2 Box 34a,West Branch,IA,52358,N/A
Kunkel Trucking,2735 Central Ave #2,Dubuque,IA,52004,319-557-9644
Hesse Trucking,30 N 6th St #9,Council Bluffs,IA,51503,712-323-5479
Wings Transport,3347 280th Street,Redfield,IA,50233,515-490-3280
D-k Enterprises,1922 State Hwy 38,Machester,IA,52057,563-927-2403
Don Ross Trucking,3174 N Ave,Adel,IA,50003,515-993-5247
Woodford Express,615 Oak Street,Kamrar,IA,50132,515-539-4255
Bleil Trucking,41765 C66,Kingsley,IA,51028,712-378-2659
Verns Auto Service,616 Garfield,Story City,IA,50248,515-733-4531
Hickman Repair,608 Argyle St,Hamburg,IA,51640,712-382-1066
South Prairie Transportation,21223 110th Ave,Plano,IA,52581,515-201-9639
Rosebud Express,Rural Route 1,Osage,IA,50461,641-732-4494
Kenneth Stanton Trucking,209 N Main,Monticello,IA,52310,319-465-5496
Genesis Specialized Carriers,420 South Tama,Manchester,IA,52057,N/A
Teater Auto & Salvage,Rr #1,Moulton,IA,52572,641-642-3634
Jak Boys Trucking,3174 240th St,Clutier,IA,52217,319-479-2726
Kramer Trucking,2136 Petrie Rd,Waterloo,IA,50701,319-988-3286
Garry L Barrett Trucking,845 Jefferson Road,Waukon,IA,52172,319-535-7608
Paris Transportation Services,958 Mallard,Boone,IA,50036,515-230-0212
Anderson Trucking,330 Central Ave West,Clarion,IA,50525,515-532-6418
Jerry Davis Trucking,1510 Bent St,Bedford,IA,50833,712-523-3105
B S R Trucking,2218 Suzanne Dr,Dubuque,IA,52002,319-773-2643
W & T Enterprises,1207 410th Ave,Malcolm,IA,50157,800-735-7910
Walker Trucking,712 North Alice,Sioux City,IA,51105,712-255-0309
Terry George Trucking,1742 Quebec Ave,Hardy,IA,50545,515-332-9045
Bauer Transportation,1875 Ne 70th Ave,Ankeny,IA,50021,515-289-1022
Dtw,420 N 3 Ave West,Hartley,IA,51346,712-928-2261
Mike Oleson Transportation,703 Akir Street South,Latimer,IA,50452,641-579-6453
Sailer Trucking,2535 V Avenue,Waukee,IA,50263,N/A
James Point Trucking,206 N 11th St,Sac City,IA,50583,N/A
Brian M Eilderts Trucking,23094 150th Street,Parkersburg,IA,50665,319-346-1143
"Jones Tire Service, Inc.",13529 110th Avenue,Davenport,IA,52804,563-381-1188
Bill Overton Trucking,Rr 2 Box 259,Osceola,IA,50213,641-342-6761
Agrico Transportation,220 West St,Postville,IA,52162,319-864-7261
Nelsens Trucking,1609 Vinewood Ln Ne,Cedar Rapids,IA,52402,319-363-3885
Mccarty Trucking,1643 Garfield Ave,Rock Rapids,IA,51246,712-472-3232
Blj Trucking,3418 6th Avenue,Des Moines,IA,50313,N/A
Premier Linen & Uniform Rental,461 West 9th Street,Dubuque,IA,52001,563-583-9153
Koestner Trucking,3397 170th St,Duncombe,IA,50532,515-543-8396
Darrell Loving Trucking,211 South Street,Richland,IA,52585,319-456-6606
John Utter Trucking,3301 Pleasant,West Des Moines,IA,50266,515-224-9387
"Thorsen Trucking, Inc.",Box 64,Mc Intire,IA,50455,641-985-2135
Schultz Trucking,18742 Hanover Lane,Council Bluffs,IA,51503,712-323-7288
David Stone Trucking,2851 104th St Suite A,Des Moines,IA,50322,N/A
"Riverside Truck Sales & Service, Inc.",2160 W River Drive,Davenport,IA,52802,319-323-9743
James R Petersen Trucking,1722 265th St,Calamus,IA,52729,319-246-2386
L & J Steffy Trucking,103 Dublichen Drive North,St Donatus,IA,52071,563-773-8629
Baclet Trucking,26860 169th Ave,Long Grove,IA,52756,319-285-7859
D & D Trucking,2635 Hwy 22,Riverside,IA,52327,319-648-5106
Martin Farms Trucking,2050 Utah Avenue,Goldfield,IA,50542,515-825-3347
