Company Name,Street Address,Address Locality,Address Region,Postal Code,Telephone
Jtc Trucking,456 Judge Williams Dr,Salyersville,KY,41465,606-474-8854
Am Trucking,225 Cedar Top Church Rd,Edmonton,KY,42129,270-565-2052
Eddies Bs,4610 Schuff Ave,Louisville,KY,40213,502-889-8720
Brandenburg Trucking,75 Little Puncheon Rd,Beattyville,KY,41311,606-560-8310
Double J Trucking,1688 Duncan Trl,Dexter,KY,42036,270-759-9089
Kentucky Breaktime Services,6471 Athens Boonesboro Rd,Lexington,KY,40509,859-265-4852
J & J Huffman Trucking,4821 Ebenezer Road,Greensburg,KY,42743,270-405-6025
Lawson Trucking,Hwy 221,Kettle Island,KY,40958,606-337-2038
Flaming Feather Horse Transportation,2846 Lagrange Road,Shelbyville,KY,40065,502-321-0493
Milisic Transportation,2722 Surfside Dr,Villa Hills,KY,41017,859-466-7211
Mmlj Trucking LLC,9432 Us Hwy 62 West,Graham,KY,42344,270-338-5098
Lawson Trucking,1150 Buchanan,Campton,KY,41301,606-668-6731
Jdw Transportation,826 6th Ave,Dayton,KY,41074,859-992-6202
Duct Truck,4800 Strawberry Lane,Louisville,KY,40209,502-364-6050
Turners Trucking,2411 Old Franklin Rd,Scottsville,KY,42164,270-622-1343
Arrowhead Wireline Services,35 Bentley Avenue,Whitesburg,KY,41858,606-633-5727
Pool Party Express,3502 Frankfort Ave,Louisville,KY,40207,502-893-6600
Double Eagle Services,1001,Burlington,KY,41005,859-640-0236
Mast Transport Express LLC,1644 Wilson Farm Road,Marion,KY,42064,270-969-0091
River Front Transport,Route 378 Middle Fork Rd,Salyersville,KY,41465,606-349-4533
Jeremy Hatfield Trucking,136 Hatfield Gap Road,Frakes,KY,40940,606-786-7300
Rw Trucking,4990 Windy Hollow Rd,Owensboro,KY,42301,270-785-2550
Eagle Express,413 Courchelle Dr,Nicholasville,KY,40356,916-412-7814
Idk Transportation,2194 Goshen Road,Stanford,KY,40484,606-365-8000
L & L Transport,150 Amos Baker Rd,Mckee,KY,40447,606-287-8417
Tony Caldwell Trucking,Hc 69 Box 494,Pineville,KY,40977,606-337-0709
Snapp Sanitation Service,1717 Kelley Pike,Flemingsburg,KY,41041,606-267-2031
Sexton Trucking,1165 Bird Rd,Magnolia,KY,42757,800-834-1259
Hisel Trucking,550 Ky Kwy 2004,Mckee,KY,40447,859-358-4049
A2z Auto Transports,708 Woodward Lane,Lexington,KY,40509,859-263-7168
Cbs Trucking,104 Drane Ave,Glasgow,KY,42141,270-651-3292
Ace,4325 Louisville Rd,Frankfort,KY,40601,502-382-7735
West Trucking,1913 Meadowcreek Drive,Louisville,KY,40218,502-458-3771
Sdc Trucking,12 Maple Ridge,Pikeville,KY,41501,606-432-8012
Rockin V Truckin,116 Goodhope Road,Eubank,KY,42567,606-875-8981
T J 's Marine & Atv Repair,2588 Hwy 90,Bronston,KY,42518,606-425-5234
A & L Finley Trucking,2735 Center Pt Rd,Tompkinsville,KY,42167,270-427-9336
M & H Transportation,3425 St Rt 80 W,Mayfield,KY,42066,270-703-3977
Go Green Trucking,310 Cherry Street,Horse Cave,KY,42749,270-786-3944
Dry Fork Top Shop,12307 Roseville Rd,Glasgow,KY,42141,270-590-9269
F C Trucking,8720 Linn Station Road,Louisville,KY,40222,678-770-5280
Carney Trucking,711 Reservoir Lane,Springfield,KY,40069,859-336-0359
Hill Transport,16751 Bluff City Road,Henderson,KY,42420,270-869-4645
Hearn Transportation,17101 Mallet Hill Drive,Louisville,KY,40245,502-690-0727
In ' N Out Ii Portable Restroom Service,8244 Lagrange Road,Smithfield,KY,40068,502-225-0222
Express Sales Company,8307 State Route 81 South,Island,KY,42350,270-736-9018
Crawley Automotive,351 Crawley Road,Burkesville,KY,42717,270-433-9502
Big M Auto Transport,3826 Chaplin Rd,Willisburg,KY,40078,606-560-0740
T An J Transport,253 Middleberg Street,Liberty,KY,42539,606-303-4385
Bread Distributing,2833 Adams Avenue,Ashland,KY,41102,606-393-5757
Womack Cattle Transport,2685 Elmo Road,Pembroke,KY,42266,270-439-4799
Deming Trucking,533 Middle Fork,Hagerhill,KY,41222,606-297-5519
Culinary Standards,1101 E Washington St,Lousville,KY,40206,502-587-8877
Dkd Transport,60 Wallace Avenue,Cadiz,KY,42211,270-522-3820
"Mcguire Trucking, Inc.",7880 Oil Well Road,Glasgow,KY,42141,270-646-0026
Chris C Porter Trucking,4959 St Hwy 174,Olive Hill,KY,41164,606-286-4786
L S & T Hauling,765 Left Fork Hicks Branch Rd,Cornettsville,KY,41731,606-675-3604
Mr B's Transport,6065 Hwy 15,Whitesburg,KY,41858,606-335-0744
Smith Trucking,84 E Meadow Creek,Campbellsville,KY,42718,270-469-5950
D & P Coffey's Trucking LLC,1281 Old Montpelier Road,Columbia,KY,42728,270-566-2841
J L Express,3580 Stewart Ridge Road,Jonesville,KY,41052,502-484-0200
Millan Trucking,2072 Hudson Rd,Fulton,KY,42041,270-970-2485
Hurst Auto & Diesel,5152 Us 60 West,Marion,KY,42064,270-871-7969
Lonesome Transport,943 Ky 910,Liberty,KY,42539,606-706-6892
Clyger Transport,465 Meades Branch Road,Louisa,KY,41143,304-648-7118
Dobo's Service Station,67 E Hwy 8,Vanceburg,KY,41179,606-796-2232
County Auto Outlet,121 Flemingsburg Rd,Morehead,KY,40351,606-780-0227
Nky Dairy Distributing LLC,39 Mulloy Lane,Butler,KY,41006,859-991-9762
Richardson Trucking,2938 E Leestown Rd,Midway,KY,40347,518-365-8995
Real Deal Truck & Auto Sales,6254 N Us Hwy 25e,Gray,KY,40734,606-523-0762
Jt Transport,818 West 1st Street,Morehead,KY,40351,606-748-3659
Boland Trucking,598 Greer Lane,Bardstown,KY,40004,502-350-4217
Bluegrass Transport,1137 B Goodin Creek Rd,Barbourville,KY,40906,606-545-7690
Motor Carrier,644 Independence Dr,Radcliff,KY,40160,270-319-2228
Rick Chappell Movers,685 Waitsboro Road,Bronston,KY,42518,606-872-5555
Jones Transport,10953 East Highway 221,Bledsoe,KY,40810,606-558-3110
Robinson Trucking,65 J Jones Spur Road,Russell Springs,KY,42642,N/A
Clifton Trucking,1562 Spence Chapel Rd,Mayfield,KY,42066,270-247-9768
J&j Trucking,105 Young Dr,Stanford,KY,40484,606-346-4616
Rock Solid Express,2288 Callant Road,Independence,KY,41051,859-760-6749
Roe Trucking,3484 Hwy 1569,Wellington,KY,40387,606-768-3850
Bryan Uzzle's Trucking,80 Wolcut Ln,Central City,KY,42330,270-543-8640
Young Trucking,213 East Blanton Street,Owenton,KY,40359,502-514-1522
Gravette Trucking,935 Central Pike,Harrodsburg,KY,40330,520-490-2418
Krogman Distributions,10343 Trent Ct,Independence,KY,41051,859-359-5026
S F Transport,2151 Upper Johns Creek Road,Kimper,KY,41539,606-422-6523
Sales Trucking,2271 East Ky 8,Vancberg,KY,41179,606-541-0090
Brooklawn Child And Family Services,2125 Goldsmith Lane,Louisville,KY,40218,502-451-5177
N2 Trucking,303 W Main St,Vine Grove,KY,40175,877-779-8963
Pierce's Trucking,923 Bloyds Bluff Rd,Mount Sherman,KY,42764,270-932-5801
East Kentucky Auto Recovery,804 Owl Branch Road,Jenkins,KY,41537,606-637-6087
M P M Trucking,4101 Old Burning Fork Road,Salyersville,KY,41465,606-831-4258
Gw Trucking,724 Nashville Street,Russellville,KY,42276,270-893-8063
Bohon Valley Trucking,2620 Bohon Rd,Harrodsburg,KY,40330,859-734-9345
Greg Rice Trucking,31 Conley Drive,Van Lear,KY,41265,606-789-1626
Gdm Trucking,4895 Petersburg Rd,Petersburg,KY,41080,859-630-5212
Saddle Up N Go Transport,150 B.f. Brown Rd,Magnolia,KY,42757,127-031-7733
C&w Transport,8635 Ky Hwy 643,Craborchard,KY,40419,606-355-0461
Barclay Productions,1309 Dogwood Drive,Mayfield,KY,42066,270-247-8054
Llt Trucking,483 Webb Lane,Taylorsville,KY,40071,502-354-0363
M & M Transport,870 Campbellsville Road,Greensburg,KY,42743,270-789-4494
Rowe Truckig,521 N. 4th Street,Flatwoods,KY,41139,606-232-7207
Duncan's Auto Parts,256 Morris Road,Dexter,KY,42036,270-474-9810
Fortner Trucking LLC,4786 Windy Hollow Road,Owensboro,KY,42301,270-302-0880
J Burke Trucking,2385 Raccoon Road,Raccoon,KY,41557,606-454-0181
River City Fast Freight,206 Paul Sawyier Dr.,Frankfort,KY,40601,502-352-2437
Robinson Trucking,564 Fairfield Drive,Lexington,KY,40503,859-420-5653
Riddles Lawn Care,1845 Sg Scottsville Rd,Smiths Grove,KY,42171,270-438-6471
D & J Trucking,1187 Virden Ridge Rd,Clay City,KY,40312,859-749-2935
Ji Express,1729 Robinson Creek Rd,Lily,KY,40740,606-280-7863
Russell Trucking,1077 Spurlock Lane,Nicholasville,KY,40356,859-273-4291
Sonny's Delivery Service,5617 Landcross Drive,Louisville,KY,40216,502-718-5954
James Trucking,76 Kenlee,Bedford,KY,40006,812-701-8884
Donnie Transport,11943 S Hwy 421,Manchester,KY,40962,606-596-0511
Abshire Trucking,1295 St Hwy 194 West,Pikeville,KY,41501,606-631-3668
"Southern Services, Inc.",10665 North Highway 27,Eubank,KY,42567,606-379-0125
"Car Haulers R Us, Inc.",105 Alder Drive,Bardstown,KY,40004,502-510-2036
Cjs Transportation,4936 E Hwy 60,Owingsville,KY,40360,606-674-6554
Proffitt Auto Sales,204 Vine St,Tompkinsville,KY,42167,270-487-0809
Chris Elliott Distributing,823 Bluegrass Court,Villa Hills,KY,41017,N/A
Willie Mcdaniel Transport,81 Greenway Rd,Stanton,KY,40380,859-749-1859
Triple R Transport,183 Oakley Drive,Flemingsburg,KY,41041,606-845-5312
Scotty Stamps,428 Turkey Run Drive,Bowling Green,KY,42101,270-843-5833
Roberts Transport,2982 Peden Mill Road,Franklin,KY,42134,270-598-9848
Spencer Ray Express,3940 Gratz Rd,Owenton,KY,40359,513-349-6607
Matt Kidd Trucking,1833 Cal Hill Road,Pine Knot,KY,42635,606-310-0052
Js Transport,10649 Taylormill Rd,Independence,KY,41051,859-630-9764
Snyders Trucking,728 Wyatt Rd,London,KY,40744,606-682-6188
Brightstar Transportation,85 Maple Ave,Eminence,KY,40019,502-667-2810
Carr Trucking,147 Carr Road,Rockholds,KY,40759,606-549-1137
Fin Transport,5911 Six Mile Lane,Louisville,KY,40218,859-992-0782
Turner's Transport,2126 West Ormsby Ave,Louisville,KY,40210,502-489-7640
Bunch Services,9623 State Route 80 West,Mayfield,KY,42066,270-331-2746
Dollar Plus Wholesale,8070 Main Street,Jeffesonville,KY,40337,859-499-4122
Yancey Trucking,127 Perry Road,Sterns,KY,42647,606-376-5853
Brock's Transport,119 Valley Court,Perryville,KY,40468,859-319-8811
Maples Trucking,105 Carpenter Rd,Hustonville,KY,40437,606-669-2398
Shelby Valley Auto Sales,931 Little Creek Road,Pikeville,KY,41501,606-639-4554
Funk Transport,40 Owlhead Lane,Wellington,KY,40387,606-768-2587
Caudill Trucking,400 Lacey Creek Rd,Salyersville,KY,41465,606-349-8883
Cornett's Lawnservice,322 Djeddah,Lawrenceburg,KY,40342,502-598-8130
Keith Express,4521 Mccormick Road,Mount Sterling,KY,40353,859-585-3923
Parks Trucking,2102 Myron Cory Drive,Hickman,KY,42050,270-236-3456
Jason's Hauling,1769 Ky Rt 2381,Van Lear,KY,41265,606-789-3408
Msc Trucking,3007 State Road 56 West,Dixon,KY,42409,270-639-5413
Tumbleweed Trucking,107 Right Fork Rockhouse,Elkhorn City,KY,41522,606-754-8162
Ron Sorina & Sons Transportation,104c Hayden Dr Bldg C,Eddyville,KY,42038,270-963-6056
Kentucky Oaks Transport LLC,3430 Stanley Rd,Paducah,KY,42001,270-442-0021
Indian Mountain Express,940 Blackoak Rd,Williamsburg,KY,40769,423-912-7474
Kg Transport,241 West St,Brodhead,KY,40409,405-283-0698
Claycomb Express,327 Steven Drive,Shepherdsville,KY,40165,502-921-2351
Last Chance Trucking,573 Cheroke Creek Rd,Hi Hat,KY,41636,606-791-1204
T R Malone Transportation,306 Commerce Street,Maysville,KY,41056,606-407-2842
Talott & Associates Constructions Services,2102 S Hwy 127,Albany,KY,42602,606-306-4378
C B Transport,10244 Falls Of Rough Rd,Falls Of Rough,KY,40119,270-879-4315
Double D Trucking,1155 Smith Ave,Paducah,KY,42003,270-556-1571
Tjc Trucking,65 South Riverview Lane,Prestonsburg,KY,41653,606-886-7237
"D L Richie Trucking, Inc.",792 New Road,Waynesburg,KY,40489,606-669-1220
Double W Transport,3310 Laton Turner,Upton,KY,42784,270-531-2349
Hippies,1211 South 4th,Paducah,KY,42002,270-898-8940
Ernie Albertson Trucking,985 Huntersville Road,Albany,KY,42602,606-387-7035
Bells Auto Sales,381 Cliff Hill Road,Sharon Grove,KY,42280,270-277-4534
Louisville Pods,2214 Us 41 North,Henderson,KY,42420,270-827-4636
J & G Trucking,801 Powell Hollow,Hitchins,KY,41146,606-474-8854
B&e Transport,139 Right Fk Of Beaver,Elkhorn City,KY,41522,606-213-7225
Horns Trucking,235 Smyth Lane,Ravenna,KY,40472,606-723-6483
Turner Trucking,935 Peoples Rd,Dry Ridge,KY,41035,859-429-2019
Twin B Auto,2211 Goldsmith Ln,Louisville,KY,40218,502-243-0633
John N Mardi Trucking,390 Barnhill Rd,Franklin,KY,42134,270-586-7506
Tmt Trucking,1863 St Hwy 209,Olive Hill,KY,41164,606-286-6351
Brannon's Hauling,9840 State Route 339 North,Melber,KY,42069,270-674-5696
Foister Trucking,150 Lily Rd,London,KY,40744,606-878-1713
Fed,2971 Walton Road,Hebron,KY,41048,859-801-6720
Bart Cobb Trucking,18135 Hwy 190,Frakes,KY,40940,606-269-4324
Enterprise Commerical Trucks,3718 Bardstown Road,Louisville,KY,40218,502-458-3100
Joe Hedge Trucking,State Highway 1025 Ruby Lane,Olive Hill,KY,41164,606-285-8255
B & R Trucking,574 Rocky Hill School Rd,Smiths Grove,KY,42171,270-246-0599
J Silvers Trucking,120 Park Ave,Somerset,KY,42501,606-271-0028
Wynn Transport,205 Dowis Chapel Rd,Woodbine,KY,40701,606-523-5566
Darnell & Sons Trucking Co,585 Big Card Rd,Mouthcard,KY,41548,606-835-2732
Ausbrooks Trucking,415 Bandy Rd,Scottsville,KY,42164,270-622-3389
Expedite Economy,1005 Thorpe Street,Richmong,KY,40475,859-328-2528
Jeff Gorman Trucking,1138 Hwy # 57,Vanceburg,KY,41179,606-798-1257
Sha-d-rick Farm,411 Tick Ridge Rd,Waynesburg,KY,40489,859-326-0043
Kennedy Trucking,294 Feagan Rdg Rd,Augusta,KY,41002,606-407-2573
Comet Construction Services,328 Calumet Lane,Madisonville,KY,42431,270-824-8332
Gene Beatty Trucking,113 Pacer Road,Wilmore,KY,40390,859-858-4723
4 Star Express,102 Porter Cemetery Rd,Flemingsburg,KY,41041,606-845-9665
Laney Trucking,1057 Violet Lane,Louisa,KY,41230,606-638-0188
Hydraulic Services And Supply,2200 Front St,Ashland,KY,41101,606-324-3479
Sergeant's Trucking,145 Reidland Drive,Paducah,KY,42003,270-366-3421
C L Wilson Trucking,12177 Crouch Road,Walton,KY,41094,859-485-1777
Bobby Markham Trucking,262 B Markham Rd,Olmstead,KY,42265,270-725-8844
Pelfrey Auto Transport,707 Lane Allen Road,Lexington,KY,40504,859-276-3638
Kyle Kennedy Trucking,423 Allensville Street,Elkton,KY,42220,931-320-0623
Pool Trucking,74 Cliffwood Drive,Cadiz,KY,42211,270-522-6917
T & J Lighting Fast Delivery Service,6003 Norton Avenue,Louisville,KY,40213,502-962-6325
M & K Trucking,112 Cisco Road,Lexington,KY,40504,859-983-4714
Dave's Distributing,Booneville Heights 101,Booneville,KY,41314,606-593-6969
Pauls Transportation,235 Hammond Lane,Corinth,KY,41010,513-706-8637
Kentucky Refrigerated Freight,1500 Lynhurst Dr,Bowling Green,KY,42101,270-901-9360
C&e Transport,2434 New Paintsville Rd,Salyersville,KY,41465,606-349-7365
Overdue Recovery,173 Redbird Rd.,West Liberty,KY,41472,606-743-1896
B & L Trucking,2299 Charlie Butts Road,Franklin,KY,42134,270-598-9933
Burnett Brothers,1463 Hwy 3284,Monticello,KY,42633,606-340-3091
Tombos Trucking,12958 Hwy 1690,Louisa,KY,41230,606-673-3831
Dwayne's Trucking,50 Johnnie Pack Rd,Brandenburg,KY,40108,270-828-8748
D & H Trucking,57 Clayton Drive,Wallingford,KY,41093,606-748-1865
Team Worldwide,4770 Suite B-c Crittenden Dr,Louisville,KY,40209,502-380-8557
R&r Trucking,237 Young Drive,Nicholasville,KY,40356,859-338-5710
K D C Transport,10224 Ky Rt 580,Staffordsville,KY,41256,606-297-2683
Daniel Barnwell Trucking,5291 Ky Hwy 1032 E,Berry,KY,41003,859-620-1961
Junior Dishon Trucking,10278 Boston Rd,Boston,KY,40107,502-299-1758
"Affiliated Computer Services, Inc.",1084 S Laurel,London,KY,40744,606-878-7900
Blue Sky Auto Transport,265 Perkins Lane,Pine Knot,KY,42635,606-354-2743
Rt Trucking,1787 Little Bethel Church Rd,Wingo,KY,42088,270-445-0163
Gates Equipment Service,11445 Bradshaw Rd,Pembroke,KY,42266,270-475-2330
"L And S Auto Salvage And Sales, Inc.",11510 Hwy 60 W,Kevil,KY,42053,270-462-4265
"Jim's Auto Outlet, Inc.",492 Brooksville-germantown Road,Brooksville,KY,41004,606-735-2442
Twin Ponds Farms,5639 Pinchem Road,Guthrie,KY,42235,270-483-2435
Johnson's Welding Service,1017 Marshalls Branch,Jenkins,KY,41537,606-832-4065
D J Largo,2824 Winter Park Dr,Lexington,KY,40517,859-559-5282
Jb Trucking,453 Peach Tree Rd,Melber,KY,42069,270-674-6022
K & K Trucking,2145 Route 1498,Bevinsville,KY,41606,606-452-9584
T & W Trucking,3495 Casner Rd,Madisonville,KY,42431,270-836-5636
"Brady Trucking, Inc.",7007 Wax Road,Clarkson,KY,42726,270-242-0056
Fentress Trucking,400 Firetower Rd,Crofton,KY,42217,270-269-8313
Auto Connection,231 Margus Dr,Junction City,KY,40440,859-854-0505
Triple T Wood Products,Rr 4 Box 280-s,Monticello,KY,42633,606-340-1556
Keiths Salest Service,1278 Eliazabethtown Rd,Leitchfied,KY,42754,270-259-4471
Waterview Express,2161 Beech Grove Rd,Burkesville,KY,42717,270-433-7212
Gehring Trucking,175 Duncan Street,Monticello,KY,42633,606-348-8698
Tim Williams Trucking,3355 Pond School Road,Kings Mountain,KY,40442,606-379-5331
Big O Trucking,276 Lakeshore Dr,Kuttawa,KY,42055,270-388-7280
Dc Trucking,216 Old Us Hwy 421,Manchester,KY,40962,606-599-0240
Redhats Dozer Services,542 Wyatt Avenue,Madisonville,KY,42431,270-871-8656
Don's Truck-n-go,365 Kingrey Rd,Glasgow,KY,42141,270-590-1707
Gari Trucking,1912 Elba Dr,Louisville,KY,40218,502-454-4780
Watts Trucking,260 High Ridge Rd,Middleburg,KY,42541,606-706-0495
"Sturgill Trucking, Inc.",625 Trumbo Road,Morehead,KY,40351,606-286-8956
Rays Mobile Home Transport LLC,68 Leisure Lane,Scottsville,KY,42164,270-622-2161
Caudill Farm And Trucking,391 Railroad Bed,Clay,KY,42404,270-664-9695
Gt-motors,531 Big Hill Ave,Richmond,KY,40475,859-626-1095
Pic Pac Motors,318 West Main Street,Lebanon,KY,40033,270-692-0783
Duke Trucking,2049 State Route 408 West,Hickory,KY,42051,270-856-3167
Seldom Seen Enterprises,6722 Aiken Rd,Louisville,KY,40245,502-241-2735
Kingdom Transit,1450 North Broadway Suite 308,Lexington,KY,40505,859-685-2162
Bentley's Hill-top Auto Sales,10515 North Highway 27,Parkers Lake,KY,42634,606-376-4131
Osborne Inboard Transport,209 Lynda Ct,Winchester,KY,40391,859-595-0729
Cma Distribution,108 Fonda Lane,Nicholasville,KY,40356,859-494-0240
Construction Site Services,190 Bank Circle Drive,Dundee,KY,42338,270-298-4545
Pulaski Pride,6440 S Hwy 27,Somerset,KY,42501,606-872-3281
Tackett Welding Service,1781 Buffalo Road,Salyersville,KY,41465,606-349-2288
Anytime Anywhere Recovery And Assitance,363 Tracey Lane,Bagdad,KY,40003,502-220-9249
Madden's Transport,333 Spurlock Store Rd,Gray Hawk,KY,40434,606-287-3633
Cowboy Dude Express,2105 Chipman Ridge Road,Williamstown,KY,41097,859-912-9689
J & T Trucking,126 Congleton Hollow Rd,Mckee,KY,40447,606-965-2545
Shipp Trucking,4459 South Long Grove Road,Glendale,KY,42740,270-369-7227
B&b Trucking,1752 Irvine Rd,Clay City,KY,40312,606-481-1940
Four Winds Trucking,198 Pepperhill Dr # 3,London,KY,40741,606-682-7549
"Embry Transport, Inc.",2997 Region Road,Roundhill,KY,42275,270-999-4553
Barrettville Express,855 Roy Black Rd,London,KY,40741,606-843-0245
De Lean Trucking,200 Viley Lane,Georgetown,KY,40324,701-388-5220
J&j Carriers,112 Soloman Rd,Parkers Lake,KY,42634,606-376-3542
Ge Trucking,7400 Benton Rd,Paducah,KY,42003,270-898-3815
Stevens & Fife Auto Sales,16266 West Us 60,Olive Hill,KY,41164,606-286-6911
Dw Trucking,2057 Charlie Butts Road,Franklin,KY,42134,270-776-6601
M & L Transport,320 Niles Road,Dawson Springs,KY,42408,270-797-5001
Todd Anderson Transport,6547 Ida Road,Albany,KY,42602,606-387-4069
C & C Trucking,4106 Manner Gate,Louisville,KY,40220,502-499-0804
A C C Transport,23912 Hwy 194 East,Feds Creek,KY,41524,606-835-2935
Mckenzie Mobile Movers,64 Combs Drive,Whittensville,KY,41274,606-297-7550
Sds Logistics,4612 Knopp Ave,Louisville,KY,40213,502-618-8869
Atta Boy Trucking,266 Hale Road,Murray,KY,42071,270-519-5231
Jsm Carriers,1720 O Brian Court Apt A,Bowling Green,KY,42101,270-904-1227
Dbw Delivery,4109 Laurel Wood Ave,Louisville,KY,40220,502-459-9505
Desperado Trucking,Box 281,Mccarr,KY,41544,606-427-0805
Gold Tech Trucking,821 Monroe St,Newport,KY,41071,859-462-6123
Ccc Trucking,4264 State Line Rd West,Hazel,KY,42049,270-492-8663
Murray Trucking,6330 Callahan Ridge,Catlettsburg,KY,41129,606-739-5207
Blitzburgh Nation,35 Williams Dr,Hazard,KY,41701,606-854-3197
M A D Trucking,26 Miller Drive,Jackson,KY,41339,606-295-7193
Lvr Transport,131 N Main Street Lot 1,Edmonton,KY,42129,580-565-9610
Averys Trucking,4393 Morgantown Rd,Brownsville,KY,42210,270-286-8330
Dalton Transport,2549 St Rt 1043,South Shore,KY,41175,606-932-9276
James Transport,10983 State Route 94e,Murray,KY,42071,270-293-2943
Ricky Arnett Trucking,632 Twin Hill Rd,Mayfield,KY,42066,270-247-7189
Boren Mobile Home Mover LLC,48 Walnut Street South,Dexter,KY,42036,270-437-4730
Service Max Restoration,3693 Amick Way,Lexington,KY,40509,606-434-2666
Gilley Trucking,2415 Antioch Rd,Alvaton,KY,42122,270-791-7108
Gamboas' Concrete Service,518 North Morgan,Morganfield,KY,42437,270-822-4123
Auto Link,1814 Wrather Road,Almo,KY,42020,270-759-5263
Double A Trucking,18262 Hwy 30 East,Jackson,KY,41339,606-666-8555
Pearson Ice Cream,224 Production Court,Louisville,KY,40299,502-742-9110
Road Fork Transport,101 Reed Hollow Road,Sidney,KY,41564,606-353-8995
Jared Chandler Hauling,110 Whiteside Ford Rd,Franklin,KY,42134,270-647-7150
K E Hagan Trucking,7301 Sulpuher Lick Rd,Tompkinsville,KY,42167,270-427-5791
Earth Movers Of Cynthiana,261 Overview Ln,Cynthiana,KY,41031,859-588-2508
Taylor Trucking,3 C Bottom Road,Mckee,KY,40447,606-287-7227
Transport Services LLC,2093 Hwy 610,Virgie,KY,41572,606-639-6536
Steele Trucking,19864 Highway 32,Blaine,KY,41124,606-652-4432
"Kb & Company, Inc.",8588 Hwy 25 E 2 1/2 Mile,Flat Lick,KY,40935,606-542-5577
Steven A Tanner Trucking,704 Ashley Ct,Mount Sterling,KY,40353,270-985-0166
Combs Auto Sales,555 Hwy 15 N,Jackson,KY,41339,606-666-8400
Shelton Trucking,1284 Wagners Ferry Rd,Falmouth,KY,41040,859-654-5591
Ratliff Trucking,204 Old State Rd,Wellington,KY,40387,606-768-3747
Double M Trucking,1629 S Main Apt 179,Henderson,KY,42419,270-860-8297
V & S Trucking,1354 Ryans Creek Road,Williamsburg,KY,40769,606-549-4207
N & N Trucking,2872 Dorton Jenkins Hwy,Jenkins,KY,41537,606-639-0045
Cole Trucking,886 Bethel Road,Murray,KY,42071,270-226-9385
R&a Ward Trucking,115 Forest Ridge Rd,Bronston,KY,42518,606-561-4499
Route 8 Auto Sales,Route 8 Bentlyville Drive,Garrison,KY,41141,606-757-2000
Southern Transport,250 Ezra Taylor Rd,Pine Knot,KY,42635,606-354-3771
Nicholas L Bowling Trucking,3322 W Bolts Fork Rd,Rush,KY,41168,606-928-5904
S & L Trucking,461 Upper Colesburg Road,Elizabethtown,KY,42701,270-737-7384
H & H Trucking,1582 Russell Cave Rd,Lexington,KY,40505,859-294-5053
Curtis Moore Trucking,3132 Tadpole Rd,Louisa,KY,41230,606-673-3842
Kabco Dealer Direct,1032 E New Circle Rd,Lexington,KY,40505,859-233-4446
T K Transport,59 Knottingham Drive,Gilbertsville,KY,42044,270-362-4982
Mark Transportation,110 Brooksdale Rd,Manchester,KY,40962,606-847-4216
L And B Trucking,1430 Us Highway 60 E,Burna,KY,42028,270-988-2118
Capital City Transport,2408 Cardwell Ln,Frankfort,KY,40601,502-803-0609
"Calvert Trucking, Inc.",27 Willow Dr,Winchester,KY,40391,859-361-7950
Collier Distributing Company,Hc 74 Box 968,Garrison,KY,41141,606-757-4720
Harney Transportation,3103 Warehouse Rd,Owensboro,KY,42301,270-926-0099
George Fulenwider Trucking,2301 W Parrish Ave,Owensboro,KY,42301,270-485-2151
Gambrel Trucking,8325 Dixie Hwy,Williamstown,KY,41097,859-525-0640
Mac Trac Transport,402 Southway Drive,Lancaster,KY,40444,859-338-3998
Polar Express,3022 Smallhouse Rd,Bowling Green,KY,42104,270-745-0691
D & P Trucking,795 Stringtown Road,Sacramento,KY,42372,270-525-0498
Anthony Garland Trucking,1304 Round Top Road,Pine Knot,KY,42635,606-354-3394
Clean Cut Services,725 Town Mountain Road,Pikeville,KY,41501,606-437-6469
Janson Distributing,3708 State Route 3,Catlettsburg,KY,41129,606-739-0393
A-plus Septic Tank Service,Hc 63 Box 350,Inez,KY,41224,606-298-7468
Yellow Cabs Of Louisville,1601 S Preston Street,Louisville,KY,40217,502-637-6511
Good Luck Farm And Freight,303 Randolph-goodluck Road,Edmonton,KY,42129,270-428-2451
D & P Services,1033 Hopson Road,Princeton,KY,42445,270-365-6892
Smiths Auto Transporters,2147 Black Creek Rd,Clay City,KY,40312,606-663-5296
D & S Trucking Co,3015 Curling Dr,Madisonville,KY,42431,270-825-3934
Black Gold Transport,1714 Wolf Creek Road,Lovely,KY,41231,606-625-5995
Mining Machinery,1512 N Big Run Rd,Ashland,KY,41102,606-928-0490
Larry Combs Trucking,1483 Goose Creek Rd,Winchester,KY,40391,859-745-1558
Mike Huckelby Trucking,1811 Lettered Oak Rd,Albany,KY,42602,606-387-8860
Delaney Trucking LLC,28 Johnson Ave,Mt Sterling,KY,40353,859-498-6179
Lewisport Transport,9055 Us60 E,Lewisport,KY,42351,270-295-3332
Asams Wrecker Service And Auto Sales,16 Meadow Creek Ln,Wallins Creek,KY,40873,606-664-3562
Cali-pacifica,838 East High Street #119,Lexington,KY,40502,865-313-1529
Grant Trucking,376 Smith Hollow Rd,Gray,KY,40734,606-546-5735
Wesley Ball Trucking,700 Strunk Ridge Rd,Whitley City,KY,42653,606-376-3681
Peewee Trucking,915 Curtin Rd,Melber,KY,42069,270-674-5542
Big Johnson Trucking LLC,149 Curt Tackett Rd,Virgie,KY,41572,606-639-0927
Meadows Express,312 Ware Ave,Carrollton,KY,41008,502-682-9924
Cenex Transportation,1856 Loop Dr Lot 21,Bowling Green,KY,42101,270-205-4710
Double S Trucking,1023 Hammondsville School House,Magnolia,KY,42757,859-321-2829
Riverside Farms,213 Middle Knotsville Rd,Hawesville,KY,42348,812-547-1099
"Canoe Creek Transportation, Inc.",234 Church Road,Austin,KY,42123,270-646-3885
Hall's Specialized Freight,237 Travis Street,Marion,KY,42064,270-519-0150
Lynch Auto Transport,95 Orphia Lewis Rd,Hinkle,KY,40953,606-546-4201
Don Murphy Enterprises LLC,2632 Epworth Lane,Owensboro,KY,42303,270-302-0215
Dice Trucking,265 Wainscott Rd,Williamstown,KY,41097,859-824-1547
Hinkle Transport,53 Mahogany Dr,Cannon,KY,40923,606-546-7266
Madison Grigsby Trucking,1026 Lotts Creek Rd,Hazard,KY,41701,606-438-0603
Bgm Express LLC,305 Spring Hill Ave,Bowling Green,KY,42101,270-904-6906
4 T Trucking,3455 State Route 944,Wingo,KY,42088,270-376-2832
Ralph Koonces Backhoe Service,7880 Corydon Geneva Rd,Corydon,KY,42406,270-869-9622
Wickey's Mobile Home Service,4170 Barren River Dam Road,Scottsville,KY,42164,270-618-5260
Special K Service,412 Pettit Rd,Owensboro,KY,42303,270-684-4065
Liberty Trucking,1408 Pear Orchard Rd,Elizabethtown,KY,42701,270-234-0689
Six Pack Trucking,364 Boardfork Rd,Mccarr,KY,41544,606-427-0383
Brian's Auto Sales,185 Sibert Lane,London,KY,40744,606-682-1811
Ebs Trucking,221 Indian Mill Road,Park City,KY,42160,270-749-3044
N & J Transport,2293 Sugar Creek Road,Lancaster,KY,40444,859-339-8106
Thompsons Auto,198 Antwerp Ave,Mt Sterling,KY,40353,859-398-0306
Kingston Sanitary Service,418 Norton Street,Paducah,KY,42001,270-443-5119
Jeb's Trucking,121 Sunnyside Church Rd,Somerset,KY,42503,606-274-0006
American Lenders Service Co,360 Cutters Hill Ct,Lexington,KY,40509,859-271-7053
Butcher's Trucking,118 Buskirk Drive,Thelma,KY,41260,606-792-8499
Apartment Movers Etc And America's Best Moving Systems Kentucky,12904 Old Henry Road,Louisville,KY,40253,502-454-0088
Stephanie & Son Trucking,98 E Wall Pike Rd,Buffalo,KY,42716,270-696-0562
Justin Turner Trucking,8131 A Country House Rd,Tompkinsville,KY,42167,270-487-9835
My Way Trucking,229 Fairgrounds Rd,Hardinsburg,KY,40143,270-756-0862
J & L Transport,2265 Wtlo Rd,Somerset,KY,42503,606-451-8481
Waggoner Trucking,511 Sanderson Road,Mayfield,KY,42066,270-804-1331
Alcaraz Trucking,404 Lancelot Lane,Lexington,KY,40517,859-272-6889
Preece Trucking,Hwy 882 Box 1444,Ezel,KY,41425,606-725-5464
Ethans Transport,155 Bakersfield Lane,London,KY,40744,606-330-0597
B & B Trucking,410 Gazzelle Dr,Thornton,KY,41855,606-633-8915
Capshaw Trucking,514 N Main St,Caneyville,KY,42721,270-230-5901
Pacific Express,215 W Mcclellan Rd,Bowling Green,KY,42101,N/A
Shawn Ford Trucking,41 G Rhoton Rd,Tompkinsville,KY,42167,270-457-3333
Andy Grant Trucking,4949 Hayden Bridge Road,Owensboro,KY,42301,270-929-3065
Tina & Jack Hall Trucking,6305 Ringos Mills Road,Hillsboro,KY,41049,606-876-2743
Puffert Trucking,4807 Petes Lane,Petersburg,KY,41080,859-689-5570
Hi Hat Trucking,7096 Kentucky Rt 122,Drift,KY,41619,606-377-6600
D & K Express,1130 Dame Road,Hanson,KY,42413,270-884-5376
Jubilee Transportation,418 Denham St,Somerset,KY,42501,606-416-5245
Diamond Trucking,3316 Fair Oak Circle,Bowling Green,KY,42104,270-843-4862
Larry D Oliver Trucking,1011 Gravil Pit Rd,Central City,KY,42330,270-525-6316
"Msb Transport, Inc.",251 Tollage Creek Suite B,Pikeville,KY,41502,606-432-0300
Taylor Steam Cleaning Services LLC,292 N Penny Dr,Belfry,KY,41514,606-237-4788
Tennill Refrigeration Services,157 One Mile Branch,Hyden,KY,41749,606-672-5252
She Devil Trucking,Route 40 Black Log 1226,Inez,KY,41224,606-298-0771
Clary Auto Service,1828 Bank St,Louisville,KY,40203,502-772-9659
Kacer Trucking LLC,20340 Buck Fork River Rd,Hopkinsville,KY,42240,270-881-3301
M & H Trucking,1404 Mallet Fork Rd,Pinetop,KY,41843,606-785-3023
Watson Septic & Backhoe Service,3450 Taylor Mine Rd,Beaver Dam,KY,42354,270-274-5974
Bmk Transport,8987 Empire Connector Dr,Florence,KY,41042,859-581-5000
Rcm Express,1604 St Rt 274,Eddyville,KY,42038,270-625-2333
Mattingly Trucking & Logging,4360 Midway Rd,Brandenburg,KY,40108,270-422-2774
Halloween Express,1860 Georgetown Road,Owenton,KY,40359,502-484-0551
J & J Auto,4538 Ky 229,Barbourville,KY,40906,606-546-8678
A Plus Transport,303 Gillon Rd,Etoile,KY,42131,270-427-3944
Polk Transports,850 Dodson Lane,Madisonville,KY,42431,270-825-3830
Mle Equipment Services,435 State Route 1763,Wingo,KY,42088,270-376-2804
Arnold Portable Hauling,220 Megan Drive,Mayfield,KY,42066,270-519-2505
Billy T Cundiff Trucking,Hwy 80 West,Russell Springs,KY,42642,270-866-3014
Rayburn Transportation,4903 West Side Drive,Louisville,KY,40219,502-964-3186
Chambers Trucking,401 Skinner Lane,Utica,KY,42376,270-993-4100
Rjf Transport,115 Redwood Dr,Murray,KY,42071,707-464-3426
Ronnie York Trucking,878 Wisdom Dock Rd ,Albany,KY,42602,606-387-7851
R & F Transport,110-5 Meadow Lane,Oak Grove,KY,42262,270-439-2259
David Henson Transportation,337 Poplar Street,Benton,KY,42025,270-527-1173
J&s Trucking,29 Water Street,Garrett,KY,41630,606-358-0111
Jet Trucking,864 Roy Rd,Columbia,KY,42728,270-858-4897
Classic Carriers,10211 Park Lake Dr,Louisville,KY,40229,502-964-1810
K & K Transporters,1174 Campground Rd,Somerset,KY,42503,606-679-7190
Lambert Trucking,519 Bohon Road,Harrodsburg,KY,40330,859-733-9529
W & G Trucking,99 Redwing Rd,Wallins,KY,40873,606-573-9350
Jl Watkins Trucking,1609 Hwy 578,East Bernstadt,KY,40729,606-682-4068
Jack Jewell Trucking,28 Danny Meadows Rd,Greensburg,KY,42743,270-299-6443
R & M Hay & Straw,2710 Hansborough Rd,Frankfort,KY,40601,502-829-0990
Darrell Reams Trucking,31 Redwood Ln,East Bernstadt,KY,40729,606-843-7188
Jones Way Trucking,6687 N Hwy 27,Science Hill,KY,42553,606-875-6480
Hackworth's Transport,1158 Rockhouse Road,Salyersville,KY,41465,606-349-6949
Stanley Ray Trucking,5217 North L And N Turnpike,Hodgenville,KY,42748,270-325-4179
Castle Truck Line,421 1/2 11th Street,Catlettsburg,KY,41129,606-405-0415
Sanford & Sons Sales & Service,1044 Youngs Ferry Rd,Bowling Green,KY,42101,270-781-1900
Go 4 U Logistics,2379 Moffett Road,Independence,KY,41051,859-801-2600
Bartleys Trucking,1861 Harlan Cross Rd,Tompkinsville,KY,42167,270-487-1375
P Wellman & Son Transport,42 Jane Lane,Grayson,KY,41143,606-922-6169
A&w Trucking Service,64 Buckrun Rd,Hustonville,KY,40437,606-669-0001
Mule Team Express,897 Cedar Springs Dr,Lebanon Junction,KY,40150,502-833-9677
Lake Cumberland Car Haulers,146 Selvidge Lane,Whitley City,KY,42653,606-376-2118
Walton Trucking,172 Ross Road,Lancaster,KY,40444,859-792-6677
Site Tech Services,10300 Us 431,Utica,KY,42376,270-733-4139
Cti,2176 Wolf River Dock Rd,Albany,KY,42602,606-387-0447
Olympic Express,7335 Patrick Henry Rd,Louisville,KY,40214,502-639-2015
Commonwealth Express,269 Triport Rd,Georgetown,KY,40324,502-370-4186
Jo-rods Transportation & Hauling,71 Otter Lane,Benton,KY,42025,270-331-4275
Mgt Co,1237 Henry Clay Rd,Stanford,KY,40484,606-365-8654
Mdh Transportation,461 Howards Bottom Rd,Burkesville,KY,42717,270-433-2456
Joe Richards Trucking,511 Clifton Rd,Versailles,KY,40383,859-873-8453
Chucky G Trucking,3204 Fedscreek Rd,Steele,KY,41566,606-835-2948
Two Men And A Truck Louisville,3600 Chamberlain Lane Suite 420,Louisville,KY,40241,502-425-8778
Willin' Trucking,205 Smyth Lane,Ravenna,KY,40472,606-723-8029
Cherry Trucking,3502 Warsaw Rd,Dry Ridge,KY,41035,859-823-1533
Brown Trucking,232 County Rd 1050,Cunningham,KY,42035,270-642-2234
"J & B Trucking Co, Inc.",108 Magnolia Ln,Stinnett,KY,40868,606-374-8111
Dennis Transportation,1810 By Pass South,Lawrenceburg,KY,40342,502-839-0990
Southside Tire And Auto,132 Mobley Bend Rd,Corbin,KY,40701,606-524-3702
C D Truck & Road Service,1077 Left Fork Island Crb Rd Lot 15,Pikeville,KY,41501,606-899-3058
Allen Trucking Company,2525 St Rt 1055 West,Eddyville,KY,42038,270-388-9153
Dedicated Carriers,151 Millersburg Branch Road,Glasgow,KY,42141,270-428-3222
Nktr,3605 Dixie Highway,Dry Ridge,KY,41035,859-428-2119
Blankenship Excavating & Mobile Home Service,2480 Widows Branch Road,Stopover,KY,41568,606-456-9138
Mark Duncan Trucking,215 Duncan Road,Monticello,KY,42633,606-348-6162
Rdb Trucking,67 Frog Town Ln,Hazard,KY,41701,606-439-1252
Tenex--tenere Express,7522 Sussex Dr C,Florence,KY,41042,813-675-5612
S & H Trucking,1795 Black Oak Rd,Williamsburg,KY,40769,606-786-7569
Crystal Trucking,2521 Riggles St,Ashland,KY,41101,606-324-6130
Mckinney Trucking,417 E Second St Lot 2,Augusta,KY,41002,606-756-3674
Mathew Smith Truking,Hwy 221,Pineville,KY,40977,606-269-2009
Froedge Trucking,358 Cedar Flat Curtis Rd,Edmonton,KY,42129,270-432-3605
Tommy Manion Farms,22 St Augustine Rd,Clarkson,KY,42726,270-242-0386
Shawn Abston Trucking,4467 Old Burkesville Rd,Albany,KY,42602,606-387-4777
Shanklin Trucking,430 N Main St,Elkton,KY,42220,270-265-1169
Gibson Auto Sales,8083 Bloomington Road,Salyersville,KY,41465,606-349-2100
Steve's Mobile Home Service & Moving,2770 St Rd 2584,Central City,KY,42330,270-525-9005
Adven Freight,11564 Dixie Hwy,Walton,KY,41094,606-384-2325
Marlow's Transportation,92 Dogwood Circle,Pine Knot,KY,42635,606-354-2011
S B Henry Trucking Co,235 Kenny Stratton Rd,Olmstead,KY,42265,270-725-9886
Todd Bowling Trucking,448 Cardinal Circle,Landcaster,KY,40444,606-792-3624
Dvc Trucking,110 Benny Mead Road,Pikeville,KY,41501,606-478-2312
K Capshaw Trucking,160 Poplar Log Church Road,Tompkinsville,KY,42167,270-487-9199
Glen Reynolds Trucking,5067 Pottertown Road,Murray,KY,42071,812-779-7388
Pitchure Express,660 Stratford Drive,Lexington,KY,40503,606-277-0102
Four Seasons Hauling,1928 Old Union Church Rd,Bowling Green,KY,42104,270-529-3619
Bill Scott Trucking,506 Ashland Ave,Richmond,KY,40475,606-527-7417
Hillbilly Trucking,Hc 61 Box 1196,Belfry,KY,41514,606-237-7417
Security Safe Outlet,4245 Lexington Road,Paris,KY,40361,606-987-5465
Girdner Trucking & Mine Supply LLC,Hubbs Creek Road,Bryants Store,KY,40921,606-627-0635
Lj And Ra Trucking,Us 23 S 1st Right,Paintsville,KY,41240,606-928-7608
Simpson Automotive,901 Hill St,Irvington,KY,40146,270-547-3429
Smith Trucking,296 Twin Rocks Lane,Hazard,KY,41701,606-436-0459
Town & Country Truck Repair,4256 Aa Highway Rt 9,Maysville,KY,41056,606-883-3855
Grit Transportation,234 Raleigh Creek Rd,Monticello,KY,42633,606-340-2448
Kenney Trucking LLC,162 Shipville Rd,Millersburg,KY,40348,859-340-0097
Dixie Trucking,6109 Woodville Road,Bandana,KY,42001,270-224-2405
Stanton Trucking,6278 Helena Rd,Mayslick,KY,41055,606-759-7336
Kittle Trucking,4202 Winchester Ave,Ashland,KY,41101,606-325-0159
Diamond Transportatioin Co,11481 Skyline,Louisville,KY,40229,502-957-5416
Double R Trucking,876 Philpot Road,London,KY,40744,606-878-1010
Mw Transport,131 Snow Lane,Campbellsville,KY,42718,270-789-8563
Coleman Transport,511 South Bridge St,Pikeville,KY,41501,606-437-9101
Compton Repair Service,6494 Ky Route 1428,Harold,KY,41635,606-478-1093
Smith Roll Back Service,Hc 84 Box 676,Sawyer,KY,42634,606-376-3984
Benson Trucking,Highway 223,Scalf,KY,40982,606-542-5120
R & R Auto,Hc 70 Box 200,Sandyhook,KY,41171,606-738-6277
Ellis Auto Sales & Service,124 North 12th Street,Middlesboro,KY,40965,606-248-3140
Kgst,379 Snow Road,Russell Springs,KY,42642,270-866-4600
Triple H Trucking,6119 Holy Cross Rd Apt 6,Loretto,KY,40037,502-549-7832
Notlef Trucking Company LLC,1313 Lyndon Lane Suite 100,Louisville,KY,40222,502-326-0220
B & B Trucking,2222 Lyons Chapel Rd,Tompkinsville,KY,42167,270-487-6662
P Mccoy Trucking,138 Summit Dr,Edmonton,KY,42129,270-432-4932
Gary Crawford Trucking,9825 Georgetown Road,Owenton,KY,40359,502-484-0059
Farmer Trucking,200 New Salem Circle,Nortonville,KY,42442,850-433-9576
J Worley Trucking,172 Monticello Sub,Monticello,KY,42633,606-348-3265
Mike Brown Trucking,3144 Ten Mile Rd,Melbourne,KY,41059,859-635-8890
Greater Cincinnati Auto Enterprises,12180 Percival Rd,Walton,KY,41094,606-356-6942
Black's Trucking,R R 2 Box 9a,Wallingford,KY,41093,606-849-1957
T And T Trucking,229 Bridge Street,Elkhorn City,KY,41522,606-794-1443
"Jerrys Bucket Service, Inc.",2678 Hollow Road,Glasgow,KY,42141,270-678-6780
Hammons Automotive,404 E Legion Dr,Princeton,KY,42445,270-365-3162
Matco Tools Distributor,1858 South State Hwy 207,Rush,KY,41168,606-232-1063
Trackside Auto Sales,5336 Elizabethtown Rd,Clarkson,KY,42726,270-242-3004
Stinson Lime Service,1780 W Hwy 90,Monticello,KY,42633,606-348-4788
Sumner Trucking Co,661 New Zion Rd,Williamsburg,KY,40769,606-549-3177
B & K Trucking,1320 Cemetery Road,Waynesburg,KY,40489,606-379-2180
Knight Trucking,138 Kennedy Ln,Lancaster,KY,40444,606-230-4250
Evans Tire,425 Richmond Rd,Berea,KY,40403,606-986-2688
Stockton Trucking,887 Jackson Rd,Somerset,KY,42401,606-676-8152
Tapscott Trucking,160 Timothy Trl,Campbellsville,KY,42718,270-692-9893
B M J Transport,5495 Hwy 1247,Stanford,KY,40484,606-365-2291
A & M Auto Sales,506 Baileys Creek Rd,Evarts,KY,40828,606-573-7504
Short Transport,30 Dewberry Dr,Jenkins,KY,41537,606-832-2048
Greenworks Turfscape Supply,457 E Main St,Auburn,KY,42206,270-796-9001
Dowell Trucking,50 Tony Lane,Tateville,KY,42558,606-561-6885
D J Trucking,Rt 2 Box 66,Butler,KY,41006,859-472-5481
Webb Moving & Storage,139 Foster Heights Rd,London,KY,40741,606-864-5030
B H Trucking,161 Tom Minner Rd,Marion,KY,42064,270-965-2433
R Q Trucking,2672 Ky 930,Barbourville,KY,40906,606-542-4543
Trucking Co,Route 1 Wallingford Rd,Flemmingsburg,KY,41041,606-845-1071
Two Men And A Truck Northern Kentucky,5976 Taylor Mill Road,Covington,KY,41015,859-359-4100
Tammie Bradley Trucking,Route 2 Box 28,Mt Vernon,KY,40456,606-256-2621
Lightning Express,168 Riva Ridge Ct,Alexandria,KY,41001,859-635-6997
Triple K Trucking,R R 1 Box 81,Greenup,KY,41144,606-473-6577
Davis Trucking,Hc 75 Box 2401,Wellington,KY,40387,606-789-5987
Moonlight Transportation,485 Double Gate Rd,Jeffersonville,KY,40337,859-499-4249
Tapps Backhoe Service,666 Preston Rd D,Owingsville,KY,40366,606-497-4795
Eddies Transport,1141 Dorcliff Hts,Ashland,KY,41102,606-928-8846
Cook Trucking,236 Cook Rd,Cynthiana,KY,41031,859-987-8115
Z & L Trucking,2058 Ard Ridge Rd,Nancy,KY,42544,812-637-2170
Saa,9310 Fairground Rd,Louisville,KY,40291,502-231-0704
Douglas Trucking,720 Barton Mill Cutoff Road,Corbin,KY,40701,606-523-6565
D & S Mobile Home Movers,3958 Radio Rd,Almo,KY,42020,270-437-4608
Neal Huffman Trucking,2145 Bales Rd,Magnolia,KY,42757,270-324-4694
L & L Trucking,201 Marion St,Leitchfield,KY,42754,N/A
Brentwood Moving And Storage,1070 Brentwood Court,Lexington,KY,40511,859-254-9494
Andrew Paul Trucking,1807 Cargo Ct Suite # 1a,Louisville,KY,40299,502-664-4146
Load-n-go Express,1229 Yorkshire Estates Road,London,KY,40744,606-877-8702
G & G Express,909 Liberty School Road,Hardyville,KY,42746,270-786-1089
J D Skidloader Service,3672 Shannon Run Rd,Versailles,KY,40383,859-879-9587
Commonwealth Bobcat Service,1600 Shannon Run Rd,Versailles,KY,40383,859-879-0619
Smith Trucking,1535 Weed Keltner Road,Edmonton,KY,42129,270-378-5358
B & T Specialized Transport,3145 Old Frankfort Pike,Owenton,KY,40359,502-484-0197
Brantley's Trucking,411 Sunset Drive,Leitchfield,KY,42754,502-912-4860
Baker Trucking,840 Flemings Branch,Jenkins,KY,41537,606-639-6678
Brtrucking,1519 Narrows Road,Fordsville,KY,42343,270-691-2201
B L Trucking,1120 Antia Ct,Mt Sterling,KY,40355,859-498-4536
Clark King Auto Sales,8000 Creek Run Rd,Corbin,KY,40701,606-215-0141
K & R Trucking,Rr 1 Box 29 Ab New Hope Rd,Foster,KY,41043,859-472-5355
Sullivan Trucking,1660 Carter Rd,Mayfield,KY,42066,270-251-2511
Holman Freight Co,1265 Blue Lick Rd,Berea,KY,40403,859-986-9781
Shewmaker Trucking,1102 Outer Loop,Louisville,KY,40219,502-368-3617
"Ronnie Lawson Trucking, Inc.",7983 St Hwy 174,Olive Hill,KY,41164,606-286-8575
Gary Stewart Trucking,1770 Pecks Creek Rd,Stanton,KY,40380,859-771-0505
Big Red Construction,61 Friday Branch Rd,Whitesburg,KY,41858,606-216-7703
Ronnie Lawson Trucking,7983 State Highway 174,Olive Hill,KY,41164,606-286-8575
Double R Trucking,7003 Spring Vista Court,Louisville,KY,40229,502-968-1456
Hitch Hauling,Rt 1 Box 8a,Flemingsburg,KY,41041,606-209-3706
C&c Trucking,383 Wright Rd,Frankfort,KY,40601,502-227-2032
Duff's Auto Sales,1123 Hwy 80,Manchester,KY,40962,606-598-7076
Tony Gaddie Trucking,121 Damascus Way,Munfordville,KY,42765,270-528-4569
Masterson Transporting & Backhoe Service,Rt 1 Box 208c,Irvington,KY,40146,270-668-1123
D T Trucking,5444 Wolf Road,Alexandria,KY,41001,859-635-2449
Clyde Rickerson Trucking,P O Box 146,Jackson,KY,41339,606-666-5920
Big D Express,2818 Rockport Rd,Rockport,KY,42369,502-658-0452
B & K Trucking,507 Covert Run Pike,Bellvue,KY,41073,859-393-3394
Adams Trucking,1103 Peachtree Place,Hopkinsville,KY,42240,270-886-6774
C & L Mobile Home Movers,19139 Hwy 421 South,Hyden,KY,41749,606-672-2373
Larry Deel Trucking,2409 Farnsley Rd,Louisville,KY,40216,502-449-3355
Jeff Axsom Trucking,11410 Old Deering Rd,Louisville,KY,40272,812-620-6890
Todd Harris Trucking,2415 Mt Salem Rd,Hustonville,KY,40437,606-669-4516
Triple D Dist,1037 Tennessee Ridge Rd,Liberty,KY,42539,606-787-9496
Cct Auto Transport,41 Warren Lane,Bimble,KY,40915,606-546-4066
Donna Lowe Trucking,13470s St Hwy 2,Grayson,KY,41143,606-474-0104
T&s Transport,537 Murray,Mansonville,KY,42431,270-825-9768
Massey Trucking,3371 Wingfield Church Road,Bowling Green,KY,42101,270-597-2205
Trackside Auto Sales,Hc 84 Box 22,Barbourville,KY,40906,606-545-7887
Roe Trucking,1448 Old State Road,Wellington,KY,40387,606-362-9675
Street Mobile Home Movers,625 Walnut Grove Road,Benton,KY,42025,270-527-2810
Collins Trucking,Highway County 68 Box 115,Big Creek,KY,40914,606-598-7536
Branham Trucking,7735 Robinson Creek Road,Virgie,KY,41572,606-639-8811
Curry Trucking,176 Willie Cheek Rd,London,KY,40744,606-682-0605
B & W Trucking,Highway County Road 76 Box 1504,Garrison,KY,41141,606-473-1640
J1 Trucking,490 Mcgill Avenue,Lewisport,KY,42351,270-295-7331
Cc Trucking,12339 St Rt 69,Reynolds Station,KY,42368,270-233-5710
Aldridge Feed Service,Highway 259,Westview,KY,40178,270-257-8100
Kennon Trucking,470 Kristin Drive,Clay City,KY,40312,606-663-4502
Jetstream Expedited Trucking Services,134 Bendefield Lane,Farmington,KY,42040,270-489-2001
Lowhorn Septic Tank Service,521 Tennessee Rd,Albany,KY,42602,606-381-5121
Jem Transportation,118 Fern Lea Circle,Bardstown,KY,40004,502-348-9072
Greenlight Transport,Rt 2 Box 341 H,Pineville,KY,40977,606-337-1137
Jerry Bowling Transport,259 Nell Rush Lane,London,KY,40741,606-862-1250
Mobile Home Transport,700 Dogwood Lane,Winchester,KY,40391,859-745-0026
Kentucky Less Truck Load,813 Cheri Way,Fairdale,KY,40118,502-548-2852
Mike Collins Trucking,265 Crocus Rd,Glensfork,KY,42741,270-378-6958
O'rear Trucking,5873 Northonville Rd,St Charles,KY,42453,270-399-0579
Adolphus Trucking,3336 Old Buck Creek Road,Adolphus,KY,42120,270-662-7891
Miracle Trucking,Route 2 Box 141 F,Pineville,KY,40977,606-337-6748
Mike Aker & Sons Trucking,515 Old Stilesville Rd,Eubank,KY,42567,606-423-3664
Jackson Express,Box 79 Old Pineville Pike,Middlesboro,KY,40965,423-869-5798
M & B Trucking,107 School House Hollow,Hunter,KY,41655,606-285-3013
Johnsons Transport,1034 Salyer Branch,Hueysville,KY,41640,606-358-0217
Danny Ford Trucking,513 W 10th Street,Newport,KY,41071,859-431-7532
Carl Mayse Trucking,992 Clubhouse Rd,Indepence,KY,41051,859-371-2766
Wr Smith Trucking,155 Mcgee Rd,London,KY,40744,606-877-1756
Jr Reed Trucking,207 State Highway 194 East,Pikeville,KY,41501,606-631-4667
Fritz Trucking,963 Fritz Lane,Providence,KY,42450,270-667-0801
Complete Flooring Service,990 Villagebrook Dr,Henderson,KY,42420,270-826-0593
Cave Country Transmission,180 Bolton School Rd,Bonnieville,KY,42713,027-052-4555
Jr Trucking,45 Little Bend Rd,Battletown,KY,40104,270-497-4497
T & L Trucking,103 White Oak Lane,Bardstown,KY,40004,502-349-6500
Lowery Transport,5360 Rush Branch Rd,Somerset,KY,42501,606-382-9150
G & J Trucking,3018 Country Place,Hebron,KY,41048,859-586-1927
Movers Mobile Home Transport,80 Robin Lane,Eddyville,KY,42038,270-388-4312
K And B Auto Savage,233 Carlus Foley Rd,Russell Springs,KY,42642,270-866-7855
Pioneer Group Kentucky,3513 Campgroup Rd,Louisville,KY,40211,502-479-3546
Randys Auto Sales,State Route 1,Greenup,KY,41144,606-473-6487
"Butler Logistics, Inc.",235 Bramblewood Lane,Morehead,KY,40351,606-784-4539
Tri City Metro Express,128 Production Court,Louisville,KY,40299,502-897-2835
Wrights Horse Transportation,132 Simmon St,Versailles,KY,40383,859-621-9344
Victory Horse Transport,107 Chestnut Lane,Versailles,KY,40383,859-879-9797
In N Out Dumpster Service,8244 Lagrange Rd,Smithfield,KY,40068,502-222-9717
Taylor Trucking,284 Gabbardtown Rd,Berea,KY,40403,859-986-7951
"Quality Shavings & Spreader Service, Inc.",7451 Highway 136 West,Calhoun,KY,42327,270-273-9057
Criswell Trucking Services,115 Paradise Hill,Grayson,KY,41143,606-465-9198
Jimmy Stockton Trucking,Route 3 Box 753,Albany,KY,42602,606-387-7584
Eddie Tuck Trucking,1517 Huntersville Rd,Albany,KY,42602,606-387-4933
Jerrys Auto Sales,1550 Springfield Hwy,Lebanon,KY,40033,270-692-1664
Mag-a-doo Trucking,2400 Hobbs Lane,Coxs Creek,KY,40013,502-331-9093
Asa Trucking,390 Dark Region Road,Williamstown,KY,41097,859-824-4515
James Stanley Trucking,100 Stanley Creek Rd,Whitesburg,KY,41858,606-632-2991
City Taxi Transportation,4910 Fury Way,Louisville,KY,40258,502-494-8863
Cj Trucking,314 Grobmyer Ave,Carrollton,KY,41008,502-732-5549
M & B Trucking,Highway 2563 Route 6 Box 15700,Louisa,KY,41230,606-638-3000
Gilbert Trucking,654 Buffalo Branch Rd,Corbin,KY,40701,606-523-0937
Naseef Trucking,910 Raider Hollow Lane,Munfordville,KY,42765,270-524-1668
B M Trucking,Highway 586,Beattyville,KY,41311,606-464-2097
Ison Trucking,Po Box 491,Moorehead,KY,40351,606-783-9956
"Green River Auto Sales, Inc.",302 Beechwood Drive,Campbellsville,KY,42718,502-541-6019
Simmons Trucking Co,616 Magnolia Ave,Shelbyville,KY,40065,405-354-0473
"Laat Trucking, Inc.",3817 Bowmans Mill Rd,Lexington,KY,40513,859-254-9970
Massie Automotive,644 So Wilson Rd,Radcliff,KY,40160,270-351-6516
Lloyd Gerhardt Trucking,5353 Rabbit Hash,Union,KY,41091,888-299-0138
Depew Trucking,3945 Spring St,London,KY,40741,606-878-6327
Christopher Trucking,221 Straight Creek,Pineville,KY,40977,606-337-1225
Caudills Auto Sales,802 Industrial Dr,Hager Hill,KY,41222,606-789-6776
Thompson's Wrecker Service,1006 Walter Jetton Blvd,Paducah,KY,42003,270-442-3895
K C Trucking,Rt 1 Box 34,Pineville,KY,40977,606-337-3354
B & B Express,715 South First St,Island,KY,42350,270-486-3208
Smith Trucking,Highway 3439,Bimble,KY,40915,606-546-2894
Bradley Baker Trucking,187 Spencer Lane,East Bernstadt,KY,40729,606-843-7291
Rice Trucking,484 Filter Plant Rd,East Bernstadt,KY,40729,606-843-6556
Brittchar Trucking,2324 Buck Branch Rd,Martin,KY,41649,606-886-3967
Dewayne Billingsley Trucking,2975 Burkesville Rd,Glasgow,KY,42167,270-678-6726
Mc Caleb Trucking,705 Ellis Rd,Russellville,KY,42276,270-726-7419
"Double T Trucking, Inc.",308 Scip Br Rd,Kite,KY,41828,606-447-2902
Powers Trucking Usa,9 Ennismore Drive,Middlesboro,KY,40965,606-248-0714
P & P Farms & Trucking,3425 Gilkey Lane,Hopkinsville,KY,42240,270-886-8326
Adams Moving Service,127 West Main Street,Danville,KY,40423,859-239-8907
H And L Trucking,6488 Liberty Rd,Liberty,KY,42528,270-250-1401
Hardin Farms,11100 Maddox Ridge Rd,Turners Station,KY,40075,502-947-5046
Ross Trucking,296 Nebo Rd ,Catlettsburg,KY,41129,606-686-2714
Cox Trucking,1573 Hickory Rd,West Liberty,KY,41472,606-776-4931
Hughes Trucking Co,99 Big Valley Dr,Mayfield,KY,42066,270-247-5492
Simpson Trucking,5027 Beechgrove Rd,Lebanon Junction,KY,40150,502-543-1802
Hemingway Trucking,117 Church St,Worthville,KY,41098,502-664-6910
Morning Star Transportation,80 St Clair Rd,Central City,KY,42330,270-525-6913
Vincent Trucking,5305 Velle Vista Dr,Valley Station,KY,40272,502-935-1183
Lawson Trucking & Excavating,15660 Decoursey Pike,Morning View,KY,41063,859-356-3150
Hines Lime Hauling,155 Ky Hwy 618 East,Brodhead,KY,40409,606-355-9056
J Bennett Trucking,182 Mauney Chapel Road,Corbin,KY,40701,606-528-7790
Terry Ford Trucking,5541 Lecta-kino Rd,Glasgow,KY,42141,270-678-1065
Danny's Auto Sales,Us Rt 645 Huckleberry Rdg,Inez,KY,41224,606-298-7056
Jim Bradshaw Express LLC,108 Bayhill Drive,Winchester,KY,40391,859-901-0619
Johnsons Trucking,Johnson Lane,Junction City,KY,40440,606-854-3473
Shewmaker Trucking,15624 Cub Run Highway,Cub Run,KY,42729,270-524-9108
Clark Trucking,Gen Del Hwy 191,Cannel City,KY,41408,606-743-9055
Lazy T Trucking 2,1st Main St Box 12,Hulen,KY,40845,606-664-2517
Fornash Backhoe Service,12006 Devoursey Pike,Morning View,KY,41063,859-363-0517
Stevens Trucking,Us High 421 South,Cranks,KY,40820,606-574-1974
"E Z Haul, Inc.",8133 Us 23 South,Pikeville,KY,41501,606-835-1788
Tim Duncan Trucking,3334 State Highway 41 A North,Dixon,KY,42409,270-639-5909
Danny Stokes Trucking,9685 Greenville Road,Elkton,KY,42220,270-277-7121
Fields Trucking,1445 Morehead Road,Bowling Green,KY,42101,502-664-5222
Mcclane Trucking,Rr 05 Box 9015,Monticello,KY,42633,606-348-3019
Daniels Truck & Welding Services,Us 127 N,Albany,KY,42602,606-306-3596
Capital Transport,496 Crescent Lane,Russellville,KY,42276,270-796-4638
B & C Trucking,Rt 1 Box 99e 46th Street,Middleboro,KY,40965,606-248-7472
Arns Trucking,614 Robert Rd,Verona,KY,41092,859-643-0543
Tl Express,5355 St Rt 949,Dunmor,KY,42339,270-657-8500
Joey Boston Trucking,Rt 1 Box 235 ,Monticello,KY,42633,606-348-3917
W & W Trucking,Gene Jones Road 123,Stearns,KY,42647,606-376-4357
M & E Trucking,11419 St Rt 181n,Bremen,KY,42325,270-525-0615
Tincher Trucking,6224 St Rt 657,Lewisport,KY,42351,270-264-1804
Hatcher Dairy's,545 Upchurch Road,Columbia,KY,42728,270-378-0733
"Indie Transportation, Inc.",2911 Anton Rd,Madisonville,KY,42431,713-805-4780
S And S Well Service,607 Poplar Street,Albany,KY,42602,606-387-7783
Mill St Auto Sales,1192 Main St,Munfordville,KY,42765,270-524-7467
Brewer Trucking,420 Highway 1023,Lily,KY,40740,606-877-3634
"M L C Well Service, Inc.",3594 Ky Rt 172,Volga,KY,41219,606-297-5392
Elbert Stillings Trucking,204 Pinehill Road Us 421,Manchester,KY,40962,606-598-8286
Crossroads Transportation,209 North Second St,Burgin,KY,40310,859-748-9459
"Daves Transport, Inc.",250 Twin Engine Dr,Chavies,KY,41727,606-476-2726
Sam's Special Services,69 Oasis Lane,Murray,KY,42071,270-559-5782
Stanfield Trucking,432 Mullikin Hollow Rd,Tollesboro,KY,41189,606-798-4211
Gwl Trucking,618 W Broadway,Providence,KY,42450,270-667-2747
Holbrook Transport,Hc 70 Box 185,Sandy Hook,KY,41171,606-738-4805
Mike's Wrecker Service,4197 Lane Valley Road,Calvert City,KY,42029,270-395-7495
"G L R Trucking, Inc.",2050 Ephesus School Rd,Waynesburg,KY,40489,606-355-0111
"Bishop Tires Autocard, Inc.",495 Richmond,Mt Vernon,KY,40456,606-256-4029
C E D Industrial,510 W 2nd St,Owensboro,KY,42303,270-685-3331
D L Truck Repair,301 Day Rd,London,KY,40741,606-878-0743
Gross Transport,3576 Scott Rd,Sedalia,KY,42079,270-328-8715
Carter Trucking,961 Cody Trent Rd,Edmonton,KY,42129,270-565-5780
Baker Auto Transport,918 Edgehill Rd,Florence,KY,41042,859-371-5413
Lc Gartin Trucking,1234 Knobbranch Road,Blaine,KY,41124,606-652-3489
Stillwells Transporting,1400 Wonderland Cavern Rd,Cecilia,KY,42724,270-862-9760
Southwind Trucking,178 Beech Street,Cleaton,KY,42332,270-754-4140
Hundley Trucking LLC,24114 Ky Highway 811,Owensboro,KY,42301,270-764-0001
Koons Auto Sales,503 E Main,Salem,KY,42078,270-988-2366
"Graves Trucking, Inc.",4752 Old Brodhead Rd ,Brodhead,KY,40409,606-379-6742
Vice Transport,5773 Mt Sterling Rd,Flemingsburg,KY,41041,606-845-4503
Jbk Trucking,360 North Fork Drive,Crittenden,KY,41030,859-428-2811
Newton's Trucking,307 Fern Lt,Winchester,KY,40391,859-744-8424
Black's Trucking,679 Fleming Fork Rd,Olive Hill,KY,41164,606-286-8958
Balm Trucking LLC,2051 Rush Branch Rd,Somerset,KY,42518,606-677-0236
Youngs Transportation,532 Elm Street,Calvart City,KY,42029,270-395-8145
David And Barbara Walker Trucking,114 E Tophill Terrace,Elizabethtown,KY,42701,270-304-5729
Mash Trucking,50 Blue Bird Lane,London,KY,40744,606-877-1403
Gunns Mobile Home Transport,620 Welborn St Lot 5,Central City,KY,42330,270-338-7359
Woodall Trucking,170 Fisher Creek Rd,Lebanon,KY,40033,419-375-0002
B Haynes Auto Sales,Hwy 27 North,Whitley,KY,42653,606-376-8967
King Trucking,4780 Limaburg Road,Hebron,KY,41048,N/A
Wombles Trucking,5900 S Hwy 421,Manchester,KY,40962,606-596-0958
Eugene Collett Backhoe & Dozier Service,Hc 86 Box 1346,Pineville,KY,40977,606-337-3409
Homestead Mobile Home Movers,231 August Circle,Lowmansville,KY,41232,606-297-5050
Douglas Farler Trucking,4364 St John Rd,Frankfort,KY,40601,502-227-2911
"Integrated Combat Systems, Inc.",130 Rochester Drive,Louisville,KY,40214,502-364-5640
City Auto Recovery Services,323 Trace Branch Road,Krypton,KY,41754,606-487-1218
Kaelin Equipment Co,3690 Fortner Ridge Rd,Corinth,KY,41010,502-484-9959
Barry Guffey Trucking,418 Bybee Rd,Tompkinsville,KY,42167,270-487-8974
J & T Trucking,204 E Sunset,Mayfield,KY,42066,270-970-1442
N & G Product,3686 Ky 1232,Gray,KY,40734,606-344-2336
Hayes Hauling,Rt 6,Renfro Valley,KY,40473,N/A
"D & H Transport, Inc.",52 Beechwood Drive,Hazard,KY,41702,606-436-6147
Mark Sumpter Hauling,1709 Kentucky Highway 1054 South,Cynthiana,KY,41031,859-234-8597
Pods,3077 Ten Mile Rd,Melbourne,KY,41059,859-635-8266
Ferguson Trucking,15436 Hwy 92 East,Williamsburg,KY,40769,606-549-2481
Hobbs Trucking,Rt 1 Box 247 E,Irvington,KY,40146,502-536-3061
King Trucking,Us Hwy 42 W,Ghent Ky,KY,41045,859-757-9365
John Earl Trucking,6805 Louisville Rd,Coxs Creek,KY,40013,502-314-2993
Brian Marksbury Trucking,6302 Perryville Road,Danville,KY,40422,859-236-8266
W D Pilgrim Trucking,8824 Harman Lane,Catlettsburg,KY,41129,606-739-8766
American Enviro-services,7416 Highway 329,Crestwood,KY,40014,502-241-4275
Innovative Transport,3405 Madisonville,Hopkinsville,KY,42240,270-885-6311
Pat Daugherty Trucking,Rt 1 Box 610-i,Irvington,KY,40146,270-547-7745
Longworth Auto Repair,1006 Hwy 840,Loyall,KY,40854,606-573-4526
Ellis Wrecker Service,356 Hwy 1809,Bryant Store,KY,40921,606-546-8694
B & C Transportation,1567 Happy Landing Rd,Glasgow,KY,42141,270-646-6519
Gloryland Trucking,398 Farmers Drive,Russellville,KY,42276,270-725-7062
J M C Trucking,10331 Us 231,Utica,KY,42376,270-993-7964
T And D Transportation,123 Mahan Avenue,London,KY,40741,606-878-2604
Adams Automotive,Hwy 467,Worthville,KY,41098,502-732-0631
Madd Trucking,920 Letcher Ave,Frankfort,KY,40601,502-226-5227
Littrell Trucking Company,479 Sabree Rd,Stamping Ground,KY,40379,859-509-1054
D P S Transportation LLC,108 Holiday Drive,Nicholasville,KY,40356,859-887-9014
Pruitt & Sons Trucking,1003 Martin Hill Road,Shepherdsville,KY,40165,502-543-4742
Graves Trucking,712 N High Street,Franklin,KY,42134,270-776-2305
Glore Trucking,785 Day Rd,Dry Ridge,KY,41035,859-824-7160
Cea Trucking,1205 Mcwhorter Rd,London,KY,40741,606-878-5511
Juby Trucking,Highway 1137 422,Cawood,KY,40815,606-573-5900
Danny Keith Trucking,493 Emanuel Road,Tompkinsville,KY,42167,270-457-4992
T & T Trucking,707 Story Avenue,Murray,KY,42071,270-753-1147
Mike's Repair Service,4491 Hwy 109 South ,Providence,KY,42450,270-667-9697
Marts Auto Mart,9218 Us 60 W,Ashland,KY,41102,606-928-2249
Smith Trucking,1768 Sacker Road,Manchester,KY,40962,606-598-4254
"Knk Construction Services, Inc.",263 Weber Lane ,Florence,KY,41042,859-250-4288
Braun's M & M Trucking,360 Kings Lake Drive,Shepherdsville,KY,40165,502-955-8140
D & D Trucking,8300 Tompkinsville Road,Glasgow,KY,42141,270-427-5135
Pro Auto Transport,450 Red Barn Rd,Marshes Siding,KY,42631,606-376-3554
Double H Trucking,60 Willow Oaks Dr,Nancy,KY,42544,606-219-1755
Gts Transportation,1001 Starhill Way,Lawrenceburg,KY,40342,N/A
Mason And Co Transport,1925 Pikeview Road,Magnolia,KY,42757,270-528-8368
Basham's Trucking,2200 Kinser Rd,Roundhill,KY,42275,270-286-0261
B-line Express,272 Barn Branch Rd,Morehead,KY,40351,606-780-7182
Four Bells Trucking,284 Abbott Broadhurst Rd,Montecello,KY,42633,606-340-1897
Begley Trucking,3132 Verona-mudlick Rd,Verona,KY,41092,859-493-0395
Purofirst Disaster Services,2251 Stanley Gault Parkway,Louisville,KY,40223,502-244-1510
Kellerman Excavating,1850 Old Oakland Road,Brooksville,KY,41004,606-735-2428
Owingsville Auto Mart,2305 West Hwy 36,Owingsville,KY,40360,606-674-9357
Alders Trucking Co,150 Curry Rd,London,KY,40741,606-524-7462
Brockman Trucking,268 Holliday Cemetary Road,Columbia,KY,42728,270-384-3323
Sargent Trucking,2524 French St,Owensboro,KY,42301,270-926-1565
Mike Mallory Trucking LLC,1816 Stringtown Rd,Elkton,KY,42220,270-265-7253
M K M Transport LLC,2948 Gumlick Road,Falmouth,KY,41040,859-654-1882
Williams Trucking,1015 Liberty Ct,Louisville,KY,40203,502-568-1950
Paul E Brown Jr Trucking,567 Improvement Rd,Salyersville,KY,41465,606-349-7536
Webb Garage & Wrecker Service,534 Baldwin Rd,Mckee,KY,40447,606-364-5449
Holt Transport,1080 Highmore Rd,London,KY,40741,606-864-8476
Tnt Transport,3229 Old Benton Rd,Paducah,KY,42003,270-441-3323
T & R Trucking,5640 Greensburg Road,Edmonton,KY,42129,270-432-0879
Fireside Transfer,110 Triport Rd,Georgetown,KY,40324,502-316-2997
Yates Engine And Transmission Rebuilders,591 U S Highway 68,Benton,KY,42025,270-527-1955
Todd Crabtree Trucking,121 Lakeview Lane,Prestonsburg,KY,41653,606-339-5707
Freight Masters Express,15006 Bainbridge Road,Hopkinsville,KY,42215,270-881-1500
Drury Livestock,69 Summerwind Dr,Nancy,KY,42544,859-608-2350
Don Pecks Transportation,1650 Chappell Road,Paducah,KY,42003,270-210-6501
Two Men And A Truck Northern Kentucky,7105 Industrial Road,Florence,KY,41042,859-689-0000
Rp Rail Service,1111 Goodan Creek Road,Olive Hill,KY,41164,606-286-1220
Larry Stigers Equipment Trucks,100 Twin Oak Circle,Frankfort,KY,40601,502-875-4050
Roe Trucking,5469 Hwy 474,Olive Hill,KY,41164,606-474-5762
Turner Performance Automotive,1656 Early Burks Rd,Tompkinsville,KY,42167,270-427-2119
J H Trucking,612 Old Sawmill Rd,Monticello,KY,42633,606-348-0049
Chaumont Auto Transport,1142 Chaumont Rd,Park City,KY,42160,270-792-5387
Gilstrap Enterprises,2005 Affirmed Ct,Lawerenceburg,KY,40342,502-330-1631
J L Benson Trucking,176 Herron Rd,Princeton,KY,42445,270-625-4909
Action Movers,8120 Decoursey Pike,Taylor Mill,KY,41015,513-471-6300
T & K Trucking,3475 Lawrenceville Rd,Corinth,KY,41010,606-824-3702
D S S Trucking,P O Box 958,Columbia,KY,42728,502-384-6947
Browns Lime Service,1411 Mt Union Rd,Scottsville,KY,42164,270-622-7698
Direct Express,11204 Taco Ct,Louisville,KY,40229,502-966-4045
Pruitt's Mobile Home Service,P O Box 1171,Middlesboro,KY,40965,606-248-6255
J & B Trucking,154 Robin Road,Georgetown,KY,40324,502-868-0694
H & R Trucking,1226 Shaw Station Rd,Leitchfield,KY,42754,502-242-7438
Tim A Kloss Trucking,Route 1,Melber,KY,42069,502-856-3320
K&c Trucking,2210 Broadway,Catlettsburg,KY,41129,606-739-5829
Kenneth Dillon Trucking,3901 Dry Creek Rd,Clearfield,KY,40313,606-783-0051
D And T Express Service Dates,202 Federal Court,Louisville,KY,40214,502-593-2754
Maxx Express,2330 Millers Ln,Louisville,KY,40216,N/A
M-m & T Trucking,15243 Lebanon Crittenden Rd,Crittenden,KY,41030,606-485-7889
Kristijo Transport,3000 Kingston Hwy,Richmond,KY,40475,606-624-0425
White's Wrecker Service,4606 Caneyville Rd,Caneyville,KY,42721,502-286-4314
Payne Trucking,Walton Rd Rt 7,Draffenville,KY,42025,502-527-7860
R Jones Trucking,Main Street,Ulysses,KY,41264,N/A
C & C Backhoe Service,1243 New Salem Road,Auburn,KY,42206,502-586-5752
Yates Auto Wholesale,U S 127 South Box 436,Harrodsburg,KY,40330,859-613-4343
Caswell Trucking,337 No Main,Greenville,KY,42345,502-338-1727
Stevenson's Auto Mart,111 S Main,Leitchfield,KY,42754,502-259-6320
Johnny K Keeling Trucking,Hwy 121 South,Murray,KY,42071,502-753-1908
Dunagan Trucking Company,3255 Elliot Rd,Stanford,KY,40484,606-346-9013
G W Dobbs Trucking,204 Colonial Ave,Somerset,KY,42501,800-547-9000
Star Truck Company,535 Clifty Creek Rd,Jamestown,KY,42629,270-343-5050
Beyer Trucking,824 Walnut Road,Boaz,KY,42027,270-554-5477
Daeuble Oil Co,4125 Algonquin Pkwy,Louisville,KY,40211,502-776-4631
Don's Auto Sales,460 Bard Lane,Greenville,KY,42345,270-338-6134
C & R Trucking,Po Box 214,Sassafras,KY,41759,606-476-8581
D & D Transportation,6800 Boston Laffoon Road,Philpot,KY,42366,502-233-9170
B & B Auto Sales,101 Spruce Street,Tompkinsville,KY,42167,502-487-9260
Jts Jim's Transport Service,60 S Hopkinsville Rd,Nortonville,KY,42442,N/A
D & D Express,1216 Tenn Ave,Louisville,KY,40208,502-448-4044
Larson & Son's Moving & Storage,1216 Madison Ave,Covington,KY,41011,606-291-9606
"Derby City Septic Tank Service, Inc.",4807 Dover Road,Louisville,KY,40216,502-933-1656
B And S Trucking,1420 Freidman Lane,Paducah,KY,42001,502-395-1914
Everett Bros Transport,2400 Melwood Avenue Apt 706,Louisville,KY,40206,502-897-0365
Djs Truckers Service,188 Forge Mill Road,Clay City,KY,40312,606-663-0228
Daniel E Lightner,1377 Ashford Dr,Florence,KY,41042,859-647-7807
Toby Noe Trucking,4475 Rush Branch Rd,Somerset,KY,42501,N/A
L & R Trucking,5982 S Dixie Hwy,Horse Cave,KY,42749,270-786-3974
Rons Service Center,332 Greenup Street,Covington,KY,41011,606-491-4487
Mankin Freight Lines,2065 Floyd Switch-estesburg Rd,Eubank,KY,42567,N/A
Tolson Trucking,4160 Ky Hwy 1812,Campton,KY,41301,606-668-6936
Sabie Trucking,13366 Decoursey Pike,Morning View,KY,41063,606-356-1560
Jerry's Auto Sales,2965 Louisville Road,Bowling Green,KY,42101,502-781-1563
Cynthiana Used Furniture & Moving Service,313 South Church Street,Cynthiana,KY,41031,859-234-1008
Sizemore Trucking,409 Turbyfill Ln,Manchester,KY,40962,606-599-1018
Tec 21 Service Center,120 Quinton Ct Suite 103,Lexington,KY,40509,859-266-3484
J & J Farms,406 Flat Rock Road,Louisville,KY,40245,502-245-0821
Raceland Auto Mart LLC,1113 Us 23,Flatwoods,KY,41139,606-836-6649
Harris Milk Transit,838 Thompson Chapel Rd,Russellville,KY,42276,502-755-2253
B A Duncan Transport,2503 Lake Road,Radcliff,KY,40160,502-351-7816
Watson Farm Trucking,450 Watson Road,Auburn,KY,42206,502-542-7964
Bishop Trucking,Route 2 Box 289 A,Foster,KY,41043,606-654-4937
Charles Brannon Trucking,5005 Schneidman Road,Paducah,KY,42003,502-554-9234
James Parm Trucking,202 Coplan Rd,Mayfield,KY,42066,270-705-6363
Kelly Dye Trucking,7960 New Jackson Hwy,Hodgenville,KY,42748,502-324-2889
Mike Leger Trucking,1272 Poplar Grove Rd,Broadhead,KY,40409,606-758-4844
Coal Express,181 Ward Cementary Rd,Corbin,KY,40701,606-528-9294
Finish Line Transport,100 Fox Meadows Drive Lot A-4,Murray,KY,42071,270-767-9987
Tyson Trucking,1877 Independence Road,Independence,KY,41051,859-356-8985
"East Laurel Transport, Inc.",475 North Laurel Rd,London,KY,40741,606-878-1632
Parker's Wrecker Service,601 West Highland Drive,Fulton,KY,42041,502-472-9087
Anderson Mobile Home Moving,45 Meadow Lane,Flemingsburg,KY,41041,606-845-0201
Haynesville Automotive,400 Haynesville Rd,Reynolds Station,KY,42368,502-233-9614
L D C Transport,535 Rogers Rd,Lexington,KY,40509,N/A
Cook Transportation,5415 Rayburn Ct,Louisville,KY,40272,502-937-3457
Ross Trucking,Hc 87 Box 168,Ermine,KY,41815,606-633-9927
White Owl Transport,535 Rogers Road,Lexington,KY,40505,N/A
Shepherd Trucking,Po Box 82,Quincy,KY,41166,606-757-4237
C & D Trucking,7901 Old Zaring Rd,Crestwood,KY,40014,502-241-9147
Cochran Trucking,10740 Hwy 1547,Liberty,KY,42539,606-787-9887
D & B Trucking,2097 State Route 601,Greenville,KY,42345,N/A
Anderson Homescapes,1105 Evondale Way,Goshen,KY,40026,502-290-9297
Collins Trucking Co,Hc 83 Box 762,Whitesburg,KY,41858,606-633-4048
Hightower's Trucking,1792 Gordonsville Road,Russellville,KY,42276,270-726-1049
Dillon Trucking,2420 Rt 292 W,South Williamson,KY,41503,606-237-5884
S & K Trucking,Hc 76 Box 56,Flat Lick,KY,40935,606-542-5262
Hi-tir Express Company,P O Box 779,Crestwood,KY,40014,N/A
Starlight Trucking,4306 Macedonia Road,Adolphus,KY,42120,270-618-6002
W & R Trucking,P O Box 1174,Russell Springs,KY,42642,N/A
J & M Trucking,1195 Palma Rd,Benton,KY,42025,502-395-7202
Tire Disposal Service,2714 W 5th Street,Owensboro,KY,42301,502-683-5872
G & G Mobile Home Services,R #5,Albany,KY,42602,606-387-8719
Redbud Auto Sales,142 Redbud Drive,Leitchfield,KY,42754,270-259-4502
Ice Cream Distributors,6230 Old Lagrange Rd,Crestwood,KY,40014,502-243-0992
Diamond Gate Distributors,8924 Scott Hill Drive,Catlettsburg,KY,41129,606-928-4473
Fisher's Trucking,856 E Marshall,Henderson,KY,42420,N/A
Daughter & Son Trucking,336 Willow Dr,Nortonville,KY,42442,270-676-3066
Airport Anytime Express,1755 Scottsville Rd,Bowling Green,KY,42104,512-781-4321
Thompson Truck Repair & Portable Welding,911 Roy Dugger Road,London,KY,40741,606-878-0920
Bill's Car Hauling,Rt 4 Box 98 B,Manchester,KY,40962,606-598-8301
Rose Trucking,Hc 82 Box 240,Neon,KY,41840,606-855-4133
Suzy Trucking,3030 Camden Road,Jenkins,KY,41537,606-832-4874
John Wayne Fairchild Ii Wrecker Service,Rt 1107,Van Lear,KY,41265,606-789-6453
D And L Trucking,Hc 84 Box 860,Whitesburg,KY,41858,606-633-7841
Billy Ray Plummer And Son,403 Ewing Rd,Ewing,KY,41039,606-748-7051
"Richmond Construction Services, Inc.",200 Caleast Rd,Richmond,KY,40475,859-200-3472
Tj&s Trucking,1762 Quicks Run Rd,Vanceburg,KY,41179,606-796-6851
Henry Wright Trucking,661 Kentucky Hwy 611,Pikeville,KY,41501,606-639-6739
Mcdowell Trucking,2760 Us 60 East,Marion,KY,42064,502-965-9002
Hickerson Trucking,1362 Hickerson Rd,Clinton,KY,42031,270-994-0046
Tonya Hagan Trucking,170 Jackson Trail,Glasgow,KY,42141,502-646-3235
J & S Trucking,156 Pioneer Dr,Richmond,KY,40475,859-623-7682
Medlock Trucking,113 Circle Dr,Richmond,KY,40475,606-624-9664
Two Rivers Trucking,224 Hughes Rd,Wickliffe,KY,42087,502-335-3293
Double D Trucking,Rt 2 Box 111,Lowmansville,KY,41232,606-297-4969
Adkins & Son Trucking,103 Click Branch Rd,Martin,KY,41649,606-285-9788
Tommy Owens Trucking,1311 Atkinson St,Henderson,KY,42420,502-826-0761
D-d Trucking,1100 Phillips Lane,Harrodsburg,KY,40330,606-734-0894
By-pass Auto Sales,99 Tandy Avenue,Somerset,KY,42501,606-678-0260
Chafins And Son Trucking,Caney Fork Road,Martin,KY,41649,606-285-3776
Thomas Trucking,12596 Airline Road,Henderson,KY,42420,502-827-4700
Michael Huhn Backhoe Service,818 Packard Avenue,Louisville,KY,40217,502-634-0870
Rivertown Moving & Storage,6156 Hwy 54,Philpot,KY,42366,270-729-6200
Gerald N Allen Trucking,130 Allen Lake Road,Brandenburg,KY,40108,270-828-2295
"Charles R Sexton Trucking Co, Inc.",412 Solomon Rd,Whitesburg,KY,41858,606-633-1124
C & H Trucking,303 Stewart Road,Lebanon Junction,KY,40150,502-833-3320
Thomas Elkins Trucking,925 Elkins Fork Road,Hatfield,KY,41514,606-353-9523
Ran's Trucking,1990 Kefauver Rd,Millwood,KY,42762,270-879-4922
Jackson Trucking,114 Burgess Lane,Beaver Dam,KY,42320,270-256-0410
Larry S Fairchild Trucking,913 Darda Court,Lexington,KY,40515,606-245-1642
Kalms Transportation,305 E 3rd Street,Hardinsburg,KY,40143,270-756-0087
Tommy Cape Trucking,317 James Cape Rd,Cundiff,KY,42730,502-378-6466
B S Trucking,966 Shelton Road,Greenville,KY,42345,270-338-3912
Mike Morris Trucking,650 Shamrock Road,Manchester,KY,40962,606-599-1306
Joey Hunley Trucking,3518 Old Lick Creek Road,Salyersville,KY,41465,606-349-3171
Dan's Repair Service,R R 1 Box 86,Germantown,KY,41044,606-728-2807
Mike Fairchild Trucking,214 Longview Dr,Nicholasville,KY,40356,606-885-3697
L T Trucking,86 Red Creek Road,Pikeville,KY,41501,606-432-1969
J & R Trucking,30 Jolie Circle,Stanton,KY,40380,606-663-9810
J & D Trucking,8711 Blue Bell Drive,Louisville,KY,40219,502-966-9958
Ronald Hays House & Building Movers,110 Pinoak Circle,Mount Washington,KY,40047,502-538-2500
Mcdonald Trucking,1300 Paradise Road,Tiline,KY,42083,270-928-2063
J & B Trucking,#15 Squabble Creek Road,Buckhorn,KY,41721,606-398-5328
Sunburst Transit,1751 East State Route 80,Mayfield,KY,42066,502-247-0885
Thompson Trucking,875 Alexander Rd,Crittenden,KY,41030,859-428-1626
Southern Boy Trucking,522 North Main Street,Elkton,KY,42220,502-265-3479
Boones Trucking,Rr 1 Box 10,Hillsboro,KY,41049,606-876-2093
Robinson Trucking,643 Hwy 476,Lost Creek,KY,41348,606-666-5712
D R Trucking,9105 Talitha Drive,Louisville,KY,40299,502-266-6417
"Billy Wayne Porter Trucking, Inc.",P O Box 205,Olive Hill,KY,41164,606-286-4507
"R G Baker Trucking Co, Inc.",90 Bakersville Lane,Whitesburg,KY,41858,606-633-0382
B A Mohler Trucking,2696 Vanzora Rd,Benton,KY,42025,502-527-9369
Karen Crum Trucking,5607 W Mountain Parkway,Prestonsburg,KY,41653,606-886-6665
Hargrove Trucking,1146 Spence Chapel Rd,Mayfield,KY,42066,270-247-0895
"Darrell Schagene Trucking, Inc.",980 Head Distillery Rd,Raywick,KY,40060,270-692-4970
Parkers Wrecker Service,1790 Lily Rd,London,KY,40741,606-864-0617
Wade Machine Co,1410 Chipman Ridge Rd,Williamstown,KY,41097,859-824-4677
Billie M Massey Trucking,3010 Chaly Beate Road,Smiths Grove,KY,42101,502-597-3949
Wilhite Trucking,1265 Coburn Hollow Rd,Huddy,KY,41535,606-262-4746
Bedrock Trucking,15 Locust St,Huddy,KY,41535,606-353-1962
Annette Hall Trucking,150 Patton Branch Rd,Dema,KY,41859,606-447-2157
Shirley Trucking Company,3570 Greensburg Rd,Edmonton,KY,42129,502-432-3752
Rex Widau Trucking,915 Division Rd,Albany,KY,42602,606-387-5097
C T's Garage & Wrecker Service,6076 Rongh Creek Rd,London,KY,40741,606-878-5755
Parker Truck Sales,3433 7th St Rd,Louisville,KY,40216,502-635-2341
Compton Trucking,Hcr 84 Ansel Horsley Rd Box 4,Garfield,KY,40140,502-756-2865
Wanna Be Trucking,201 Crossover Rd,Wickliffe,KY,42087,502-335-3387
13 Speed Trucking,1001 Rockhouse Rd,Hatfield,KY,41514,606-353-9934
Burdine Trucking,1974 Hwy 1675,Somerset,KY,42501,606-274-1019
Circle G Farms,695 Edwards Road,Barlow,KY,42024,270-564-0124
Halls Trucking,329 Pine St,Monticello,KY,42633,606-348-3264
Paul Jarvis Trucking,305 Dowis Chapel Rd,Woodbine,KY,40771,606-526-9090
Andrew Coffenberry Trucking,5652 Wadesboro Rd N,Benton,KY,42025,502-527-3051
Pam Trucking,Hwy 550,Lackey,KY,41643,606-946-2507
Onsite Waste Management,3936 S Brook St,Louisville,KY,40214,502-366-3775
Lovell Polley Trucking,12913 W Ky 8,Vanceburg,KY,41179,606-798-6921
Rickey Waddell Trucking,170 S Jackson Hwy,Hardyville,KY,42746,270-528-3037
"D L D Trucking Co, Inc.",59 E & R Road,Elkhorn City,KY,41522,606-754-9834
Collett Trucking,Hwy 406,Roark,KY,40979,606-374-3842
Randy Crabtree Trucking,510 Fed Stephens Rd,Pine Knot,KY,42635,606-354-9432
Ozark Slones Trucking,26028 Ky Rt 122,Melvin,KY,41650,606-452-4644
Johnny Riley Trucking,2161 Beech Grove Road,Burkesville,KY,42717,270-433-7212
Bobby Holbrook Transport,667 Ky Rt 1107,Van Lear,KY,41265,606-789-6093
C J Trucking,6 Elm Estate Dr,Corbin,KY,40701,606-528-0125
R & M Trucking,Rocklick Rd,Salyersville,KY,41465,606-349-6476
Gowen's Automotive,5916 New Columbia Road,Campbellsville,KY,42718,502-789-9717
Doug's Delivery Service,305 Pendleton St,Falmouth,KY,41040,606-654-3791
Vickers Trucking,7184 E Bend Rd,Burlington,KY,41005,859-586-7947
Moore Trucking,120 Old Seree Westview,Harned,KY,40144,270-257-8020
House Trucking,10 Scott St,Dry Ridge,KY,41035,606-824-9162
Powers Excavation Services,950 State Route 144e,Hawesville,KY,42348,270-927-8795
Willie Lewis Trucking,476 Big Creek Road,Hazard,KY,41701,606-438-1498
R 7 & 32 Equipment & Auto Sales,R 1 Box 1120,Sandy Hook,KY,41171,606-738-4862
Rebecca Brown Trucking,Box 5555 Us 460,Staffordsville,KY,41256,606-297-1765
Heaton Mobile Home Movers,2216 Farmersville Rd,Princeton,KY,42445,502-365-9642
Glasgow Well Supply,251 Kentucky Street,Glasgow,KY,42141,502-651-6101
Hobbs Light Hauling,100 York Ln Lot 7,Junction City,KY,40440,606-854-3372
M G Trucking,1429 Owens Branch Rd,Slemp,KY,41763,606-436-4914
Johnny D Hacker Trucking,Hwy 421 N Mountain Crest Road,Manchester,KY,40962,606-598-3300
Farley Trucking,8577 Hwy 1056,Mccarr,KY,41544,606-427-7519
G & G Trucking,2505 Mill Creek Road,Tompkinsville,KY,42167,270-487-5898
Glk Trucking,119 Central Avenue,Leitchfield,KY,42754,502-259-4164
Bc Oil Company,202 Durham Street,Greensburg,KY,42743,270-932-3730
J C O'daniel Trucking,4315 Old Hwy 53,Lagrange,KY,40031,502-222-7408
5 Points Auto Sales,800 Coldwater Road,Murray,KY,42071,270-753-4300
Wellman's Trucking,Hwy 201,Webbville,KY,41180,606-652-9696
Lewis Transport,Rr #1 Hwy 227,Carrollton,KY,41098,502-732-0509
D & L Transport,2067 Fallsburg Rd,Louisa,KY,41230,606-686-1046
Martin's Backhoe & Trucking,382 James Rd,Walling Ford,KY,41093,606-845-0740
Do-rite Mobile Home Transport,Rt 4 Box 194 C,Grayson,KY,41143,606-474-6485
Alan Todd Jones Trucking,382 Mt Union Church Rd,Smiths Grove,KY,42171,270-563-2267
C & S Express,313 N Maple St,Somerset,KY,42501,606-678-2683
Rock & Dirt Hauling,2400 Cemetery Rd,Auburn,KY,42206,270-542-6500
Cartwrights Truck Services,1960 Beulah Road,Madisonville,KY,42431,270-705-0489
Steven T Jackson Trucking,R #1 Box 40 Aa,Demossville,KY,41033,606-472-5396
Go Fast Trucking,5583 Us Hwy 641 S,Hazel,KY,42049,502-492-6168
A & C Trucking,9410 Blandville Road,West Paducah,KY,42086,270-554-5799
Shepherd's Septic Service,450 Delaney Road,Brooksville,KY,41004,606-735-2011
Agnes Francis Trucking,27 Ball Fork Road,Pinson Fork,KY,41555,606-353-4064
Sebastian's Catering,100 Magellan Way Kwga,Covington,KY,41015,859-386-7335
Bob Bradley Trucking,2937 Wray Road,Wingo,KY,42088,270-705-9390
Computrex Brokerage Service,10170 Linn Station Road,Louisville,KY,40223,502-326-9120
Wood Trucking,8336 Brownsville Rd,Smiths Grove,KY,42171,270-597-2263
"Mitchell Trucking, Inc.",8135 Cropper Road,Pleasureville,KY,40057,502-461-7273
Boyd Trucking,544 Swan Road,Sedalia,KY,42079,270-382-2452
J & J Trucking,4728 Old Dublin Road,Mayfield,KY,42066,270-623-8051
Z & A Trucking,411 Oakridge Dr,Radcliff,KY,40160,502-737-5256
Robbie's Truck,Po Box 116,Stanville,KY,41659,606-478-5745
Hargis Trucking,1160 Hazel Creek Road,Beech Creek,KY,42321,502-476-8495
Mike Lee Trucking,1168 Ky Hwy 70 E,Liberty,KY,42539,606-787-1838
Pipeline Transportation Services,490 N Lakeview Dr,Brooks,KY,40109,812-282-1271
Napier Transport,144 Vicky Ct,Elizabehtown,KY,42701,270-763-6440
Boswell Trucking,3170 Green Briar Road,Utica,KY,42376,270-929-4005
Mullins Enterprises,8795 E Highway 70,Eubank,KY,42567,606-379-5085
Knuckles Trucking Construction,103 South Walnut St,Pineville,KY,40977,606-337-7427
J T S Transport,225 Margaret Avenue,Horse Cove,KY,42749,270-786-4414
Truck Tires Of Kentucky,807 N Mulberry Street,Elizabethtown,KY,42701,502-769-9148
Evans Trucking,2262 Leetown Rd,Dunbar,KY,42219,270-779-4105
S & W Trucking,P O Box 33,Garrard,KY,40941,606-598-4081
Palmer Trucking,2629 Hickory Grove Rd,Almo,KY,42020,270-489-6165
Kibbey Trucking,330 Beckwitch Branch Rd,Grayson,KY,41143,606-474-0845
C & D Trucking,14201 Bohannon Lane,Louisville,KY,40272,502-361-1983
"Sturgeon Trucking, Inc.",117 W Triangle Lane,Louisville,KY,40229,502-957-6777
Brown & Brown Trucking,Hwy 259 N,Hardinsburg,KY,40143,502-756-1032
John J Asher Trucking,6676 South Us Hwy 25,Corbin,KY,40701,606-523-2234
Ayers Trucking,Rr 3 Box 500,Albany,KY,42602,606-387-0345
"Marlow Trucking Co, Inc.",980 Mckinney Geneva Rd,Mckinney,KY,40448,606-346-4905
Creed Potter Trucking,681 Rockhouse Rd,Pikeville,KY,41501,606-639-9168
Philpot Trucking,1426 Tidal Wave Rd,Corbin,KY,40701,606-523-0766
"Lazy Eight Trucking & Leasing, Inc.",55 Taylor Lake Rd,Manitou,KY,42436,270-249-0984
Commonwealth Expediting,2539 Regency Road Suite 106,Lexington,KY,40503,606-278-9566
K B C Trucking,23 Washington School Rd,Scottsville,KY,42164,502-622-3288
Wallace Logging & Trucking,100 Rolling Acres Road,Morehead,KY,40351,606-784-2460
K & S Express,301 6 Th St Ste 2,Dayton,KY,41074,606-431-6145
Roger Mitchell Trucking,5325 Crayne Cemetary Rd,Fredonia,KY,42411,502-545-3479
Mcwhorter Trucking,3504 Autumn Way,Louisville,KY,40218,502-458-6053
Jerry W Burton Trucking,4414 Valley Hill Road,Springfield,KY,40069,812-280-7855
Chris Tucker Trucking,4877 Kirksey Rd,Kirksey,KY,42054,502-489-2392
Miller Auto Sales,631 South 3rd Extended,Murray,KY,42071,270-767-9761
Glenn Woods Trucking,Us 421 S Stacey Branch Rd,Manchester,KY,40962,606-598-2713
E R Trucking,Hwy 1009,Alpha,KY,42603,606-348-3250
T & E Trucking,1980 Elliston Mt Zion Rd,Dry Ridge,KY,41035,859-393-6929
Mark's Auto Sales,1108 Main St,Munfordville,KY,42765,502-524-2277
Sherry's Septic Tank & Sewer Service,3797 Old Kentucky 17,Fort Wright,KY,41017,606-356-2957
Dotson Farms,3596 Highland Lick Rd,Russellville,KY,42276,270-726-2126
Mullins Trucking,145 Fair St,Mount Vernon,KY,40456,606-256-2265
Bartram Trucking,195 Pelfrey Dr,Campton,KY,41301,606-668-7095
Raley's Mobile Home Trasnporting,120 Lawson Woods Drive,Brandenburg,KY,40108,270-422-1695
D & B Transport,Hwy 696,Albany,KY,42602,606-387-4847
Napier Transport,2696 Cynthiana Rd,Georgetown,KY,40324,606-624-3107
T & D Trucking,5042 Hwy 80,Wooton,KY,41776,606-279-5700
Gts,2200 Outer Loop,Louisville,KY,40219,502-961-1100
Lone Wolf Trucking,1208 Springcreek Rd,Albany,KY,42602,606-387-8315
Murdock's Auto Sales,Rt 2,Catlettsburg,KY,41129,606-686-2997
Cole Transport,4407 E Hwy 619,Russell Springs,KY,42642,502-343-4805
Jams Express Transport,Hc 61 Box 2,Pineville,KY,40977,606-337-9746
Marshall Greg Whitaker Trucking,5808 Whispering Hills Blvd,Louisville,KY,40219,502-968-5442
Gilbert Lynn Trucking,350 Edwards Road,Somerset,KY,42501,N/A
Auto Magic Of Kentucky,369 Codell Drive,Lexington,KY,40509,606-268-2171
Cornwell Used Trucks,Po Box 526,Scottsville,KY,42164,502-622-4532
E & J Bryan Trucking - Bluegrass Station,1810 Bryant Rd,Lexington,KY,40509,606-263-4538
Pierce Transport,Rt 1 Box 209,Mount Vernon,KY,40456,606-256-2675
Willis Auto Sales,314 W Main St,Clarkson,KY,42726,502-242-4030
Dj's Transportation,722 Belmar Drive,Owensboro,KY,42303,270-485-6062
Global Recovery Service,2100 S 7th St Road,Louisville,KY,40208,502-634-1300
Butch Crawford Trucking,3007 Lowell Ave,Louisville,KY,40205,502-458-9357
B B & K Trucking,389 Stumbo Branch Rt 2030,Printer,KY,41649,606-285-0682
Tims Transport,53 Redstone Drive,Grayson,KY,41143,606-474-5285
Coffey's Mobile Home Transport,Rt 1 Box 208 B,Irvington,KY,40146,502-547-5320
L & L Trucking,987 N Hwy 413,Baxter,KY,40806,606-573-5676
Crazy Horse Transportation,Rr 1 Box 1145,Sandy Hook,KY,41171,606-738-9141
R T Trucking,5879 Coal Bank Road,Sharon Grove,KY,42280,270-277-6295
Jake's Trucking,6550 Robinson Creek Rd Rt 122,Robinson Creek,KY,41560,606-639-2266
Blanton Trucking,3336 Tahoe Rd,Lexington,KY,40515,606-271-2499
G & R Trucking,6180 Christy Creek,Morehead,KY,40351,606-780-4982
Double J Trucking,Cumberland Gap Pkwy,Bimble,KY,40915,606-546-6248
"Edwards Trucking Co, Inc.",9114 Maiden Ct,Louisville,KY,40229,502-969-6001
A-c Trucking,Hc 81 Box 1913,Barbourville,KY,40906,606-546-8044
J & J Trucking,1850 Hobbs Reesor Rd,Vine Grove,KY,40175,502-828-4025
Green's Auto Sales,2171 Hwy 201,Sitka,KY,41255,606-297-3144
S & R Trucking,Buck Creek,Whitesburg,KY,41858,606-633-3950
Joe's Backhoehoe And Dump Truck Services,4065 Old Gallatin Rd,Scottsville,KY,42164,502-622-6317
Marshall Trucking,14430 Trace Road,Rush,KY,41168,606-928-5218
Hargis & Hargis Trucking,100 Williams St,Somerset,KY,42503,606-676-0084
Yandell Mobile Home Transport,216 S Main St,Salem,KY,42078,502-988-4430
J & V Transmission,6855 Robinson Cr Rd,Robinson Creek,KY,41560,606-639-4222
Bullet Carrier Service,1025 Parkside Dr,Georgetown,KY,40324,502-863-6795
G & S Freight Co,433 N 29th St,Louisville,KY,40212,502-772-5338
Mark Reeder Trucking,8 Crocket Drive,Pineville,KY,40977,606-269-9241
Coldiron Trucking Co,3290 Hwy 568,Cranks,KY,40820,606-573-7343
Rda Trucking,1536 Us 60 West,Ledbetter,KY,42058,270-898-8604
Morrow Dozer Service,215 Stephens Lane,Russell Springs,KY,42642,502-866-2444
J & J Trucking Co,168 Courtney Lane,Stanton,KY,40380,606-663-9394
Eveready Express,504 Apple Grove Dr,Nicholasville,KY,40356,859-806-5986
Robinson Trucking,7816 Dixie Hwy,Florence,KY,41042,859-283-5847
Embry Mobile Home Transport,201 Mill St,Caneyville,KY,42721,502-879-3106
C & R Transport,132 Doyle Mtn Road,Huddy,KY,41535,304-855-3334
Sabre Transportation,105 Morth Main St,Muldraugh,KY,40155,502-942-7600
E And E Express,20 Dickerson Street,Park City,KY,42160,502-749-9039
D J's Giant Tire Repair & Crane Service,217 Possum Creek Rd,Emlyn,KY,40730,606-549-5181
Ssc,1901 Crimson Drive,Louisville,KY,40272,502-935-6574
Serra Transport,856 Ridgeview Dr,Florence,KY,41042,859-282-8086
Huitt Trucking,1 Circle Dr,Mt Vernon,KY,40456,606-256-8372
Wayne's Distributors,16 Stewart Rd,Paintsville,KY,41240,606-297-3474
Hensley Transportation,1310 Irvine Rd,Clay City,KY,40312,606-663-2365
Bluegrass Transport,1314 Shadelawn Dr,Mount Sterling,KY,40353,606-498-1414
Livesay Trucking,1771 Old Hartsville Rd,Scottsville,KY,42164,502-622-7136
W K Transports,P O Box 1563,Murray,KY,42071,270-767-9502
Savoy Auto Sales,25 E Hwy 92,Williamsburg,KY,40769,606-549-9748
Crisp Trucking,P O Box 1045,Grayson,KY,41143,606-474-6328
Rebel Trucking,7711 St Rt 121 South,Mayfield,KY,42066,502-345-2055
Higher Ground Trucking,P O Box 307,Louisa,KY,41230,606-638-7714
K & S Trucking,2469 Bewleytown,Fountain Run,KY,42133,270-434-4179
R L Smith Trucking,265 Perkins Rd,Russell Springs,KY,42642,502-866-3941
"C & K Bobcat & Backhoe Service, Inc.",9320 Warsaw Road,Glencoe,KY,41046,606-428-1921
Katie Trucking,79 Drew Village Road,Elkhorn City,KY,41522,606-754-8042
Tkv Home Transport,309 S 35 St Exeter Ave,Middlesboro,KY,40965,606-337-5009
Wayne Perrys Septic Tank Service LLC,3258 St Johns Rd,Frankfort,KY,40601,502-875-5142
Wolf Trucking,Hwy 61 Box 879 B,Salyersville,KY,41465,606-349-3905
Dwayne Ferguson Trucking,19335 Hwy 172,West Liberty,KY,41472,859-339-4944
Kentucky Film Carriers,695 Triple Lake Dr,Crescent Springs,KY,41017,606-341-0156
Crisp Trucking,1113 St Hwy 1947,Grayson,KY,41143,606-474-0862
Advantage Transport,P O Box 176355,Covington,KY,41017,606-331-1919
Tri-state Express Freight,1492 Mt Zion Road,Union,KY,41091,513-697-0786
Cynthiana Transport,9 Linwood Avenue,Erlanger,KY,41048,888-291-0503
Bluegrass Trans,6145 New Liberty Church Rd,Kevil,KY,42053,502-462-2498
Jackson Trucking,Us Highway 23 South,Jenkins,KY,41537,606-639-0589
H & H Trucking,2858 Hillsboro Road,Campbellsburg,KY,40011,812-820-2176
Wireman Brothers Trucking,1978 Howard Br Rd,Salyersville,KY,41465,606-884-7772
William Belew Trucking,1834 Carneal Lane,Oak Grove,KY,42262,270-439-4663
One Ton Express,3107 Sudbury Lane,Louisville,KY,40220,502-499-1165
Carpenter Trucking,2020 Beech Fork Rd,Gravelswitch,KY,40328,270-402-1775
Bill's Wrecker Service,Subtle Rd,Edmonton,KY,42129,502-432-3535
Moorehauling,1888 Nunn Switch Road,Marion,KY,42064,502-965-2328
Lyons Trucking,117 Frances Drive,Somerset,KY,42503,606-678-8953
Stephens Automotive LLC,8946 St Rt 1529 East,Water Valley,KY,42085,270-355-9816
South Laurel Auto Sales,138 Topton Road,London,KY,40744,606-864-2700
Little Bird Trucking,1081 Ridge Rd,Morgantown,KY,42261,N/A
Gary Govern Trucking,793 Cohoon Rd,Murray,KY,42071,502-753-5402
Alkenten Transportation,6965 Linton Road,Cadiz,KY,42211,502-924-5658
Boyd Trucking,338 Blane Drive,Hopkinsville,KY,42240,502-885-5604
Bartlett Mobile Home Transport,2130 Hiway 142,Philpot,KY,42366,270-729-4597
Vaughn Trucking,670 Lambert Rd,Clearfield,KY,40313,606-784-7584
S & H Trucking,980 Scott Rd,Burksville,KY,42717,502-433-7330
Homestead Mobile Home Movers LLC,231 August Circle,Lowmensville,KY,41232,606-297-5050
S&s Trucking,8238 Ray Dr,Ashland,KY,41102,606-928-0868
Burnett Carriers LLC,Hc 71 Box 499,Alpha,KY,42603,606-340-9392
Jent Trucking,250 Coal Spring Hollow,Morehead,KY,40351,606-784-7614
Parrish Trucking,100 Cain Drive,Murray,KY,42071,502-753-5543
B & D Enterprises,14063 Brown Road,Verona,KY,41092,859-485-6024
Josh Dillon Transport,604 Highfield Road,Danville,KY,40422,606-238-2151
Beech Grove Trucking,1404 Beech Grove Rd,Wickliffe,KY,42087,270-210-6122
Kenny Potter Trucking,2600 Elkhorn Creek Rd,Elkhorn City,KY,41522,606-754-5005
Parkway Hot Shot,305 Hospital Dr,Princeton,KY,42445,270-365-5874
One Force Staffing,717 Madison Suite 300,Covington,KY,41011,859-982-0071
Ferguson Trucking,Little Sulpher Road,Vanceburg,KY,41179,606-796-6365
C & C Transport,777 Sandra Ct,Radcliff,KY,40160,502-351-0192
Regina Auto Sales,399 Bowling Fork Rd,Elkhorn City,KY,41522,606-754-4522
Junk Hauler,339 St Rt 1748 E,Mayfield,KY,42066,270-376-5402
P & J Express,1261 Village Drive Apt 110,Lexington,KY,40504,606-255-5148
Cox Trucking,Hc 86 Box 1288,Pineville,KY,40958,606-337-1736
D & J Auto Mart,155 W Lexington Ave,Winchester,KY,40391,606-744-1229
Dukes Trucking,1820 Hwy 289,Lebanon,KY,40033,270-692-2287
Rick Cook Trucking,Hc 68 Box 299-a,West Liberty,KY,41472,606-743-4120
Raymond Thomas Trucking,Rt 1 Box 347 H,Monticello,KY,42633,606-416-6843
Rjt Trucking,5446 New Glendale Rd,Elizabethtown,KY,42701,270-369-9814
Jot's Transport,220 Marsillett Drive,Prestonsburg,KY,41653,606-886-2064
Shadetree Enterprises,2735 Talmas Mayo Road,Salvisa,KY,40372,859-865-4543
Art Lewis Trucking,311 Beech Grove Road,Shepherdsville,KY,40165,502-955-7927
J Toon Trucking,219 East Lee Street,Mayfield,KY,42066,270-628-3821
D Cantrell Trucking,6117 Leondard Way,Louisville,KY,40229,502-262-3120
Bell Trucking,229 Austerlitz Road,Paris,KY,40361,859-987-0566
Mercy Trucking,12 Mayvillage Road,Allen,KY,41601,606-874-9481
Bluegrass Express Company,955 Peach Orchard Branch,Pikeville,KY,41501,606-432-8747
Network Logistics,269 Triport Road,Georgetown,KY,40324,502-570-5877
Chris Miller Trucking,16156 Lebanon-crittenden Rd,Crittenden,KY,41030,606-428-0962
"Tbr Trucking, Inc.orporated",434 Whitehouse Rd,Whitehouse,KY,41240,606-297-1242
Elliott Trucking,2322 Greenville Road,Hopkinsville,KY,42240,502-886-7160
Flatbroke Trucking,148 Bill Lewis Hollow,Kona,KY,41858,606-855-9110
Lester Trucking,Rt 119,Phelps,KY,41553,540-566-2182
Hubbard Trucking,Box 143 Scalf,Knox,KY,40982,606-545-2380
Ledger Trucking,14 School St,Woodbine,KY,40771,606-528-5433
Titan Moving And Hauling,118a Withers Ave,Lexington,KY,40505,859-389-9603
Sjc Trucking,2450 Curtis Pike,Richmond,KY,40475,859-328-9430
Geneos Trucking,335 Berkley Court,Radcliff,KY,40160,270-351-8130
C H Gilbert Trucking,12010 Hwy 10n,Foster,KY,41043,606-472-3242
Billy Chandler Trucking,3505 Cr 1024,Melber,KY,42069,270-562-5139
Tim Keeton Trucking,3015 Highway 705,West Liberty,KY,41472,606-743-4884
Mccoy Trucking,605 Woodbine Street,Hopkinsville,KY,42240,502-885-5541
Roger Murphy Trucking,2287 Gospel Peace Road,Hopkinsville,KY,42240,502-886-5920
On The Move Commercial Services,330 Newtown Pike,Lexington,KY,40508,859-252-4096
Midnight Express,307 Rosedale,Richmond,KY,40475,606-626-8611
Tmd Trucking,107 Renee Lane,Wallingford,KY,41093,606-748-0742
Tri Co Readymix,277 Ready Mix Rd,London,KY,40741,606-679-7490
Frank Trucking,Hcr 60 Box 01,Webster,KY,40176,502-547-7845
Tnt Crane Service,Rt 4 Box 222,Falmouth,KY,41040,606-654-2355
Sundance Transportation,R #3 Box 1137,Brodhead,KY,40409,606-758-4395
Carnahan Trucking,312 Harper Drive A-5,Horse Cave,KY,42749,270-786-2053
White Trucking,8490 Richardsville Road,Bowling Green,KY,42101,270-777-9448
A Trucking,1641 Orem Lane,Campbellsburg,KY,40011,502-532-9917
D & R Truckline,3225 Grant Avenue,Louisville,KY,40214,502-361-7155
Avs Logistics,75 Cavalier Blvd Suite 104,Florence,KY,41042,859-692-2030
Randy's Auto Parts & Sales,Hc 84 Box 900,Parkers Lake,KY,42634,606-376-4040
Terry Mullins Trucking LLC,8888 Robinson Creek Rd,Virgie,KY,41572,606-639-4845
Appollo Trucking,Hc 81,Sandy Hook,KY,41171,606-738-6536
Densil Wheeler Trucking,Rr # 1 Box 638,West Liberty,KY,41472,606-743-3637
Roy W Curtis Trucking,Po Box 186,Owingsville,KY,40360,606-683-2103
Rando's Auto Sales,346 Lambert Rd,Scottsville,KY,42164,270-622-9700
Roberson Trucking,4082 E Hwy 36,Owingsville,KY,40360,606-674-3924
Wendell Smith Trucking,1983 Walton Nicholson Pike,Independence,KY,41051,859-760-2868
K W Trucking,1763 Merry Oaks Railton Rd,Smiths Grove,KY,42171,270-678-6197
Ltd Express,1810 Monmouth Street,Newport,KY,41071,770-854-6497
Rose Trucking,1455 Jamike Ave,Erlanger,KY,41018,859-647-2655
J & P Transport Co,922 Jacks Creek Road,Bevinsville,KY,41606,606-452-2836
"Bowling Green Truck & Trailer, Inc.",1911 Parker Avenue,Bowling Green,KY,42102,270-843-9031
R J R Express,1863 Amsterdam Road,Covington,KY,41011,606-578-8886
Mark Popham Trucking,95 Delilah Way,Brandenburg,KY,40108,502-422-5869
Gotta Go Trucking,974 State Rt 600,Greenville,KY,42345,270-338-7486
Advanced Trucking,45 Fontaine Boulevard,West Winchester,KY,40391,606-737-4007
H & J Salvage,4010 Madisonville Road,Hopkinsville,KY,42240,270-886-2571
M & J Transport,622 S Scott St,Madisonville,KY,42431,502-825-9089
Bishop's Repair Service,145 Sharon Rd,Worthville,KY,41098,502-463-2886
Auto Sales,418 Clifty Rd,Somerset,KY,42503,606-561-8269
Newton Boyz Trucking,6108 Count Turf Drive,Louisville,KY,40272,502-937-8805
Dean Lunz Trucking,6686 Glasgow Rd,Edmonton,KY,42129,270-432-4496
Shock Manufacturer-distributor,1961a International Way,Hebron,KY,41048,606-586-4100
M & K Transport,3430 Millcreek Road,Carrollton,KY,41008,502-732-0110
Walter White Services - Bsc Industries,194 Chaplewood Dr,Henderson,KY,42420,812-421-0639
B F A Transportation,730 Fairview Avenue,Bowling Green,KY,42101,502-781-2080
Greene Trucking,152 County Farm Road,Falmouth,KY,41040,859-654-6230
Brewer Trucking,109 Tarridge Road,Rogers,KY,41365,606-668-9081
Crawford Mobile Home Movers,312 Ayers Rd,Auburn,KY,42206,270-542-6193
T & C Motor Transport,1861 Crayne Cemetary Road,Fredonia,KY,42411,270-929-4993
Mayhugh Transport,P O Box 23,Tiline,KY,42083,270-928-2995
"P M Trucking, Inc.",225 Lowerfield Rd,Fisty,KY,41743,606-251-3325
"C W Keller Trucking Co, Inc.",401-b Triport Road,Georgetown,KY,40324,502-867-0529
F W Strecker Leasing Systems,2111 Production Dr,Louisville,KY,40299,502-499-6850
Dalton Hauling & Excavating,4029 Clifty Rd,Somerset,KY,42503,606-423-4444
Slagle Trucking,135 Tucker Rd,Bronston,KY,42518,606-561-9273
Fox Run Farms,4741 Maysville Road,Flemingsburg,KY,41041,606-782-2932
B&b Trucking,223 Pasadena Dr,Lexington,KY,40503,606-734-6930
Collett & Sons Transport,100 Tye St,Barbourville,KY,40906,606-546-8336
Fletcher Trucking,Rt 1714,Lovely,KY,41231,606-395-9775
Powell Trucking,115 Glenn Rd,Leithfield,KY,42754,270-230-1688
Epleys Movers,751 Brownslock Rd,Bowling Green,KY,42101,270-842-5685
Dahlenburg Movers,1530 Maryland Ave,Covington,KY,41015,854-431-3244
Gate City Moving & Storage,481 Wilmont Road,Mount Sterling,KY,40353,N/A
"Lebanon Distributing Co, Inc.",270 Highway 208,Lebanon,KY,40033,502-692-3259
Johnson Trucking,106 Rogers Rd,Glasgow,KY,42142,270-678-2455
Bruce Wholesale Flooring,817 Nandino Blvd,Lexington,KY,40511,859-281-1200
Short Trucking,2080 Harrodsburg Road,Lawrenceburg,KY,40342,502-839-3974
Turner Expediting Service,2305 Ralph Avenue,Louisville,KY,40216,502-449-3109
Lionel Gumm,1605 Gayle Dr,Lexington,KY,40505,859-299-0872
Kentucky Tie & Lumber,423 Sawmill Rd,Columbia,KY,42728,270-384-3903
Coffman Trucking,1714 South Main St,Henderson,KY,42420,270-827-5487
Gant Transport,1200 Carter Rd,Owensboro,KY,42301,502-684-2382
"Restaurant Services, Inc.",200 No Floyd St,Louisville,KY,40202,502-582-2591
Care A Van,1601 South Preston Street,Louisville,KY,40217,502-637-6511
Roy G Asher Trucking,120 Nags Head Rd,Wooton,KY,41776,606-279-2504
Spring Creek Transport LLC,4951 Wolf River Dock Road,Albany,KY,42602,606-387-9323
Byles Auto Parts Co,2257 Greenup Avenue,Ashland,KY,41101,606-324-6127
Nes Rentals,1400-a Hillwood,Murray,KY,42071,270-767-9919
H & H Truck Service,6315 Cold Springs Rd,Paducah,KY,42003,270-442-8438
Foister Trucking,1675 Chaney Ridge Road,London,KY,40741,606-843-7830
Adkins Export Packaging & Machinery Movers,1301 Portland Ave,Louisville,KY,40203,502-583-5551
Ginger Trucking,12125 Hwy 92 E,Williamsburg,KY,40769,606-549-5891
"Cmac Express, Inc. Deptor In Possession",1145 Vistory Pl,Hebron,KY,41048,859-525-2422
Kinnin Transportation Services,205 Country Club Dr,Marion,KY,42064,270-965-4194
Bryants Trucking,Rt 2 Box 187,Tompkinsville,KY,42167,N/A
Quality Transportation Company,1408 N 8th Street,Paducah,KY,42001,270-443-6515
Laster Trucking,259 Laster Road,Elkton,KY,42220,270-277-9040
Ratliff Trucking,Hc 65 Box 542,Elkhorn City,KY,41522,N/A
"Iery Trucking, Inc.",68 Mckay Road,Greenup,KY,41144,606-473-6495
Scottie Ford,564 Green Creek Dr,Glasgow,KY,42141,270-678-5742
Ok Storage And Transfer,1104 E Broadway,Louisville,KY,40204,502-584-7232
Drysdale Direct Express,130 Campbell Rd,Walton,KY,41094,859-356-3278
Wilder Trucking,14192 Hwy 7,West Liberty,KY,41472,606-738-4622
Coburn's Wrecker Service & Mobile Home Transit,408 State Road 1947,Grayson,KY,41143,606-474-4533
C C Trucking Service,339 Pleasant St,Covington,KY,41011,606-261-4031
Don Bowling Trucking,8617 Dixon Road #1,Corydon,KY,42406,800-548-3949
Ohio Valley Trucking,State Rd 36 West,Carrollton,KY,41008,502-732-6606
"Sams Carpet Service, Inc.",100 Talbott Avenue,Winchester,KY,40391,606-744-2157
"Truck Parts Equipment, Inc.",1158 Industry Road,Lexington,KY,40504,606-252-6773
G & H Transport,Us Rt 150 Rt 2 Bardstown,Springfield,KY,40069,606-336-7687
Everidge Express,Hc 31 Box 180,Larkslane,KY,41817,606-785-3249
Lookout Marine Service,6209 South Highway 27,Somerset,KY,42501,606-561-4447
Jackie E Everage Trucking,463 Ball Fork Rd,Hazard,KY,41702,606-378-2297
Wagers Trucking,119 Tall Oak Trail,Pineville,KY,40977,606-542-0509
Crabtree Logging & Trucking,548 New Stephens Mill Rd,Pine Knot,KY,42635,606-354-4966
Pat Cassady's Wrecker Service,523 State St,Bowling Green,KY,42101,502-842-4802
Continental Auto Sales,361 N Greenville,Harrodsburg,KY,40330,606-734-7824
Griffin Trucking,Huntersville Rd,Albany,KY,42602,606-387-7812
Russelburg Express,1489 State Rt 2091,Morganfield,KY,42437,270-389-4992
Eugene Thompson Trucking,Po Box 81,Fedscreek,KY,41524,606-835-2114
"G & E Keller Transportation, Inc.",200 Keith Ln,Eubank,KY,42567,606-379-6025
T West Trucking,Mare Creek Rd,Ivel,KY,41642,606-478-4355
R & S Trucking,P O Box 459,Louisa,KY,41230,606-638-1020
H A Trucking And Contracting,2864 Hwy 2035,Whitesburg,KY,41858,606-633-0240
Irving Nemerow Trucking,1837 West U S 60,Ashland,KY,41101,606-928-3277
Northside Mobile Home Transit,3276 Lexington Road,Richmond,KY,40475,606-625-0000
Sowers Trucking,800 Old Hartsville Rd,Scottsville,KY,42164,502-678-5432
"C A Stephens Trucking, Inc.",6080 Danville Rd Loop 2,Nicholasville,KY,40356,859-881-1900
Lc Trucking,Rt 40 Po Box 233,Oil Springs,KY,41238,606-349-3945
Northern Kentucky Trucking,4012 Pointer Ct,Florence,KY,41042,606-356-7200
Iti Freight Systems,7930 Kentucky Drive,Florence,KY,41042,859-525-0926
R & R Thompson,1475 Jericho Road,Hodgenville,KY,42748,270-325-3978
Earl Langdon Trucking,104 Langdon Garrison Road,Manchester,KY,40962,606-598-6945
Delta Distributing,1300 Outer Loop,Louisville,KY,40219,502-361-9090
Mccoy Van Service,2800 Bryant Road,Lexington,KY,40509,N/A
Performance Food Group,910 Highway 461,Somerset,KY,42503,606-274-4858
Fultz Trucking,Rr 2 Box 402,Morehead,KY,40351,606-783-1570
Jr Trucking Company,Rt 3 Dry Hollow Road,Garrison,KY,41141,606-757-3093
L & L Trucking,3522 Slem Street,Ashland,KY,41101,N/A
James Oliver Trucking,Hwy 94 Rt 1,Sedelia,KY,42079,502-382-2550
Triton Trucking,13675 Hwy 30 East,Rousseau,KY,41366,606-666-9157
Perry's Wrecker Service,219 Lake Street,Richmond,KY,40475,606-624-2919
"A & H Trucking, Inc.",225 Boggs Lane,Richmond,KY,40475,859-623-6212
"Steve Overstreet Trucking, Inc.",5332 U S 127 North,Liberty,KY,42539,606-706-8905
Combs Service,4030 Hwy 15 South,Jackson,KY,41339,606-666-7735
Sugar's Trucking,3133 Carter Avenue,Ashland,KY,41101,606-329-8176
J & H Transportation,1110 Clintonville Road,Paris,KY,40361,606-987-8220
Roth Trucking,2461 Fiskburg Rd,Demossville,KY,41033,859-356-3949
Murlon T Lile Trucking,5860 Greensburg Rd,Edmonton,KY,42129,270-432-5131
Robert Lane Trucking,3674 Charlie Moran Highway,Horse Cave,KY,42749,502-786-3763
Diamond River Coal Transport,5332 Skyline Dr,Ashland,KY,41101,N/A
Cook Trucking Co,604 Lytle Ave,Elsmere,KY,41017,606-342-6955
Odle Movers,1525 W Market St,Louisville,KY,40203,502-778-4686
Ag Transport,5620 Greenlick Rd,Corydon,KY,42406,270-533-6172
Ison Trucking Co,2050 Rockfork Road,Morehead,KY,40351,606-784-7828
Toby Trucking,Po Box 197645,Louisville,KY,40259,502-262-8115
David Hess Trucking Co,2375 Falmouth Rd,Williamstown,KY,41097,859-824-4191
"B & B Trucking Of Morehead, Inc.",360 Rockfork Rd,Morehead,KY,40351,606-207-4233
Glen Wilham Transport,7435 Edmonton Road,Columbia,KY,42728,270-378-5411
Horn's Transport,145 Langsdale Pt,Crittenden,KY,41030,859-428-5235
D R Jones Distributing Company,55 Slush Puppie Drive,London,KY,40744,606-864-5551
Tabers Wrecker Service,1690 Old Concord Lane,Hopkinsville,KY,42240,270-886-9779
Top Deck Trucking,130 Yeaman Road,Olaton,KY,42361,270-276-5684
Marsh Trucking,917 Adams Ave,Hopkinsville,KY,42240,502-886-8458
Beach Trucking,2 Garrard St 2,Florence,KY,41042,859-982-1019
Page Trucking,364 Hancock Lake Rd,Russellville,KY,42276,502-726-9260
Pendley Truck Sales And Service,Po Box 800,Morgantown,KY,42261,N/A
Friends Auto Mart,203 Greenland Court,Mount Sterling,KY,40353,859-498-7648
Wildstar Trucking,8345 W Mountain Parkway Rd,Prestonsburg,KY,41653,606-358-9773
Lenneth Bryant Trucking,1434 John Eaton Rd,Tompkinsville,KY,42167,502-427-3165
J & L Auto Sales,P O Box 1271,Barbourville,KY,40906,000-004-0906
"Kemper Brothers, Inc.",5365 Us Hwy 42 West,Ghent,KY,41045,859-567-8600
Taylors Body Shop & Auto Sales,1646 Morgantown Road,Bowling Green,KY,42101,502-842-8547
Collins Farm Custom Hauling,5617 State Rt 109 North,Clay,KY,42404,502-664-9842
John A Robinson Trucking Co,10200 Browns Ct,Louisville,KY,40299,502-267-0096
L&s Trucking,118 Mehr Avenue,Leitchfield,KY,42754,502-259-5096
T & A Transport,2351 Jericho Road,Russell Springs,KY,42642,270-866-2616
Hudson Trucking,533 Becks Creek Alsile Rd,Williamsburg,KY,40769,606-549-1564
Gumbert Trucking,2704 Dewitt St,Flatwoods,KY,41139,606-836-8418
R & D Trucking,Us 421 80,Bear Branch,KY,41714,606-598-6515
Hester's Trucking,2785 Homer Rd,Russellville,KY,42276,502-542-4450
Russell Trucking,3418 Cloverlick Rd,Greensburg,KY,42743,502-932-4901
Thomas Shell Service,1633 Monmouth St,Newport,KY,41071,606-431-4078
"Riggs Trucking & Excavation, Inc.",8422 Ky 542,Guage,KY,41329,606-666-9503
David Cleveland Trucking,5493 Hwy 416 West,Robards,KY,42452,270-521-6935
Quality Auto Brokers,Box 11 Midway Plaza,Clarkson,KY,42726,502-242-4961
Road Master Icsa,355 Lee Rd,Vine Grove,KY,40175,270-300-1065
R & R Trucking,11285 Boston Rd,Boston,KY,40107,N/A
Ever-dry Of Louisville,400 Production Ct,Louisville,KY,40299,502-499-0900
David H Dugger Sr,1025 N Main St,Madisonville,KY,42431,502-821-9326
Twin Oaks Trucking,178 Twin Oaks Dr,Mount Washington,KY,40047,N/A
Douglas Trucking Co,Box 527,Cunningham,KY,42035,502-642-2869
Maynard's Distributors,329 Upper Johns Creek Rd,Pikeville,KY,41501,606-631-1351
D Bardin Trucking,313 Young St,Columbia,KY,42728,502-384-3327
Jimmy Miller Trucking,Rt 1 Box 96-c,East Bernstadt,KY,40729,606-843-2364
R P M Express,3475 Air Park Dr Ste 125,Hebron,KY,41048,606-283-5988
Tapp's Horse Transportation,100 Oregon Rd,Versailles,KY,40383,859-873-5474
"Johnny Walker Service, Inc.",101 Us Hwy 51 South ,Clinton,KY,42031,270-653-2911
Pippin Trucking,2310 N Jackson Hwy,Canmer,KY,42722,502-528-5965
Vertrees Chevron,2869 Weldon Loop,Upton,KY,42784,502-369-7880
Gibson Trucking,122 Courtland Avenue,Berea,KY,40403,606-986-6093
Reliable Auto Service,Church St Box 25,Bedford,KY,40006,502-255-7172
Dewayne's Body Shop,1674 Beaverdam Rd,Morgantown,KY,42261,270-526-5354
F & J Trucking,Hc 82 Box 425,Kite,KY,41828,606-447-2624
Hunter's Wrecker Service,4035 Preston Hwy,Louisville,KY,40213,502-458-4690
Gateway Auto & Truck,1136 Frankfort Road,Shelbyville,KY,40065,502-633-2800
M C Automotive,Hwy 56 East,Sebree,KY,42455,502-835-2939
R J Hauling,Rt 2 Box 276-a,Mays Lick,KY,41055,606-267-3416
Thomas Shell Service,7701 Shepherdsville Rd,Louisville,KY,40219,502-969-9135
Hickerson Trucking,1210 Mt Lebanon Ch Rd,Greensburg,KY,42743,270-932-3420
Willard Dale Taylor Trucking,P O Box 383,London,KY,40743,606-864-7665
White's Creek Carriers,3624 St Edwards Dr,Jeffersontown,KY,40299,502-267-1642
S & B Trucking,Hc 76 Box 1720,Garrison,KY,41141,606-473-5960
Larry Chappell Trucking Co,109 North Main St,Dawson Springs,KY,42408,270-797-8916
W E Mccarroll Trucking,Rt #1 Box 109 K,East Bernstadt,KY,40729,606-843-2186
Dry Fork Market,Hc 84 Box 2680,Whitesburg,KY,41858,606-633-9806
K & F Trucking,Rt 1 Box 36a,Jenkins,KY,41537,606-855-7849
Gibson's Wrecker Service,1104 Obyrne Street,Henderson,KY,42420,270-827-0933
Boomer's 24 Hour Wrecker Service,Hwy 160 Kingscreek Rd,Whitesburg,KY,41858,606-633-8710
J W Oliphant Auto Sales & Salvage LLC,150 Hade Bell Road,Scottsville,KY,42164,502-622-4403
Chuck Wagon Express,Po Box 64,South Carrollton,KY,42374,502-754-3837
James Wrecker Service,3319 Shopes Creek Rd,Catlettsburg,KY,41129,606-928-4015
Dales Wrecker Service,3650 Cane Run Rd,Louisville,KY,40211,502-774-3253
Western Shell Service,1840 Russville Road,Bowling Green,KY,42101,502-782-3862
Mobile Tech Services,168 Lake Shore Parkway,Brandenburg,KY,40108,502-422-3553
Berryman Trucking,418 Westview Drive,Franklin,KY,42134,502-586-9210
Aj & K Trucking,188 Barberry Ln,Bardstown,KY,40004,606-855-4559
Bill's Trucking,11320 Madison Pike,Independence,KY,41051,859-356-2086
Sonny's Wrecker Service,1413 Sycamore Lane,Leitchfield,KY,42755,502-259-5383
Denver Mayfield Trucking,255 Shafter Shepola Rd,Somerset,KY,42501,606-679-7641
Fugate's Wrecker Service,P O Box 521,Jackson,KY,41339,606-666-2065
Bottoms Trucking,208 Maplewood Ave,Springfield,KY,40069,606-336-3971
"C & J Trucking Of Pike Co, Inc.",106 Mays Branch Rd,Pikeville,KY,41501,606-754-8419
Gowin Trucking,6303 S Hitt Lane,Louisville,KY,40241,502-241-8608
Westside Auto Repair,R #7 Box 730,Cynthiana,KY,41031,606-234-6797
On Track Express,5930 Folsom Jonesville Rd,Dry Ridge,KY,41035,859-428-2002
Joe Leach Trucking,9913 Ky Hwy 1247,Waynesburg,KY,40489,606-365-7455
Kegley Hauling,Rt 7 - Hc 63 Box 657,Greenup,KY,41144,606-473-5063
Frazier Auto Sales,209 Backusburg Road,Mayfield,KY,42066,502-247-9271
M & N Trucking,6125 Diablock Rd,Hazard,KY,41701,606-436-4099
Branham Backhoe Service,Box 352,Ashland,KY,41101,606-686-3194
F & P Trucking,16605 Greenville Rd,Hopkinsville,KY,42240,502-269-9502
Dale Tatum Grain Repair Service,2719 Bethlehem Church Rd,Wickliffe,KY,42087,270-335-3476
Riley Trucking Co,P O Box 38 Bypass 670,Providence,KY,42450,502-667-7025
Johnson Trucking,788 Adairville Rd,Franklin,KY,42134,502-586-5451
Dannys Mobile Home Transporting,3211 Mildred Drive,Louisville,KY,40216,502-447-2230
Ballew Trucking,707 Corinth Cemetary Rd,Corbin,KY,40701,606-523-2328
Aj's Auto Mart,211 Iowa Street Ww,Ashland,KY,41102,606-324-9867
Black Diamond Express,Ky Rt 321,Hagerhill,KY,41222,606-789-2159
David Stambaugh Trucking,Us Rt 23,Auxier,KY,41602,606-886-0730
Rmt Hauling Service,117 Madison Street,Louisa,KY,41230,606-454-4923
Haul Gates,R #6 Box 30 A,Liberty,KY,42539,606-787-9707
Mackenzie Trucking,1544 Sasser School Road,London,KY,40741,606-864-4863
Audie Burns Construction,818 Chandlers Road,Auburn,KY,42206,270-542-6144
Moving Up Trucking,Jct 568 Hwy 421,Cranks,KY,40820,606-573-4098
Shouse Trucking,13478 Service Road,Walton,KY,41094,606-485-9630
"S & H Service Lender, Inc.",I 75 Us 25 West,Corbin,KY,40701,606-523-0088
Carrender Mobile Home Transport,Deerfield Lane Box 66,Somerset,KY,42501,606-561-9154
Rolly's Auto Svc,3801 Old 3-l Hwy,Fort Wright,KY,41017,606-356-1200
Cedar Lane Dist Trucking,13947 Us Hwy 68 East,Benton,KY,42025,502-354-6657
C & S Trucking,410 West Main,Earlington,KY,42410,502-383-4200
David Rankin Transport,30129 Mayo Trail,Catlettsburg,KY,41129,N/A
Wells Trucking,P O Box 70 Old Hwy 80,Wooton,KY,41776,606-279-3391
M & A Trucking,Box 354,Ashcamp,KY,41512,606-754-4576
Crouch Trucking Company,282 Springbrook Dr,Shepherdsville,KY,40165,502-543-6600
Bruner Transportation,P O Box 1052,Nicholasville,KY,40356,N/A
Commercial Waste Disposal,414 Jimtown Road,Mayfield,KY,42066,270-247-4435
Marvin Burrus Trucking,Po Box 296,Ledbetter,KY,42058,502-898-6846
J & M Trucking,298 Grigsby Lane,Cadiz,KY,42211,502-522-8670
Osborne Milk Hauling,517 Logan Mill Road,Adairville,KY,42202,270-539-3348
Charlie's Electric Service,109 J Johnson St,Franklin,KY,42135,502-586-6711
Class Act Trucking,P O Box 360,Louisa,KY,41230,606-638-0769
F Vanhoose Trucking,687 Ky Rt 3224,River,KY,41254,606-297-4355
B & J Trucking,Rr 1 Box 74,Greenup,KY,41144,606-473-5625
Bee Jay Dump Trucking,13101 Dixie Highway,Louisville,KY,40272,502-935-1045
Dennis D Talley LLC,8621 Bf Overfield Rd,Corydon,KY,42406,270-860-6271
"Dream Machines International, Inc.",120 Boyer Lane,Somerset,KY,42501,606-382-9130
Braden Trucking,Hc 63 Box 327,Greenup,KY,41144,606-473-5419
Wyman Trucking,2700 Sr 1820,Melber,KY,42069,270-856-3405
Kentucky Rose's Trucking,Hwy 40 Midway Village Lot # 6,Boons Camp,KY,41204,606-789-8434
American Enviro Services,1400 Moser Rd,Louisville,KY,40299,502-245-2030
D & S Trucking,393 Wexford Drive,Winchester,KY,40391,606-744-4793
Rapier Trucking,122 Black Diamond Rd,Corbin,KY,40701,606-528-6229
Saltsman Trucking,260 Campbell Lane,Smiths Grove,KY,42171,502-597-3679
Teresa Trucking,234 Rocky Road,Pikeville,KY,41501,606-437-6332
D C Trucking,1867 Chaney Ridge Rd,London,KY,40741,606-843-2726
Harrison Auto Exchange,Hwy 121 N Bypass,Murray,KY,42071,502-753-6774
Browning Trucking,1908 Begley Road,East Bernstadt,KY,40729,606-843-2321
"Morgan Trucking Co, Inc.",Hc 72 Route 1100,East Point,KY,41216,606-886-6546
Rick's Farm Truck,4606 Bagdad Road Hwy 12,Bagdad,KY,40003,502-227-4853
Dac Trucking,239 Forest Lane,Richmond,KY,40475,606-422-6638
Combs Trucking Company,4523 Dover Road,Louisville,KY,40216,502-447-1509
J & S Transport,P O Box 4074,Winchester,KY,40392,N/A
Hammerhead Wrecker Service,650 G Wilson Lane,Horse Cave,KY,42749,502-524-5811
B & B Trucking,Rt 1 Box 188,East Bernstadt,KY,40729,606-843-9397
Layman Willis Trucking,4510 Sadler Road,Leitchfield,KY,42754,270-259-4753
Smith's Transport,102 Dogwood Trl,Somerset,KY,42501,606-561-0607
Sadler Trucking Company,82 Wilson Rd,Fountain Run,KY,42133,270-434-4519
Ingram LLC,1601 Beaver Dam Road,Morgantown,KY,42261,270-256-3697
Helm Transport LLC,242 Rippetoe Rd,Columbia,KY,42728,270-805-0184
Managing Partner,244 Farmbrook Cir,Frankfort,KY,40601,859-554-3295
Triple J Trucking,4030 King Rd,Philpot,KY,42366,270-281-9148
Rucker Trucking LLC,2991 Long Pond Road,Pembroke,KY,42266,270-475-4431
Slick Transportation,3704 Snake Creek Rd,Columbia,KY,42728,270-805-1501
Rj's Elite Transportation,320 Mark Drive,Paducah,KY,42001,270-554-0526
Lapham Transport,118 Trowbridge,Greenville,KY,42345,270-841-8446
Rgc Dedicated Services,60 Asa Means,Jeffersonville,KY,40337,586-933-7842
"Lmh Drilling, Inc.",208 Law Blvd,Carlisle,KY,40311,859-484-2225
Rj Trucking,544 Oaklawn Dr,Paducah,KY,42003,271-218-9132
Bracket Logistics LLC,66 Ada Lane,Russellville,KY,42276,270-726-7860
Eckler Transport LLC,Po Box 436,Warsaw,KY,41095,859-512-9760
Porters Transport LLC,38 Cw Cherry Road,Cadiz,KY,42211,270-924-3673
Hildabrand Enterprise,1813 Buena Vista Road,Russellville,KY,42276,270-847-0493
Lw Transport,197 Combs Rd,Hazard,KY,41701,606-224-1376
Lori & Roger Johnson Trucking LLC,908 Denton Rd,Smiths Grove,KY,42171,270-246-1458
Rodney's Trucking LLC,875 Ellis Road,Owenton,KY,40359,502-484-1025
"T & C Stone Slinging, Inc.",P. O. Box 1098,Bardstown,KY,40004,502-348-1668
Pettit Trucking,185 Burley Ln,Jonesville,KY,41052,859-823-0511
United Transport LLC,416 Faculty Ct,Bowling Green,KY,42101,270-791-4675
Good Ole Boys Trucking LLC,4642 Camargo Rd,Mount Sterling,KY,40353,859-432-8027
Cp Transportation LLC,3100 Industrial Drive,Bowling Green,KY,42101,270-846-4222
Self Employee,1122 Troopers Crossing,Independence,KY,41051,859-630-9577
Spencer's Towing,1315 Us 23 N,Wittensville,KY,41274,606-297-8665
Kakaw Trucking,154 West Bryan Street,Owenton,KY,40359,405-701-4173
Burks Travco,601 North Main Street,Tompkinsville,KY,42167,270-487-8520
Madison Trucking,5968 Taylor Mill Road,Covington,KY,41015,859-391-1592
Bonkers Inflatable Fun,1127 Breezyway,Bardstown,KY,40004,502-331-1138
Drakes Creek Garden & Home Center,5710 Scottsville Rd,Bowling Green,KY,42104,270-843-8401
Hildreth Adoption Center,1924 Louisville Rd,Bowling Green,KY,42101,270-783-9551
Jd Hauling,1394 Albany Landing Rd,Albany,KY,42602,270-459-2259
Walts Trucking,1168 Roley Road,Columbia,KY,42728,606-787-4463
Mills Trucking Company,120 Trammel St,Liberty,KY,42539,606-787-0640
Girder,868 State Hwy 85,Centertown,KY,42328,270-775-3114
Sam Gerding Cont LLC,2821 Chimney Rock Lane,Louisville,KY,40228,502-418-7702
Circle R Farms,1013 Boley Rd,Sharon Grove,KY,42280,270-772-0998
R F Transport,6528 Estele Ave,Louisville,KY,40214,502-403-4833
Liberty Cargo,6295 N Hwy 127,Liberty,KY,42539,931-625-6748
Big Time Trucking LLC,9639 St Hwy 1056,Mccarr,KY,41544,606-625-8901
Friendship Farms,3266 Freiendship Rd,Greenville,KY,42345,270-338-0656
Coon Trucking,2520 Henson Ridge Rd,Liberty,KY,42539,606-787-4088
B L T Welding,1026 Bertha Pitcock Rd,Knob Lick,KY,42154,270-590-5680
Sticks Trucking,6060 Woodburn Allen Springs Rd,Bowling Green,KY,42104,270-618-9585
Yocum Towing,107 Highway 42 West,Carrollton,KY,40006,502-525-0803
Barny Branch Farms,796 Clarence Elgin Rd,Eubank,KY,42567,606-872-0224
Ja Transport,11411 Park Road,Louisville,KY,40223,502-253-4400
Rs Dickerson Services,9540 Childress Rd,West Paducah,KY,42086,270-554-0924
Warm Regards LLC,2515 Slippery Rock Rd,Owenton,KY,40359,502-484-1111
Greenwood Farms,11560 Newstead Rd,Hopkinsville,KY,42240,270-885-7159
Mamas Touch Nursery,3862 Cane Run Rd,Springfield,KY,40069,859-284-5555
Triple J Quarter Horses,16257 Hwy 136 E,Robards,KY,42452,270-521-7729
Franco Logistics,860 Cedarwood Drive,Lexington,KY,40511,859-519-7735
Hackney Trucking,5434 Blacklog Road,Inez,KY,41224,606-298-4276
Matthews Electric,1771 Us 60 East,Burna,KY,42028,270-988-4520
A Day In The Sun Pools,120 Claypool Boyce Rd,Alvaton,KY,42122,270-839-9091
Dragon Transport,756 South College St,Harrodsburg,KY,40330,859-247-1177
K & G Express,385 Bucks Run Rd,Worthville,KY,41098,502-463-0965
Farming,7487 Calvary Road,Campbellsville,KY,42718,270-692-9140
Four Winds Trucking,374 Collins Lane,Corbin,KY,40701,606-309-9028
Fitzpatrick Farms,400 Dykes Lane,Winchester,KY,40391,859-771-1666
Saint Ignatius Transport,80 Harlan St Apt 2,Crittenden,KY,41030,859-803-8253
Paris Lawn Service,152 Paris Cemetery Rd,Marion,KY,42064,270-965-3700
"Appalachian Guttering, Inc.",180 Town Mt Rd Ste 110,Pikeville,KY,41501,606-437-2200
Shyne Supply,114 Trammel Creek Dr,Alvaton,KY,42122,270-535-7317
Recycling,1121 Sixth Street,Carrollton,KY,41008,502-750-1444
South Allen Auto Body,150 Mona Cherry Rd,Scottsville,KY,42164,270-622-6707
Hughes Farm,515 Hughes Road,Fredonia,KY,42411,270-545-3487
Dba Smitty Transport,681 Seng Branch,Elkhorn City,KY,41522,606-754-0042
Sign One One,813 North Main Street,London,KY,40741,606-877-1896
Neals Recycling,9357 Jackson Hwy,Cave City,KY,42127,270-834-0440
Auto X Press,900 Hwy 317,Neon,KY,41840,606-855-4730
Dietrich Contracting,723 Lone Oak Rd,Taylor Mill,KY,41015,859-814-1710
Dba Eagle Trucking,681 Seng Branch,Elkhorn City,KY,41522,606-754-0042
Woods Trucking,5024 Lakin Drive,Catlettsburg,KY,41129,606-465-1739
Direct Distributors,111 Secretarial Street,Georgetown,KY,40324,859-536-9523
Miw,4890 Pembroke Road,Hopkinsville,KY,42240,270-885-8711
Bruner Stables,329 Cummins Ferry,Versailles,KY,40383,859-879-8738
Cosby Farms,1240 Mayfield Rd,Smithland,KY,42081,270-928-3165
G Rust Mowing,150 Davis Mill Road,Elkton,KY,42220,270-265-2093
Hollywood Freight Systems,68 Leisure Lane,Scottsville,KY,42164,270-943-1469
Ckb,12282 Crouch Rd,Walton,KY,41094,859-866-1253
Wildcat Transport,9490 Barbourville Rd,London,KY,40744,606-878-7729
Charlesjonesfarm,185 Mcpherson Cemetary Ln,Lewisburg,KY,42256,270-657-2200
Kentucky Property Preservation,1340 Memphis Junction Road,Bowling Green,KY,42101,270-202-1262
Graham Classic Cars,212 West Water Street,Hodgenville,KY,42748,270-358-0961
Cornerstone Transportation,409 N Harvey Ave,Summerset,KY,42503,606-271-0604
Durbins Farm LLC,9414 Cedar Creek Rd,Louisville,KY,40228,502-552-9453
Norma Bauer,504 Mccamish Drive,Elizabethtown,KY,42701,270-737-1515
Jolly Farms,1131 College Road,Paris,KY,40361,859-362-4334
"Victory Road Express, Inc.",11 Cornett St,Harlan,KY,40831,606-843-7685
Scotts Trucking,49 Mcdonald Road,Adolphus,KY,42120,615-388-4296
S B Trucking,1373 Camp Pleasant Rd,Frankfort,KY,40601,502-330-4750
Sheffield Hauling,1330 Richland Way,Bowling Green,KY,42103,270-320-1592
Daniel Boone Pallet LLC,2490 Rock Fork Rd,Morehead,KY,40351,606-783-1537
Dmp Produce,1106 Cuba Rd,Mayfield,KY,42066,270-247-6531
Cheek Trucking,863 Baker Branch Rd,Tutor Key,KY,41263,606-349-6048
Prometheus Art,7130 Russell Cave Road,Lexington,KY,40511,859-255-0782
Sipes Farm,250 Foushee Hill Road,Guston,KY,40142,270-828-5636
Lawn Styles,3999 Bullitsville Rd,Hebron,KY,41048,859-586-1321
Rt Trucking,1840 Napier Rd,Scottsville,KY,42164,270-618-0667
Linnik Towing,260 Ezcondida Rd,Paris,KY,40361,859-940-6725
H & H Hauling,105 Greentree Drive,Nicholasville,KY,40356,800-226-3696
Ruckels Grocery,16121 Ky Hwy 1247,Waynesburg,KY,40489,606-379-6944
Patterson Farms,143 Rawdon Woods Rd,Tomkinsville,KY,42167,270-427-0328
Greg Cruse Trucking,136 Cruse Lane,Melber,KY,42069,270-674-6227
Wright Masonry,927 N 12th St,Paducah,KY,42001,270-210-7544
Vacuum Authority,319 Mockingbird Gardens Drive,Louisville,KY,40207,812-283-1975
Griffin Waste Services Of Nky,13121 Walton-verona Rd,Walton,KY,41094,859-493-0493
Mar Excavator And Hauling Service,11141 Big Burn Church,Union,KY,41091,859-817-0304
Star Lite Freight Transportation,911 Hidden Creek St,Bowling Green,KY,42101,270-842-3725
Ds & J Trucking,3779 Burgeys Creek Road,Mallie,KY,41836,606-335-0403
Accurate Towing & Recovery,787 Elliston Lane,Versailles,KY,40383,859-265-7449
The Dirt Doctor,5250 Mary Ingles Hwy,Silver Grove,KY,41085,859-441-2950
Global Lightning Transport,317 Timothy Dr,Nicholasville,KY,40356,859-553-2360
West-east Recycle,126 Westwood Circle,Bowling Green,KY,42101,270-991-8535
Bowlings Rollback Trucking,26264 Bolts Fork Road,Rush,KY,41168,606-929-9379
Kito Express,3700 Bells Lane,Louisville,KY,40211,502-592-4263
Beanpole Xpress,9318 Hwy 167,Monticello,KY,42633,606-348-6393
Lost Creek Horse Transport,5960 Paint Lick Rd,Paint Lick,KY,40461,859-248-1196
Jasawing,97matthewcemetaryroad,Marion,KY,42064,127-070-4266
"Ford Brothers, Inc. Auctioneers Realtors",135 S Wilderness Trail,Mt Vernon,KY,40456,606-256-4545
David's Hauling Service,9000 Cumberland Falls Hwy,Corbin,KY,40701,770-205-0218
Aarons Sales And Lease,1405 N 12th St,Murray,KY,42071,270-759-2393
Turner Farms,304 Cynthiana Road,Paris,KY,40361,859-621-5788
Whistle Stop Donuts,420 E 9th St,Hopkinsville,KY,42240,270-885-8893
Jents Construction,807 Commanche Drive,Ashland,KY,41102,606-462-0212
Sports Equipment Transfer,52 Parkview Ave,Newport,KY,41071,859-512-9251
Blevins Towing,154 Walters Steet,Wallins Creek,KY,40873,606-664-8939
Garry Ray Trucking,2074 Brier Creek Rd,Mammoth Cave,KY,42259,270-286-6584
Ugly Mobile Home Mover,641 Pride Ave,Madisonville,KY,42431,270-821-8186
Bill & Sons Remodeling,3842 Northampton Dr,Lexington,KY,40517,859-309-1721
Steves Auto Sales,836 Eminence,New Castle,KY,40050,502-845-2450
D Stephens Trucking Company,778 Big Fork Rd,Langley,KY,41645,606-949-6607
Cme Transport,670 Old Salem Rd,Murray,KY,42071,270-293-1262
Porters Tops,1047 State Route 949,Dunmor,KY,42339,270-657-8178
B&n Transport,104 Cotton Ave,Stanford,KY,40484,606-669-4679
Clay Meredith,6600 Shelburn Dr,Crestwood,KY,40014,502-310-1462
Sears Of Hopkinsville,2412 Ft Campbell Blvd,Hopkinsville,KY,42240,270-886-6700
D & T Metals,1601 Raliff Creek Rd,Pikesville,KY,41501,606-634-7023
Dms Transport,694 Tucker Rd,Bronston,KY,42518,606-561-4798
Mill Creek Livestock,2640 Mudlick Rd,Cynthiana,KY,41031,859-234-1176
Country Chevrolet Buick Gmc,104 W 5th Street,Benton,KY,42025,270-527-8671
Big O's Mowing,5150 Little Hickory Road,Philpot,KY,42366,270-729-2238
R & R Roofing,980 Clayridge Road,Alexandria,KY,41001,859-908-0806
Cadiz Medi-cab,123 Cunningham Ave,Cadiz,KY,42211,270-522-0064
Lb Sales,West Us 72,Baxter,KY,40806,606-273-0666
Greene Electric,Box 81,Mazie,KY,41160,606-652-3932
Us Battery,4624 Southern Pkwy 114,Louisville,KY,40214,502-572-0248
D & B Transport,307 Sunrise Ave,Horse Cave,KY,42749,270-786-1359
Double Dog Transportation,38 Drus Way,Carrollton,KY,41008,502-732-8605
Amor Limousine Services,4428 Hathaway,Union,KY,41091,859-547-2667
Harrod Grain Farms,8941 S Preston Hwy,Lebanon Jct,KY,40150,502-494-3603
Scotts Lawnservice,3350 Oakwood Circle,Ashland,KY,41102,606-326-9350
Brenda Mullinssmith Trucking,11687 Highway 522,Cumberland,KY,40823,606-589-6481
J Stanton,810 Old Clear Springs Rd,Russell Springs,KY,42642,270-858-6672
Michael & Tammy Trucking,4489 Shepherdsville Rd,Elizabethtown,KY,42701,270-505-9177
Rj Distributing,282 Pipeyard Hollow,Canada,KY,41519,606-625-6573
Purcell Auction,2156 Husbands Rd,Paducah,KY,42003,270-444-7599
Lenards Auto Sales,9646 So Hwy 27,Burnside,KY,42519,606-561-0410
Baker's Kiddie Rides,89 Allen Dale Lane,London,KY,40741,606-864-7705
A & P Trucking,326 Roberts Rd,Tollesboro,KY,41189,859-544-9347
Emd Transport,13617 Hwy 421,Hoskinston,KY,40844,606-275-1727
"Parking Area Maintenace, Inc.",1856 Traverller Rd,Lexington,KY,40504,859-420-7197
Michael Kemp,505 Weda Avenue,Mayfield,KY,42066,270-251-2021
Jimmy Gills Trucking LLC,189 Gills Lane,Sedalia,KY,42079,270-970-2709
Hickory Brook Farm,312 Hutchinson Rd,Paris,KY,40361,859-953-0654
R & L Supply Speedy Delivery,4390 Buttermilk Road,St Charles,KY,42453,270-669-4490
Devic Express,3024 Natural Way,Bowling Green,KY,42101,270-320-7169
Lucas Trucking,1871 Sycamore Rd,Pikeville,KY,41501,606-432-3512
Dolphin Moving & Transport,731 Price Avenue,Lexington,KY,40508,859-333-8624
Alfa Trucking,318 Country Dr,Hustonville,KY,40437,859-536-2909
Insley Flooring,5921 Trappers Ridge Circle,Louisville,KY,40216,502-995-7455
Appalachian Home Center,2733 Greenup Avenue,Ashland,KY,41101,606-329-9740
"Buddy Boys Auto Transport, Inc.",205 South Lp Miller Street,Murray,KY,42071,270-753-9750
Straight Line Siding,135 Coates Rd,Franklin,KY,42134,270-586-9143
R & J Trucking,5401 Goddard Rd,Wallingford,KY,41093,606-748-3775
Kenneth Spears Trucking,271 Cleve Huddleston,Albany,KY,42602,931-704-0251
J & J Hauling,129 Campground Road,Russell Springs,KY,42642,606-706-6352
Neil O'brien Cattle Co,2199 Union Hill Road,Beaverdam,KY,42320,270-274-0608
Acree Technologies,3101 Roypom Dr,Louisville,KY,40220,502-643-0922
Tim Lemons Irrigation,5173 St Rt 94 West,Murray,KY,42071,270-435-4776
Hooptie And Hambone Trucking,3857 Knob Creek Road,Brooks,KY,40109,502-551-5133
Smedley Trucking,28 Tucker Rd,Alpha,KY,42603,606-306-7462
P & L Hauling,46 Lazy Day Lane ,Mc Daniels,KY,40152,270-668-3456
Lane Trucking,172 Spring Cut Circle,Corbin,KY,40701,606-260-1270
Zz's Italian Restaurant,1845 N Hwy 27,Whitley City,KY,42653,606-376-9696
Sloan Farms,3641 West 92,Monticello,KY,42633,606-348-5520
Arrive Alive,2619 Kiwanis,Bowling Green,KY,42104,270-784-7079
Burden Farm,2710 North Main,Madisonville,KY,42431,270-871-8336
Erno Transportation,1400 Lynhurst Dr,Bowling Green,KY,42101,270-904-6079
Riverfarm Nursery,2901 North Buckeye Lane,Goshen,KY,40026,502-228-5408
The Harvest,517 E 4th St,Russellville,KY,42276,270-726-4499
West Enterprises,1876 Rio Vista Drive,Paris,KY,40361,859-340-2320
Jarrett Gate,262 Elm Loop,Hustonville,KY,40437,606-346-3060
Herdguard,1185 Donmar Dr,Lancaster,KY,40444,859-548-3381
Inject It Foam,138-140 Production Ct,Louisville,KY,40299,502-297-0333
Boots And Blues,611 South Main Street,Calvert City,KY,42029,270-395-0075
Todd Funeral Home,407 E Washington St,Elkton,KY,42220,270-265-7008
Kinser Welding,405 North Benson Rd,Stanton,KY,40380,606-663-9025
Sr Payne And Son Services,192 Buckman Ln,Uniontown,KY,42461,270-952-4121
Z S Merchandise,332 Hilltoper Dr,Bowling Green,KY,42101,270-799-9394
S&j Trucking,3146 South Collins Road,Dover,KY,41034,606-882-2066
Run Spot Run Transport,4917 Ramona Lane,Louisville,KY,40272,502-749-1444
Stonewater Ammunition Tactical,1800 S Main St,Paris,KY,40361,828-974-1711
Beezy Beezy Trucking,7418 Hwy 490,East Bernstadt,KY,40729,540-433-6470
Caudill Bait Company,1245 Delp Road,Liberty,KY,42539,606-787-8578
Colyer Recovery,3108 Chinquapin,Louisville,KY,40219,502-712-5240
Mac's Lawn Care,3425 Pueblo Ct,Lexington,KY,40509,859-948-7408
Max Motors,522 Hillcliff Drive,Hopkinsville,KY,42240,270-887-9031
Twisted Trucking,829 Big Card Rd,Mouthcard,KY,41548,606-835-0272
Amigo Auto Sales,405 Sorenson Ave,Glasgow,KY,42141,270-590-1888
Green Lawn,227 Newmans Branch,Grethel,KY,41631,606-587-2362
Spirit Home Remodeling,141 Glenn Pl,Lexington,KY,40505,859-221-2824
Tbs Contracting LLC,119 Levy Rd,Paris,KY,40361,859-707-7224
Randees Transport,10387 Lynchburg Dr,Independence,KY,41051,859-912-3749
Kevin Porter Tractor Sales,4369 Mt Carmel Rd,Flemingsburg,KY,41041,606-845-2413
Hester Trucking,57 Clayton Drive,Wallingford,KY,41093,606-876-3292
Vernsway Farms,262 Shady Acres Road,Pine Knot,KY,42635,606-354-3751
Easley Farms,1278 Easley Road,Marion,KY,42064,270-965-9356
Merry Mac Stables,3817 Highway 1009 South,Monticello,KY,42633,606-340-6942
Webb Trucking,Box 334,Van Lear,KY,41265,606-789-6085
Mine Shield LLC,322 Craborchard Street,Lancaster,KY,40444,859-792-1605
C & S Trucking,606 Hinton Road,Sadeville,KY,40370,502-370-7427
Dk Mcclanahan Farms,554 St Rt 1126,Fulton,KY,42041,270-472-1950
Ramon Alfaro Lawncare,118 Wilton Ave,Lexington,KY,40508,859-368-6586
Wolfe Express Delivery,3931 Richardson Rd,Independence,KY,41051,859-630-3273
Boehmann Farms,7935 Monarch Rd,Philpot,KY,42366,270-281-5068
Kevin Finley,3303 Fern Valley Road,Louisville,KY,40213,502-964-4889
Dean Clontz Monument Installation LLC,32 Courtney Ln,London,KY,40744,606-224-2257
Keh Carriers,12215 Crosswinds Dr,Louisville,KY,40243,502-797-3929
Mantance,10563 Hwy 490,East Bernstadt,KY,40729,606-231-0200
T & F Containers,8225 Hwy 355,Owenton,KY,40359,502-750-0741
Not For Hire,2425 Bowling Fork Road,Elkhorn City,KY,41522,606-434-4807
V P Remodeling,315 Sixth Street,Corydon,KY,42406,270-823-6841
Aj Towing,3560 Easton Ln,Burlington,KY,41005,859-409-5553
My Courier & Expediting,2640 Eaglehill Rd,Glencoe,KY,41046,859-991-9344
"Rick Rodgers And Associates, Inc.orporated",786 North Sutton Lane,Mayfield,KY,42066,270-247-7075
Hunter Trucking,119 Pearl St,London,KY,40741,606-224-4982
Southern Car Go,1251 Georgetown Road Suite K,Lexington,KY,40511,859-243-0095
A And E Renovation LLC,3240 Lone Oak Rd 131,Paducah,KY,42003,270-415-5773
Ssm Transportation,1856 Loop Drive Lot 21,Bowling Green,KY,42101,270-303-4781
Db Trucking,3100 Industrial Drive,Bowling Green,KY,42101,270-991-4433
Philip's Hotshot Service,260 Dexter Lane,Dawson Springs,KY,42408,270-836-4198
Philip's Hotshot Service,260 Dexter Lane,Dawson Springs,KY,42408,270-836-4198
Sunrise To Sunset,Henson Rd,Bowling Green,KY,42104,270-776-1889
Hollowell Transport,6400 State Route 80 E,Arlington,KY,42021,270-262-2067
Brandon Prow Transports,665 Diamond Green Grove Rd,Clay,KY,42404,270-635-8081
