Company Name,Street Address,Address Locality,Address Region,Postal Code,Telephone
Leach Disaster Services LLC,15220 Chef Menteur Hwy,New Orleans,LA,70129,504-255-9212
Paynes Trucking,1787 N Redondo Dr,Baton Rouge,LA,70815,225-928-9548
Ratcliff Trucking,1317 Ratcliff Road,Sicily Island,LA,71368,318-758-1563
Tuff Country Trucking,3624 Hwy 84 East,Mansfield,LA,71052,318-872-1959
Jeane Trucking,681 Jack Jeane Lp,Anacoco,LA,71403,337-286-5243
Trahan Trucking,1022 Pelican Loop,Basile,LA,70515,337-658-6115
Jma Trucking,5040 B Hot Wells Rd,Boyce,LA,71409,318-793-5940
Brown Trucking,2309 Lishman Road,Gilbert,LA,71336,318-557-0592
Starc Commercial Linen Service,40016 Hwy 190 East,Slidell,LA,70461,985-641-0432
Ers Waste Service,406 South President,Delcambre,LA,70528,337-685-3737
Jw Franklin Trucking LLC,550 Main Street,Marion,LA,71260,318-292-4852
Tthompson's Trucking LLC,3417 W Loyola Dr,Kenner,LA,70065,504-464-1858
Deshotel Farms,5922 Hwy 115,Bunkie,LA,71322,318-346-4391
Grindin Transport,2205 Wellington Lane,Slidell,LA,70461,985-288-7511
Acadian Mobile Home Movers,670 Dufilho Road,Opelousas,LA,70570,337-351-5760
Patrick Guidry Trucking,7020 Wilson Road,Maurice,LA,70555,337-501-0331
Jeff Hartley Trucking,181 Bj Rd,Vidalia,LA,71373,318-336-8377
Troy And Craig West Trucking,140 Justice Lane,Chataignier,LA,70524,337-885-2136
Brent Atwell Trucking,163 Atwell Road,Georgetown,LA,71432,318-729-0804
Deppco Transportation,7341 W Roadway,New Orleans,LA,70124,504-481-1621
B&j Trucking,424 East 24th Street,Reserve,LA,70084,985-479-1173
Three T Trucking,1489 Copes Rd,Pioneer,LA,71266,318-428-9564
Larocca Transport,2530 Carlo Henry Rd,Lake Charles,LA,70607,337-478-1123
Pack Trucking LLC,1958 Brookter St,Slidell,LA,70461,985-649-6707
Bluejay Roll Off Service,319 Yearling Loop,Pearl River,LA,70452,985-863-0111
Q Jones Trucking,510 Woodhaven Dr,Houma,LA,70363,985-346-4508
Chris Devillier Trucking LLC,3147 Jug Says Rd,Lake Charles,LA,70611,337-499-0706
Armstrong Heavy Haulers,209 E 93rd St,Galliano,LA,70354,985-677-1226
C&a Trucking,110 Sis Lane,Carencro,LA,70520,337-896-0410
D & B Trucking,125 Industrial Drive,Sulphur,LA,70663,337-532-1569
Lakeside Logistics,6103 Hwy 371,Heflin,LA,71039,318-470-3840
Anita Bradford,1424 Hwy 907,Monterey,LA,71354,870-951-0803
Jenkins Trucking,39059 Hwy 16,Franklinton,LA,70438,985-515-1484
J C F Trucking,4099 Richmond Dr,Ethel,LA,70730,225-634-2370
Daniel Jones Trucking,35 Cudd Road,Glenmora,LA,71433,318-452-1547
Rbb Transport,17799 Greenwell Springs Rd,Greenwell Springs,LA,70739,225-262-4258
Santoney Express,2220 S Elm Grove Pl,Baton Rouge,LA,70807,225-778-0295
Henry's Trucking,5947 S Front St Apt C,New Orleans,LA,70115,504-275-5269
Six Pack Trucking,107 Westside Dr,W Monroe,LA,71291,903-244-2943
Industrial Consulting And Welding Services,12047 Coueron Drive,Saint Amant,LA,70774,225-647-1016
Str Trucking,174 Atwood Drive,Crowley,LA,70526,337-250-3799
Ram Trucking,160 Mcelwee Road,Vidalia,LA,71373,601-807-9186
Glynns Welding Service LLC,1011 Louis Circle,Breaux Bridge,LA,70517,337-667-7425
Barber Trucking,221 Galloway St,Clayton,LA,71326,318-757-9981
Dealer Transport Service,3133 Blackmon Rd,Lake Charles,LA,70611,337-912-6150
Darren Dannehl Trucking,181 Triple D Tr,Grayson,LA,71435,318-649-3832
Chad Dannehl Trucking,720 Parker Rd,Grayson,LA,71435,318-649-0845
Thomas Trucking,7831 Shirley Francis Rd,Shreveport,LA,71129,318-820-4270
Delivery,109 Harvest Lane,Haughton,LA,71037,318-349-8870
G & C Hauling,1888 Phillips Ferry Rd,Sterlington,LA,71280,318-355-4676
Wheeler's Port-a-potties & Vacuum Service,367 Belle Grove Circle,Vidalia,LA,71373,318-336-7462
Reliable Trucking,61 Muirfield Dr,La Place,LA,70068,985-651-7457
S & P Trucking,363 Hurvey St,Leonville,LA,70551,337-879-2356
Welding Truck,185 Wayne Harlan Road,Winnfield,LA,71483,318-628-5008
Opm Transport,2034 North Blvd,Baton Rouge,LA,70806,225-274-7551
Duncan Transport,2213 Yorktown Drive,Laplace,LA,70068,985-287-2068
Show Tyme Enterprize,108 Melissa St,Church Point,LA,70525,337-581-5451
Tnrh Trucking,4361 Hwy 15,Farmerville,LA,71241,318-368-9045
T & C Trucking,13066 Hwy 955e Bldg A,Ethel,LA,70730,225-588-5589
Abe's Trucking Company,7194 Bostwick Road,Shreveport,LA,71107,318-929-9086
Boone Trucking,2772 Boggy Bayou Road,Jonesville,LA,71343,601-870-5876
Elite Wholesale Auto,3716 Center St,Lake Charles,LA,70601,337-491-6891
American Transport,3036 Burson Dr,Shreveport,LA,71118,318-393-8440
Allen Sepuluado Hauling,449 Jeff Davis Dr,Zwolle,LA,71486,318-645-6109
Cbt Trucking,402 Arrowwood Drive,Slidell,LA,70458,985-649-4787
Hill Farms Trucking LLC,11628 South Choctaw Drive,Baton Rouge,LA,70815,225-620-1361
Scottys Steals And Deals,311 North West Blvd,Franklin,LA,70538,N/A
Big Boyz Trucking,199 Dr Gibson Road,Monterey,LA,71354,318-386-2563
Waynes Trucking,57674 Eli Craig,Plaquemine,LA,70764,225-687-0457
Bubba Hood Trucking,108 Hood St,Donaldsonville,LA,70346,225-413-3903
T Brumfield Trucking,11414 River Road,St Rose,LA,70087,504-464-0143
T And D Trucking,204 E Arkansas Ave,Vivian,LA,71082,318-375-5927
Garrett Trucking,19130 Highway 8,Leesville,LA,71446,337-238-1110
Virginia Trucking,5711 Sabina Dr,Alexandria,LA,71303,225-247-4390
V&g Transportation,429 S Farmerville St,Ruston,LA,71270,318-202-5507
Mayo-holmes Transport,516 Martin St,West Monroe,LA,71292,318-348-2162
C & L Trucking,8702 Marks Street,New Orleans,LA,70118,678-755-5344
Dean Transportation,704 East California Avenue,Ruston,LA,71270,318-255-1771
D Trahan Trucking,139 Manchester Drive,Houma,LA,70360,985-872-3494
C Johnson Trucking,2095 Hwy 478,Natchitoches,LA,71457,318-652-3787
Ellis Trucking,5782 Hwy14e,Bell City,LA,70630,337-309-5136
Alston Transport,1105 Melody Lane,Glenmora,LA,71433,318-748-4363
Richard Davis Trucking,109 Rue De La Paix,Slidell,LA,70461,504-874-4097
Jr Johnson Hot Shots,P O Box 1144,Winnsboro,LA,71295,318-535-6944
Monkey Fist Transport,945 Monrovia St,Shreveport,LA,71106,318-347-7700
H And J Trucking,1213 Oakview Dr,New Iberia,LA,70563,337-849-3404
Excellent Deal Enterprise,10221 Almond Drive,Baton Rouge,LA,70807,225-200-0002
Bobby Mclaughlin Distributing,2315 Jay St,Slidell,LA,70460,504-756-5061
Freetown Rider Trucking,7100 Chastant Rd Lot 2,New Iberia,LA,70560,337-369-9314
Cowboy Tow And Recovery,1508 N Mlk Hwy,Lake Charles,LA,70601,337-656-2928
Moss Trucking,514 E Franklin St,Farmerville,LA,71241,318-368-2612
Jm Express,2556 Washington Ave,Baton Rouge,LA,70802,225-336-1289
Jo's Specialized Transport,1212 Belair Blvd,Slidell,LA,70460,717-252-3833
Ct Delivery,14044 Ceazer Rd,Gonzales,LA,70737,843-247-5725
Brown Trucking,648 2nd Ave Sth,Fisher,LA,71426,903-812-3361
Ranchhand Welding And Fencing,271 Cowboy Lane,Keatchie,LA,71046,318-218-8099
Fat Daddy Transport,593 B Johnson Rd,Leesville,LA,71446,337-375-6602
Fast 1 Transportation,3511 Somerset Dr,New Orleans,LA,70131,504-433-0507
Romar Welding Service,9420 East Graham Ave,Batonrouge,LA,70814,337-592-0379
D & J Trucking,421 Bears Road,Deridder,LA,70634,N/A
Quantum Logistics,508 Shore Dr,Youngsville,LA,70592,985-226-5690
Cowboys Transportation,1408 West Willow St Apt J64,Lafayette,LA,70506,337-349-7313
Gsc Trucking,208 Pickett Lane,Franklin,LA,70538,337-828-7702
D&c Transport Services LLC,6121 Guynell Drive,Baton Rouge,LA,70811,225-754-7445
Dw,210 West Napoleon Suite I,Sulphur,LA,70663,337-528-7277
Jl & D Hot Shot Services,233 Westwood Drive,Gloster,LA,71030,318-933-5221
Batiste Trucking,613 Claiborne Street,St Martinville,LA,70582,337-342-4226
Madden Transport,11102 Mill Creek Lane,Slaughter,LA,70777,225-244-1701
Preston Ray Johnson Trucking,506 Airbase Rd,Pollock,LA,71467,318-880-5330
J R A Transport,17799 Greenwall Spring Road,Greenwell Spring,LA,70739,228-257-3217
Mike's Trucking,5653 Trenton Ave,Baton Rouge,LA,70808,225-223-3219
Big Joe Trucking,100 First West St,Newellton,LA,71357,318-535-6632
Erm Transport,4010 W Louisiana State Drive,Kenner,LA,70065,504-578-3938
Lb Logistics,890 Ritter Street,Many,LA,71449,318-652-3025
L S Trucking,3160 Hwy 80,Rayville,LA,71269,318-728-3995
Ec Truckin',1901 Nolley Road,Natchitoches,LA,71457,318-357-9811
Blakey Auto Plex,1601 Benton Road,Bossier City,LA,71111,318-213-3131
Princess Lip Gloss,2104 Cherry Palm Circle,New Iberia,LA,70563,337-367-5159
J Washington Trucking,142 M Washington Rd,Natchitoches,LA,71457,318-652-0456
A-1 Sign Service,1387 Garland Gin Rd,Downsville,LA,71234,318-245-6363
Parrie's Distributing,255 Oosta Road,Zwolle,LA,71486,318-645-4666
Rubin Delivery Service,108 Champagne Street,Lafayette,LA,70501,337-456-3437
W Rushing Trucking,187 Red Stewart Loop,Jonesboro,LA,71251,318-259-7049
Rudy's Trucking,283 East 25th Street,Larose,LA,70373,985-693-8066
Ej Trucking,135 H Simmons Blvd,Jonesboro,LA,71251,253-380-9606
Great Transport,782 Winfield Rd,Princeton,LA,71067,318-949-0435
Wyatt & Sons Trucking,12528 Buddy Ellis Road,Denham Springs,LA,70726,225-588-3513
Mitch Trucking,7200 Cove Drive,New Orleans,LA,70126,504-307-8715
Thibodeaux's Trucking,172 Rue Jobert Rd,Opelousas,LA,70571,337-331-4361
Space Walk,450 31st Street,Kenner,LA,70065,504-464-6026
A1 Transports,320 Pearl Street,Natchitoches,LA,71457,713-298-5972
All-temp Refrigeration Services,271 Hwy 1085,Madisonville,LA,70447,888-626-1277
K&t Trucking,7505 Main St,Houma,LA,70360,985-853-2885
Westwego Auto Transport,125 Dorothy Dr,Avondale,LA,70094,405-283-0521
Revolver Transportation Solutions,1410 East Kings Highway,Shreveport,LA,71105,318-426-4706
Cps Coatings & Transportation,624 Airport Drive,Shreveport,LA,71107,318-222-6100
Rockin M Trucking,39707 Nolan Road,Gueydan,LA,70542,337-774-5522
Chris Noland Trucking,108 A Caledonia St,Tallulah,LA,71282,318-574-0947
Mighty Movers,323 Hamilton Rd,Bossier City,LA,71111,318-429-7592
Aim Transport,406 Rue Colombe,Carencro,LA,70520,337-886-0508
A & H Trucking,415 Prather Loop,Gilbert,LA,71336,318-498-1730
Reeves Transporting,286 Stuart Lake Rd,Bentley,LA,71407,318-451-1624
Litton Trucking,160 Millcreek Road,Downsville,LA,71234,318-644-5090
Lane Trucking,27364 Frank Gilbert,Lacombe,LA,70445,205-269-7554
J & J Transport,202 E Amedee Dr,Scott,LA,70583,337-234-2340
Ays,8069 Ned Ave Apt 3,Baton Rouge,LA,70820,225-329-9954
Rj Assisted Mover,4108 Sidney St,Alexandria,LA,71302,318-473-2985
Joe Regans Trucking LLC,615 Asper Rd,Egar,LA,70531,337-788-1488
Hill-conley Trucking,160 Olive Street,Ruston,LA,71270,318-247-3427
Ascension Auto Carriers,14407 Hwy 431,St Amant,LA,70774,225-622-0250
R H Carriers,156 Yelverton Rd,West Monroe,LA,71292,318-397-0034
Giglio Trucking,3854 Hwy 1,Raceland,LA,70394,985-665-0223
Chemical Transport Freight Of All Kinds,1236 N 46th Street,Baton Rouge,LA,70802,863-286-8601
Sl Building Services,1024 Executive Park Ave,Baton Rouge,LA,70806,225-927-7725
Cary's Transport,5607 Pampus Lane,Bossier City,LA,71112,318-465-4087
Charlies Oilfield Service,4736 Viking Drive,Bossier City,LA,71111,318-747-2020
Big Boy Services,200 Charbonet Road,Duson,LA,70529,337-991-2447
J & P Transport LLC,1205 Pavie,Natchitoches,LA,71457,318-352-6567
Autoworx 1st LLC,1401 Florida Ave Sw,Denham Springs,LA,70726,225-664-1499
"R&l Logistics, Inc.",1100 Cantrell Dr,Tallulah,LA,71282,318-574-5871
John Holt Trucking,9689 Hwy 28 W,Boyce,LA,71409,318-793-9821
Benny C Jones,230 Aplin Rd,Aimwell,LA,71401,318-992-5143
C & A Trucking,348 Highway 114,Hessmer,LA,71341,318-623-2434
A Banks Trucking,2630 Babytown Lane,Brusly,LA,70719,225-749-4792
Hayes Trans Co LLC,13469 Wales St,New Orleans,LA,70128,504-931-8135
Authorized Distributor Matco Tools,3734 Parker Rd,Sulphur,LA,70663,337-527-5051
Just Us Trucking,421 Fairview Dr,Laplace,LA,70068,985-653-3339
Lmg Transportation,1321 N Causeway Blvd Suite A,Mandeville,LA,70471,985-727-7522
Rle Transport,1229 Maplewood Drive,Harvey,LA,70058,870-394-4841
Lashell Trucking LLC,28441 Mcarthur Ave,Livingston,LA,70754,225-936-8411
A2z Trucking,132 Richard Road #1,Lake Charles,LA,70615,337-497-1931
Legends Transportation,2025 Green Forest Rd,Westlake,LA,70669,337-433-3407
Faulkner Trucking,388 Deacon Wells Rd,Ferriday,LA,71334,318-481-5068
Taylor Transport,17641 Pleasant Hill Drive,Livingston,LA,70754,225-413-4120
Marcell J Hill Trucking,2522 Buckhorn Bend Loop Rd,Monroe,LA,71201,318-372-1998
Nick Morgan Trucking,2504 Clement Rd,Egan,LA,70531,337-658-0813
M & N Trucking,5615 Trevor Drive,Shreveport,LA,71129,318-688-4056
1st Log Float Service,4611 Parkridge Dr,Benton,LA,71006,318-965-4130
Tok Transportation,3936 Indiana Run Drive,Baton Rouge,LA,70816,225-572-8951
C & M Trucking,713 Mayo St,Boyce,LA,71409,318-793-4099
T D G Trucking,117 Sidney Street,Tallulah,LA,71282,318-574-4008
Jimmie Cloud Trucking,6731 U S Hwy 167 North,Ville Platte,LA,70586,318-308-0118
Togo Trucking,4433 Walter Hill Road,Darrow,LA,70725,225-473-8499
Bmi Developement Corporation,131 Industrial Dr Ive Ste G,Slidell,LA,70460,985-661-1956
Washington & Wife Trucking,1947 Oakdale Street,Shreveport,LA,71108,318-631-2842
Esi,1644 Coteau Road,Houma,LA,70364,985-851-5474
Jerome M Lee Trucking LLC,8413 Hwy 43,Amite,LA,70422,985-507-9238
Travis Coons Trucking,2803 Mayo St,New Iberia,LA,70560,337-523-3213
J D Peterson Trucking,6149 Pine Ridge,Alexandria,LA,71301,318-445-4881
Southern Classic Trucking,327 Guidry Road Ste 105a,Lafayette,LA,70503,337-501-8138
Mizell Trucking,12111 Mitchell Rd,Bogalusa,LA,70427,985-516-3734
Cap Trucking,120 Thomas St,Oil City,LA,71061,318-465-1193
Gerber Trucking,89 Houston Place,Kenner,LA,70065,504-710-1383
Jackson Bulk Haulers,131 Sun Rd,Morgan City,LA,70380,985-399-3253
Garner Boys Transport,3304 Grant Street,Baker,LA,70714,225-615-7577
Allemang Services,332 Craft Rd,Ragley,LA,70657,337-853-8910
Bryans Transport,236 Vernon Lane,West Monroe,LA,71294,318-396-8526
Dedicated Superior Trucking & Recovery,1209 Mehle Ave,Arabis,LA,70032,813-846-1537
David's Superior Moving,1609 Hwy 190 E,Hammond,LA,70471,985-542-5105
Custom Hauling,181 Hwy 132,Delhi,LA,71232,318-341-0216
D Bar M,Rt 5 Box 38285 Esperanza Road,Coushatta,LA,71019,318-332-2009
Mac Trucking,Po Box 286,Paradis,LA,70080,505-343-6199
Ned Keith Carriers,13589 Slalom Way,Prairieville,LA,70769,225-933-5756
Spearman Trucking,3305 Tower Drive,Shreveport,LA,71107,318-226-6207
Ehc,219 Hazelnut St,Denham Springs,LA,70726,225-664-2512
Ed Installations,50322 James Earl Lane,Loranger,LA,70446,985-340-8805
Sampson Enterprises,33821 Natures Way,Walker,LA,70785,225-791-2765
Boyd Hauling&escort LLC,880 Hwy 909,Monterey,LA,71354,318-386-7259
Serenity Transport,4324 Red Bluff Road,Gloster,LA,71030,318-617-1800
Tate's Road Service,50518 Melvin Thomas Road,Franklinton,LA,70438,985-515-6557
Boggan Trucking,1610 S Flannery Road,Baton Rouge,LA,70816,225-324-4901
Felton Trucking,168 Historic East Street,Garyville,LA,70051,985-809-4046
Ayr Wrecker Service,184 River Oaks Dr,Laplace,LA,70068,985-359-0639
Everett Comer Trucking,214 V Comer Rd,Leesville,LA,71446,337-392-0550
Northshore Dump Truck Services,107 Northam Ct,Slidell,LA,70458,985-639-8850
Efrem Jackson,3093 N Gardena St,San Bernardino,LA,92407,909-855-4652
D & R Trucking,209 Martin Drive,Natchitoches,LA,71457,318-352-9036
G Gradney Trucking,938 Anthony Ave,Opelousas,LA,70570,337-948-8392
"K C K Trucking Services, Inc.",1028 Gemini St,Reserve,LA,70084,985-479-3097
Magic Transports,61310 Timberbend Drive,Lacombe,LA,70445,504-421-3673
Chanel Pentecost,1651 Louisville Ave Suite 125,Monroe,LA,71201,318-807-1111
Smith And Hughes Trucking LLC,43539 Tob Wilson Rd,Franklinton,LA,70438,985-335-6886
Garner Boyz Transport,1323 Casa Loma Dr,Baton Rouge,LA,70815,225-650-0974
T & J Trucking,190 Maroney Street,Marion,LA,71260,318-805-7038
Graylon Transportation LLC,7140 Young Ave,Port Allen,LA,70767,225-343-0755
Charlie T Trucking,2733 Osage Trail,Church Point,LA,70525,337-278-7693
Bg Trucking,1091 Bennie Derrough Rd,Deridder,LA,70634,337-463-6613
Diamond C Trucking,300 Back 40 Rd,Deridder,LA,70634,337-460-7637
Brent Richard Trucking,12320 La Hwy 697,Maurice,LA,70555,337-581-4295
Mighty M Transport,5527 North Afton Parkway,Baton Rouge,LA,70806,225-229-9305
Jne,3500 St Charles Ave Suite 204,New Orleans,LA,70115,504-891-1577
O & A Trucking,2229 Yorktown,Laplace,LA,70068,985-653-5598
Brajon Enterprises,227 Heard Road,Ruston,LA,71270,318-247-3266
Mills Trucking,211 Mills Rd,Hessmer,LA,71341,318-563-4908
D-trans,327 Rowland Dr,Monroe,LA,71203,318-342-8608
Journets Trucking Co,144 Donna Street,Grand Coteau,LA,70541,337-945-8888
J & J Trucking,150 Harold Drive,Opelousas,LA,70570,337-826-5638
K & M Trucking,9024 Hwy 107,Cottonport,LA,71327,318-876-3979
T & D Transport LLC Of La,623 Clarence Cormier Road,Carencro,LA,70520,337-668-4407
C & J Hauling,2907 Sandy,Olla,LA,71465,318-495-3107
Roberts Trucking,412 Rountree Rd,Vidalia,LA,71373,601-807-0699
Icl Trucking,35591 Madison St,Slidell,LA,70460,N/A
Horton Trucking,131 Bayou St,Campti,LA,71411,318-932-6176
L&l Hotshots,8283 Hwy 1 South,Alexandria,LA,71302,318-487-6022
Dunn Used Cars & Auto Transport,261 New House Drive,Calhoun,LA,71225,318-644-3999
Orion Transportation Co,4616 N Bayou Black Dr,Gibson,LA,70356,985-381-7285
Wildchild Trucking,4978 Hwy 17,Winnsboro,LA,71230,318-722-6498
D & T Trucking,146 Sisson Road,Natchitoches,LA,71457,318-357-8672
Cf Transport Services,2101 Iowa Ave,Kenner,LA,70062,504-274-6061
Coleman Trucking,4510 Maribel Drive,Baton Rouge,LA,70812,225-355-2702
Louis's Wrecker Service,402 South Main Street,Springhill,LA,71075,318-539-9701
Vines Erector Service,3115 Hwy 476,Many,LA,71449,318-590-9649
Da Oz Auto Transportors,10745 Green Crest Dr,Baton Rouge,LA,70811,225-774-8107
J & M Transport,602 Wilder Ave,Chatham,LA,71226,318-249-4952
Bj Trucking,3698 Hwy 0484,Natchez,LA,71456,318-379-2768
Leprechaun Trucking LLC,8060 Sligo Rd,St Francisville,LA,70775,225-635-4064
Streckers Wrecker Service,151 Industrial Drive,Slidell,LA,70460,985-643-1989
This 'n That Errand Service,737 Robert Blvd,Slidell,LA,70458,985-641-3179
Mountain Valley Seafood Express,106 Cryers Camp Rd,Elm Grove,LA,71051,318-218-1311
Addison Trucking,135 One Half Old River Road,Natchitoches,LA,71457,318-352-7000
Crazy White Boy Woodhauler,136 Standard Church Rd,Olla,LA,71465,318-235-4320
H & B Services,14751 Highway One,Vivian,LA,71082,318-393-9184
Kmkj Trucking,5131 Bundy Drive,New Orleans,LA,70127,N/A
R & J Trucking,2041 Tom Hudson Road,Winnfield,LA,71483,318-628-3935
T N A Trucking,139 Matt Road,Sterlington,LA,71280,318-343-6509
Acs Transportation,401 Hwy 164,Haughton,LA,71037,318-949-2114
Tt Trucking,619 Iberville,Donaldsonville,LA,70346,225-939-9648
Quad A Trucking,4420 Pauger St,New Orleans,LA,70122,504-282-3123
L & R Express,34 Green Street,Start,LA,71279,318-503-0997
"Bobby Burns Trucking, Inc.",146 Paradise Cove,Anacoco,LA,71403,337-238-0302
C & L Trucking,8093 Highway 9,Campti,LA,71411,318-476-2093
Messer Trucking,427 Fishhatchery Road,Forest Hill,LA,71430,318-748-7540
Advanced Delivery Services,2300 Kenneth Drive,Viloet,LA,70092,504-473-5001
F&f Wireline Service LLC,412 Wesley Road,Lake Charles,LA,70615,337-436-0696
Not Doing Business In Another Name,201 Belle Trace,Lecompte,LA,71346,318-623-4351
Henderson Trucking,904 Johnson Street Apt 2b,Mansfield,LA,71052,318-871-0563
Stoney's Service Corporation,416 B,Sulphur,LA,70663,337-533-1818
Jl Coleman Trucking LLC,1013 N Main St Suite A,Opelousas,LA,70570,337-948-3833
Wms Trucking,59423 Puleston Road,Amite,LA,70422,985-517-2526
4 K Trucking,1861 Myrtle St,Arcadia,LA,71001,318-202-0178
K & M Transport Service,59977 Highway 169n,Mooringsport,LA,71060,318-455-1178
Cross Country Express,38685 Walker North Rd,Walker,LA,70785,225-665-6735
J & S Trucking,33635 Walker North,Walker,LA,70785,225-667-3784
B E Hauling,246 Oregon Trail,Monroe,LA,71202,318-398-9039
Bayou Trucking,5930 River Road,Lake Charles,LA,70615,337-436-5160
Fox Trucking,388 Butter Cemetery Rd,Forest Hill,LA,71430,318-748-4038
Plt Trucking,303 Eureka Dr,Gray,LA,70359,985-868-7556
K & T Trucking,101 Short Street,Dequincy,LA,70633,337-786-8392
Hustler Truck Lines LLC,2775 Elgin St,Baton Rouge,LA,70805,225-356-9332
Odoms Trucking,331 Southeast 2nd Street,Sibley,LA,71073,318-377-8778
C & K Trucking,2091 County Road,Jonesboro,LA,71251,318-259-7711
Martin's Trucking,8498 Hwy 128,Winnsboro,LA,71295,318-723-5517
Frankie D Sepulvado Trucking,806 Garcie Rd,Zwolle,LA,71486,318-645-2366
Reliable Hotshot Trucking,5211 Austerlitz Lane,Oscar,LA,70762,225-627-0011
Freight Lines,217 Fernway Ln,Duson,LA,70529,337-993-1815
Kq Trucking,74441 Wilson Lane,Pearl River,LA,70452,985-863-3171
Kad Trucking,10921 Curran Blvd,New Orleans,LA,70127,504-319-1229
Smart Trucking,502 Jd Hardy Rd,Aimuell,LA,71401,318-992-1191
Sal & Janie's Trucking,45 Apple St,Norco,LA,70079,985-764-7766
R J Adams And Sons Trucking,1539 Magnolia Heights,Vacherie,LA,70090,225-265-7782
The Rock Trucking,295 Methvin Dr,Ponchatoula,LA,70454,985-386-0981
Irvin Trucking,708 Medford Drive,Laplace,LA,70068,985-652-6919
Gray Wolf Transports LLC,33910 Mack Rd ,Walker,LA,70785,225-664-7711
Buddys Trucking Cj Trucking,1303 Wanda Street,Denham Springs,LA,70726,225-664-5725
Lj's Transport,7932 Pines Road,Shreveport,LA,71129,318-933-1781
Aspen Mountain Trucking,890 Corley Loop,Anacoco,LA,71403,337-238-5292
Unlimited Auto Transport,1203 Macarthur Drive,Alexandria,LA,71303,318-443-5770
Lachney's Trucking & Transportation,1601 Marseille Drive,Laplace,LA,70068,985-652-6638
Flowers Trucking,3463 Hwy 33,Ruston,LA,71270,318-255-8595
Kimbrell Trucking,36091 Fore Rd,Denham Springs,LA,70706,225-268-0700
Young's Trucking,190 Auzenne St,Opelousas,LA,70570,337-942-1392
Reynolds Express,1277 Sherwood Forest Blvd,Baton Rouge,LA,70815,225-454-2408
Sts,9925 Buttercup,Baton Rouge,LA,70809,225-413-0515
Branco Trucking,302 Guard Road,Scott,LA,70583,337-212-3188
Lt& Jyc Trucking,9545 Prestonback Ln,Maringovin,LA,70757,225-625-2555
J & L Trucking,124 Jones Lane,Cottonport,LA,71327,318-876-2425
Detta Transport,2609 Foreman Rd,Vinton,LA,70668,337-370-2780
Custom Transportation,7006 Billy Lee Lane,Shreveport,LA,71107,318-929-4806
Superior Trucking,1501 Hanging Moss Lane,Gretna,LA,70056,504-393-8834
Tillman Express,37516 Lopez St,Slidell,LA,70458,985-290-2206
Mendietas Trucking,53 Melrose Dr,Destrehan,LA,70047,985-764-6598
Big Al's Transport,2505 Norman St,Harvey,LA,70058,504-201-6796
Bobby Navarre Trucking,537 Everett Vincent Dr,Hackberry,LA,70645,337-762-3326
Hitch Hiker Truckings,144 Mcrae Drive,Anacoco,LA,71403,337-238-4406
Centerpoint Energy Pipeline Services,525 Milam Street,Shreveport,LA,71101,318-429-4425
Jayway Transport,345 Briargrove St,Gretna,LA,70056,504-433-2727
Bouillon Trucking And Farms,12435 Keithville Keatchie Road,Keithville,LA,71047,318-925-6715
J D W Transport,3679 Fletcher Lane,Ruston,LA,71270,318-247-8666
Morees Dozer Service LLC,69196 Shirer Ct,Mandeville,LA,70471,985-875-9758
Pippenger Trucking,8188 Sundown Drive,Mooringsport,LA,71060,318-996-7686
R H Trucking,159 Mcconathy Rd,Anacoco,LA,71403,337-239-7821
Turnaround Transportation,3112 Reidway,Lake Charles,LA,70601,337-480-1519
Total Car Haulers,39025 Henry Rd,Pearl River,LA,70452,985-960-2845
Hook - N - Book Express Services,5042 Whites Ferry Road,West Monroe,LA,71291,318-397-5146
R&m Builders LLC,4500 Eden St,New Orleans,LA,70125,504-906-7032
J T Trucking,3511 Mansfield Ave,New Orleans,LA,70131,504-391-9855
G V Brooks Trucking,106 E Gresham Street,Dodson,LA,71422,318-243-3237
Steven R Bradford Trucking,26226 Hwy 25,Franklinton,LA,70438,985-839-9519
Big R Trucking,3509 Hwy 3229,Zwolle,LA,71486,318-645-7426
Womack Trucking,4024 Cape Hatteras Dr,Baton Rouge,LA,70814,225-978-4957
D & G Transport,10035 Seward Lane,Elton,LA,70532,337-584-2534
Popwinkle Trucking,32815 Lee Street,White Castle,LA,70788,225-279-1377
M3s Trucking,860 Issac Brouillette Road,Marksville,LA,71351,318-253-8833
Anthony Trucking,2701 Williamsburg Dr,Laplace,LA,70068,985-652-5480
Barrett's Wrecker Service,901 West California Ave,Ruston,LA,71270,318-255-5252
M C Trucking,323 East 67th Street,Shreveport,LA,71106,318-861-6284
"Bayou Environmental Services, Inc.",261 Stone Rd,Slidell,LA,70460,985-661-1277
4-m Trucking,4195 Hwy 923,Jonesville,LA,71343,318-339-6924
Beaumalone Trucking,365 Mott Rd,Plain Dealing,LA,71064,318-326-5740
Lamco,29083 Hwy 643,Vacherie,LA,70090,225-265-7663
Killian Carriers,85 Jim Bryant Road,Deville,LA,71328,318-201-6207
Boss Brothers,321 Renaud Drive,Lafayette,LA,70507,337-232-9582
Bc Williams Trucking,296 Levy Taylor Rd,Creston,LA,71070,318-875-2147
Felice Transportation,740 Highway 394,Deridder,LA,70634,337-462-3799
Billy's Bark & Trucking,52 Park Drive,Forest Hill,LA,71430,318-748-6451
Jess Trucking LLC,68 Shamrock Road,Noble,LA,71486,318-645-4356
Rpm Trucking,1845 Highway 4 W,Jonesboro,LA,71251,318-259-7888
Ford Trucking,736 Paris St,Opelousas,LA,70570,337-351-3019
Edwards Trucking,3408 Hwy 923,Jonesville,LA,71343,318-339-6898
Son Oilfield Services,305 Travailleur Rd,Lafayette,LA,70506,337-780-1506
M&j Trucking And Mobile Home Movers LLC,929 Patton Lane,Westwego,LA,70094,504-329-1119
3 Rivers Transport,31554 Harvey Jefferson Rd,Angie,LA,70426,985-516-4241
Kevin Banks Transport,4730 Sherwood Dr,New Orleans,LA,70128,504-339-4358
"C R Trucking Of La, Inc.",44549 Parsonage Road,Hammond,LA,70403,985-969-7157
Roger Patton Contract Hauling,2430 Oak St,Zwolle,LA,71486,318-645-2183
Robinson Trucking,3634 White Arkansas Rd,Bastrop,LA,71220,318-283-8723
Sparks Trucking,1080 Highway 174,Coushatta,LA,71019,318-796-3313
Gary Lee Kerby Trucking,429 Hwy 371,Coushatta,LA,71019,318-932-7190
The Movers Of New Orleans,1428 Terpsichore Street Suite 4,New Orleans,LA,70130,504-738-1111
"Tensas River Trucking, Inc.",3158 Hwy 603,Tallulah,LA,71282,318-574-4420
Power Freight Systems,1064 Claire Drive,Slidell,LA,70461,213-359-0171
Alpha & Associates Trucking,434 Choctaw Trail,Shreveport,LA,71107,318-426-6303
I-10 Auto Sales,36600 Pookey Lane,Prairieville,LA,70769,225-673-6250
"Native Outlaw, Inc.",4308 Hwy 4 East,Jonesboro,LA,71251,318-395-2911
T & T Transportors,20056 Hwy 22 East,Ponchatoula,LA,70454,318-792-7466
Boudreaux's Trucking,13461 Hwy 431,Saint Amant,LA,70774,225-644-0363
D & R Trucking And Son,3715 Ni 10 Service Rd,Metairie,LA,70002,504-481-0392
C W Pedro Bradford Trucking,State Road 500,Georgetown,LA,71432,870-951-1062
Tc Trucking,1617 Neyrey Drive,Metairie,LA,70001,504-465-9600
Chef Construction LLC,25511 Chef Menteur Hwy,New Orleans,LA,70129,504-662-5785
Makaveli Trucking,3901 Aspen Dr,Harvey,LA,70058,504-322-2208
Big Joes Trucking,108 Theriot Estates Court,Pierre Part,LA,70339,985-252-4335
Leblanc Trucking,13120 Lamar Moran Rd Lot 4,Saint Amant,LA,70774,225-226-8038
Southern Transportation,108 Becky Lane,Lafayette,LA,70508,337-254-0985
L & S Transportation,177 Ronald Road,Basile,LA,70515,337-457-1816
Halbach Trucking,74429 Hwy 41,Pearl River,LA,70452,614-374-7054
Lazy H Hauling,58126 Placquemine Street,Placquemine,LA,70764,225-687-4809
S & K Transportation,7727 Camerson St Lot 37,Duson,LA,70529,337-935-6151
Dougs Auto Sales,7406 Hwy 4,Winnsboro,LA,71295,318-435-7477
D & S Transport,703 Paula Drive,Delcambre,LA,70528,337-685-5270
Hardtime Trucking,Rt 4 Box 196 I,Coushatta,LA,71019,318-932-9860
Mikes Trucking,404 Ave A,Bellechasse,LA,70037,504-393-1562
Francise Enterprise,22330 Talbot Drive,Plaquemine,LA,70764,225-687-7901
Jv Trucking Company,571 Focis Street,Metairie,LA,70005,504-834-5297
Blue Eagle Heavy Haul,141 Robert E Lee #218,New Orleans,LA,70065,502-863-4823
N & D Trucking,622 Traxler,Ferriday,LA,71334,318-757-4329
Impact Express,267 E Flournoy-lucas Rd,Shreveport,LA,71106,318-798-7700
Johnny Hall Trucking,135 Hall Rd,Leesville,LA,71446,318-238-3939
5 Davis Trucking,700 Jordan Street,Montgomery,LA,71454,318-646-0788
Johnny Bell's Dump Truck & Lawn Serv,18450 Nelson Rd,Covington,LA,70435,985-871-8184
Guillermo Davila Enterprise,11717 Catalpa St,Baton Rouge,LA,70815,225-405-5994
C B Trucking,1087 Calvary Baptist Rd,Ville Platte,LA,70586,337-461-2342
R D Transport,304 Anita Street,Brusly,LA,70719,225-749-3271
"Sevenstarr Trucking, Inc.",Rt 1 Box 179,Newellton,LA,71357,N/A
Hilton Transportation,23130 Kurzweg,Plaquemine,LA,70764,225-687-8164
Tc & Mc Trucking,1401 7th Street Se,Springhill,LA,71021,318-539-2825
Tm&n Transportation,182 Doctor Parrot Drive,Branch,LA,70516,504-431-0445
S And S Hauling,9258 Plainview Rd,Hornbeck,LA,71439,318-586-9867
Chris Denais Trucking,1824 Dennis Rd,Duson,LA,70529,337-984-9494
Pyramid Trucking,431 West Dr # A,Baton Rouge,LA,70806,225-930-0094
T C B Express,217 Ridgecrest Ave,Bastrop,LA,71220,318-281-7812
Russ-rich Trucking Co,111 A Industrial Pky,Lafayette,LA,70508,318-232-0316
Edwards Elk Farm,125 Bellview Road,Ringgold,LA,71068,318-894-9586
Collins Transportation,3175 Conley Ave,Baton Rouge,LA,70805,225-357-0317
Easterling Trucking,25840 Sawmill Road,Plaquemine,LA,70764,225-659-9971
Vanderlick Farms Trucking,154 Amelia Lane,Boyce,LA,71409,318-937-2104
Chevonia Collins ,10218 Lathers Lane,70777,LA,70777,225-963-2467
Qualified Transportation,1435 Elizardi Blvd Suite C,New Orleans,LA,70114,504-931-5590
Tanner Trucking,9530 Dawnadele Ave,Baton Rouge,LA,70809,225-291-4438
C & M Transportation,7858 Lower Zachary Road,Zachary,LA,70791,225-658-8419
Express Delivery Co,110 Wildwood Dr,Pineville,LA,71360,318-640-0752
Grant Daniel Trucking,5835 W Main St,Houma,LA,70360,985-868-9595
Jewel Parish Trucking,142 Hawthorne Loop,Cotton Valley,LA,71018,318-832-4322
Anderson Trucking,4282 Petrus St,Bastrop,LA,71220,318-283-1550
Quality Auto Sales,3600 Desiard Street,Monroe,LA,71203,318-345-3297
Shadid Trucking Co,16321 Hwy 7 N,Minden,LA,71055,318-371-2612
J & S Trucking,927 Simmons Rd,Mittie,LA,70654,318-639-9901
Rockin T Trucking,8021 Hwy 27,Bell City,LA,70630,337-479-1949
L & F Trucking,21 Wallace Broussard Road,Carencro,LA,70520,337-896-4287
Bowman Express,11416 Cypress Garden Rd A-2,Shreveport,LA,71106,318-869-0773
American Disposal Service,1305 Airport Drive,Shreveport,LA,71107,318-221-1222
"K Guillory Trucking, Inc.",156 Persy Drive,Opelousas,LA,70570,318-948-9767
"Rws General Contractors, Inc.",2571 Cypress Island Hwy,Saint Martinville,LA,70582,337-394-7608
D W Mcelwee,1021 8th Street,Glenmora,LA,71433,318-748-4440
Louisiana Recovery,215 Alexander,Bossier City,LA,71111,318-752-0196
Mr Christmas Trucking,5518 Spain St,New Orleans,LA,70122,504-282-9428
Rue's Trucking,316 W Moundville,Washington,LA,70589,318-826-5050
Vines Trucking,24 North Lake Dr,Converse,LA,71419,318-567-9154
Rocking M Trucking,584 Bethel Rd,Deville,LA,71328,318-466-5441
Bblj Trucking,160 Metoyer Lane,Melrose,LA,71452,318-379-9648
Smith & Son Trucking,63562 Foster Rd,Angie,LA,70426,985-732-7926
Bucks Trucking,6500 7th St,Marrero,LA,70072,504-348-3318
Cheyenne Trucking,1949 Highway 519,Arcadia,LA,71001,318-263-9973
Iota Trucking LLC,1269 Eunice-iota Hwy,Iota,LA,70543,337-779-3049
S Baudy Trucking,3400 Florence Dr,New Orleans,LA,70114,504-366-2784
Whitaker Transport,292 Statney,Grand Cane,LA,71032,318-872-6380
J & S Trucking,167 Stacy Smith Rd,Winnfield,LA,71483,936-327-2626
B N B Trucking,44 Bobby Maricle Rd,Oakdale,LA,71463,318-634-5974
D&m Transport,4185 Linda Lane,Shreveport,LA,71107,318-929-1065
T L B Trucking,540 Yankee Ridge Road,Deridder,LA,70634,337-462-5955
F & M Trucking,70143 Hwy 41,Pearl River,LA,70452,985-863-7784
Dan Ferguson Trucking,7059 Gum Springs Rd,Atlanta,LA,71404,318-628-6200
Renaissance Construction & Mobile Home Movers,45501 Durbin Rd,Hammond,LA,70401,225-567-1294
"K P M Deliveries, Inc.",1429 Prentiss Avenue,New Orleans,LA,70122,504-288-4448
Creighton Trucking,828 Royal St #298,New Orleans,LA,70116,318-379-1306
D & E Trucking,7510 E Admiral Doyle Dr,Jeanerette,LA,70544,337-276-5506
Pioneer,3111 Austin Road,Jena,LA,71342,318-992-5300
Oalmann's Trucking,22555 Hoyt Stafford Rd,Franklinton,LA,70438,504-839-3916
West Pass Farms & Trucking,419 Hwy 384,Lake Charles,LA,70607,337-598-3485
Jht Trucking,Rte 1 Box 193 B,Delhi,LA,71232,318-878-9263
Fast Corp,1640 Hwy 456,Lecompte,LA,71346,318-776-0770
Whatever Trucking LLC,202 Bobby St,Tallulah,LA,71282,318-574-1769
Russell's Hot Shot,2143 Connie Drive,Denham Springs,LA,70726,225-665-4102
Faron And Sons Trucking,54074 Sweetwater Rd,Independence,LA,70443,504-878-0640
Loons Trucking,75480 Wilson Rd,Kentwood,LA,70444,504-229-6869
Temple Trucking,318 Audubon Acres Circle,Vidalia,LA,71373,318-336-2991
Newsom Trucking,12305 Hwy 440,Kentwood,LA,70444,985-229-3617
Will Gachassin Trucking,1734 Old Spanish Trail,St Martinville,LA,70582,337-365-9929
Rivers Trucking,495 Jim West Road,Deridder,LA,70634,337-463-4114
R G Miles Transport,2835 Martin Luther King Dr,Shreveport,LA,71107,318-425-2679
Security Enterprise Trucking,1605 Generes Dr,Harahan,LA,70123,504-415-7900
"Smooth Moves, Inc.",12494 Camelia Rd,St Amant,LA,70774,225-644-5417
"Ash Exploration, Inc.",1440 Hwy 93 N,Scott,LA,70583,337-565-6209
O M W Truckin,3285 Walnut Rd,Sarepta,LA,71071,318-994-3182
Howlett And Sons Trucking LLC,54052 L Jenkins Road,Bogalusa,LA,70427,504-732-4306
Buddys Hauling Service,113 Downing Pines Rd,W Monroe,LA,71292,318-387-9360
Michael Ramclam Trucking,2480 Doyle Melancon Road,Breaux Bridge,LA,70517,337-845-9959
Yard Dog Vacuum Service,8029 Cameron St,Duson,LA,70529,337-873-7510
Dot's Lil Red Truck,5022 Mccormick Ave,Greenwell Springs,LA,70739,225-261-4247
Jennifer Dison Trucking,248 Procter Rd,Spearsville,LA,71277,318-956-4640
J & J Trucking,64082 Southernwoods Ln,Pearl River,LA,70452,504-863-5444
Kjen Trucking,17120 Sumter Dr,Praireville,LA,70769,225-673-5435
Ebert Livestock,133 Kaffie Drive,Natchitoches,LA,71457,318-663-7800
C & M Trucking,316 South Pardue,Vivian,LA,71082,318-375-5573
Robert Smith Trucking,254 Pitre Rd,Melville,LA,71353,337-307-0005
Ks Trucking,1107 Lamar St,Lafayette,LA,70501,337-232-5704
The Freight Connection,200 Crofton Road,Kenner,LA,70062,504-287-4837
Jordon Transport,4991 Hwy 577,Pioneer,LA,71266,N/A
Clark Postal Service,921 Moss Street,Lake Charles,LA,70615,337-477-6899
Miller Trucking,1095 Brushey Bayou Road,Wisnes,LA,71378,318-724-7014
Dan's Trucking,3158-b E River Rd,Oakdale,LA,71463,318-748-7978
Jeffrey's Hottshotts,1100 Pinehill Road,Ville Platte,LA,70586,337-461-5257
J & L Trucking,793 N 35th Street,Baton Rouge,LA,70802,504-383-0603
Amite Mobile Home Service LLC,66324 Hwy 1054,Kentwood,LA,70444,985-748-5580
Rodney Mcdaniel Trucking,1306 Rpselawn Ave,Monroe,LA,71201,318-398-0254
Double Rr Trucking,1658 Queens Road,Many,LA,71449,318-256-3307
Star Services,12661 Beymore Rd,Bastrop,LA,71220,318-348-0439
D And B Trucking,164 Quail Dr,Leesville,LA,71446,337-463-3495
J & J Trucking,507 Mccain Drive,Monroe,LA,71202,318-680-2664
A M C Transport,307 Al Joseph Lane,Thibodaux,LA,70301,198-544-7992
B & H Trucking,Hwy 547 280,Clarks,LA,71415,318-649-5680
Rock N Roll Angel Trucking,122 Pierce Lane,Haynesville,LA,71038,318-624-9884
Lightning's Transport,14182 Airline Hwy 61,Gonzales,LA,70737,225-644-4043
Crescent City Transportation,12170 Old Gentilly Rd Sec 98,New Orleans,LA,70129,504-265-9939
Enterprise Trucking,4000 E Texas St,Bossier City,LA,71111,318-741-9390
Marty's Trucking,2714 College Rd,Jeanerette,LA,70544,337-276-6943
Cajun Trucking,5391 Pine Point Roal,Ville Platte,LA,70586,337-363-8935
E Paul Distributing Co,740 Patricia Dr,Denham Springs,LA,70726,225-937-8872
Tim Coor Trucking,1070 Martin Lane,Oakdale,LA,71463,318-335-4283
Singletary Trucking,72533 R Singletary Rd,Pearl River,LA,70452,504-863-3918
M & R Transporation,Rt 2 Box 186,Greensburg,LA,70441,318-292-4493
Leslie's Trucking,358 Less Ferguson Road,Marion,LA,71260,318-292-4493
Michael Cardwell Trucking,112 Ernies Ln,Franklin,LA,70538,404-376-5978
Double R Trucking Co,441 A Pelt Rd,Pitkin,LA,70656,337-328-7196
Bobby Elliott Trucking,1363 Firetower Road,Aimwell,LA,71401,318-992-4981
S & W Enterprises,14841 Bluff Creek Drive,Baker,LA,70714,225-775-1695
Boise James Trucking,147 Sundown Rd,Waterproof,LA,71375,318-749-5467
Acadiana Crew Change,324 W Pinhook Road,Lafayette,LA,70501,337-291-6071
G & J Trucking,340 Kennison Rd,Port Barre,LA,70577,337-585-7764
S & T Trucking,14180-39 Hwy 44,Gonzales,LA,70737,225-644-8086
Prime Moving,4424 Earhart Blvd,New Orleans,LA,70128,504-895-0661
Magic Touch,927 N Broad,New Orleans,LA,70101,504-895-0661
Double H Trucking,45246 Morris Rd,Louisiana,LA,70401,504-542-6061
Road Dawg Trucking,158 Christine Drive,Boyce,LA,71409,318-443-9803
Lightening Trucking,303 Cutts Rd,Otis,LA,71466,318-793-5898
Ottis B Johnson Trucking,1549 Highway 10 West,Oakdale,LA,71463,318-335-2913
Fast Track Delivery Service,3204 Bore St,Metairie,LA,70001,504-885-8811
James Elliott Trucking,1303 Springridge Rd,Aimwell,LA,71401,N/A
C & R Trucking,439 Mt Moriah Church Road,Hineston,LA,71438,318-659-3207
Sandel Trucking,274 Oliver Road,Florien,LA,71429,318-586-4386
Reynaud Trucking,1512 Belle Point,La Place,LA,70068,504-479-2234
"D-8 Trucking, Inc.",9047 Florida Blvd,Walker,LA,70785,225-665-5827
T W Kirl Trucking,255 Tobacco Rd,Trout,LA,71371,318-992-6270
James R Edwards Trucking,11838 Hwy 1,Natchitoches,LA,71457,318-379-1790
"T-boy Trucking, Inc.",53 John Lacombe Road,Alexandia,LA,71302,318-563-4007
David Vincents Trucking Service,193 Hazlewood Drive,Branch,LA,70516,337-684-6864
J And M Industrial Services,5540 Highway 90 East,Lake Charles,LA,70615,337-436-6631
"Shirlee Amc Co, Inc.",2358 Champagne St,Marrero,LA,70072,504-340-9709
Robert Day Trucking,21 Macarthur Lane,Glenmora,LA,71433,318-748-4648
Mi Das Truck Trailer Parts Service & Recovery,60378 Ranch Rd,Slidell,LA,70460,985-641-5306
Rm Trucking,33 Dupuy Lane,Alexandria,LA,71302,318-445-0168
Dwc Trucking,350 Lindey Lane,Jonesboro,LA,71251,318-259-8303
Scotty Bryant Trucking,641 Tyler Cemetery Road,Center Point,LA,71323,318-253-4406
H & M Transport,Hwy 3 N,Plain Dealing,LA,71064,N/A
Cyre Transportation,7600 Adventure Ave,New Orleans,LA,70129,504-254-2202
White's Express Trucking,620 Monticello Ave,Jefferson,LA,70121,504-247-6266
A & H Trucking,611 Hwy 167 N,Bernice,LA,71222,318-285-9541
L & L Trucking,378 Nelms Loop,Colfax,LA,71417,318-627-2711
Vince Guillory Trucking,102 Richland Rd,Alexandria,LA,71302,318-445-1569
Poor Boy Trucking,10546 Ferry Lake School Rd,Oil City,LA,71061,318-995-6842
Gene's Delivery Service,143 St Charles St,Destrehan,LA,70047,985-764-9883
Triple C Trucking,38679 Walker N Rd,Walker,LA,70785,225-664-1531
Daniel P Savell Trucking,687 Turps Rd,Ragley,LA,70657,337-725-3055
Frogtown Express,301 Wiltz Street,Rayne,LA,70578,337-288-2647
Watley Transport,513 167 North,Bernice,LA,71222,318-285-9758
"Joe's Diesel Service, Inc.",46461 Family Acres Road,St Amant,LA,70774,225-279-8616
Ken Templeton Trucking,1005 Overlan Stage Rd,Rayville,LA,71269,318-728-8787
Logistic Division,2171 Phillip Dr,Covington,LA,70433,985-867-3613
D & L Evans Transport,702 Jackson St,Vivian,LA,71082,318-375-2950
Tony Perkins Trucking,150 Mathis Hill Rd,Montgomery,LA,71454,318-646-3149
J J S Trucking,1192 Sycamore St,Cottonport,LA,71327,318-876-2121
Ram Transport,367 Ware Road,Grand Cane,LA,71032,318-872-5899
Usa Trucking,317 Bj Cement Road,Lake Charles,LA,70615,337-436-4188
Hanspard Trucking,1209 Harmond Johnson Rd,Monroe,LA,71202,318-325-5611
Cutters Express Blower,225 Longleaf Dr,Brousard,LA,70518,337-233-6253
Napoles And Son Transport,1956 Daniel Rd # 9,Terrytown,LA,70056,504-362-9538
Netterville's Auto,3401 Baker Blvd,Baker,LA,70714,225-774-9430
Screamin'eagle Auto Transport,40731 Ranch Rd,Slidell,LA,70461,985-641-3243
J Iii Trucking LLC,Rr 3 Box 2753,Coushatta,LA,71019,318-932-6975
Affordable Hot Shot Service,35742 Bend Rd,Denham Springs,LA,70706,225-865-1888
Above & Beyond Mobile Home Service,505 Pinecone Dr,Haughton,LA,71037,318-390-9316
C&c Cajun Express,6888 Hickory Grove Road,Deville,LA,71328,318-466-5509
"Lakeside Transport, Inc.",26005 Oak Alley,Holden,LA,70744,225-294-0907
Benny Bedgood Trucking,130 Teddy Roosevelt Road,Tallulah,LA,71282,318-341-2089
Pli,4327 South Manchester Rd,Iowa,LA,70647,337-436-6574
D & D Trucking,813 Granger St Apt A,Jennings,LA,70546,337-584-3164
"Gregs Auto Diesel Repair Service, Inc.",27394 East Lakeside Drive,Denham Springs,LA,70726,225-667-0808
"Martinez Trucking, Inc.",30 Mcferrin Rd,Zwolle,LA,71486,318-645-7892
"Boyett & Associates, Inc.",112 Bodies Landing Rd,Pollock,LA,71467,318-758-1953
R & R Trucking,1551 Gaytine Rd,Ragley,LA,70657,337-725-6960
Pte,Oliver 129,Lawtell,LA,70550,337-543-7031
Dusang Trucking,1415 Louise St,Alexandria,LA,71303,318-447-1459
Wilridge Trucking L L C,518 Jacob Avenue,Crowley,LA,70526,337-785-9807
R G C Trucking,410 Strickland Rd,Winnsboro,LA,71295,318-723-4075
Cowan Trucking,1049 Jasper St,Chatham,LA,71226,N/A
D B S Trucking,1908 Cotton Wood St,Deridder,LA,70634,337-462-1694
Bayou Mobile Home Movers Of La,20393 Hollie Ln,Ponchatoula,LA,70454,N/A
Tl Transport,213 Holden Street,Leesville,LA,71446,651-485-7896
Mlh Trucking,131 Choupique Lane,Cottonport,LA,71327,318-876-3101
K & D Mobile Homes,48439 Hwy 437,Franklinton,LA,70438,985-839-3938
Whiskey Chiho Express,168 Whiskey Chiho,Pitkin,LA,70656,318-358-3335
Hyatt Trucking,708 Pete Smith Rd,De Ridder,LA,70634,337-328-2246
T&a Trucking,639 Hwy 3041,Bunkie,LA,71322,318-346-9984
Clark Trucking,Harding St,Baker,LA,70714,225-324-6076
Too Legit Enterprizes,13167 Hwy 1064,Tickfaw,LA,70466,985-419-1886
Matt Baker Trucking,233 Boyd Road,Plain Dealing,LA,71064,318-326-7671
Gregory R Jones Sr,811 Tulane Drive,Deridder,LA,70634,337-462-1565
All Transport Services,1205 E Vermillion St,Lafayette,LA,70501,337-269-4078
Stipelcovich Seafood,170 Udstad Lane,Port Sulphur,LA,70083,504-912-2950
Rjc Livestock Hauling,62212 Mixon Ln,Amite,LA,70422,985-747-8059
Eagle Recovery&contruction,54367 E Howze Beach Road,Slidell,LA,70461,601-273-0672
Total Service Company,573 Kilbourne Ave,Kilbourne,LA,71253,318-428-7595
R P L Trucking,206 12th St,Mermentau,LA,70556,337-824-7856
Mama T's Trucking,40145 Cornerview St,Gonzales,LA,70737,888-287-9844
J & K Trucking,214 Spillers Road,Atlanta,LA,71404,318-652-3719
Goodtime Express,112 Deer Creek,Coushatta,LA,71019,318-932-8799
Ray Mcdaniel Trucking Co,749 Eva Street,Montgomery,LA,71454,318-646-9262
D & D Trucking,137 Vick Dauzat Rd,Hessmer,LA,71341,318-445-0941
"Southern Timber Services, Inc.",473 Highway 111,Merryville,LA,70653,337-825-5149
R & C Trucking,55081 Hwy 1054,Independence,LA,70443,985-878-6794
Timothy Kirl Trucking,1175 Willow Loop,Jena,LA,71342,318-992-8748
Kajun Trucking,19986 Sylvest Road,Franklinton,LA,70438,985-795-0607
Jones Auto Service,913 Ridge Rd,Onson,LA,70529,N/A
P M Trucking,282 Aimee Lane,Florien,LA,71429,318-586-7643
Gangster Trucking,184 Maxwell Rd,Colfax,LA,71417,318-899-3721
Y2k Trucking,582 Hatcher Rd,Jena,LA,71371,318-623-0449
Mikat Trucking,400 Laird Fletcher Rd,Natchitoches,LA,71457,318-354-8500
Jonathan Nailes Trucking,549 Foster Arbor,Castor,LA,71016,318-544-7606
Claytons Trucking Co,3508 Shannon Dr,Violet,LA,70092,504-682-9731
Foster Trucking,100 Gills Road,Boyce,LA,71409,318-793-4814
K Jenkins Trucking LLC,446 W Second Street,Reserve,LA,70084,985-536-3578
William Carroll,6222 Hwy 505,Winnfield,LA,71483,318-628-7063
Collins Logistics,795 Fullerton Drive,Shreveport,LA,71107,318-458-9559
K & S Transport,856 Springhill Loop,Pollock,LA,71467,318-641-0098
Hillbillies Trucking,551 E Meade Rd,Pollock,LA,71467,318-765-9899
Amos Transport,130 Tesson Street,Opelousas,LA,70570,337-948-0026
M G Trucking,109 Ash St Apt#5,Metairie,LA,70005,504-554-5687
Meredith Trucking,1531 London,Olla,LA,71465,318-495-5035
Calvin R Barnhill Trucking,335 Sterns Rd,Olla,LA,71465,318-495-3291
"J T Louisiana Construction & Maintenance, Inc.",8401 Drury Street,Metairie,LA,70003,504-491-3140
Kam Express,505 Ranchette Dr,Stonewall,LA,71078,318-925-8701
Dta,729 Lafayette Dr,Laplace,LA,70068,800-682-8483
Charter & Tour Bus Service,2730 Hwy 65,Clayton,LA,71326,318-757-8761
Anderson Transport LLC,1749 E John Alan Street,Gonzales,LA,70737,225-647-2508
E & G Williams Trucking,740 Percy Rd,Spearsville,LA,71277,318-368-0482
All About Trucking,626 Ricks Place,New Orleans,LA,70114,504-227-2005
Variety Transport,13241 Old Dutchtown,Gonzales,LA,70737,225-677-9965
"Calhoun's Trucking, Inc.",2015 Sabine St,Zwolle,LA,71486,318-645-2516
Double D Transportation LLC,8308 Lake Peigneur,New Iberia,LA,70560,337-365-0928
Michael A Lewis & Sons Trucking,3060 Keithway Dr,Harvey,LA,70058,504-975-7623
D'shan Joseph,4119 Tchoupitoulas St,New Orleans,LA,70115,504-891-0874
Calhoun Trucking,2718 East Carroll,Coushatta,LA,71019,318-932-5287
C P Trucking,3656 Hwy 1,Marksville,LA,71351,318-447-1736
Mph Express Transport,1141 Mckinley,Shreveport,LA,71107,318-218-3728
Tony Gauthier's Trucking,15192 Hwy 416,Glynn,LA,70736,225-627-9469
Triple V Trucking,2075 Hwy 495,Cloutierville,LA,71416,318-379-2101
Lms Truck Center,6609 Masonic Drive ,Alexandria,LA,71301,318-442-7010
Greg Haney Trucking,493 Twin Lake Road,Grayson,LA,71435,318-649-0272
Dm Trucking,14 Beauregard Rd,Alexanderia,LA,71302,318-597-1122
Enterprise Delivery,583 Bistineau Church Rd,Heflin,LA,71039,318-377-6437
Grh Trucking,400 Company Farm Rd,Baskin,LA,71219,318-248-2301
V & M Trucking,5166 Astoria,Baton Rouge,LA,70812,225-933-7728
Thomas Auto Transport,41092 Happy Woods Rd,Hamond,LA,70403,985-370-4660
At Transport,1377 Walker Road ,Mansfield,LA,71052,281-610-4725
Aok Transport,31695 Avants Rd,Walker,LA,70785,225-791-0764
Half Pint Trucking,237 Clear Creek Drive,Leesville,LA,71446,337-462-3278
Encalade Trucking,140 Espy Lane,Pointe-a-la Hache,LA,70082,504-236-1527
L & M Trucking Co,8045 Cardigan Way ,Shreveport,LA,71129,318-688-1042
Pdk Trucking,12445 Elzie Cowart Road,Denham Springs,LA,70706,225-665-4269
Snelson Trucking,166 Bj Rd,Vidalia,LA,71373,318-336-4886
Lil Wil Trucking,80 Grady Lane,Many,LA,71449,318-256-2562
K&t Portable Building Movers,189 Colston Road,Many,LA,71449,318-256-5909
Clark Moving Specialists,114-b Township Ln,Lafayette,LA,70503,337-319-4202
R & G Hauling,173 Silkstocking Rd,Kinder,LA,70648,337-738-5911
A To Z Delivery Of St Charles,13110 Hwy 90 Suite A,Boutte,LA,70039,985-331-0607
Cortis Gregory Hauling Contractor,1679 Sloan Rd,Mansfield,LA,71052,318-872-5611
Frisby Trucking,182 Sullivan Road,Sikes,LA,71473,318-246-5463
Cajun Transport,1848 Boone Road,Brach,LA,70516,337-684-6882
Tnt Trucking,P O Box 383,Kentwood,LA,70444,N/A
Jashbet Trucking,103 Morris Drive,Tallulah,LA,71282,N/A
Classic Cattle Carrier LLC,35518 Bonnebelle Drive,Denham Springs,LA,70706,225-665-8887
Hauling Log's & Pulp Wood,158 Adkin Street,Campti,LA,71411,318-476-2694
Barnyard Fabrication,1276 Hwy 20,Thibodaux,LA,70301,202-521-1493
Catco Trucking,202 E Grand Homms,Chalmette,LA,70043,504-382-5926
Bulldog Trucking,511 Weldon St,New Iberia,LA,70560,337-365-2072
Raymond Howard Trucking,2042 Lizardi St,New Orleans,LA,70117,504-948-2411
J & C Trucking,843 Rayne Road,Port Barre,LA,70577,337-585-2939
S & B Trucking Company,398 Johnson Loop,Natchez,LA,71456,318-357-9550
Shaw's Trucking,829 Carson Rd,Winnsboro,LA,71295,318-722-3355
Hebert Farms,199 Nelson Road,Delhi,LA,71232,318-722-6426
"Smothers Express, Inc.",308 East Club Drive Apt F,St Rose,LA,70087,504-305-1763
K & S Transportation,33635 Walker North,Walker,LA,70785,225-667-3784
Chris Maynard Trucking,1309 Ashley Dr,New Iberia,LA,70560,337-380-4120
Msi Express Logistics Systems,1776 Orleans Ave,Mandeville,LA,70448,985-727-0865
"Will-j Trucking, Inc.",8343 Wasson Rd,Shreveport,LA,71107,318-309-3378
Jenkins Trucking,13287 Herring Dr,Walker,LA,70785,504-664-3985
Jerry Robinson Trucking,374 East River Road,Calcasieu,LA,71433,318-659-3892
Robinson Trucking,286 Alello Drive,Baton Rouge,LA,70806,504-925-1018
Paul David Trucking,1326 Etankfarm Rd,Lake Charles,LA,70606,337-474-7724
Djo Trucking,P O Box 214,Logansport,LA,71049,318-697-5052
Brusly Wrecker Service,4021 Hwy 1 South,Port Allen,LA,70767,225-749-3943
J M Williams Trucking,3005 Penick St,Shreveport,LA,71109,318-233-2238
Rainville Trucking,170 Veterans Dr,Eunice,LA,70535,337-457-5347
"K-mac Trucking, Inc.",170 Varvarosky Rd,Deville,LA,71328,318-487-1180
S & S Trucking,Hwy 71 - Nantachie Lake,Montgomery,LA,71454,318-627-9988
Buddy Mcbride Trucking,223 Henry Road,Ringgold,LA,71068,888-894-8614
Arnone Trucking,P O Box 556,Independence,LA,70443,504-748-6801
"4-lands Trucking, Inc.",1100 Poydras St Ste 2900,New Orleans,LA,70156,N/A
Mike's Hauling,R 2 Box 171,Ringgold,LA,71068,318-894-9758
J & S Culverhouse Trucking,388 Miller Briarwood Road,Sibley,LA,71073,318-371-9370
Paul Bunyon Timber Services,Rt 1 Box 296,Deridder,LA,70634,318-328-7238
Mark Welch Trucking,17 Florida Street,Vidalia,LA,71373,318-336-8753
Carter Trucking,901 S Main,Springhill,LA,71075,218-539-3671
A & W Trucking,Hc 74 Box 212 - B,Hebert,LA,71436,318-649-0073
Vesa Trucking,615 Redcut Rd,West Monroe,LA,71292,318-325-9497
"G & S Trucking, Inc.",1199 Mt Zion Road,Oak Grove,LA,71263,318-428-8639
D Below Trucking,160 Jim Rivers Road,Coushatta,LA,71019,318-796-2614
Rock Transportation & Brokerage,9446 East Graham Avenue,Baton Rouge,LA,70814,N/A
Triple V Hauling,216 Lafayette Circle,Princeton,LA,71067,318-371-0996
"P & S Transports, Inc.",2316 Washington Avenue,Harvey,LA,70058,504-368-8714
"Badger Trucking, Inc.",Rt 4 Box 599,Rayville,LA,71269,318-728-3079
Dennis Gaspard Trucking,800 Lisenby Road,Olla,LA,71465,318-495-5901
Hubert Dowden Trucking,280 Ross Rd,Leesville,LA,71446,337-238-3006
H & N Trucking,228 Lewing Drive,Anacoco,LA,71403,337-238-3631
Jackson Trucking,1414 Jackson,Monroe,LA,71202,318-345-1811
Dian's Transport Co,635 Levens Add Rd,Ferriday,LA,71334,318-757-4930
Granneman Trucking,8735 Cheyenne Avenue,Denham Springs,LA,70726,N/A
Covington Crane Service,78265 Hwy 1082,Covington,LA,70433,504-893-3837
Cullins Trucking,224 Teague Dr,Elm Grove,LA,71051,318-929-4133
O K Trucking Co,4617 Hwy 14,New Iberia,LA,70560,409-542-7777
Wilson Truck Service,P O Box 1362,Harvey,LA,70059,504-367-8005
D & P Trucking,Highway 551 North,Marion,LA,71260,870-962-3228
Towers Transportation Brokerage Div,7101 Meadowbrook Drive,Mandeville,LA,70471,985-624-5622
"Jka Trucking, Inc.",2718 S Remy Robert Ave,Gonzales,LA,70737,504-647-5242
Bryant Trucking Co,9583 Bulls Lane,Norwood,LA,70761,504-683-3646
Eaglin Express Trucking,1937 Pekrins Rd,Baton Rouge,LA,70808,504-338-9501
John Normand Truckin,Po Box 233,Mansura,LA,71350,318-964-5260
Tony Express,Rt 2 Box 53c,Homer,LA,71040,318-927-6010
C & J Trucking,11985 Marquis Dr,Walker,LA,70785,504-664-9445
Littleton Trucking,5019 Highway 107,Pineville,LA,71360,318-448-3919
Town & Country Hauling,8051 Haygood Rd,Shreveport,LA,71107,318-227-1375
Calais Wrecker Service,1019 A Holden Calais Rd,Breaux Bridge,LA,70517,337-667-6154
J B Trucking,606 Willow Street,Franklin,LA,70538,318-828-3621
Jeff Traylor Trucking,671 Lincecum Church Rd,Pollock,LA,71467,318-827-5955
R & M Trucking,6119 Memorial Pk Rd,Bastrop,LA,71220,318-281-4178
M & C Trucking Co,Rt 1 Box 1004,Grayson,LA,71435,318-649-9164
Louisiana National Lease,3401 Hwy 90 East,Broussard,LA,70518,318-837-0088
Arnold's Transportation,11270 Dubois Lane,Denham Springs,LA,70726,504-664-1818
Smith Trucking,Rte 1 Box 780,Dubberly,LA,71024,318-371-1337
Associated Air Freight,5150 Interstate Dr,Shreveport,LA,71109,318-636-0781
Georges Tour And Shuttle Service,471 Kateland,Colfax,LA,71417,318-627-3479
Tony's Dump Truck Service,5616 Shreveport Blanchard Hwy,Shreveport,LA,71107,318-929-4810
Ford Express,201 Contempo #19,West Monroe,LA,71291,N/A
G Brown Bus Service,5609 Rollins Road,Zachary,LA,70791,225-654-2603
"Abatement Services, Inc.",3202 West 70th Street,Shreveport,LA,71108,318-686-7577
Rss Trucking,304 Tremont,Winnfield,LA,71483,318-628-9046
Mcnabb Trucking,72067 L Spears Road,Kentwood,LA,70444,504-229-4587
J & J Oil Field Service,Hc 69 Box 2 F Hwy 3031,Jonesville,LA,71343,318-339-4300
Hauling Logs,Hc 75 Box 3,Tullos,LA,71479,318-495-3460
Doug's Trucking,3375 Hwy 191,Mansfield,LA,71052,318-697-4642
Cheha Trucking,636 Nemento,Lake Arthur,LA,70549,318-774-3643
Simien Trucking,17077 Miller Oil Field Rd,Welsh,LA,70591,337-912-6212
G Trucking,247 Grevemberg Rd,Anacoco,LA,71403,318-286-9269
Archer Trucking,37307 T Ellis Rd,Pearl River,LA,70452,504-863-5412
Fortner Trucking,172 Shady Acres,Winnfield,LA,71483,318-332-1389
Winco Trucking Co,3625 Roy Road,Shreveport,LA,71107,318-929-2600
Reggie's Hauling,42478 N Thibodeaux Rd,Ponchatoula,LA,70454,504-542-0115
Circle G Trucking,9923 Hwy 4,Winnsboro,LA,71295,318-723-9904
Dewey & Sons Trucking,1313 Enterprise Rd,Alexandria,LA,71303,318-445-5591
Cody's Hot Shot Service LLC,4425 Sherwood Commons,Baton Rouge,LA,70816,225-754-7774
"T & C Auto Wholesalers, Inc.",9337 Highland Gardens Rd,Baton Rouge,LA,70811,504-924-1762
John Robbie Conville Trucking,Hwy 84 East,Tullos,LA,71479,318-534-6554
"Shabak Transport Services, Inc.",5151 West Grove Pk,New Orleans,LA,70131,504-393-0183
Classen Trucking,175 Decker Rd,Deridder,LA,70634,318-463-3378
James Morgan Trucking,26097 Shadow Brook Ave,Denham Springs,LA,70726,225-665-1420
E J's Trucking,2271 8th St,Lake Arthur,LA,70549,318-774-5501
Jay-dee Transport,917 Inez St,New Iberia,LA,70560,318-365-0596
Rising Sons Trucking,9012 Nelson Street,New Orleans,LA,70118,504-861-8239
Ole Time Express,1077 Hwy 80 East,Monroe,LA,71203,318-345-0211
Ta's Trucking,1316 West Esplanade,Kenner,LA,70065,N/A
Manuel Trucking,103 Ray Lane,Church Point,LA,70525,318-942-4821
Jonathan T Baines,1180 Arncliff Dr,Chesapeake,LA,71107,318-230-5397
Martins Dozer Service,75551 N Hayes Road,Kentwood,LA,70444,504-229-1904
Randall Trucking,Po Box 53 Hwy 107,Morrow,LA,71356,318-346-7503
Jackson Trucking,502 6th N E Street,Springhill,LA,71075,318-539-2338
Kan-do Trucking Co,2905 Deer Creek Drive,Violet,LA,70092,504-297-0305
Laforest Refrig Trucks & Seafood,3848 Deerrun Lane,Harvey,LA,70058,504-347-8955
Heath Doles Trucking,10012 Whispering Pine,Bastrop,LA,71220,318-281-5727
Courier Plus,13059 North Airline Hwy,Gonzales,LA,70737,504-644-0694
C & O Trucking,2767 Hwy 5491,Marion,LA,71260,318-778-4389
Tommy P Guidry,127 West 84th Street,Cut Off,LA,70345,504-632-6207
B & D Transportation,289 Sisson Rd,Natchitoches,LA,71457,318-354-8786
Dunn's Transportation,3126 Washington Ave,Baton Rouge,LA,70802,504-343-9185
Mitchell Trucking,757 Hwy 906,Monterey,LA,71354,318-757-9312
Alvin R James Trucking,2118 Elder St,Lake Charles,LA,70601,318-436-6955
Quality Wood Express,Rt 2 Box 217-a,Coushatta,LA,71019,318-932-3652
Jones Wrecker Service,6615 St Vincent Ave,Shreveport,LA,71106,318-869-2521
"Goodmoney Special Driver Services, Inc.",4936 Avron Blvd,Metairie,LA,70006,504-456-3424
Chandler Trucking,607 Gayle,Plain Dealing,LA,71064,318-326-5814
K & M Trucking,1504 Hwy 453,Marksville,LA,71351,318-253-5623
K And R Trucking,Kentwood Springwater Apt 1,Kentwood,LA,70444,504-229-3519
Gill & Sons Trucking,70317 Milburn Grace Rd,Kentwood,LA,70444,504-229-2239
Smith Trucking,65495 Hwy 1054,Kentwood,LA,70444,N/A
Zzt Trucking,508 Louisiana St,Kaplan,LA,70548,318-643-6883
J C Penny Trucking,19995 West Front St,Rodessa,LA,71069,318-223-4289
Strickland Trucking,7180 South River Rd Lot 40,Addis,LA,70710,225-749-8910
Linton J Estilette Trucking,1043 Napoleon Ave Lot # 4,Sunset,LA,70584,318-662-6659
D L P Livestock,642 Elsie Dr,Princeton,LA,71067,318-949-0069
Flying W Trucking,213-b South Stanley Ave Ste A,Monroe,LA,71201,318-325-1883
Higher Dimension Transportation,Po Box 640,Kenner,LA,70064,N/A
Marjack Transport Services,2535 Riverside Drive,Port Allen,LA,70767,N/A
Express Marine Transportation,2801 Athania Parkway,Metairie,LA,70002,504-828-9839
Ducre Trucking,60239 Fenner Rd,Slidell,LA,70460,504-643-7765
Stoker Trucking,6613 Hwy 6,Natchitoches,LA,71457,318-357-8509
Ducote Trucking,1399 Hwy 29 East,Bunkie,LA,71322,318-346-9962
A & A Trucking,131 Wisdom Rd Rd,Opelousas,LA,70570,337-543-2050
Elite Auto Transport,1513 Gentilly Dr,Shreveport,LA,71105,318-798-2778
Cunningham Trucking Co,4261 Blount Rd,Baton Rouge,LA,70807,504-774-3668
B Bar S Express,1938 Highway 493,Natchitoches,LA,71457,318-352-3217
"Autoshowplace, Inc.",211 Sterlington Rd,Monroe,LA,71203,318-325-6080
Double B Trucking,10685 Highway 77,Maringouin,LA,70757,504-625-2581
"Taag Transport, Inc.",7112 Jeannette Ln,Shreveport,LA,71107,318-929-3802
Iti,12538 Scenic Hwy,Baton Rouge,LA,70807,501-474-5291
Ganey's Wrecker Service,1099 Fourth St Hwy 84,Jonesville,LA,71343,318-339-7994
Bv Express,4374 Lemonwood Ct,Baton Rouge,LA,70805,225-336-0474
Kosa Trucking,7032 Division St,Merryville,LA,70653,318-825-1097
L T Transportation,259 Riverlands Dr,Laplace,LA,70068,985-651-7404
J & R Hauling,7081 Kinnon Ln,Ethel,LA,70730,504-703-1107
Lawrence Trucking,714 Georgia Ave,Ferryday,LA,71334,318-757-6461
Cotten Trucking,Hc 76 Box 621,Olla,LA,71465,318-992-6059
Gmc Distribution Services,706 East 1st St,Belle Chasse,LA,70037,504-392-1939
Cypress Pointe Trucking,P O Box 252,Oak Ridge,LA,71264,031-824-4500
M & F Trucking,1733 Sloan Road,Mansfield,LA,71052,318-461-8960
Richard A Burns Tree Removal Service,81480 Lucas Lane,Bush,LA,70431,504-886-3106
Jackson's Grease Trap Service,2350 Crestview St,Kenner,LA,70062,504-466-5995
Roberts Trucking,17821 Hwy 432,Clinton,LA,70722,504-683-8340
M&s Trucking Company,520 Lomax Street,Shreveport,LA,71104,318-424-4814
Joe Jenkins Contract Hauling,39528 Ridgeu Rd,Ponchatoula,LA,70454,504-386-9992
"Blue Eagle Trucking, Inc.",109 A Coulee Dr,Lafayette,LA,70508,318-237-2714
Paul Gaspard Trucking,3796 Hwy 1,Marksville,LA,71351,318-253-5295
H A L Trucking,8698 Hwy 165s,Woodworth,LA,71485,318-473-8161
Ford Wallace Trucking,242 Union Church Rd,Winnsboro,LA,71295,318-722-6397
Old School Trucking,616 West Pointe Drive,Church Point,LA,70525,318-501-1549
D & E Trucking,1512 Louisiana Ave Apt 410,Lafayette,LA,70501,318-235-5850
Brewton Cattle Transport,234 J Vines Road,Winfield,LA,71483,318-628-3036
Bjjs Trucking,1709 W Dejean Street,Washington,LA,70589,318-826-3638
Dla Trucking,19728 Hwy 441,Kentwood,LA,70444,504-229-1973
Gordon's Asphalt Service,147 Vance Lane,Tioga,LA,71477,888-726-7073
L & L Mobile Home Movers,115 Daniel St,Pierre Part,LA,70339,N/A
T & B Transportation,82489 Jenkins Cemetery Road,Bush,LA,70431,504-886-8941
J W Melder Trucking,Hc 76 Box 94,Aimwell,LA,71401,318-992-6763
J & A Chatagnier Trucking,1902 Maxie Hwy,Iota,LA,70543,N/A
Morris Arnold Trucking,522 Hwy 177,Pelican,LA,71063,318-932-8813
Cash Trucking,Woodland Drive 254,Simsboro,LA,71275,318-247-8470
T & J Trucking,G & G Ranch Rd,Columbia,LA,71418,318-649-0059
David Rhymes Trucking,77 Fred Redwine Rd,Deville,LA,71328,318-466-3593
Floyd Core Timber Service,81234 Talmadge Core Rd,Folsom,LA,70437,504-796-5627
Tom Hutson Trucking,6589 Hwy 79,Homer,LA,71040,318-245-5052
Jay's Trucking,27583 Hwy 430,Franklinton,LA,70438,985-795-3326
L D M Trucking,3805 Harverster Dr,Monroe,LA,71203,318-388-4230
Maywether Trucking Co,2741 Phelps Road,Shreveport,LA,71107,318-208-6996
Jackson Trucking,308 Gatley St,West Monroe,LA,71292,318-388-4065
John W Vidrine Trucking,169 Robert E Lee Dr,Merryville,LA,70653,318-825-6960
Red River Mover's,326 Teague Dr,Elm Grove,LA,71051,318-987-2212
Shane Lord Trucking,Rt 1 Box 189a,Homer,LA,71040,318-927-6229
Chastard Truck Lines,Rt 2 Box 186,Greensburg,LA,70441,504-222-4280
E L Hartford Trucking,15345 Gayden Road,Lettsworth,LA,70753,504-492-3672
Kenneth Spillman Trucking,5225 Quitman Hwy,Hodge,LA,71247,318-259-2506
Jolley Trucking,5525 Trevor Ct,Shreveport,LA,71129,318-687-6278
Muckelrath Trucking,118 Muckelrath Rd,Winnsboro,LA,71295,318-435-4713
"Dixie Auto Glass Co, Inc.",637 W Landry St,Opelousas,LA,70570,318-942-6536
Dane Guidry Trucking,1067 Anse Broussard Hwy,Cecilia,LA,70521,318-667-6280
M & L Trucking,72466 Hunt Road,Kentwood,LA,70444,504-229-2343
Kajun Trey Service LLC,42116 Dunson Rd,Ponchatoula,LA,70454,504-386-9216
Sambo's Mobile Home Mover,12258 Mansfield Rd,Keithville,LA,71047,318-925-0216
Davidson Trucking,66442 Davidson Rd,Kentwood,LA,70444,504-748-4818
Vic's Trucking,19515 Harrison Ave,Covington,LA,70433,504-871-7467
A & M Mobile Home Movers,110 Canal Street,Amite,LA,70422,504-748-8182
Affiliated North American,414 Airport Drive,Shreveport,LA,71107,318-222-0305
Williamson Trucking,2909 Robinson Drive,Winnsboro,LA,71295,318-435-7143
Ray Simons Wood Hauling,Rt 2 Box 133,Kelly,LA,71441,318-649-7474
A & A Trucking Co,801 North 13th,Port Allen,LA,70767,225-383-0164
Gregory T Woodley,2819 Hwy 346,Pelican,LA,71063,318-871-8736
Keith Bates Trucking,1746 Foster Arbor Rd,Castor,LA,71016,318-544-8657
Tin Buck Two Trucking,500 Jessica Drive,Springhill,LA,71075,318-539-2601
Logan Disposal Trucking,1600 Logan Dr,Haynesville,LA,71038,318-624-2099
Laborde Express,8420 N Lakeshore Dr,Shreveport,LA,71107,318-929-3078
Vanguard Geo,15950 Ramah Rd,Maringouin,LA,70757,504-648-3058
Mud-bug Trucking,1178 Us Hwy 167n,Ville Platte,LA,70586,318-363-0432
Carroll's Truck Service,63091 Hwy 10,Bogalusa,LA,70427,504-735-8207
Boaam,100 Intermodal Dr,Chalmette,LA,70043,504-279-8544
8 M Transportation,180 Herman Smith,Deridder,LA,70634,318-462-2654
Noel Trucking,9684 La Highway 699,Maurice,LA,70555,337-893-1978
"Down Under Trucking, Inc.",187 Ray S Park Road #25,Leesville,LA,71446,318-537-1232
Steve Clemons Trucking,111 Oakwood,West Monroe,LA,71291,318-396-8942
Roy D Lea Trucking,63040 Shelby Mixon Road,Amite,LA,70422,985-748-8931
Randy Brister Used Cars & Trucks,16525 Jefferson Hwy ,Baton Rouge,LA,70817,225-272-2444
Frank Reese Wrecker Service,400 Lees Lane,Leesville,LA,71446,337-238-0451
Doucet Transport Service,307 N Corso Street,Washington,LA,70589,337-826-6088
Mvp Hot Shots,325 Eisenhower St,St Rose,LA,70087,504-441-8393
Jasmine Trucking,26600 Hwy 405 Lot D 5,Plaquemine,LA,70764,504-687-7124
T & T Trucking,4661 Viola Street,New Orleans,LA,70126,504-247-3032
La Fresh Express,18120 Old Covington Hwy Ste B,Hammond,LA,70403,504-542-1256
Rifle Transport,308 Main Street,Dubach,LA,71235,318-680-9409
R L Reid Trucking,1343 Frazier Road Lot 7,Ruston,LA,71270,318-777-8184
James Moss Trucking,1063 David Road,St Martinville,LA,70582,337-394-5411
T & S Trucking,860 Bobby Teasley Rd,Many,LA,71449,318-256-6719
K & C Trucking,2316 Providence Road,Leesville,LA,71446,318-463-8343
Dixie Side Trucking,76074 Lazy R Road #4,Covington,LA,70433,504-892-5451
J & W Trucking,918 Gassen St,Luling,LA,70070,504-382-2936
La Rock Trucking,610 L A H W Y 1240,Montgomery,LA,71454,318-646-9114
Faith Trucking,101 Acadia St,Iota,LA,70543,337-779-3318
Dal Mar Trucking,P O Box 733,Blanchard,LA,71009,N/A
Lirette's Wrecker Service,254 West Main,Thibodaux,LA,70301,504-447-7994
Strahan Trucking,1219 Strahan Rd,Marthaville,LA,71450,318-590-1439
Todd Henry Trucking,Po Box 340,Mermentau,LA,70556,318-783-2539
Triangle Transports,31755 Hwy 25,Franklinton,LA,70438,504-839-7987
Glorioso Trucking,1089 Bennie Derrough Rd,Deridder,LA,70634,318-462-6191
Burch Trucking,6675 Hwy 90 E Lot 145,Lake Charles,LA,70615,318-433-6171
Bradley Trucking,2165 Chataignier Rd,Ville Platte,LA,70586,337-506-3790
Evans Trucking,1408 East Georgia,Ruston,LA,71270,318-251-1586
Charles E Norred Trucking,429 Harrison St,Jonesboro,LA,71251,318-259-2047
T & D Trucking Company,27307 Max Edwards Rd,Ponchatoula,LA,70454,504-845-4020
Ron Quinn Trucking,18170 Woodscale Road,Hammond,LA,70401,504-542-1817
K & C Trucking,1821 Hwy 117,Provencal,LA,71468,318-472-9722
H C Mckay Trucking,522 Woodside Drive,Houma,LA,70363,504-876-3589
"Dealer's 24 Hr Wrecker Service, Inc.",6675 Airline Hwy,Baton Rouge,LA,70805,504-357-7445
Ridgell Trucking,4347 Hanna Rd,Ruston,LA,71270,318-247-0455
Granger Cattle Co,1234 Sonny Granger Road,Dequincy,LA,70633,337-786-2701
Mccormick Transport,72452 Rose Street,Covington,LA,70434,504-893-2853
Timber Transport,P O Box 1328,Sterlington,LA,71280,318-345-2561
Greg Clark Trucking,Rt 1 Box 252 A,Haynesville,LA,71038,318-624-0321
Martin Freightline Company,P O Box 84051,Baton Rouge,LA,70884,504-929-9961
Jlj Trucking Co,2211 Cypress Acres Dr,New Orleans,LA,70114,504-368-4453
B J Arceneaux Trucking,Hwy 605,Saint Joseph,LA,71366,318-766-9257
B R T I,2632 Tom Dr,Slaughter,LA,70777,225-654-3861
Piedmont Motor Carriers,5007 Flournoy Lucas Road,Shreveport,LA,71129,318-686-5662
Miley Mobile Home Movers,26075 Seven Mile Road,Angie,LA,70426,504-848-9258
A King Trucking,52081 Shady Lane,Independence,LA,70443,985-878-6168
M & R Express,216 Riser Rd,Monroe,LA,71202,318-398-0860
A-1 Trucking,25421 Highway 16,Amite,LA,70422,504-747-8163
Story's Automotive Repair,20985 Plank Road,Zachary,LA,70791,504-658-4808
Showtime Transporattion,4210 Barbara Avenue,Shreveport,LA,71109,318-635-0102
J & B Trucking,776 Bilbo St,Deridder,LA,70634,318-463-6037
Rodney L Hoyt Trucking,25190 Denver St,Denham Springs,LA,70726,504-665-8729
"Hangin H Trucking & Cattle, Inc.",9490 Litteral Rd,Jennings,LA,70546,318-734-2023
S & M Trucking,Rt 2 Box 36,Greensburg,LA,70441,504-222-4019
John E Lewis Trucking,1087 Bofeman Loop,Belmont,LA,71406,318-256-9448
Rw Trucking,6422 Diamond Heat Drive,Monroe,LA,71203,318-343-9852
Burris Trucking Co,8580 Hwy 165 South,Pollock,LA,71467,318-765-3085
Rod's Trucking,448 Virgil Sims Rd,Deridder,LA,70634,337-375-8001
Diamond A Trucking,1062 Jeffrey Broward Rd,Breaux Bridge,LA,70517,337-298-7371
Prine's Mobile Home Service,6014 New Natchitoches Rd,West Monroe,LA,71292,318-397-5407
Scotty Leblanc Trucking,736 Vicksburg Rd,Rayne,LA,70578,337-886-8972
Jim Shirley Trucking,324 Mayo Rd,Trout,LA,71371,318-992-2189
Cc Trucking,10876 Ferry Lake Rd,Oil City,LA,71061,318-995-7358
Cottonport Carriers,896 Avant Road,West Monroe,LA,71291,318-397-4202
Go Getter Trucking,1705 Fulton,Shreveport,LA,71103,318-636-6476
Woodhaven Trucking LLC,46367 Durbin Rd,Albany,LA,70711,504-567-9809
B & S Trucking,Rt 1 Box 249a,Sicily Island,LA,71368,318-389-4284
C & G Trucking Company,1005 Golden Grain Road,Rayne,LA,70578,318-873-3619
Msa Charter Bus Service,1968 Carol St,Rosepine,LA,70659,318-463-8394
Sck Trucking,3562 Hwy 44,Paulina,LA,70763,225-869-3128
Danny Brantley Trucking,206 Fancher Lane,Jonesville,LA,71343,318-386-2053
Pope Trucking,3570 Hwy 484,Natchez,LA,71456,318-379-0964
Brunet Transport,100 Rhodes Ave,New Orleans,LA,70131,504-392-3822
J & S Trucking Service,3101 Perdido St,New Orleans,LA,70119,504-821-4787
R & F Trucking,P O Box 666,Olla,LA,71465,318-495-3719
Spillers Trucking,17193 Hwy 1054,Kentwood,LA,70444,504-229-3017
T & S Trucking,273 Weathy Lane,Noble,LA,71462,318-645-9299
Jim Wafer Trucking,164 Oak St,Castor,LA,71016,318-544-9061
Granger Trucking,20132 Dama Landry Rd,Jennings,LA,70546,318-824-7249
Mccan Transport,116 B Mccan Rd,Pineville,LA,71360,318-473-4558
Blaze Dls,11800 Industriplex Suitr 3,Baton Rouge,LA,70809,225-755-3786
L & L Trucking,131 Richardson Rd,Pelican,LA,71063,318-755-2291
C & T Trucking,37 Big Foot Rd,Greensburg,LA,70441,225-222-4262
B L & C Trucking,509 Redwing Lane,Oak Grove,LA,71263,318-428-7983
Bayou Hot Shot Services,5801 Walnut Creek Rd #c 124,River Ridge,LA,70123,504-733-7394
Bailey Trucking,196 Ie Stracner Rd,Rosepine,LA,70659,318-462-5960
E & M Pilot Car Hot Shot,357 Keller Road,Longville,LA,70652,318-725-6991
M & H Trucking,515 Church Street,Lake Charles,LA,70601,318-497-1627
Otis Logging & Trucking,16929 Pride Baywood Road,Pride,LA,70770,225-654-0121
J T C Trucking,467 Wells Rd,West Monroe,LA,71292,N/A
H & A Sons Truck Service,34 Lucille St,Waggaman,LA,70094,509-431-3449
Reliable Express,176 Kennedy St,Ama,LA,70031,504-471-0434
Warren Trucking,Po Box 804,Franklinton,LA,70438,504-730-1201
Triple A Express,4585 Gilead Road,Clinton,LA,70722,225-408-9715
Lacota Trucking Company,Route 3 Box 25,Greensburg,LA,70441,225-222-3821
Mandeville Auto Sales,1325 North Highway 190,Covington,LA,70433,504-871-0031
All States Transport,2019 Shadywood Lane,Shreveport,LA,71105,318-393-4790
Crain Trucking,29573 Sidney Kemp Road,Franklinton,LA,70438,504-848-5389
Circle J Transport,470 Richardson Rd,Stonewall,LA,71078,318-925-4061
Austin Trucking,4918 Churchman Road,Pitkin,LA,70656,318-328-7623
L D Carr Co Auto Sales,419 North 18th Street,Monroe,LA,71201,318-325-2229
Wilbert Thevis Jr Trucking,118 R And R Lane,Rayne,LA,70578,318-785-9255
Double D Trucking,Po Box 261,Kentwood,LA,70444,504-229-4739
George Ross Trucking,135 Ford Lane,Olla,LA,71465,318-992-8351
J & B Trucking,19515 Sylvest Road,Franklinton,LA,70438,504-839-9149
Rwt Trucking,15462 Henderson Bayou Road,Prairieville,LA,70769,225-622-5851
Sullivan Trucking,Po Box 297,Delta,LA,71233,318-633-9796
"Total Tower Service, Inc.",3001 Mills Street,Lafayette,LA,70507,318-896-1344
R & R Transport,626 Ricks Place,New Orleans,LA,70114,504-304-1650
J L B Trucking,1232 Schultz Rd,Iota,LA,70543,318-779-3376
Chayco Trucking,280 Chickamauga Drive,Zwolle,LA,71486,318-645-7918
W W Trucking,206 Alvie Williams Road,Singer,LA,70660,337-786-5671
C B D Trucking,276 Cottonwood Drive,Gretna,LA,70056,504-393-1303
Jil Transport,217 Thibodeaux St,Lawtell,LA,70550,318-543-8206
Ray's Backhoe Service,15455 Plank Rd,Baker,LA,70714,225-774-7341
"Car Brokers Transport, Inc.",12554 Embner Abshire Road,Maurice,LA,70555,337-893-7585
J Moran Trucking,156 Mims Road,Robeline,LA,71469,318-472-9285
Taylor Transports,816 Cemetery Road,Saint Martinville,LA,70582,337-380-0318
Glynn Shivers Backhoe Service,299 Shivers Road,Jonesville,LA,71343,318-339-7763
Johnese Trucking,2333 Martin Avenue,Baton Rouge,LA,70802,504-356-6341
Greg Frees Trucking,1096 Leonce Lane,St Landry,LA,70585,318-461-2578
Custom Auto Transport,1614 Oil Field Road,Coushatta,LA,71019,318-544-2534
Monceaux Trucking,1001 E Dale Street Apt 603,New Iberia,LA,70560,337-367-2789
L F S,1948 Yorktowne Dr,La Place,LA,70068,504-653-8400
Mns Trucking,140 Sally Rd,Morse,LA,70559,337-581-0549
N L Monk Hauling,502 Pine Street,Elizabeth,LA,70638,318-634-5149
Alternative Transportation Used Cars,4500 Cypress St,West Monroe,LA,71291,318-396-1637
Billy Tatum Trucking,Po Box 643,Olla,LA,71465,318-495-5051
Cook Trucking,103 Duke Street,Harrisonburg,LA,71340,318-744-5500
Mikes Mini Express,45139 Edmond Brignac,Prairieville,LA,70769,225-622-5120
Ramsey Trucking,884 Taylor Road,Jonesboro,LA,71251,318-259-7858
Richey Trucking,1020 Barron Rd,Pollock,LA,71467,318-765-2436
Manuel Trucking,612 4th Street,Oberlin,LA,70655,318-639-6050
R & S Trucking,3781 Hwy 582,Forest,LA,71242,318-428-9337
Marcotte Trucking,300 North Sewell,Bunkie,LA,71322,318-346-2846
Tangi Trucking,18232 Crawford Road,Kentwood,LA,70444,504-229-8137
Willis Trucking Co,73 Hopewell Road,Pitkin,LA,70656,318-634-7316
Eagle Auto Sales & Transport,39297 Sable Ln,Ponchatoula,LA,70454,504-481-2407
Hutto's Trucking,603 Radio Station Road,Mansfield,LA,71052,N/A
T H Harr Trucking,9909 Mooringsport-latex Rd,Mooringsport,LA,71060,318-996-7048
Palmer Wrecker Service,39485 La Hwy 74,Gonzales,LA,70737,225-644-2827
G P Trucking,2650 East River Rd,Oakdale,LA,71463,318-748-7667
Boggs Trucking,501 Avenue A,Marrero,LA,70072,504-341-3828
B & B Fire And Safety Services,920 W Pinhook Rd Ste 202,Lafayette,LA,70503,318-233-1333
Wood Production Services,1222 Penton Rd,Dequincy,LA,70633,318-786-4007
Hebert Trucking,8283 Hwy 190 East,Ragley,LA,70657,337-302-2960
Vinson Trucking,Circle Dr,Newellton,LA,71357,318-766-4347
Tracker Trucking,Po Box 85,Greenwell Springs,LA,70739,225-262-7497
Rocking Mc Trucking,1030 Horseshoe Dr,Elizabeth,LA,70638,318-634-5971
J & M Trucking,20830 East Lewiston,Kentwood,LA,70444,504-229-5577
Price Trucking,1875 Rock Rd,Sicily Island,LA,71368,318-389-8986
Affordable Movers,150 Cypress Cove,Youngsville,LA,70592,318-264-6422
James Gunter Trucking,110 Barnes Crossing Rd,Tallulah,LA,71282,318-574-4389
Singleton Trucking,21067 Hwy 1057,Kentwood,LA,70444,504-229-8800
River Run Express,105 Elmsley Dr,West Monroe,LA,71294,318-614-9373
Billy Grant Trucking,Rte 3 Box 128-l,Coushatta,LA,71019,318-932-7153
T R Trucking,5018 Burnaman St,Alexandria,LA,71302,318-445-8439
Bunch Trucking,6857 Joe Daniel Road,St Francisville,LA,70775,225-635-0272
C & R Trucking,16441 S Harrells Ferry Rd#4101,Baton Rouge,LA,70816,225-752-6907
Bad Company Trucking,P O Box 145,Forest Hill,LA,71430,318-748-4245
K T M Trucking,13236 S Choctau Road,Bogalusa,LA,70427,504-730-4496
Tomlinson Trucking,Po Box 207,Kelly,LA,71441,318-649-8863
Sam's Trucking,601 Pershing Hwy Apt 9,Bunkie,LA,71322,318-346-9356
Tmw Trucking,1114 Melvin Dupuis Road,Breaux Bridge,LA,70517,337-442-6780
B J Patton Trucking,188 Cypress Lane,Farmerville,LA,71241,318-368-7241
B A T Trucking,1305 Louisiana Street,Tallulah,LA,71282,318-574-6864
Twin Trucking,208 Carl Dick Rd,Atlanta,LA,71404,318-628-3334
Lewis Trucking,245 Woodland Drive,Simboro,LA,71275,318-247-0927
Texas Hot Shot Co,200 Corporate Blvd Suite 104,Lafayette,LA,70508,337-291-6875
Standard Fittings Co,319 Gradnigo Rd,Opelousas,LA,70570,318-948-3671
Moore Trucking,Parish Rd I-26d,Jennings,LA,70546,337-368-6955
Conco Food Service,2450 Severn Ave #301,Metairie,LA,70001,504-834-4082
Colonial Trucking,204 Rose St,Winnsboro,LA,71295,N/A
C & L Supply Co,1035 E Napoleon St,Sulphur,LA,70663,318-527-7012
Shane Hyde,2423 Coldwater Road,Winnfield,LA,71483,318-413-0774
La Fish Farm Trucking,715 Pete Haring Road,Wisner,LA,71378,318-724-6133
Lott Mobile Home Movers,Hcr 69,Provencal,LA,71468,318-352-9506
Gats Masonry,670 Saint George Ave,Jefferson,LA,70121,504-734-0456
Nacirema Ex Import,1231 Cook St,Gretna,LA,70053,504-208-9479
Jcd Trucking Co,1252 Bayou D'arbonne,West Monroe,LA,71291,318-396-1831
Dsi Transport,2343 Magnolia Ch Rd,Ragley,LA,70657,800-669-8374
"Wells Trucking, Inc.",18063 Mendoza Heights,Ponchatoula,LA,70454,985-386-5538
Smith Trucking & Sons,2300 Nolan Trace,Leesville,LA,71446,337-392-2607
America Sign Maintenance,5677 Aries Street,Hahnville,LA,70057,985-783-2626
C & J Trucking Co,P O Box 750,Blanchard,LA,71009,318-929-2496
Bernards Seafood Co Ltd,5104 Fourth St,Marrero,LA,70072,504-341-9911
Texas Louisiana Cartage LLC,3761 Louisa St,New Orleans,LA,70126,504-944-0355
Rosier Trucking,Rt 2 Box 255,Deville,LA,71328,318-466-3383
Marvin Bennett Trucking & Truck Repair,20860 Lee Road,Franklinton,LA,70438,985-848-5155
Industrial Metals Of The South,401 N Roman St,New Orleans,LA,70112,504-586-9191
Shelly C Holland Trucking,222 State Line Rd,Kentwood,LA,70444,601-542-5914
Pete S Truck & Tractor Service,1202 Cherry St,Minden,LA,71055,318-377-6613
Hodges Trucking,Route 3 Box 149,Tallulah,LA,71282,318-574-1715
Burgess Trucking,400 Marietta Place,Gray,LA,70359,504-879-2833
J & S Trucking,Us Highway 80,Tallulah,LA,71282,318-574-5110
Sugarbear Trucking,276 Clarence Doyle Road,Pitkin,LA,70656,318-634-5266
J & J Trucking,Rt 4 Box 474,Opelousas,LA,70570,318-942-2769
Mouton Trucking,Rt 2 Box 330,Sunset,LA,70584,318-662-7191
"Burris-johnson Trucking, Inc.",1402 Harrison St,Franklinton,LA,70438,504-839-9705
Anderson Trucking,287 Anderson Rd,Quitman,LA,71268,318-259-9617
Shreve Auto Sales,8402 Mansfield Rd,Shreveport,LA,71108,318-687-3600
P & P Farm Trucking,P O Box 195,Tangipahoa,LA,70465,504-229-2153
628 Corporation,4535 Choctaw,Baton Rouge,LA,70805,504-356-6681
I & D Trucking,Rt 3 Box 407,Arnaudville,LA,70512,318-754-7587
E L Andrus Trucking,Rt 5 Box 558-b,Opelousas,LA,70570,318-948-1683
C & S Trucking,911 Third St,Kentwood,LA,70444,504-229-8663
Fay Trucking,P O Box 12,Libuse,LA,71348,318-443-3895
Sibley Trucking,P O Box 1042,Covington,LA,70434,504-892-7354
"Stajon Truck Lines, Inc.",P O Box 78,Shongaloo,LA,71072,501-859-2957
"B & D Consulting Services, Inc.",Rt 1 Box 180,Saint Landry,LA,71367,318-838-2458
"English Trucking, Inc.",Rt 4 Box 25-a,Keithville,LA,71047,318-925-8822
A-1 Mobile Home Service,Hwy 10 3 1/2 East Of Arcola,Amite,LA,70422,504-748-9461
Clifford D Holland Trucking,17184 Valley Rd,Kentwood,LA,70444,985-229-4260
Mccorkle Trucking Service,2049 Rue Racine,Marrero,LA,70072,N/A
"Fornea & Sons Trucking, Inc.",63329 Fornea Road,Angie,LA,70426,985-735-1893
"Seab Trucking, Inc.",7516 Cypress,West Monroe,LA,71294,318-396-9869
"Jmg Trucking, Inc.",Rt 3 Box 10,Tallulah,LA,71282,318-574-2380
C & B Enterprises,3002 George Soileau Road,Basile,LA,70515,337-432-5761
Mercer Trucking,7285 Highway 126 West,Grayson,LA,71435,318-649-5957
P & H Bus Service,900 East Krueger Lane,Westwego,LA,70094,504-436-0585
"Division Of Daily International, Inc.",223 S Hollywood Rd,Houma,LA,70360,504-868-9875
Moore S Backhoe Service,Hc 63 Box 401,Many,LA,71449,318-586-3814
Gill's Trucking,77556 Highway 1054,Kentwood,LA,70444,985-229-2600
Wellman Trucking,Gen Del Hwy 121,Lacamp,LA,71444,318-238-0546
"Monceaux Dump Truck Service, Inc.",Rt 2 Box 720,Iowa,LA,70647,318-582-6707
Moore Trucking Co,P O Box 69,Winnfield,LA,71483,N/A
P & S Trucking,Rt 5 Box 293,Deridder,LA,70634,318-462-1113
M & K Trucking,81440 Hwy 41,Bush,LA,70431,504-886-3562
Aa Trucking Co,433 W Mary Lee Street,Plain Dealing,LA,71064,318-326-5484
D Barbee Trucking,P O Box 910,Logansport,LA,71049,318-697-5611
Divinity Trucking,1521 Esther Street,Harvey,LA,70058,504-367-7275
All American Trucking,Rt 2 Box 350 Hickory Grove,Deville,LA,71328,N/A
L & R Express,300 Pine Grove Circle,West Monroe,LA,71291,318-397-2738
Jackson Bread Distribution,9130 Sunny Oak Dr,Shreveport,LA,71106,318-540-6442
Qik Serve Auto Service,9351 Mansfield,Shreveport,LA,71118,318-868-4616
Tnt Trucking Co,24296 Loblolly Ln,Denham Spgs,LA,70726,504-664-9514
Houston Trk,131 Pink Street,West Monroe,LA,71292,318-340-0026
Bnb Trucking,44 Bobby Maricle Rd,Oakdale,LA,71463,318-634-5974
Caddo Paper Warehouse,465 Hamilton Road,Bossier City,LA,71111,318-741-5770
Donny Owens Trucking Co,801 S Arkansas St Ste 13,Springhill,LA,71075,318-539-9834
Sanders Trucking,766 Danny St,Slidell,LA,70459,504-643-3011
Ram Transportation,1903 Deslonde St,New Orleans,LA,70117,504-368-8264
Hoover Trucking,Shiloh Baptist Church Road,Pine Grove,LA,70453,504-777-4760
"Accent Service, Inc.",2645 Tulip St,Bossier City,LA,71112,N/A
Arrow Mobile Home Movers,217 L Roshong Road,Leesville,LA,71446,337-239-0528
Texlaco International,200 Mckeithen Dr,Alexandria,LA,71303,318-442-4034
D & T Trucking,Rr 1 Box 195,Opelousas,LA,70570,318-942-7909
Dj Bell Trucking,305 Unkel Camp Rd,Kinder,LA,70648,337-738-5891
L & J Trucking,P O Box 248,Calhoun,LA,71225,318-644-5494
R & T Trucking,102 Edwards Dr,Vivian,LA,71082,318-375-5520
Phillips Mail Service,62125 Laudze Road,Bogalusa,LA,70427,205-422-9022
J R Mackey Trucking,4234 Amerest Avenue,Baker,LA,70714,N/A
Venture,200 Corporate Blvd Ste 104,Lafayette,LA,70508,337-291-6700
Transoceans Marine,2726 Royal St,New Orleans,LA,70117,504-949-0144
Larry Bratton Trucking,Rr 1 Box 77,Grayson,LA,71435,318-649-5659
V & W Trucking,Rt 1 Box 173-1,Atlanta,LA,71404,318-646-3274
Ram Express,5997 Vancouver Drive,Shreveport,LA,71107,N/A
Drive Fast Live Young,2720 Frenchman St,New Orleans,LA,70119,504-319-5831
Southland Truck Center,411 W Railroad Ave,Church Point,LA,70525,337-684-6127
Adams Freight Service,4344 Holloway Road,Port Allen,LA,70767,504-383-3849
Anderson Transport Company,124 Atlantic Ave,Shreveport,LA,71105,N/A
Southern Best,5170 Hwy 167 N,Ruston,LA,71270,318-251-9318
T&c Trucking,Rt 2 Box 317,Saint Joseph,LA,71366,318-766-4236
Global Ship Services,555 South Galvez Street,New Orleans,LA,70119,504-522-7627
I E Guest Trucking,P O Box 188,Castor,LA,71016,318-544-8479
Landlock Trucking,1814 Esperanza Rd,Coushatta,LA,71019,318-352-9384
Valve Manufacturing,10020 Mammoth Ave,Baton Rouge,LA,70814,225-928-4457
448 Trucking,P O Box 581 River Rd,Greensburg,LA,70441,504-222-6927
Oak View Drier Trucking,126 Butterfly Rd,Morse,LA,70559,318-788-0067
Jefron Air Express,4134 Curtis Lane,Shreveport,LA,71109,318-632-9118
C & L Trucking,Rt 4 Box 273,New Iberia,LA,70560,N/A
Vjs Trucking,36096 Race Horse Rd,Pearl River,LA,70452,504-863-9950
Michael Hebert Furniture Distributors,1004 S Clearview Pkwy,Harahan,LA,70123,504-733-6191
P F & S Trucking,30339 Hwy 43 N,Albany,LA,70711,504-567-2135
D J Dufrene Trucking,Hcr 61 Box 946,Des Allemands,LA,70030,318-726-4023
Triple C Trucking,Pace Road,Clinton,LA,70722,504-683-9319
"Transfer Services, Inc.",910 Melrose St,Pineville,LA,71360,318-443-4808
Buddy Rainey Trucking,601 W Oak,Amite,LA,70422,504-748-8052
Service Auto Air & Accessories,4433 Florida Blvd,Baton Rouge,LA,70806,504-383-9572
Moore's Auto Transport,2706 N Arizona St,Sulphur,LA,70663,N/A
Dennis Ballard Truck And Dozer,42478 South Billville Road,Hammond,LA,70403,517-507-0612
South Mgt Limit Partnership,2501 Perper Dido St,New Orleans,LA,70119,N/A
Tashon Cooper,204 Arpent St,Carencro,LA,70520,337-442-0639
Kevin Koonce Trucking,8299 Quitman Hwy,Quitman,LA,71268,318-259-6300
Moore Automotive,933 N Pine St,Vivian,LA,71082,318-375-2603
"Houma Oilfield Pump Service Co, Inc.",221 N Hollywood Road,Houma,LA,70361,504-876-3171
Ici,129 Ici Lane Highway 54,Garyville,LA,70051,985-535-3174
Delta Transportation,8967 Cottage Ave,Baton Rouge,LA,70806,504-927-2576
Sams Used Auto Parts,2501 Blackwell St,Lake Charles,LA,70601,318-433-4665
J & M Transportation,Rt 1 Box 310-spillway Rd,Farmerville,LA,71241,N/A
B & B Trucking,P O Box 170,Reddell,LA,70580,318-468-3536
H J B Express Moving Co,206 Edwards Ave,Harahan,LA,70123,504-736-9085
C & C Trucking,8001 Highway 10,Ethel,LA,70730,225-683-5856
Tutor's Express,121 Freestate,Shreveport,LA,71107,318-221-2764
The Hurst Corp,P O Box 77810,Baton Rouge,LA,70879,504-292-6004
"Kacey Transportation, Inc.",3307 Kabel Dr,New Orleans,LA,70131,504-392-9763
R N R Trucking,Charles King Road,Albany,LA,70711,504-567-2139
Thompson Sound Service,432 Mars Dr,Shreveport,LA,71222,318-353-6242
Nation Wide Mobile Home Movers,38015 Reinneger Rd,Denham Springs,LA,70726,N/A
Dauzat Transportation,Rt 2 Box 280,Marksville,LA,71351,318-253-4815
R G Seafood Co,117 W 84 St,Cut Off,LA,70345,504-632-3966
Rivere Trucking Co,5008 Hwy 1 Apt2,Napoleonville,LA,70390,504-369-2465
Kemo Trucking Co,12000 Bossom Lane,Maringouin,LA,70757,225-625-2674
J Roadrunner,P O Box 420,Sibley,LA,71023,318-377-7532
Weaveer Trucking,6 Petty Lane,Haughton,LA,71037,318-464-4619
Willie E Norris Jr Trucking Co,148 Raymond Cooper Dr,Ferriday,LA,71334,601-322-6620
Allen Cole Trucking,Rt 1 Box 574,Ragley,LA,70657,318-666-2652
Prudhomme Trucking,Rt 1 Box 1270,Mansfield,LA,71052,318-872-9930
Gdi,6963 Sullivan Rd,Greenwell Springs,LA,70739,N/A
Stevens Services,311 Thicket Rd,Sulphur,LA,70663,N/A
"Hartfield Technical Services, Inc.",206 Row One,Lafayette,LA,70508,318-235-4511
Durwood A Hughes Trucking,Rt 6 Box 66-1 Aa,Minden,LA,71055,N/A
E & N Trucking,412 Antonette,Lake Charles,LA,70601,318-439-2138
Shirver's Transportation,3333 I-10 West,Port Allen,LA,70767,N/A
Chris Dufrene Trucking,125 Dufrene Dr,Gheens,LA,70375,504-532-5033
"Elite Fleet, Inc.orporated",915 Mallard Bend,Bossier City,LA,71111,318-742-6763
Louisiana Cranes And Trucking,3966 Highway 15,Calhoun,LA,71225,N/A
"A E W Ii, Inc.",4400 Washington Ave,New Orleans,LA,70125,504-827-0368
Gas Service And Supply,3396 Swan Lake Road,Bossier City,LA,71111,318-742-5881
Bayou Transportation,Rt 1 Box 367-3 Loop Road,Farmerville,LA,71241,318-368-7719
P D Q Express,675 Wooddale #40,Baton Rouge,LA,70806,N/A
Hebert Trucking,66339 Hwy 1054,Kentwood,LA,70444,985-748-6005
B J Transport Co,Rt 2 Box 805,Welsh,LA,70591,N/A
Hauling Wood Chips,201 Martin & Lutes Road,Winnfield,LA,71483,318-628-4191
Gofsco,60 Highway 315,Houma,LA,70363,504-879-1551
P & H Trucking,Rr 1 Box 170a,Frierson,LA,71027,318-621-9012
Jack D Scott Trucking,137 Wesley Dr,Ruston,LA,71270,318-255-7224
T3 Energy Services,103 Venture Blvd,Houma,LA,70360,985-851-3160
"Mike Sutton Trucking, Inc.",Highway 4 West,Castor,LA,71016,318-544-8815
Frazier's Mobile Home Movers,4855 Airline Drive Apt-13-e,Bossier City,LA,71111,318-747-0710
T L Freeman Trucking,P O Box 202 Hwy 153,Castor,LA,71016,318-544-8421
Jackie E Rutherford Trucking,411 Hwy 1218,Noble,LA,71462,318-645-6729
Ken Smith Trucking,4776 Hwy 507,Jamestown,LA,71045,318-544-8685
Little O's Trucking,6 Academy Lane,Haughton,LA,71037,318-949-9626
Matheson Trucking,6840 Pine Pasture Rd,Bell City,LA,70630,337-598-4551
David Davis Trucking,801 Nw Central Ave,Amite,LA,70422,504-748-3957
Triple C Trucking,Highway 792,Jamestown,LA,71045,318-894-7411
Neva J Hyde Trucking,65124 Hwy 1058,Roseland,LA,70456,504-748-6792
R & T Trucking,106 Rebel Rd Apt #22,Vivian,LA,71082,318-375-5426
Wilson Trucking,263 Airport Rd,Vidalia,LA,71373,318-336-5392
J & L Transport,146 Bevins Lane,Oak Grove,LA,71263,318-428-2055
C & K Trucking,Off Of Hwy 506/pob 39,Kelly,LA,71441,N/A
Six Sons Trucking,61042 Bennett Rd,Amite,LA,70422,504-748-7717
Rojas Trucking,220 Audubon St,New Orleans,LA,70118,N/A
G & D Trucking,1009 Amelia St,Gretna,LA,70053,504-366-3333
Margaret Relocation Service,110 Carrollton,Shreveport,LA,71105,N/A
"Big Easy, Inc.",900 S Atlanta St,Metairie,LA,70003,504-469-8393
B & J Trucking Co,Po Box 7,Quitman,LA,71468,318-628-3592
Figgins Truck Line,495 Downs Ln,Alexandria,LA,71303,N/A
Hicks Trucking,Rt 2 Box 5801,Sarepta,LA,71071,318-847-4955
Airborne Express,5200 Hollywood,Shreveport,LA,71109,318-636-3659
P S I,2619 Tchoupitoulas,New Orleans,LA,70130,504-947-7825
L E D Trucking Co,223 Spencer St,Jennings,LA,70546,318-824-9448
Simon Bros Trucking,4197 Lyons Point Highway,Morse,LA,70559,337-658-1666
Bryant Trucking,465 Larry Bryant Road,Montgomery,LA,71454,318-646-3552
J Doherty Trucking,2978 Palm Drive,Slidell,LA,70458,504-643-9465
Hogan Hardwoods & Moulding,189 Haddox Road,Ruston,LA,71270,318-255-5488
J & G Trucking,14096 Hoke Road,Welsh,LA,70591,337-753-2651
Moncrief Trucking,3209 Hwy 78,Livonia,LA,70755,504-637-2677
Elmeco,4274 Meadow Lane,Bossier City,LA,71111,318-746-2835
D L D Trucking,4583 Amberly Lane,Shreveport,LA,71107,318-227-9213
Lavergne's Wrecker Service,1923 Verot School Road,Lafayette,LA,70508,318-981-1107
J B Service,2409 West Sunnymeade Dr,Harvey,LA,70058,504-347-3315
Powell's Trucking Co,5925 Hwy 138,Bastrop,LA,71220,318-874-5483
E & M Trucking,6545 San Juan Drive,Baton Rouge,LA,70811,504-357-3518
D & V Trucking,P O Box 403,Ponchatoula,LA,70454,504-386-8263
Benny Rhodes Trucking,Route 1 Box 349,Sibley,LA,71073,N/A
Sims & Son Trucking,Rt 4 Box 54 K,Amite,LA,70422,504-748-5742
Armand Seafood,P O Box 364,Moreauville,LA,71355,318-985-2140
Barlows Wrecker Service,5612 Hwy 84 East,Ferriday,LA,71334,318-757-4130
"Petroleum Automation Consultants, Inc.",109 Canterberry Road,Swartz,LA,71203,318-343-7328
J O Pearson,4407 Cascade St,Bastrop,LA,71220,318-267-9792
Jj's Escort & Hot Shot Services,174 Joanne Drive,Dry Prong,LA,71423,318-640-9977
"New Dimension Travel, Inc.",2050 Gremillion Rd,Port Allen,LA,70767,225-343-1406
Harris Trucking,11331 Sligo Road,St Francisville,LA,70775,504-635-3462
Brothers Agape Taxi-limo-shuttle-charter Service,414 Main Street,Pineville,LA,71360,N/A
Pdq Express Ii,12757 Coursey Blvd #2155,Baton Rouge,LA,70810,N/A
Michael Faircloth Transportation,Po Box 13382,Alexandria,LA,71315,318-442-0978
Todd Hicks Trucking,Rt 1 Box 197,Downsville,LA,71234,318-982-7561
Arnone Trucking,Crossover Rd,Independence,LA,70443,504-878-3272
Trucks-n-stuff,4625 Park Oaks Dr #35,Baton Rouge,LA,70816,504-293-7262
Loren Alford Trucking,P O Box 803,Many,LA,71449,318-256-2899
"Banner Trucking, Inc.",5985 Mer Rouge-collinston Rd,Bastrop,LA,71220,318-874-9851
O C Transport,1114 East First Street,Deridder,LA,70656,409-379-5863
Jacques Dodson Enterprises LLC,6511 Nottingham St,Baton Rouge,LA,70807,225-806-8809
Terry L. Miller,77596 Sanders Rd,Kentwood,LA,70444,985-229-7634
Timmothy J. Gaspard,1497 Hwy 114,Hessmer,LA,71341,318-563-8059
3s Trucking LLC,1102 Claston Simon Road,Breaux Bridge,LA,70517,337-442-6993
Iron Horse Industries LLC,Po Box 55370,Metarie,LA,70055,504-915-8406
Gregory Jones Car Hauling,43342 Robinson Rd,Hammond,LA,70403,988-542-5147
Armada Transport LLC,10451 Hwy 191,Noble,LA,71462,318-567-0407
Mb Trucking,1138 Fenwick,Shreveport,LA,71107,318-227-9552
My Turn Towing,38 East Blue Ridge Ct,New Orleans,LA,70128,504-606-4660
Cage Transport LLC,652 Robinson Chapel Rd,Eros,LA,71238,318-768-2020
Gig Services LLC,338 Stonebridge Loop,Slidell,LA,70458,504-390-7311
"Tweneefosebm Auto Transport, Inc.",Pobox 640474,Kenner,LA,70064,504-237-5997
Louisiana Hotshots LLC,6567 N Bourgois St,Baton Rouge,LA,70807,225-316-1829
Capitol Transport LLC,8421 Benjamin Drive,Chalmette,LA,70043,504-373-4090
Brad Jones Trucking,61402 Hwy 436,Angie,LA,70426,985-732-0441
Jackson Trucking,442 Stonewall Rd,Quitman,LA,71268,318-259-6239
K & M Farms,127 Salem Cemetery Rd,Plain Dealing,LA,71064,318-517-9477
Abc Trucking,410 Ducote Lane,Cottonport,LA,71327,318-253-2488
J & P Trucking,908 East St,Mamou,LA,70554,337-459-8359
Collins Transport,17521 Martin Lake Dr,Baton Rouge,LA,70816,225-751-4127
2 M Services LLC,4228 Highway 552,Downsville,LA,71234,318-982-3478
Hernandez Auto Sales,4052 East Noyola Drive,Kenner,LA,70065,504-496-1950
Big C''s Trucking,41200 South Range Rd,Ponchatoula,LA,70454,985-320-8264
Dba Sign Lite,1490 I-10 Service Road,Slidell,LA,70461,985-649-3804
Four Points Transport LLC,932 Point Pleasant Rd,Homer,LA,71040,318-258-3277
Mgm Farms,248 Clint Walker Rd,Sieper,LA,71472,318-793-4335
Staten Trucking,914 Marx Street,Monroe,LA,71202,318-278-2520
Oil And Gas Service Company,3257bert Kouns Industrial Loop,Shreveport,LA,71118,318-560-2595
Cei,11298 Florida Blvd,Walker,LA,70785,850-942-7323
Jenkins Trucking,269 Martin Luther King Blvd,Port Barre,LA,70577,337-945-8574
Tim & Marcus Truckin,208 Louis Street,Deridder,LA,70634,337-401-6123
Skips Hot Shot Service,1589 Hwy 115,Deville,LA,71328,318-664-5214
Kingdom Trucking Services,207 Persimmon Pl,Lafayette,LA,70507,337-261-0646
Wl Movers And Storage,2577 Long Branch Dr,Marrero,LA,70072,504-952-5179
Jenco Transportation,495 Sugar Creek Rd,Quitman,LA,71268,318-237-1686
Dct,71211 Shady Lake Dr,Covington,LA,70433,985-249-8371
Brian Hillensbeck,39452 Lakepoint Drive,Prairieville,LA,70769,225-622-7811
Kingdom Logistics,3108 Plank Rd,Baton Rouge,LA,70805,225-287-2037
Long Leaf Canteen,730 South Pierce Street,New Orleans,LA,70119,504-488-4422
Creative Fluid Solutions,2861 Opelousas Rd,Ville Plate,LA,70586,713-299-8170
Pawjimmy,8005 Hwy 1200,Boyce,LA,71409,318-793-5005
Foster Trucking Company,703 Winnona St,Natchitoches,LA,71457,318-352-8096
Affordable Mobile Homes,2920 Hwy 90 W,Sulphur,LA,70663,337-855-1759
Two V's Delivery,103 Wells St,Lafayette,LA,70506,337-849-7510
J And K Express,3041 Conmar St,Shreveport,LA,71108,318-364-0951
The Treyne Group,4325 Cole Place,Shreveport,LA,71109,940-224-5618
Richie Naney Trucking LLC,1849 Walker Rd,Jonesboro,LA,71251,318-243-7271
Tim Higgins Trucking,273 S T Neal Rd,Castor,LA,71016,318-544-9200
Mays Trucking,1405 South 6th St,Monroe,LA,71202,318-537-7966
Tarverwholesale,75 Tarver Drive,Many,LA,71449,318-256-2182
Whirlwind,9220 Hwy 8,Leesville,LA,71446,337-238-2824
Rc Trucking,1007 Salt Mine Hwy,Breaux Bridge,LA,70517,337-654-1098
James Choate Logging LLC,675 Loggers Loop,Saline,LA,71070,318-576-3980
S Lane Jr Trucking Service,2604 Virginia Colony,La Place,LA,70068,985-652-6299
Larry Garrett Trucking,1360 West Esplanade Ave Apt D,Kenner,LA,70065,404-604-4427
Kevin J Blood Dba Kevin Blood Farms,1378 Hwy 71 South,Bunkie,LA,71322,318-346-9218
His Way Trucking,5825 Tioga Dr,Baton Rouge,LA,70892,225-614-0258
Lindsey Logging,309 Bears Rd,Deridder,LA,70634,337-401-5255
Ovb Transportation Services,24398 Hwy 190 West Lot 2,Krotz Springs,LA,70750,601-528-3105
Mgp Trucking,1448 Hwy 80,Choudrant,LA,71227,318-278-4299
Vj Hauling And Landscape,10158 Bull Horn P/d,Shreveport,LA,71106,318-797-8583
Sammy G Nolen Trucking,568 Buddy Moore Rd,Pitkin,LA,70656,318-452-0764
Garess Trucking,427 Bundicks Road,Leesville,LA,71446,337-353-1762
James Brown Mechanic Service,215 Hinton Road,Grayson,LA,71435,318-348-1344
Louisiana Farm Boys LLC,50250 Ray Duncan Road,Franklinton,LA,70438,985-839-9493
Cassell Farms,373 N Smokey Cove Rd,Singer,LA,70660,337-463-4176
On Time Roadside,532 E Judge Perez Dr,Chalmette,LA,70043,504-756-5190
Loukisha Johnson,274 Historic East,Garyville,LA,70051,504-237-2307
A-1 Auto Transport LLC,4511 Prairie St,Metairie,LA,70001,504-915-9933
New Orleans Housing Associates LLC,3525 N Causeway St 605,Metairie,LA,70002,504-940-8653
Energe Services,6389 Hwy 1 N,Shreveport,LA,71107,318-734-4821
Ja Trucking,1006 Nichols St,Deridder,LA,70634,337-463-7854
Leatherface 3d,300 Douglas Street,Shreveport,LA,71101,318-841-8910
W C Eastwood,121 Pleasure Il Rd,Farmerville,LA,71241,318-368-0824
Johnson Trucking LLC,150 Settlement St,Napoleonville,LA,70390,985-665-4481
L-c Transport,205 Palfrey Pkwy,Youngsville,LA,70592,337-591-2504
Quality Auto Transport,722 East I-10 Service Road,Slidell,LA,70461,985-288-4141
Flying S Trucking,396 Woodraw James Rd,Pitkin,LA,70656,318-358-5228
B Trahan Trucking,139 Manchester Street,Houma,LA,70360,985-857-8038
Deep South Hot Shot Services,135 Pecan Dr,Evangeline,LA,70537,337-824-0763
Harville,243 Gaskin Road,Quitman,LA,71268,225-719-2938
Sullivan Farms,222 Spurgeon Road,Chopin,LA,71447,318-447-8915
White Farms,2497 Hwy 913,Sicily Island,LA,71368,318-389-4949
Elmore Trucking,109 Sheppard Street,Columbia,LA,71418,318-649-0604
Bayou Kidd Truckin,115 Mitchell Drive,Hammond,LA,70401,985-510-3963
A-affordable Mobile Home Movers,2930 Hwy 90 W Lot 44,Sulphur,LA,70663,337-515-5256
A Chance Transport,619 East Pallmeto Ave,Plain Dealing,LA,71064,318-326-7461
Daigle's Mobile Home Movers,207 Alphonse Venable,Sunset,LA,70584,337-684-4815
Bailey's Hotshot Service,601 Texas St Suite B,Shreveport,LA,71101,318-221-8828
Soarin' Eagle Transport,37543 E Stafford Dr,Prairieville,LA,70769,225-445-6119
Northstar Wireless,4249 Lac Peirre Dr,Harvey,LA,70058,504-339-8798
Cajun Trucking,1022 Azalea Garden Drive,Shreveport,LA,71115,843-557-9680
Force Well Services,1111 Evangeline Thruway,Broussard,LA,70518,504-324-5031
Lc Speedway Motors,2625 Kirkman St,Lake Charles,LA,70601,337-794-0740
"Help Care Services, Inc..",1034 Daniels Street,Baker,LA,70714,225-572-0953
S & E Transport,150 Fremont St,Shreveport,LA,71105,318-655-4663
Big Show Trucking,1027 East Circle,Coushatta,LA,71019,318-581-1829
LLC,116 Atlas Rd,Youngsville,LA,70592,337-962-2330
Roger A Crowe LLC,8621 Section Rd,Port Allen,LA,70767,225-715-9521
Bp Trking,791 Layfield Rd,Coushatta,LA,71019,318-932-1809
At Transportation,6501 President Ln,Keithville,LA,71047,318-925-0928
Dependabale Hot Shot,16473 Turfgrass Rd,Welsh,LA,70591,337-540-4462
T-boy's Trucking Service,2505 Hwy 182,Pitterson,LA,70392,985-395-9072
Iceman,300 Douglas St Bldg A,Shreveport,LA,71101,318-841-8930
Raymond Trucking,341 Franklin Lane,Natchitoches,LA,71457,318-581-2625
Last Stop Towing And Roadside,9042 Greenwood Rd,Greenwood,LA,71033,318-891-8124
Gross Enterprises,3024 Ontario Street,Baton Rouge,LA,70805,225-650-9654
Power Pro Performance,2249 Hwy 6,Natchitoches,LA,71457,318-238-7771
"Voltons Transport, Inc.",4273 Adams Ave,Baton Rouge,LA,70802,225-906-8012
Taj Transporters,616 Keystone Rd,Monroe,LA,71203,318-512-7270
Here And Yonder Farms,471 Cotton Ln,Minden,LA,71055,318-465-4725
Padco Oilfield Services,5304 Primrose Ln,Bossier City,LA,71112,318-455-5956
Red River Energy Services,816 Benton Road,Bossier City,LA,71111,318-742-3408
Just-in-time Transport,492 Sandpiper Lane,Stonewall,LA,71078,318-218-2268
Lunmar Boat Lifts,3715 Highway 27 South,Sulphur,LA,70665,337-558-7200
Lou Lou Trucking,156 Sugarcreek Rd,Quitman,LA,71268,800-226-3696
Wilson Trucking,7215 Richardson Loops,Jackson,LA,70748,225-244-1474
Geauxpress Transport,5580 Cashmere Circle,Shreveport,LA,71129,318-688-6593
H&h Trucking,122 Deville Hill,Jena,LA,71342,318-992-7423
J-man's Hauling,4229 Arkansas Ave,Kenner,LA,70065,504-305-0740
Bernard's Hotshot Service,17433 Hwy 933,Prairieville,LA,70769,517-507-0612
Van Trucking,700 Justice Ct,Marrero,LA,70072,504-665-0265
Parker Trucking LLC,440 Saline Church Rd,Converse,LA,71419,318-315-4596
C & J Claxton,1216 Hwy 134,Rayville,LA,71269,318-728-5405
Duke Tranport,306 Adams St,Columbia,LA,71418,318-649-9331
Michael J Smith,1219 12 St,Kentwood,LA,70444,985-222-9294
7c's Rodeo Company,254 W L Ford Shaw Rd,Dubberly,LA,71024,318-382-2477
K J Farm,916 Government Rd,Opelousas,LA,70570,337-942-4948
K & E Transportation,8124 W Lakeshore Dr,Ethel,LA,70730,225-719-7170
Oilfield Support Services,452 Haven Loop,Chatham,LA,71226,318-259-9400
Bao Bao Food Market,810 Shreveport Barksdale Hwy,Shreveport,LA,71105,318-779-0032
Lick Creek Enterprises,1488 Hwy 550,Spearsville,LA,71277,318-778-4411
Donald Dantzler,4558 Durbiu Rd,Hammond,LA,70401,225-567-2973
Gulf Transit,30395 Pete Smith Rd,Holden,LA,70744,225-954-0600
Williams Enterprises LLC,2711 Beazley Pl,Shreveport,LA,71104,318-219-8527
Readoux,134 Lodge Road,Morrow,LA,71356,318-346-4360
Big Easy Trucking,6873 Tara Lane,New Orleans,LA,70126,504-784-2767
T P Trucking,2608 Midden Drive,Marrero,LA,70072,504-267-5805
Burton's,14824 Woodrow Kerr,Zachary,LA,70791,225-261-1098
Cj Sam Trucking LLC,115 Avanti Drive,Carencro,LA,70520,337-896-0723
Pintos Towing,41 New England Ct,Gretna,LA,70053,504-364-1664
Savoie's Hydrostatic Testing,1421 West Ash Ave,Eunice,LA,70535,337-457-5558
Unique Towing & Recovery,910 First St,Delhi,LA,71232,318-878-7272
A-1 Towing,4560 Hwy 84,Vidalia,LA,71373,318-336-5550
Lam Enterprize,4409 Greenwood Rd,Shreveport,LA,71109,318-635-4383
Johnson Trucking,23 Rougeau Lane,Lecompte,LA,71346,318-792-6457
Gman,208 Evangeline Drive,Mandeville,LA,70471,985-259-2945
Abi Farms,1497 Hwy 3226,Deridder,LA,70634,337-462-8884
Smasher Transport,446 Homewood Place,Reserve,LA,70084,985-956-8053
Nursery Equipment Suppliers,25 Hwy 497,Forest Hill,LA,71430,318-748-7400
No Limit Xpress,423 2nd Street,Benton,LA,71006,318-965-5312
Guillot Trucking,101 Beverly Loop,Pineville,LA,71360,318-487-2039
S Taylor Farms,726 Belaire Cove Road,Ville Platte,LA,70586,337-207-6945
Agrowplow Of North America,672 Hwy 1180,Plaucheville,LA,71362,855-946-5300
Jeremy Transport,2212 Albert St Apt # 115,Jefferson,LA,70121,504-428-8271
Maximum Distributors,14778 Chef Menteur Hwy,New Orleans,LA,70129,504-254-6117
C&r Vacuum Truck Service LLC,505 Mccarver Road,Jonesville,LA,71343,318-447-1268
S M Wheeler And Associates,304 So Short Street,Delcambre,LA,70528,337-277-5624
C& M Concessions,62122 N 9th St,Slidell,LA,70460,985-774-4514
V & R Transport,1536 Belwood St,Shreveport,LA,71108,337-251-3877
Lariat Trucking,2250 Hwy 80 W,Tallulah,LA,71282,318-434-0144
Wilson Transportation,5605 Arts St,New Orleans,LA,70122,517-507-0612
Rmc Transport,1674 Eaves Loop,Merryville,LA,70653,337-372-0130
Regal Jons,2051 Mauld Road,Winnsboro,LA,71295,318-412-0349
Poorman Trucking,703 J P Calcote,Leesville,LA,71446,337-460-0671
St Landry Crawfish,325 Meghan Drive,Opelousas,LA,70570,337-945-8961
Landrieu Concrete And Cement,4141 Paris Rd,Chalmette,LA,70043,504-304-4406
Harvest Express Transport,201 Geneva Lane,Tallulah,LA,71282,318-341-7957
Sykes Trucking,2189 Hwy 477,Natchitoches,LA,71457,318-646-3444
Strong Arm Trucking,1232 Nevelda St,Coushatta,LA,71019,318-458-6912
L&l Trucking,6645 Long Timber Dr,Shreveport,LA,71119,318-207-5988
Tls Farms,2756 Eunice Iota Hwy,Iota,LA,70543,337-523-7027
C & J Transportation,229 Second St,Pearl River,LA,70452,985-237-2283
Tw Transportation,612 Toulouse Court,Bossier City,LA,71111,318-751-2132
Connie Bennett,11848 Peairs Rd,Zachary,LA,70791,225-931-6387
Dba Roderick J Abshire Welding,18132 Gaulman Road,Abbeville,LA,70510,337-298-9039
Jcc Logistics,9529 Palm Street,New Orleans,LA,70115,214-714-4700
Bayou Jack Logging,575 Palmer Ridge Rd,Plaucheville,LA,71362,318-922-3980
Ellison Transportation,3706 Juno Dr,Chalmette,LA,70043,504-758-5875
Maxx Oilfield Services,8802 St Vincent Ave,Shreveport,LA,71006,318-678-5015
B And C Industrial LLC,36375 N Corbin Road,Walker,LA,70785,225-328-8166
Np Distributing,3688 Front St,Winnsboro,LA,71295,318-435-3133
Barry Lafleur Trucking,331 St Andrew Road,Opelousas,LA,70570,337-351-1100
Doughboy Distribution,250 Brownswitch Rd #155,Slidell,LA,70458,616-520-2948
L & L Cattle,621 Okaloosa Rd,Eros,LA,71238,318-547-1794
2 Guns,935 Gravier Street 7th Floor,Metairie,LA,70112,504-382-2404
Rachel Temple Trucking,7914 Hwy 15,Gilbert,LA,71336,318-535-8189
Green Trucking,118 Rescue St,Rayville,LA,71269,318-728-7385
Pinnacle Ag Distribution,1094 Hwy 80 East,Delhi,LA,71232,318-878-2000
Eddie's Body Shop,903 West Main,Oak Grove,LA,71263,318-428-1999
Terry Martin Transport,709 Reynolds Street,Springhill,LA,71075,318-578-2017
Lacraw Trucking,3219 Highway 70 South,Pierre Part,LA,70339,985-252-8111
Divine Logistics,4650 Nelson Rd 718,Lake Charles,LA,70605,409-782-5210
"W.r.rogge,, Inc.",130 W. 23rd St,Kenner,LA,70062,504-451-5093
Ltd Trucking,317 E Blackmon St,Rayville,LA,71269,318-334-2621
Marvin's Excavating Dozer Constuction & House Moving,8844 Highway 190,Opelousas,LA,70570,337-351-9595
Denise L Johnson,1592 Wikoff Cove Dr,Church Point,LA,70525,337-684-6654
Wolfpack Trucking,104 Luther Rd,Rayville,LA,71269,318-728-0478
L Badie Sr Trucking,2636 Hall Ln,Brusly,LA,70719,225-284-6298
Domintor Trucking LLC,4608 Fairfield St,Metairie,LA,70006,786-879-9302
Superior Limo,2433 18th Street,Lake Charles,LA,70601,337-274-6710
Flash Transport Services,1838 Old Oaks St,Shreveport,LA,71119,631-543-2186
Cane River Transport,1586 Hwy 484,Natchez,LA,71456,318-379-1315
All A Dream Trucking Co,2540 Sadler Dr,Shreveport,LA,71107,318-990-3219
At Your Services,1780 E Bert Kouns Ind Loop 809,Shreveport,LA,71105,318-798-6737
Kratzer Trucking,5316 Hwy 90,Roanoke,LA,70581,337-329-3111
Jrg Trucking LLC,5705 Hwy 107 S,Plaucheville,LA,71362,318-922-4100
Billy And James Hotshot Service,7304 Lynn Marie,Keithville,LA,71047,706-325-7927
Mojos Transportation,243 Villemar Pl Suite D,Gretna,LA,70056,504-368-9400
Derrick Enterprise,8400 Palmetto St Apt #315,New Orleans,LA,70118,504-756-5628
Premier Pump Pressure Control And Rental,138 Old Hwy 80 Bldg #b,Minden,LA,71055,870-862-0121
Geaux Logistics,3310 Jefferson Pl,Bossier City,LA,71112,850-517-7964
Big Cross Services,33575 John Barber Rd,Holden,LA,70744,517-507-0612
Mcz Deliver,1440 5th St,Slidell,LA,70458,985-643-2786
C&j Transport,1252 Wiley Rd,Ville Platte,LA,70586,337-336-9208
Wayne Eschette Trucking,282 Plaisance Drive,Graceland,LA,70394,985-537-5001
R Plez Trucking,6000 West 70th St Apt# 2503,Shreveport,LA,71129,951-369-1980
R And D Trucking,5008 Swathmore Dr,Marrero,LA,70072,713-542-9671
Martins Trucking,1004 Wiles Road,Grayson,LA,71435,318-649-0420
Hext Trucking,214 Monroe Parker Road,Singer,LA,70660,337-396-4875
Middle Man Trucking,160 Rose Lane,Deridder,LA,70634,337-396-4288
Jordan Farms,144 Antique Ln,Winnsboro,LA,71295,318-723-4686
Ifbg,19597 Chef Menteur Hwy,New Orleans,LA,70129,504-662-0089
Miracle's Trucking LLC,511 South Street,Amite,LA,70422,225-610-4165
D & E Trucking,95 Skywagon Drive,Zwolle,LA,71486,318-645-7914
Chalmette Amusement Company,316 Aycock Street,Arabi,LA,70032,504-279-8951
Mtr Trucking,29108 Military Rd,Angie,LA,70426,985-750-3734
G T L Hauling,315 Weathy Lane,Zwolle,LA,71486,318-315-2538
Mt,24367 Hwy 191,Zwolle,LA,71486,318-645-9487
T & L Trucking,57994 Barrow Street,Plaquemine,LA,70764,225-776-5038
Quick Assist,6363 Kincaid Ave,Baton Rouge,LA,70805,225-247-6082
Ennisis Catering,6790 W Bert Kouns,Shreveport,LA,71129,318-286-1026
Beranek Trucking,117 Burch Fields,Berwick,LA,70342,985-519-4030
Neoterism Transportation-intransigent Trucking-sensational C,6316 Douglas Street,New Orleans,LA,70117,504-250-6386
Aftermath Movers,39160 W Worthy Rd,Gonzales,LA,70737,225-253-2405
Wafb Tv,844 Government Street,Baton Rouge,LA,70802,225-383-9999
O-k Panthers,3320 Fort Myers Ave,Baton Rouge,LA,70814,225-806-5822
R&r Trucking,1062 Parkwood,Arcadia,LA,71001,318-579-0905
Aaa Wholesale Fence Co,4131 Curtis Lane,Shreveport,LA,71109,318-631-3612
Hollingsorth Auto Center LLC,115-1 S Cities Service Hwy,Sulphur,LA,70663,337-533-8533
Angel's Trucking,14624 W David Dr,Hammond,LA,70401,985-662-0126
Mike&son Trucking,14624 W David Dr,Hammond,LA,70401,985-662-0126
Boomtown Casino Hotel Bc,300 Riverside Dr,Bossier City,LA,71111,318-746-0711
Curtis L Hanson Trucking,131 Hanson Loop Road,Atlanta,LA,71404,318-209-0964
Kiew Trucking LLC,1316 W Green St,Tallulah,LA,71282,318-574-8260
Brooks Trucks,26558 Mandane Dr,Lacombe,LA,70445,985-218-9066
Seal Craft,1207 Airport Drive,Shreveport,LA,71107,318-424-4486
Colar's Trucking,223 Happy Acres Lot 13,Baldwin,LA,70514,337-578-6072
Roamos & Company LLC,131 Tesson Street,Opelousas,LA,70570,404-234-1611
A&j Cassels,1469 Plum St,Olla,LA,71465,318-495-7923
Pocket Change Trucking,1004 Lincoln Street,Bogalusa,LA,70427,202-521-1484
Iam Trucking,2512 19th St,Lake Charles,LA,70601,225-505-1338
Lucky Trucking,64371 Hwy 3081 Lot 21,Pearl River,LA,70452,985-400-8087
Elite Express Transport,551 Goodhope,Norco,LA,70079,517-507-0612
Tim Dixon Services,10202 Ellerbe Rd,Shreveport,LA,71106,318-683-0023
Glass Weld,292 Hwy 610,Winnsboro,LA,71295,318-680-2067
Claibourne Charter Services,113 West Main,Homer,LA,71040,318-927-6782
Southern Systems,402 Sellers Road,Duson,LA,70529,337-466-5502
Gj Trwy,316 Portlock St,Lafayette,LA,70501,334-414-9826
Yasharun Logistics,607 Fifth Street,Tallulah,LA,71282,318-341-2357
3 Star Brokerage,9655 Perkins Road Suite C-176,Baton Rouge,LA,70810,225-936-4388
L & W Trucking,1065 Vieux Chene Dr,Broussard,LA,70518,202-521-1484
L & L Trucking,5123c Bayou Black Dr,Gibson,LA,70356,985-647-5915
Velocity Transportation,6512 Vineyard Drive,Baton Rouge,LA,70812,225-359-9586
Dale Bailey,144 Shirley Loop,Deridder,LA,70634,337-396-2664
Service Repair,4836 Magnolia Dr,Slidell,LA,70461,985-788-4032
Southern Comfort Portable Toilets,105 N Trenton,Ruston,LA,71270,318-549-1998
L & M Bell Trucking,1020 Rupp St,Gretna,LA,70053,504-329-3133
Sullivan Trucking,118 Sonoma Circle,West Monroe,LA,71291,318-855-4660
Concrete Eaters Pumping,811 Whittington,Bossier,LA,71112,318-773-9471
Early Arrival Transportation,304 Genola Rd,Clinton,LA,70722,225-301-2270
Georgia Diesel,207 Patrice Cr,Deridder,LA,70634,706-436-3602
Jbr Enterprises,1004 Romain Street,Gretna,LA,70053,504-428-5224
3a's Quality Transportation,1302 Cambronne Street,New Orleans,LA,70118,504-319-9888
Quality Auto Center,923 Williams Blvd,Kenner,LA,70062,504-468-3919
American Coachworks,8458 Lockhart Rd,Denham Springs,LA,70726,255-665-7427
Speedy Gonzales Hot Shot,38556 Cardinal Ct,Prairieville,LA,70769,225-290-9670
Bush Trucking,1230 Old Robeline Rd Apt E123,Natchitoches,LA,71457,318-521-3382
Jmj Trucking,1912 Louisiana Ave,New Orleans,LA,70115,504-329-0434
Heat,5401 Jefferson Hwy Ste A,Harahan,LA,70065,504-732-2029
Gg Transport,3705 Cimwood Dr,Harvey,LA,70058,504-912-4642
Big Six Trucking,734 Avenue G,Bogalusa,LA,70427,985-732-2112
Truck By Carriere LLC,2701 Gilbert Dr,Shreveport,LA,71104,318-465-4157
Perron Farms,840 Oberlin Rd,Mamou,LA,70554,337-468-5144
Rch Trucking,312 Lincoln Road,Monroe,LA,71203,517-507-0612
Baton Rouge Tours,3878 Baton Rouge Ave,Baton Rouge,LA,70805,225-356-1882
M O Logistics,2535 Pasadena Ave Apt219,Metairie,LA,70001,504-324-9826
Tommy Robberson,625 S Railroad Street,Merryville,LA,70653,337-825-1555
Goins Affordable Hotshots,2505 Wildflower,Monroe,LA,71203,517-507-0612
John Dowden Trucking,5084 Hwy 463,Pitkin,LA,70656,337-328-7815
L R Thomas Enterprise LLC,2016 West Stagg Ave,Basile,LA,70515,337-789-3629
J&k Express,3041 Conmar St,Shreveport,LA,71108,318-390-2435
Backyard Biodiesel,3125 South Burnside Ave,Gonzales,LA,70737,855-692-2269
Fine Arts Management,5339 Prytania,Lew Orleans,LA,70115,504-891-3793
B & D Truckin,219 Dennard Loop,Winnsboro,LA,71295,318-535-6286
Reed Trucking,8005 Hwy 1200,Boyce,LA,71409,318-793-5005
Sunshine Logistics,703 Louisiana Ave,New Orleans,LA,70115,504-250-1254
He-man Hotshots,219 Robertson Rd,Independence,LA,70443,985-662-2283
Chanzy's Transport,513 Portsmouth Dr,Slidell,LA,70460,985-210-2883
Greenwood Memorials,2202 Military Highway,Pineville,LA,71360,318-640-1400
Geaux Trucking,6358 Hwy 29,Cottonport,LA,71327,337-884-5260
Hammer Lane Trucking,185 Woodrow Ridge Par Rd 116,Coushatta,LA,71019,318-932-8634
J A C K Y Transportation,415 Kennedy Street,Ama,LA,70031,504-371-2451
Mejay's Transport Services,214 8th Street,Lafayette,LA,70501,337-201-7742
Williams Transportation Solutions,44 Goldenrod Lane,Waggaman,LA,70094,504-722-9701
R A Lewis Trucking,201 Lilac Street,West Monroe,LA,71292,318-607-2494
J&h Road Builders,38494 Charleston Road,Prairieville,LA,70769,202-521-1484
Lucky Tre & Company LLC,1640 Estalote Ave 1-f,Harvey,LA,70058,504-909-9563
Gas Boyz Transport,7842 Venice Blvd,New Orleans,LA,70128,504-939-7995
Sir Saint Trucking,2417 Elizabeth St,Metairie,LA,70003,504-388-2384
"Dennis R Ballard Truck, Inc.dozer Excavator",42478 South Billville Road,Hammond,LA,70403,225-567-2396
L D Transport,550 Ruth Street,Montgomery,LA,71454,330-232-3051
120 Ponderosa Rd,120 Ponderosa Rd,Bogalusa,LA,70427,985-750-2548
Honey's Trucking,6053 Maxie Hwy,Crowley,LA,70526,337-258-4525
Gps Trucking,21832 Hwy 371,Cotton Valley,LA,71018,985-516-9488
G&g Transport,5630 Broad St,Lake Charles,LA,70615,337-564-8996
F A R Transportation,58310 Plaquemine St,Plaquemine,LA,70764,225-235-5097
R & L Transportation,3200 N Labarre Rd,Metairie,LA,70002,504-382-2834
Wall's Gator Farm,26900 Hwy 1037,Springfield,LA,70462,225-294-6052
Southern Technology & Services,1644 Coteau Road,Houma,LA,70364,985-851-5474
Silver Screen Rentals,819 Central Ave Suite E,New Orleans,LA,70121,504-737-0555
Cmb Transport,3000 Sycamore Street,Houma,LA,70363,202-521-1493
Tiberius Industries,5151 Jourdan Road,New Orleans,LA,70126,251-689-9549
Tulane University,6823 St Charles Avenue,New Orleans,LA,70118,504-865-5373
Garrity Print Solutions,109 Research Dr,Harahan,LA,70123,504-309-8520
Straight Way Companies,1520 Thomas H Delpit Dr,Baton Rouge,LA,70802,225-218-6342
B&m Trucking,341 Seals Rd,Pollock,LA,71467,318-899-5544
Sts,1032 Benoit Rd,Breaux Bridge,LA,70517,337-212-6982
Frazier Trucking,401 South Park Dr,Springhill,LA,71075,131-853-9210
Gators Hauling,200 West 7th Ave,Oakdale,LA,71463,318-306-1222
D&n Truckin,1446 Thompson Road,Lake Charles,LA,70611,337-794-7967
Infiniti Of Lafayette,6201 Johnston Street,Lafayette,LA,70503,337-314-1421
Spartan Industrial Products,844 Engineers Road,Belle Chasse,LA,70037,504-520-8923
Hebert Manufacturing,111 Credit Drive,Scott,LA,70583,337-233-3651
Melbel's,3107 Hwy 1192,Marksville,LA,71351,318-452-3244
Louisiana Furnture Gallery,5726 Johnston Street,Lafayette,LA,70503,337-981-7292
A & J Trucking,6405 Hwy 29,Cottonport,LA,71327,318-229-6224
Fernands Trucking LLC,1821 North Johnson Street,New Orleans,LA,70116,504-270-6305
Solomon's Trucking,1192 Orchard Park,Breaux Bridge,LA,70517,337-316-4582
Bp Trucking,423 B Bourgeios Street,Lacassine,LA,70650,337-540-8916
Little Bit Trucking,1245 Hwy 27,Deridder,LA,70634,337-226-9768
Wilkerson Mobile Home Movers,409 Hudson Creek Road,Colfax,LA,71417,318-640-4407
Chucks Small Haul LLC,18012 Cecil James Rd,Prairieville,LA,70769,225-622-1169
Destined Logistics,3821 Clintwood Drive,Shreveport,LA,71107,318-820-5013
Team Waste Of St Tammany LLC,20393 Hwy 36,Covington,LA,70435,985-264-8750
Jay-5 Express,1158 Zin Zin Rd,Breaux Bridge,LA,70517,337-315-0249
Seiferth Transport LLC,9524 Prestonback Ln,Maringouin,LA,70757,225-916-8784
7623 Express,7820 Masefield Street,New Orleans,LA,70126,504-435-9789
"Mn Logistic, Inc.",211 S Laurel St,Amite,LA,70422,917-595-0568
M&s Trucking,183 Romar Dr,Washington,LA,70589,337-323-9009
M & A Express,14036 Chalmette Ave,Baton Rouge,LA,70810,800-226-3696
D&m Trucking,1312 South Vista Ave,Gonzalez,LA,70737,202-521-1493
Juneau's Trucking,230 Mike Cooper Rd,Cottoport,LA,71327,318-359-4986
M Martin,20284 Hwy 444,Livingston,LA,70754,225-315-2849
Lc Meads Trucking,122 Rose Lane,Labadieville,LA,70372,985-526-8440
"Tea, Inc.",10636 Linkwood Ct,Baton Rouge,LA,70810,225-767-3880
Tieya's Transportation Service,7001 Bundy Road Ste G11,New Orleans,LA,70127,504-505-6068
Allen Trucking,6620 Hickory Street,Wilson,LA,70789,225-287-2802
Ls Express,235 Hwy 111,Merryville,LA,70653,337-825-0825
T Woods Transport,1203 4th Street,Lake Providence,LA,71254,318-307-1428
Tyine's Transport,801 W Landry St,Opelousas,LA,70570,337-948-8189
Pm Trucking,358 Riser Rd,Monroe,LA,71202,318-381-6372
American Ultra,600 Edwards Avenue,Harahan,LA,70123,504-708-4178
Nonstop Trucking,224 B West Virgina Ave,Vivian,LA,71082,318-489-5606
Lewis Trucking,16473 Turf Grass Road,Welsh,LA,70591,337-660-6032
Ward Trucking Co,2011 R C Thompson Road,Shreveport,LA,71107,318-222-9207
Big River Rice And Grain,7489 Hwy 588,Pioneer,LA,71266,318-428-2439
"Cooper Truck Center Dba Freightliner Of Monroe, Inc.",6800 Frontage Rd,Monroe,LA,71202,800-259-5000
Faunce's Dozer Service,56500 Straughan Nursery Road,Loranger,LA,70446,985-320-1262
White's Trucking,561 Eagle Road,Vidalia,LA,71373,318-719-4165
Ascension Paper Products,12389 Casey Babin Rd,Gonzales,LA,70737,225-647-1541
K Timber,9878 E Sheraton Ave,Denham Springs,LA,70726,225-229-2937
Daigle Trucking Of Louisiana LLC,24638 Eisenhower Dr,Plaquemine,LA,70764,225-323-4100
Nuglow Trucking LLC,P.o Box 731,Youngsville,LA,70592,337-296-2453
Gwb LLC,968 West Lake Drive,Port Allen,LA,70767,225-413-0748
Neils Hotshots,2519 Ashland Ave,Bossier City,LA,71111,318-560-4053
Robinson Trucking,152 Southwood Dr,Gretna,LA,70056,504-575-8547
Do Right Transportation,218 E Wyandotte Dt,Shreveport,LA,71101,909-782-1976
Odb Trucking,2017 Hempstead St,Slidell,LA,70461,504-220-4838
Arsenio Transportation,5640 4th Street,Violet,LA,70092,504-491-8925
Flea Flicker Express LLC,3148 Davis Road,Westlake,LA,70669,337-930-0413
Sharp Enterprises,3722 Penick Street,Shreveport,LA,71109,318-272-7443
J1 Sales And Accessories,675 Raiders Rd,Opelousas,LA,70570,337-308-4179
Big Rollerz Asphalt 1,25410 Hwy 190 East,Robert,LA,70455,985-507-3373
Rogue Logistics,28120 Oliver Wheat Rd,Livingston,LA,70754,202-521-1493
Quality Hot Shot,2410 Amy Dr,Laplace,LA,70068,504-931-1219
Jf Directional Drilling Company,485 W Beech St,Ponchatoula,LA,70454,225-347-3012
Private Non Profit Organization,2213 Litchwood Lane,Harvey,LA,70058,504-235-7309
Bg Trucking,1614 Park Road,Kinder,LA,70648,337-499-8788
Mjsc Trucking Company,920 Tampa Street,Tallulah,LA,71282,318-341-9880
Kc Fleming Transport,232 Apple St B3,Norco,LA,70079,601-323-5662
Ez Hotshot,2125 Highway 956,Ethel,LA,70730,225-240-3059
Destinee Transport,1020 Mccarthy Lane,Opelousas,LA,70570,800-226-3696
Rolling On The Bayou,513 Powell Road,Stonewall,LA,71078,318-925-2556
Jefferson Motorcarrie,1308 Estalote Ave,Harvey,LA,70058,504-202-5996
Trumbo,4001 Division Street,Metairie,LA,70002,504-662-1618
Velocity Machine,221 Jared Drive,Broussard,LA,70518,337-330-2158
Cv Trucking,79 Reynolds Road,Alexandria,LA,71302,318-290-1013
O D T Trucking,628 Old D'arbonne Rd,West Monroe,LA,71291,318-396-5800
Cv Trucking,79 Reynolds Road,Alexandria,LA,71302,318-290-1013
Split Second Transport,2416 Germantown Dr,Baton Rouge,LA,70808,225-928-4281
Dk Trucking LLC,384 Torrence Lane,Kentwood,LA,70444,225-978-6534
A&w Trucking,203 Eves Street,Jeanerette,LA,70544,N/A
Mikes Trucking,616 Olive St,Shreveport,LA,71104,318-617-8016
R & R Trucking,540 Meche St,Church Point,LA,70525,202-521-1493
Back 40 Trucking,7433 Hwy 129,Monterey,LA,71354,318-359-9728
Bagwell Trucking,786 Fuller Rd,Dubach,LA,71235,318-245-4548
G T Expres Go And Co,4747 Naff,Bastrop,LA,71220,318-557-2705
Castille Trucking,104 Floridian Lane,Lafayette,LA,70506,337-501-6799
Mouton Trucking LLC,521 E. Pont Des Mouton Rd,Carencro,LA,70507,337-280-1206
1971,2325 Bernwood Dr,Baton Rouge,LA,70816,225-614-7742
C&l Wood Enterprises LLC,615 Dr Davis Road,Calhoun,LA,71225,318-235-7809
C R Trucking,2169 78th Ave,Baton Rouge,LA,70807,225-588-1498
Fox Delivery LLC,725 Madeline Ave,Lafayette,LA,70501,337-281-3901
Gmc Distributors,47 Burleigh Ct N,Marrero,LA,70072,504-347-5284
D Carter Trucking,921 Oak St,Deridder,LA,70634,337-496-9360
Jeremy Van Winkle,590 Bishop Johnny Hair Dr,Lake Charles,LA,70611,337-529-2810
D R Transportation Services,47371 Hwy 1072,Franklinton,LA,70438,504-577-6959
Isi Global Transport LLC,523 A Highway 744,Opelousas,LA,70570,337-351-6460
L & M Trucking,1877 Savage Forks Rd,Leesville,LA,71446,337-239-0800
Cajunland Seafood,9830 Lake Forest Blvd Ste 120,New Orleans,LA,70127,504-451-5321
Jsk Trucking,278 Cave Street,Sarepta,LA,71071,318-578-8383
Free World Global Logistics LLC,6317 Farrel Drive,Slidell,LA,70460,504-221-0746
Stephens Distributing,180 Lee Stephens Rd,Natchitoches,LA,71457,318-554-9737
Black Diamond Express Delivery,2607 Gen Patton,Lake Charles,LA,70615,337-529-2978
Richard's Trucking,11132 Highway 190,Opelousas,LA,70570,337-945-2207
Morgan Tool & Supply,630 Airport Drive,Shreveport,LA,71107,318-222-8001
Berryman's Express,185 Duchesne,Eros,LA,71238,318-348-0682
Wayne Allen,1160 East Puckett Lake Rd,West Monroe,LA,71292,318-396-2171
Henry's Auto Salvage LLC,5880 Old Boyce Rd,Alexandria,LA,71306,318-443-9908
B G Trucking,1091 Bennie Derrough Rd,De Ridder,LA,70634,337-463-6613
Thomas Johnson Logging LLC,1669 Franklin Rd,Deridder,LA,70634,337-463-3779
V P Trucking,1239 Manchester Road,Iowa,LA,70647-8507,337-433-6401
T S & L Transportation,26542 Mt Pisgah Rd,Mt Herman,LA,70450,985-515-9696
No Longer In Business,5744 Guice Dr,Baton Rouge,LA,70811,225-328-5730
Betty Taylor Trucking,3019 Frederick Street,Shreveport,LA,71109,318-272-2758
Troy Whittington,3226 Kirklin St,Paulina,LA,70763,504-296-6138
Matthews Trucking,131 Ancelet Street,Lafayette,LA,70501,337-257-1851
Dti,207 Museum Road,Greensburg,LA,70441,225-222-4020
Jacob Thompson Cattle Co,456 Donald Perkins Road,Pitkin,LA,70656,318-358-3488
R&d Expediting,2812 Wisteria Street,Shreveport,LA,71108,318-564-8580
Kavin Acklin Trucking,557 Coker Worsham Road,Converse,LA,71419,318-521-0104
Right Choice Transport,8321 Gay Drive,Baton Rouge,LA,70814,225-927-1149
Large Unit Transportation,119 Robinson Lane,Delhi,LA,71232,318-331-6466
L Jackson & Son,19064 Jackson Lane,Hammond,LA,70403,985-215-7548
Potier Car Hauling,1102 Orchard Park Dr,Breaux Bridge,LA,70517,337-349-8391
Derek Brown,8978 Marva Dr,Shreveport,LA,71118,318-461-9520
Pyes Trucking,12248 Deck Blvd,Geismar,LA,70734,225-290-3146
Livonia Lumber And Farm Supply,3351 Highway 78,Livonia,LA,70755,225-637-2354
Wright Oilfield Services LLC,237 St Andrews Dr,Alexandria,LA,71303,318-542-3245
J And R Trucking,6221 August Lane,Marrero,LA,70072,504-872-7749
"Gordon, Inc.",5023 Hazel Jones Road,Bossier City,LA,71111,318-747-8954
Yg Trucking,2114 Aspenwood Dr,Baton Rouge,LA,70816,225-773-8863
Triple A & Son Trucking,61653 Curley Murphy Rd,Bogalusa,LA,70427,985-241-2155
Phillips Trucking,4730 Hwy 15,Farmerville,LA,71241,318-235-2471
Simoneaux Trucking,3902 Highway 115,Bunkie,LA,71322,318-305-0717
M & Marmelin,132 Guadalajara Street,New Iberia,LA,70538,337-359-7662
Gc Rouzan LLC,105 Saratoga Dr,Belle Chasse,LA,70037,619-200-1385
Crcg Transport,309 Paradise Rd,Ball,LA,71405,318-955-0153
61 Trucking,590 Napolean Ave,Sunset,LA,70584,337-227-1244
J D Transco,109 Jolivette Street,Baldwin,LA,70514,504-323-5623
Porter Development Unlimited LLC,1716 Frankfort St,New Orleans,LA,70122,504-239-6800
I D A Logistics,13331 Greencastle Avenue,Baton Rouge,LA,70816,225-326-1660
Used Us,5365 Summer Dr,Baton Rouge,LA,70812,225-678-0272
Pelican Production Services LLC,11320 Henry Road,Lake Arthur,LA,70549,337-485-8112
Likisha Brown,3103 Rue Parc Fontaine Apt2134,New Orleans,LA,70131,985-287-1682
Phila's Trucking Service,2313 South Friendship Drive,Harvey,LA,70058,504-450-9333
J And T Logistics,5531 Cross Timbers Drive,Shreveport,LA,71129,318-560-2572
Guidry Haulers,104 Sorrel St,Lafayette,LA,70501,337-315-7000
Managing Member,1285 Caddo Street,Zwolle,LA,71486,318-518-6007
Big E Transport,1024 Lake Street,Lake Providence,LA,71254,318-282-4170
Superior Trucking And Transportation LLC,105 Riverwood Drive,Saint Rose,LA,70087,504-491-0945
V Joseph Trucking,212 Highway 3160,Hahnville,LA,70057,202-521-1493
Monica's Hauling Co,4041 Bayou Black Drive,Houma,LA,70360,985-223-1440
Henry Turner,8723 Hwy 1200,Boyce,LA,71409,318-793-8058
Mike O'banion Trucking,888 Martin-o'banion Rd,Leesville,LA,71446,337-353-6125
