Company Name,Street Address,Address Locality,Address Region,Postal Code,Telephone
Samco Air Freight,1815 Glendora Drive,District Heights,MD,20747,571-212-5635
H&c Carriers,8614 A Quentin Ave,Baltimore,MD,21234,410-870-2992
Cruise Shuttle Express,2128 Nodleigh Terrace,Jarrettsville,MD,21084,410-692-0551
Madav Enterprises,4917 Manheim Avenue,Beltsville,MD,20705,301-404-9919
Driscoll Limousine & Sedan Service,1600 B Dooley Road,Whiteford,MD,21160,888-790-5756
Black Ice Transportation,10813 River Oaks Terrance,Bowie,MD,20721,240-863-6315
Big W's Transport,10459 Frederick Rd,Ellicott City,MD,21042,410-465-2506
Yalac Trucking Company,6715 Seat Pleasant Drive,Capitol Heights,MD,20743,301-336-7984
K B Trucking,396 River Bridge Court,Laurel,MD,20724,240-793-5751
Blue Ridge Hardwood Distribution,9960 Harmony Rd,Myersville,MD,21773,240-818-1182
Tinsley Trucking Service,1105 Glen Willow Drive #3,Capitol Heights,MD,20743,240-770-7536
Last Minute Movers,6216 Auth Road,Suitland,MD,20746,301-423-5542
Rock Solid Trucking,5450 Jonquil Avenue,Baltimore,MD,21215,410-578-9306
Cook's Services,13638 Greensboro Road,Greensboro,MD,21639,N/A
Baux Transport,1314 Pine Grove Ave,Rosedale,MD,21237,443-690-4115
Rh Hauling,811 Washington Blvd,Baltimore,MD,21230,410-685-2109
College Park Auto Service,9891 Rhode Island Ave,College Park,MD,20740,301-220-1302
Carroll Island Auto,200 Bowley's Quarters Rd,Baltimore,MD,21220,410-335-2893
Fred Trucking,7013 Highview Terrace #204,Hyattsville,MD,20782,718-219-7119
Robinson Distributors,15517 Hele Drive,Accokeek,MD,20607,301-814-5728
Greenbelt Exxon,7619 Greenbelt Road,Greenbelt,MD,20770,301-441-2990
Butlers Hauling,14 Brookside Drive,Perryville,MD,21903,410-378-5752
Metro Automotive Equipment Service,4911 Chavez Lane,Chesapeake City,MD,20732,301-494-0553
Move It Now Of Maryland,1585 Sulphur Spring Rd,Arbutus,MD,21227,888-443-7997
B & C Express,47 Wakefield Rd,Hagerstown,MD,21740,301-302-7802
T C W Trucking,5824 Drexal Ave,New Market,MD,21774,301-865-1408
Bast Services Heating And A C,4927 Beech Street,Shady Side,MD,20764,443-867-3879
Worker Bee Transport,5514 Force Road,Baltimore,MD,21206,443-740-8584
A &h Transportation And Delivery,5367 Quincy Street,Hyattsville,MD,20784,301-927-3785
M G S Trucking,1490 Key Parkway,Frederick,MD,21702,717-300-9036
Lance Cephas Services,502 Boundary Ave,Cambridge,MD,21613,410-228-4548
Adh Cross Country Trucking - King Haile Trucking Network,3619 Shenandoah Drive,Beltsville,MD,20705,301-937-7521
Jrc Express,26311 Johnson Dr,Damascus,MD,20872,301-253-6426
Exodus Logistics,4920 Niagara Rd Suite 116,College Park,MD,20740,866-698-0337
Je Coley Transport,3824 Copperville Way,Fort Washington,MD,20744,202-327-4985
Pensare Auto,3510 Fort Meade Road,Laurel,MD,20724,301-575-1717
Immanuel Delivery Service,1834 Treeview Court Apt C,Crofton,MD,21114,202-210-6875
786 Trucking,12310 Sandy Point Court,Silver Spring,MD,20904,301-586-0866
Harley Trucking,4785 Lark Haven Dr,Pomfret,MD,20675,240-765-5798
Megamiles Ground Transport,12524 Monterey Circle,Fort Washington,MD,20744,301-292-3131
Hvac Mechanical Service LLC,29307 Horse Range Farm Court,Mechanicsville,MD,20659,301-884-4305
K & V Trucking,1014 Joppa Road,Joppa,MD,21085,443-463-8084
A&t Bread Service LLC,113 Grove Rd,Centreville,MD,21617,410-758-3805
Just In Out Express,205 Caraway Road Ste 2a,Reisterstown,MD,21136,443-682-4112
Tommy Hayman Trucking,806 State Street,Sharptown,MD,21861,302-628-3038
Dba Scott Transport,27300 Stanford Road,Crisfield,MD,21817,347-526-8499
Reliable Transportation Services,1738 Edgewood Hill Circle #2,Hagerstown,MD,21740,240-217-8506
Earp's Auto Transport,17609 Tree Lawn Drive,Ashton,MD,20861,301-570-7771
R&s Road Service,4894 White Spruce Ln,Frederick,MD,21703,240-626-7141
Lissome Systems & Logistics,7045 Berry Rd #501,Accokeek,MD,20607,301-442-7819
Moving Done,1327 Ashton Road Suite 4,Hanover,MD,21076,866-991-4831
"Nick's Associates Bus Service, Inc.",4222r Upper Beckleysville Road,Hampstead,MD,21074,410-374-6443
Tru F8th Transportation,1207 Valley Drive,Hyattsville,MD,20782,571-238-6294
Dawson Trucking,9040 Field Chat Rd,Nottingham,MD,21236,410-529-1569
Mq Transportation,18651 Sand Piper Ln,Gaithersburg,MD,20879,240-848-1536
Harrods Trucking,326 Highland Drive Apt 102,Glen Burnie,MD,21061,443-250-7079
A&b Seasoning,1203 Travis View Court,Gaithersburg,MD,20879,301-792-4276
Thompson Trucking,10905 Dresden Dr,Beltsville,MD,20705,240-602-4951
Rodriguez Transport,8107 17th Place,Hyattsville,MD,20783,240-432-9200
Guzman Hauling,10900 Lincoln Avenue,Hagerstown,MD,21740,301-582-0459
Mailing Services,5609 Fishers Lane #3b,Rockville,MD,20852,301-881-4685
Double T Service,732 Hopewell Road,Rising Sun,MD,21911,410-658-7725
Britt's Transport Service,7375 Cedar Ave,Jessup,MD,20794,240-367-8819
"No Limit Movers, Inc.",606 Ridgemont Ave,Rockville,MD,20850,301-760-0703
Crc Transport,8225 Fischer Road,Baltimore,MD,21222,410-458-8100
Gold Standard Logistics,8 Hallsdale Court,Baltimore,MD,21237,410-456-5812
Inspirational Movers,3416 Gaither Road,Baltimore,MD,21244,410-521-1956
Elite Services,27230 Widow Lane,Mechanicsville,MD,20659,386-843-2829
Exclusive Express Limo,6805 Everall Ave,Baltimore,MD,21206,410-444-7200
Jonak Transport,1008 Harpers Ferry Road,Knoxville,MD,21758,N/A
First Impression Services,4520 Gallant Green Road,Waldorf,MD,20601,301-932-5537
Crv Trucking,12212 Coneticut Ave,Silver Springs,MD,20902,443-822-5950
Fast Forward Relocation Services,2201 Falls Gable Lane Suite G,Baltimore,MD,21209,301-693-1292
Kazznam Trucking,7408 Abbington Dr,Oxon Hill,MD,20745,202-549-7121
Renshaw Express,430 Oak Ave,Westminster,MD,21157,410-596-8826
Mcilwain Transportation Services LLC,6703 Dorman St,Hyattsville,MD,20784,301-222-3439
David And Sons Automotive,2501 Gerry Ct,Clinton,MD,20735,240-898-7878
Braxis Mobility And Transportation Services,1317 Bennett Place,Bel Air,MD,21015,410-879-2001
C & A Hauling,398 Harley Lane,Oakland,MD,21550,301-334-4896
D H M Transport,2 N Court St,Westminster,MD,21158,443-857-2317
Fast Delivery Service,4442 Park Heights Avenue,Baltimore,MD,21215,410-466-2066
Global Express,119 E Deer Park Dr,Gaithersburg,MD,20877,N/A
A&p Mini Coach,1015 Spruce Street,Waldorf,MD,20601,301-893-2318
The Blue Heaven,11235 Oak Leaf Dr #1102,Silver Spring,MD,20901,N/A
Stadtler Lawn & Garden Service,5904 Halsey Rd,Rockville,MD,20851,301-881-8490
Ksh Trucking,13402 Warburton Drive,Fort Washington,MD,20744,301-292-4432
Professional Reliable On Time Delivery Service LLC,309 Burwood Ave,Glenburnie,MD,21061,410-590-7742
Patriot Transportation Group,332 Pollen Court,Westminster,MD,21157,443-244-0952
Msd Freight Broker Company,744 Maple Crest Dr,Baltimore,MD,21220,443-224-4069
Rancho Grande Distributor,10911 Breewood Ct,Silver Spring,MD,20901,301-681-2644
Rm Trucking,1703 Fairbrook Ct,Baltimore,MD,21244,443-429-5289
Hr Distributors,8385 Glenmar Rd,Ellicott City,MD,21043,410-461-3457
Transcontinental Ventures,14212 Cherry Lane Court,Laurel,MD,20707,240-486-0094
Gg & K Trucking,13137 Larchdale Road Suite 8,Laurel,MD,20708,240-752-4678
Mecca 1 Transport,9704 Saxony Road,Silver Spring,MD,20910,240-507-2583
Eastern Transport,308 Loganwood Court,Joppa,MD,21085,410-284-4545
J-r's Trucking LLC,301n Main St,North East,MD,21901,443-309-7098
Jf&k Trucking,1670 Tulls Overlook Dr,Westminster,MD,21157,410-848-9010
A B U Trucking,13632 Brandon Ct,Newburg,MD,20664,301-259-2777
Chakka Chakka Trucking,108 Cedarmere Road,Owings Mills,MD,21117,443-858-1667
Gsi,7745 Rotherham Dr,Hanover,MD,21076,410-480-3199
K P S Trucking Co LLC,3903 Ridgecroft Rd,Baltimore,MD,21206,443-869-7082
Lcp Trucking,7900 St Claire Ln,Baltimore,MD,21222,410-477-4758
Dpj Trucking Company,920 Palmer Road Apartment 5,Fort Washington,MD,20744,301-265-0048
Gmc Caters 2 U Trucking,5800 Annapolis Road Apt 410,Bladensburg,MD,20710,240-605-8670
T A R,146 Perch Lane,Elkton,MD,21921,302-753-6025
Appleton Trucks,367 Fletchwood Rd Apt 44b,Elkton,MD,21921,302-383-5762
Greenswood Trucking,12808 Staton Ct,Upper Marlboro,MD,20774,240-381-6705
De White Transport,87 Tail Of The Fox Dr,Berlin,MD,21811,301-399-5768
Afource,8167 Murphy Road,Fulton,MD,20759,410-499-1688
Rb Transportation Service,108 Railroad Avenue,Berlin,MD,21811,410-251-8916
S & L Long Transport,21121 Nanticoke Rd,Bivalve,MD,21814,410-873-2325
Big Rig Transport,11511 Carriage Crossing Drive,Upper Marlboro,MD,20772,410-693-0378
Depaz Transportation,201 Washington Grove Ln,Gaithersburg,MD,20877,240-464-7769
Bearly Making It Trucking,6138 Florence Street,Salisbury,MD,21804,732-208-5553
N Y Trucking,12822 Rexmore Dr,Germantown,MD,20874,301-806-4958
Speechless Delivery Service,13003 Open Hearth Way,Germantown,MD,20874,240-477-0400
D Bland Express 1,2309 Cal Houn St,Fort Washington,MD,20744,301-957-6424
Kevin Trucking,2609 Myrtle Ave,Halethorpe,MD,21227,443-850-2514
Ray's Bushhog Service,5553 Burnettsville Rd,Marion Station,MD,21838,410-623-2316
Curbside Rolloff Service,2 A Dorset Hill Court,Owings Mills,MD,21117,410-493-7112
J Riley Transport,910 Waddell Road,Waldorf,MD,20602,301-710-0177
Moving Republic,1131 University Blvd W Suite 906,Silver Spring,MD,20902,301-703-2132
Synergy Trucking,3951 Dartmouth Ct Suite 5,Frederick,MD,21703,301-694-1216
"Jak Trucking, Inc.",1733 West North Avenue,Baltimore,MD,21217,443-226-6416
Congressional Group LLC,600 Baltimore Road,Rockville,MD,20850,240-372-2907
"John Edward Yakupkovic Jr Trucking, Inc.",3990 Saint Leonard Road,Saint Leonard,MD,20685,301-943-3973
Office Environments,930 Eldridge Dr Suite B,Hagerstown,MD,21740,240-520-9030
O D C Transfer,301 East Ridge Dr,Hagerstown,MD,21740,301-331-8635
Safe Transport,1930 Merrimac Dr,Hyattsville,MD,20783,703-981-5428
Lot2lot,5713 Merchant Rd,Camp Springs,MD,20748,301-449-2808
Samoria Farm,3255 Sang Run Rd,Mchenry,MD,21541,301-387-5882
L & L Auto Transport,5018 Long Beach Road,Saint Leonard,MD,20685,410-586-0705
Amigo Home Services LLC,8510 Church Lane,Bowie,MD,20720,240-463-7809
E And Z Delivery Corp,6601 Sanzo Rd Apt# E,Baltimore,MD,21209,718-916-5073
Marrow Trucking,5605 East Pl,Forestville,MD,20747,301-651-7930
Nrj,27 Marshall Road,Waldorf,MD,20602,301-399-2219
Reliable Trucking,172 West Way Apt T2,Greenbelt,MD,20770,240-604-0251
All Star Express,21 Silopanna Rd,Annapolis,MD,21403,410-263-8673
Sig Logistics,1339 Belcamp Rd Suite 104,Belcamp,MD,21017,410-541-6577
Colbert Trucking,912 Marthas Vineyard La,Pasadena,MD,21122,410-437-1063
Juenger Auto Xpress,9396 Penrose Street,Frederick,MD,21704,301-874-3124
Keep The Faith Trucking,19284 Circle Gate Drive # 204,Germantown,MD,20874,301-996-6214
T & R Trucking,728 Lannerton Road,Baltimore,MD,21220,410-365-9750
Pc Logistics,3501 7th Street Suite 200,Baltimore,MD,21225,410-760-4800
Black Top Trucking,1427 Cherry St,Curtis Bay,MD,21226,410-984-7791
"Thom-trans, Inc.",3609 Cottage Avenue,Baltimore,MD,21215,704-430-1822
Triple K Delivery,2703 Fairdale Terrace,Silver Spring,MD,20905,443-694-2855
Swinton Trucking,8622 Hayshed Lane,Columbia,MD,21045,N/A
Buzz Distribution,4645 Arthur Shipley Rd,Sykesville,MD,21784,443-296-2899
T&t Hauling & Moving,6014 Addison Rd,Seat Pleasant,MD,20743,202-870-8068
Gurcan Transportation,5040 Carmine Ave,Baltimore,MD,21207,201-682-1933
Ines P Trucking,130 West Jeffrey St,Baltimore,MD,21225,410-800-9542
Lx Trucking,10115 Mckenney Ave #203,Silver Spring,MD,20902,301-326-7556
Larsen Building Services,39 Old Hilltop Raod,Conowingo,MD,21918,410-658-2583
"D&l Contractors, Inc.",12106 Stanfield Ct,Bowie,MD,20720,240-603-3419
Ga Autos,6912 Annapolis Road,Hyattsville,MD,20781,240-418-0398
Eb Lecompte Transport,26519 Boyce Mill Rd,Greensboro,MD,21639,410-924-0612
Lyles & Son Services,20461 Sunbright Ln,Germantown,MD,20874,301-674-9778
Quad Transport,7020 Quad Ave,Baltimore,MD,21237,410-207-3274
Royal Flush,5645 Beach Haven Road,E New Market,MD,21631,410-463-2929
S Y Hargeove,13003 Jervis St,Clinton,MD,20735,240-286-5588
Don's Trucking Co,4536 Ingham Rd,Owings Mills,MD,21117,443-250-4811
Mccray Motor Freight,826 St George Ct,Edgewood,MD,21040,443-310-7459
Owner,East Ranier Drive 7183,Parsonsburg,MD,21849,410-548-7942
C G Trucking,1030 58th Avenue,Capitol Heights,MD,20743,301-925-4673
Myers Trucking,10553 Orly Drive,Denton,MD,21629,410-479-0563
Segun Transportation,4202 Cloudberry Ct,Burtonsville,MD,20866,301-202-9003
Tabs Business Products,5350 46th Avenue,Hyattsville,MD,20781,240-260-0661
Ka & Vm Munson Transport,18305 Cedarville Rd,Brandywine,MD,20613,301-579-2349
Slade Auto Repair,524 Reisterstown Rd,Pikesville,MD,21208,410-653-0862
Hurricane Truckin LLC,804 Anderson St,Silver Spring,MD,20904,301-236-5265
Cheetah Auto Transport,880 Chinquapin Crest Drive,Harwood,MD,20776,732-208-5553
Fast And Serious Freight Co,1410 Cypress,Curtis Bay,MD,21226,443-457-6633
Blue Mule Trucking,4725 Kridlers Schoolhouse Road,Manchester,MD,21102,410-239-9507
Alexander Delivery Service,1125 Grandin Ave,Rockville,MD,20851,301-509-9963
Deckers Roll-off And Transport Services,4318 Leola Ave,Halethorpe,MD,21227,443-575-6145
American Tours And Trtansportation,607 Camp Meade Rd Suite C11,Linthicum,MD,21090,410-859-8877
Sanchez Company,125 Bon Air Ave,Brooklyn Park,MD,21225,410-636-7205
Xquisite Transportation,10400 Farrar Ave,Cheltenhan,MD,20623,301-372-8387
Uno Auto Sales,16900 Oakmont Ave,Gaithersburg,MD,20877,301-355-5100
Raw Distributing,27877 Pointers Lane,Salisbury,MD,21801,410-334-2094
Mb Express,3 Whetstone Drive Apt 4,Gaithersburg,MD,20877,240-507-2346
C & T Trucking,1649 Northbourne Rd,Baltimore,MD,21239,443-415-2120
Nationwide Electrical Services,1042 Savanna Drive,Laplata,MD,20646,240-876-0347
Accurate Electrical Services LLC,4293 Wrights Mill Rd,Trappe,MD,21673,410-476-3624
Watsons Transportation,1330 Middleford Rd,Catonsville,MD,21228,443-621-1793
Mas Transpotrs,6707 Mesquite Ct,Forestville,MD,20747,301-516-5365
Tricked Out Transport,20213 Kellys Ln,Hagerstown,MD,21742,301-393-4868
Lawrence Trucking,3411 Forest Park Ave,Baltimore,MD,21216,443-379-2224
Next Level Transportation Service,154 Winters Lane,Catonsville,MD,21228,410-747-3378
L Neal Trucking,14178 Oaks Road,Charlotte Hall,MD,20622,240-229-1832
Copper Trucking,408hollyday St,Easton,MD,21601,410-822-3720
Triple Threat Transportation,12014 Hallandale Terrace,Mitchellville,MD,20721,301-218-1992
Wk Trucking,2039 Andrews Rd,Crapo,MD,21626,410-397-8821
Tns Transport,1623 Debra Dr,Waldorf,MD,20601,817-423-9848
We Deliver,309 Fletchwood Rd,Elkton,MD,21921,410-620-1339
All The Way Trucking,14200 Brandywine Heights Road,Brandywine,MD,20613,301-395-8146
M & S Pott Trucking,108 Railroad Road,Barclay,MD,21607,410-438-3191
Lil Jester Trucking,102 Jackson St ,Hurlock,MD,21643,410-754-7382
L M Carrier,6211 6th Street,Chesapeake Beach,MD,20732,301-466-1976
Nbs Emergency Road Service,1823 Havre De Grace Drive,Edgewater,MD,21037,410-956-5453
F And T Trucking,8808 Gladeside Dr,Clinton,MD,20735,301-868-3643
Nichols Transporting,22767 St Winifreds Lane,Avenue,MD,20609,301-769-3272
Bennett Excavating & Contractor Services,24399 Holsinger Lane,Ridgely,MD,21660,410-634-1371
Kti,235 D Log Canoe Circle,Stevensville,MD,21666,410-758-8407
Idealease Of Frederick,8425 Progress Court,Frederick,MD,21701,301-663-6262
A E Evans Trucking,12705 Foundstone Rd,Germantown,MD,20876,301-252-6523
Norbeck Hauling,16625 Lescot Terrace,Rockville,MD,20853,301-774-5984
Road Carrier Service,10411 Cowden Ave,Cumberland,MD,21502,301-777-2936
Kc Delivery,6702 Parkwood St,Hyattsville,MD,20784,202-441-5103
Eoto Trucking,3825 Tremayne Terrace,Silver Spring,MD,20906,202-575-1635
Hugo Bonilla Trucking,11220 Evans Trl #t4,Beltville,MD,20705,240-398-7666
Ricks Roadside Tire Service LLC,11705 Redwood Drive East,Brandywine,MD,20613,301-372-6396
R&s Hauling LLC,120 Quinn Road,Grasonville,MD,21638,410-829-4048
Five Forks Trucking,3401 Kidder Road,Clinton,MD,20735,301-203-9380
Anthonys Dump Truck & Bobcat,7810 Drumpoint Lane,Clinton,MD,20735,202-277-7273
Navis Pack & Ship Centers,1587 Sulfer Spring Road,Baltimore,MD,21227,410-737-8020
Rtl Services,14024 Poplar Grove Road,Hagerstown,MD,21742,301-992-7801
Jet Roll-off Dumpster Service,46155 River Hill Rd,Lexington Pk,MD,20653,301-904-2280
Campbell S Moving & Delivery Service,1630 Winding Brook Way,Baltimore,MD,21244,410-265-0038
Hudfed Freighters,12908 Neola Rd,Silver Spring,MD,20906,540-336-4113
K & C Roberts Trucking LLC,10018 Behun Drive,Cheltenham,MD,20623,301-782-2204
Three Sons Trucking,110 W Philadephia Ave,Salisbury,MD,21801,410-860-9466
G Steward Trucking LLC,2812 Sudberry Lane,Bowiie,MD,20715,301-262-5911
Pinders Trucking,31320 Clarks Wharf Road,Trappe,MD,21673,410-310-2816
Stephens Trucking,12816 Rio Grande Trail,Lusby,MD,20657,410-326-2156
J & D Trucking,42251 Ridge Road,Mechanicsville,MD,20659,443-404-9527
Ran Transport,18212 Smoke House Court,Germantown,MD,20874,240-388-1680
T R B Services,317 Brooklyn Ave,Federalsburg,MD,21632,410-924-6347
Cag Transport,2809 Deer Ridge Dr,Silver Spring,MD,20904,516-642-9626
Ck Trucking,9403 Queensway Road,Upper Marlboro,MD,20772,240-752-4645
Haskins Transport Services,1505 Poole Rd,Street,MD,21154,713-907-3657
Inttrasys,4810 Williamsburg Road Unit 5,Hurlock,MD,21643,410-943-3712
Kwh Trucking,2770 Florence Road,Woodbine,MD,21797,410-489-4979
Higher Power Trucking,13306 Water Fowl Way,Upper Marlboro,MD,20774,301-218-0387
Rtb Trucking,358 Smith Road,Grantsville,MD,21536,301-616-4948
"Power Play Hauling, Inc.",2616 Warren Way,Frederick,MD,21701,301-898-3010
B Garrison Trucking,304 Superior St,Havre De Grace,MD,21078,410-939-5021
"A & M Trucking, Inc.",9407 Indian Camp Road,Columbia,MD,21045,301-483-6228
Auto Hauler,7110 Donnell Pl B2,District Heights,MD,20747,301-736-2003
Ray & Sons Hauling,3901 Canterbury Way,Temple Hills,MD,20748,301-894-3890
Ninth Street Transportation,5206 Maries Retreat Drive,Bowie,MD,20720,202-367-8055
"We Care Trucking Company, Inc.",1313 E 35th Street,Baltimore,MD,21218,443-722-9236
Craters And Freighters Of Baltimore,413 Headquaters Drive Suite 5,Millersville,MD,21108,410-987-0270
Universal Sewer & Drain Cleaning Service,23 Norman Road,Port Deposit,MD,21904,410-658-4070
L & S Trucking Company,14708 Shiloh Court,Laurel,MD,20708,301-996-7067
L V P Jr Trucking Co,7108 Windsor Mill Rd,Baltimore,MD,21244,410-935-6252
"Logues Trucking, Inc.",36 Boxwood Lane,Colora,MD,21917,410-658-6478
Yeye Delivery,15 Valleyfield Court,Silver Spring,MD,20906,301-598-2388
Big Wheel Tire Company,3716 Leeds Road,Suitland,MD,20746,301-350-0404
Tf Trucking,1498 Lynndale Rd,Oakland,MD,21550,130-133-4694
R & W Trucking,2800 Captains Cove Ct.,Edgewood,MD,21040,410-671-4242
Di Smith Trucking,5724 Lanier Ave,Suitland,MD,20746,301-702-7373
J-mon Trucking,123 Ocean Parkway,Berlin,MD,21811,N/A
Shack Attack Car Carriers,4622 Sandwood Road,Sparrowspoint,MD,21219,410-477-4390
Henny Trucking Co,7667 Maple Ave #409,Takoma Park,MD,20912,202-340-6998
Stanback Trucking,3509 Halloway South,Upper Marlboro,MD,20772,301-627-8724
Sure Service Electrical Contractors,11121 Spring Branch Ln,Berlin,MD,21811,443-497-7363
Joe Barnes Trucking,3802 Ida Court,Forestville,MD,20747,301-568-1752
Delmarva Maintenance Services,4435 S Upper Ferry Road,Eden,MD,21822,410-742-8176
Jr Simms Trucking,4318 23rd Place,Temple Hills,MD,20748,301-702-0894
Yemane Trucking,7605 Glenside Drive,Takoma Park,MD,20912,301-434-6115
Kap Trucking,2500 Brohawn Ave,Baltimore,MD,21230,410-644-9427
Genes Auto Services,602 Flat Iron Square Road,Church Hill,MD,21623,410-758-6614
Corkey's Welding Service,22102 Havenworth Lane,Clarksburg,MD,20871,301-515-1498
Cmj Trucking,8904 Fox Park Road,Clinton,MD,20735,301-856-3281
Mct Trucking,8113 Dalesford Road,Parkville,MD,21234,410-882-8777
Corporate Sedan Service,20-b Gwynns Mill Court,Owings Mills,MD,21117,410-363-2100
David Transport,417 Callander Way,Abingdon,MD,21009,410-320-5830
Cardenas Trucking,7102 Goodluck Rd,Lanhan Pg,MD,20706,301-552-5416
Elite Crating Services LLC,1609 Chester Road,Chester,MD,21619,410-643-8879
Leon Trucking,5708 Linda Lane,Temple Hills,MD,20748,301-423-5782
Shawn White Trucking,7607 Millrace Road,Capitol Heights,MD,20743,301-350-3223
Marvin Jackson Jr M J J,301 Irish Lane,Aberdeen,MD,21001,410-272-4572
Above All Trucking,2036 Pond Town Road,Chestertown,MD,21620,302-562-6762
B&c Trucking LLC,131 S Monastery Ave,Baltimore,MD,21229,202-889-7002
Zein Transportation,12290 Green Meadow Dr #708,Columbia,MD,21044,443-864-0070
Arcs Transport,26 Plum St,Easton,MD,21601,410-819-6672
Ds Intensive LLC,5501 Galloway Dr,Oxon Hill,MD,20745,301-839-7915
Wilberth Y Martinez,2108 Rolander Street,Hyattsville,MD,20783,240-223-7544
D N Tibbs Transport,12507 Coral Grove Place,Germantown,MD,20874,301-916-4726
Wright Services,1722 Green Glade Road,Swanton,MD,21561,301-387-9656
J L Trucking Service,18927 Tree Branch Terr,Germantown,MD,20874,240-388-1485
Ducky's Sedan Transportation,613 George Street,Hagerstown,MD,21740,301-791-8905
Djw Trucking,3813 Deep Hollow Way,Bowie,MD,20721,301-218-9434
Walkers Trucking,4524 Bishopmill Circle,Upper Marlboro,MD,20772,301-952-8267
J B Trucking,8711 Shannan Dr,Clinton,MD,20735,301-297-4538
Marvin L Smith And Family Trucking,4503 Sprucewood Court,Temple Hills,MD,20748,301-630-7583
B T Express,6406 Patton Place,Temple Hills,MD,20748,301-899-2787
Motor Carrier,3528 Silver Park Drive,Suitland,MD,20706,301-685-6380
Peaches Trucking,1129 Foxwood Lane,Baltimore,MD,21221,443-552-9212
Dnd Express,6210 Willow Way,Clinton,MD,20735,301-868-8588
Expressign,4318 Baltimore Ave,Bladensburg,MD,20710,301-864-2802
Kamis Delivery Service,3501 Essington Court,Bowie,MD,20716,301-809-5790
"A J Transports, Inc.",6701 Griffith Road,Gaithersburg,MD,20882,240-994-4988
"Jb Upright Trucking, Inc.",9816 Tolworth Circle,Randallstown,MD,21133,443-797-9532
C D Contreras,2602 Dennis Avenue,Silver Spring,MD,20902,240-644-3183
"H And H Services, Inc.",708 Loop Road,Ocean City,MD,21842,410-250-0888
Proactive Logistics,22 Shelldrake Ct,Damascus,MD,20872,301-253-3248
B&k Transfer,44 Liberty Road,Sykesville,MD,21784,410-795-3819
J&w Trucking,829 Accident-bittinger Road,Accident,MD,21520,301-746-7152
Baron Construction,12603 Littleton Street,Silver Spring,MD,20906,301-412-3533
"A C S, Inc.",12 Harwood Drive,Harwood,MD,20776,410-956-6410
Ings Transport,1207 Addison Rd S Apt 120,Capitol Hgts,MD,20743,301-899-1560
N&n Freight Movers LLC,6119 Blacksmith Dr,District Heights,MD,20747,202-367-2696
Dj&t Trucking LLC,102 Little Creek Ln,La Plata,MD,20646,301-392-3640
R & B Trucking,5054 Stock Creek Ln,Salisbury,MD,21801,410-742-1371
Smt Transport,1608 Manning Road,Glen Burnie,MD,21061,410-761-7127
"Unlimited Express, Inc.",1709 Mallard Court,Upper Marlboro,MD,20774,301-249-6334
Cd Franklin Trucking,5438 Odell Road,Beltsville,MD,20705,240-286-1243
G D Pinkney Trucking,106 Bark Court,Arnold,MD,21012,410-768-5363
"Full House Trucking, Inc.",1006 Elderberry Pl,Capital Heights,MD,20743,202-369-1206
F & L Trucking,5933 Fisher Rd #11,Temple Hills,MD,20748,240-304-6836
Rac Trucking,710 Dover Rd,Easton,MD,21601,410-819-6967
J & D Transport,5120 Flintridge Drive,Hyattsville,MD,20784,301-787-4499
B A & D Delivery Services,20034 Frederick Road,Germantown,MD,20876,240-388-2343
Kevin Sterling Trucking,2889 Byrdtown Road,Crisfield,MD,21817,410-968-3712
I'm Dunn Truck'n Enterprise,2203 Old Fort Hills Drive,Fort Washington,MD,20744,301-203-1147
"Mid Atlantic Logistics, Inc.",10621 Iron Bridge Road Suite M,Jessup,MD,20794,301-776-6683
Affordable Moving & Hauling,11 Drumcastle Court,Germantown,MD,20876,240-597-0195
Colonial Carrier Motor Express LLC,2515 Creswell Rd,Bel Air,MD,21015,410-914-5507
Kase Trucking,9101 Logtown Road,Berlin,MD,21811,410-629-0496
Ball Trans,7403 Parkwood Street,Hyattsville,MD,20784,301-429-0877
E L Wood Transport,2660 Dakota Street,Bryans Road,MD,20616,301-375-9109
Ew Trucking,8505 Cory Drive,Bowie,MD,20720,301-352-3310
Elite Transportation,8690 Barbara Ann Way #304,Delmar,MD,21875,772-489-9839
Estate Services,214 Division Avenue,Lutherville,MD,21093,443-255-8095
B&t Container Service LLC,136 William Chambers Jr Drive,Glen Burnie,MD,21060,410-360-0007
Kev Car Go,31684 Old Ocean City Road,Salisbury,MD,21804,410-543-1969
Dorsey Distributor,4212 Sandwich Circle,Waldorf,MD,20601,240-607-9523
Carrier,2221 Hindle Lane,Bowie,MD,20716,301-809-0944
Ces Trucking,27298 Cox Drive,Mechanicsville,MD,20659,301-399-2760
Elite Construction Services,10616 Carter Way,Hagerstown,MD,21742,301-801-6664
Dee's Farm Service,45411 St Georges Ave,Piney Point,MD,20674,301-994-1768
St Lewis & Sons Trucking,112 Water Street,Gaithersburg,MD,20877,240-477-6185
All Seasons Transportation,1125 Broadview Road,Fort Washington,MD,20744,240-417-6381
Evolution Trucking,3806 Penhurst Ave,Baltimore,MD,21215,410-542-2243
Catoctin Motorsports LLC,218 N Church St Suite 1,Thurmont,MD,21788,301-271-3710
All Power Automotive,2914 Syndey Avenue,Forestville,MD,20747,301-735-0540
Eci Transport,798 Cromwell Park Drive Suite G,Glen Burnie,MD,21061,443-308-5700
2x's Distributions,7510 Plater Ln,Glenn Dale,MD,20769,202-409-0760
Bld Trucking,3115 75th Avenue # 304,Landover,MD,20785,301-773-3730
City Moving Company,24101 Old Hundred Rd,Dickerson,MD,20842,888-873-8443
Patriot Transporters,2000 Bright Seat Road,Landover,MD,20785,301-864-9100
Kp Auto Transport,3818 Springhill Drive,Havre De Grace,MD,21078,443-878-7762
Dudley Transport Service,8516 Rainswood Drive,Landover,MD,20785,301-499-0087
Transportation Provider,2313 Carr Court,Ellicott City,MD,21042,410-461-7137
C & H Transport,1650 Barclay Road #1,Barclay,MD,21607,443-848-7874
Og Transport,4303 Frankfort Drive,Rockville,MD,20853,301-871-2545
C And N Delivery Services,229 Castleton Terrace,Upper Marlboro,MD,20774,888-334-6635
Stumpys Land Services,3707 Fairfax Circle,East New Market,MD,21631,410-943-4288
He O'donnell Trucking,2007 Hope Road,Centreville,MD,21617,443-262-9233
Triple M Deliveries,10201 Stagecoach Drive,Hagerstown,MD,21740,301-412-7222
Bess Trucking LLC,39 Winslow Drive,Elkton,MD,21921,410-996-8906
B O C Services LLC,303 Langner Court,Fort Washington,MD,20744,301-292-5597
D&s Auto Transport,2206 Pebble Beach Drive,Elkton,MD,21921,410-392-3415
"Baxley Modular Transport, Inc.",15 Joppawood Ct,Perry Hall,MD,21236,410-977-2871
Les Express,3412 Barkley Woods Rd,Windsor Mill,MD,21244,410-922-0913
Lemus Trucking,9611 Wellington Street,Lanham,MD,20706,301-437-6679
Salvage Transport LLC,55 Greenmount Road,Rising Sun,MD,21911,410-658-9588
Transportation,12104 Little Patuxent Pkwy Apt A,Columbia,MD,21044,443-535-7292
"Abs - Americans Best Services, Inc.",1202 Ednor Road,Silver Spring,MD,20905,301-476-9794
"Romero Brothers Auto Service, Inc.",1008 A Leslie Ave,Cotonsville,MD,21228,410-455-9734
Next Level Movers,15605 Chadsey Ln,Brandywine,MD,20613,301-782-9078
Jay Covey Hauling,4618 Preston Road,Federalsburg,MD,21623,410-754-0707
Joe Pee Trucking,5616 Duchaine Drive,Lanham,MD,20706,301-459-2504
Billy's Trucking,4015 Lyons Street,Temple Hills,MD,20748,301-423-9032
Kapp Transportation,13610 Ansel Terrace,Germantown,MD,20874,301-996-1054
Around The Clock,1527 Long Point Road,Pasadena,MD,21122,410-439-9910
B&k Trucking,1511 Ridge Rd,Whiteford,MD,21160,443-528-4328
Precision Heavy Hauling,300 S Main Street,Hebron,MD,21830,410-334-6116
D D & R Unlimited,2434 Kent Village Place,Hyattsville,MD,20785,301-632-2094
Auto Transport,600 Glen Court,Glen Burnie,MD,21061,410-763-5858
Cap Leasing & Produce,2019 Winford Rd,Baltmore,MD,21239,410-444-8594
Embro Trucking,3831 Terka Circle,Randallstown,MD,21133,410-922-8349
Hsa Service Center,1423 Oakmmont Drive,Hagerstown,MD,21740,301-733-4507
J Miller Contracting,5048 Erdman Ave,Baltimore,MD,21205,410-483-6385
A-1 Transport,2621 North Point Blvd,Baltimore,MD,21222,410-288-1100
Two Guys And A Truck,7930 Queenair Dr,Gaithersburg,MD,20872,301-340-1800
K&k Trucking,3913 Kilbourne Drive,Fort Washington,MD,20744,301-248-7601
Express Moving,4620 York Rd,Manchester,MD,21102,410-982-6304
J D Fisher Trucking,1416 Old Field Point Rd,Elkton,MD,21921,410-398-2974
Mario's Lawn Yard Service,4802 Flanders Ave,Kensington,MD,20895,301-949-0855
Jay's Transport,10843 Alyssa Lane,Waldorf,MD,20603,240-464-1553
J & S Helsel Trucking,68 Lincoln Avenue,North East,MD,21901,410-287-2213
Frank's Transport,5999 Springhill Drive Apt201,Greenbelt,MD,20770,301-875-6532
Orion Xpress Transportation,13155 Cabinwood Drive,Silver Spring,MD,20904,301-384-8516
A M A Trucking,4231 Betheden Court,Pocomoke City,MD,21851,410-632-0930
Brendas Auto Sales,9812 26th Ave,Hyattsville,MD,20783,301-672-5780
Ata Trucking,250 Knoxville Road,Knoxville,MD,21758,240-367-1455
Kaelbin Distributors LLC,195502 Taverney Drive,Gaithersburg,MD,20879,240-477-4773
Mayo Transportation,3622 Coronado Rd,Baltimore,MD,21244,410-698-3723
Crc Services,301 Baid Eagle Way,Belcamp,MD,21017,443-807-3941
Star Logistics,2685 St Benedict St,Baltimore,MD,21223,410-233-6601
Fields Transport Service,9231 Misting Court,Waldorf,MD,20603,301-529-5457
Deas Trucking & Construction LLC,1016 Andean Goose Way,Upper Marlboro,MD,20774,301-257-3863
Kik Trucking,6115 Catch Penny Road,Quantico,MD,21856,410-251-9545
American Van Lines Of Md,1531 Kirkwood Rd,Gwynn Oak,MD,21207,410-747-7108
Mid Atlantic Environmental,10 Kirsim Court,Freeland,MD,21053,410-343-0226
C And Car Hauling LLC,636 Glynita Circle,Reisterstown,MD,21136,410-517-3412
Fancy Flier,6606 Redd Lane,Elkridge,MD,21075,301-890-7376
Adb Trucking,3711 Mohawk Ave,Baltimore,MD,21207,410-367-2822
Johans Trucks Honduras Ca,7311 Good Luck Rd,New Carrollton,MD,20784,301-910-8720
Helping Hands Adult Day Services,7121 Old Alexander Ferry Road,Clinton,MD,20735,301-856-5553
Thomas Express,5318 Holly Street,Indian Head,MD,20640,301-751-5140
Fleet Moving&storage,608 Washington Blvd Suite 208,Laurel,MD,20707,888-252-5390
Raw Hauling,3804 Flowerton Road,Baltimore,MD,21229,443-277-4231
Golden Express,10403 Tullymore Drive,Hyattsville,MD,20783,301-807-1705
Mc Stone,1125 Tome Hwy,Port Deposit,MD,21904,410-734-2203
Drkb Transport,6640 Springmill Circle,Baltimore,MD,21207,443-846-4648
Hay Express Farm,14205 Battletown,Hagerstown,MD,21742,301-573-4998
The Mochis Transport,259 Longfort Drive,Frederick,MD,21702,201-558-1056
Russ Trucking,17626 Kohlhoss Rd,Poolesville,MD,20837,301-407-9004
Amore Limosine Services,200 Potomac Avenue,Baltimore,MD,21237,410-574-5888
Hagerstown Tire Service,11840 Walnut Point Road,Hagerstown,MD,21740,301-223-8525
L & R Auto's Recyling,6701 Chew Road,Upper Marlboro,MD,20772,301-575-6422
Antar Auto Service,14640-b Southlawn Lane,Rockville,MD,20850,301-738-1690
Partlow's Home Repair,107 Oak Street,Hurlock,MD,21643,410-714-1724
Cleevis Shipping & Hauling LLC,9318 Glenville Rd,Silver Spring,MD,20901,301-439-0790
Fast Lane Trucking,550 Drummer Drive,Preston,MD,21655,410-253-2819
Rv Moving Company,19517 Divot Place,Montgomery Village,MD,20866,240-388-2514
Demada Logistics LLC,2954 Buckthorn Ct,Lanham,MD,20706,301-386-4747
S Foard Transport,4157 Federal Hill Rd,Jarrettsville,MD,21084,410-557-9470
E & M Trucking LLC,3526 Lyndale Avenue,Baltimore,MD,21213,410-522-3178
Shedking,10620 Old Sycamore Rd,Charlotte Hall,MD,20622,443-454-4288
Jc Wilson Transporting Of Maryland,417 Howard Manor Drive,Glen Burnie,MD,21060,443-889-5028
Sprint Van Line Services,143 Rollins Ave,Rockville,MD,20852,888-878-4922
Forder Transport,2512 Kaetzel Road,Knoxville,MD,21758,240-575-5970
Diaz Hauling LLC,6 S Robinson Street,Baltimore,MD,21224,410-522-2206
Profile Transport,3317 Sir Thomas Drive Apt #22,Silver Spring,MD,20904,910-674-3904
Sir Duke's Trucking,3619 Green Valley Road,Ijamsville,MD,21754,201-736-6125
Colledona Auto Sales,99 Commerce Place #325 B,Upper Marlboro,MD,20774,301-343-6458
Pic & Pay Auto,2756 A Old Washington Rd,Waldorf,MD,20601,240-412-0916
Grimes Truck Center,8016 Reichs Ford Rd,Frederick,MD,21704,301-631-0514
Monterey Refuse Service,2761 Biggs Highway,North East,MD,21901,610-932-7711
Jtl Xpress,21605 2nd Street,Laytonsville,MD,20882,240-252-8346
Eze Trash Removal,14632 Governor Sprigg Place,Upper Marlboro,MD,20772,301-467-3861
Choyce Logistics,513 L Progress Drive Suite L,Linthicum,MD,21090,410-789-0220
Delivery Service,6106 Lamont Drive,New Carollton,MD,20784,800-451-9710
Po Kee Trransportation,4744 Old Court Road,Pikesville,MD,21208,410-227-8970
H & H Trucking,2913 Harper Road,Federalsburg,MD,21632,410-754-8028
"Will Browns Truck Repair, Inc.",25 Phillips Industrial Park Drive,Cambridge,MD,21613,410-228-4385
William Transportation,14107 Riverbirch Ct,Laurel,MD,20707,703-956-0138
Stine Transportation,300 Northern Ave Apt 5b,Hagerstown,MD,21742,240-441-9509
Cj's Automotive Services,7401 Church Hill Road,Chestertown,MD,21620,410-810-1616
Moreno Trucking,6413 63rd Avenue,Riverdale,MD,20737,240-237-5878
En Gang Shi,4419 Alan Dr Apt B,Baltimore,MD,21229,510-967-2857
Infinity Marine,2235 Seneca Rd,Baltimore,MD,21221,410-952-7066
"Y & I Expresss, Inc.",9615 Watts Road,Owings Mills,MD,21117,410-581-7857
"Lh Trucking, Inc.",208 Graiden Street,Upper Marlboro,MD,20774,301-390-4946
Restaurant Equipment Service,10412 Vincent Rd,White Marsh,MD,21162,410-335-0532
Cowboy Trucking,505 Blue Ball Rd Bldg 135,Elkton,MD,21921,410-620-3331
Howard Transport,4333 Skipton Ct,Upper Marlboro,MD,20772,301-574-0299
Whitney Express,110 Oak Street,Pocomoke City,MD,21851,410-957-9337
"J And S Trucking, Inc.",7800 Marlboro Pike,District Heights,MD,20747,301-735-0041
P S Holdings LLC,5902 Enterprise Court,Frederick,MD,21703,301-360-0060
D J Moore Trucking,908 Carrollton Avenue,Annapolis,MD,21401,410-268-1566
"Irrs, Inc.",3601 Commerce Dr Suite 112,Baltimore,MD,21227,410-247-8856
Excel Services,26778 Porter Mill Rd,Hebron,MD,21830,410-749-9933
"Sun America Transport, Inc.",12725 York Mill Ln ,Clarksburg,MD,20871,240-683-8877
B&m Express,10408 Bending Brook Way,Upper Marlboro,MD,20772,301-502-6064
Classic Limousine & Sedan Service,801 Highland Street,Frederick,MD,21701,301-663-4946
Elb Hauling,321 Delight Meadows Road,Reisterstown,MD,21136,443-744-1230
John Brown Trucking,9600 Wightman Rd,Gaithersburg,MD,20879,301-948-6948
Double S Trucking,17405 Croom Road,Baltimore,MD,20613,301-579-2133
Jhi Transport,885 Hudson Rd,Cambridge,MD,21613,410-228-8301
Tw Brockson Hauling,816 Murphy Road,Centreville,MD,21617,410-758-6699
Jbt Trucking,1805 Owens Road,Oxon Hill,MD,20745,301-894-4033
Pirates Cove Trucking,23194 Harrison Lane,Deal Island,MD,21821,410-218-1573
Esi Global Logistics,3916 Vero Road Suite M,Baltimore,MD,21227,410-242-2882
Jse Trucking,2512 Woodberry Street,Hyattsville,MD,20782,301-422-6955
Guzman Transport,3508 Greenly Street,Silver Spring,MD,20906,240-882-9326
Gsi,8111 Chapel Manor Lane,Ellicott City,MD,21043,410-480-3199
Glc & Freeman Trucking,8281 Streamwood Drive,Pikesville,MD,21208,410-922-1552
Sandys Trucking,120 Mincing Lane,Elkton,MD,21921,410-392-9424
Walt West Trucking,32143 Melson Road,Delmar,MD,21875,410-543-8039
Malat Lawn Care Services,451 E Baltimore St,Taneytown,MD,21787,410-756-6634
Midas Movers And Messengers Services,8855 Annapolis Road Suite 308,Lanham,MD,20706,301-306-0003
Franco Trucking,3812 Old Baltimore Drive,Olney,MD,20832,301-370-6952
A Bagley Trucking,5 Wildwood Pkwy21,Halethorpe,MD,21229,410-383-1797
J P Deliveries,9528 Treyford Terrace,Gaithersburg,MD,20886,301-947-5582
Autoleader,6207 Reistertown Road,Baltimore,MD,21215,410-318-8535
Green Mover,3305 Oak Street,Upper Marlboro,MD,20774,800-777-8917
Mes Trucking LLC,8865 Heathermore Blvd #t-s,Upper Marlboro,MD,20772,301-627-2906
Adams Trucking,5617 Biddison Avenue,Baltimore,MD,21206,410-426-5596
Parish Trucking,3500 Louth Road,Baltimore,MD,21222,410-361-0218
"Hadari Medical Transportation, Inc.",13810 Castle Blvd Apt 203,Silver Spring,MD,20904,301-847-8778
Brook-lodge Farm,3516 Sumantown Road,Middletown,MD,21769,301-371-5498
Riverview Farms,9830 Crumpton Road Rt 290,Millington,MD,21651,410-708-7455
D & E Empire Transportation,5302 Todd Ave,Baltimore,MD,21206,410-488-1979
Ulloa National Trucking LLC,8607 Lancaste Dr,Bethesda,MD,20814,301-915-8044
Tisons Auto Supply LLC,325 Quayl Drive,Sykesville,MD,21784,443-277-0451
"Discovery, Inc.",2036 Lord Baltimore Dr Ste R,Windsor Mill,MD,21244,443-865-3450
Heftrucklin Co,3000 Dogwood Trail,Annapolis,MD,21401,410-268-8995
Shady Lane Trucking,105 South Main Street,Galena,MD,21635,410-739-0542
Highlander Diesel Service,1637 Fairhill Drive,Edgewater,MD,21037,410-956-4172
Harrison's Independant Trucking,1615 Edmondson Avenue,Baltimore,MD,21223,410-523-3724
"Nash Trucking, Inc.",6212 Seminole St,Berwyn Heights,MD,20740,301-474-7533
C E Marine Services,7959 Hunt Ridge Rd,Pasadena,MD,21122,443-623-4424
Greenfield Home Service,129 Crescent Lane,Oakland,MD,21550,301-334-2148
Kelly J Koller,7002 Carmae Road,Sykesville,MD,21784,410-549-0188
Hinckley Yacht Services,202 Banks Street,Oxford,MD,21654,410-226-5113
Warr Daddy Trucking,5113 Wasena Avenue,Brooklyn,MD,21225,410-789-7758
American Lender Service Company,8522 Leslie Drive,Hagerstown,MD,21742,240-313-9100
Awsi,1001 Cranberry Run Road,Aberdeen,MD,21001,410-297-9416
American Transport,5130 Port Tobacco Road,Nanjemoy,MD,20662,301-246-4740
Garcia Trucking,258 Marganza South,Laurel,MD,20724,301-498-4317
Burgess Trucking,16005 Dorset Road,Laurel,MD,20707,301-317-5779
J Team Trucking LLC,2233 Columbia Place,Landover,MD,20785,301-386-5620
G&d Trucking,7474 Esham Road,Parsonsburg,MD,21849,410-835-8685
Aft Transport,1539 Merritt Blvd. #125,Baltimore,MD,21222,800-245-4722
Adams Trucking,8659 Adams Church Rd,Owings,MD,20736,410-279-2433
Id Movers,1846 East West Hwy,Silver Spring,MD,20910,301-221-5766
Carrolls Comfort Lines,2751 Marshall Hall Road,Bryans Road,MD,20616,301-404-7869
Rrp Auto Transport,4601 Melwood Road,Upper Marlboro,MD,20772,202-359-6394
Elh Transport,213 Survey Circle Dr 5,Fort Washington,MD,20744,202-360-7384
Ritchie Auto Outlet,7214 Ritchie Hwy,Glen Burnie,MD,21061,410-761-0440
El Coqui Trucking,221 N 3rd Street,Denton,MD,21629,410-463-1172
Step Of Faith Trucking,5015 56th Place,Hyattsville,MD,20781,301-779-4712
"Non Stop Auto Transport, Inc.",11808 Crestwood Avenue South,Brandywine,MD,20613,301-782-3999
Outdoor Expressions,19701 Old York Rd,White Hall,MD,21161,410-343-0575
Grays Trucking,9732 Ridgeview Drive,Owings,MD,20736,410-257-6958
Pitt Stop Auto,255 Severn Road,Millersville,MD,21108,410-544-0131
"R & P Trucking, Inc.",2932 Bristol Channel Court,Pasadena,MD,21122,410-439-2539
R & M Transprot,8518 Greens Lane,Windsor Mill,MD,21244,410-655-1750
Mts Mts Waste,1811 Greenwich Woods Drive #12,Silver Spring,MD,20903,240-398-1264
Krueger Transport,311 Argus Lane,Glen Burnie,MD,21061,410-787-8870
Bt Express,1135 Hull Street,Baltimore,MD,21230,410-752-0844
Jassidy Transport,901 Roslyn Avenue,Cambridge,MD,21613,410-228-3751
Miller's Auto Transport,20821 W Liberty Rd,White Hall,MD,21161,443-392-4708
Asset Logistics,4030 Holbrook Lane,Huntingtown,MD,20639,410-414-9663
Belmont Tv,9101 Marshall Avenue,Laurel,MD,20707,301-498-5600
Express 695,4519 Fairfax Road,Baltimore,MD,21216,410-367-8381
Earthworks,1721 Glenville Road,Havre De Grace,MD,21078,410-420-7735
"Val Trans Enterprises, Inc.",3395 Sonia Trail,Ellicott,MD,21043,443-277-5688
P City Express,2021 Cropper Court,Pocomoke,MD,21851,443-366-1978
Wiltrout Backhoe Service,110 East Hammaker,Thurmont,MD,21788,301-271-3218
Billie Fay Trucking,911 Sero Estates Dr,Ft Washington,MD,20744,240-304-8767
Mitch's Pool Service,14948 Ladymeade Circle,Silver Spring,MD,20906,301-598-3271
Betel Trucking,3816 Asquith Ct,Springdale,MD,20774,301-773-3170
K And G Trucking Service,6355 Browns Quarry Road,Sabillasville,MD,21780,301-241-3444
Dnd Trucking,4884 Cranston Court,Waldorf,MD,20602,301-374-2529
Wts Trucking,5329 Port Tobacco Road,Indian Head,MD,20640,301-375-7273
Boyd Trucking LLC,810 Buena Vista Avenue,Arnold,MD,21012,410-766-2233
Mts,10 Plummer Court,Germantown,MD,20876,301-370-4471
Mike Phillips Trucking,21235 Tanyard Rd,Preston,MD,21655,410-822-2253
Mbc Transportation LLC,108 Courtland Woods Circle,Pikesville,MD,21208,410-982-4547
Ck Services,12280 Dixie Dr,Bishopville,MD,21813,410-352-5478
R & B Trucking,7714 Fairgreen Road,Baltimore,MD,21222,410-285-2093
Eastern Bay Movers,1512 Postal Rd,Chester,MD,21619,410-643-6337
Truck For Hire,12005 Panthers Ridge Dr,Germantown,MD,20876,240-263-2002
Latin Flavor Food Distributors LLC,4820 Stamp Rd,Temple Hills,MD,20748,301-248-6552
John W Kegley Trucking,3305 Basford Road,Frederick,MD,21703,301-874-6006
Service Master,8415 Progress Dr Suite K,Frederick,MD,21701,301-662-5515
Schwatka's Farm Service,14326 Cuba Road,Cockeysville,MD,21030,410-584-2759
Billy Boy Trucking,6527 Livingston Road Apt201,Oxon Hill,MD,20745,215-239-5487
T & C Farm Service,4758 Solomons Island Road,Harwood,MD,20776,410-867-3222
Morgan's Auto Repair,668 West Pulaski Highway,Elkton,MD,21921,410-398-1288
"Arrow Environmental Services, Inc.",7 Pointless Forest Trail,Annapolis,MD,21401,410-320-1967
A & P Trucking,111 Cross Foxes Dr,Ft Washington,MD,20744,301-749-7271
T H Criss,3911 Rocks Road,Street,MD,21154,410-836-3020
Delivery And Transportation Service,5829 31st Place,Hyattsville,MD,20782,240-286-8585
Aeyob Trucking,14530 Almanac Drive,Burtonville,MD,20866,202-297-9259
S S Meat Distributors,1525 University Boulevard East,Hyattsville,MD,20783,301-439-8033
Jts Trucking,26229 Baptist Chruch Rd,Mechanicsville,MD,20659,301-884-0787
Tice's Trucking Co,1303 Wigeon Court,Upper Marlboro,MD,20772,240-893-1293
Rja Services,1319 Greenmont Drive,Waldorf,MD,20601,301-751-5132
Harrymans Auto Sales,1520 Furnace Avenue,Glen Burnie,MD,21060,410-760-9980
"Enviro Art Horticulture Services, Inc.",329 Worton Road,Baltimore,MD,21221,443-324-6410
Smitty's Transport LLC,8302 A Stevens Rd,Thurmont,MD,21788,240-674-6319
Eagle's Wing Transporation,3605 Frankford Ave,Baltimore,MD,21214,410-254-9548
Jp Carrier,1111 Larchmont Avenue,Capitol Heights,MD,20743,301-420-0505
Al Cheryl & Family Trucking & Yard Services,27060 Oxley Drive,Mechanicsville,MD,20659,301-274-9743
B-mac Transportation Co,10201 Everley Terrace,Lanham,MD,20706,301-459-6295
Gardiner Welding Services,13475 South View Road,Newburg,MD,20664,240-299-4235
Oak & Sons Trucking LLC,1706 Ingram Road,Baltimore,MD,21239,410-444-1016
Maya Trucking Services,3532 Pear Tree Court Apt 31,Silver Spring,MD,20906,301-793-0659
Delao Trucking,11442 Maple View Drive,Silver Spring,MD,20902,301-942-3239
1 Rate Movers,251 Harry S Truman Drive #31,Upper Marlboro,MD,20774,301-808-0388
Ray Ray's Tractor Service,5490 Bethlehem Road,Preston,MD,21655,410-310-6053
Ellis Trucking,12000 Cleaver Drive,Bowie,MD,20721,301-249-6385
Central Distributing,329 Chimney Oak Drive,Joppatowne,MD,21085,410-679-2844
Grizzlys Hauling Service,13327 Whitechurch Circle,Germantown,MD,20874,301-528-5905
Doo Doo Brown Express,802 Mago Vista Road,Arnold,MD,21012,410-647-6107
"Morris Siegel Co Div Of Service Solution, Inc. And City Wholesale",4131 Amos Avenue,Baltimore,MD,21215,410-764-1074
Yuri Green Trucking,7933 Grant Drive,Lanham,MD,20706,301-772-2842
Stewart Trucking,32343 Johnson Road,Salisbury,MD,21804,410-543-4815
Pevey Mechanical Services,5630 Bartonsville Road,Frederick,MD,21704,301-696-5599
White's Hauling,409 Mcbride Lane,Severna Park,MD,21146,410-647-3599
Westland Equipment Services,222 Westmain Street,Sharpsburg,MD,21782,301-465-0164
Crh Concrete Services,4917 Edmonston Road,Hyattsville,MD,20781,301-887-0353
R & R Trucking Co,500 Edgewood Street,Baltimore,MD,21229,410-947-1446
E & J Hall Trucking LLC,77 Pontiac Way,Gaithersburg,MD,20878,301-519-3447
Dlb Trucking,8211 Rison Drive,Brandywine,MD,20613,240-681-3390
B&b Mccarthy Movers,1907 Fenwood Ave,Oxon Hill Md,MD,20745,301-839-0040
Jtd Trucking,8414 Cypress Street,Laurel,MD,20707,301-806-5601
Bear Creek Trucking,1133 Underwood Road,Sykesville,MD,21784,443-463-4516
"Harrington Trucking, Inc.",105 Swiss Gap Road,Largo,MD,20774,202-350-7506
Hahn Pro-services LLC,19914 Gunpowder,Millers,MD,21102,410-374-9317
Stewart Hauling LLC,10501 Jib Court,Cheltenham,MD,20623,301-372-1196
Asg Trucking,1236 Four Winds Way,Essex,MD,21221,202-439-6101
Smithwick Horse Transportation LLC,4800 Hydes Road,Hydes,MD,21082,443-466-4321
Jefferson Trucking,2704 Cricklewood Drive,Fort Washington,MD,20744,301-248-4134
R L Faulcon Trucking,6742 Edwards Avenue,Salisbury,MD,21804,410-548-5827
David M Driggers,4905 Plata Street,Clinton,MD,20735,301-297-7090
Stallard Trucking,17 Robshire Manor Road,Huntingtown,MD,20639,410-414-9538
Mss Transportation LLC,12326 Cleghorn Rd,Cockeysville,MD,21030,443-957-4986
C And C Office Products,4584 Beech Road,Temple Hills,MD,20748,301-899-0533
W O F Services,5601 Leeway Court,Churchton,MD,20733,410-867-3545
Rush Transport,1530 Mcginnes Road,Chestertown,MD,21620,410-699-1315
Jim Davis Trucking,7717 Colonial Beach Road,Pasadena,MD,21122,410-439-0563
Badfoot Trucking LLC,9906 Jacqueline Drive,Fort Washington,MD,20744,301-248-2083
Paramount Movers,10810 Guilford Rd,Annapolis Junction,MD,20701,301-483-6508
Lcd Transport,4054 Blue Bird Dr,Waldorf,MD,20603,956-236-4498
"Dlh Moving And Storage, Inc.",8306 Patuxent Range Road,Jessup,MD,20794,301-776-1096
Wilsons Auto Center,203 Sunset Boulevard,Ridgely,MD,21660,410-634-2585
Dunn Trucking,5980 Newton Road L-19,Preston,MD,21655,410-673-2984
R B S Construction Services,9012 Crystal Falls Drive,Boonsboro,MD,21713,301-745-5892
D&g Trucking,13605 Hopkins Rd,Germantown,MD,20874,301-675-9701
K&k Transport,6908 Livingston Rd,Oxon Hill,MD,20745,301-686-0698
Tnt Trucking,7705 Kirby Manor Court,Clinton,MD,20735,301-343-0538
G&r Trucking,8733 Treasure Ave,Walkersville,MD,21793,240-409-1003
"Vargas & Sons Trucking, Inc.",4635 Baltimore Avenue,Hyattsville,MD,20781,301-922-1427
Jr Trucking,8338 Ridgely Oak Road,Baltimore,MD,21234,410-665-6015
Seko Worldwide,7045 Troy Hill Drive,Elkridge,MD,21075,410-379-2200
E And H Charter Transportation,50 South Franklintown Rd,Baltimore,MD,21223,410-945-9001
Esw Construction,5843 Conover Road,Taneytown,MD,21787,410-756-4621
Back To Back Trucking Service,3910 Washington Street,Baltimore,MD,21227,443-623-7999
John H Davis & Son's Trucking,2320 Timbercrest Dr,Forestville,MD,20747,301-333-8234
Stanley Trucking,26606 Idlewild Road,Federalsburg,MD,21632,410-754-9388
Purnell's Trucking,272 S Washington Street,Snow Hill,MD,21863,410-632-1215
Distributor,10919 Outpost Drive,Gaithersburg,MD,20878,301-251-8988
Shaffer & Sons Trucking,6209 Kirby Road,Clinton,MD,20735,301-297-8379
D&w Automotive Machine Shop Service,104 North Church Street,Sudlersville,MD,21668,410-438-3331
H M Perkins Trucking Co,511 67th Place,Seat Pleasant,MD,20743,301-499-3810
"Bowman, Inc.",7208 Goblet Court,Clinton,MD,20735,301-868-1045
Wj Trucking,12310 Kemmerton Lane,Bowie,MD,20715,301-805-9679
"Wb's Trucking, Inc.",7307 Milford Rd,Forestville,MD,20747,202-497-8938
Vette Wreaks,4722 St Barnadas Rd,Marlow Hgts,MD,20748,301-873-6103
Brothers 5 Auto Center,3015 Rolling Rd,Baltimore,MD,21244,410-566-8615
Elite Transport,1621 Sudlerrsville Rd,Sudlersville,MD,21668,410-556-6354
D & N Auto Parts,200 W 5 St,Frederick,MD,21701,301-662-5571
Dawn Moving,2036 Lord Baltimore Dr Ste R,Windsor Mill,MD,21244,410-242-4411
Jay- Jay's Auto Transport,138 Razor Strap Rd,North East,MD,21901,410-287-4697
"P & M Transportation, Inc.",127 Coral Reef Terrace,Gaithersburg,MD,20878,301-252-4384
Jlk Transport,18810 Nathans Place,Montgomery Village,MD,20886,301-502-8206
Radiator Warehouse,4880 Stamp Road,Marlow Heights,MD,20748,301-702-0141
T&c Trucking,107 Beechwood Lane,Grantsville,MD,21536,301-895-3246
Arrow Spouting Service,10109 Saint George Circle,Hagerstown,MD,21740,301-797-8775
Willis Trucking LLC,4537 41st Ave,Brentwood,MD,20722,240-417-4603
Tesco,8176 Telegraph Road Suite E,Severn,MD,21144,410-551-9300
Dj Transport,499 Lisa Ave,Odenton,MD,21113,410-672-1121
Aaron Moving Company,7909 Cryden Way,Forestville,MD,20747,130-142-0665
Mmj Enterprise,1203 Briar Post Ct,Bel Air,MD,21015,443-616-6766
Miao Miao Food Services,7710 Spreading Oak Lane,Elkridge,MD,21075,410-379-1962
Cuz-n-em Trucking LLC,18005 Sappling Court,Accokeek,MD,20607,301-283-3963
M&s Trucking,12759 Still Pond Road,Still Pond,MD,21667,410-348-2238
Cruiser Transportation Services,12417 Cecily Court,Upper Marlboro,MD,20774,301-249-8089
Castro Deliveries,14405 Briarwood Terr,Rockville,MD,20853,301-953-0573
Ralph Meyers Distributing,17321 Virginia Ave,Hagerstown,MD,21740,301-992-2710
Terry's Skidloading Service,10313 Hayes Landing Road,Berlin,MD,21811,410-641-2029
R & E Trucking,1115 Pemberton Lane,Lothian,MD,20711,410-741-9264
Urban Movers,1268 East North Ave,Baltimore,MD,21202,410-366-0466
John W Gilbert Trucking,8058 Quarterfield Rd,Severn,MD,21144,410-969-2636
Dicd Transportation,6301 Beluga Ct,Waldorf,MD,20603,301-893-2834
Drwj Auto Transport,3452 Brinkley Rd Apt #403,Temple Hills,MD,20748,240-375-4362
Agra Verde LLC,82 Alco Place,Baltimore,MD,21227,866-837-3344
Wc Trucking,4311-2 Osbourne Rd,Hurlock,MD,21643,410-943-4653
K W Shipping & Moving Services,9345 Dubarry Ave,Lanham,MD,20706,301-408-0168
Flb Trucking,13065 Good Samaritan Drive,Waldorf,MD,20601,301-843-5294
Tom Barton Trucking,108 Cooper Ave,Rising Sun,MD,21911,410-658-4367
Predator Trucking,9610 Ironleaf Trail,Laurel,MD,20723,240-393-5775
Uti Motor Coach,1010 Rockville Pike Suite #208,Rockville,MD,20852,301-762-8200
Lil E's Trucking,5305 Tinkers Creek Place,Clinton,MD,20735,301-297-7888
Jr Stevens Jr Trucking,1020 West Shore Drive,Edgewood,MD,21040,410-676-0534
Lagniappe Tours And Travel Services,4188 Suitland Road #101,Suitland,MD,20746,240-455-3226
H & H M & L Raynor,222 Sunset Drive,Glen Burnie,MD,21060,410-553-6355
Shallow Valley Trucking,18013 Davis Lane,Boonsboro,MD,21713,301-582-5748
Gomez & Gomez Trucking,9446 Worrel Avenue,Lanham,MD,20706,443-623-7636
J&n Trucking,37 Macintosh Drive,Colora,MD,21917,410-658-6899
Veratis,1730 Waldorf Court,Crofton,MD,21114,443-336-5962
Zamvill Trucking,13415 New Hampshire Av,Silver Spring,MD,20904,301-933-0339
K L D Trucking,6700 Lake Park Drive Suite 202e,Greenbelt,MD,20770,301-552-0279
Mae B Transporters,12900 Tobacco Trail Lane,Brandywine,MD,20613,301-343-0136
World Trade Transport,8157 Santa Fe Drive,Severn,MD,21144,443-722-4814
Depaz Furniture Service,30 Steven Ct,Gaithersburg,MD,20877,240-477-4788
C & L Trucking,224 Brooklyn Ave,Federalsburg,MD,21632,410-754-0367
Yardman Services,11124 Forest Ave Ne,Cumberland,MD,21502,301-777-5455
Go Minis,1537 South Philadelphia Blvd,Aberdeen,MD,21001,410-297-6464
Mullins Trucking,10960 Kemps Nursery Rd,Princess Anne,MD,21801,443-235-4383
M & R Delivery Svc LLC,160 W North Ave,Hagerstown,MD,21740,301-797-1492
"Little Andre's Delivery Services, Inc.",1634 East Belvedere Avenue,Baltimore,MD,21239,410-433-6112
Cain's Yard Service,12310 Delwood Ave,Hagerstown,MD,21740,301-797-1356
Mastiffs Transportation,18 S Throughgood Lane,Easton,MD,21601,410-763-9363
Ceaser Transport,710 B Barrington Drive,Waldorf,MD,20602,301-843-0691
Williams Trucking,667 Audrey Lane Tt2,Oxon Hill,MD,20745,301-485-8525
Limited Liability Company,13006 Marlton Center Drive,Upper Marlboro,MD,20772,202-288-7837
Rjr Trucking,1700 Walkus Ct,District Heights,MD,20747,301-333-8606
Safari Trucking,1634 Riverwood Road,Baltimore,MD,21221,770-205-0218
Family Trucking,7043-2 Williamsburg Church Rd,Hurlock,MD,21643,410-673-2695
Pc Recycling & Trash Hauling,6307 57th Avenue,Riverdale,MD,20737,240-460-8354
Johnnyboyz Trucking,9205 Cedarville Rd,Brandywine,MD,20613,410-549-0109
R L Williamson Trucking,8848 Wood Creek Parkway,Delmar,MD,21875,410-896-2727
Virts Auto Sales,3575 Kitzmiller Road,Kitzmiller,MD,21538,301-453-3533
Craig Enterprise Trucking Service,12823 Dunkirk Drive,Upper Marlboro,MD,20772,301-780-8852
J W B Transport,10843 Alyssa Lane,Waldorf,MD,20603,301-705-5878
J T T Transport,174 Carnival Drive,Taneytown,MD,21787,410-756-1417
Drd Trucking LLC,319 Wende Ct,Glen Burnie,MD,21061,202-787-8711
Phoenix Brokerage,12710 Willow Marsh Lane,Bowie,MD,20720,301-352-7211
Sonny & G Automotive,13200 Crain Hwy,Brandywine,MD,20613,301-576-9921
"Tropical Trucking, Inc.",4423 Lehigh Road 456,College Park,MD,20740,202-498-2893
B&e Trucking,4805 Webster Street,Federalsburg,MD,21632,410-754-9022
Arnolds,26822 Baptist Church Rd,Mechanicsville,MD,20659,301-884-7411
Bland Trucking,4014 Bradley Circle,Hurlock,MD,21643,410-943-1790
"Europarts Express, Inc.",15103 Southlawn Ln,Rockville,MD,20850,301-294-0000
The Delivery Co,3822 Early Glow Ln,Bowie,MD,20716,202-437-3569
Kms Trucking,16310 Accolawn Road,Accokeek,MD,20607,301-283-6437
Piramide Transport,804 E Franklin Avenue,Silver Spring,MD,20901,301-588-3469
Peruvian Home Delivery Service,302 Melvin Ave Apt B,Catonsville,MD,21228,410-455-0184
"A&c Trucking, Inc.",5032 Silver Hill Court #101,District Heights,MD,20747,301-420-4999
Amal Delivery Express,7019 Cherry Avenue,Elkridge,MD,21075,301-302-1052
S & A Auto Sales LLC,520 Radnor Avenue,Baltimore,MD,21212,410-435-4305
James W Leonard LLC,86 Red Pump Road,Rising Sun,MD,21911,410-658-9962
A & L Trucking,9516 Silver Fox Turn,Clinton,MD,20735,301-856-4955
A To Z Hauling And Demolition,530 Brunswick St,Brunswick,MD,21716,301-834-8913
Mc Neal Services,1826 Sunnyside Lane,Baltimore,MD,21221,443-829-2660
Citywide Moving And Storage,1205 Edmonston Drive,Rockville,MD,20851,301-762-9065
C H Trucking,1324 Walker Ave,Baltimore,MD,21239,443-692-5591
Flatbush Trucking,5120 River Road,Hurlock,MD,21643,410-754-7196
North East Moving Svc,17316 Germantown Road,Germantown,MD,20874,301-515-2527
Elvaton Auto & Truck Svc,7505 Baltimore Annapolis Blvd,Glen Burnie,MD,21060,410-766-5542
Strictly Trucking,3107 Lunar Court,Laurel,MD,20724,301-362-1333
Cable Underground Services,734 Marriottsville Rd,Marriottsiville,MD,21104,410-442-2009
Tm Trucking Company,5305 Coronet Court,Frederick,MD,21703,202-271-2243
Torrez Trucking,5 Young Branch Drive,Middletown,MD,21769,304-267-3089
Genesis Emergency Equipment,716 S Philadelphia Blvd,Aberdeen,MD,21001,410-575-7300
Jcr Transportation,13104 Georgia Ave,Silver Spring,MD,20906,301-523-4226
Abacorp Logistic,3508 Fairfield Road,Baltimore,MD,21226,410-354-1057
Mcm Trucking,2606 Little Vista Terrace,Olney,MD,20832,240-832-5514
F S Schutt Trucking,8735 Pebble Place,Charlotte Hall,MD,20622,301-884-3961
J Provost Distributors,10100 Stewart Neck Road,Princess Anne,MD,21853,410-651-9795
Praise Trucking,9616 Allerton Terrace,Clinton,MD,20735,301-877-9703
Roach Trucking,6077 Landing Neck Rd,Easton,MD,21601,410-822-3563
Church,325 Saint John Street,Havre De Grace,MD,21078,410-939-3353
All Around Transport,310 Rosslare Dr,Arnold,MD,21012,410-757-2500
Witt Boy's Auto Heaven,14725 Mulanney Ave Nw,Mount Savage,MD,21545,301-264-3760
Rdw Trucking,10325 Whittier Ct,White Plains,MD,20695,202-309-3574
Joynes Moving & Hauling,813 Miami Ave,Salisbury,MD,21801,410-749-8616
W H Trucking LLC,12112 Windbrook Dr,Clinton,MD,20735,301-292-2767
C & C Trucking,13912 Carlene Dr,Upper Marlboro,MD,20772,301-627-2227
Kwamco,9606 Grand Haven Ave,Upper Marlboro,MD,20772,240-375-2769
Lucic Trucking,2972 Turkey Point Road,Northeast,MD,21901,410-287-3466
Installnet Washington,1585 Sulpher Spring Road Ste 1,Baltimore,MD,21227,410-242-4505
Highlandtown Wholesale Distributors,4240 Shannon Drive Suite G,Baltimore,MD,21213,410-488-7101
United Fleet Service LLC,1149 Locust Tree Drive,Annapolis,MD,21401,410-897-2002
Ford Distributors,419 Sheldon Ave,Fruitland,MD,21826,410-749-0428
C&j Transfer Of Md,4425 Crain Highway,White Plains,MD,20695,301-672-1160
Turf Master & We-haul,16223 Redland Road,Derwood,MD,20855,301-527-0437
Mol Transport,1534 Andover Lane,Frederick,MD,21702,301-682-3939
K F Weber Trucking LLC,3814 Tudor Arms Ave,Baltimore,MD,21211,443-676-4000
Excalibur Trucking LLC,11732 Capstan Drive,Upper Marlboro,MD,20772,202-369-3933
C B Scott Trucking,1221 Branch Lane,Glen Burnie,MD,21061,410-760-4744
M & D Recycle & Delivery,7804 Pinewood Dr,Clinton,MD,20735,301-297-7253
Vf Movers,13406 Fountain Club Drive,Germantown,MD,20874,301-916-1162
Turnbull's Trucking LLC,9800 Kerries Ct,Perryhall,MD,21128,410-931-1601
R T Sewell Trucking Co,56 Maple Hill Drive,Port Deposit,MD,21904,410-378-4638
M & G Hauling,213 South Bohemia Avenue,Cecilton,MD,21913,410-275-8249
Sam's Transport,6912-d Lachlan Circle,Baltimore,MD,21239,209-649-7232
Rawlings Trucking,2343 Butte Place,Waldorf,MD,20603,301-638-5258
Miterina Trucking Co,5362 Quincy Pl Apt#102,Hyattsville,MD,20784,240-667-1376
C W Wellstransportation,3202 Southgreen Rd,Baltimore,MD,21244,410-444-0900
Doug Boone Trucking,328 Sparks Mill Rd,Centreville,MD,21617,410-556-6395
Bread Delivery,12855 Piney Craig Place,Hughesville,MD,20637,240-299-9182
Delmarva Crusting And Loader Service,31321 Carioca Road,Delmar,MD,21875,410-896-4320
Taylor Distributor,10405a 46th Ave #303,Beltsville,MD,20705,301-937-8420
Electrcal Services,26315 Woodridge Drive,Mechanicsville,MD,20659,301-884-5562
Santos Trucking,9305 Kimbark Ave,Lanham,MD,20706,301-459-2257
Coffee Distributors,01038-7710 Maple Ave,Takoma Park,MD,20912,800-251-6346
Diallo Trucking Com,744 Maple Crest Dr,Essex Baltimore,MD,21220,410-940-1262
Stephen's Handyman Services,19535 Middletown Road,Freeland,MD,21053,410-343-2253
Rvb Transportation,4518 Beech Rd Ste 395,Temple Hills,MD,20748,301-324-6988
Tiger Transport,41000 Newmarket Turner Road,Mechanicsville,MD,20659,301-274-3190
K And W Trucking,3420 Tewkesbury Rd,Abingdon,MD,21009,410-612-0668
Dti,45483 Heather Street,Great Mills,MD,20634,240-723-3131
Rb Willis Trucking,6616 Briarpatch Rd,Hurlock,MD,21643,410-822-8015
Buie Transport,5477 Morris Ave,Clinton,MD,20746,301-574-9535
C A Bannerman Hauling,3717 Dianna Rd,Suitland,MD,20746,301-568-1568
Baby Dog Trucking,391 Broadwater Ln,Swanton,MD,21561,301-245-4127
Lbw Transport,707 Quarry Avenue,Capitol Heights,MD,20743,301-350-9039
Gilkesson Trucking,4235 Muncaster Mill Rd,Rockville,MD,20853,301-743-5633
John Sayler Trucking,1643 Poole Road,Darlington,MD,21034,410-399-2468
Rainbow Trucking,13305 Van Brady Road,Upper Marlboro,MD,20772,301-888-1396
Parker Trucking,2031 Brooks Dr # 102,District Hgts,MD,20747,301-736-5380
"Andrews Trucking, Inc.",15 Calvary Road,Churchville,MD,21028,410-734-6388
Sun Trucking,12115 Tawny Ln,Bowie,MD,20715,301-262-7586
L R Post Trucking,5785 Homestead Street,Salisbury,MD,21801,410-217-5785
Auto Transport Specialist,200 Cypress Creek Rd,Severna Park,MD,21146,410-647-0684
J F H Trucking Co,2628 Meredith Road,White Hall,MD,21161,410-343-1237
Touche Transportation,6913 Groveton Dr,Clinton,MD,20735,301-877-9310
Diamond Transport,7313 Longfield Dr,Kingsville,MD,21087,410-256-9400
A & A Transportors,8635 Greenbelt Rd # 204,Greenbelt,MD,20770,301-552-5629
Belle's Shuttle Service,301 Shepherd Ave,Cambridge,MD,21613,410-228-7354
C R S N,11064 H Livingston Rd,Fort Washington,MD,20744,301-282-5995
B & R Trucking,241 5th Street,Lothian,MD,20711,410-741-9504
Cokesbury Trucking,5628 Cokesbury Road,Rhodesdale,MD,21659,410-943-3584
Elbert Heard Jr Trucking Company,6549 Hil Mar Dr #204,Suitland,MD,20752,240-350-6619
Samm's Transport,10412 Elders Hollow Drive,Mitchellville,MD,20721,301-336-2571
Smitty's Auto & Truck Parts,8229 Baltimore-annapolis Blvd,Pasadena,MD,21122,410-437-3100
"C J R Trucking, Inc.",11507 Coral Root Court,Mitchellville,MD,20721,301-218-4039
Pecola Transport,10213 Indian Summer Ct,Bowie,MD,20721,301-918-0985
Jamrock Trucking,102 Nettleton Ct,Baltimore,MD,21244,410-944-7903
Crab Cake Express,1020 Bayshore Court,Salisbury,MD,21804,410-742-0935
Sea Best Express,2324 Eskow Ave,Baltimore,MD,21227,410-737-4995
T J & Son Trucking,15005 Leeland Rd,Upper Marlboro,MD,20774,800-916-0143
A-1 Fence Services,12622 Unger Rd,Smithsburg,MD,21783,301-824-7005
Deeble Delivery Service,420 Joppa Farm Road,Joppa,MD,21085,410-679-7655
1st Class Express Delivery Service,8719 D'arcy Rd,District Heights,MD,20747,301-499-3696
Tcf Transport,4228 Kenny Street,Beltsville,MD,20705,301-937-6680
C G D Trucking,210 A Hill Top Lane # 103,Annapolis,MD,21403,410-295-7880
A B Trucking,3023 Beech Bottom Rd,Laurel,MD,20724,301-498-3512
Oscar Cat Trucking,929 Stablersville,Parkton,MD,21120,410-343-2096
Hott,3320 Dunwood Crossing Drive,Bowie,MD,20721,301-218-3555
Melton Trucking,1418 Towson St,Baltimore,MD,21230,410-962-8958
Masons Trucking,320 East Manning Rd,Accokeek,MD,20607,240-253-3756
Brandon's Moving & Storage,616 Lucky Leaf Circle,Baltimore,MD,21228,410-869-9505
Transport East,7408 Todds Wharf Rd,Preston,MD,21655,410-479-5632
"M C L Transport, Inc.",555 Bowie Shop Rd,Huntingtown,MD,20639,410-535-3213
Kyle Trucking,110 C Royal Oak Drive,Bel Air,MD,21015,410-365-9922
W & W Trucking Ltd,422 E 23rd St,Baltimore,MD,21218,410-243-0459
Booths Trucking,14517 Duckett Rd,Brandywine,MD,20613,301-372-8010
Haygood Trucking,11170 Norris Twilley Rd,Mardela Springs,MD,21837,443-614-3502
Morris Trucking,827 Copley Avenue,Waldorf,MD,20602,301-645-3789
Ddp Express,10414 Beaver Knoll Drive,Upper Marlboro,MD,20772,240-882-7170
J C Trucking,716 Kings Lane,Fort Washington,MD,20744,301-203-1996
Jap Trucking,12305 Center Hill Street,Wheaton,MD,20902,301-929-0527
Brown Trucking,3396 Curtis Dr #303,Suitland,MD,20747,301-423-1281
"Three I Trucking, Inc.",5302 Trent St,Clinton,MD,20735,301-877-1247
Back-kracker & Sons Trucking,2015 Oakwood Lane,Forestville,MD,20747,301-735-9657
Tori Trucking,8981 Centerway Rd,Gaithersburg,MD,20879,N/A
Cpo Express,10708 Bridlerein Terrace,Columbia,MD,21044,240-375-1081
Concrete & Masonry Services,47 Thomas Ave,Baltimore,MD,21225,410-957-0398
Straightway Trucking,2034 East Belvedere Avenue,Baltimore,MD,21239,410-319-6181
W W Trucking,2025 Donds Wood Road,Huntington,MD,20639,410-495-9730
Harrison Trucking,3919 Hampden Street,Kensington,MD,20895,301-949-8631
Emt Transportation Services,7542 E Howard Road,Glen Burnie,MD,21060,410-766-1964
Village Auto Brokers,1418 Main St,Stevensville,MD,21666,410-643-7776
Greaser Trucking,Cherry Street,Kitzmiller,MD,21538,304-693-7391
Mama's Boy Trucking LLC,1711 St Margarets Rd,Annapolis,MD,21409,410-757-8410
Bennett Deliver Service,6724 Parkwood St,Hyattsville,MD,20784,301-899-2010
R R G Trucking,335 Skinner Turn Rd,Owings,MD,20736,410-257-2845
United Marine Hauling,48591 Smith Dr,Ridge,MD,20680,301-872-5961
Korell's Trucking,27001 River Bridge Road,Henderson,MD,21640,443-262-6453
B-one Trucking,5964 American Corner Rd,Denton,MD,21629,410-754-0706
Restorx Of Montgomery County,7826 Airpark Road,Gaithersburg,MD,20879,301-670-1100
P J Transportation,7604 Jaffrey Road,Ft Washington,MD,20744,301-265-1112
M & I Transport,704 Quarry Avenue,Capitol Heights,MD,20743,301-333-5188
T & P Delivery,6380 Woodburn Ave,Elkridge,MD,21075,410-796-0077
J B Cunningham Sr Trucking,1140 Bradley Drive,West Minster,MD,21158,410-857-3825
Wilson's Hauling,Pobox 31,Severna Park,MD,21146,410-315-7535
F T Trucking,7839 James Ford Rd,Baltimore,MD,21222,443-388-2049
Fraley Mobile Home Repair And Services,9950 Kelly Road,Walkersville,MD,21793,301-898-5411
Hollywood Transport Service,2707 Keating Street,Temple Hills,MD,20748,301-899-9893
J Farrell Trucking,39180 Chaptico Road,Mechanicsville,MD,20659,301-884-8498
R T Bears Trucking,25575 Auction Road,Federalsburg,MD,21632,410-754-9195
"R B C Trucking, Inc.",2417 Huron St,Baltimore,MD,21230,410-977-5111
J & M Trucking,20939 Twin Springs Dr,Chewsville,MD,21721,301-733-6376
Junior's Trucking Md,9611 Wellington Street,Lanham,MD,20706,301-306-7980
D W Trucking,4925 Maiden Forest Rd,Rhodesdale,MD,21659,410-943-4813
Express Supply Corp,6512 Cedar Fiunance Circle,Glen Burnie,MD,21061,410-787-0692
I C Cable Services,15815 Paramount Dr,Rockville,MD,20850,540-818-0114
"K & K Milk Transport, Inc.",3112 Grier Nursery Rd,Forest Hill,MD,21050,410-836-7924
Good Movers,9184 E Hampton Drive,Capitol Heights,MD,20742,301-333-2424
D E Wallech & Sons Trucking,1363 Salem Avenue,Hagerstown,MD,21740,301-739-5737
B C A Trucking,2340 Millersville Road,Cooksville,MD,21723,410-909-0042
Dynasty Trucking,4608 Eaton Drive,Suitland,MD,20746,301-899-6541
"Jag Transport, Inc.",234 S Castle Street,Baltimore,MD,21231,410-534-0866
Lana Trucking,1735 Oakland Rd,Freeland,MD,21053,410-343-0324
Undecided Trucking,23434 Ivans Road,Preston,MD,21655,410-673-2370
Carter Trucking,24380 Shore Highway,Denton,MD,21629,410-820-2356
J And L Chartered Services,3912 Coach Lane,Suitland,MD,20746,301-899-3080
Chesapeake Transport & Recovery,18318 Timko Lane,Germantown,MD,20874,301-540-1215
U-save Auto Rental,910 Taylor Avenue,Towson,MD,21286,410-337-7342
Mcrae's Professional Movers,7100 Willow Hill Dr,Seat Pleasant,MD,20743,301-808-6998
N & S Transport,17411 Clagettlanding Rd,Upper Marlboro,MD,20774,301-218-5800
J R Trucking,4805 Muskogee St,College Park,MD,20740,443-296-7576
L & R Trucking,11711 Troy Court,Waldorf,MD,20601,301-885-1280
Jenkins Expedited Freight LLC,7940 Citadel Drive,Severn,MD,21144,240-882-8100
Randy's Trucking,4204 Hanwell Road,Randallstown,MD,21133,410-521-3338
B & K Trucking,4890 Fantasia Place,Laplata,MD,20646,301-743-6878
Sabatino's Trucking Co,7460 Conowingo Ave Ste 21,Jessup,MD,20794,410-476-7197
C&j Custom Hauling,6230 Pea Hill Rd,Hurlock,MD,21643,410-943-8914
L & R Trucking,520 South Highland Avenue,Baltimore,MD,21224,410-547-0378
Jones Trucking Company,12324 Charles Rd,Silver Spring,MD,20906,301-929-5212
Ransome Trucking,Po Box 12,Brandywine,MD,20613,703-277-4104
Brooks Transportation,1501 Bayly Road,Cambridge,MD,21613,410-228-8231
Cars & Cycles Express Transport,1516 Pacific Avenue,Capitol Heights,MD,20743,888-280-2914
J & J Trucking,5327 Archie Jones Road,Willards,MD,21874,410-835-2765
Jeffrey D Neal Trucking,193 Woods Dr,Annapolis,MD,21403,N/A
Lott Trucking,11482 Still Pond Road,Worton,MD,21678,410-778-0767
Outlaw Truck Works,2217 Sandalwood Dr,Waldorf,MD,20601,301-653-6958
Rod Transport,17721 Toppield Drive,Gaithersburg,MD,20877,301-924-6699
Harrod's Trucking,11410 Cherry Hill Rd #301,Beltsville,MD,20705,301-937-9460
"Three Brothers Transportation, Inc.",8237 1st Ave Apt 102,Hyattsville,MD,20783,240-882-7385
"Cusic Trucking, Inc.",Box 62 Abell Rd,Avenue,MD,20609,301-769-4989
Rc Transport,5111 Lorraine Drive,Temple Hills,MD,20748,301-316-5448
Cokesbury Trucking,5646 Cokesbury,Rhodesdale,MD,21659,410-943-3584
Pinder Trucking,4806 Webster Street,Federalsburg,MD,21632,410-754-7634
T & T Trucking,4211 Belvieu Ave,Baltimore,MD,21215,410-578-3453
Central Avenue Auto Outlet,8621 Central Ave,Capitol Heights,MD,20743,240-375-8885
Cleon W Dunnock Trucking,4403 Harrisville Rd,Woolford,MD,21677,410-943-4739
K Wilson And Son Trucking,1389 Blue Ball Rd,Elkton,MD,21921,443-466-7598
V & S Trucking,9116 Croom Rd,Upper Marlboro,MD,20772,301-574-1915
Goodpeoples Transport & Entertainment Sysyems,4215 Cottage Terrace,Cottage City,MD,20722,301-699-0237
Watts Trucking,913 Logwood Road,Capitol Heights,MD,20743,301-350-1918
A V G Trucking Company,8205 Steve Drive,District Height,MD,20747,240-619-3653
Ccs Trucking,3 Climbing Ivy Court,Germantown,MD,20874,301-206-0453
S Lyles & Son Trucking,18956 Quail Valley Blvd,Gaithersburg,MD,20879,N/A
E & E Trucking,7443 Calder Dr,Capitol Heights,MD,20743,301-324-0001
Paramount Vending,8260 F Patuxent Range Rd,Jessup,MD,20794,301-317-4330
Robinson Services,1706 Peach Blossom Ct,Mitchellville,MD,20721,301-925-8055
Keith Truxon Trucking,202 Granby Street,Denton,MD,21639,410-490-1901
4 B Transportation,27 Ginty Dr,North East,MD,21901,410-287-0656
F A Keplinger & Sons Trucking,1843 Red Toad Road,Port Deposit,MD,21904,410-378-5781
Dixon Moving Service,9205 Centerway Rd,Gaithersburg,MD,20886,301-670-1016
Slm Transportation LLC,4660 Warpath Drive,Hampstead,MD,21074,410-239-8465
B And B Transport,4800 Richard Ave,Baltimore,MD,21214,410-426-4314
"Reyclable Residuals Trans Service, Inc.",2323 Marston Rd,New Windsor,MD,21776,410-635-3292
Warthen Services,26325 Mullinix Mill Road,Mount Airy,MD,21771,301-482-2114
Craig's Trucking,6815 Danford Dr,Clinton,MD,20735,301-856-1763
Sandmark Horse Transportation,2214 Old Taneytown Rd,Westminster,MD,21158,410-857-9694
Titan Transport,10863 Pam Drive,Waldorf,MD,20603,301-643-3843
"Citgo Car Care, Inc.",701 W 34th Street,Baltimore,MD,21211,410-235-4122
Md Richardson Trucking,30051 Revellsneck Rd,Westover,MD,21871,410-651-2449
T Smith Trucking,9817 Meadowview Drive,Newburg,MD,20664,301-259-4379
Spring Meadow Express,1309 E Spring Meadow Court,Edgewood,MD,21040,410-538-5835
Reynolds Express,3124 Willoughby Rd,Baltimore,MD,21234,443-562-4701
A E Tibbs Trucking,10602 Gay Court,Upper Marlboro,MD,20772,301-856-8026
K S A Jr Transport,11811 Randy Ln,Laurel,MD,20708,301-490-2729
M Drakeford Trucking,4245 58th Ave #t2,Bladensburg,MD,20710,301-927-7343
Pineda's Trucking,11702 Newport Mill Rd,Silver Spring,MD,20902,301-949-9572
K E Trucking,403 Fairlea Drive,Edgewater,MD,21037,410-798-1790
Willis Family Trucking,8616 Woodyard Rd,Clinton,MD,20735,240-832-7989
Bent'ler Transportation Services,9805 Huxley Drive,Lanham,MD,20706,301-306-5231
Somerfield Aerial Service,903 East Rd,Salisbury,MD,21801,410-548-2016
Grant Trucking,13608 Royal Court,Laurel,MD,20708,202-669-7848
Silver Heels Transport LLC,82 West Washington Street,Hagerstown,MD,21740,301-674-3915
Lambert's Trucking,6049 Taneytown Pike,Taneytown,MD,21787,410-820-8132
Bobby C's Trucking,361 Forest Beach Rd,Annapolis,MD,21401,410-757-1287
Ksa Transport,11811 Randy Ln,Laurel,MD,20708,301-490-2729
Ldp Transport Enterprise,14700 4th St #10,Laurel,MD,20707,301-776-7862
Jb's Trucking,40520 Kavanagh Road,St Mary's,MD,20659,301-475-3205
Laro Trucking,9005 Philadelphia Road,Baltimore,MD,21237,443-414-2200
Hotshots Unlimited,90 Waverley Drive Apt P104,Frederick,MD,21702,301-512-3469
Green's Farms & Transportation,1908 Stone Road,West Minster,MD,21158,410-848-3048
Alarcon Trucking,4005 Stoconga Dr,Beltsville,MD,20705,301-931-0384
R Scott Trucking,209 Carroll Road,Centreville,MD,21617,410-820-8132
Pryor & Son's Trucking,9010 Marley Drive,Randallstown,MD,21133,410-655-1504
Bay State Moving And Storage Co,1300 Saran Ct,Odenton,MD,21113,888-962-7100
Kloo Express Transportation,7734 Washington Blvd,Elkridge,MD,21075,301-807-5748
T N Means Trucking,1362 Becknell Avenue,Odenton,MD,21113,410-672-2273
J & D Trucking,208 Tilghman Ave,Federalsburg,MD,21632,410-754-8642
Walter E Powell Hauling,1130 Wiseburg Rd,Whitehall,MD,21161,410-357-0221
Joe's Automotive Service Center,5925 Crain Hwy,La Plata,MD,20646,301-609-3131
C S Pinkney Trucking,11414 Croom Rd,Upper Marlboro,MD,20772,301-952-0878
Fael Trucking,8223 Barrett Road,Fort Washington,MD,20744,301-567-7052
Belle's Trucking,7039a Williamsburg Church Rd,Hurlock,MD,21643,410-673-2184
Rober Wise & Sons Trucking,219 Laurel St,Pocomoke,MD,21851,410-957-9596
Transportation Services,2905 Kidder Rd,Clinton,MD,20735,301-292-0295
Rhoten Trucking,17713 Backbone Road,Parkton,MD,21120,410-374-2530
New Era Cartage,705 Kingston Rd,Baltimore,MD,21212,410-780-7137
Q & A Trucking,9142 Springhill Lane,Greenbelt,MD,20770,301-441-1592
S & N Family Transportation,4820 Frolich Lane,Hyattsville,MD,20781,703-856-8985
Catoctin Mountain Express,15750 Kelbaugh Rd,Thurmont,MD,21788,301-271-4968
Cross Trucking,16934 Strawberry Knoll,Hagerstown,MD,21740,301-797-6003
Eskridge Trucking,34628 Old Ocean City Rd,Pittsville,MD,21850,410-896-4332
Rodney W Adams Trucking,25502 Piney Branch Ln,Denton,MD,21629,410-479-3201
"Omega Transportation Services, Inc.",13805 Gullivers Trail,Bowie,MD,20720,301-853-8603
A & V Latimer Trucking,17107 Aquasco Rd,Brandywine,MD,20613,301-888-1252
Barrons It Transportation,7985 Riggs Rd,Adelphi,MD,20785,301-431-1242
Chesapeake Auto Repair Service,130 Comet Drive,Centreville,MD,21617,410-758-1585
Red Barn Service & Repair,167 Main St,Grantsville,MD,21536,301-895-3617
"R And R Delivery Service, Inc.",7318 Landover,Landover,MD,20785,301-772-8808
B & F Trucking,2200 Broening Highway,Baltimore,MD,21222,800-595-5400
J L B Trucking,21339 Village Ct,Great Mills,MD,20634,240-725-0907
"Vesamex Trucking, Inc.",13402 Rising Sun Lane,Germantown,MD,20874,301-572-1516
"Dds Transport, Inc.",16510 Village West,Upper Marlboro,MD,20772,301-249-9786
S & W Truckin,9412 Merryrest Road,Columbia,MD,21045,N/A
K Dickens Trucking,15623 Twin Valley Court,Silver Springs,MD,20906,301-924-4353
Wilson Trucking,3605 Sylvan Dr,Baltimore,MD,21207,410-944-1104
The Moving Company,8221 Preston Court Suite B,Jessup,MD,20794,301-369-9100
"J D Jones Trucking, Inc.",28766 Larry Lankford Rd,Princess Anne,MD,21853,410-651-1890
L Tibbs Trucking,5739 Korrell Lane,Frederick,MD,21702,301-682-7927
A G & F Trucking,12706 Old Row Rd,Mt Savage,MD,21545,301-264-3433
Tolson Family Trucking,2492 Lake Drive Apt#614,Waldorf,MD,20601,301-399-5909
Gemsafe,8906 Blade Green Lane,Columbia,MD,21045,410-997-1389
Scott Lieske Trucking,54 Richard Dr,Elkton,MD,21921,410-620-0428
Sutton Trucking,20310 Middletown Rd,Freeland,MD,21053,410-343-0073
Ptd Trucking,6374 Eldorado Rd,Federalsburg,MD,21632,410-754-6997
Z & D Trucking,1822 E 31 Street,Baltimore,MD,21218,410-235-4178
Reid Transportation,7525 Kent Point Road,Stevensville,MD,21666,410-643-0753
T A Byris Transfer,103 Md Avenue,Ridgely,MD,21660,410-364-9050
Sabra Van Lines Shalom Moving,8836 Washington Boulevard #205,Jessup,MD,20794,301-498-3370
Bart's Automotive,3400 Sharp St,Landover,MD,20785,301-322-7404
Harrison Trucking,4110 Suit Road,District Heights,MD,20747,301-567-6059
Austin Trucking,11340 Cherry Hill Rd,Beltsville,MD,20705,301-937-6068
Turtle Xpress Transport,31695 Melson Rd,Delmar,MD,21875,410-749-4577
Goodall Delivery Service,5814 Choctaw Drive,Forest Heights,MD,20745,301-839-1205
Mrn Trucking,935 Chestnut Manor,Baltimore,MD,21226,410-754-7670
Shockley Trucking,26680 Walnut Tree Rd,Eden,MD,21822,410-749-3387
Metropolitan Moving & Delivery Service LLC,3404 Erin Court,Upper Marlboro,MD,20772,301-574-0205
Anderson Express,3510 Castleleigh Road,Beltsville,MD,20705,301-572-2787
Carlos Delivery Services,3450 Toledo Terr #408,Hyattsville,MD,20782,301-853-0126
Knobhill Transport Line,22 Post Office Avenue,Laurel,MD,20707,301-219-9635
We Care Hand & Hand Transport,13017 Clouerly Drive,Upper Marlboro,MD,20774,301-218-5772
Big Guy Trucking,2365 Progress Ct,Waldorf,MD,20601,301-535-8493
Plugge's Trucking,12594 Ocean Gateway,Cordova,MD,21625,410-819-3366
Riding High Livery Service LLC,3801 Patterson Ave,Gwynn Oak,MD,21207,410-298-3080
Whitestone Truck Corporation,7135 Carriage Hill Drive,Laurel,MD,20707,301-604-9064
W L Trucking,504 Nova Ave,Capitol Heights,MD,20743,301-674-3633
C & S Trucking,1240 First St,Rockville,MD,20850,301-340-3368
J W Transport,2553 Davidsonville Road,Gambrills,MD,21054,410-451-8217
Paris Enterprise Trucking Service,6909 Kent Town Dr,Hyattville,MD,20785,240-296-2579
Bull Trucking Co,Box 6,Maryland Line,MD,21105,717-235-5173
Fitchett Trucking,3510 Freedomtown P O 789,Crisfield,MD,21817,410-968-1950
K R Nottingham Trucking,18451 Stone Hollow Dr,Germantown,MD,20874,301-515-1469
Djf Trucking,3233 Cambridge Common # 1,Forestville,MD,20747,301-894-8790
Cresent Star Trucking,3003 New Oak Ln,Bowie,MD,20716,301-412-5147
Spriggs Trucking,1210 Painted Fern Road,Denton,MD,21629,202-330-9237
Trout Transport,12206 Foxhill Lane,Bowie,MD,20715,301-464-5564
M S R Services,Box 613,Havre De Grace,MD,21078,410-939-2008
Gee's Transportation,18 Arthur Drive East,Fort Washington,MD,20744,301-567-7195
"Mulch Movers, Inc.",1416 E Joppa Rd,Towson,MD,21286,410-296-3308
"Bernals Roll-off Service, Inc.",11520 Lockwood Drive A1,Silver Spring,MD,20904,240-462-6354
Relli Kerr Transportation,3811 Ernst Drive,Bowie,MD,20716,301-218-0619
R J Abell Trucking,21900 Farrell Way,Avenue,MD,20609,301-769-2386
Norman's Moving,6311 Manadier Road,Easton,MD,21601,410-820-8815
B & A Trucking,30747 Antioch Ext,Princess Anne,MD,21853,410-651-2198
Gilman Transport,29 Riverview Avenue,Annapolis,MD,21401,712-274-2301
Vehicle Distributors,3809 Main St,Grasonville,MD,21638,410-827-9107
East End Trucking,501 E Main St,Emmitsburg,MD,21727,301-447-3101
Lucas Enterprise And Delivery Service,235 Federalsburg South,Laurel,MD,20724,301-604-6270
G L Pierce Trucking,249 Pilottown Rd,Conowingo,MD,21918,717-715-6237
Giant Trucking,12916 Claxton Drive,Laurel,MD,20708,240-593-1265
"Automotive Fleet Services, Inc.",2754 Plainfield Rd,Baltimore,MD,21222,410-303-0575
Kinsey Trucking,113 Graham Ave,Berlin,MD,21811,410-629-0187
R & S Trucking,5652 Whitfield Chapel Rd #102,Lanham,MD,20706,240-832-3403
Nuts Trucking,3612 Cedar Drive,Baltimore,MD,21207,443-744-6049
T Fitzpatrick Roll Off Service,14524 Cambridge Cir,Laurel,MD,20707,301-772-6873
K & G Trucking,7401 New Hampshire Ave Apt#917,Takoma Park,MD,20912,301-431-2418
B P T,2221 Dr Stitely Rd,New Windsor,MD,21776,410-635-6621
Garnet Trucking,1506 Tanyard Hill Rd,Gaithersburg,MD,20879,301-208-2582
M L S Transport,1206 Myrtle Ave # Pe,Takoma Park,MD,20912,240-375-2472
J And C Trucking,3 Benjamin Park Drive,Port Deposit,MD,21904,410-378-3045
"Gross Trucking, Inc.",33 Hamilton Ave,Frederick,MD,21702,301-695-8026
B M W Of Towson,700 Kenilworth Drive,Towson,MD,21204,410-296-7900
Ty Ry Trucking,22978 Westview Dr,Preston,MD,21655,410-673-1006
Big Martin Trucking,6233 Springhill Dr #301,Greenbelt,MD,20770,301-474-8868
Ww Trucking,25640 Zacharias Mill Road,Greensboro,MD,21639,410-482-9714
Humphreys Trucking,133 Ruby Circle,Hurlock,MD,21643,410-943-0826
Packmail Moving & Storage,21800 N Shagrila Drive Unit 3,Lexington Park,MD,20653,301-863-9812
Big Cat Trucking,5728 Brandywine Rd,Hughesville,MD,20637,301-274-3456
Rocco's,1547 Marco Drive,Pasadena,MD,21122,410-598-1843
Vince Transport,10307 Buena Vista Ave,Lanham,MD,20706,301-459-1544
A M Kelsey Trucking,857 Adrian St,Upper Malboro,MD,20772,202-439-2913
"Guardian Trucking, Inc.",8109 Phelps Pl,Forestville,MD,20747,301-343-0487
A Deluxe Transportation,4011 Sandy Spring Road,Burtonsville,MD,20866,301-384-5563
Walker Trucking Co,7720 Siden Dr,Hanover,MD,21076,443-326-2156
Charles R Carroll Jr Trucking,7429 John Pickett Rd,Woodbine,MD,21797,410-371-5411
Murphy's Crusting And Uniloader Service LLC,5419 Eldorado-sharptown Rd,Rhodesdale,MD,21659,410-883-2520
Tnt Movers & Cleaners,107 Wood Duck Drive,Cambridge,MD,21613,410-763-7026
E Williams Transportation,6810 Richardson Rd,Baltimore,MD,21207,410-281-9058
Skidmore Trucking,182 Finzel Rd,Frostburg,MD,21532,301-687-1009
Pacific Blue Corporation,8306 Patuxent Range Rd # 107,Jessup,MD,20794,410-995-1547
E H Fitzgerald Hauling,7806 West Hill Road,Mount Airy,MD,21771,301-829-0920
Davis Trucking,7700 Carrico Mill Lane,Charlotte Hall,MD,20622,301-472-4569
Hunt Valley Auto Transportation Services,10810 Railroad Ave,Cockeysville,MD,21030,410-229-0400
A N Riley Transport,4109 Southern Ave #203,Capitol Heights,MD,20743,202-373-8864
A Straight A Auto Transport,10815 Olde Wood Way 2nd Floor,Columbia,MD,21044,443-562-8384
"Chesapeake Boats, Inc.",5030 Crisfield Highway,Crisfield,MD,21817,410-623-2293
Adls,4720 Boston Way Suite K,Lanham,MD,20706,301-731-3720
"Ldh Transportation, Inc.",7395 Maury Rd,Windsormill,MD,21244,443-829-1410
Major Delivery Service,5505 57th Ave,Riverdale,MD,20737,301-927-1005
"Lil Man Trucking, Inc.",9802 Fairlee Road,Chestertown,MD,21620,410-778-1195
T & R Express,10211 Hillcrest Dr,Cumberland,MD,21502,301-722-1895
Davis Delivery Service,19545 Caravan Dr,Germantown,MD,20874,301-528-4528
Y T S,9250 Slidell Pl,La Plata,MD,20646,301-609-3951
Martins Auto Transport,8205 Washington Blvd Lot 19,Jessup,MD,20794,443-622-3896
H Massey & Son Trucking,1610 Opus Ave,Capitol Heights,MD,20743,301-399-3230
Nebs Movers Trucking Company,613 Sisson Street,Silver Spring,MD,20902,301-593-9554
White Trucking,83 Bethlehem Road,Oakland,MD,21550,301-334-1414
Fuller's Automotive Transport,3222 Ramblewood Rd,Ellicott City,MD,21042,240-605-7649
T A Trucking,5447 Whitfield Chapel Rd,Lanham,MD,20706,240-461-3791
"Robinson Movers, Inc.",4018 23rd Parkway #21,Temple Hills,MD,20748,301-792-6714
Hardesty Trucking,208 G Street,Mt Lake Park,MD,21550,301-533-3210
E & E Auto Sales,8600 West Fort Foote Terrace,Fort Washington,MD,20744,301-908-8079
Johnsons Trucking,10902 Rhodenda Ave,Upper Marlboro,MD,20772,301-868-4439
Latin Trucking,2810 Weisman Rd,Silver Spring,MD,20902,301-536-0784
C H H Trucking,4343 Norrisville Rd,White Hall,MD,21161,410-557-8562
Express Trucking,9209 Wilbur Ct,Columbia,MD,21046,410-381-4273
Andualem Melaku,13306 Duaipenest,Silver Spring,MD,20906,240-350-4023
Faulkner Bros Trucking,670-b Donaldson Ave,Severn,MD,21144,410-551-1134
Skl Transportation,2103 Springholly Drive,District Heights,MD,20747,301-420-5771
Statewide Moving Systems,571 St Marys Ave,Gambrills,MD,21054,410-674-8800
Raymond Anderson Trucking,9211 Eldon Dr,Clinton,MD,20735,240-695-9352
Jrs Trucking,11316 Quailbridge Ct,Hagerstown,MD,21742,301-714-9289
Wkd Trucking LLC,11601 Lockwood Drive #102,Silver Spring,MD,20904,301-592-1681
Inland Trucking,8190 Ritchie Hwy,Pasadena,MD,21122,N/A
Hayman Trucking,28300 Venton Road,Princess Anne,MD,21853,301-674-9744
Jvs Trucking,5917 Sunfish Court,Waldorf,MD,20603,301-752-0971
E Booker Trucking,1364 Jamestown Dr,Severn,MD,21144,410-519-2665
Autoparts Outlet,2288 West Pulaski Highway,North East,MD,21901,410-287-2141
Foster's Trucking,4314 Valley View Ave,Baltimore,MD,21206,410-325-7431
Five Star Transportation,6318 Greenspring Ave Apt 303,Baltimore,MD,21209,410-358-2935
Unity Transport LLC,3739 Sunnyside Road,East New Market,MD,21631,410-943-4770
Canales Trucking,1414 Quebec St,Hyattsville,MD,20783,301-434-5702
"Simpson's Trucking, Inc.",3208 Kimberly Drive,Mt Airy,MD,21771,410-775-1775
Royal Oak Repair Service,6898 School House La,Royal Oak,MD,21662,410-745-2261
Cornerstone Plumbing Service,31479 Dagsboro Rd,Delmar,MD,21875,410-546-2715
D J Jennings Trucking,328 Valiant Circle,Glen Burnie,MD,21060,N/A
C & L Trucking,24921 Collins Wharf Rd,Eden,MD,21822,410-742-0908
Eddys Moving Hauling Delivery Store,3614 Pear Tree Ct #41,Silver Spring,MD,20906,301-460-1095
Potomac Atlantic Transportation,223 Lakeside Dr Apt 202,Greenbelt,MD,20770,301-477-5852
Jenkins Trucking,7169 Cross St T # 2,Forestville,MD,20747,301-484-3594
Worrells Trucking,5206 Sidney Rd,Mount Airy,MD,21771,301-829-5778
Evans Brown Transportation,2133 E Fairmount Ave,Baltimore,MD,21231,410-342-7812
Goldsboro Auto And Truck Repair,500 Main St,Goldsboro,MD,21636,410-482-2570
"Lankford Trucking, Inc.",3836 Houston Branch Road,Federalsburg,MD,21632,410-754-8742
Mz Transport,9703 51st Place,College Park,MD,20740,240-426-6073
Unique Services Tree & Stump Removals,2503 Dawson Court,Temple Hills,MD,20748,301-894-2187
Jumpin Jacks' Trucking LLC,115 Country Club Drive,Glen Burnie,MD,21060,410-761-0287
Automotive Carriers And Loaders,9317 Owings Choice Ct,Owings Mills,MD,21117,410-654-0833
Myra Transport,2122 Alice Ave #101,Oxon Hill,MD,20745,301-505-1033
Moving On Professional Movers,1300 Crestwood Drive,Westminster,MD,21157,443-463-6674
R & N Trucking,13959 Still Pond Rd,Still Pond,MD,21667,410-778-0247
New World Trucking,N607 29th St,Mount Rainier,MD,20712,202-529-7441
Christian Knights Transportation,9406 Higree Court,Adelphi,MD,20783,301-434-8337
Lowe Trucking,3087 Hoopers Delight Rd,New Windsor,MD,21776,410-984-1204
Royal & Son Trucking,12704 Lampton Ln,Ft Washington,MD,20744,301-840-6630
Lambs Meadow Trucking,26432 Lambs Meadow Road,Worton,MD,21678,410-348-5069
"Jackie's Transport, Inc.",4507 Gridley Road,Silver Spring,MD,20906,240-286-7266
Thomas Trucking,906 Washington Ave,Laplata,MD,20646,301-609-4563
Sweet Pea Transportation Services,2017 Mapleleaf Place,Upper Marlboro,MD,20774,301-218-3569
C & N Automotive,7605 Quarterfield Road,Glen Burnie,MD,21061,410-391-7450
Locomotive Express,2204 Blevins Road,Edgewood,MD,21040,410-538-8850
G W Whitten Trucking,6321 Enm Elwood Rd,Hurlock,MD,21643,410-943-0722
Asc Automotive Tire Wheel Center,9541 Smith Ave,Lanham,MD,20706,301-429-9170
Arch Angel Transportation,5376 Deal Churchton Rd,Churchton,MD,20733,301-261-9925
L And M Trucking,149 Belview Ave,Hagerstown,MD,21742,301-797-4450
Delsalto Trucking Company,21715 Peachtree Road,Dickerson,MD,20842,240-372-3031
Stp Transportation Services,2303 Pentland Dr Apt 507,Baltimore,MD,21234,410-323-9477
T M Transport Services,2712 Spaulding Ave,Baltimore,MD,21215,410-566-4264
David's Delivery Service,6713 Seat Pleasant Drive,Capitol Heights,MD,20743,301-333-2369
D&d Spence Transportation,6707 Averill Rd # Tc,Baltimore,MD,21237,410-818-1201
"Fuentes Brothers Service, Inc.",8322 14th Ave,Hyattsville,MD,20783,301-445-3550
Aaa Hi Tech Movers,15 Ingleside,Rockville,MD,20850,301-294-2120
J M Goodwin,711 Edmond St,Aberdeen,MD,21001,410-273-7234
Obaker Trucking,14212 Kings Grove Rd,Ellerslie,MD,21524,301-724-1926
Gilbert Express,17303 Newton Ct,Upper Marlboro,MD,20772,202-439-6766
"Sampson Distributors, Inc.",10011 Howell Dr,Upper Marlboro,MD,20774,301-952-6484
J Wiles & Son Trucking,2367 Harpersferry Rd,Sharpsburg,MD,21782,301-432-0289
Martin Trucking,4400 Moreal St,Rockville,MD,20853,301-871-5509
R B Trucking,108 S Tartan Drive,Elkton,MD,21921,410-392-3963
Pardue Trucking,7140 Forest Ave,Hanover,MD,21076,410-796-8996
J R Dilworth Hauling,3808 Prospect Rd,Street,MD,21154,410-879-4986
2 Brothers Trucking,1609 Filbert St,Baltimore,MD,21226,410-354-8204
LLC Hauling,13521 Springgs Rd,Hagerstown,MD,21742,301-714-9289
F-troop Services,5611 Ramblewood Ave,Clinton,MD,20735,301-297-7217
Warden Trucking Co,8110 Eleanor Terr,Baltimore,MD,21222,443-415-4325
Benitez Transport,13002 Park Land Dr,Rockville,MD,20853,301-949-0983
Omega Pc Technology,500 F Mccormick Dr,Glen Burnie,MD,21061,410-761-7400
Homebase Delivery Service,2900 Kirtland Ave,Forestville,MD,20747,202-437-7235
Sutton's Variety Transport LLC,9414 Silver Fox Turn,Clinton,MD,20735,301-856-2378
Bel Air Road Discount Auto Sales,310 Nilles Lane,Fallston,MD,21047,410-877-8260
Steppin Stone Xpress,8808 Crystal Falls Drive,Boonsboro,MD,21713,301-797-4603
Jeff Royers Hauling & Snow Removal,2071 Hoffmaster Rd,Knoxville,MD,21758,301-432-4999
M S Montague & Sons Trucking,7616 Moore's Road,Brandywine,MD,20613,301-803-9787
Almuten Transporation,211 Beech Street,Fort Washington,MD,20744,301-292-6955
Sunrise Trucking Co,418 S Gilmor St,Baltimore,MD,21223,410-947-3928
Shawn Scott Trucking,58 Flaxton Ct,Baltimore,MD,21244,410-944-8180
Hill Trucking,7465 Belle Ridge Court,Hughesville,MD,20637,301-274-3748
Joe Corbi Pizza Of Southern Md,1310 Neptune Lane,Huntingtown,MD,20639,410-257-7818
Quynn-cromwell Well Service,6030 Keyser Lane,Frederick,MD,21702,301-663-4019
Statewide Delivery System,44-baldy Ave,Severna Park,MD,21146,410-315-8288
Fling Trucking,14124 Stonecutter Drive,Gaithersburg,MD,20878,301-762-1370
Jack's Hauling Co,4811 Gunther St,Capital Hgts,MD,20743,301-568-2698
Albert's Expert Movers,27035 Nanticoke Rd,Salisbury,MD,21801,410-742-2273
K & T Trucking,14850 Liberty Rd,Mt Airy,MD,21771,N/A
Families Moving & Storage,6400 Baltimore National Pike Suite 184,Baltimore,MD,21228,410-455-0162
European Bus And Truck,1205 Belmar Drive,Belcamp,MD,21017,N/A
Newburg Transit,14675 S Cuckold Creek Road,Newburg,MD,20664,301-868-7676
All Out Trucking,5247 Brook Way Apt 6,Columbia,MD,21044,410-997-3058
Moseley & Sons,11003 Grays Corner Rd Unit 17,Berlin,MD,21811,410-641-9552
Melgar Trucking,8882 Piney Branch Road Apt#202,Silver Spring,MD,20903,301-434-1249
C W Groh Hauling,723 Damsontown Road,Queen Anne,MD,21637,410-758-5428
Tip Top Movers,11796 Parklawn Drive,Rockville,MD,20852,301-803-7049
Dad & Brad Piano Moving,1210 Sollers Wharf Rd,Lusby,MD,20657,410-326-3926
Bq Moving Service,6495 New Hampshire Ave Suite Ll27,Hyattsville,MD,20783,301-270-3390
Harry's Trucking,11621 Settlers Circle,Germantown,MD,20876,301-972-4668
Wallace's Trucking,17770 Mill Branch Place,Mitchellville,MD,20716,717-529-3198
Kiera Motor Express,9408 Caliph Street,Brandywine,MD,20613,301-372-6060
G E K Trucking,203 Wheeler School Rd,Pylesville,MD,21132,410-452-5315
Earthauler,2802 Orchard Summit Court,Landover,MD,20785,301-341-6656
Baltimores Best Transport,626 Harrpark Court,Edgewood,MD,21040,443-416-5977
"Power Movers, Inc.",1778 Hillmeade Square,Frederick,MD,21702,301-668-5971
Sheppards Transfer And Construction,8358 Sycamore Road,Millersville,MD,21108,410-975-0241
Staton Transportation,1029 Kingstree Dr,Mitchelleville,MD,20721,301-218-5872
F & C Trucking,7927 Stratman Rd,Baltimore,MD,21222,443-398-5340
G M Trucking,6324 Sun Valley Ter,District Heights,MD,20747,202-365-1289
J L C Trucking,526 Bear Branch Rd Apt 3,Westminster,MD,21157,443-253-1228
D J E Transport,4910 Sandy Point Road,Prince Frederick,MD,20678,443-532-0722
Grewe Trucking LLC,233 Bay Club Parkway,North East,MD,21901,410-638-7843
Robby Walls Trucking,230 Fork Run Lane,Centreville,MD,21617,410-758-1074
Leckinger Brothers Trucking,1343 Linden Ave,Annapolis,MD,21403,410-991-5539
V O Express,7803 Killbarron Dr,Laurel,MD,20707,301-675-1113
C&j Transportation,1913 Maltravers Rd,Glen Burnie,MD,21060,410-582-9644
Beltway Disposal Services,6600 Foxley Road,Upper Marlboro,MD,20772,202-722-2250
Lil' David Jr Trucking,37630 New Market Village Road,Mechanicsville,MD,20659,301-638-3446
Mcgoo Trucking,8609 Winding Way,Perry Hall,MD,21128,410-931-4866
3 Sons Transportation,708 Clarke Ave,Pocomoke,MD,21851,410-957-4875
Gill's Trucking,48126 Park Hall Rd,Park Hall,MD,20667,240-299-9412
Leilanio Trucking,12803 Piscataway Landing Dr,Clinton,MD,20735,301-203-6822
Plaza Transport,10812 East Nolcrest Dr,Silver Spring,MD,20903,301-593-7447
K & J Trucking,Po Box 141,Loveville,MD,20656,301-994-2572
J & A Trucking,2029 Blue Anchor Court,Waldorf,MD,20601,301-535-7100
Rj Trucking,12803 Town Center Way,Upper Marlboro,MD,20772,202-409-9858
J & K Service,4509 Harpers Ferry Rd,Sharpsburg,MD,21782,301-432-8800
Difabrizio Trucking,5248 Jefferson Pike,Frederick,MD,21703,267-784-2874
C & D Trans,5208 Contintal Dr,Rockville,MD,20853,410-570-5449
J W P Trucking,7901 Subet Road,Woodlawn,MD,21244,410-521-2508
C & W Builder Services,3924 Old Birdsville Road,Harwood,MD,20776,410-798-0058
Creeger Trucking,932 Telegraph Rd,Rising Sun,MD,21911,410-658-5149
J Neal Waste Solutions,500 Washington Street,Cambridge,MD,21613,410-228-2700
Peace Of Mind Services,2527 Appleton Lane,Bowie,MD,20716,240-463-0411
Peace Of Mind Services,2527 Appleton Lane,Bowie,MD,20716,240-463-0411
Breads Carrier,18946 Snow Fields Circle,Germantown,MD,20874,N/A
Easton Tire & Auto,8105 Teal Dr,Easton,MD,21601,410-822-6070
Phillips Trucking,5511 Mccormick Avenue,Baltimore,MD,21206,410-984-0731
Elevator Control Service,8231 Penn Randall Place,Upper Marlboro,MD,20772,301-568-9300
Gfl,2301 Dorsey Rd ,Glenn Burnie,MD,21061,410-760-0127
G W Lytle Hauling LLC,728 Friendsville Addison Rd,Friendsville,MD,21531,301-746-5083
Lewis Transportation,2929 Boarman Ave,Baltimore,MD,21215,443-506-3935
Geralds Transport,4212 Ivanhoe Avenue,Baltimore,MD,21212,410-292-6778
Beall Trucking,27184 Cleveland St,Mechanicsville,MD,20659,301-536-0579
Jtr Transport,601 Terrace Drive,Bel Air,MD,21014,443-528-7753
W V S LLC,11005 Earlsgate Lane,Rockville,MD,20852,301-937-8345
Mid-atlantic Beauty Service,1017 Leslie Avenue,Baltimore,MD,21228,410-788-1010
"O Mann Trucking, Inc.",2500 Chelsea Terrace,Baltimore,MD,21216,410-655-1444
Danzy Transport,9052 Constant Course,Columbia,MD,21046,443-226-4916
J H Thomas Hauling,17510 Big Falls Rd,Monkton,MD,21111,410-343-0835
Streett's Wholesaling & Transporting,39420 Esther Lane,Mechanicsville,MD,20659,301-884-3355
"H D Delivery Service, Inc.",23662 Rocky Ridge Court,Leonardtown,MD,20650,301-475-9970
Tfc,7635 Allendale Drive,Hyattsville,MD,20785,301-583-9406
Bull Shippers Transport,13337 Clopper Road,Hagerstown,MD,21742,717-451-3590
Betzzcom Delivery Service,3103 Arundel Rd,Mt Rainier,MD,20712,301-864-2665
Joe's & Son Trucking,2130 County Road Apt 101,District Heights,MD,20747,301-967-9033
Jay Bird's Trucking,9966 Sharptown Road,Mardela,MD,21837,410-546-3848
B K Transportation,1906 Amherst Rd #301,Hyattsville,MD,20783,N/A
Hyson Trucking,2506 Red Maple Drive,Abingdon,MD,21009,410-671-7051
Winland Services,7402 Railroad Ave,Harmans,MD,21077,443-392-2141
Whirlwind Trucking,6303 64th Ave Apt 2,Riverdale,MD,20737,443-532-6044
Ware Transit Co,5426 Handley Road,Cambridge,MD,21613,410-228-8700
"Kmb Trucking, Inc.",2116 Stillwater Ct,Sykesville,MD,21784,410-781-6549
Cosmos Transport,15720 Columbia Pike,Burtonsville,MD,20866,301-421-0041
James R Johnson Trucking,438 Conowingo Road,Conowingo,MD,21918,903-378-3132
Rice Trucking,3714 Ravenwood Ave,Baltimore,MD,21213,410-215-3171
Juan William Labradpr,7summerhill Park,Crownsville,MD,21032,410-849-3823
Beach Express,300 Somerset Street U303a,Ocean City,MD,21842,410-289-1203
Moving Company,17407 Gallagher Way,Olney,MD,20832,240-277-7785
T-n-a Transport,8715 Shell Road,Delmar,MD,21875,302-331-3208
T&w Trucking,1429 Silver Run Valley Road,Westminster,MD,21158,410-871-3770
I M C Transportation,7055 Gentle Shade Rd Apt #101,Columbia,MD,21046,240-375-0653
George Auto Car Transport Service,9307 Fort Smallwood Rd,Pasadena,MD,21122,410-437-7763
1st Class Moving & Storage,7270-d Park Circle Drive,Hanover,MD,21076,410-712-7102
Boling Construction LLC,40325 Beach Dr,Mechanicsville,MD,20659,301-274-4717
Bryant Container Services,3227 B South Offutt Road,Randallstown,MD,21133,410-655-8810
Menges Transport,2220 Brown Road,Finksburg,MD,21048,410-861-5288
Bts,10366 Procera Dr,Rockville,MD,20850,240-888-3618
C&f Auto Sales,609 S Main Street,Woodsboro,MD,21798,301-898-7500
Adams Distribution LLC,13809 Willoughby Road,Upper Marlboro,MD,20772,301-627-5371
Ced Cheverly,4881 Lydell Rd,Cheverly,MD,20781,301-386-2000
Jirsa Transportation,719 Norfield Court,Westminster,MD,21158,410-876-5484
Mark Barrow Trucking,612 Suquehanna Avenue,Perryville,MD,21903,410-642-6768
R Anderson Trucking,26563 Nanticoke Road,Salisbury,MD,21801,410-548-2293
J&g Trucking,3313 Grayvine Lane,Mitchelville,MD,20721,202-369-2891
R & A Trucking,204 Banjo Lane,Centreville,MD,21617,202-399-3784
We Are One Enterprize,1607 Doral Drive,Mitchellville,MD,20721,202-246-9395
Genesis Tours And Travel,4712 Edmondson Avenue,Baltimore,MD,21229,410-624-1850
Cfh Management Roll Off Service,3501 East Biddle Street,Baltimore,MD,21213,410-335-1849
Tylaw Transportation,4 Asgard Ct,Parkville,MD,21234,410-847-9542
Asb Trucking,6108 62nd Stret,Riverdale,MD,20738,301-572-5843
City Wide Trucking LLC,9704 Golden Eagle Court,Upper Marlboro,MD,20772,301-877-9260
J & A Transport LLC,13123 Serpentine Way,Silver Spring,MD,20904,301-879-2040
Johnson & Sons Trucking,7401 Longbranch Drive,New Carrollton,MD,20784,301-474-8828
Russell Movers,904 Genine Drive,Glen Burnie,MD,21060,410-760-1069
Bill Thomas Hauling,4708 Cedell Place,Camp Springs,MD,20748,301-899-1357
Calary's Auto Repair,1246 Bladwin Mill Rd,Jarrettsville,MD,21084,410-692-6391
Village Express Services,P O Box 275,Monrovia,MD,21770,301-831-3050
Kia's Trucking,1450 South Addison Rd,Capitol Heights,MD,20743,301-808-5208
Double-l-transport,1204 S Old Mountain Road,Joppa,MD,21085,410-676-4017
Henson Transporation,3403 Mayfair Rd,Baltimore,MD,21207,410-542-1308
Yuman Trucking,805 Bayly Road,Cambridge,MD,21613,410-228-7828
Joey Dean Trucking,Bushwood Road,Bushwood,MD,20618,301-769-4393
To-do-dairy Transport,12752 Woodsboro Pike,Keymar,MD,21757,301-898-0480
H E & M Haulers,900 Cherrytown Road,Westminster,MD,21158,410-848-9426
Cds Moving & Storage,18953 Bonanza Way,Gaithersburg,MD,20879,301-570-5489
Anthony Seepersaud,12609 Hill Creek Ln,Potomac,MD,20854,301-408-8220
Fike Trucking,107 Walnut St,Friendsville,MD,21531,301-746-5848
C H Trucking Co,211 Obrecht Road,Millersville,MD,21108,410-703-6900
L T R Trucking,Box 142,Avenue,MD,20609,301-769-3415
Maryland Core Co,319 E Main Street,Hancock,MD,21750,301-678-5688
Bob Zimmerman Trucking,414 Townsend Avenue,Brooklyn Park,MD,21225,410-789-1125
Food Wholesalers,1067 Taft St,Rockville,MD,20850,301-762-8998
J & E Trucking,212 W Cecil Ave,North East,MD,21901,410-287-6305
M Vaughn Todd Trucking,4280 Nichols Rd Lot 15,Federalsburg,MD,21632,410-754-9398
C R Moreland Transportation,6 E Mayer Dr,Finksburg,MD,21048,410-526-7533
G Pritchard Trucking,220 Burchard Saw Mill Rd,Chestertown,MD,21620,410-778-6115
King Wells Hauling,2210 Regina Drive,Clarksburg,MD,20871,301-831-3002
Ram Horn-motor Carrier,2014 Hartford,Baltimore,MD,21218,N/A
Ars Andy's Roll-off Service,9103 Simpson Ln,Clinton,MD,20735,301-868-7346
Arctic Dry Ice,7507-b Connelley Drive,Hanover,MD,21076,410-768-4448
Collins Trucking,Rt 1 Box 410,Nanjemoy,MD,20662,301-246-4972
R B Hyde & Sons Trucking,9437 N Ryceville Rd,Mechanicsville,MD,20659,301-884-7072
Allen Trucking,7455 Woodbine Rd,Woodbine,MD,21797,410-795-8557
Atw Services Corp,6213 Freestone Ct,Columbia,MD,21045,410-381-9318
Caudo Transportation Co,4425 North Point Blvd,Baltimore,MD,21219,401-388-1022
Mill's Trucking,116 Maple Street,Snow Hill,MD,21863,N/A
Midnight Express Rollback Service,325 Trappe Road,Baltimore,MD,21222,410-284-2404
E C Trucking,12300 Carroll Avenue,Rockville,MD,20852,301-468-0611
Sofield Auto Transport,444 Kyle Rd,Crownsville,MD,21032,410-987-4057
Hauser Trucking,2636 Pysell Crosscut Rd,Oakland,MD,21550,301-334-6142
C & G Hawkins Trucking,6109 Lucente Ave,Suitland,MD,20746,301-568-7674
Tri State Transportation,18434 Showalter Rd,Hagerstown,MD,21742,301-791-3838
Sovereign Services,8940-l Route 108,Columbia,MD,21045,410-730-3366
Lewis Trucking,7726 Normandy Rd,Landover,MD,20785,301-386-2787
R H Jamieson And Family Trucking,6155 Rose Hill Road,La Plata,MD,20646,240-299-0339
Findale Farms,7504 Lewistown Rd,Thurmont,MD,21788,301-712-6765
Screaming Eagle Freight Service,596 Nolberry Dr,Glen Burnie,MD,21061,410-969-5764
"Donal Cannon Trucking, Inc.",705 Morris Street,Salisbury,MD,21801,410-546-4684
Hodges Trucking,18715 Hodges Lane,Leonardtown,MD,20650,301-994-2415
B F L Trucking,2643-s-paca St,Baltimore,MD,21230,410-727-4895
Milford Transfer Co,2017 Hanover Pike,Hampstead,MD,21074,301-865-5589
R & S Wells Trucking,4924 Marlboro,Capital Heights,MD,20731,301-736-6819
Scales Trucking,4409 Beckenham Place,Upper Marlboro,MD,20772,301-952-1653
T And T Reese Trucking,7326 Bell Ln,Whaleyville,MD,21872,410-352-3364
K & K Trucking,Rt 1 Box 374-a,Flintstone,MD,21530,301-777-2726
Movable Feast Catering,5903 Riggs Road,Hyattsville,MD,20783,301-559-2111
A D P Automotive Recovery,1728 Eastern Blvd,Baltimore,MD,21221,410-687-5211
F J P Freightlines,611 Radnor Avenue,Baltimore,MD,21212,443-220-3163
Graham Sons & Trucking,3826 Swann Rd,Suitland,MD,20746,301-736-7302
Hawk Express,11905 New Country Lane,Columbia,MD,21044,410-730-6057
Mccarthy & Son Septic Service,1279 W Pulaski Hwy,Elkton,MD,21921,410-398-9153
C Nunnley Trucking,6000 S Hil Mar Cir,Forestville,MD,20747,301-568-7054
American Boat Transport,1110 Seneca Rd,Baltimore,MD,21220,410-335-6731
Pioneer Trucking Company,39943 Persimmon Creek Road,Mechanicsville,MD,20659,301-884-2126
Perelli Trucking Co,2929 Bachman Road,Manchester,MD,21102,N/A
Rb Trucking,P O Box 289,Marbury,MD,20658,301-870-4776
D Brown Trucking,9803 Tom-o-shanter Dr,Upper Marlboro,MD,20772,202-516-8448
Pearson Trucking,12217 B Peach Crest Drive,Germantown,MD,20874,301-972-4673
Jim Perry Trucking,2005 Waterleaf Way,Bowie,MD,20721,301-249-5870
Carmichael Trucking,8420 Ravenswood Rd,New Carrollton,MD,20784,301-306-8272
J M White - Trucking,6008 Griffith Dr,Suitland,MD,20746,301-899-8981
C H Services,819 Chestnut St,Hagerstown,MD,21740,301-573-1915
David S Delivery Service,15 F Leatherwood Pl,Baltimore,MD,21237,410-882-1715
"J R Trucking, Inc.",14912 Ashford Ct,Laurel,MD,20707,301-776-8981
Turner Trucking,5451 Columbia Rd,Columbia,MD,21044,301-596-6334
Michael Coleman Trucking,33570 Massey Golts Rd,Massey,MD,21650,410-928-3539
H K Spellman Trucking Co,18809 Sparkling Water Dr #102,Germantown,MD,20876,310-972-3230
Flowers Backhoe Service,2517 Mcveary Ct Apt B,Silver Spring,MD,20906,301-598-4325
M Preston Trucking,1208 Farmingdale Ave,Chapel Oaks,MD,20743,301-773-2545
R L R Trucking,Adam Dr Lot #25,Crumpton,MD,21628,410-778-4280
E R Yates Trucking,604 Maryland Ave,Elkton,MD,21921,410-398-5786
Pnm Transportation Systems,8250 D Preston Court,Jessup,MD,20794,410-880-6261
Mckenzie Truck & Equip Repair,5445 Patterson Road,Baldwin,MD,21013,410-592-5080
Suburban Airport Shuttle,5620 Artesian Dr,Derwood,MD,20855,N/A
Fullbright Trucking Co,6504 St Helena Ave,Baltimore,MD,21222,N/A
T Y Mobile Repair Service,10825 Pulaski Hwy,Baltimore,MD,21162,410-335-7582
Curtiss Trucking,15284 Poplar Hill Rd,Waldorf,MD,20601,301-579-6345
Allegany Well Drilling & Pump Service,147 Mitchell Drive,Oakland,MD,21550,301-334-3950
Commercial Transport,3250 Kenilworth Ave,Hyattsville,MD,20781,301-277-6871
Whispering Forest Transport,7212 Hubbard Road,Federalsburg,MD,21632,410-754-7670
Prime Movers,1710 Olive Street,Beaver Heights,MD,20743,301-772-7727
Double D Trucking,263 E Peppermint Drive,Port Deposit,MD,21904,410-658-4209
R W W Trucking,9702 Dorval Avenue,Upper Marlboro,MD,20772,301-856-1629
"Cheri Trucking, Inc.",131-5 Old Bayview Rd,North East,MD,21901,410-287-2631
K K & J Services,7801 Earnshaw Dr,Brandywine,MD,20613,301-870-4403
Lawyer Services-mann Messenger,7922 Lansdale Road,Baltimore,MD,21224,N/A
Pet Trucking Co,7934 Shipley Road,Pasadena,MD,21122,410-360-3809
Bob's Delivery Service,1705 Village Green Drive,Landover,MD,20785,301-772-0194
Lena,1112 Kiowa Ave,Salisbury,MD,21801,410-749-0225
Wiggins Trucking,2104 Brewton St,District Heights,MD,20747,301-808-9148
Direct Service Transportation,4431 Kendi Road,Baltimore,MD,21236,888-475-4285
Double R Trucking,43005 Hugh Dr,Hollywood,MD,20636,301-290-0912
Eastern Express,26199 Rewastico Road,Hebron,MD,21830,410-742-1481
V J's Loader Service,8317 Old Ocean City Road,Berlin,MD,21811,410-641-3940
M A P Auto Transport,6500 Panorama Dr,Sykesville,MD,21784,410-485-8352
Thompson Trucking,6645 Old Blandford Pl,Hughesville,MD,20637,301-274-3432
Butler Trucking,4615 Ocean Gateway,Vienna,MD,21869,410-376-3425
Marylou's Transportation Service,6108 Old Silver Hill Rd #220,Forestville,MD,20747,301-967-3988
James Hill Trucking,201 Flower Dr,Lexington Park,MD,20653,301-884-8864
Jmh Auto Transport,7944 Inverns Rdg Rd,Ptomac,MD,20854,240-463-2191
D R R Trucking,19626 Teddy Road,Lexington Park,MD,20653,301-863-9545
Chambers Transport,1022 Poplar Grove Street,Baltimore,MD,21216,410-566-3317
Cabbie's Trucking,668 W Kingsway Road,Baltimore,MD,21220,410-574-8264
B & B Trucking,5328 Dukes Rd,Girdletree,MD,21829,410-632-0267
J K Buggie Trucking Co,3500 Eyre Dr S,Upper Marlboro,MD,20772,301-440-5008
G & T Trucking,14370 Cedar Lane,Greensboro,MD,21639,410-482-8850
"Apple Office Moving, Inc..",10739 Tucker St,Beltsville,MD,20705,301-595-9001
Dutters Home Food Service,2700 Lord Baltimore Drive,Baltimore,MD,21244,410-298-3663
Simply Funds,815 Central Ave J,Linthicum,MD,21090,410-789-3108
J Hutzell Trucking,P O Box 391,Friendsville,MD,21531,N/A
Billy's Auto Transport,116 Adams Ct,Walkersville,MD,21793,301-898-5984
Richardson Trucking Co,6302 Dower Village Lane,Upper Marlboro,MD,20772,301-599-1442
J & M Auto,5921 Arbor St,Hyattsville,MD,20781,301-386-5335
M & S Trucking,10417 Harrison Rd,Berlin,MD,21811,410-629-0877
Mcnair Transportation,3001 Branch Avenue,Temple Hills,MD,20748,301-935-1755
Mcmullin Myerly Trucking Service,4806 Riverside Drive,Galesville,MD,20765,410-266-8052
Toro Transport,69 West Deer Park Rd,Gaithersburg,MD,20877,240-372-2399
Culbertson Hauling,6725 Charles Cannon Road,Marion Station,MD,21838,410-623-2914
R D Trucking,12396 Algonquin Trail,Lusby,MD,20657,410-326-2090
J D Transportation,11314 Country Club Road,New Market,MD,21774,301-580-5580
J H T Trucking,27221 Fairmount Rd,Westover,MD,21871,410-651-1721
E R Johnson Trucking LLC,10010 Morgnec Church Rd,Chestertown,MD,21620,410-778-2943
T C B Trucking,14780 Cherry Lane,Ridgely,MD,21660,410-634-1374
Express Package Service,14900 Sweitzers Ln Ste 110,Laurel,MD,20707,301-604-2700
A M Services,2000 Wardman Road,Hyattsville,MD,20782,301-927-6009
M & B Trucking Enterprise,239 Admiral Dr,Annapolis,MD,21401,410-349-1892
Simms Trucking,3404 55th Ave Apt 101,Hyattsville,MD,20784,301-277-3332
"Silver Freights And Transportation Systems, Inc.",19004 Capehart Drive,Gaithersburg,MD,20879,301-990-7649
Hudson Moving Service,5546 Moat Road,Snow Hill,MD,21863,410-632-3233
A Pinder Trucking,5110 Mt Zion Road,Hurlock,MD,21643,410-754-6917
Corbett's Trucking,3303 S Dukeland St,Baltimore,MD,21223,410-945-6134
Joseph's Express Trucking,7963 Elvaton Rd,Glen Burnie,MD,21061,410-789-6117
Hunt Valley Trucking,1177 Caton Road,Hampstead,MD,21074,410-374-6470
Calbet Express,7522 Connelley Dr Ste J,Hanover,MD,21076,410-484-4414
Triple T Trucking Co,632 Suffolk Ct,Salisbury,MD,21801,410-543-8179
Showboat Auto Transport,531 Calvert St,Charlestown,MD,21914,410-287-2611
Lhd Trucking,8601 Manchester Rd Apt 402,Silver Spring,MD,20901,301-864-2209
M&m Express Transportation,511 Beaumont Avenue,Baltimore,MD,21212,410-435-2957
Car Carrier,56 Nina Ct,Gaithersburg,MD,20877,800-754-7260
M&w Trucking,1308 Sylvia St,Salisbury,MD,21801,410-742-4633
Std Trailer Service,12110 Pulaski Hwy,Joppa,MD,21085,410-679-2699
National Piano Outlet,6788 Race Track Road,Bowie,MD,20715,301-860-1224
Apm Sweeping Service,18115 Sellman Road,Dickerson,MD,20842,888-428-0800
James C Perry Jr Trucking,2905 Mueserbush Ct,Glenarden,MD,20785,301-341-7487
Davis & Sons Transport,2309 Fairview Ln,Crofton,MD,21114,304-265-6018
Byrd Transportation,1714 North Milton Avenue,Baltimore,MD,21213,N/A
Back To Back Trucking Service,3612 Lilac Avenue,Baltimore,MD,21227,410-789-4513
Greene Trucking,6703 D Townbrook Drive,Baltimore,MD,21207,410-298-2105
Shipper Hauling,3121 Jeffery Road,Baltimore,MD,21244,410-298-6710
S&m Trucking,150 Gold Kettle Drive,Gaithersburg,MD,20878,301-947-8787
Higgins Trucking,7708 Pleasant Ridge Dr,Mt Airy,MD,21771,301-831-7347
"Coffman Trucking, Inc.",9576 Timber Creek Ln,Faulkner,MD,20632,301-932-6951
A K Winston Trucking LLC,3301 Altair Ln,Upper Marlboro,MD,20772,301-821-7757
Gerardos Transportation,802 Cox Avenue,Hyattsville,MD,20783,N/A
Speedy Movers,39 Travis Court,Gaithersburg,MD,20879,301-926-2395
Overnight Transport LLC,19801 Ivy Berry Place,Gathersburg,MD,20886,703-370-3200
Browns Trucking & Hauling,7106 Valley Park Road,Capital Heights,MD,20743,301-350-2201
Griffor Trucking Co,5613 Glen Hill Court,Jefferson,MD,21755,301-606-3136
Bruce Beezer,3510 Washington Blvd,Baltimore,MD,21227,717-435-5438
V & D Custom Logistics,P O Box 126,Corringanville,MD,21524,814-324-4582
Brandon's Trucking,539 Opus Ave,Capital Heights,MD,20743,301-702-1590
Destiny Trucking Services,6926 East New Market-elwood Rd,Hurlock,MD,21643,410-943-4393
Rolin Trucking,5817 36th Ave,Hyattsville,MD,20782,301-559-7919
Tillman Trucking,9005 Congress Place,Landover,MD,20785,301-499-2969
Parker Trucking,4736 Skeet Club Rd,Hurlock,MD,21643,410-943-3358
Neighborcare Pharmacies,1224 E Joppa Rd,Baltimore,MD,21286,410-512-5752
Edgewater Sunoco,3071 Solomons Island Road,Edgewater,MD,21037,410-798-0800
Short Stack Trucking,1807 Plymoth Ct,Bowie,MD,20716,301-390-0559
Wood Trucking Corp,2644 Hamilton Place Apt# 103,Waldorf,MD,20602,301-870-1275
W A D Trucking,8043-a Penn Randall Dr,Upper Marlboro,MD,20772,301-409-9616
Mdl Express,137 Timberbrook Ln #102,Gaithersburg,MD,20878,240-281-5744
Tour And Transportation,1026 Rockville Pike,Rockville,MD,20852,301-294-6368
Efs,1001 Cedar Corner Rd,Perryville,MD,21903,410-642-6003
Barndollar Horse Transportation,181 Cherry Hill Rd,Elkton,MD,21921,410-392-3608
Tas Trucking,6306 Cedell Ct,Temple Hills,MD,20748,301-899-1836
P & W Trucking,913 Michele Ct,Landover,MD,20785,301-772-7464
M Gross -n- Co Trucking,16901 Horsehead Road,Brandywine,MD,20613,301-888-1853
Pumphrey's Transport Service,6 Normandy Drive,Glen Burnie,MD,21060,410-768-6402
J R Wise Trucking,220 Laurel St,Pocomoke City,MD,21851,410-957-3977
Jackson Trucking,4971 Retreat Lane,Snow Hill,MD,21863,410-632-3836
Joseph V Coulby Trucking,11050 Mt Victoria Rd,Newburg,MD,20664,301-259-2329
Wooleyhand Transportation,Po Box 142,Federalsburg,MD,21632,410-754-8893
Rj Delivery And Moving,48 Ingate Terrace,Arbutus,MD,21227,410-242-3987
E O S,10855 Baltimore Ave Suite H,Beltsville,MD,20705,301-419-0200
Nutter Trucking,4602 Copperfield Dr,Jefferson,MD,21755,301-473-8936
Island Transport,5034 Mt Zion Rd,Hurlock,MD,21643,410-754-7647
F & D Trucking,47 Edmundson Ln,Rising Sun,MD,21911,410-658-9787
Parker Unlimited Trucking,3802 Alta Vista Dr,Mitchelleville,MD,20721,301-731-8823
Baystar Express Enterprises,320 Matapeake Farm Lane,Stevenville,MD,21619,410-829-0157
Jerry Obaker Trucking,14212 Kings Grove Road,Ellerslie,MD,21524,301-876-8332
S Lagana Jr Trucking,3179 Harrow Ct,Waldorf,MD,20602,301-843-0597
R G Trucking,60 Cat Swamp Road,Elkton,MD,21921,410-398-0290
Allstar Delivery Service,3214 Lawnview Ave,Baltimore,MD,21213,443-765-2391
Marine Services,900 Swan Creek Rd C9,Fort Washington,MD,20744,301-292-0840
Horizon Trucking,6225 Gothic Ln,Bowie,MD,20720,301-464-8417
Jimmy Landon Septic Service,1440 Cypress Roan,Pocomoke City,MD,21851,410-957-0379
E A Paskins Transport,8131 Burnt Branch Drive,Salisbury,MD,21804,410-860-9176
C And M Transport,15 Rouzer Ct,Thurmont,MD,21788,301-698-1537
A T I,7522 Connelly Drive Suite P,Hanover,MD,21076,410-863-0054
C O L T,8600 Dyson Rd,Brandywine,MD,20613,301-372-6015
All Ace Trucking,7305 Glendora Ct,District Heights,MD,20747,301-336-4579
Vintage Transport Service,531 Frederick Street,Hagerstown,MD,21740,301-416-8363
Lustine Automotive Parts Group,4510 Longfellow Street,Hyattsville,MD,20781,301-927-4455
Trucking Company,9957 Good Lock Rd #103,Seabrook,MD,20706,301-794-6812
B C W Hauling Services,Po Box 251,Prince Frederick,MD,20678,410-535-0806
C & R Trucking,28302 Three Notch Road Suite 3,Mechanicsville,MD,20659,301-884-3627
"Marrow Services, Inc.",3817 64th Ave # 203,Landover Hills,MD,20784,301-772-6426
Food Specialities,11114 Baltimore Ave,Beltsville,MD,20705,301-595-2840
Browns Trucking Co,1827 Clifton Ave,Baltimore,MD,21217,410-523-7834
J E Renehan & Son,5848 Puckum Road,Rhodesdale,MD,21659,410-943-9876
Andrews Transport,12 Stoneridge Ct,Baltimore,MD,21239,410-494-8815
Jenkins & Son Hauling,Lot 126 Natl Mobile Home Park,Lexington Park,MD,20653,301-863-0144
Lewis Transport,2 Main St,E New Market,MD,21631,410-726-3288
Kk Bb Trucking,5827 Cedonia Ave,Baltimore,MD,21206,410-325-6055
D & M Transport,10459 Frederick Rd,Ellicott City,MD,21043,410-465-1028
Downs Motor Lines,1249 Potomac Ave,Hagerstown,MD,21742,301-416-7106
"Cars Of Maryland, Inc.",3701 Duncanwood Lane,Baltimore,MD,21213,410-732-8500
Sager Trucking,5863 Valley Drive,St Leonard,MD,20685,410-586-1407
C & W Trucking,28944 Jacqueline Dr,Salisbury,MD,21801,410-860-1953
"The Carpetman Services, Inc.",1916 Old Frederick Rd,Baltimore,MD,21228,410-719-0974
C O L T,8600 Dyson Rd,Brandywine,MD,20613,301-372-6015
Thomas Trucking,906 Washington Ave,La Plata,MD,20646,301-609-4563
Federal Transport,17 A Waters St,Gaithersburg,MD,20877,301-237-4459
D C Truck Co,2301 Maryland Ave,Baltimore,MD,21218,800-915-3946
R L Gray Specialized Hauling,521 Benton Corner Rd,Barclay,MD,21607,410-438-3273
Kamdem Trucking,2825 Middletown Rd,Waldorf,MD,20601,301-705-6453
Stewart Trucking,230 Mountain Terrace,Myersville,MD,21773,301-606-3604
G C Warren Jr Trucking,14001 Lord Marlborough Pl,Upper Marlboro,MD,20772,301-613-8513
Rick Lyall Trucking,199 Hilltop Rd,Elkton,MD,21921,443-309-0106
Brothers Division Of Hometown Services,4 Sandy Spring Court Apt 3,Thurmont,MD,21788,301-662-7053
Roys Trucking,1405 Crescent Spot Lane,Frederick,MD,21703,301-473-6830
Third Millennium Trucking,13906 Concord Ave,Laurel,MD,20707,301-953-0473
"3t&w Sisco Hauling, Inc.",341 Cannon Street,Chestertown,MD,21620,410-778-8167
A S Sweeney Trucking,Po Box 324,Indian Head,MD,20640,301-375-7172
R L Rhoades Trucking,205 Howard St,Elkton,MD,21921,410-620-2740
Maryland Trucking,26074 Cresent Lane,Mechanicsville,MD,20659,240-434-3357
W And M Sumuel Transportation,910 Elton Ave,Baltimore,MD,21224,410-285-8746
Mountain View Farm,2335 Harpes Ferry Road,Sharpsburg,MD,21782,301-432-8799
Packel Transport,3029 Old Channel Road,Laurel,MD,20724,301-507-4331
Colonial Moving & Storage Co,9900 Fallard Court,Upper Marlboro,MD,20772,301-856-6500
R & T Randolph Trucking,2740 Keating St,Temple Hills,MD,20748,301-423-6149
F& A Transportation,6012 Lottie Place,Clinton,MD,20735,301-877-9138
Triple T Express,607 Oakland Hills Ct,Arnold,MD,21012,410-703-1264
Pierre Trucking,Box 116,Chewsville,MD,21721,301-824-3035
Casper Sewage Service,10884 York Rd,Cockeysville,MD,21030,410-666-1015
R & R Trucking,6128 Blackberry Ln,Girdletree,MD,21829,410-632-4885
Lombardi Transfer,2623 North Calvert St,Baltimore,MD,21218,410-235-5262
3 J's Trucking Co,18 Heraldry Ct,Woodlawn,MD,21244,410-277-9874
R D Parks Trucking,3701 Barclay Rd,Marydel,MD,21649,410-482-7039
Barton's Trucking,4 Village Way,Berlin,MD,21811,410-208-6381
Paul Savage Trucking,1115 Elwood Road,Oxon Hill,MD,20747,202-581-8788
Double D Trucking,3504 Eton Drive,Upper Marlboro,MD,20772,301-574-2518
Simpkins Trucking,11688 S Laurel Dr,Laurel,MD,20708,301-490-3940
J Kelly Jr Antiques & Moving,2926 Ridgewood Ave,Baltimore,MD,21215,410-367-5522
A Payton Trucking,3808 Holloway Circle,Upper Marlboro,MD,20772,301-437-7767
Jmt Trucking,Box 5,Cordova,MD,21625,302-369-1640
Marble Hill Trucking,10601 Virginia Ave,Cockeysville,MD,21030,410-628-0432
Automotive Transport Specialist,6003 Moser Rd,Boonsboro,MD,21713,301-416-2670
Emore's Trucking,30907 Chesterville Bridge Road,Millington,MD,21651,410-928-3591
Athey's Lavale Exxon,1253 National Hwy,Lavale,MD,21502,301-729-3510
Bankssons Trucking,11401 Capstan Drive,Upper Marlboro,MD,20772,301-627-2574
Lemmerman Trucking,117 Stonewall Road,Baltimore,MD,21228,410-788-3367
William Peterson & Son Hauling,6943 Hynson Road,Hurlock,MD,21643,410-754-5022
Esham Transportation,7427 New Hope Road,Willards,MD,21874,410-835-2231
Elite Linen Service,3001 Cowan Ave,Baltimore,MD,21223,410-646-5600
D & M Transport,6722 Larkspur Rd,Morningside,MD,20746,301-420-1691
Richards Transport,606 Mansfield Rd,Baltimore,MD,21221,410-780-7129
National Auto Transport,1300 Mercantile Lane #139-n,Largo,MD,20774,301-806-0214
Scales Trucking,8208 Redview Drive,Forestville,MD,20747,301-420-7067
Willis & Son Trucking,201 Royal Oak Circle,Hyattsville,MD,20785,202-315-6082
Wise Trucking,12455 Painted Horse Trail,Lusby,MD,20657,410-326-2156
Mobile Mechanics,49611 Fresh Pond Neck Rd,Scotland,MD,20687,240-434-1750
Ta Mcnair Transportation,10803 Marathon Dr,Upper Marlboro,MD,20772,301-856-4966
M S E Auto Transport,6401 Hawthorne Avenue,Elkridge,MD,21075,410-796-5643
First Joy Transport,12711 Hathaway Drive,Wheaton,MD,20906,301-332-3554
Egerton Trucking,3200 Northwind Rd,Baltimore,MD,21234,410-661-3714
Black Magic Transit,6551 Bock Rd,Oxon Hill,MD,20745,301-839-2495
Marshall Trucking,4411 29th St,Mt Rainer,MD,20712,301-277-2713
Gt Transport,522 New Bridge Road,Rising Sun,MD,21911,410-658-4333
Nickmar Trucking Co,2811 Beckon Drive,Edgewood,MD,21040,410-679-9446
S & A Tibbs Trucking,2000 Virginia Ave,Landover,MD,20785,301-773-7408
Williams Trucking,10 Staton Dr,Upper Marlboro,MD,20774,301-249-1356
Belew Trucking,331 Calvert Road,Rising Sun,MD,21911,302-530-2264
Elliott Pinkney Trucking,3703 Milford Ave,Baltimore,MD,21207,410-542-9133
Wolfe's Transport,7461 Watersville Rd,Mt Airy,MD,21771,301-829-1466
Duck's Trucking,118 Huron Drive,Forest Heights,MD,20743,301-567-2820
Davis Trucking,4708 Jones Village Rd Pob 694,Hurlock,MD,21643,410-943-1078
"Amaya Trucking, Inc.",7700 Conowingo Ave,Jessup,MD,20794,240-330-7443
B & S Trucking,1826 Trenleigh Rd,Baltimore,MD,21234,410-661-6080
Coleman Trucking,1936 Hilltop Rd,Pasadena,MD,21122,410-360-5148
Hauled & Installed,4973 Joshua Thomas Rd,Crisfield,MD,21817,410-968-2158
R Jolly Trucking,2617 Nicholson St #102,Hyattsville,MD,20782,301-853-0340
Kobo Group Corp,305j Mountain Ridge Ct,Glen Burnie,MD,21061,410-971-4677
"Stokey's Trucking, Inc.",3449 Williamsburg Drive,Waldorf,MD,20601,478-256-4938
W V Lemon & Sons Trucking,309 W Church St,Hebron,MD,21830,410-747-1046
S D Morris & Sons Transportation,7954 Belle Ave,Hebron,MD,21830,410-548-2885
Dunbars Delivery Service,39429 Summit Hill Drive,Mechanicsville,MD,20659,301-290-1745
"G C Trucking, Inc.",50 Pebble Drive,Baltimore,MD,21225,410-789-8773
B Trax Trucking & Logistics,304 Highmeadow Road,Reisterstown,MD,21136,410-833-8959
M & S Trucking,1800 Main Street,Baltimore,MD,21227,410-242-3548
W E B Trucking,513 Hearne Lane,Salisbury,MD,21801,410-749-1940
"Lukes Trucking, Inc.",6408 Symposium Way,Clinton,MD,20735,301-868-5157
Deborah A Trucking,6119 Detrick Rd,Mount Airy,MD,21771,301-831-9574
Lisbon Citgo Auto Center,15943 Frederick Road,Lisbon,MD,21765,410-489-5400
R & C Pennington Trucking,11402 Drop Road,Williamsport,MD,21795,301-223-8415
Mendez Hauling,19515 Frederick Rd # 99,Germantown,MD,20876,301-515-6853
R & L Automotive Service & Transportation,19108 Cherry Bend Dr,Germantown,MD,20874,301-515-1098
Double R Trucking LLC,10611 Lanrell Hill Dr Sw,Frostburg,MD,21532,301-689-3436
Davis Trucking,Stage Rd 9275,Delmar,MD,21875,410-896-3042
Team Transport,27785 Greenwood Road,Denton,MD,21629,410-479-3791
Road Service,2901 Kaverton Rd,Forrestville,MD,20747,301-350-4800
Custom Services,4521 Locust Grove,Rohrersville,MD,21779,301-758-6332
T T & T Trucking Co,2103 Artic Fox Dr,Bowie,MD,20721,703-599-5538
Kiara Trucking,3540 Crain Hwy #189,Bowie,MD,20716,301-390-5513
Southern Auto,522 69th St,Capitol Heights,MD,20743,301-808-9163
"Compact Auto Works, Inc.",8520 Edgeworth Dr,Capitol Heights,MD,20743,301-336-6661
Bailey's Trucking,3603 Sylvan Dr,Baltimore,MD,21207,410-265-6250
Monarch Trucking,3823 Purdum Drive,Mt Airy,MD,21771,301-607-9007
Mark Lawson Trucking Co,6754 Eldorado Rd,Federalsburg,MD,21632,410-754-2444
H R S Trucking,3482 Dolfield Ave,Baltimore,MD,21215,410-764-1210
Candy Trucking,11708 Scarlet Leaf Cir,Germantown,MD,20876,240-505-1632
Toro Transportation,25 Alexander Ct,Owings Mills,MD,21117,410-356-4224
Carl E Ratliff Trucking,12019 Galena Rd,Massey,MD,21650,410-928-5616
"T E Krontz Jr Contract Truck, Inc.",5500 Ballman Ave,Baltimore,MD,21225,410-789-8045
Rellie's Distributors,3725 Offutt Rd,Randallstown,MD,21133,410-521-9386
Iverth Ovando Trucking,7919 Spiceberry Circle,Gaithersburg,MD,20877,301-721-2883
R & D Express,2659 Merchant Drive,Baltimore,MD,21230,443-692-4002
F & B Appliances,1991 West Street,Annapolis,MD,21401,410-266-6770
John M Lofty Transportation,13218 Van Brady Rd,Upper Marlboro,MD,20772,301-888-9624
P T I,2787 St Johns Ln,Ellicott City,MD,21042,410-750-8279
Markym Transportation,5344 W Boniwood Turn,Clinton,MD,20735,301-877-0730
Ms Desserts-bakery Express,4711 Hollins Ferry Rd,Baltimore,MD,21227,410-281-2000
Vga Transportation,5426 Moose Lodge Road,Cambridge,MD,21613,410-829-2217
T & M Transportation,516 Craig Hill Channel Dr East,Perryville,MD,21903,410-939-2919
Sidola Shuttle Services,7710 Maple Avenue #d,Takoma Park,MD,20912,301-891-2239
Maryland Piano Service,9143 Red Branch Rd Suite C,Columbia,MD,21045,410-997-8388
Gm Giant,7677 Ocean Gateway,Easton,MD,21601,410-822-1010
Coles Trucking,425 Hearn Ln,Salisbury,MD,21801,410-546-2138
Jackson's Trucking,9106 Constantine Dr,Ft Washington,MD,20744,301-248-1823
B & W Transport,11426 Upper Georges Crk Rd Sw,Frostburg,MD,21532,301-689-2205
Ehw Trucking,10808 Pookey Way,Upper Marlboro,MD,20774,301-341-4752
Butler Tire Service,6813 Plantation Rd,Frederick,MD,21701,301-663-1343
Jones Trucking,4950 Skinner Run Rd,Hurlock,MD,21643,410-754-0326
Hvac York Int Corp,9055 A Gilford Rd,Columbia,MD,21046,410-720-5005
C L Moore Trucking,213 Konran Morgan Way,Lothian,MD,20711,301-627-0909
Cambridge Creek Automotive Sales,701 Moreland Avenue,Cambridge,MD,21613,410-228-6100
Clh Transportation,2009 Sherwood Avenue,Baltimore,MD,21218,410-235-2157
La Villa Food Distributors,3501 52 Ave,Hyattsville,MD,20781,202-543-9677
"R L Johnson Trucking, Inc.",3744 Boarman Ave,Baltimore,MD,21215,410-496-1037
Tharp Trucking,564 Bailiff Road,Northeast,MD,21901,410-287-0124
Crown Trucking,5395 Broadwater Alne,Clarksville,MD,21029,410-531-0547
S & B Johnson Family Trucking,317 Brookdale Drive,Salisbury,MD,21804,410-860-2083
Nelson Mejia Trucking,3332 Buchanan Street #301,Mount Rainier,MD,20712,301-699-5908
J B Trucking,8715 Downey Rd,Severn,MD,21144,410-519-8584
Joe Brice Trucking,14053 Vista Drive,Laurel,MD,20707,301-725-2579
Wallace's Construction & Trucking,1605 Howard Avenue,Baltimore,MD,21221,800-962-1019
Hotline Auto Transport,18710 Walkers Choice Rd Ste 2,Montgomery Village,MD,20886,301-948-3532
Pro-tow And Transport,12411 Hickory Tree Way Unit G,Germantown,MD,20874,301-540-1097
Bowie Brother Trucking,214 Berlin Ave,Baltimore,MD,21225,410-355-2578
Fabrizio Trucking,9295 Crain Hwy,Port Tobacco,MD,20677,301-399-7683
Victor James Shiflett Trucking,1824 Walnut Ave,Baltimore,MD,21222,410-284-4129
Igl Trucking,7466 New Ridge Road,Hanover,MD,21076,410-859-5519
J S Thompson Trucking,38173 Frank Hall Lane,Chaptico,MD,20621,301-769-4267
A & D Trucking,1807 Thomas Lane,Salisbury,MD,21801,410-543-7930
Big Mo Recording Services,9517 B Baltimore Ave,College Park,MD,20740,301-982-1156
Ronnie's Moving And Delivery,79 Harry S Truman Dr,Largo,MD,20774,301-350-8566
H L H Trucking,1304 Shore Road,Baltimore,MD,21220,410-686-0689
J Bennett Trucking Co,8208 Steve Dr,Forestville,MD,20747,301-350-1687
T J Dove Trucking,13840 Travilah Rd,Rockville,MD,20850,301-294-4850
Johnson & Johnson Logistics,620 Cady Drive,Fort Washington,MD,20744,301-248-9295
New Roads,2 North Maple Avenue,Ridgely,MD,21660,410-634-2060
Moped Express,6435 Livingston Rd # 202,Oxon Hill,MD,20745,301-749-5576
Tringali Trucking,1605 Pincay Court,Annapolis,MD,21401,410-974-1187
Irick Trucking Co,4417 Payne Dr,Fort Washington,MD,20744,202-359-6389
Carter & Draper,1531 Ruthsburg Rd,Centreville,MD,21617,410-827-7201
Dcs Trucking,8866 Chesapeake Lighthouse Dr,North Beach,MD,20714,301-855-6149
J Olive Trucking,1310 Heather Hill Road,Baltimore,MD,21239,410-296-4370
A & B Transport,113 Baltimore Dr,Stevensville,MD,21666,410-643-1143
Wen's Enterprises,845 Harwood Rd,Harwood,MD,20776,410-798-0763
Taylor Trucking,512 Harrington Rd,Rising Sun,MD,21911,410-259-6091
C & J Trucking,8882 Storchwoods Dr Apt 1a,Savage,MD,20763,301-604-6352
A And S Trucking,7930 Pine Boulevard,Lusby,MD,20657,301-855-9737
Jed Watters Trucking,2120 W Fayette Street,Baltimore,MD,21223,410-945-8152
Majors Transport,5821 Fisher Road #101,Temple Hills,MD,20748,301-630-6366
Midnight Carrier,5912 Walker Mill Rd,Capitol Heights,MD,20743,202-288-3838
P & H Hauling,1970 Forest Drive,Annapolis,MD,21401,410-974-6866
"Eds, Inc.",1415 Bush Street 2nd Floor,Baltimore,MD,21230,410-727-7942
John T Smith Trucking,12021 Clark Rd,Worton,MD,21678,302-629-5090
Mathias Trucking,13725 Motters Station Rd,Rocky Ridge,MD,21778,301-271-4153
Snt Auto Transport,1824 Metzerott Rd Suite 102,Adelphi,MD,20783,301-332-5251
Clark Transportation,1909 Hillside Drive,Baltimore,MD,21207,410-944-0974
Rcm Transport,7114 Ganey's Wharf Rd.,Preston,MD,21655,410-673-7283
F & C Distributing,19202 Poffenberger Road,Hagerstown,MD,21740,301-733-0870
Todd Wilson Trucking,406 Robinson St,Salisbury,MD,21801,410-546-5396
Carter Trucking,1040 Dartmouth Rd,Waldorf,MD,20602,301-870-0343
Nitram Trucking,4304 Russell Ave,Mt Rainier,MD,20712,703-491-4265
Young's Tank Lines,1352 Locust Avenue,Bel Air,MD,21014,410-879-0112
John's Trucking,6210 Attwood Street,Forestville,MD,20746,301-735-9236
D & M Auto Recovery,9300f D'arcy Road,Upper Marlboro,MD,20774,301-372-3700
M James Transportation,137 Royalty Cir,Owings Mills,MD,21117,410-917-9380
Dorsey Trucking,2623 Brantley Road,Pocomoke City,MD,21851,757-824-5270
Simmons Transportation Service,617 Center Drive,Severna Park,MD,21146,410-315-8632
M D R Trucking,10502 Pookey Way,Upper Marlboro,MD,20774,301-333-5211
Russell Transport,7421 Shady Glen Terrace,Capitol Heights,MD,20743,301-324-4955
Mb Express LLC,9304 D'arcy Road,Upper Marlboro,MD,20774,301-333-8551
V S I,8837 Brookville Rd,Silver Spring,MD,20910,301-585-0660
Eveready Trucking Service,1606 Wadsworth Way,Baltimore,MD,21239,410-323-5040
Webb & Son Trucking,8590 Northumberland Drive,Delmar,MD,21875,410-546-8052
Willis Hauling And Contracting LLC,2008 Thistlewood Dr,Fort Washington,MD,20744,301-265-9298
Baby Boy Trucking,10735 Casper Street,Kensington,MD,20895,240-876-4114
T K Trucking Co,692 Wise Ave,Baltimore,MD,21222,410-285-5672
Brooks Trucking,3218 Beaver Dam Rd Calvert Co,Cheseapeake Beach,MD,20732,410-257-3913
B & J Trucking Company,1906 Waeche Place,Mitchellville,MD,20721,202-529-2840
"Medmar Trucking, Inc.",4009 Havard St,Silver Spring,MD,20906,301-942-2018
Allstate Moving And Storage,5601 A Lafayette Place,Hyattsville,MD,20781,301-277-5400
Frazier Trucking,P O Box 373,Hurlock,MD,21643,410-754-5275
Kahill Trucking,702 Brownsville Road,Centreville,MD,21617,410-758-0038
Mcleod Trucking,12010 Settlers Trail,Lusby,MD,20657,410-326-1909
Eddies Trucking,12022 Fort Washington Road,Fort Washington,MD,20744,703-496-0103
Ashton's Trucking,5605 Janice Lane,Temple Hills,MD,20748,301-894-2841
A L Handy Trucking,29631 Deal Island Rd,Princess Anne,MD,21853,410-651-1115
Jesse Marks Trucking,6225 Gothic Lane,Bowie,MD,20720,410-867-4819
R David Hooper Transportation,6303 Palmer Mill Rd,Hurlock,MD,21643,410-376-3496
Camacho & Sons Transport,4067 Diamond Street,Trappe,MD,21673,410-476-4765
Preferred Properties Services,5810 47th Avenue,Riverdale,MD,20737,301-927-5555
A S P Transport,13184 Clarksville Pike,Highland,MD,20777,240-463-7188
Oscar Lyles,6340 Damascus Road,Gaithersburg,MD,20882,301-674-6088
Tony's Moving & Storage Co,100 Railroad Ave,Westminster,MD,21157,410-875-6683
"Loughlin Transport, Inc.",427 Autumn Harvest Ct,Abingdon,MD,21009,410-569-5012
R & S Express,12345 Hg Trueman Road,Lusby,MD,20657,410-326-0485
Bradshaw Trucking,2505 Wagner Ave,Baltimore,MD,21219,410-388-2008
Langler Trucking Service,11238 Commanche Road,Lusby,MD,20657,410-326-6536
Langler Trucking,84 German Chapel Road,Prince Frederick,MD,20678,410-394-0747
Ballard Trucking,7727 Dividing Creek Rd,Pocomoke,MD,21851,757-665-5508
Cargill Trucking,6910 Mason Spring Rd,La Plata,MD,20646,301-743-3972
Five Star Trucking,11200 Lenox Drive,Upper Malboro,MD,20772,301-350-3172
B & E Transport,14100 Brandywine Rd # 346,Brandywine,MD,20613,301-343-7075
James Simms Trucking Serv,13405 Old Indain Head Road,Brandywine,MD,20613,301-372-1720
Mario Bonilla Ortez Trucking,2016 Forest Dr,Annapolis,MD,21401,410-295-7880
N V Trucking,12300 Asbury Drive,Fort Washington,MD,20744,301-292-1793
Montgomerys Storage & Hauling,381 Jackson Park Rd,Port Deposit,MD,21904,443-350-0336
M&b Trucking Service,8411 Clay Drive,Ft Washington,MD,20744,301-567-6278
T H C S,11700 Old Baltimore Pike,Beltsville,MD,20705,301-931-0444
A R C S,10009 Westphalia Rd,Upper Marlboro,MD,20774,301-808-6600
Home Sweet Home Moving & Storage,2443 Linden Lane,Silverspring,MD,20910,301-565-9326
Dorseys Bus Service,12559 Still Pond Creek Rd,Still Pond,MD,21667,410-778-0138
K G Trucking,4514 Akron St,Temple Hills,MD,20748,N/A
Klavuhn Transfer,88 Lamar St,Cumberland,MD,21502,N/A
"John Menges Trucking, Inc.",4405 National Pike,Grantsville,MD,21536,301-895-4002
White Plains Transportation,Box 97,White Plains,MD,20695,301-934-4146
Central Delivery Service,6501 Virginia Manor Rd,Beltsville,MD,20705,301-210-0100
"Griffith Log Hauling, Inc.",1638 Trappe Church Road,Darlington,MD,21034,410-734-7729
Government Contract Services,24350 Old Hollywood Rd,Hollywood,MD,20636,301-373-3355
Randolph G Cummins,44 Yost Pl,Capitol Heights,MD,20743,301-350-0070
Handy`s Charter Service,1915 Spring Hill Rd,Salisbury,MD,21801,N/A
Grimes Truck Center,1301 E Patrick St,Frederick,MD,21701,301-663-6262
Turner's Trucking,P O Box 262,Vienna,MD,21869,410-543-4863
Lee Jac Transportation Specialists,1937 Grant Road,Baltimore,MD,21227,410-440-0264
Wm N Smith Trucking,14810 Greensboro Rd,Goldsboro,MD,21636,410-482-6798
Dubs Trucking,216 Emmitsburg Road,Thurmont,MD,21788,301-271-2006
John Mauchamer Trucking,12500 Two Farm Dr,Silver Spring,MD,20905,N/A
Wayne Anthony Trucking,207 Glen St,Chestertown,MD,21620,410-778-2970
Suddath Relocation Systems,1710 Crossroads Drive,Odenton,MD,21113,410-874-1010
Mike Palmer Trucking Co,1258 Delmont Rd,Severn,MD,21144,N/A
R & R Transport,Rt 2 Box 438,Pocomoke City,MD,21851,843-387-5233
Prophet Trucking,2324 Eskow Ave,Baltimore,MD,21227,410-536-1830
Gladney Transportation,2301 Sinclair Ln,Baltimore,MD,21213,410-522-4900
Choate Trucking,2001 Conowingo Rd,Belair,MD,21014,410-838-0155
Ehf Trucking,P O Box 52,Goldsboro,MD,21636,N/A
Stevensons Trucking,3682 Union Church Road,Salisbury,MD,21804,410-742-4127
J L Eure Trucking Co,635 W Main Street,Salisbury,MD,21801,301-546-5832
Hudson Litter Service,Rte 452 Box 264,Berlin,MD,21811,N/A
J D Eure Trucking,6727 Levin Dashiell Rd,Hebron,MD,21830,410-742-7391
Ben Underwood's Trucking,2704 W Woodwell Rd,Baltimore,MD,21222,410-636-2030
Southern Tire And Auto Centers,3060 Old Washington Rd,Waldorf,MD,20601,301-638-2220
Fairgrieve Trucking Co,17500 Lower George's Creek Rd Sw,Lonaconing,MD,21539,301-463-2017
Cooper`s Tractor Service,Route 3 Po Box 461,Smithsburg,MD,21783,N/A
C Stowers Trucking,742 Masons Beach Rd,Deale,MD,20751,301-261-5180
Beasley Trash Service,6527 Parkway Ct,Hyattsville,MD,20782,N/A
Back & Forth,P O Box 23611 405 E Preston St,Baltimore,MD,21202,N/A
