Company Name,Street Address,Address Locality,Address Region,Postal Code,Telephone
Walt's Trucking,437-12th Street,Port Huron,MI,48060,810-982-1804
Eclipse,1855 W Richardson Rd,Bad Axe,MI,48413,989-975-2685
Two Men And A Truck,2508 Harte Drive,Brighton,MI,48114,810-588-5930
D L S Enterprise,33430 Us-12,Burr Oak,MI,49030,269-716-0203
Cross-roads Transportation Services,362 Dr M L King Blvd S,Pontiac,MI,48341,248-335-0166
"M4 Transportation Services, Inc.",3490 Viaduct St Sw Suite B,Grandville,MI,49418,616-534-2411
Borderline Transportation,250 S Fair,Benton Harbor,MI,49022,313-492-3892
Charles Verschatse Distributing,45748 Gable Drive,Macomb,MI,48044,586-465-1704
Tecumseh Transmissions,10106 Grinnell St,Detroit,MI,48213,313-579-5780
M & H Trucking,910 Chittock,Jackson,MI,49203,517-780-9712
Kangaroos Transport,6441 Tucker Rd,Holly,MI,48442,248-640-4422
Savu's Transport Solutions,22142 Mary St,Taylor,MI,48180,313-295-6050
Green Era Insulation,5198 South 12th Street,Portage,MI,49024,269-978-8613
P & G Powerwash Service,159 S 168th Ave,Holland,MI,49424,616-399-5201
Arka Services,7555 West Broomfield Rd,Remus,MI,49340,989-561-2677
Rons Restoration And Services,32375 Howard Ave,Madison Heights,MI,48071,248-583-0022
Absolute Transit,270 Maple Run,Mason,MI,48854,517-676-5305
Kelly Caldwell,14900 Byron Road,Byron,MI,48418,810-266-4016
Tak Haulers,7454 Kimball Road,Lyons,MI,48851,989-855-2670
Utts,308 Jackson Plaza,Ann Arbor,MI,48103,734-623-8473
Mcgourty Trucking,819 W Maynard Rd,Sanford,MI,48657,989-687-5166
Bms Trucking,1629 E George St,Hazel Park,MI,48030,586-553-5025
Jnl Distributing,3124 - 24th Ave,Jamestown,MI,49427,616-896-8464
Redline Trucking LLC,3181 Dean Road,Lambertville,MI,48144,419-277-4527
Rizzos Transportation,2470 3rd Street,Trenton,MI,48183,734-307-3154
Peels Auto,103 George,Galien,MI,49113,269-545-0242
M & M Logistics,7197 Saginaw Hwy,Grand Ledge,MI,48837,517-402-5005
Victory Trucking & Disaster Relief,201 Rains Drive,Gladstone,MI,49837,906-428-4660
Holder Carrier Service,7240 W Coldwater Rd,Flushing,MI,48433,810-659-1384
Betz Trucking,13368 Pence Highway,Jasper,MI,49248,517-403-6364
Jeffrey's Auto Resale,25275 Gratiot Ave,Roseville,MI,48066,586-615-6548
Miller's Hauling,6623 W 24th St,Fremont,MI,49412,231-924-1279
Greater Kalamazoo Auto Auction,900 N Us 131,Schoolcraft,MI,49087,269-679-5021
Action Trucking LLC,12105 Washburn Road,Columbiaville,MI,48421,810-793-2340
Sahara Trucking,2340 Leslie,Detroit,MI,48238,313-457-3354
D E I,6275 Oakville Waltz,Carleton,MI,48117,313-574-3327
Bestway Auto Sales,8338 Livernois,Detroit,MI,48204,313-220-5300
Big D Transport,6117 Loraine Street,Romulus,MI,48174,313-204-5683
Wildermuth Trucking,3734 Shearer Rd,Coleman,MI,48618,989-492-6377
A2b Trans,4301 Old Castle Circle,Lansing,MI,48911,517-712-0417
Jp Trucking,606 Dane Dr,Monroe,MI,48162,734-915-6094
Get It Done Trucking,3813 Pendell Rd,Middleton,MI,48856,989-236-5031
Tow Truck Driver,7755 Steadman,Dearborn,MI,48126,313-878-4488
Fox Trucking LLC,10127 West Broomfield,Remus,MI,49340,989-561-2633
Greca Auto,12700 Sharon Hollow,Manchester,MI,48158,734-428-9574
C & S Distributors,730 Deadwood Lane,Brighton,MI,48114,810-220-8886
Car Hauling,20406 Brooklawn Dr,Dearborn Heights,MI,48127,313-485-8500
M And M And Sons Trucking,9609 M-52,Perry,MI,48872,517-625-3418
Young's Repair Service,10953 Fisher Rd,Yale,MI,48097,810-387-3796
Big Boi Trucking LLC,6301 Lansing Road,Lansing,MI,48917,517-803-1734
1-n-only Trucking,3300 N Michigan Ave,Saginaw,MI,48604,989-213-8001
Dl Distributing,17164 Eleir Dr,Clinton Twp,MI,48038,586-226-8947
"J's Mobile Repair Service, Inc.",8583 Lake Road,Grosse Ile,MI,48138,313-215-5429
John Proctor Trucking,16496 110th Ave,Evart,MI,49631,231-743-6311
Glens Car And T,3465 S Fort Street,Detroit,MI,48217,313-928-0208
Blackheart Express & Logistics,1575 London Ave,Lincoln Park,MI,48146,519-966-2001
Clinton Reames Trucking,453 Otter Run Rd,Holly,MI,48442,248-534-8891
Roofing Service Specialists LLC,502 Warren Street,Charlotte,MI,48813,517-485-3875
Bob's Truck & Equipment Repair,3945 Dove Rd,Port Huron,MI,48060,810-388-9840
Roadrunner Trucking,4305 Baumhoff Ave Nw,Comstock Park,MI,49321,616-453-3478
Tnl Transport,5075 110th Ave,Evart,MI,49631,231-250-2529
Thumb Trucking,1684 W Miller Rd,Sandusky,MI,48471,810-404-5458
Uncle's Transportation,5201 Chatsworth St,Detroit,MI,48224,313-884-9350
Tcmt Transport,4040 Lansing Ave,Jackson,MI,49202,517-914-1220
K D Horn Trucking,6480 116th Ave,Fennville,MI,49408,269-227-3053
Mike Mulherin Transportation,11056 Van Natter,Otisville,MI,48463,810-397-2110
Stacy Y Denney,12888 Sprinkle Rd,Vicksburg,MI,49097,269-649-1100
Ron Packnett Trucking,4395 Meadows Ave,Grand Blanc,MI,48439,810-743-7585
Tdr Trucking,1118 26th St,Allegan,MI,49010,616-405-3130
Guy Weeks Trucking,19840 Pierce Rd,Stanwood,MI,49346,231-823-2400
O'neils Auto,817 Hall St,Eation Rapids,MI,48827,517-663-4092
Billy Zann Transport,103 South Chester Rd,Charlotte,MI,48813,517-719-0016
Serious Trucking,5237 Northwood Rd,Grand Blanc,MI,48439,810-694-3791
Jlh Trucking,69086 Sevision Rd,White Pigeon,MI,49099,269-625-4289
B&t Express,8424 Samantha Lane,Fair Haven,MI,48023,586-273-7773
T B And Son Trucking,51214 Shadow Ridge Dr,Macomb,MI,48042,586-443-1045
Jsm Enterprises,4720 Vista Valley Trail,Mesick,MI,49668,810-406-1112
Great-way Trucking,3858 Bard Road,Beaverton,MI,48612,989-435-9621
B&k Schofield & Son Trucking,1201 Gunn Ave,Morley,MI,49336,623-214-7116
Alexis Transport,156 South Prospect Street,Ypsilanti,MI,48198,734-272-9699
Tringali Food Service,28055 Graham,Chesterfield Twp,MI,48047,586-949-7938
Meier Trucking,4294 Sloop Road,East Jordan,MI,49727,231-675-1120
Team Redwolf Truck'n,2280 E Carson City Rd,Sheridan,MI,48884,616-835-5700
Kanalos & Sons Transport,454 Farnham Ave,Lincoln Park,MI,48146,313-530-1214
Chaffee Trucking,57001 White Temple Rd,Vandalia,MI,49095,269-816-3145
Suburban Auto Expediting,11450 Mcgregor Court,Pinckney,MI,48169,734-229-0100
24 Seven,418 North Bridge Street,Belding,MI,48809,616-520-5993
Heavy Haulin,7176 W Outer Drive,Detroit,MI,48235,313-335-3070
Auto Air And Maintenacs,2029 Catalina,Niles,MI,49120,269-684-1739
Qth Logistics,48881 Denton Rd Apt #8,Belleville,MI,48111,313-663-3698
Success Moving,271 Bloomfield Blvd,Bloomfield,MI,48302,313-790-2441
J M T Logistics,34379 Ivy Ct,Chesterfield Township,MI,48047,586-339-7168
Dial A Cab,24459 Bashian Drive,Novi,MI,48375,248-478-8400
Jt Trucking And Logging,8380 M-33,Atlanta,MI,49709,989-785-5029
Straightway Transport,28666 Hildebrandt St,Romulus,MI,48174,734-946-0050
Straightway Transport,28666 Hildebrandt Road,Romulus,MI,48174,734-946-1653
Edward L Egeler Jr,2719 Court St,Brighton,MI,48114,810-515-6907
66 Trans,360 E Tuttle Rd Suite 154,Ionia,MI,48846,N/A
Cev Delivery Services,35585 Industrial Road,Livonia,MI,48150,313-561-0027
Cargo Truckin,1815 Whittlesey Street,Flint,MI,48503,810-429-6437
M&m Express Services LLC,2543 Mapleview Ct Se,Kentwood,MI,49508,616-293-9061
Ontime Freightlines,1561 Fuller Avenue Ne,Grand Rapids,MI,49505,616-272-3957
"Fortress Field Service, Inc.",4305 S Division,Grand Rapids,MI,49548,616-843-5600
D & L Services,22181 Perry St,Edwardsburg,MI,49112,269-699-5450
Everett Betts Authorized Distributor Of Matco Tools,118 Grand St,Coldwater,MI,49036,517-227-1153
Shadow Transport,432 Skyline Dr,Horton,MI,49246,517-688-9045
Jac Transport,25312 Pleasant Creek Dr,Brownstown,MI,48134,734-286-1864
Gto Transport,3628 West Kipp Road,Mason,MI,48854,517-202-8758
Mccarley Trucking Co,1574 Dorothy Ave,Adrian,MI,49221,151-726-5846
Byrne Trucking And Deliveries,9100 North Derby,Six Lakes,MI,48886,989-572-8973
Triple O Trucking,8993 Springwood,Belleville,MI,48111,734-325-6286
Detroit Logistics,9119 Thaddeus St,Detroit,MI,48209,313-843-7281
K & C Logistics,25412 Lehigh,Dearborn Heights,MI,48125,734-968-6063
Broughton Trucking,3113 Linda Dr,Flint,MI,48507,810-606-0062
Conestoga Express,6081 W Grand Ledge Highway,Sunfield,MI,48890,517-566-4321
K J C Trucking,24835 68th St,South Haven,MI,49090,269-427-8635
Mikes Auto,99 East Hwy M 35,Gwinn,MI,49841,906-346-9444
R & S Transport,12143 Francis Rd,Flushing,MI,48433,810-638-2002
Top Notch Express,31205 Floralview Dr N #205,Farmington Hills,MI,48331,586-350-8359
Davis Transport,10711 West Kelly Road,Lake City,MI,49651,231-876-0333
Zeigler Trucking,8495 Dietz Rd,Belding,MI,48809,616-893-8080
Al-an Logistics,9356 S Hollister Rd,Laingsburg,MI,48848,517-719-7967
Jj Trucking,2323 Nixon Rd,Howell,MI,48843,517-861-0411
L& J Transportation,1521 S Mill Iron Rd,Muskegon,MI,49442,231-955-1272
Ws Logistics Unlimited,324 E Dewey St Suite 208,Buchanan,MI,49107,269-695-0203
Shilling Trucking,905 Lester Rd,Reading,MI,49274,517-639-8252
K & W Transport,6914 Bunker Hill Rd,Williamsburg,MI,49690,231-267-5189
T Bandit Transport,5144 Booth Road,China Towhship,MI,48054,810-499-8040
Hillard Electric,10147 Locust Ave,Howard City,MI,49329,231-937-5600
Moore's Transportation,558 Thornhill Ct,Belleville,MI,48111,734-699-2243
Saimen And Son,53870 Ridge Rd,New Baltimore,MI,48047,586-725-4268
Maze Trucking,1121 Trillium Blvd,Vicksburg,MI,49097,269-760-4846
Harding Transport,3304 South 39 Road,Cadillac,MI,49601,231-468-1077
B & E Solutions,4250 Langley Ct Se,Grand Rapids,MI,49508,616-214-9900
Northern Transport And Recovery,4501 6 Th Street,Menominee,MI,49858,715-923-4064
John's Transport,61743 Crestlane Dr,Sturgis,MI,49091,269-467-7530
Jndj Transporting,42211 Garfield Rd Suit # 106,Clinton Township,MI,48038,586-744-9597
Dole Road Carriers,42952 Bradley Dr,Belleville,MI,48111,519-966-0010
A & V Transportation,1842 Carlisle Dr,St Joseph,MI,49085,269-325-4797
Cancinos Transportation,405 N Prospect St,Sturges,MI,49091,260-585-9216
Federal Bond Recover Service LLC,N991a State Highway M35,Menominee,MI,49858,715-775-0081
Karvakkos Market,34961 Tapiola Rd,Chassell,MI,49916,906-334-2541
Encore Transport,15580 N Us 27,Marshall,MI,49068,269-781-9066
Tri City Hot Shot,1395 Cass Avenue Rd,Bay City,MI,48708,989-892-4091
M & M Smith Trucking,N 15040 Ridge View Rd,Wilson,MI,49896,906-723-3006
Big Sky Trucking,775 North Miller Road,Saginaw,MI,48609,989-781-8970
Yougo,503 Mall Court,Lansing,MI,48912,347-981-7313
Cs2 Services,17039 Carriage Way,Northville,MI,48168,313-561-0027
T&a Trucking,8955 225th Ave,Reed City,MI,49677,231-388-0125
Best Mobile Homes,112 N Lafayette,Warren,MI,48091,586-668-0466
Bassi Trucking,6499 Dalton Drive,Flushing,MI,48433,989-295-2952
Arthur's Loads,147 Vevay Dr S,Mason,MI,48854,517-505-0248
Ah Trucking,14366 Barclay Street,Dearborn,MI,48126,619-599-2678
Panacea Transport,33860 Stonewood Dr,Sterling Heights,MI,48312,586-275-2690
Contract Delivery Services,4424 Wyatt Rd,Traverse City,MI,49684,231-932-7655
Skye Transportation LLC,6231 Morse Lake Rd,Alto,MI,49302,616-262-3757
The Transporters,201 S Washington St,Chesaning,MI,48616,810-513-8776
A & B Services,5844 Lone Wolf Trail,Kalkaska,MI,49646,231-258-0284
Pack Horse Transportation,4010 Bristol Ave,Comstock Park,MI,49321,616-784-3021
Goetterman Farms,12422 S Cork Rd,Morrice,MI,48857,517-612-0697
Blair Tours & Charters,18316-4 Woodland Dr,Spring Lake,MI,49456,231-739-4600
Phoenix Trucking,4390 Airwest,Kentwood,MI,49512,616-554-0505
Go Cargo Trailers,31228 Orla Engle Rd,Colon,MI,49040,269-432-3637
Taylors Trucking,4055 Vanslyke Rd,Flint,MI,48507,386-214-2919
Adams Transport Services,282 Creekside,Coopersville,MI,49404,616-997-2779
Arpin Of Michigan,5981 Commerce Dr,Westland,MI,48185,734-729-6712
Up North Transport,1344 Clous Road,Kingsley,MI,49649,231-534-4501
Croom Trucking,1050 Alma Avenue,Flint,MI,48505,810-836-5541
Motor City Plant Services,230 West Jefferson,Trenton,MI,48183,734-915-8028
Ben Sten Trucking,2196 Van Street,Prescott,MI,48756,N/A
Palmer Transport,1933 Hawley Highway,Saranac,MI,48881,616-642-6083
Topsy Trucking,5500 Milan-oakville Rd,Milan,MI,48160,734-323-7101
Wynn Express,304 Whaley Rd,Coldwater,MI,49036,517-404-1905
Fred Trucking,2003 S Milwaukee St,Jackson,MI,49203,517-960-6640
Zudell's Transport,2128 Illinois Ave,Flint,MI,48506,810-515-1493
Tj's Mobile Home Set Up & Delivery,4598 Graff Rd,Belding,MI,48809,616-835-7675
Kat Transportation,935 Third Ave,Lakeodessa,MI,48849,616-890-5767
Total Painting Service LLC,9131 Hyde Rd,Clark Lake,MI,49234,517-529-3968
Carman Custom,9810 Sarle Rd,Freeland,MI,48623,989-695-4562
Rj Young Trucking,5124 E 36th St,Newaygo,MI,49337,231-652-0340
Jims Trucking,8502 Reese Road,Birch Run,MI,48415,989-652-9364
Jerit Express LLC,14507 Washburn Road,Otter Lake,MI,48464,810-793-0096
M&m Transport,7064 Rolling Hills Drive,Waterford,MI,48327,248-481-1663
Wheels Express Logistics Co,10432 S Clare Ave,Clare,MI,48617,989-239-3045
Van Vorst Appraisal Service,1680 Hubble Road,Ionia,MI,48846,616-527-3231
Full Tilt Trucking,403 E Main,Morenci,MI,49256,517-260-5754
Elite Transport,4244 128th,Allegan,MI,49010,269-751-7366
"D & L Trucking, Inc.",E 4947 M 28,Autrain,MI,49806,906-892-8207
Transportation,31142 Hillbrok St,Livonia,MI,48152,248-996-7089
"85th Avenue Auto, Inc.",4556 85th Avenue,Evart,MI,49631,231-734-3923
Autossey Logistics,806 Willow Run Airport,Ypsilanti,MI,48198,734-961-0999
Wilson Logistics,3127 Gable St Sw,Grandville,MI,49418,616-885-6118
Truck Warz,2965 Midway Ln,St Clair,MI,48079,810-326-4350
Pell Transport Services,4803 West 112th Street,Grant,MI,49327,231-834-8648
Absolute Rigging & Millwrights,922 N M-37 Hwy,Hastings,MI,49058,269-945-5908
Eagle Nest Enterprises,5879 West River Road,Belmont,MI,49306,616-447-0714
Jv Recovery LLC,31746 Lynne Dr,Rockwood,MI,48173,734-890-1365
Richard Graham Trucking,W 3586 Us 2 And 41,Spalding,MI,49886,906-295-0053
Zenobio Trucking,1014 Doorchester,Grand Rapids,MI,49503,616-366-7221
Wt Co,2531 138th Ave,Dorr,MI,49323,616-681-2335
Fawn River Transport,14020 18 Mile Rd,Gowen,MI,49326,269-838-1771
W T Diemond Transport,137 First,Alpena,MI,49707,989-464-0333
Hyper Trucking,636 129th Avenue,Shelbyville,MI,49344,269-792-4242
Highway Freight Logistics,1570 Berkshire St,Westland,MI,48186,734-947-9563
Johnana Trucking,5253 Elmer Street,Detroit,MI,48210,248-508-1644
"Snack Stop Service, Inc.",519 West D St,Iron Mounain,MI,49801,906-774-9648
Land Express Us,5965 Mill Point Ct Se,Kentwood,MI,49512,616-855-2707
Lucky 7,6991 East Apple Ave,Muskegon,MI,49442,231-788-3535
Cedar Auto Repair LLC,8622 South Good Harbor Trail,Cedar,MI,49621,231-228-6320
R & B Trucklines,2267 Sandpiper Dr,Lapeer,MI,48446,810-664-7818
Esv Trucking,1785 Linn Rd,Williamston,MI,48895,517-897-5556
2 Bee's Trucking,35135 Parkdale,Livonia,MI,48150,248-207-8654
Westview Construction Services,11200 Lemen Rd,Whitmore Lake,MI,48189,734-839-6636
Ridgeview Farm,11630-100th Street,Alto,MI,49302,616-868-0319
Jaam Trans,324 Chevalier Dr,Howell,MI,48843,517-548-1347
Jr Trucking,2352 E Dayton Rd,Caro,MI,48723,989-670-5545
Mcneil Marketing,23328 Westbury St,St Clair Shores,MI,48080,586-623-0300
The Best Trucking,51194 Romeo Plank Rd Ste 454,Macomb,MI,48042,586-453-8523
Motorcity Car-go,4186 Coronet Ave,Canton,MI,48188,313-598-1183
Dt Trucking,930 Madison,Ypsilanti,MI,48197,734-383-3888
A C Delivery,946 Giddings Ave Se,Grand Rapids,MI,49506,616-322-6323
North Star Transport,811 West M-55,West Branch,MI,48661,989-345-4033
M & P Limo,6433 Yinger Ave,Dearborn,MI,48126,313-582-5716
Dps Transportation,50811 Arizona Ave,Novi,MI,48374,248-767-5979
Discount Food,2900 Wilson Ave,Grandville,MI,49418,616-669-4949
Mts Enterprises,8900 Struble Rd,Jerome,MI,49249,517-439-4687
Shelton Delivery,215 North Canal Lot 62,Lansing,MI,48917,517-490-3665
Rg Eagle Transportation,52465 Fawn Drive,Macomb,MI,48042,586-677-1556
Gc Transport,18236 Savage Rd,Belleville,MI,48111,734-697-9855
Action Transportation,3028 Roosevelt,Dearborn,MI,48124,313-447-9178
Pa Transport,40986 Crossbow Circle #106,Canton,MI,48188,734-358-4519
Map Transportation,7733 Woodgreen Dr,Westland,MI,48185,734-425-7845
Rumble Auto Transport,205 North Ridge St,Port Sanilac,MI,48469,810-442-9034
Chuck Collier Trucking,537 Allegan,Vermontville,MI,49096,517-726-0291
Schubach Transport,387 North Farver Rd,Elkton,MI,48731,989-553-0077
J D S Express,20 W Highwood Rd,Beaverton,MI,48612,405-283-0521
Tri Star Transit LLC,525 High St,Ionia,MI,48846,616-523-6011
50 50 Auto Transporters,24338 Country Squire Suite 310,Clinton Township,MI,48035,586-530-8195
Usarom Dracula,86 Crestfield Avenue,Troy,MI,48085,248-740-1654
Tk Webb Trucking,18302 2 Mile Rd,Hersey,MI,49639,231-832-3267
Jb's Hotshot Service,411 W Walker St,St Johns,MI,48879,989-224-8490
Turn Transport,29816 Spoon Ave,Madison Heights,MI,48071,248-640-6496
Boss Freight Logistics,3850 Second St,Wayne,MI,48184,734-326-1041
C & D Logistics,17000 Cedar Croft Place,Southfield,MI,48076,313-414-5590
Process Trucking,W9358 10th Street,Channing,MI,49815,906-542-7240
Eagle Auto Parts,56636 Wilbur Road,Three Rivers,MI,49093,269-273-1265
Robinhood Express,21635 Bulhand,Cassopolis,MI,49031,269-580-7866
Jim Lowe's Trucking And Expediting,8400 Metcalf,Avoca,MI,48006,810-459-2532
To Provide Storage And Transportation Services,15441 S Telegraph Road,Monroe,MI,48161,734-241-3088
Eagle Express,5431 Meredith Drive Apt 2a,Portage,MI,49002,269-327-2711
Phil Rai's Express,14835 Kentfield St,Detroit,MI,48223,313-794-6508
Last Truck In Line,464 Pinecone,Monroe,MI,48161,734-777-7648
Blue Glass Trucking,5370 Leland,Brighton,MI,48116,810-355-5363
Victory Transport,3312 Alpine Dr,Midland,MI,48642,989-615-9071
S & M Trucking,5130 Stecker St,Dearborn,MI,48126,313-584-6167
Sei,781 Congress,Marysville,MI,48040,810-434-8210
Maschino Moble Home Movers,4311 Rumsey,Pittsford,MI,49271,517-523-2537
Ml Express,1226 Sheridan Line Rd,Melvin,MI,48454,810-378-5411
Metcalf Transport,32459 John Hauk St,Garden City,MI,48135,734-458-2066
On Time Escort And Transport,31 Pickford Ave,Battlecreek,MI,49014,269-718-9961
D&v Transport,5817 St Lawrence,Detroit,MI,48210,313-585-6397
Mid Michigan Automobiles,717 North First St,Harrison,MI,48625,989-539-1488
R & L Transport,1504 E Main St,Kalamazoo,MI,49048,269-978-2563
Rio Verde Express,618 Franklin St Se,Grand Rapids,MI,49507,616-516-8899
A & K Trucking & Excavating,6228 Old Us 31 S,Charlevoix,MI,49720,231-547-1097
Sas Transport,28221 Kristina Circle South,Paw Paw,MI,49079,269-657-3852
Woodchuck Express,219 S Pine St,Mcbain,MI,49657,231-825-8213
Ama Transportation,369 Aniline Ave N,Holland,MI,49424,616-396-8392
Binder Transport,2758 Tennyson Drive Sw,Wyoming,MI,49509,616-532-6022
Flt Transport LLC,1272 W Green St,Hastings,MI,49058,269-945-4300
Safia Airport Service,6740 Merriman Rd #128,Ramulus,MI,48174,313-657-4251
Dove's Transport,620 South Broadway,Middleville,MI,49333,269-795-0075
Great Lakes Specialty Transport,18990 Kent Rd,Dundee,MI,48131,734-845-7175
Modas,6285 Taylor Drive,Flint,MI,48507,810-233-6417
J & L Auto Express,6630 Maple Rd,Frankenmuth,MI,48734,989-652-5055
Ace Moving,1105 Markham,Flint,MI,48507,810-701-7259
Zoomers Customs & Autobody,3101 11th St,Menominee,MI,49858,906-864-9925
Beluga Transport,2510 Saidla,Kalamazoo,MI,49001,269-377-5781
Blue Streak Logistics,121 W Long Lake Road Suite 200,Bloomfield Hills,MI,48304,877-425-8344
Tantilizers Express Transport,1036 Hamiltion Street,Jackson,MI,49202,517-410-1445
Lovett Transport,2500 Yensch Rd,Dundee,MI,48131,248-894-8738
Redd Knight,136 N Green Meadow Se,Grand Rapids,MI,49548,616-534-5599
Moseley Transportation,9585 Sussex Street,Detroit,MI,48227,313-838-3384
A & S Transport,4296 Plymouth Ave Se,Grand Rapids,MI,49508,616-281-5499
Pj's Transport,611 W Napier Ave,Benton Harbor,MI,49022,269-757-4541
Identity Sign & Lighting Service,3175 Mason Rd,Howell,MI,48843,810-599-5703
Dick Weed Transport,2605 Lone Pine Rd,Farwell,MI,48622,989-714-6166
T A Topkick Transport,23760 Marlow St,Oak Park,MI,48237,248-613-3348
Tjs Distribution,2052 Haines Road,Lapeer,MI,48446,810-358-9383
LLC,23450 Oneida,Oak Park,MI,48237,248-506-3323
Aml Services LLC,49851 W Huron River Dr,Belleville,MI,48111,734-218-1884
K W M Trucking,79 River Hills Dr,Holland,MI,49424,616-394-3085
R & J Auto Restoration And Fabrication,7294 Cade Road,Brown City,MI,48416,810-346-3012
Drf Transport,1018 Greenfield Rd,Bronson,MI,49082,517-392-8728
Sammut Trucking,354 Vinewood Street,Wyandotte,MI,48192,904-861-2916
Rtd Transport,185 Caribou Run,Dundee,MI,48131,734-322-7213
America's Finest Vehicle Transport,4649 60th St Sw,Wyoming,MI,49418,616-257-0787
J & C Transport,7680 Addison Road,Jerome,MI,49249,517-287-5169
Wahl Farms Transport LLC,10460 Willow Rd,Clinton,MI,49236,517-456-7671
Bracallister Trucking LLC,21744 Dogwood Court,Macomb Twp,MI,48044,586-337-1211
J & P Transportation,29488 Woodward Ave Suite 194,Royal Oak,MI,48073,862-228-0159
Jim Kooienga Trucking,3947 24th St,Dorr,MI,49323,616-681-0271
Monroe Freight Systems,10485 Tuttlehill,Maybee,MI,48159,734-625-3193
Eko Truckin',39053 Clocktower Dr,Romulus,MI,48174,517-740-5753
Farm 2 Market,1093 N Elba Rd,Lapeer,MI,48446,207-283-8482
D & A Trucking,136 S Church St,Climax,MI,49034,269-760-4552
D & P Trucking LLC,4309 N Rolland Road,Weidman,MI,48893,989-644-8146
M & S Trucking,15767 Jack-o-lantern Rd,Lanse,MI,49946,906-524-4018
Mcewen Trucking,15785 Jack-o-lantern Rd,Lanse,MI,49946,906-524-6859
Rivertown Trucking,1294 Texas Nw,Grand Rapids,MI,49544,616-350-4330
Vango Express,650 Linwood Ave,Battle Creek,MI,49037,269-964-8083
C M L Transport,1625 E Galien-buchanan Rd,Buchanan,MI,49107,269-591-2371
Dcp Transport,79811 M40,Lawton,MI,49065,269-624-4100
Cap Trucking,58646 Cathey,Washington,MI,48094,586-786-6252
K-t Food Service,233 Grove St,Allegan,MI,49010,269-806-3094
Michigan Center Garbage Service,4770 Hyde Rd,Clarklake,MI,49234,517-529-9644
Motor Express,6850 Calhoun St,Dearborn,MI,48126,313-414-2774
Robinson Trucking,1771 W Jefferson,Saint Louis,MI,48880,989-615-5574
Distribuidora Almanza,6284 Paraiso Oved,Fennville,MI,49408,269-561-5532
Rod's Trucking,3538 Sportsman Lane,Carleton,MI,48117,734-654-3170
Mhj-2 Freight,368 Auburn,Pontiac,MI,48342,248-858-9755
Masada Transport,38565 Cherry Hill Rd,Westland,MI,48186,734-560-6105
Maurilio's Delivery,538 West 21th Street,Holland,MI,49423,616-392-2002
Smith Express,16665 Gratiot Road,Hemlock,MI,48626,989-642-2016
Mullin Trucking,2909 Timberlane,Harrison,MI,48625,989-539-7600
Sera Transport Company,8554 Honeycomb Circle # 26-344,Canton,MI,48187,248-939-2732
Wonderful Express,14816 Wilfred Street,Detroit,MI,48213,313-304-6010
Whitten's Moving,50450 Pontiac Trail,Wixom,MI,48393,248-669-3140
L & L Trucking,19745 South Riverside Drive,Pickford,MI,49774,906-647-6814
Mccormick & Sons Transport,20212 Northline Road,Taylor,MI,48180,904-861-2916
Mcs Express,O-13238 Woodrow Ave,Grand Rapids,MI,49534,616-322-2029
Left Lane Auto Transport,6275 Satterly Lake Road,Mancelona,MI,49659,208-230-4164
Pace Services,4809 Walz Rd,Jackson,MI,49201,517-764-2247
Rutran's Auto Transport,9355 River Park Rd,Jackson,MI,49201,702-808-2120
Niileksela Forest Products,54354 Hwy M203,Hancock,MI,49930,906-483-4704
Twenty Two Trucking,5484 Walnut Grove Dr,Holly,MI,48442,248-953-2815
Luxury Limousine Dearborn,5445 Oakman Blvd,Dearborn,MI,48126,313-582-8970
L And L Trucking Expedite,20094 Pierson,Detroit,MI,48219,313-534-6573
Chuck's Chariots And Transport LLC,500 East Lansing Road,Charlotte,MI,48813,517-645-0600
Brown's Trucking LLC,9656 Purdy Rd,Harbor Beach,MI,48441,989-550-7610
Souss Express Company,8554 Honeycomb Circle 26 344,Canton,MI,48187,586-872-8433
E & E Transport Services,4758 Hochberger Rd,Eau Claire,MI,49111,269-449-2387
"Thunderbolt Express, Inc.",12237 Burcoyne Rd,Buchanan,MI,49107,269-697-4344
Dave's Auto Transport,2890 South Getty Street,Muskegon,MI,49444,231-760-0550
Jps Marketing Communications,45525 Grand River,Novi,MI,48374,248-735-7600
Hadley Auto Transport - Leaseway Motorcar Transport - E & L Transport Company,17000 Federal Dr,Allen Park,MI,48101,313-254-1000
Jbc Trucking And Paving,10425 Cork Rd,Morrice,MI,48857,989-666-1545
Latd Auto Transport,5505 Oakville Waltz,New Boston,MI,48164,313-550-4987
Stivo X-press,18670 Sharon Rd,Oakley,MI,48649,989-845-1025
Independent Airport Service,39118 Wanda Ave,Sterling Heights,MI,48313,586-532-9633
M&l Freight,11416 E Lippincott Blvd,Davison,MI,48423,810-654-9778
Gaylord Moving & Stor-all,1386 Main Street West,Gaylord,MI,49735,989-732-7712
Circle C Trucking,11050 N Drive North,Battle Creek,MI,49014,269-962-4824
Rng Transportation,10060 64th Ave,Allendale,MI,49401,616-802-4817
A1 Piano Mover,6224 Porter Ave,East Lansing,MI,48823,517-333-0393
A & I Quality Moving Service,8620 Oak Park Boulevard,Oak Park,MI,48237,248-548-1428
Dubord Trucking,5456 18th Rd,Escanaba,MI,49829,906-789-9378
B & C Transport,3047 Detroit Road,Niles,MI,49120,269-683-6922
Trailerpros Transport,1298 N Seymour Rd,Flushing,MI,48433,810-496-1417
Transporting Newspapers,5690 Hines Drive,Ann Arbor,MI,48104,734-827-3724
Tom Evens Delivery,14795 Bergstrom Drive,Kaleva,MI,49645,231-362-3552
Aaron Waldron Trucking,7480 West Polk Road,Alma,MI,48801,989-466-2300
Pat Wesenberg Trucking,5330 S Alger Rd,Ithaca,MI,48847,989-236-5330
Qis,27481 Beverly Road,Romulus,MI,48174,313-295-9000
Professor's Professional Transport,6013 Cherokee,Taylor,MI,48180,313-406-6016
R & R Delivery Service,2064 3 Mile Rd,Athens,MI,49011,269-788-7515
Select Ride,2050 Commerce,Ann Arbor,MI,48103,734-663-3795
Circle C Hotshot Transport,4525 Warrington St Nw,Walker,MI,49534,616-301-5308
Toko Transport,2141 Forest Mead Dr,Sterling Heights,MI,48314,586-580-3151
Fosters Expediting LLC,8105 Mulliken Rd,Mulliken,MI,48861,517-649-2306
Just-on-time Transport,64091 41 St Street,Paw Paw,MI,49079,269-568-4406
Ernie's Transport,8221 Branch Road,Orleans,MI,48865,616-761-3513
Auto-jirah LLC,43501 Timberview,Belleville,MI,48111,734-697-4373
Zak's Auto,9620 Freeland,Detroit,MI,48228,313-903-8080
Stoppa Distributing,510 Hubbard Lake Rd,Hubbard Lake,MI,49747,989-727-3452
Dennis Distributing,3130 S Cedar St,Lansing,MI,48910,517-887-2706
Sgs Services,24450 Telegraph Rd,Southfield,MI,48034,248-353-7302
Allstate Trucking,16300 West 9 Mile Rd Apt 406,Southfield,MI,48075,248-569-7518
J Bowers Trucking,4128 Burnt Mill Rd,Interlochen,MI,49643,231-275-7351
Eam Sales,27676 Michigan Ave,Mendon,MI,49072,269-496-5005
Currier Tire Service,805 W Front Street,Burr Oak,MI,49030,269-489-5151
Alex Trucking,43539 W Arbor Way Unit 160,Canton,MI,48188,248-255-6435
Rex Hamlin Expediting Services,4000 Skinner Lake Rd,Lapeer,MI,48446,810-660-7613
E Kucharski & Sons Transport,429 Pettibone Street,South Lyon,MI,48178,248-974-6559
Die Hard Trucking,8181 Nine Mile Rd,Big Rapids,MI,49307,231-527-1303
Hoyer Distributors,7265 Bunton Rd,Ypsilanti,MI,48197,734-474-8188
"Howling Express, Inc.",672 Cynthia,Galesburg,MI,49053,269-377-3416
Btz And C Enterprizes,4009 18th Street,Menominee,MI,49858,906-863-2307
T & N Trucking LLC,2725 Leslie Rd,Decker,MI,48426,810-672-9728
Rockey-road Trucking,7421 South River Drive West,Grant,MI,49327,231-834-7702
Tfg Transport,21169 Fairfield Drive,Macomb,MI,48044,586-350-5919
Rockford Express,6480 11 Mile Road Ne,Rockford,MI,49341,616-970-5020
Midwest Pallet,2127 112th Ave,Holland,MI,49424,616-395-9763
B N T Trucking,5945 113th,Pullman,MI,49450,269-236-6076
Mg Logistics Transport Services,2424 Liverpool,Auburn Hills,MI,48326,248-552-8604
Collins Service,Washington St,Kingston,MI,48741,989-683-2530
Greater Michigan Movers,110 Knapp Drive Ste 142,Battle Creek,MI,49015,269-979-8881
Express Service,22001 Hoover,Warrren,MI,48089,586-756-1006
Mark's Complete Service,9522 Edgar Road,Vestaburg,MI,48891,989-268-5304
"Michigan Vacuum Trucks, Inc.",3129 E Labo Rd,Carleton,MI,48117,734-777-0390
Scott Baker Trucking,Po Box 414,White Pigeon,MI,49099,269-625-7008
Draper Trucking,207 Eastlawn,Parma,MI,49269,517-936-8617
Progressive Trucking Co,1922 Kristal Dr,Interlochen,MI,49643,231-409-0305
Lil'hauler,3031 Poplar Creek Dr Se 103,Kentwood,MI,49512,616-481-9073
Lakeshore Trucking,1932 W Sherman,Muskegon,MI,49441,231-638-6638
A R Industrial Services,332 Cass Ave Suite L,Mount Clemens,MI,48043,586-725-8100
Harmon Trucking,26379 M-60,Mendon,MI,49072,269-496-8126
J & K Auction Service And J & K Quarter Horses,1619 118th Ave,Allegan,MI,49010,269-672-5863
Watson Trucking,3121 N Coleman Rd,Coleman,MI,48618,989-465-1339
Brownridge Transportation,7192 Marshall Road,Olivet,MI,49076,269-749-9027
Larry Ray Trucking,21395 19 Mile Road,Big Rapids,MI,49307,231-408-2401
Casual Trucking,869 S Huron,Linwood,MI,48634,989-737-7856
Anl Trucking,5520 Chatham,Portage,MI,49002,269-324-5629
The Muffler Man,11096 Nichols Road,Montrose,MI,48457,810-235-0094
Fairlane Shipping & Logistics,4210 Wyoming,Dearborn,MI,48126,313-584-4200
Charles H Gee,115 Ferris Street,Highland Park,MI,48203,313-645-9134
Crown Auto Transport,2914 N Lapeer Rd,Lapeer,MI,48446,810-664-9974
Tom Transportation,3331 Grand Street,Rochester Hills,MI,48309,248-202-9057
Asn,3039 Dixie Hwy,Waterford,MI,48328,248-276-0300
Private Carrier Non Profit,70428 S Kalamazoo St,White Pigeon,MI,49099,269-483-9421
Riverside Trucking,10931 Camden Road,Waldron,MI,49288,517-286-6635
J P Transport,9519 Cannonsville Rd,Vestaburg,MI,48891,989-268-5802
County Wide Transport,11165 N Straits Hwy,Cheboygan,MI,49721,231-627-9292
Checker Cab Of Marquette,3060 Wright St #2,Marquette,MI,49855,906-235-9283
Pierre Trucking,7176 W Outerdrive,Detroit,MI,48235,313-405-5676
3ms Trans LLC,14900 Reeck,Southgate,MI,48195,734-341-6500
Big Jakes Transport,1315 Alvin,Westland,MI,48186,734-595-3766
Farm Use And Hauling Our Animals,13900 Us 223,Manitou Beach,MI,49253,517-467-2709
Midwest Transport,16293 Orchard Creek Hwy,Millersburg,MI,49759,989-733-2969
Mena Distributor,35259 Mustang Drive,Sterling Hgts,MI,48312,586-360-3247
Sorensen Gross Construction Services,3407 Torrey Rd,Flint,MI,48507,810-767-4821
J & D Water Delivery,1241 Farley Rd,Essexville,MI,48732,989-894-5778
Bradleys Handy Service,1800 Kruger Rd,Snover,MI,48472,810-672-9925
Lakelin Building & Property Services,13471 Iyopawa,Coldwater,MI,49036,517-781-4819
Wieciech Logistics,1611 15 5 Rd,Bark River,MI,49807,906-466-5396
Arnold Trucking,15455 Gates Rd,Howard City,MI,49329,231-762-4634
Bellingar Trucking,6437 Nmt Hope Rd,Carson City,MI,48811,989-584-3896
Murat Car Transports,45130 Lakeview Dr Apt 4111,Macomb,MI,48044,586-263-4709
Kantz Transport LLC,7940 Britton Hwy,Britton,MI,49229,517-451-2000
T R Transfer,650 Applegate Dr,Marysville,MI,48040,810-364-4381
Area Team Hauling,805 E Main,Lowell,MI,49331,616-780-0365
River Rock Surfacing Co,909 Rosewood St,Jenison,MI,49428,616-457-6348
Free Willy Transport,18790 Jeanette,Southfield,MI,48075,248-270-4717
Motorcycle Transporter LLC,961 Evergreen Ridge,Ortonville,MI,48462,248-793-3505
Rpm Towning,6690 Haggerty Road,Belleville,MI,48111,734-756-7738
Ahmed Omran Trucking,11902 60th Ave,Mecosta,MI,49332,231-679-5668
Geo Enterprise,60th Ave 55585,Lawrence,MI,49064,616-805-0742
Kenzie Express Ways,5624 Orchard Dr,Berrien Springs,MI,49103,269-757-3900
Rosie Trucking,2316 Parkwood,Saginaw,MI,48601,989-754-9050
Portland Transportation,13291 Colorado Ave,Eagle,MI,48822,N/A
Jack's Transportation,18320 10 Mile Rd,Eastpointe,MI,48021,586-457-5945
B & D Trucking,21655 Pinery Cemetery Rd,Skanee,MI,49962,906-869-8274
Katron Specialized Transport,35180 Ridge St,Richmond,MI,48062,586-727-7586
Nelson's Transport,0-1585 Parkland Trail Nw,Grand Rapids,MI,49544,616-677-3365
G A Duff Trucking,11265 S M 37,Buckley,MI,49620,231-218-4140
Double T & Sons LLC,1544 E Oyster Rd,Rose City,MI,48654,989-685-8752
Thompson Emergency Freight Systems,2050 N Woodward,Bloomfield,MI,48146,180-026-5733
O'shea Transport,24271 Eastwood,Oak Park,MI,48237,248-547-8229
A 1 Transportation,1248 Bates Se,Grand Rapids,MI,49506,616-581-2320
Big Shot Limousine,32059 Utica Road,Fraser,MI,48026,866-432-5466
T & L Trucking,8744 Burnside Road,Brown City,MI,48416,810-346-2212
Driesenga Transport,4709 Country Lane Suite 38,Hamilton,MI,49419,269-751-7436
Country Auto Sales,301 S Us 31 South,Traverse City,MI,49684,231-943-3271
Ozbat Trucking,2744 Dixon Road,Caro,MI,48723,989-673-6453
Winchester Trucking,700 Udell Hills Rd,Wellston,MI,49689,231-848-4922
G & E Trucking,2853 S Nevins Rd,Sidney,MI,48885,616-835-1443
Thor Bentley Trucking,315 Homier Rd,Iron River,MI,49935,906-265-3464
Hobert Trucking,4 South Wellman Rd,Woodland,MI,48897,269-838-3067
Al Gordons Moving & Storage LLC,8090 Spencer Rd,South Lyon,MI,48178,734-213-6800
Hd Trucking,5699 E Adams Road,Breckenridge,MI,48615,989-330-0633
Nelson Express,N-3031 State Hwy M-35,Menominee,MI,49858,906-863-6419
Jack's Light Backhoe Service,1901pucker Street,Niles,MI,49120,269-683-4242
Midwest Express,1103 Riverbank St,Lincoln Park,MI,48146,313-350-9342
Rdt Transportation LLC,2311 Elmwood Street,Port Huron,MI,48060,810-987-2950
Jtb Express,1563 S Main,Martin,MI,49070,269-672-9281
G G Trucking,18129 Mohawk Dr,Spring Lake,MI,49456,616-844-1104
Metro Haulers,33021 Karin Drive,Sterling Heights,MI,48310,586-453-3155
"Nico Services, Inc.",4979 Old Mackiaw Tl,Boyne Falls,MI,49713,231-549-2048
Day Buy Day Horse Leasing & Trucking,6600 1 1/2 Mile Rd,East Leroy,MI,49051,616-262-3047
P & M Trucking,60238 Constantine Rd,Three Rivers,MI,49093,269-273-4547
C & L Transportation,10344 Jefferson Rd,Lakeview,MI,48850,989-352-8236
Musser Transport & Equipment,18155 Shamrock Blvd,Big Rapids,MI,49307,231-796-0135
"Seven Star Trucking, Inc.",9090 Bunton Rd,Willis,MI,48191,734-461-9190
Precision Carriers,827 Crauns Lane,Quincy,MI,49082,517-639-7144
Ken's Trucking,4549 Mercury St Ne,Rockford,MI,49341,616-890-0164
Stormys Delivery Service,Willow Run Airport East 2033 A Street,Belleville,MI,48111,734-276-8701
Longcore Trucking,11310 Willow,Grant,MI,49327,231-834-9502
Shilton Transport And Expedite LLC,10485 S State Rd,Lake Odessa,MI,48849,269-838-6348
Cobra Express,202 S Prospect St,St Johns,MI,48879,989-224-3851
Troy D Bloomfield,4625 Kilmanagh Road,Elkton,MI,48731,989-375-4476
Molow Trucking,35130 Wallace St,Westland,MI,48186,405-350-6508
Lucas Express,12077 Heyden,Detroit,MI,48228,313-475-7766
Six Pack Transport,4056 15th Road,Escanaba,MI,49829,906-789-7467
Rodlund Expediting LLC,3535 Round Lake Highway,Manitou Beach,MI,49253,517-673-2173
Big Eds Transport,1024 Lochaven,Waterford,MI,48327,248-408-3231
Bair Lake Farm Trucking,12850 Bair Lake Street,Jones,MI,49061,269-244-5411
Pal Trucking,22674 Williams Landing,Sturgis,MI,49091,269-651-2073
Wizards Express,702 S Coleman Road,Shepherd,MI,48883,989-773-6933
Mackney Trucking,12888 10th Rd,Garden,MI,49835,906-644-8770
"Buhay Transportation Co, Inc.",15229 Mack Ave,Detroit,MI,48224,313-886-8794
Interstate Powercare,12333 Belden Ct,Livonia,MI,48150,734-421-2543
Rodar Trucking,7728 E 6 Mile Rd,Luther,MI,49656,231-797-9809
Two Men And A Truck - Lakeshore,513 E 8th St #16,Holland,MI,49423,616-392-4448
Metro Car Company,19590 Woodward Ave,Detroit,MI,48203,313-891-5657
Wilford And Son Trucking,2314 Stirling Avenue,Lansing,MI,48910,517-819-2651
Fry Trucking,16480 21 Mile Road,Big Rapids,MI,49307,231-796-9636
Dj Kelly Transport,52 Indianside,Oakland,MI,48363,248-693-4582
C V Kings Express,12011 Grand Haven Apt,Hamtramck,MI,48212,313-320-1186
Rtg Trucking,3632 130th Avenue,Morley,MI,49336,231-856-0343
Hermes Logistics,15708 17th Rd,Garden,MI,49835,906-644-2433
Sequoia Freight,28650 Northline Road,Romulus,MI,48174,734-403-2323
Pearl Transport,10484 W 34 1/2 Mi Rd,Harrietta,MI,49638,231-389-2572
J & L Nelson Trucking,N-3625 M-35,Menominee,MI,49858,906-863-2259
Us Route 66 Express,245 Hubbard St Suite 100,Allegan,MI,49010,269-932-4175
Kav Transport,4191 Lawndale,Detroit,MI,48210,313-582-0394
Rons Trucking,19814 N Medcalf Ct,Edwardsburg,MI,49112,608-207-0735
Pusch Trucking,14745 Wickford Ct,Shelby Twp,MI,48315,586-566-7376
"Jds Delivery Systems, Inc.",29223 Lyndon,Livonia,MI,48154,734-469-4163
Gme Transportation,47515 Ryan Road,Utica,MI,48317,586-731-6609
Ata Logistics,4517 Oldplank Rd,Milford,MI,48381,810-299-3137
Williams Transport,6740 Frenkenmouth Road,Vassar,MI,48768,989-823-1125
Bedroom Showplace,6471 Stadium Dr,Oshtemo,MI,49009,269-372-1175
Jeff Starner Trucking,2060 South Red Bud Trail,Niles,MI,49120,269-695-5468
Browns Trucking,406 S 21 St,Saginaw,MI,48601,989-754-5167
Sl & A Bonifas Trucking,342 Baumgartner Road,Iron River,MI,49935,906-265-3272
D & B Trucking,8950 East Edgar,Vestaburg,MI,48891,989-268-5850
Mna Trucking,8230 Sallan St,Detroit,MI,48211,313-215-3487
M & J Transportation,5476 Bonnie Avenue,Kentwood,MI,49508,616-534-9115
Tk Express,6485 Syracuse,Taylor,MI,48180,313-295-0241
Jason Delich Trucking & Tree LLC,E4736 Sunnyside Ave,Ironwood,MI,49938,906-932-4108
Roadrunner Express,6562 Hawkins Rd,Jackson,MI,49201,517-769-2764
Service 1 Marine,135 E Buffalo Street,New Buffalo,MI,49117,269-469-9911
R W Trucking,7496 E 40th St,Newaygo,MI,49337,231-652-2497
Q-trans,1640 Stewart,Lincoln Park,MI,48146,313-682-1000
Dans Freight And Delivery Service,34939 School St,Westland,MI,48185,734-306-7170
Tcsi,5290 N Gale Rd,Davison,MI,48423,810-658-7656
Tam Express,1017 Carmen Dr,Weidman,MI,48893,989-644-5469
Moxie Marine Boat Logistics,4464 Dowling,Montague,MI,49437,231-894-2628
Amere Transportation,8492 Dale Street,Dearborn Heights,MI,48127,313-586-2555
Mfrr Trucking,11067 Ziegler St,Taylor,MI,48180,313-670-0261
Two Men And A Truck S E Oakland,28925 John R Road,Madison Heights,MI,48071,248-356-6683
B A R Transport,7597 Evanston Ave,Muskegon,MI,49442,231-788-4427
Ubc Distributors,12812 Prospect St,Dearborn,MI,48126,313-846-8117
Ctii,12225 Stephens Road,Warren,MI,48089,586-939-7000
J&m Express,125 E. Washington St,Coldwater,MI,49036,517-278-4731
Dw Express,1424 Oak St,Kalamazoo,MI,49008,269-929-6464
Carpet Cleaning,2920 S 3rd Street,Niles,MI,49120,269-683-9111
Wolf Trucking,3 Capistrano Ct,Belleville,MI,48111,734-699-6977
Woods Autocare,22 S Clay Street,Coldwater,MI,49036,517-238-4351
Tim Lounds Trucking,22 1/2 S Clay Street,Coldwater,MI,49036,517-278-6146
Dc Carriers,5955 Long Hwy,Eaton Rapids,MI,48827,517-543-7962
Mann's Transportation LLC,14600 Schaefer,Detroit,MI,48227,313-587-7555
Linda's Express,655 Monroe St,Flint,MI,48503,810-964-3969
"Pinnacle Service, Inc.",5600 B William Lake Road,Waterford,MI,48329,248-673-0777
Two Men And A Truck S W Oakland,29445 Beck Rd Suite A-101,Wixom,MI,48393,248-735-6683
Brian Howard Trucking,2810 N Saginaw Bayshore Dr,Pinconning,MI,48650,989-879-4320
R K Express,1179 East Huron Line Road,Ubly,MI,48475,570-377-0722
Hammer Lane Trucking,504 S Traver St,St Johns,MI,48879,989-224-4753
Maven Distribution Services,11245 E Mcallister Rd,Suttons Bay,MI,49682,231-271-4268
Top Dog Trucking,7001 Cooper Rd,Lansing,MI,48911,517-272-1525
Psh Transport,6240 Adams Avenue,South Rockwood,MI,48179,734-673-3398
Pal-mar Transport,3143 11th St,Monroe,MI,48161,734-289-1876
Bagera Trucking,4210 Wyoming,Dearborn,MI,48126,313-565-5059
Poupore Trucking,W3864 Co Rd 380,Carney,MI,49812,906-639-2889
"Gregory, Inc.",1128 W Wilson Rd,Clio,MI,48420,810-686-9224
Eckerson Enterprise,2060 S Snyder Rd,Wellston,MI,49689,231-848-4146
Bradley & Sons Trucking,53293 Shawn Dr,Chesterfield,MI,48047,586-725-6690
Rapid River Express,820 N Western,Cheboygan,MI,49721,231-627-9464
Toko Trucking,2141 Forest Mead Dr,Sterling Heights,MI,48314,586-580-3151
Thunder Express LLC,2056 116th Ave,Allegan,MI,49010,269-673-5365
J T Trucking,23566 M60,Mendon,MI,49072,269-496-7201
Hite Services,5771 Terex Dr,Clarkston,MI,48346,248-922-2748
Gizmos Transportation,28363 Diesing Drive,Madison Heights,MI,48071,248-217-7489
High Tech Industrial Services,10750 Martz Rd,Ypsilanti,MI,48197,734-485-4855
D & D Transport,59575 Red Arrow Hwy,Hartford,MI,49057,317-945-5480
Jbj Transport,46604 Bonaparte Dr,Macomb,MI,48044,586-493-0943
2 Brothers Auto Transport,1626 Roselawn Ave,Lansing,MI,48915,517-803-6478
Jt X-press,8626 Kinloch St,Dearborn,MI,48127,313-478-9194
Mcclanahan Trucking,6191 Addison Rd,North Adams,MI,49262,517-287-4282
Backus Bobcat Service,28051 Dunning St,Cassopolis,MI,49031,269-445-2580
Led Trucking,3921 140th Ave,Holland,MI,49424,616-994-6907
Aho Express,15770 120th Avenue,Rodney,MI,49342,231-867-2604
Drs Distributors,9919 W K L Avenue,Kalamazoo,MI,49009,269-760-5359
Abba Trucking,221 Crown St Sw,Wyoming,MI,49548,616-878-4230
Innkeeper Logistics,118 Hancock St,Hancock,MI,49930,906-282-2440
Billboard Services,23790 Haggerty,Belleville,MI,48111,734-753-5292
Cummings Trucking,N11689 Lake Road,Ironwood,MI,49938,906-932-3298
Swanson Trucking,378 West M-94,Skandia,MI,49885,906-942-7630
The Trinity Transport,1082 Stein Rd,St Clair,MI,48079,810-326-2603
Aj Express LLC,2615 Elandell Lane,Metamora,MI,48455,810-724-1818
White Way Express,4180 Leslie Rd,Decker,MI,48426,810-672-9644
Premier LLC,12505 Northland Drive,Cedar Springs,MI,49319,616-696-2727
Jgh Trucking,10800 M66,Fife Lake,MI,49633,231-258-0775
Mike Girard Trucking,W2610 Waucedah Rd,Vulcan,MI,49892,906-563-5331
D & D Express,1555 E Mich Ave,Ypsilanti,MI,48198,734-487-4794
Rumble Expedite,4012 Deckerville Rd,Deckerville,MI,48427,888-207-9456
Team Elmer's Trucking,3600 Rennie School Rd,Traverse City,MI,49684,231-943-3443
Lamar Transport,6301 Hughes Drive,Sterling Heights,MI,48312,586-939-9939
1418783,7743 Island Blvd,Grosse Ile,MI,48138,313-854-0070
Farm All Express,10524 Robert F Ln,West Olive,MI,49460,616-836-6325
William Martin Transport,9901 Marlowe St,Detroit,MI,48227,313-220-0938
Coulter Trucking,2557 Sylvan Drive,Hillsdale,MI,49242,517-425-7699
R & K Transports,11757 Whittaker Rd,Whittaker,MI,48190,734-732-9546
Jeff Pomeroy Delivery,1942 142nd Ave,Dorr,MI,49323,616-281-5455
Statewide Auto Transport,51194 Romeo Plank 602,Macomb,MI,48042,734-281-6650
Kurtz Trucking,N7767 County Road 348,Stephenson,MI,49887,906-753-9998
Jtm Express,11625 Marsh Rd,Shelbyville,MI,49344,616-291-2596
Nu Waygo Transport,43 Burt Ave,Pontiac,MI,48342,248-745-9647
G J Transportation,31481 Mound Rd Apt B,Warren,MI,48092,586-489-7347
Millennium Transportation,21554 Audrey,Dearborn,MI,48124,313-520-1503
Wolverine Builders & Maintenance,528 W Colon Rd,Coldwater,MI,49036,517-279-7678
Radical Trucking,23851 May St,Edwardsburg,MI,49112,269-699-7249
Allan Douglas Transportation,27149 John Dr,New Boston,MI,48164,734-558-4730
L&s Transport,5444 E Grand River Ave,Portland,MI,48875,517-819-6661
M & F Transportation,6814 Maple Street,Dearborn,MI,48126,313-406-3734
L & U Trucking,7234 Kentucky St,Dearborn,MI,48126,313-231-6639
Snowchaser Express,53870 Day Rd,Marcellus,MI,49067,269-506-0213
Wagon Train Express,19481 Greenview St,Detroit,MI,48219,313-526-7617
B&r Janitorial Supply Company,5656 N Newburgh,Westland,MI,48185,734-722-0432
David E Bentley Trucking,8039 Morton Taylor,Belleville,MI,48111,734-367-4658
K D R Express,119 Dick Street,Battle Creek,MI,49014,616-965-9947
W D G Trucking,12372 North Binhan Avenue,Bitely,MI,49309,972-840-8552
American Allied Driver Services,15565 Northland Dr Suite 300w,Southfield,MI,48075,800-328-5958
C Garner Trucking,10139 Sheridan,Gaines,MI,48436,989-271-9047
Jae's Transport,8314 Rattle Run Rd,Columbus,MI,48063,810-367-2255
Houle Transportation,710 Maple Street,Norway,MI,49870,906-563-7032
Tph Trucking,6095 County Farm Road,Croswell,MI,48422,810-679-4076
C-papp Trucking,3655 E 128th St,Grant,MI,49327,616-794-7322
Charmuz Machine,956 Woods Rd,Fenwick,MI,48834,616-755-5560
Cameron Services,2257 Elmhurst,Detroit,MI,48206,810-978-8270
Red Ball Express,5030 N May St #307,Oklahoma City,MI,73112,888-285-8867
Wolfpack Hauling,29608 Folker,Inkster,MI,48141,734-326-5316
D&t Transport,9550 Carwford Road,Columbus,MI,48063,810-727-7034
R J Gaford Trucking,830 Griswold,Hart,MI,49420,231-861-3399
Auto Exchange,815 Woodward Ave,Pontiac,MI,48341,248-338-7750
Outlaw Trucking,101 E Fulton St,Homer,MI,49245,517-568-3332
Icat Logistics,912 S Military,Dearborn,MI,48124,800-273-6176
Tc Trucking,2755 M Drive South,Athens,MI,49011,616-729-9450
Immediate Auto Transport,3465 Clintonville Road,Waterford,MI,48329,248-673-7170
D & D Transport,11321 Matthews Hwy,Clinton,MI,49236,517-456-4964
J & G Expediting Services,737 Cambridge Drive,Battle Creek,MI,49015,616-965-9020
G S Trucking,1060 North Cedar Street,Lansing,MI,48906,517-204-3955
Boer's Truck Service,5848 Comstock Ave,Kalamazoo,MI,49048,616-343-1611
Tailor Made Transport,3742 Allen Lafayette,Inkster,MI,48141,313-791-8016
Daffer,20506 Street,Detroit,MI,48235,734-216-9103
Inland Services,7925 S Division,Grand Rapids,MI,49548,616-281-0643
Airport Express Comfort Cars,4620 Oakman Boulevard,Detroit,MI,48204,313-834-3385
Holiday Express,301 South Second Street,Blanchard,MI,49310,989-561-5203
Narty Arends Trucking LLC,11872 Wisner Ave,Grant,MI,49327,231-834-9257
Gross Farms & Trucking,5455 Chesaning Rd,Chesaning,MI,48616,517-845-5236
Triple T's Trucking,4861 Iroquois,North Street,MI,48049,810-984-4775
Flynn's Truck-in,5385 East Old M63,Luther,MI,49656,231-797-8061
K A Expediting Services,6777 Scotten,Detroit,MI,48210,313-384-0026
C & B Enterprises,16141 Freeland St,Detroit,MI,48235,313-837-2728
"E & L Transport, Inc.",342 E Carpenter Rd,Flint,MI,48505,810-789-1679
Benda Trucking,221 Johanson Rd,Crystal Falls,MI,49920,906-875-4640
Whoa Boys Trucking,494 Marshall St,Coldwater,MI,49036,517-279-6196
Wallace Trucking,127 1/2 E Chicago Blvd,Tecumseh,MI,49286,517-424-5106
Peterman Auto,10799 East T Avenue,Scotts,MI,49088,269-626-8594
Geerlings Trucking,328 Roosevelt Apt 2,Zeeland,MI,49464,616-748-1088
Nationwide Transport,3410 Brocker Road,Metamora,MI,48455,810-797-5754
H & H Trucking Company,1200 Camellia Drive,Mt Morris,MI,48458,810-789-1718
Bsa Trucking,1788 Colby Road,Stanton,MI,48888,517-831-8710
Harvest Transport,220 Cedar St,Wayland,MI,49348,616-792-9501
A W Transport,2044 Ultey St,Flint,MI,48532,810-234-3841
Rose Printing Services,22008 W 8 Mile Road,Southfield,MI,48034,248-827-7560
Myers Transport,1894 Hickory Lane #201,Imlay City,MI,48444,810-614-2443
Rae Logistics,3945 First Street,Wayne,MI,48184,734-728-9770
J & M Transport,431 W Main St,Elsie,MI,48831,517-862-5454
Weeks Trucking,58888 M 40,Jones,MI,49061,616-244-5661
"Jedson Trucking, Inc.",17775 148th St,Spring Lake,MI,49456,616-842-1232
American Allied Transport Services,16500 North Park Drive Ste 411,Southfield,MI,48075,248-569-4142
Ostrander Excavation & Hauling,11249 W Ottawa Lake Road,Blissfield,MI,49228,419-276-3178
R L Willis Trucking,7488 East 18 Mile Rd,Reed City,MI,49677,231-832-1615
Grateful Movers,2530 Bullard Road,Hartland,MI,48353,734-765-4961
Bolt Express,3244 Lynn Ave,Flint,MI,48506,810-249-6572
Ty-brand Express,106 W John St,Durand,MI,48429,517-288-7874
Mid-michigan-express,2741 Cherry Grove,Harrison,MI,48625,517-539-8265
Joe Paugh Trucking Co,1520 Bell Road,Niles,MI,49120,616-684-4814
Motor City Classics Transport,50759 Century Ct,Wixom,MI,48393,248-669-9000
Bill Scott Enterprises,50811 Arizona Ave,Novi,MI,48374,405-503-7481
Pick-up Man Express,600 12th St Lot 36,Three Rivers,MI,49093,616-279-7600
Expedient Compliance Transport,23255 Fountain Dr,Clinton Twp,MI,48036,810-469-8314
Crossroads Trucking,2225 North Blacks Corners Rd,Imlay,MI,48444,810-724-3737
Burns Trucking,8842 Petrieville Hwy,Eaton Rapids,MI,48827,517-749-4062
Omega Delivery,1201 Woodslea,Flint,MI,48507,810-764-7531
C & E Trucking,10501 S Dr South,Burlington,MI,49029,517-765-2634
"Ps Trucking, Inc.",1798 Crystal Rd,Vestaburg,MI,48891,517-235-3670
Discount Pet Center And Or Discount Pet Distributing Co,5660 Gull Road,Kalamazoo,MI,49048,269-343-7387
Gadson Trucking Co,5811 Second,Romulus,MI,48174,734-721-1328
Truck Management,5848 N Lake Dr,Sanford,MI,48657,989-948-2371
Extreme Transport,500 Kennedy Pl,Grand Ledge,MI,48837,517-627-5634
T Deacons Trucking,1723 S Van Dyke,Bad Axe,MI,48413,989-269-6819
Sues Transportation Services,6561 122nd,Fennville,MI,49408,616-543-3020
Fantastic Sams,14855 Galleon Drive,Plymouth,MI,48170,734-414-0214
Almanza Distribudor De Carnez Frescas,1356 56th St,Fennville,MI,49808,616-236-5871
Lighthouse Transportation Services,5590 Richardson Road,Pinconning,MI,48650,989-414-2871
Anderson Trucking,3776 S Pine Street,Newaygo,MI,49337,000-231-6342
"Amber Transportation, Inc.",1197-a Rochester Road,Troy,MI,48083,248-670-6298
J&d Delivery Systems,34392 Swift Lake Dr,Lawton,MI,49065,616-624-2451
T & T Trucking,4194 Mill Valley,Burton,MI,48519,810-742-9707
Northland Quick Freight,407 Merritt Avenue,Iron Mountain,MI,49801,906-774-8747
Balkan Trucking Co,6176 Highview,Dearborn Heights,MI,48127,248-361-3779
Living Water Trucking,6177 Harwood Dr,Mt Morris,MI,48458,810-249-3863
Lks Freight,5278 Marshall Rd,Olivet,MI,49076,269-749-9260
Northland Trucking,10426 Whitefish Hills Dr,Rapid River,MI,49878,906-474-6220
R C Daglow Transport Co,5871 Grasslake Rd,Osseo,MI,49266,517-357-4329
Richardson Trucking,2106 M-61,Bentley,MI,48613,517-846-9633
Durham Enterprise,16869 Manor,Detroit,MI,48221,313-342-3728
Keith's Trucking,20473 Cardoni,Detroit,MI,48203,313-893-9089
Transportation Synergies,400-76th Sw Unit 9-10,Grand Rapids,MI,49509,616-878-3200
R E Sackrider,2065 Delhi N E,Holt,MI,48842,517-694-8241
"National Auto Transport, Inc.",11990 Norton,Parma,MI,49269,517-531-3311
P & D Transport,5191 Starville Road,China,MI,48054,810-765-5678
Perez Trucking,14000 Tyler St,Holland,MI,49424,989-205-6056
Itlx,1583 Heronwood Ct,Bloomfield Hills,MI,48302,336-996-0777
Mike Currier Trucking,2354 E 30 Road,Cadillac,MI,49601,231-876-1909
"Reed Trucking, Inc.",45878 Judd Rd,Belleville,MI,48111,734-699-2880
"Danny Lee Trujillo Trucking, Inc.",344 N West St,Hillsdale,MI,49242,517-523-2913
Speerstra Service,4982 E Millbrook Rd,Mt Pleasant,MI,48858,989-773-5941
Mccray Transit,4694 F-30,Greenbush,MI,48738,517-724-5328
Jmt,9385 Old Us 31,Berrier Springs,MI,49103,616-304-2422
G & C Transportation,8285 S Ridge Rd,Sault Sainte Marie,MI,49783,906-440-5388
Moose Express,47616 1st,Houghton,MI,49931,906-482-1482
Integrity Transportation Company,7509 12th Avenue,Jenison,MI,49428,616-667-9325
F Gross Transportation,20400 Cupp Road,Elsie,MI,48831,989-661-2215
New Dreams Transportation,730 Cambridge Dr,Coldwater,MI,49036,517-414-3632
Smith's Trucking,4095 Vicksburg,Detroit,MI,48204,313-896-1665
Rtm Trucking,6031 6 Mile Road,East Leroy,MI,49051,269-729-4459
Two Men And A Truck S E Oakland,13321 Northend,Oak Park,MI,48237,248-356-6683
Moser's Express,327 East Leroy St,Burlington,MI,49029,269-420-8830
Laporte Trucking,4700 School Rd,Temperance,MI,48182,734-854-4078
D & W Transit Co,7734 Summerfield Road,Lambertville,MI,48144,491-467-1148
Full Circle Auto Transport,10151 Mountain View Trail,Canadian Lakes,MI,49346,231-580-1544
Lowerys Distributing,310 River,Buchanan,MI,49107,616-695-3834
Kildow Trucking,615 W Division St,Cadillac,MI,49601,231-879-4664
K&d Express,2776 Dutcher Road,Gladwin,MI,48624,517-426-4115
Ruiz Produce & Products Distribution,1167 Clark St,Detroit,MI,48209,313-408-8961
Mcleod & Son Trucking,N16316 Trout Pond Lane,Wilson,MI,49896,906-497-5515
L & W Transport,7854 Campbell,Hale,MI,48739,517-257-4262
Shuttle Express,6777 Mayfair Street,Taylor,MI,48180,313-389-7112
Mobile Express,7401 Ridge Road,East Jordan,MI,49727,230-582-5391
Motor City Transport,15735 Schaefer,Detroit,MI,48227,313-836-2018
21 Palms Transport,6645 Pontiac Lake Road,Waterford,MI,48327,248-361-0393
Northern Michigan Transport,Pobox 2215,Gaylord,MI,49734,989-705-1411
Dry Van Expedite,5650 Renvillw St,Detroit,MI,48210,313-737-5579
Tag Axle Trucking,2424 Terminal Rd,Niles,MI,49120,616-684-8580
F J L Delivery Service,18071 Heritage Drive,Macomb,MI,48044,586-596-4244
Two Men And A Truck Wayne East,15722 Telegraph,Redford,MI,48239,313-533-7032
Dm Schiebner Transport,1094 E Lansing Road,Morrice,MI,48857,702-289-1106
Hardy's Trucking,1722 Cass Street,Niles,MI,49120,616-684-8609
Patriot Well Services,6828 Lea Pick Drive,Mt Pleasant,MI,48858,989-775-8000
Asphalt Service,761 S Telegraph Rd,Monroe,MI,48161,734-457-4755
North American Mohawk Movers,20115 Eureka Road,Taylor,MI,48180,734-246-4975
Moore's Trucking,15769 Biltmore,Detroit,MI,48227,313-838-1246
Lyall Trucking,95 Tippy Dam Rd,Wellston,MI,49689,231-920-3549
Ponstein Trucking,5948 72nd Ave,Hudsonville,MI,49426,616-813-4847
B&l Trucking,1043 Manitou Dr #107,Traverse City,MI,49686,231-995-0428
M & B Trucking,3490 Bagshaw Dr,Saginaw,MI,48601,517-777-1194
Kes Trucking,1425 Shankin Dr,Wolverine Lake,MI,48390,248-669-2860
Bristow Transport,9605 Segar Rd,Springport,MI,49284,517-857-2818
"Boomerang Logistics, Inc.",180 East Dakota St,Detroit,MI,48203,313-655-1833
Stan Barry Trucking,148 Lukesport Drive,Quincy,MI,49082,517-639-8533
Alternative Avionics,1661 Airport Road,Waterford,MI,48327,248-666-3310
S & S Farms & Trucking,1047 Hussey Bottom Rd,Fulton,MI,38843,662-862-6631
Hunter Trucking,166 N Cass Street,Morley,MI,49336,231-856-0558
Ron's Moving And Hauling,8365 M 106,Munith,MI,49259,517-596-2966
Cls Trucking,2131 S Homer Road,Midland,MI,48640,989-832-9816
Miller Auto Transport,44196 Leeann Street,Canton,MI,48187,734-254-9411
Sag Transport,17497 Lake Montcalm,Howard City,MI,49329,616-218-3986
Roberts Services,4743 E Freesoil Rd,Freesoil,MI,49411,231-464-5130
K D Transport,9995 Brady St,Redford,MI,48239,N/A
"Buscaino Trucking, Inc.",13220 Allman Rd,Concord,MI,49237,517-524-6344
Wade Cornelia Trucking,417 Maple Ave,Amasa,MI,49903,906-822-0203
Century Transport,9450 151/2 Mile Rd,Marshall,MI,49068,616-789-9599
Renaissance Airlines Truck Div,11201 Conner Ave,Detroit,MI,48213,313-571-7507
H & B Transport,12991 F 97,Gladwin,MI,48624,989-246-0499
Rutgers Trucking,6083 Twilight,Kalamazoo,MI,49004,616-382-3334
Henderson Trucking LLC,13646 Armstrong,South Rockwood,MI,48179,734-782-4603
Rick Stewart Trucking,4740 W Stanton Rd,Stanton,MI,48888,989-831-5635
King's Trucking,Po Box 37,Rothbury,MI,49452,405-354-0473
A & G Transport,13172 S Huron River Dr,Romulus,MI,48174,248-431-6382
D & M Trucking,5810 N Coolidge Ave,Harrison,MI,48625,989-539-9013
Two Men And A Truck Of Northern Mi,3055 Cass Suite 106,Traverse City,MI,49684,231-947-8880
Riverside Trucking,11633 Van Lopik Ave,Grand Haven,MI,49417,616-813-5089
Clint Davis Trucking,420 Adams Rd,Bronson,MI,49028,517-206-2506
Terry Edgars Trucking,1345 E Grant Rd,Ithaca,MI,48847,989-621-9978
B A Dodge Trucking Services,6800 King Rd #b-8,Marine City,MI,48039,248-505-3393
Eilers Trucking,7133 W Arthur Rd,New Era,MI,49446,231-861-2677
Krueger Transportation,18891 U S 12 Lot 12,New Buffalo,MI,49117,269-208-1924
Rtr Trucking,N 15895 Main Street,Powers,MI,49874,906-497-5846
Gostlin's Expedite Carriers,10182 20 Mile Road,Tustin,MI,49688,231-743-6696
Mip-pin Trucking,230 S Fifth St,Edmore,MI,48829,989-427-0167
Sojourn Transportation,11936 13 Mile Rd Apt 203,Warren,MI,48093,705-428-6271
Knights Mill & Farm Transport,2060 192nd Ave,Hepseria,MI,49421,231-854-2401
Alley Trucking,7093 Lakeview Blvd,Newort,MI,48166,734-586-7568
Michigan Moving Express,2123 Morris Ave,Burton,MI,48529,810-249-1280
"Rons Used Auto Sales, Inc.",26510 Gratiot Bldg 2,Roseville,MI,48066,586-772-2979
D Barrows & Son Trucking,710 E Central Road,Coldwater,MI,49036,517-238-4549
Joe Braford Trucking,13345 Harrisburg Road,Ravenna,MI,49451,231-853-6223
M H Trucking,2131 Ewers Rd,Dansville,MI,48819,517-623-6842
Joe Braford Trucking,13345 Harrisburg Road,Ravenna,MI,49451,231-853-6223
Tomlinson Express,3991 Pier Rd,Benton Harbors,MI,49022,616-849-3564
M A J Trucking,4910 Hunter Crk Rd,Attica,MI,48412,810-724-3517
Going Places,5825 Tyler Street,Hudsonville,MI,49426,616-875-3023
Mason Trucking,6065 Gardner Line Rd,Croswell,MI,48422,810-679-4282
B G Transport,6987 Henderson Rd,New Lothrop,MI,48460,989-743-3651
Dankert Trenching Service,220 W Mechanic,Alma,MI,48801,989-463-2391
T&d Trucking,6172 Hedge,Detroit,MI,48211,313-492-6988
"Royal Transport, Inc.",13327 Winding Creek Dr,Grand Haven,MI,49417,616-844-9993
Sherri A Mulherin,G-3538 Flushing Rd,Flint,MI,48504,810-732-5591
Specialty Services,652 Oak St,Dundee,MI,48131,734-529-9110
Scott Renwick Trucking LLC,1516 N M-37,Baldwin,MI,49304,231-745-3107
D A S Transport,51 Ninth Avenue,Iron River,MI,49935,906-265-7074
Green's Trucking Service,1418 Sweet Avenue,Jackson,MI,49203,517-990-0894
Speedway Service,5407 Jackson ,Dearborn Heights,MI,48125,313-565-6784
Big Wheels Trucking,3294 Ewald Cir.,Detroit,MI,48238,313-934-3368
"Kohn Trucking, Inc.",6830 Eisenhower Rd,Lakeview,MI,48850,989-357-7621
Hubbard & Sons Trucking,4897 155th Ave,Morley,MI,49322,616-835-2592
Powerplay Truck & Trailer,14291 Telegraph,Flatrock,MI,48134,734-341-5133
Dd Trucking,485 Lone Pine St ,Sparta,MI,49345,616-633-0848
Hls,466 E 64th St,Holland,MI,49423,616-396-6612
Shuse Shot,1080 S Meridian Rd,Midland,MI,48640,989-923-1625
Prince International Services,8753 Lozen Drive,Sterling Heights,MI,48313,586-939-9948
Republic Waste Services - Western Michigan Division,100 E North St,Kalamazoo,MI,49007,877-268-3867
Delta Freight Management,6931 Knollwood Circle,West Bloomfield,MI,48322,313-850-3333
Wolverine Express,5500 Watson Road,Eau Claire,MI,49111,616-944-1955
Hood Trucking,15775 Guyer St,Union,MI,49130,616-641-5150
Gospel Trucking,7243 Bray Rd,Mount Morris,MI,48458,810-658-7750
T K Transport,13448 Poplar Avenue,Grant,MI,49327,231-834-7750
Moore Delivery,12802 Dresden,Detroit,MI,48205,313-475-3241
D&s Trucking,7584 Otto,Charlotte,MI,48813,517-541-2840
Dw Transportation,26670 Sierra Lane,Flat Rock,MI,48134,313-218-0806
Parker Trucking,4488 Russett Ct Nw,Grand Rapids,MI,49534,989-588-9859
Guardian Building Products,1000 East North Street,Albion,MI,49224,864-281-3496
Moser Enterprises & Transportation,521 Hutchinson Road,Battle Creek,MI,49017,269-969-2434
Idi Trucking,7463 Pebble Lane,West Bloomfield,MI,48322,248-762-2191
Dmb Transport,2625 Whitecreek Rd,Kingston,MI,48741,989-683-3213
S A H Express,3836 E 13 Mile Rd,Warren,MI,48092,586-578-4766
D Oberlin Trucking,10594 Sunset Drive,Portland,MI,48875,N/A
B & K Freight,25151 Dequindre Lot #67,Madison Heights,MI,48071,248-224-0640
Mutt & Jeff Transport,1861 15 Mile Rd Nw,Sparta,MI,49345,516-395-4128
C D Transportation,1705 Boxwood St,Saginaw,MI,48601,989-753-8201
Sadler Trucking And Excavating,5340 Solomon,Middleville,MI,49333,269-795-1907
"Jmb Logistics, Inc.",Po 133 ,Ishpeming,MI,49849,N/A
Dale Hollon Trucking,Hc 01 Box 710,Skanee,MI,49962,906-524-7531
T-way Express,3266 138th Ave,Hamilton,MI,49419,616-896-1762
North Woods Transport,3470 S M 37,Baldwin,MI,49304,231-745-9237
Ro-jan Transportation,29133 Hidden River Dr,Gibraltar,MI,48173,734-379-3511
"Spartan Transport, Inc.",17701 Shaftsberry,Detroit,MI,48219,580-436-3948
Mckindles Trucking,2605 Lone Pine Rd,Farrwell,MI,48622,989-386-7096
High Tons Express,707 Shumway,Portage,MI,49002,269-323-9006
Left Lane Transport,803 North Bellany,Ionia,MI,48846,616-481-4595
Warren Hall Trucking,129n Muenscher St,Howard City,MI,49329,231-937-7768
Weeks Trucking,19490 Five Mile Road,Morley,MI,49336,231-856-4410
Shar Wen Trucking,244 S Loree Rd,Carsonville,MI,48419,810-657-9165
Corey White Trucking,3830 Pfeiffer Ct,Morley,MI,49336,231-206-5378
G & A Express,9100 Bunton Rd,Willis,MI,48191,734-461-9470
Awax Transport,135 Geneva,Highland Park,MI,48203,313-247-5002
Rumrill Trucking,8497 North Leaton Road,Clare,MI,48617,989-386-2511
J W R Enterprise,1941 Rich Avenue,Fremont,MI,49412,231-924-4648
Insp Trucking,1761 Andrew Street Se,Kentwood,MI,49508,616-954-1440
Cox Trucken LLC,121 N Centennial Rd,Coldwater,MI,49036,517-206-5485
Boswood Trucking,137 Meccher Road,Gaylord,MI,49735,989-705-1120
Randall Transport,16795 Rooksby St,Sand Lake,MI,49343,616-636-4501
Jerrys Newport Standard,8575 S Newport,Newport,MI,48166,734-586-2661
Echo Ridge Farm & Transportation,10625 Carriveau Rd,Ossineke,MI,49766,N/A
Forte Road Transport Systems,14721 West 11 Mile Road,Oak Park,MI,48237,248-543-7771
J Walker Trucking,4109 Morton Rd,Stockridge,MI,49285,517-206-9393
Safeguard Transport Co,9 Appleshire Court,Freeland,MI,48623,989-781-6137
Haas Auto Transport LLC,4334king,China,MI,48054,810-523-4605
Foret Trucking,630 E Warner Road,Essexville,MI,48732,989-233-2539
Dendy Trucking,5320 E Bacon Rd,Hillsdale,MI,49242,517-523-4200
Haulin House LLC,5543 Center Drive,Croswell,MI,48422,810-679-2771
Jc Moving Solutions,3260 N Henderson Road,Davison,MI,48423,810-658-8187
Ctc Transportation,26380 Van Born Rd Suite 4,Dearborn Heights,MI,48125,313-291-2266
"Rp & Sons Trucking, Inc.",9366 One Mile Rd,Lakeview,MI,48850,989-352-6871
Classic Carriers,829 South Alger Road,Ithaca,MI,48847,989-875-2019
J L Mcbain,3920 Browntown Rd,Sawyer,MI,49125,269-426-4934
Firestone Auto Center,408 West Genesee Street,Iron River,MI,49935,906-265-0070
Dp Trucking,14522 Deaner Rd,Howard City,MI,49329,231-762-4237
Ccp Transport,2157 East 14 Mile Rd Apt 205,Sterling Heights,MI,48310,586-709-9934
Cherokee Farms,413 Highland Ave,Burr Oak,MI,49030,269-352-1341
Stacie Transport,5229 W River Road,Mt Pleasant,MI,48858,989-621-6914
Arm Transport,8973 M 15,Clarkston,MI,48348,248-922-9840
J&h Trucking,271 Highland Drive,Jackson,MI,49201,734-604-1597
Pete's Trucking,15662 40th Ave,Coopersville,MI,49404,616-837-9029
Express Delivery,3007 East Woodland Drive,Port Huron,MI,48060,810-985-7655
Straightway Expediting Service,41005 Huron River Dr,Belleville,MI,48111,313-699-1812
Star Trucking,33544 Lp Walsh Road,Ontonagon,MI,49953,906-884-2386
"Ct Transport, Inc.",4550 E Us 223,Adrian,MI,49221,517-264-5776
Robert Zinn Trucking,105 Morning Glory,Grand Rapids,MI,49548,616-822-4939
Right Angle Trucking,141 Daniel St Ne,Kentwood,MI,49548,616-262-2476
Walter Casper Bakery Distributor,12180 Cardwell,Livonia,MI,48150,313-261-9399
Henry's Custom Dozer's Service,9557 Painter School Road,Berrien Center,MI,49102,616-461-6478
R&s Trucking,5365 Weechik Road,Sawyer,MI,49125,616-426-8418
Wes Hirsch Trucking,3094 Watson Rd,Sodus,MI,49126,616-926-8183
Glenn Christensen Trucking,1226 Stromberg Road,Iron River,MI,49935,906-265-4798
Michael's Produce Hauler,16165 Fenmore,Detroit,MI,48235,313-836-2202
F J P Expediting,9673 Chatham,Allen Park,MI,48101,313-928-2339
County Line Trucking & Fence Supply,3719 W Washington Rd,Pentwater,MI,49449,231-869-7400
Advanced Media Service,35525 Schoolcraft,Livonia,MI,48150,313-953-9221
J & J Mobile Home Service,1415 Elizabeth St,Midland,MI,48640,517-835-8108
Hurst Distribution,177 South Paw Paw Street,Coloma,MI,49038,616-468-8425
Top Gun Auto Painting And Body Shop,13487 California Road,New Troy,MI,49119,616-426-4233
H&e Trucking,649 W Chicago St,Coldwater,MI,49036,517-278-5989
Art Transportation,9592 Revere Drive,Belleville,MI,48111,734-697-7879
Mcclendon Trucking Express,1333 E 7 Mile Rd,Detroit,MI,48202,810-967-3261
Bow Tie's Bobcat & Dump Service,25003 Cherry St,Edwardsburg,MI,49112,616-663-8817
Hovey Excavating,200 E West Branch Rd,Prudenville,MI,48651,989-366-3763
Lake Trucking,9896 11 Mile Road,Mecosta,MI,49332,616-972-2788
"Oliver Transport, Inc.",12101 Patton St,Detroit,MI,48228,313-837-6068
Pistole Farms,7424 Zora Drive,Almont,MI,48003,810-798-2375
Another Move Moving Company,131 Stoddard Ave,E Lansing,MI,48823,517-337-2184
Holek Trucking,7318 Newberry Rd,Durand,MI,48429,517-288-2288
P & C Trucking,3061 West Fountain Rd,Ludington,MI,49431,616-843-4553
Luckys Delivery Service,23061 Tulane St,Farmington Hills,MI,48336,313-946-6327
Lachance Industrial Service LLC,12 Robert Hupy Drive,Gladstone,MI,49837,906-428-3600
Southern Eagle Refrigerated Transport,10447 S. Horton Road,Goodrich,MI,48438,810-636-7984
Omt Transport,6049 Bertolazzi,Flint,MI,48507,810-232-2095
Forbes Auction Service,R2 Box 2740,Baldwin,MI,49304,616-745-4341
Melvin Straub Trucking,13306 Tuttle Hill Road,Milan,MI,48160,313-439-1874
Jpj Delivery,13753 Oakdale,Southgate,MI,48195,313-281-0462
M&b Trucking,2711 Adams Road,Niles,MI,49120,616-683-1693
Kennedys Delivery Service,26795 Constance Court,Dearborn Heights,MI,48127,313-563-1227
Lathrop Transport,9181 Helena,Pentwater,MI,49420,616-873-7205
Bar C Transfer,N8894 Santosa Lane,Stephenson,MI,49887,906-753-4184
Amkada Trucking,M38,Nisula,MI,49952,906-338-2839
G Zavitz Trucking,320 Wurz St,Niles,MI,49120,616-683-0656
A & B Transport,2700 Eaton Rapids Rd Lot 70,Lansing,MI,48911,517-393-2622
Windmill Express,7667 Evanston Ave,Muskegon,MI,49442,231-788-3574
Specialized Transportation Services,1928 Jeffers,Saginaw,MI,48601,517-753-7904
Ballard's Express Service,5934 Pan Am,Romulus,MI,48174,313-295-7615
L & D Trucking,1101 Oak Crest Sw,Wyoming,MI,49509,N/A
"Michigan Off Road Center, Inc.",16241 S U S 27,Lansing,MI,48906,517-487-0740
"Personalized Services, Inc.",780 S Garner,Milford,MI,48380,N/A
Socier Bros Transport,435 W Nebobish,Essexville,MI,48732,N/A
Back Roads Trucking,2072 Coral Rd,Mcbrides,MI,48852,989-620-4573
R Walden Pallet Services,400 Ann St Ste 212,Grand Rapids,MI,49504,616-365-9818
Primetime Express,3145 East Outer Drive,Detroit,MI,48234,313-368-3928
Tarr Transport,16028 Taylor,Wayne,MI,48184,313-728-3149
Kc Trucking,689 E Girard Road,Quincy,MI,49082,517-279-8937
Shinda Trucking,1440 Woodland Pk Dr,Bitely,MI,49309,734-846-4110
H&s Express,8580 Moorish Road,Birch Run,MI,48415,989-233-0707
Ac Trucking,Po Box 44,Bessmer,MI,49911,906-667-0143
M C S,22820 23 Mile Rd,Paris,MI,49338,616-832-1676
Toms Trucking,892 Emerson,Pontiac,MI,48340,810-373-1009
Michael Jilbert Trucking,505 Pennsylvania Ave,Ontonogan,MI,49953,906-884-2669
"Statewide Delivery & Moving, Inc.",1100 Comstock Road,Marne,MI,49435,616-677-3794
Watson Livestock Hauling,1078 Lindley Road,Bronson,MI,49028,517-238-8591
Jennings Express Transportation,854 E Hinchman Road,Berrien Springs,MI,49103,126-947-1199
"Tla Transport, Inc.",1866 13th Street,Wyandotte,MI,48192,313-282-3004
Innes Truck & Trailer,4345 Barber Road,Hastings,MI,49058,269-945-9177
Royel Transport,3674 N Gregory Rd,Fowlerville,MI,48836,517-223-4320
Nubian Transatlantic,7247 Flamingo,Algonac,MI,48001,810-794-9190
Wolf Trucking,7965 Laberdy Rd,Eau Claire,MI,49111,616-461-6451
W S D S,5947 Harrison,Garden City,MI,48135,N/A
Denbie Trucking,27675 County Rd 388,Gables,MI,49055,269-628-5201
Roskam's Bobcat Service,18266 State Line Road,Edwardsburg,MI,49112,269-641-7612
Hp Trucking,60 Henry St,Coldwater,MI,49036,517-278-6661
West Michigan Trucking,529 Sandy Se,Kentwood,MI,49548,616-455-1718
W&m Trucking Co,1387 Christine,Harrison,MI,48625,517-426-1387
Oedy Trucking,1304 E Caro,Caro,MI,48723,517-673-6334
Mcclellands Trucking,4980 Piersonville Rd,Columbiaville,MI,48421,810-713-5667
Saubert Trucking,206 Smith St,Wakefield,MI,49968,906-224-8481
D & V Trucking,P O Box 141,Waters,MI,49797,517-732-1759
D C Snow Transport,8630 W 116th St,Grant,MI,49327,616-924-8763
James Casperson Trucking,510 N 11 St,Gladstone,MI,49837,906-428-1432
Hatchet & Tomahawk Trucking,N11903 Salmi Ln,Bessemer,MI,49911,906-932-6030
Cobra Express,8600 Noggles Road,Manchester,MI,48158,734-428-7078
Genesis Transport,896 College Avenue,Holland,MI,49423,616-395-9941
Advanced Direct Transit,20450 Balfour #2,Harper Woods,MI,48225,N/A
C&c Transport,362 116th Ave,Martin,MI,49070,616-672-5865
Urgent Air Freight,17328 Bentler,Detroit,MI,48219,313-532-1820
L & A Mobile Home Service,6525 Thornapple Lake Rd,Nashville,MI,49073,N/A
Tucker Trucking,1030 Parchmount Ave,Kalamazoo,MI,49004,616-349-8018
Ken Viau Trucking,1699 17 Rd,Bark River,MI,49807,906-466-2775
Crown Tumbling Motor Freight,924 Minion Drive,Ypsilanti,MI,48198,734-483-7270
"Lakeside Produce, Inc.",120 S Green St,Detroit,MI,48209,313-843-8700
Prodution Services Equipment Rentals,32049 Milton Ave,Madison Heights,MI,48071,248-588-6544
Lp Trucking,2 Riverbank Lot 2,Pontiac,MI,48341,810-338-6573
Deargo Trucking Co,103 Brentwood Drive,Inkster,MI,48141,N/A
Daves Auto Repair,9675 Maplewood Street,Bridgman,MI,49106,616-465-6422
Kasefang Trucking,2083 Idle Hills Road,Brooklyn,MI,49230,517-536-4340
S T D Express,1885 Barron Lake Rd,Niles,MI,49120,616-684-3032
Rogers Auto & Truck Repair,53321 M51 North,Dowagiac,MI,49047,616-782-8896
Crossen Trucking,301 W Broomfield Apt 903,Mt Pleasant,MI,48858,517-774-6908
Highway Express,48708 Warren Road,Canton,MI,48187,313-459-2688
American Transfer,1 Lafayette Plaisance #1911,Detroit,MI,48207,313-393-8904
Fore Sons Management,2951 Thornhills Se Ste 6a,Grand Rapids,MI,49546,616-293-3289
Sharpe Transportation,6633 Briggs Dr,Greenville,MI,48838,616-754-7466
Rapid Freight,4929 1 Mile Road,Fremont,MI,49412,616-924-8747
Winston Auto Sales,24540 W 7 Mile,Detroit,MI,48219,313-535-5346
Brown Trucking,21112 Colvin Road,St Charles,MI,48655,517-643-7646
Alpha Freight Systems,735 Terminal,Detroit,MI,48214,313-331-7922
Tri-county Delivery,P O Box 1397,Bay City,MI,48706,N/A
Truckmaster Distributing,100 S Michigan Ave,Coldwater,MI,49036,517-278-7144
L&t Trucking,2174 Galbriath Line,Melvin,MI,48454,810-346-2272
Amiss Motor Transport,610 West Ottawa Suite # 1306,Lansing,MI,48933,517-484-7559
R W Carroll's Trucking,5451 Heights Ravenna Road,Fruitport,MI,49415,616-788-4584
Custom Haul,353 E Baker Road,Hope,MI,48628,517-879-6642
Father And Son Used Auto Parts,2311 Jerome Rd,Pittsford,MI,49271,517-523-3077
Corathers Services,4166 Clegg Rd,Lambertville,MI,48144,734-856-6973
Ruben C Saldana Trucking,3647 Main St,Deckerville,MI,48427,810-376-4827
Truck On Time Enterprises,96 N West St,Hillsdale,MI,49242,517-437-3757
Severn Trucking,3464 West Lake Road,Clio,MI,48420,810-564-2301
C & R Container Transport,18472 Allen Road,Brownstown Twsp,MI,48192,313-282-4949
Wmtransport,4460 Swam Rd,Stockbridge,MI,49285,517-851-7229
Pine Ridge Services LLC,1723 Mcconnell Rd,Charlotte,MI,48813,517-543-5047
Dennis Hanson Farm,3595 26th Rd,Cornell,MI,49818,906-384-6908
Jack Gray Trucking,1614 Elmwood Road,Unionville,MI,48767,N/A
Integrity Transportation,1210 9 Mile Road Nw,Sparta,MI,49345,616-785-9814
Pete's Auto Wrecking,4113 Hwy 2 & 41,Escanaba,MI,49829,906-786-5387
Zoerhof Trucking,A 5560 143rd Avenue,Holland,MI,49423,616-836-2283
Roberts Expediting Service LLC,28471 Highland,Romulus,MI,48174,313-946-6919
Dnt Freight,17832 Glenis St,Romulus,MI,48174,313-479-2156
Cook's Transport Services,10090 Austin Rd,Jackson,MI,49201,517-672-3142
Harrolds Pallets Service,7080 Niagara Apt 161,Romulus,MI,48174,313-641-2593
"Custom Truck & Equipment, Inc.",W 5784 County Road 338,Wallace,MI,49893,906-863-4750
Williamson Trucking,6536 Bowers Road,Imlay City,MI,48444,810-724-1367
Red Arrow Express,1575 London Ave,Lincoln Park,MI,48146,313-454-7491
Critical Parts Express,17881 Wexford,Roseville,MI,48066,810-772-7377
Kowalewsky Trucking,3640 County Road 441,Rogers City,MI,49779,517-734-3535
Bradely Trucking,8551 Cochran Rd,Horton,MI,49246,517-524-5221
Spigarelli Distributing,800 Wells St,Iron Mountain,MI,49801,906-774-2647
Givens Motor Freight,2087 Sandycreek,Monroe,MI,48162,313-289-2786
Park Transport,1850 Belding Road,Orleans,MI,48865,616-761-3726
Gary Hamilton Trucking,5890 B E 34 Rd,Cadillac,MI,49601,616-775-7123
Bandit Trucking,5621 Rau Road,West Branch,MI,48661,517-345-6743
Dc Transport,2450 Krouse Road Lot# 247,Owosso,MI,48867,517-723-4989
Mcgowan Transport Company,407 Erie,Adrian,MI,49221,517-263-3464
Kj Trucking,7006 Oak Beach Road,Port Austin,MI,48467,517-738-3033
Katco Transportation,1317 N Gulley,Dearborn Heights,MI,48127,313-278-9046
Bose Transporation,3240 Welch Rd,Walled Lake,MI,48390,810-960-3892
Bobs Auto Service,54488 County Rd 388,Grandjunction,MI,49057,616-434-6964
Leased To Dow Dawson Trucking,6117 Westridge Dr,Gladstone,MI,49837,906-428-2203
Coopshaw Trucking,8127 Thompson Highway,Blissfield,MI,49228,517-486-2873
Ricks Trucking,3756 Kroes Rd,Rockford,MI,49341,616-866-5468
K&l Trucking,16747 Juniper Dr,Conklin,MI,49403,616-837-1726
Smokeys Ceptic Service,51279 Atwood Rd,Dowagiac,MI,49047,616-782-0908
Mis Trucking,8413 Eau Claire Road,Berrien Center,MI,49102,616-461-0003
Lims Express,731 W Walnut St,Charlotte,MI,48813,517-543-6307
Haney Hauling,6005 Messer Road,Freeport,MI,49325,616-945-4191
Stuart Delivery,501 W Huron,Vassar,MI,48768,517-823-8199
Renegade Trucking,203 S Cutler St Ste B,Spring Lake,MI,49456,616-740-0716
Northern Automotive Transport,2370 South Ostego Ave,Gaylord,MI,49735,517-731-4515
G&b Transport,330 S Bainbridge,Benton Harbor,MI,49022,616-468-5761
Dan Water Express,25 Williams St,Coldwater,MI,49036,571-414-6822
Jons Septic Service LLC,70465 Five Points Rd,Edwardsberg,MI,49112,269-641-2222
Mannes Trucking,10501 Northland Dr,Big Rapids,MI,49307,231-796-0669
International Express Freightways,10773 Sumpter Road,Maybee,MI,48159,734-587-6059
Lemire Trucking,1903 Park Ave,Excanaba,MI,49829,906-428-9462
Boyer Farms Express,70409 Union Road,Union,MI,49130,616-641-7584
Fort Knoxself Storage,1514 Jefferson Se,Grand Rapids,MI,49507,616-245-9292
Yake Trucking,335 N Dean St Po Box 156,Centreville,MI,49032,616-467-9529
Express Postal Service,4851 Payton Dr,Waterford,MI,48328,248-673-9490
Top Shelf News Delivery,3101 River Road Lot 17,Sodus,MI,49126,616-923-9959
Solmonson Trucking,803 E Front St,Adrian,MI,49221,517-263-3944
Laclears Transport,3020 Andrew Ave,Lansing,MI,48906,517-485-1905
Straight Auto Haul,654 Reid,Detroit,MI,48209,313-575-8000
Raycan Transport,35160 E Michigan Ave,Wayne,MI,48184,734-641-1414
Kooienga Trucking Company,3240 84th Street Southwest,Byron Center,MI,49315,616-878-1666
Van Proostenberghe Trucking,7931 Big Hand Road,Columbus,MI,48063,810-727-7520
Cassavannah Trucking,11270 N Wyman,Blanchard,MI,49310,517-427-1007
Glenn D Sweat Trucking,850 Mulhollen Drive,Monroe,MI,48161,313-241-5397
D M B Expeditor's,11677 Wayne Road Ste 114,Romulus,MI,48174,313-955-7040
P A G Express,25527 Wohlfeil Street,Taylor,MI,48180,313-291-7058
Trailer Express Mobile Repair,2021 Newark,Grand Rapids,MI,49507,616-452-7232
Prince Delivery Service,44486 Penny,Canton,MI,48187,013-416-3328
Supreme Transport,2496 84th Avenue,Zeeland,MI,49464,616-748-9339
Amer Trans,7600 Intervale,Detroit,MI,48238,313-933-5575
James Houle Trucking,W 6151 Elmwood Rd,Menominee,MI,49858,906-753-2368
Rapid Trucking,3645 Holly Lane,Bloomfield Hills,MI,48302,888-816-0980
Jlb Transport,9484 W Long Lake Rd,Alpena,MI,49707,517-595-2961
Phantom Transport,2514 Sexton Road,Howell,MI,48844,517-285-5559
T H Transportation,3811 E Rosebush Rd,Rosebush,MI,48878,517-433-2114
Cc Trucking,2552 Mershon St,Saginaw,MI,48602,517-777-1102
C&c Transport,11530 - 13 Mile Rd Ne,Rockford,MI,49341,616-754-7129
Cross Roads Trucking,4770 Us 131 S,Petosky,MI,49770,616-347-0500
J & P Trucking,13404 Cleveland,Buchanan,MI,49107,888-251-7300
Rummell Trucking,4405 King Road,Owosso,MI,48867,989-494-3333
Emerald Transport,1017 1/2 Marion Ave,Big Rapids,MI,49307,231-796-1640
Buskirk Trucking Ltd,155 E Cannonsville Road,Stanton,MI,48888,517-831-7124
J W Babbin & Sons Trucking,5166 Wayne Road,Pentwater,MI,49449,616-869-2032
M-40 Transportation Of Holland Mi,4360 Lincoln Rd,Holland,MI,49423,616-396-7471
Ronny Gene Betts Springhill Trucking,832 Langwell Rd,Bronson,MI,49028,517-369-4864
Wascher Chip Hauling,111 Plank Rd ,Greenland,MI,49929,906-883-3754
Mdv,1799 Rogue River Rd,Belmont,MI,49306,616-447-9664
D&j Leasing,2036 S 3rd St,Niles,MI,49120,269-683-1954
Shippers' Express,2786 Nolan Nw,Grand Rapids,MI,49544,616-735-9901
Hoogerheide Of Kalamazoo Casket Distributors,2488 Plainview St,Kalamazoo,MI,49009,616-375-5161
Excalibur Transportation Solutions,3310 Iroquois Ave,Flint,MI,48505,810-785-7382
Mirro Image,41680 Conger Bay Drive,Harrison Township,MI,48045,586-463-9381
Kittel Transport,6175 Whitehall Rd,Whitehall,MI,49461,616-893-1163
Alpis,28510 Hildebrandt,Romulus,MI,48174,734-946-3257
Wayne Transfer,11701 Metro Airport Cen C 101,Romulus,MI,48174,800-610-7874
Maki Auto Sales,5100 Apple Ave,Muskegon,MI,49442,231-788-1111
Hp Trucking,1400 Patricia,Ann Arbor,MI,48103,313-530-4208
Dekkinga Trucking,127 Maplelawn Se,Kentwood,MI,49548,616-532-7731
N J T Express,41327 Village Green Blvd E#103,Canton,MI,48187,313-892-5490
Jen Transport,4022 Elizabeth,Wayne,MI,48184,313-326-1436
Yacht Services Unlimited,339 East Welch Court Suite B,Traverse City,MI,49686,516-929-8944
H&j Transport,4895 E Lovejoy Road,Byron,MI,48418,517-223-8676
B&j Trucking,1613 Jolly Road,Lansing,MI,48910,517-882-1838
Hacks Sales & Service,11647 Baldwin,Bridgman,MI,49106,616-426-4636
Little Willies Trucking,11288 Brydan Apt 137,Taylor,MI,48180,313-946-0706
Boley Express,3011 Lansing Ave,Jackson,MI,49202,517-250-2141
Pifer Trucking,3455 W Millbrook Road,Mt Pleasant,MI,48858,989-866-2648
Christensen Express,67216 Oak Ct,Dowagiac,MI,49047,616-983-0422
Eog Trucking,9222 Avis Street,Detroit,MI,48209,313-729-2580
Mihelich Trucking,Po Box 147,Calumet,MI,49913,906-337-3082
Marrog Trucking,21654 Almy Rd,Howard City,MI,49329,616-890-8719
Herdean Expediting Services,30550 Brush,Madison Heights,MI,48071,248-583-6416
V&v Trucking,23210 River Run Road,Mendon,MI,49072,616-467-7084
Rpl Trucking,123 Jefferson Se,Sandusky,MI,48471,810-648-4591
Curio & Son Trucking,2536 Mary Ann Dr,Lewiston,MI,49756,517-786-5046
Duckwitz Trucking,1192 S Lapeer Rd,Lapeer,MI,48446,810-245-1585
Redy Trucking,135 W Willow,Perry,MI,48872,517-625-5477
French Trucking,221 E Knight Street,Eaton Rapids,MI,48827,517-231-5154
St James Transportation,P O Box 1412,Taylor,MI,48180,734-946-0020
B & K Trucking,8133 Hagar Shore,Watervliet,MI,49098,616-849-3503
Haleys Septic Service,300 E Railroadst,Dowagiac,MI,49047,269-782-6332
Burlingame Trucking,14765 County Road #450,Newberry,MI,49868,906-293-8691
Distribuidora Osorio,165 Douglas Ave,Holland,MI,49424,616-396-4434
Steves Grain Dryer Service,16580 Ridgeville Road,Waldron,MI,49288,517-286-6982
"G & M Trucking, Inc.",414 West Jefferson Ste 201,Trwnton,MI,48183,734-282-9496
David Lunsford Trucking,51129 Creglow Road,Marcellus,MI,49067,269-506-0733
Twin Twisters Trucking,2800 Rowe Rd,Milford,MI,48380,248-889-0038
Cat Trucking,7888 8 Mile Road,Mecosta,MI,49332,231-972-2781
Dusk Till Dawn Transport,6883 Jefferson Rd,North Branch,MI,48461,231-587-0830
Mikes Trucking,5700 N Clare Ave,Harrison,MI,48625,517-539-9647
Myers Trucking,613 Autumn Rd,Cadillac,MI,49601,616-779-3836
Triple J Trucking,1423 North M-33,Rose City,MI,48654,517-685-2752
Spicer Transportation,14579 S State Rd,Perry,MI,48872,517-625-7643
E S G Delivery Service,24801 Five Mile Suite 8,Redford,MI,48239,313-319-3331
Post Express,2192 W Vienna Rd,Clio,MI,48420,810-564-3111
Lazy Line Trucking,867 Dolphin St Sw,Wyoming,MI,49509,616-430-6754
Auto Liquidators,803 129th Ave,Shelbyville,MI,49344,616-281-8200
Absolute Document Destruction Services,7755 Primrose Ln,Portage,MI,49024,616-327-9221
Wades Trucking,326 N Center,Hartford,MI,49057,616-621-6663
L R B Transportation,455 84th Street Sw,Byson Center,MI,49315,616-878-4641
L&m Trucking,222 S 5th St,Niles,MI,49120,616-684-5287
Jbs Auto Sales,10660 W Carleton Road,Clayton,MI,49235,517-445-2500
Cory Brownell Trucking,1012 Blair Street,Watersmeet,MI,49969,906-358-4558
Bins Disposal Service,3426 Swartz Road,Lasalle,MI,48145,734-243-5271
Always Moving Co,1342 Clearwater,White Lake,MI,48386,248-421-6683
Joe Burch Trucking,10281 E Pickard Road,Mt Pleasant,MI,48858,517-773-0757
Robinson Transport Co,82455 48th St,Decatur,MI,49045,269-208-1415
Alron Distributing Systems,6581 Winona,Allen Park,MI,48101,N/A
Lone Woof Express,8620 Eleven Mile Rd,Mecosta,MI,49332,231-972-4067
Cliff Oja Trucking,55843 Pepin Road,Calumet,MI,49913,906-482-1081
Progressive Transportation Systems,G4467 Clio Rd,Flint,MI,48504,810-789-8807
Emming Trucking,2777 Lakeshore Road,Harbor Beach,MI,48441,888-848-7994
"Silverado Carriers, Inc.",39316 Plumbrook Dr,Farmington Hills,MI,48331,248-553-4624
"J H Walker Transport, Inc.",18699 Innsbrook #509,Northville,MI,48167,248-449-9723
K&e Transport,6404 Wagner Ave,Grand Blanc,MI,48439,810-744-4857
Southport Transportation,2776 25th St,Detroit,MI,48216,313-361-5033
Checker Charlie's Delivery Service,23341 Plymouth Rd,Redford,MI,48239,313-535-6524
Gary Avery Transport,10172 Klees Rd,Crystal,MI,48818,989-235-3690
Fetterly Farms Trucking,8591 Stone Road,Maybee,MI,48159,734-587-8071
Beach-n-delivery,164 84th St Sw,Byron Center,MI,49315,616-531-5955
Smidt Trucking,605 West Monroe,Bangor,MI,49013,616-427-7958
Tundra Trucking,12860 Ontonagon Drive,Dewitt,MI,48820,517-669-1721
Thornton Trucking,9155 Dawes St,Detroit,MI,48204,313-934-1582
Bill Tebo Trucking LLC,N11601 Lucke Ln I-3,Daggett,MI,49821,906-753-6442
Meta Trucking,13530 Coleman Road,Kewadin,MI,49648,616-264-9432
"Dads Diversified Services, Inc.",4203 Central Ave,Detroit,MI,48210,313-554-3370
Farrell Trucking,422 Pine St,Blanchard,MI,49310,989-561-5270
Djm Services And Sales,2363 North 32nd St,Fountain,MI,49410,616-462-3334
L A Systems Transport Services,622 Elloitt Street,Grand Haven,MI,49417,616-835-5674
C Meyers Trucking,3320 Hemlock,Lake,MI,48632,517-588-0215
Brown Construction Services,1251 Century #103 Sw,Grand Rapids,MI,49507,616-475-4222
Jones Transport,1462 Parkwood,Ypsilanti,MI,48198,734-481-0151
F & D Express Service,36414 Farmbrooke Dr,Clinton Township,MI,48035,586-421-5201
Rec Trucking,1963 N Lakeshore Drd,Ludington,MI,49431,616-845-7012
Anchor Transport,923 S Sutton,Jackson,MI,49203,517-764-6149
Ferguson Deliveries,329 N Fourth,West Branch,MI,48661,989-345-0810
"Oilfield Trucking, Inc.",4922 W Salt River Rd,Shepherd,MI,48883,989-773-2029
J Corey Trucking,9759 Homestead,Beulah,MI,49617,231-383-1299
"Integrated Construction Services, Inc.",3735 141st Ave,Hamilton,MI,49419,616-688-5196
Goss Trucking,7393 S Bohemian Rd,Maple City,MI,49664,231-228-2610
Anderson Enterprises,319 S Michigan Avenue,Big Rapids,MI,49307,231-796-9401
Mad Transport,11065 Whitmore Lake Rd Ste A,Whitmore Lk,MI,48189,734-260-5322
J B Trucking Of Kalkaska,6358 Carroll Rd Se,Kalkaska,MI,49646,231-258-8829
K & C Hephner Trucking,9123 West Carlton Rd,Clayton,MI,49235,517-445-2799
National Fluid Services,36524 Grand River Ave,Farmington Hills,MI,48335,248-477-6261
Northern Express,2300 Krumlauf Rd,Kalkaska,MI,49646,231-258-2945
Wally Kipp Trucking,1611 N Stark Road,Midland,MI,48628,517-689-2535
Republic Waste Services,36850 Van Born Rd,Wayne,MI,48184,734-641-3555
Fragile Express Delivery F E D,220 West 9th,Traverse City,MI,49684,616-941-7695
Silver Moon Transport,1746 Honeybrook Dr,Jenison,MI,49428,616-457-6903
Independent Refrigeration Service,9051 Homerich,Byron Center,MI,49315,616-292-6540
Trainor Transport,11330 Midway Road,Three Rivers,MI,49093,616-244-1036
Brad Davis Trucking,160 W Southern Road,Bronson,MI,49028,517-204-2807
El Shaddai Express,2146 Newport St Sw,Wyoming,MI,49509,616-532-6150
J&s Trucking,13776 Biscayne Ave,Monroe,MI,48161,734-735-6950
D And L Transfer,28471 Highland Bld 6,Romulus,MI,48176,313-794-7454
Blessings Transport,30241 Maystead,Burr Oak,MI,49030,616-489-0111
Moore Trucking,153 Lincoln Road,Alma,MI,48801,N/A
Rammes Auto Sales & Salvage,N9396 S Davis Road,Ironwood,MI,49938,906-663-6080
William Foster Trucking,2310 M 140,Niles,MI,49120,616-683-8085
Diekman Farms,22979 Heimbach Rd,Mendon,MI,49072,269-496-5635
Harrisville Marine,444 S Us23,Harrisville,MI,48740,989-724-5439
Hadco Trucking Co,30842 Middlebury,Westland,MI,48186,734-326-8399
Gti,20950 Dix Toledo Rd,Brownstown,MI,48183,734-479-4695
Dedicated Delivery Service Ltd,6120 Catalpa,Sterling Heights,MI,48314,586-739-0038
Northern Wolverine Transit,102 River St,Rockland,MI,49960,906-886-2817
J & S Trucking,11810 South Athey Avenue,Clare,MI,48617,989-386-0660
Up Ag Express,21127 S Mackinac Trail,Rudyard,MI,49780,906-478-4010
Scar Transport LLC,14929 Lane Dr,Warren,MI,48088,586-944-0091
Stargate Transport,460 S Washington,Constantine,MI,49042,616-435-2295
Excel Automotive Leasing,5266 Alpine,Comstock Park,MI,49321,616-784-8000
Jim Highlen Container Rental,5891 Briarwood Ct,Clarkston,MI,48346,248-620-9566
Spivey Trucking,9 Devonshire,Ypsilanti,MI,48198,734-547-8685
Mark Lanaville Trucking,N13506 County Road 551,Wilson,MI,49896,906-639-3188
Spence Trucking,23264 Shurte St,Cassopolis,MI,49031,269-445-2840
"Kurtz Trucking, Inc.",3400 10th St Lot 24,Menomoniee,MI,49858,920-863-4664
Ppg Detroit Grow Automotive,14000 Stansbury,Detroit,MI,48227,313-837-1116
Nationwide Auto Exchange,9797 E Grand River,Brighton,MI,48116,810-229-6800
Lepior Transportation,871 64th St,Zeeland,MI,49464,616-688-7435
B Zelmer Trucking,4287 So Pipestone,Sodus,MI,49126,269-925-4550
Shilling Trucking,11138 E Dodge Rd,Otisville,MI,48463,810-631-4321
J&p Merchandise Distributors,165 Douglas Ave,Holland,MI,49424,616-738-1014
Refrigerated Controlled Logistics,4470 Orkney Drive,Flint,MI,48507,810-234-0589
A L Denomme Trucking,11495 Croswell Road,Saint Johns,MI,48879,313-701-7261
Cloutier Transport,9769 Page Road,Marlette,MI,48453,517-635-3591
Matt's Motor Carrier,8167 Central,Center Line,MI,48015,586-353-0212
J&w Mcdonald Transport,4587 Channel Lake Road,West Branch,MI,48661,517-345-2950
J Mercer Trucking,12518 Dickinson Road,White Pigeon,MI,49099,616-483-9084
Noodles Transport,2625 Northlawn Ave,Ypsilanti,MI,48197,734-528-3830
Rosebrugh Trucking,4098 South Lincoln Road,Standish,MI,48658,517-846-4775
5 J's Trucking,3986 Byron Road,Hudsonville,MI,49426,616-896-8322
V & S Trailer Hauling,377 N Main,Plainwell,MI,49080,616-685-7020
Compher Transport,508 Lincoln,Kalkaska,MI,49646,231-258-6977
Ruiz Trucking,"1313 Lake Street, House",Kalamazoo,MI,49001,269-348-1336
Two Men And A Truck North Wayne,31037 Schoolcraft Road,Livonia,MI,48150,734-722-6683
Babcock And Son Trucking,4200 Wolverine Road,Wolverine,MI,49799,231-525-8451
Rush Expediting,5235 Portage Rd,Kalamazoo,MI,49002,616-349-5252
Duff Transport Company,11830 Highland Trail,Stanwood,MI,49346,231-972-0560
Jd Transport,323 W Emerson St,Ithaca,MI,48847,517-875-7167
Mash Trucking,36109 Waltham Dr,Sterling Heights,MI,48310,810-979-2528
Buskirk Trucking,4247 Division,Mcbride,MI,48852,989-762-5608
Boreal Transports,144 Goodhall Road,Iron River,MI,49938,906-265-3089
Ring Delivery Service,749 Grant,Clawson,MI,48017,248-577-6440
Uckele Health And Nutrition,5600 Silberhorn Hwy,Blissfield,MI,49228,800-248-0330
Ecko Beer Distributing,6661 Chase,Dearborn,MI,48126,313-846-5890
Southwest Stuent Transport Detroit,18907 Weaver,Detroit,MI,48228,248-568-3032
"Rbt, Inc.",2830 Chicago Drive Sw,Grandville,MI,49418,616-534-7681
Higbee Auto Transport,273 Carlson Dr,Mount Clemens,MI,48043,586-260-3800
"D & B Freight Sales, Inc.",119 E Mcleod Ave,Ironwood,MI,49938,906-932-4512
Lombardi Food Service,2465 23 Mile Rd,Utica,MI,48087,313-254-3550
Keesler Transport,5944 Maple Valley Rd,Brown City,MI,48416,313-346-3258
Orrick Transportation,986 Ruth Ln,Niles,MI,49120,616-683-1279
Holland Special Delivery,3068 Highland Drive,Hudsonville,MI,49426,616-667-5100
M Frazeur Trucking,8075 Musson Rd,Six Lakes,MI,48886,517-365-3416
L&m Trucking,1013 W Beecher St,Adrian,MI,49221,517-263-4014
Stonepath Logistics,7640 Holland Road,Taylor,MI,48180,734-893-6620
Calcut Trucking Company,2371 X-celsior Drive,Oxford,MI,48371,248-969-7180
Bill Ulleg Trucking,6850 Martin Rd,Coloma,MI,49038,269-468-6098
Rel Trucking,5817 S Dock Street Rt 2,Newaygo,MI,49337,616-652-9361
Blazer Truck Lines,35160 E Michigan Ave,Wayne,MI,48184,734-641-4367
Noonan Trucking,10900 Miles Road,Six Lakes,MI,48886,989-365-3572
Ed Nelson Transport,N 3025 State Hwy M-35,Menominee,MI,49858,906-864-2520
G&a Transportation,237 Baldwin St,Montrose,MI,48457,810-639-6753
Mills Trucking,Star Route 81 Box 65,Eckerman,MI,49728,906-274-5414
John Trucking,7681 Grand,Dexter,MI,48130,313-426-3504
"Veb Co Transport Systems, Inc.",1010 S Bainbridge Ctr Rd,Benton Harbor,MI,49022,616-944-5282
Avery Trucking,1770 Centerline,St Johns,MI,48879,517-322-3822
Hagar Motor Carriers,4278 Bundy,Coloma,MI,49038,616-849-3341
L & L Trucking,9450 S Linden Road,Swartz Creek,MI,48473,810-655-8361
Jacque`s Freight Service,528 105th Avenue,Plainwell,MI,49080,616-685-8602
Stc Transport,3819 24th Street,Dorr,MI,49323,616-558-0823
Arrow Express,1621 Whitewood Drive Sw,Wyoming,MI,49519,616-889-4896
Omc Boat Group Transportation,925 Frisbie Street,Cadillac,MI,49601,616-779-2390
J & S Trucking,Mi 48 Hwy,Stalwart,MI,49789,906-647-5646
Pontiac Trucking,110 Spokane,Pontiac,MI,48053,N/A
"Mt Pleasant Excavating Service, Inc.",1669 S Isabella Rd,Mt Pleasant,MI,48858,989-773-4516
Luchies Trucking,9082 Redwood Drive,Newaygo,MI,49337,616-652-2711
L C Truck Company,1313 Crescent St,Greenville,MI,48838,616-754-6229
T E T,7688 N Adrian Hwy,Tecumseh,MI,49286,517-264-2102
"Dunn Transportation Services, Inc.",3255 Gateway Ledge,Commerce,MI,48390,248-669-2040
Hometown Usa Mobile Home Exchange,10200 Telegraph Road,Carleton,MI,48117,734-586-8000
Nottke Trucking,1615 Park Drive,Traverse City,MI,49684,616-947-0310
"Wilmac Tours, Inc.",12200 Greenfield,Detroit,MI,48277,313-273-0200
Dta Carriers,G4175 W Pierson Road,Flint,MI,48504,810-785-3830
J & R Transportation,8250 Linden Ave,Newaygo,MI,49337,231-652-1203
Warack Trucking,8975 E Washington Road,Saginaw,MI,48601,989-868-4141
Northern Transportation,9378 Center Hwy,Traverse City,MI,49684,616-947-2502
R & R Auto Parts,3105 Mclain Rd,Goodells,MI,48027,810-758-5325
Wayne Clark Trucking,2635 Yore Avenue,Benton Harbor,MI,49022,616-926-2364
Actionemco,4120 Brockton Dr Se,Grand Rapids,MI,49512,616-554-4222
Vasquez Trucking,1024 21st St,Bay City,MI,48708,517-894-0530
"Michigan Truck Spring Service, Inc.",3411 W Fort Street,Detroit,MI,48216,313-496-0323
J & J Trucking,21450-220th St,Paris,MI,49338,616-796-5533
John Madaski Trucking,10273 S Stoney Creek Rd,Carleton,MI,48117,313-654-6997
Flick Grain Transport,311 Emily Street,Flushing,MI,48433,313-659-6469
"Thruway Motor, Inc.",5000 Wyoming Suite 135,Dearborn,MI,48121,313-846-8380
Arrow Express,15797 Oak Hill Ct,Livonia,MI,48151,N/A
T D Ekkel Trucking,26 W Maple,Fremont,MI,49412,616-924-2403
Malcolm Transport Co,3120 Mckinley Road,Saint Clair,MI,48079,313-329-7557
E & H Transport,1154 N Cavalier Rd,Canton,MI,48187,248-541-6893
Gotz Transportation,4132 Deerrun Ln,Muskegon,MI,49442,N/A
"Alexander Products, Inc.",1118 S Newburgh Rd,Westland,MI,48186,734-721-3677
Engleman Transport,6945 Grand River Ave,Saranac,MI,48881,616-642-0765
Morse Hahnenberg,1732 Barlow St,Traverse City,MI,49686,800-424-3531
Polar Express,1233 Poplar,Custer,MI,49405,N/A
Bob Senske Trucking,2718 Senske Rd,Standish,MI,48658,N/A
Winona Trucking & Salvage,P O Box 219,Houghton,MI,49931,N/A
J W Transport,1107 Victory Street,Buchanan,MI,49107,269-547-3471
Hager Distribution & Hager Wood Preserving,1545 Marquette St Sw,Grand Rapids,MI,49509,616-452-5151
C R Transportation,34344 Somerset,Westland,MI,48185,313-326-1691
G Hammonds Trucking,13224 Homefield,Romulus,MI,48174,313-941-6983
G&s Trucking,8550 M 62,Berrien Ctr,MI,49102,269-461-3003
Shore Line Express,9790 Us 31,Montague,MI,49437,N/A
Arrow Group,3811 Industrial Dr,Rochester Hills,MI,48309,313-852-5151
J&f Trucking,Millpond Road,Trout Creek,MI,49967,906-852-3373
Mike O'connor Trucking,2360 E Holt Rd,Williamston,MI,48895,517-655-3680
Vanderports Transport,1880 Cruzen Rd,Harrisville,MI,48740,517-736-6318
Wolverton,5542 W Grand River Avenue,Lansing,MI,48906,517-321-7250
Rnr Transport Company,4830 Carolee Lane,Dearborn Heights,MI,48125,313-295-2110
R A S K L D Express,Rt 2 Box 38b,Wallace,MI,49893,N/A
Downs Manufacturing,715 N Main St,Lawton,MI,49065,616-624-4081
L-w Transport,679 Butternut Lot 403,Holland,MI,49424,616-399-1688
Ar-dic Freightways,229 N Main St,Ithaca,MI,48847,989-875-4450
Morgan Trucking,9276 Willow Road,Willis,MI,48191,734-461-1602
"Trout & Sons Trucking, Inc.",2785 Sm76,West Branch,MI,48661,517-345-1360
"Vern's Emergency Freight, Inc.",0912 1/2 Chicago Dr,Jenison,MI,49428,616-732-4225
Dick's Trucking,9716 Haken Road,Alpena,MI,49707,N/A
Shore To Shore Hauling,5076 Quarterline Rd,Kewadin,MI,49648,616-264-9006
Emt Tanker Logistics,3601 Wyoming Suite 8,Dearborn,MI,48120,313-841-4000
Vos Trucking,2109 Olmstead Rd,Kalamazoo,MI,49001,616-349-2781
"Genesee Valley Aviation, Inc.",3501 W Bristol Road,Flint,MI,48507,810-234-4663
J & M Trucking,6588 136th Street,Sand Lake,MI,49343,616-636-8238
Stanley Trans,17535 Us 12,Edwardsburg,MI,49112,N/A
Go Transport,12680 Beech Daly Rd,Redford,MI,48239,734-266-6500
F F Truck,Unknown,Saginaw,MI,48605,N/A
Jewel Transportation Company,708 N Beck St,Sebewaing,MI,48759,517-883-3460
"Filion Trucking & Leasing, Inc.",11821 Longsdorf Rd,Riverview,MI,48192,313-281-6305
Phil Trucking,2613 Wilson Lane,Niles,MI,49120,616-683-6414
Fritz's Trucking,2635 North Mio Road,Rose City,MI,48654,517-685-2924
Belue Transportation Service,1174 Mount Royal Drive,Kalamazoo,MI,49009,616-372-0152
Moore Trucking,R #1 630 B Pipestone Rd,Eau Claire,MI,49111,N/A
Max Trucking,821 Hastings Street,Traverse City,MI,49686,800-448-7592
Silver D Farms,5201 Amble Road,Coral,MI,49322,231-354-6677
M&r Service,175 Barker Rd,Whitmore Lake,MI,48189,313-449-2671
Schooks Trucking,63861 Lutz Road,Constantine,MI,49042,616-435-7951
R H Brink Trucking,6015 Whitmarsh,Vanderbilt,MI,49795,N/A
Brown's Trucking,3839 Walton Rd,Vassar,MI,48768,517-823-3096
R Bishop Trucking & Bishop Farm,754 E Newberg Road,Pinconning,MI,48650,517-879-4729
Northern Michigan Expeditors,3303 Columbine Ct,Traverse City,MI,49686,616-938-1913
"Northland Auto Transporters, Inc.",31299 Mally Dr,Madison Heights,MI,48071,810-589-8100
Wally Kipp Trucking,1661 N Stark Rd,Midland,MI,48640,989-839-9711
Grant Welding Service,12012 Elder St,Grant,MI,49327,616-834-7973
S B Fowle Trucking,3005 Corporate Grove Dr,Hudsonville,MI,49426,231-250-8371
A G Turner,5261 Nw Hillis Road,Stanton,MI,48888,989-831-8142
Psc Environmental Services,421 Lycaste,Detroit,MI,48214,313-824-5303
Contract Freightway Xpress Transport Limited,13881 W Chicago,Detroit,MI,48228,313-934-3303
Crawford Trucking,3136 Apple Blossom St,Indian River,MI,49749,231-330-3486
One Way Express,6307 State St # 10,Saginaw,MI,48603,586-552-3625
Jensen Trucking Company,5835 S Vinning Rd,Greenville,MI,48838,616-754-4925
Pennington Gas Service,9155 West Weston Road,Morenci,MI,49256,517-458-7107
Huron Oil Company LLC,10941 Michigan Ave,Posen,MI,49776,989-766-2495
Tadlock Trucking,912 Putnam St,Wakefield,MI,49968,906-224-5981
Burg Advertising Service,503 N Nottawa,Sturgis,MI,49091,616-651-3705
Modern Moving & Storage Company,34200 W 9 Mile,Farmington,MI,48335,248-476-6973
Robertson's Sales & Service,1601 Niles Buchanan Road,Niles,MI,49120,269-684-2669
Tjd Apiaries,5953 N 9 Rd,Mesick,MI,49668,231-885-2671
"Total Kare Express, Inc.",14985 Arden St,Livonia,MI,48154,N/A
H & K Lustila Trucking,1307 Charlotte Drive,Germfask,MI,49836,906-586-6683
Touch Of Class Transport,351 Allen St,Newaygo,MI,49337,616-652-2125
Steve Hegel Trucking,966 N Oberlin Road,Gladwin,MI,48624,989-426-0037
Cdc,19679 John R St,Detroit,MI,48203,313-369-2137
Mike Young Trucking,30844 Warren Rd #217,Westland,MI,48185,501-857-3282
Stone Septic Service,20355 Us 12 East,Edwardsburg,MI,49112,616-699-5596
Creques Farms & Trucking,8606 Samaria Road,Riga,MI,49276,731-856-4656
S J And Sons Trucking Co,12878 Marlow St,Detroit,MI,48227,N/A
M L C Transport,4467 Clio Rd,Flint,MI,48505,810-789-0106
P & G Moreno Trucking,12191 Felch St,Holland,MI,49424,616-786-0955
Horner's Transport Co,813 East Nebobish Rd,Essexville,MI,48732,N/A
Inman Trucking,8660 1 Mile Rd,Lakeview,MI,48850,989-560-1851
Taylor Trucking,9297 M 99,Albion,MI,49224,517-416-5320
Resource Recovery Systems Of Ann Arbor And Fcr Ann Arbor,4150 Platt Road,Ann Arbor,MI,48104,734-971-8797
M Jorae Trucking,111 North Laing,Laingsburg,MI,48848,N/A
Total Marketing Distributor,6100 N Hix Road,Westland,MI,48185,734-641-3353
Jeff's Trucking,3361 Drahner,Oxford,MI,48371,313-628-3518
Tagsold Trucking,7101 Berkey Hwy,Blissfield,MI,49228,517-486-2136
Nagelkirk Fruit Trucking,10484 Felch,Holland,MI,49424,616-772-6687
Black Diamond Transport,9221 Island Lake Rd,Dexter,MI,48130,734-426-9999
Raymond Ryan Trucking,543 Camp Road,Sanford,MI,48657,517-687-7784
D A Davis Trucking,3680 Vassar Rd,Reese,MI,48757,N/A
Legault Farms,901 Warren Woods Rd,Buchanan,MI,49107,574-292-1562
Backhoe Services,91 Vienna West,Temperance,MI,48182,313-847-3729
Kingco Services,14601 Dequindre,Detroit,MI,48212,313-849-2337
Ison Transport,22804 Johnson Road,Ontonagon,MI,49953,906-366-0184
Schmid Trucking,11807 Stauffer,Sparta,MI,49345,616-887-1854
"Romtrans, Inc.",11740 Hogan Hwy,Clinton,MI,49236,517-456-7883
Travelart,17450 Dunblaine Ave,Beverly Hills,MI,48025,248-723-1920
Klavinger Transportation Systems,5418 Bingham,Dearborn,MI,48126,N/A
Sonrise Transportation,958 Athens Rd,Sherwood,MI,49089,517-741-7858
Selvidge Trucking,82 Kessler St,Monroe,MI,48161,234-243-2725
Try-us Trucking,508 Sherman Blvd,Muskegon Heights,MI,49444,N/A
Dale L Hiscock Trucking,12244 12 Mile Road,Ceresco,MI,49033,616-979-3086
B & L Trucking,53 Grindstone Rd,Port Austin,MI,48467,N/A
Dedicated Express,2041 Rochester Rd,Royal Oak,MI,48073,248-837-0070
"Omni Atm Services, Inc.",24565 Hall Wood Court,Farmington Hills,MI,48335,N/A
Rodney Forrest Trucking,536 E St Clair,Almont,MI,48003,313-798-3715
J & W Transportation,59416 Steiner Dr,Threerivers,MI,49093,269-273-8864
Kaszubowski Trucking,14816 Polaski Rd,Posen,MI,49776,N/A
Ace Cartage Express,4945 Cumber Rd,Ubly,MI,48475,517-872-2822
C & G Trucking,1811 West Division,Cadillac,MI,49601,616-775-6927
M Lashuay Transportation,Brest Rd 27257,Taylor,MI,48180,N/A
Factory Automanuals,2719 Raskob Ave,Flint,MI,48504,800-743-8161
Getzloff Trucking,N 15925 County Road,Wilson,MI,49896,906-466-2102
Kc Trucking Co,9717 Wyoming,Detroit,MI,48204,313-538-5169
M I M Trucking,7427 Colonial St,Dearborn Heights,MI,48127,313-406-5192
Remedial Services Division,1128 Franklin St,Marne,MI,49435,616-667-4000
Robert Cary Logging And Trucking,N 10106 State Hwy M 95,Sagola,MI,49881,906-399-3344
August Pohl Auto Parts,2225 S M139,Benton Harbor,MI,49022,269-925-0035
"Vidco International Associates, Inc.",32500 Van Born,Wayne,MI,48184,313-728-4848
Automotive Equipment Outfitters,1831 Clay Ave,Detroit,MI,48211,313-871-8030
S & K Transport,403 White St,Williamston,MI,48895,517-655-3829
Pepper's Professional Moving,4233 East Morgan Road,Ypsilanti,MI,48197,313-528-0200
Central Moving Service,3445 N Center Rd,Flint,MI,48506,N/A
Bob's Bobcat Service,Center Street,Union,MI,49130,616-641-5747
Dependable Transportation,8531 Ronda Drive,Canton,MI,48187,313-451-6300
J & R Trucking,328 White Tail Court,Grandville,MI,49418,N/A
Central Transport,12225 Stephens Road,Warren,MI,48089,586-939-7000
Clark's Service,1901 Oak Street,Niles,MI,49120,269-683-8516
7343238582,9722 Nabozny Dr,Milan,MI,48160,734-260-5533
Tousignant Trucking & Metal Recycling,M-35,Gwinn,MI,49841,906-346-5991
J W Glover Transport,3767 Two Mile Rd #d,Bay City,MI,48706,517-754-8556
Cheyenne Trucking,3701 Haynes Rd,Leslie,MI,49251,517-589-9866
W W Transport LLC,13660 N Forest Dr,Charlevoix,MI,49720,616-547-5509
Transport 1,10600 Gratiot,Detroit,MI,48213,N/A
Carlson Trucking,N 13740 N-3 Lane,Carney,MI,49812,N/A
Little Trucking Co,Po Box 80805,Saint Clair Shores,MI,48080,N/A
J&m Service Center,Pob 313,Sturgis,MI,49091,616-651-6595
Chris Yoder Trucking,9973 S Johnson Road,Blanchard,MI,49310,989-866-2348
U-n-i Trucking,7785 Garfield,Hesperia,MI,49421,N/A
Boles Trucking,2945 Aitken,Croswell,MI,48422,N/A
Peterson Trucking,550 N Crawford,Twining,MI,48206,N/A
Antoun Trucking,12531 Common Rd,Warren,MI,48093,N/A
William H Mitchell Trucking,4941 Cumber Road,Ubly,MI,48475,989-506-9814
Donald J Cook Trucking,6275 M-32 West,Alpena,MI,49707,517-356-0309
Hi-po Industrial Services,1417 West Blvd,Berkley,MI,48072,734-677-8822
Gmg Services,8888 Meadow Lane,Berrien Springs,MI,49103,616-471-1022
Woody's Delivery Service,21251 Mahon Dr,Southfield,MI,48075,248-352-2203
O'neils Glass Service,5015 East Michigan Avenue,Kalamazoo,MI,49003,616-342-2520
K & M Trucking,E 46 98 Highway M 35,Escanaba,MI,49829,906-789-4231
Yates Trucking,599 East Isabella,Midland,MI,48640,517-839-8429
R & S Truckline,180 W 9 Mile Rd,Ferndale,MI,48220,313-542-8695
Jessie Cantu & Son Trucking,304 N Erie,Bay City,MI,48706,517-892-4251
Totzke Transportation,2765 Orange Road,Niles,MI,49120,616-695-6931
K & J Trucking,1100 W Lawrence Hwy,Charlotte,MI,48813,N/A
Pittsford Auto Parts,11000 Hudson Road,Pittsford,MI,49271,517-523-2731
Ace Auto,903 Gordonplace,Kalamazoo,MI,49001,616-381-8855
G & H Carrier,11647 Wisconsin,Detroit,MI,48204,N/A
Rawls Express,533 East 5th Street,Burton,MI,48509,N/A
Amon Farm,10200 S Edon Road,Camden,MI,49232,517-368-5323
Advance Limo Service,803 Dixie Drive,Benton Harbor,MI,49022,269-926-8628
Muscle Movers,256 Haeussler Ct Suite B,Ann Arbor,MI,48103,313-663-6683
C & C Service,220 East Mccallum,Montgomery,MI,49255,517-296-4468
Great Lakes Transportation,1062 S Collins Road,Caro,MI,48723,517-868-3863
Rabbit Express,1359 Milton St,Benton Harbor,MI,49022,269-926-2828
All-ways Trucking,3020 Mann Road,Clarkston,MI,48346,248-673-5943
Great Lakes Freight Systems LLC,16001 W Almira,Lake Ann,MI,49650,231-275-6644
Four Way Pilot Service,3988 Will Carleton Dr,Flat Rock,MI,48134,313-782-5914
Barter Trucking,13618 South 5th Street,Schoolcraft,MI,49087,616-679-4945
C & M Trucking,4734 Duvernay Drive,Lansing,MI,48910,517-882-2224
B B Moving Hauling,1828 E Michigan Ave,Ypsilanti,MI,48198,734-484-0878
Broekhuizen Trucking Company,81720 M-51 N,Decatur,MI,49045,269-423-6268
"Charbonneau Trucking, Inc.",Pob 435,Oscoda,MI,48750,989-739-3536
Ravco Transport,37975 Grantland,Livonia,MI,48150,N/A
Jim Elzinga & Sons,13131 Pinewood St,Gowen,MI,49326,616-878-1197
Indian Trails Van Lines,1250 Oakland Avenue,Pontiac,MI,48340,313-335-6806
Hadley's Service,10281 Red Arrow Highway,Bridgman,MI,49106,616-465-5706
Larson Trucking,Route 2 Box 2654-c,Manistique,MI,49854,N/A
Dave's Auto,3301 Whitehall Road,Muskegon,MI,49445,616-766-2089
S E C Trucking,1815 Newark S E,Grand Rapids,MI,49507,616-243-6053
"Mich Marine Distributing, Inc.",3706 Millcreek Ne,Comstock Park,MI,49321,616-784-5195
Duncan Express,9800 Milliman Rd,Millington,MI,48746,989-871-2535
R J Gafford Trucking,830 S Griswold,Hart,MI,49420,616-873-3399
John's Trucking,1320 Anderson,Niles,MI,49120,616-684-7281
Gene Mitchell Transport,6220 State Route 99 N,Homer,MI,49245,N/A
Boelter's Diversified Service,16084 Hannan,Romulus,MI,48174,734-941-1170
B & N Trucking,4752 S Ruess Rd,Owosso,MI,48867,517-725-7067
Butcher Trucking,3888 N Kerby,Owosso,MI,48867,517-743-3922
Becker Trucking,N 4909 Crozer St,Watersmeet,MI,49969,906-358-4633
S&r Transport,512 Clayton Nw,Walker,MI,49504,616-791-4556
Alko Transport Co,1023 Northshore Dr,Benton Harbor,MI,49022,616-925-2263
Alpis,28510 Hildebrandt,Romulus,MI,48174,734-947-3640
Johnson Truck & Equipment Sales,14658 Apple Dr,Fruitport,MI,49415,616-842-0560
Rothbury Transit,7699 Michigan Ave,Rothbury,MI,49452,616-894-6047
Kaufman Const & Trucking,3839 N Harmon Road,Saint Johns,MI,48879,989-834-9705
T&a Trucking,1814 Bulgreen Rd,Snover,MI,48472,313-672-8961
Wolf Trucking,12452 120th Ave,Grand Haven,MI,49417,616-846-4329
Nastally Trucking,448 Parkwood,Jonesville,MI,49250,517-849-2951
South Haven Auto Sales,01739 67th St,South Haven,MI,49090,269-637-8722
Bonnie S Pottala Trucking,Route 1 M28,Trout Creek,MI,49967,906-852-3334
T K Trucking,8591 N Blanchard Road,Blanchard,MI,49310,989-561-2356
Steve Tessin Trucking,3635 N Chapin,Merrill,MI,48637,517-643-7929
Mc Trucking,1329 Barron Lake Rd,Niles,MI,49120,616-424-5882
Olk Trucking,6269 N Ridge Rd,New Lothrop,MI,48460,517-845-7456
Sos Express,2891 Vogue Blvd,Saginaw,MI,48603,989-249-7874
Neil Winkel Trucking,12900 U S 131,Schoolcraft,MI,49087,616-679-5360
Ram Transport,16084 Hauss,East Pointe,MI,48021,810-773-6130
"Ber-bottom Freight, Inc.",13424 Fordline,Southgate,MI,48195,313-284-1919
Sob Trucking,127 W Bridge St,Six Lakes,MI,48886,517-365-3077
Connection Service Co,1377 S M-139,Benton Harbor,MI,49022,616-926-2658
Living Hope Transport LLC,3812 S Lake Dr,Beaverton,MI,48612,989-429-8646
Lowiejay Hotshot Service LLC,563 Kelli Ave,Marysville,MI,48040,810-357-4960
Viper Trucking LLC,55593 St Regis,Shelby Twp,MI,48315,586-549-5611
Shoreline West LLC,808 E Filer St,Ludington,MI,49431,616-604-1243
Black Stallion LLC,26240 Warner Ave,Warren,MI,48091,540-966-2174
"Jon James Trucking, Inc.",Po Box 490,Caspian,MI,49915,906-265-9144
"D & C Transportation, Inc.",820 Nectar Dr #778,Canton,MI,48076,248-796-8424
"Red Star Trucking, Inc.",5501 Schaefer Rd,Dearborn,MI,48126,734-709-3235
Steve Henning Fast Freight,13855 Davisburg Rd,Davisburg,MI,48350,248-634-0980
Roll Transport,14183 Morrice Rd,Perry,MI,48872,517-625-5436
"Doug Rettberg, Inc.",Po Box 337,Sterling Heights,MI,48311,810-343-3916
Us Drive Right LLC,Pobox 429,Spring Arobor,MI,49283,888-632-5936
Polymath Enterprises LLC,7095 Rich Rd,Fostoria,MI,48435,810-614-4826
American Eagle Transport LLC,899 Burlington,Canton,MI,48188,313-378-4685
Zimmerman Transport,2714 Pringle Road,Ubly,MI,48475,810-404-0349
Last Minute Freight LLC,509 6th Street,Plainwell,MI,49080,269-685-8500
Davis Auto Delivery LLC,24844 Godin,Center Line,MI,48015,586-806-4617
Mcguire Trucking LLC,154 West Miller Lake Road,Coldwater,MI,49036,517-227-2490
6 Mile Marketing LLC,5942 King James Ln,Waterford,MI,48327,312-407-4461
High Way Of America LLC,5000 Wyoming Ave Suite 131,Dearborn,MI,48126,313-415-4261
Prisom Trucking,1865 Lansing Rd,Charlotte,MI,48813,517-980-4707
Map Transport LLC,3804 21 St Street,Wyandotte,MI,48192,734-341-1944
Advantage Logistic LLC,P O Box 5443,Dearborn,MI,48128,313-468-1703
Xyz Transport LLC,2430 Linda Ave Se,Grand Rapids,MI,49546,616-299-9626
Rook Transportation Services,Po Box 16,Alba,MI,49611,989-858-3872
J & S Transport LLC,2363 Maple Ln,Dorr,MI,49323,616-685-9662
Dxx Transport,9900 Plainview Ave,Detroit,MI,48228,N/A
"Howard Hauling, Inc.",17901 Woodland Dr,New Boston,MI,48164,734-389-4522
C G M Trucking,Po Box 62,Hubbell,MI,49934,906-296-1681
Eknoor Trucking Company,6101 Quartz Ln,Grand Blanc,MI,48439,810-394-2112
Minuteman Powerbus,25920 Northline Commerce Dr Suite 400,Taylor,MI,48180,734-946-2903
Adam Taxi,1617 Melrose Avenue,East Lansing,MI,48823,517-505-8083
"Mariam Truking, Inc.",7100 Freda St Apt#307,Dearborn,MI,48126,313-638-0715
G J B Haulers,9020 Thornapple Ave,Newaygo,MI,49337,616-437-6952
Rose City Greenhouse,2260 M-33,Rose City,MI,48654,989-685-2108
Rothe Trucking,1650 South Van Dyke,Bad Ace,MI,48413,989-269-3936
Fa Trucking,5676 N Vernon St,Dearborn Heights,MI,48127,313-629-0444
Cornett Transport,10915 Douglas Rd,Temperance,MI,48182,734-652-8967
Sackitt Moving Company,63 Riverview Ave,Battle Creek,MI,49017,269-719-2528
Hartman Outdoors,11097 Hoffman Street,Marcellus,MI,49067,269-506-9180
Mad Max''s Authentic Plates,15400 S M 52,Stockbridge,MI,49285,517-740-6636
K D Enterprises,8425 Mission Rd,Alanson,MI,49706,231-838-4503
All Area Movers,4370 South Belsay Rd,Burton,MI,48519,810-610-6990
4 Tees Towing,16216 Westbrook,Detroit,MI,48219,313-828-6930
Copper Hawk Farm,572 N Circle Dr,Mio,MI,48647,989-826-5373
C&c Landscaping,3442 25th St,Hopkins,MI,49328,616-885-8712
Wheelz,1203 Wolf Creek Hwy,Adrian,MI,49221,517-266-2277
Topspeed Transportation,28800 Highland Rd,Romulus,MI,48174,905-598-2437
Red Letter Productions,796 W Maple Ave,Adrian,MI,49221,517-264-5488
J&a Transport,215 W Mack St,Corunna,MI,48817,989-277-9360
Anywhre Hauling,11390 S 43 Rd,Cadillac,MI,49601,231-775-3005
Kastels Tree Service,10030 Whiteford Ctr,Ottawa Lake,MI,49267,734-856-2532
Kaiser Farms,331 Kosmerick Road,Coldwater,MI,49036,517-369-9143
Hometown Hearse Company,13901 J Drive North,Battlecreek,MI,49014,269-579-5303
Packed-n-loaded,6332 Middlebelt Road,Garden City,MI,48135,734-552-1218
Midway Rv Center,5590 S Division Ave,Grand Rapids,MI,49548,616-534-9641
Harvest Hill Trucking LLC,4676 142nd Ave,Holland,MI,49423,269-751-2819
First Line Services LLC,3883 Oak Grove Rd,Howell,MI,48855,517-505-8742
Nvd,25821 Ross Dr,Redford,MI,48239,313-766-9352
Michigan Refrigerated Service Transport,1937 Lotus Dr,Erie,MI,48133,231-745-9751
J W Smith Tile Co,2541 Gorlad St,Lake Orion,MI,48360,248-393-1130
E&n Transortation LLC,11370 Klinger Street,Hamtramck,MI,48212,313-585-1843
Precision Lawn Care,499 Maple Lane,Coldwater,MI,49036,517-677-6537
Gliders,4418 Harvard,Detroit,MI,48224,313-739-7600
Muntavo Anthony Lewis Ym,Care Of 17207 Woodingham Dr,Detroit,MI,48221,313-862-4158
Mama Russo's,1710 Us 41 West,Ishpeming,MI,49849,906-485-5250
Clayvan Carriers,31313 Dorais,Livonia,MI,48154,734-748-7383
Designated Transportation Services,1606 Myron,Lincoln Park,MI,48146,313-529-3297
Artesian Distillers,955 Ken O Sha Industrial Park Drive Suite B,Grand Rapids,MI,49508,616-252-1700
Khaled Sawal Trucking,1820 Wyoming Street,Dearbon,MI,48120,716-704-6933
1st Choice Transport,27062 Norfolk St,Inkster,MI,48141,313-451-8430
Tom's Greenthumb Rototilling,12994 Calhoun Road,Milan,MI,48160,734-439-7018
Latoya Wonnia Lenear Tm,Care Of 10926 Worden Street,Detroit City,MI,48224,313-527-4124
Treasure Market,3128 Walton Blvd #214,Rochester Hills,MI,48309,248-659-8506
Taproot,3792 Hickory Hollow Dr,Ypsilanti,MI,48197,734-678-2365
Diadem Global Logistics,3015 West Ct,Jackson,MI,49201,151-775-0316
Tony G's Transportation Services LLC,7406 N Charlesworth St,Dearborn Heights,MI,48127,313-909-6157
Sport Floors Resurfacing,26300 Ford Road Box 145,Dearborn Heights,MI,48127,734-262-6987
Westside Transport,12350 Inkster Rd,Redford,MI,48239,313-251-6959
Timber Creek Services,49525 Rosenlund Rd,Hancock,MI,49930,906-370-8515
Roger Dixon Custom Carpentry,1414 Lake Nepessing,Lapeer,MI,48446,810-664-3164
Vip Limousine Services,10444 Shaner Ave Ne,Rockford,MI,49341,269-377-2033
Stevens Saw Mill,8998 Stevens Road,Delton,MI,49046,269-623-2646
Tamikia Rae Williams Tm,Care Of 1514 Brooklyn Street,Detroit,MI,48226,313-964-2036
Jovon Toya Royal Tm,C/o 15872 Prevost,Detroit,MI,48227,131-331-6198
Greater Michigan Movers,156 E Chicago St,Coldwater,MI,49036,517-278-6683
Terrence Lamonte Strachan Tm,Care Of 20522 Plymouth Rd,Detroit City,MI,48228,131-342-5153
Truby Liacavelli Childs Tm,Care Of 18896 Moenart Street,Detroit City,MI,48234,313-318-0667
T&b Hauling And Metal Recycling,3004 E South St,Jackson,MI,49201,517-414-8925
Dc Deliveries,7818 30th Rd,Rapid River,MI,49878,906-280-6277
4-s Mowing,12986 Wooden Rd,Jonesville,MI,49250,517-320-1827
Scrap & Towing,1701 Clyde Park,Wyoming,MI,49503,616-558-7054
Nicholas Trucking LLC,6526 Lincoln St,Allendale,MI,49401,616-895-1358
Dande Transport,6685 M66 N Lot 103,Charlevoix,MI,49720,231-838-1397
Farm,6181 Sandshores Dr,Troy,MI,48085,248-879-1382
Warner Farms,10040 Brown Rd,Jonesville,MI,49250,517-849-2210
Av7 Productions,4840 N Adams Rd Ste 161,Rochester,MI,48306,586-489-3097
Mattress And Furniture Distributors,32645 Industrial Rd,Garden City,MI,48135,734-762-2100
Love's Lawn Care,4088 Vicksburg,Detroit,MI,48204,313-595-6687
Bailer' S Sausage,23940 Koenig Rd,Hillman,MI,49746,989-742-2061
Odde Cupple,11293 Essex Avenue,Warren,MI,48089,586-806-4728
Options Plus LLC,2222 Innwood Dr Se,Kentwood,MI,49508,616-350-2995
Lorine Holmes El Tm,800 Tobin Dr Apt 11,Inkster,MI,48141,734-334-3000
Sonray Farms,2765 Pearson,Milford,MI,48380,248-684-4962
R & S Hauling,12692 Wells Drive,Leroy,MI,49655,231-578-0866
Vr2-jip Transport,7796,Shelby Twp,MI,48316,586-441-5007
Redd Transport,1528 Hamilton,Grand Rapids,MI,49504,616-206-1414
Heather Express,514 16th Street,Port Huron,MI,48060,810-305-1331
Bbl,2115 Branch Rd Suite B,Flint Mi,MI,48439,810-691-1132
New Yemen Car Carrier,5451 Middle Sex Street,Dearborn,MI,48126,313-491-9287
North Oakland Bobcat Service,16128 Fish Lake Rd,Holly,MI,48442,248-252-2394
B & D Trucking,109442 S Cork Road,Morrice,MI,48857,989-666-1545
Lonestar Auto Transport,1443 West Drive,Wolverine Lake,MI,48390,248-960-9988
Cb Carriers,6905 Jennifer Dr,Holland,MI,49424,616-403-4741
Manessa Mia Husseytm,8145 N Pointe Ct,Canton City,MI,48187,313-942-6785
Lsh,11875 Williams Rd,Riverdale,MI,48877,989-763-2085
Joevar Express LLC,15564 Lincoln,Eastpointe,MI,48021,313-443-5919
Sutter Creek Trucking,19555 Schroeder Rd,Brant,MI,48614,989-585-3764
H5 Underground,8103 Miller Rd,Swartz Creek,MI,48473,810-834-9346
Traverse City Building Repair And Sw Mi Building Repair,2201 Kalamazoo Avenue Se,Grand Rapids,MI,49507,616-241-4446
Cousino's Lawn Care,2141 Fletcher St,Erie,MI,48133,419-345-2165
The Grounds Guys Of Grand Rapids,3085 Dixie Ave Sw,Grandville,MI,49418,616-893-9063
Jasco Transport,7800 Whiteford Center,Ottawa Lake,MI,49267,419-466-2445
Treesplus,6780 Belding Rd,Rockford,MI,49341,616-635-0210
12 Gauge Construction LLC,7752 Shorkey Dr,Ira,MI,48023,586-716-0854
Martin Sales,N 5722 Us Highway 41,Wallach,MI,49893,906-788-4354
Jd West Transport,70154 M103,White Pigeon,MI,49099,269-625-7906
Kapteyn Piano Finish And Freight,10583 Bluewater Dr,Carson City,MI,48811,989-763-0178
Fast Load,34740 West Eight Mile Rd Apt 1,Farmington Hills,MI,48335,248-982-5981
Ms Express,212 Kenyon Dr,Troy,MI,48083,248-291-4537
Pmv High Performance Coatings,3124 Ravine Rd,Kalamazoo,MI,49004,269-276-0907
Sand Ridge Beef & Boer Goats,2992 Lange Rd,Sebewaing,MI,48759,989-550-7957
Jasper Farms,400 W Marquette Woods Rd,St Joseph,MI,49085,269-429-5211
Birds Snowsports,817 E 1 Mile Rd,White Cloud,MI,49349,616-866-0272
Deer View Farm,8165 N Kings Hwy,Luther,MI,49656,231-797-5480
Eagle Travel,3835 S Seymour Rd,Sault St Marie,MI,49783,906-203-1196
Lakeview,6858 S Lime Lake Rd,Ceder,MI,49621,231-342-5804
Lerma Transport,15543 Alysworth Rd,Thompsonville,MI,49683,231-275-0155
Robbies Hauling,331 W Emerson St,Ithaca,MI,48847,989-875-5048
Wendinger Acres,N 10683 Blackjack Rd,Bessemer,MI,49911,906-224-0018
Luci Transportation,11837 Pardee Rd,Taylor,MI,48180,313-422-3837
Jr Services,3211 West Wagner Rd,Buchanan,MI,49107,126-932-6180
Tnt Specialty Feeds,1922 W Gordonville Rd,Midland,MI,48640,989-631-5965
Varino Trucking,6856 West Montgomery Rd,Camden,MI,49232,517-368-5494
San Miguel Market,5623 109th Ave,Pullman,MI,49450,269-236-6314
Aps Mobile Advertising LLC,8551 Stout Avenue,Grosse Ile,MI,48138,269-873-6334
Ballards Bodacious Bbq,527n County Road 437,Cooks,MI,49817,989-430-3571
Tim Martin Transport,1020 Deckerville Rd,Snover,MI,48472,810-404-1834
G & D Trucking LLC,373 E Keegan St,Deerfield,MI,49238,734-945-1787
Kearsley Auto Brokers,5263 N Genesee Rd,Flint,MI,48506,810-736-8490
Zig Zye Transport,3209 Lothrop St,Detroit,MI,48206,373-468-2444
J Lemoyne Trucking,1085 Cady Rd,Union City,MI,49094,517-279-1452
Nel Express,1955 Bloomfield Drive,Okemos,MI,48864,517-763-6500
"Ch, Inc.",27127 Haverhill St,Warren,MI,48092,586-339-6239
D & J Vending,3164 South 3rd St,Niles,MI,49120,269-683-5643
Durt Cheep,3822 Platt Rd,Ann Arbor,MI,48108,734-732-2002
Ensign Emblem Ltd,1746 Kean Dr,Traverse City,MI,49696,231-946-7703
Nuart Sign And Graphic Systems,322 E Welch Ct,Traverse City,MI,49686,231-941-7739
4 Burgers,21749 Northline Road Unit 6,Taylor,MI,48180,646-420-1512
Fullview Productions,672 Woobridge Suite 200,Detroit,MI,48226,313-259-2020
Argus-hazco,46400 Continental Drive,Chesterfield,MI,48047,586-840-3200
Richardson Trucking,554 Partridge Run,Barryton Mi,MI,49305,989-817-2060
Immakulate Home Design,500 Arcola,Garden City,MI,48135,734-425-7446
Bendele Trucking,843 N Schoenherr Rd,Custer,MI,49405,231-690-8950
Cnet Professional Cabling,3712 Westgate Pl,Tecumseh,MI,49286,517-260-2477
S N T,37570 Dale Drive Apt 302,Westland,MI,48185,734-233-5074
Tanvir Transportation,45228 Hanford Rd,Canton,MI,48187,734-394-8025
A-n-s Installation,3018 S Sandunes Dr,Hillsdale,MI,49242,419-450-9662
Final Finish,10549 Riverside Drive,White Pigeon,MI,49099,269-464-2092
Jw Owen,14612 Rangeline Road,Buchanan,MI,49107,269-695-1330
Russell Electric,1605 S Range Rd,St Clair,MI,48079,810-329-9700
After Hours Farms,60559 M 51 S,Dowagiac,MI,49047,269-683-3314
Paul Friday Farm,2175 Friday Rd,Coloma,MI,49038,269-208-4329
Fox Charlevoix,06684 Us 31 S,Charlevoix,MI,49720,231-547-9900
Rays Farm,6217 Bay City Forestville Rd,Cass City,MI,48726,989-912-9708
Ken Bricker,7716 Kilgore Rd Suite 2,Yale,MI,48097,810-679-9638
Gaylord Equestrian Center,7000 Hayes Tower,Gaylord,MI,49735,989-858-6066
Soo Eagle Booster Club,819 West 26th Ave,Sault Ste Marie,MI,49783,202-521-1493
Kalamazoo Freight Movers,608 Forest St Unit 1,Kalamazoo,MI,49008,269-903-9063
"Fsb, Inc.",4554 128th Avenue,Holland,MI,49424,616-399-9025
"Constructeam, Inc.",31780 Groesbeck Hwy,Fraser,MI,48026,586-620-5500
Tqc Constrution,3971 Austin Rd,Camden,MI,49232,151-736-8518
Expert Auto Transport,1367 East Dodge Road,Mount Morris,MI,48458,770-205-0218
Daytile,7255 Bluebird,Waterford,MI,48329,248-666-4572
"55 Bar-b-q, Inc.",4812 Sandy Ridge Lane,Hamilton,MI,49419,269-751-4636
Hipster International,8165 Mckinley,Centerline,MI,48015,586-879-8180
Importadora Centroamericana,1076 Sherry St,Temperance,MI,48162,502-788-9190
Marshall Plastic Film,904 E Allegan Ave,Martin,MI,49070,269-672-5511
Rckp Enterprises LLC,5793 West River Dr Ne,Belmont,MI,49306,616-363-2109
Crazyjack Transport,8385 Dixie Hwy,Birch Run,MI,48415,989-233-3783
Bechamp Trucking,21850 Elmway,Clinton Township,MI,48035,586-790-5990
Get-em Moving Road Service,1306 W Saint Joseph Street,Lansing,MI,48915,517-896-1169
All Rhodes Express,3011 Fowler Rd,Glennie,MI,48737,989-329-3286
Tom's Rv Repair,13411 Lime Lake Road,Hudson,MI,49247,517-383-2291
Trw Delivery Services,702 East Jane St,Bay City,MI,48706,800-226-3696
Ldn Transport LLC,22634 Fawn,Brownstown,MI,48183,734-329-1144
Advantage Transportation,43933 Stonebridge Drive,Belleville,MI,48111,313-475-2357
Ronald R Russell Trucking,6035 Cedar Run Rd,Traverse City,MI,49684,928-768-2177
Vbj Logistics,37934 Jefferson,Harrison Twp,MI,48045,586-484-9769
Krajniak's Evergreens,4443 Mud Lake Road,Posen,MI,49776,989-766-8879
Bulls Eye Trucking,30 Puritan St,Highland Park,MI,48203,313-354-9301
Joels Trans Enterprise,20050 Northlawn St,Detroit,MI,48221,248-491-3156
"Aplustransport, Inc.",9050 North Stony Rd,Washington,MI,48094,586-232-4464
Louise Transport,234 Franke Ln,Cadillac,MI,49601,989-576-1486
Txd Transport LLC,138 Hickory Dr,Troy,MI,48083,248-252-3861
Domino's Pizza,641 W Washington St,Marquette,MI,49855,906-869-8919
Property Observation LLC Transport Services,6451 147th Ave,Holland,MI,49423,616-298-8918
Zellys Transportation,8572 7 Mile Rd,Evart,MI,49631,231-745-9751
Brian M Langton Builders,438 Fessner,Carleton,MI,48117,734-915-6668
Gregs Improvement Company,31251 Hayes St,Warren,MI,48088,586-293-0119
A-1 Expediting,2302 S Grand Traverse St,Flint,MI,48503,810-406-7767
Express Oil & Gas Services,5680 Muffer Road,South Boardman,MI,49680,231-590-7766
Aps Trucking,2022 Archwood Dr,Wayland,MI,49348,269-953-6267
Mid American Salvage,544 Fort Dearborn Street,Dearborn,MI,48124,313-806-4325
Frenchies Fast Freight,1319 Henri,Newport,MI,48166,734-231-3792
Auto Trans LLC,35 W Huron Ste 10n,Pontiac,MI,48342,248-325-8264
Christy Trucking & Transport,16543 Williamsville Rd,Vandalia,MI,49095,269-240-0912
Wright Way Express LLC,22060 Rein,Eastpointe,MI,48021,586-864-2814
Huntington Machinery,992 Rankin Dr,Troy,MI,48083,248-792-4250
Freelan Transportation,5150 Hogback Rd,Fowlerville,MI,48836,517-575-8230
Rocas,14426 Port Creek Rd,Flat Rock,MI,48134,313-254-3954
B&m Transport,2283 Kenneth Street,Burton,MI,48529,810-875-9047
Ghost Shadow Trucking,29916 Boileau Drive,Novi,MI,48377,770-205-0218
Senior Residential Maintenance,33614 Kirby St,Farmington Hills,MI,48335,248-747-6323
All Pro Color,21470 Coolidge Hwy,Oak Park,MI,48237,248-547-0100
Designs Receiving,1160 Welch Rd,Commerce Township,MI,48390,248-669-9696
Taf Enterprises,3888 Voice Rd,Kingsley,MI,49649,231-620-5670
Horris Heating And Cooling,1303 Parchmount Ave,Parchment,MI,49004,269-382-7775
Kenny's Transportation LLC,20118 Voiland St,Roseville,MI,48066,586-563-9404
Deal Transport Services,7402 E Prior Road,Durand,MI,48429,989-873-0813
Boom Mower Services LLC,30776 Lynsey Ln,Sturgis,MI,49091,269-651-3160
Yellow Cab Checker Cab Executive Car Service,437 West North Street,Kalamazoo,MI,49007,269-349-9090
Transportes Pf-salinas,5229 W Michigan Ave Lote 157,Ypsilanti,MI,48197,956-522-0755
Diamond G Farms,329 Mine Street,Norway,MI,49870,906-282-8075
Southern Outreach,11707 Laing St,Detroit,MI,48224,313-333-1818
Just Us Outreach,16207 Wisconsin St,Detroit,MI,48221,313-779-4364
Richard Baumgardner,20 Avonlea Sw,Wyoming,MI,49548,616-245-5038
Kaz Contracting,16069 Us Hwy 41,Rapid River,MI,49878,906-446-3864
Jd Logisitics,4921 Hayes Tower Rd,Gaylord,MI,49735,989-858-6223
Todd Salenbien Farms,10829 Bitz Road,Maybee,MI,48159,734-587-3972
Shah Auto Transport,1315 Washington Ave,Lincoln Park,MI,48146,734-925-1720
R Kimball,2130 W Cutler Rd,Dewitt,MI,48820,517-669-5655
Mckibbin Farms,1700 E Montgomery Rd,Hillsdale,MI,49242,517-254-4367
First N Class,309 Fairview Ave,Camden,MI,49232,517-368-4987
Home Improvement Company,730 Princess,Canton,MI,48188,734-776-1099
Double D Transport,601 Parker Street,Crystal,MI,48818,989-339-6080
Tsg,6537 W M21,Ovid,MI,48866,989-725-1412
World Christianship Ministries,21360 Andover,Southfield,MI,48034,313-268-6295
Witts End,6214 Raddatz Rd,Fowlerville,MI,48836,517-223-7329
Mx Transportation,8858 Rutland,Detroit,MI,48228,313-838-8972
Dumpsters 4 U,20427 Angling St,Livonia,MI,48152,248-388-6646
"C & D Trucking, Inc.",1751 Wadhams,St Clair,MI,48079,810-329-3265
Hti,110 South Otsego,Gaylord,MI,49735,989-731-4704
Beach Trucking,2736 S State Road,Harbor Springs,MI,49740,231-526-8067
Echelon Transport LLC,786 Red Oaks Drive,Howell,MI,48843,810-626-8800
L White & Song Trucking,48450 Denton Rd,Belleville,MI,48111,734-699-2982
Sm & M Logistics,1567 E 2nd Str,Galien,MI,49113,269-449-7984
Dison & Co,Po Box 1270,Southgate,MI,48195,313-283-8957
Calhoun Expediting,1209 Miners Run,Rochester,MI,48306,248-840-4174
"Heritage House Furniture, Inc.",6950 Memorial Hwy,Ottowa Lake,MI,49267,734-856-6300
C & K Industries,465 Jay Street,Coldwater,MI,49036,517-279-1879
"I R W S, Inc.",12632 Ten Mile Rd,South Lyon,MI,48178,248-446-5052
Lemires Expediting,11585 South Flooter Rd,Roscommon,MI,48653,989-275-8817
New Life Outeach,4493 Woodschool Rd,Hastings,MI,49058,269-948-7736
Mcclain's Towing & Recovery,17611 M-86,Three Rivers,MI,49093,269-273-8400
"Tnt Body & Frame, Inc.",42642 W Red Arrow Hwy,Paw Paw,MI,49079,269-657-5532
Accurate Mobile Home Construction,7600 N Sheridan Rd,Edmore,MI,48829,989-427-8221
Warrez Towing,17373 Lahser Road,Detroit,MI,48219,313-794-0888
Fernwalt Ostrich Ranch,1096 Marshlyn Dr,Niles,MI,49120,269-684-4521
Southwest Michigan Cartage,11444 Holden Rd,Baroda,MI,49101,N/A
Yo Yo's Installation,17368 Mcphail Ave Ne,Cedar Springs,MI,49319,419-737-1331
Carman Safety Lock,430 Race St,Coldwater,MI,49036,517-279-2799
Family Relocation,6606 Beatrice,Kalamazoo,MI,49009,269-544-2910
J W Coop,3575 W Burdickville Rd,Maple City,MI,49664,231-334-6408
Ste Croix Farms,771 Barrington Road,Grosse Pointe Park,MI,48230,313-823-6973
S & D Trucking,3000 Orange Rd,Niles,MI,49120,269-635-0028
B & B Expediting,14057 Yale Rd,Yale,MI,48097,810-387-4467
Mkg Elite Expediting,11406 Wahrman,Romulus,MI,48174,734-941-3901
Dave's Repair & Towing LLC,2861 South M-139,Benton Harbor,MI,49022,269-782-5002
The Van Man,303 Skyline Dr,Blissfield,MI,49228,517-673-2414
K&m Roadside Assistance,4635 N Van Dyke,Almont,MI,48003,810-798-3154
Euroline,2140 44th Street Se Suite 306,Grand Rapids,MI,49508,616-827-3070
