Company Name,Street Address,Address Locality,Address Region,Postal Code,Telephone
Aq3 Farms,33007 Mn Hwy 22,Litchfield,MN,55355,320-693-2376
Superior Services,3512 Village Way,Hastings,MN,55033,651-283-5767
Two Men And A Truck,660 Transfer Road,St Paul,MN,55114,651-472-0080
Bossert Trucking,405 5th Ave,Wilmont,MN,56185,507-926-5303
D & H Transportation,1711 370th Ave,Janesville,MN,56048,507-461-3245
Ladwig Trucking,14662 Pearl Lake Dr,Detroit Lakes,MN,56501,218-847-5709
Reipke Trucking,48350 800th St,Lakefield,MN,56150,507-841-1415
Aerotek Heating Ac And Duct Cleaning Services LLC,17319 Lake Blvd,Shafer,MN,55074,651-493-8324
Wlf Trucking,115 West Broadway Apt 4,Little Falls,MN,56345,320-360-6013
Ryan Campbell Trucking,319 Central Ave S,Bertha,MN,56437,218-385-2534
Chad Halvorson Trucking,23235 390th Ave,Lamberton,MN,56152,507-430-2901
Transcomm LLC,2218 200th Street East,Clearwater,MN,55320,701-373-5782
Mayes Transportation,9307 Chicago Ave South,Bloomington,MN,55420,952-884-0067
Casa Express,5460 7th Street Ne Apt 222,Fridley,MN,55421,612-250-4311
Parks Pony Express,836 N 43rd Ave W,Duluth,MN,55807,218-624-7436
"Journey Trucking, Inc.",3564 Flag Ave North,New Hope,MN,55427,763-670-9165
Jerve Trucking,4012 Minnesota Lane Sw,Montevideo,MN,56265,320-269-9419
Diesel Transport,880 Sw 15th St,Forest Lake,MN,55025,866-982-1029
R & J Webber Trucking LLC,211 Washington St,Waltham,MN,55982,507-279-7100
All Around Limo Service,2837 Asbury Street North,Roseville,MN,55113,651-983-4924
R & P Trucking,8667 Hillman Road,Brainerd,MN,56401,218-764-3456
D Remer Trucking,28570 County Road 89,Browerville,MN,56438,320-808-4702
Crissinger Trucking & Sons,55363 890th St,Jackson,MN,56142,507-840-1214
Crown Lift Trucks,860 Vandalia St,St Paul,MN,55114,651-645-8668
Nationwide Transport Services,9779 43rd Ave Se,Stewartville,MN,55976,507-533-4705
Trail Trucking LLC,11055 State Highway 70,Pine City,MN,55063,320-629-4793
Groskreutz Trucking Company,4335 210th Ave,Wells,MN,56097,507-340-0133
Jiz Transport,5768 Trenton Lane N,Plymouth,MN,55442,763-732-2610
D & L Trucking,2530 Hwy 12 Se,Delano,MN,55328,612-760-6436
Pnd Transfer,2210 154th Ln Nw,Andover,MN,55304,763-767-8166
Radermacher Transport,3939 County Road 14 Nw,Parkers Prairie,MN,56361,320-491-4013
Miller Trucking,59488 Mn30,Mapleton,MN,56065,507-380-3209
Stella Transport Service,15255 Zuni St Nw,Ramsey,MN,55303,763-421-1312
Eagle Express,1759 211th St,Kenneth,MN,56147,507-227-3583
Brad Halverson Trucking,6120 Westwood Pkwy Apt 237,St Cloud,MN,56303,507-525-1676
Dark Roads Trucking,221 Robert St,Pierz,MN,56364,320-468-2364
Nicollet Auto Sales A Division Of John's Body Shop,46237 Shady Ridge Lane,Nicollet,MN,56074,507-947-3120
Ugas Transport,510 3rd St South #18,Waite Park,MN,56382,320-212-5440
Jeseritz Trucking,814 6th St Sw,Willmar,MN,56201,320-894-4699
Lopez Transport,433 158th St W,Burnsville,MN,55306,952-215-4765
Amal Trucking,3528 Tara Lane,Woodbury,MN,55125,651-641-8556
Jeff Mattson Trucking,71 West Palkie Road,Esko,MN,55733,218-879-7671
Energy Construction,7077 Northland Circle Suite 301,Brooklyn Park,MN,55428,763-489-7777
B & C Trucking,6369 Sleepy Hollow Road,Ft Ripley,MN,56449,218-829-6572
Nit-ram Trucking,32734 Mn Hwy 4,Grove City,MN,56243,320-857-9421
Merchants Moving,906 Paul Bunyan Dr S,Bemidji,MN,56601,218-757-5343
R Vanwagner Trucking,3545 Halsey Ave Se,Rockford,MN,55373,612-310-5324
Team Transporter,1210 Old Main St South,Cambridge,MN,55008,763-477-8885
Jakes Trucking,1310 Mulberry Ave Ne,Montgomery,MN,56069,507-953-4057
Jordan Trucking,6933 Portland Ave S,Richfield,MN,55423,612-751-2247
Cat Auction Services,901 West 94th Street,Minneapolis,MN,55420,952-233-4382
Big Foot Trucking,3025 32nd Ave S,Morrhead,MN,56560,701-367-3498
Van't Hof Trucking,300 Elizabeth Street,Edgerton,MN,56128,507-215-1500
Dwb Trucking & Son LLC,5601 Hwy 63 N # 107,Rochester,MN,55906,507-288-2598
Hay Creek Transport,50293 Cty Rd 12,Salol,MN,56756,218-463-0134
Pap Farms,910 141st St,Luverne,MN,56156,507-283-3799
J G Trucking,512 Lynn Rd Sw,Hutchinson,MN,55350,612-281-0152
D B Trucking,505 10th Avenue Se,Waseca,MN,56093,507-833-3098
Lindemann Trucking,30792 Jones Ave,Rushmore,MN,56168,507-478-4321
Bauman Trucking,2280 100th Ave,Hardwick,MN,56134,507-920-6029
"Tss, Inc.",4025 85th Ave North,Brooklyn Park,MN,55443,763-424-8211
Csg Carriers,6807 West Warren Lane,Remer,MN,56672,N/A
Odell Linander Trucking,512 Collegeview St,Winona,MN,55987,507-313-6566
Scs Transport,705 2nd Street Nw,Waseca,MN,56093,651-238-6820
Stck Transportation,17146 Dimaggio St,Forest Lake,MN,55025,651-796-8447
Aces Car Service,1201 12th Avenue North #901,Minneapolis,MN,55411,612-369-2082
S & R Auto Transport,19561 350th St,Menahga,MN,56464,701-367-2918
S & S Trucking,27154 County Rd #201,Brooten,MN,56316,320-346-2520
Ts Hauling And Farming,1062 65th Ave Sw,Williams,MN,56686,218-783-2944
88 Transport,1003 24th Ave Sw,Austin,MN,55912,507-429-6072
Larson Transport,61827 N County Road 11,Millville,MN,55957,507-798-9458
Jp Transfer,7565 4th St Ne,Fridley,MN,55432,763-443-1759
Presgrove Transport,310 8th St N,Breckenridge,MN,56520,701-899-2155
Pearl Building Services LLC,805 Greeley Ave,Glencoe,MN,55336,736-213-4963
Steele Trucking,36206 270th St,Worthington,MN,56187,507-350-8518
Allen Distributing,2231 Francis Court Se,Bemidji,MN,56601,218-759-1150
Ratzlaff Transport,985 County Road C East,Maplewood,MN,55109,612-220-5998
Gjg Trucking,625 Parkway Drive,St Paul,MN,55106,651-769-4254
Richard Archer Trucking,411 Elm St,Bricelyn,MN,56014,612-280-5822
St Croix Valley Express,11700 St Croix Trail N,Stillwater,MN,55082,651-439-2617
B & L Trucking,29050 Weibusch Hill Rd,Lake City,MN,55041,651-345-2608
Divine Delivery,1206 Edgewood Drive,Thief River Falls,MN,56701,218-686-6887
Ross Baker Trucking LLC,16162 Golfview Road,New London,MN,56273,320-796-6176
Stubbe Trucking,33202 County Road 55,Walnut Grove,MN,56180,507-859-2964
Luxury Import Auto Transport,52316 173rd St,Garden City,MN,56034,507-317-0363
Mclane Transportation Company,601 13th Ave Se,Austin,MN,55912,507-219-9791
Ahmed Barise,"1500 1st Avenue Ne, Suite 113",Rochester,MN,55906,507-271-1838
Sun View Trucking,45550 116th St,Mabel,MN,55954,507-459-7017
Pat Schmitt Trucking,220 S Main St,Dundee,MN,56131,507-822-1769
B & S Express,401 9th St Sw,Little Falls,MN,56345,320-232-0993
Harper,2819 Fernwood,Roseville,MN,55113,800-226-3696
Sauer Trucking LLC,1812 25th Street Se,St Cloud,MN,56304,320-980-6772
Twin Ports Pest And Lawn Management,5821 Old Miller Trunk Hwy,Duluth,MN,55811,218-391-6699
Dilaal Transportation,3519 Federal Drive # 205,Eagan,MN,55122,952-769-6867
Schommer Trucking,11168 Church Street,Hanover,MN,55341,763-498-7620
Chad West Trucking,2343 170th St N,Glyndon,MN,56547,701-318-9518
Jerrid Haavisto Trucking,110 Greely Rd,Braham,MN,55006,763-742-6887
B&e Wallace Transport,203 Selby Ave,Owatonna,MN,55060,701-367-4240
Minneapolis Express,419 Cedar Ave South Suite G-310,Minneapolis,MN,55454,612-385-1772
Krippner Trucking,21293 Highway 212,Brownton,MN,55312,320-296-1742
Young Guns Trucking,120 W 6th St,Jasper,MN,56144,507-899-1456
Jd Gilmer Trucking,58766 State Highway 87,Menahga,MN,56464,218-255-1820
Mill City Services,2700 Winter Street Ne,Minneapoils,MN,55413,612-229-8188
Drs Distributing,5581 Highway 2 #11,Hermantown,MN,55810,218-624-7984
Modern Automotive Performance,9905 13th Ave N,Plymouth,MN,55441,763-545-3800
Dojstt Express,12216d 17th Ave South,Burnsville,MN,55337,770-653-2044
Schuck Trucking,100 3rd Ave,Hayfield,MN,55940,507-477-2655
Rumble Transport,3233 12th Street Nw,New Brighton,MN,55112,612-202-4941
Ta Trucking,206 Richter Court,Lake Crystal,MN,56055,507-317-1364
Brandt Transport,1628 Breda Avenue,St Paul,MN,55108,651-276-1299
Jjl Trucking,342 North Main,Morton,MN,56270,507-430-5339
Thunder Lanes Transport LLC,306 S Hillcrest,Olivia,MN,56277,320-522-0004
Pd Services,877 W Minnehaha Ave #301,St Paul,MN,55104,651-815-8707
Macarthur Transport,7511 Edgebrook Drive,St Louis Park,MN,55426,952-657-5072
A & L Trucking,3045 140th Ave Ne,Raymond,MN,56282,320-967-4569
Emil Pexa Trucking,5320 250th St E,Elko,MN,55020,612-695-4119
B & L Truck'n,112 16th Ave S,St Cloud,MN,56301,320-217-2398
Underwood Trucking,5058 Benson Rd,Hermantown,MN,55810,218-729-9504
Az Quik Recovery Services LLC,3795 321st St W,Northfield,MN,55057,480-228-8412
Bou-log Trucking,31085 790th Ave,Clinton,MN,56225,320-305-0874
Ayaam Transporters,420 Ford Rd Apt 328,St Louis Park,MN,55426,612-987-2185
K & J Trucking,8820 State Highway 11se,Baudette,MN,56623,218-634-9904
D S Trucking,34611 Us 71,Clarissa,MN,56440,509-953-6997
T J Trucking,44155 Hwy 71 N,Sauk Centre,MN,56378,320-352-2510
Agassiz Transport,14381 280th St Se,Mentor,MN,56736,218-207-8472
Shannon Monroe Trucking,202 2nd Avenue Ne,Deer River,MN,56636,218-259-6285
Dave Matter Trucking,405 3rd Ave West,Lamberton,MN,56152,507-430-7962
Mulholland Delivery,9851 County Rd 1 Sw,Pequot Lkes,MN,56472,218-838-0938
Chad Trucking Company,14169 Fisher Ave Ne,Prior Lake,MN,55372,612-387-2893
Lasher Trucking,34324 405th Street,Aitkin,MN,56431,218-839-0380
Dj's Transport,452 4th St N,Greenbush,MN,56726,218-242-2508
Theel Transport,31487 Malbay Rd,Cohasset,MN,55721,218-246-2044
Cam Trucking,8176 Greenwood Street,Baxter,MN,56401,218-829-1480
C N M Transport,13507 10th Street,Afton,MN,55001,651-278-9086
Kurt Schultz,3432 Denmark Avenue Suite 219,Eagan,MN,55123,612-961-5878
Sundberg Freight,71018 305th St,Dassel,MN,55325,320-398-2852
Jonathan Knighton Transport,3511 Greten Lane,Hastings,MN,55033,612-396-0617
Intelligent Shipping,300 2n Avenue South East,Oronoco,MN,55960,507-250-5602
Ahrens Moving Rentals,15920 29th Avenue North,Plymouth,MN,55447,612-990-4177
R C Transport,2280 Lake Shore Blvd,Wahkin,MN,56386,320-495-3958
Mac Logistics,527 N Main Street,Lonsdale,MN,55046,507-744-4278
Randy F Vogel,Po Box 324,East Grand Forks,MN,56721,218-760-3116
Hendricksen Trucking,509 East 2nd Street North,Truman,MN,56088,507-206-9690
"Eh Trucking, Inc.",13945 30th Street Se,Lake Lillian,MN,56253,360-620-1950
Rempfer's Trucking,1107 Iris Drive,White Bear Township,MN,55127,651-762-1091
Tightline Trucking,1341 235th Street,Kent,MN,56553,218-557-8516
Clearwater Transport,20877 Franklin Rd,Clearwater,MN,55320,320-558-6934
Scdi,21224 310th Ave,Isle,MN,56342,800-373-8853
Becker Transport,1498 150th Street East,Faribault,MN,55021,507-333-2435
Hippert Transport Solutions,715 12th Street Ne,Owatonna,MN,55060,507-213-9716
Bob Friskey Trucking,621 6th St,Moose Lake,MN,55767,218-485-5978
Van Den Hul Trucking,16025 201 Ave Nw,Elk River,MN,55330,763-614-4595
Big Dog Transport,3229 130th Street,Rothsay,MN,56579,218-493-4665
Rnb Trucking,39223 150th Avenue,Avon,MN,56310,320-746-3358
Sostak Trucking,63163 Hwy 23,Askov,MN,55704,320-838-3463
Do It Right Trucking,8570 Brunswick Rd,Pine City,MN,55063,612-366-5514
World Logistics,4215 Humboldt Ave North,Minneapolis,MN,55412,612-874-7491
Polar Service Center,3134 117th St E,Inver Grove Heights,MN,55077,651-437-0483
Gabrielson Trucking,1080 130th Ave Sw,Milan,MN,56262,320-793-6651
Canam Truck And Bobcat Services,13209 180th Ave Nw,Elk River,MN,55330,763-241-6955
Klaphake Trucking,902 Pacific Ave,Kerkhoven,MN,56262,320-264-5578
Chumlys Trucking,67730 380th St,Watkins,MN,55389,320-764-3258
Bartlett Trucking,907 Lilac Lane,Little Falls,MN,56345,320-632-0490
Fortune,2516 Minnesota Ave,Bemidji,MN,56601,218-751-3693
Egeland Trucking,1203 19th Ave Se,East Grand Forks,MN,56721,218-773-0471
M & C Transportation,11097 Hwy 2,Floodwood,MN,55736,218-476-2681
Brt,4311 40th Street West,Webster,MN,55088,952-412-4558
Farole Freight,2515 S 9th St #505,Minneapolis,MN,55406,612-598-4086
Trc,4570 316th Lane,Stacy,MN,55079,651-895-3561
Stemar Enterprises,62976 250th Street,Litchfield,MN,55355,320-221-0688
Kuhl Farms,101 Johnsen Rd,Rushmore,MN,56168,507-478-4525
Ricardo Trucking,4455 Cr5 At Mn7,Blomkest,MN,56216,320-444-0765
The A Team,85067 180th St,Glenville,MN,56036,507-402-1738
Mr Plow And Trucking,43815 Cedarcrest Trail,Harris,MN,55032,651-674-2986
Dog Pound Express,446 Huron St Se,Hutchinson,MN,55350,320-587-6925
Ziki Transportation LLC,911 21st Ave #101,Minneapolis,MN,55404,612-432-9356
Sowers Bus Service,205 Harrison Ave Se,Racine,MN,55967,507-378-4241
Josh Weiss Logging,16387 170th St,Park Rapids,MN,56470,218-237-4969
Eastern Sun Trucking,1113 East Main Street,Waubun,MN,56589,218-204-1132
Grant Trucking,510 Sheridan St Apt G,Jackson,MN,56143,507-847-4072
Timmer's Farm Service,1160 Sather Valley Road,Houston,MN,55943,507-896-4245
Dti,27962 22th Ave,Sleepy Eye,MN,56085,507-359-9276
Tiger Trucking,1426 45th Ave South,Moorehead,MN,56560,701-552-1370
Gene Den Herder Trucking,107 South Hauge Avenue,Hollandale,MN,56045,507-889-3521
Guggisberg Trucking,39917 State Highway 15,New Ulm,MN,56073,507-766-2125
Indergaard Trucking,80 North Broadway,Trimont,MN,56176,507-639-3161
Aj Archer Trucking,49932 100th Avenue,Kenyon,MN,55946,507-824-2734
Cross Country Transport,80898 320th Street,Ellendale,MN,56026,507-456-9222
Straightline Trucking,457 Aurora Ave,Lowry,MN,55349,651-203-5802
Feyereisen Trucking,215 Dean Ave N,Jasper,MN,56144,605-359-3302
Mainstreet Usa Transportation,4831 Shoreline Drive,Mound,MN,55364,952-472-0055
Braun Trucking,14864 645th St,Kellogg,MN,55945,507-767-4463
M & K Transport,610 3rd St Ne,Fosston,MN,56542,218-435-6566
Last Call Trucking,30691 State Hwy 4,Melrose,MN,56352,320-980-7112
Sun City Logistics,18686 Dunbury Ave,Farmington,MN,55024,651-895-0105
J & B Pallets,1215 South 10th St,Lake City,MN,55041,651-345-3854
Shawn Ryan Farms Trucking,44667 210th St,Springfield,MN,56087,507-920-7817
Hope Transportation,1821 W University Avenue S151,St Paul,MN,55104,651-646-1616
Efs,6617 Oakridge Court,North Branch,MN,55056,612-325-9309
Ernie Lee Trucking,109 126th Lane Nw,Coon Rapids,MN,55448,763-862-9993
Mbx,409 2nd Street Ne,Grand Meadow,MN,55936,507-421-7894
D B Bohnen,1125 Ridgestone Place,Buffalo,MN,55313,763-684-1120
Toby Nesheim Trucking,1409 Second St Se,Rochester,MN,55904,507-281-2525
Joetyme Trucking,396 Curtice St E,St Paul,MN,55107,651-233-7966
Trombley's Transport,33899 Huntersville Road,Sebeka,MN,56477,218-464-3610
Imperial Security Systems,13226 Galena Way,Apple Valley,MN,55124,952-221-0352
Schutz Transportation,1831 Myrtle St,Maplewood,MN,55109,651-274-2310
T L C Student Transportation,3134 California St Ne Unit 102,Minneapolis,MN,55418,612-781-1250
K & J Trucking,1220 Lake Avenue,Fairmont,MN,56031,507-236-7765
Team Kruckeberg,16241 Us Hwy 14,Dodge Center,MN,55927,507-374-6829
"Jim Benchina Trucking, Inc.",508 Nw 12th Street,Chisholm,MN,55719,218-254-3716
Sei Transport,2629 Copper Cliff Trail,Woodbury,MN,55121,651-247-8113
Blaine's Utility Service,13111 Timberlane Dr,Baxter,MN,56425,218-855-1396
Holeshot Ent,255 1st Ave N,Mazeppa,MN,55956,507-272-3689
Amb Logistics,3521 Century Ave N #104,St Paul,MN,55110,651-770-7214
Mccollum Trucking,218 Hwy 59,Bejou,MN,56516,218-935-5091
Cdi,17560 Tyler St Nw,Elk River,MN,55330,763-391-7790
Swl Carrier LLC,18833 Kristie Lane,Eden Prairie,MN,55346,952-937-2478
R-n-t Myllykangas Trucking,799 California St Nw,Hutchinson,MN,55350,132-023-4714
Holmer Transport,34408 E Bad Medicine Lake Rd,Ponsford,MN,56575,218-573-3831
Terry Olson Trucking,310 5th Ave West,Grand Marais,MN,55604,218-387-1378
Valley Creek Express Blower Service,12631 15th St So,Afton,MN,55001,651-458-0778
K Bros Trucking,16816 70th Street,Oak Park,MN,56357,320-980-2136
Israelson Farms And Trucking,1552 170th Ave,Wolverton,MN,56594,218-995-2653
Holte Trucking,9166 Saralampi Rd,Meadowlands,MN,55765,218-427-2166
Imdieke Trucking,41443 Cty Rd 199,Belgrade,MN,56312,320-254-3146
Ron Peterson Trucking,14333 87th St Ne,Elk River,MN,55330,952-261-1559
J Bushaw Trucking,422 Jackson Ave,Crookston,MN,56716,218-281-6755
Amz Trucking Alvarado,125 N 6th St #9,Alvarado,MN,56710,701-215-2675
Rw Kramer Trucking,6701 W 106th St #212,Bloomington,MN,55438,952-942-7537
Hovde Trucking,104 West Lowell Street,Leroy,MN,55951,507-324-5244
Travis Silvers Trucking,2203 W 10th St,Duluth,MN,55806,218-390-3282
Scott Harlow Trucking,200 5th Ave,Spicer,MN,56288,320-796-2907
Mccs LLC,150 S Sverdrup Ave,Jackson,MN,56143,507-360-4850
Timberwolf Transport,22112 206th Street,Big Lake,MN,55309,612-889-9957
Uniquely Yours Limo & Sedan Service,13633 Sunset Hill Drive,Burnsville,MN,55337,952-882-1400
Double B Trucking,4443 390th Ave,Foley,MN,56329,320-355-2898
Chris Kelly Trucking,27995 780th Ave,Madelia,MN,56062,507-995-8611
Rick Doran Trucking,21601 220 Th Ave Hwy 10,Audubon,MN,56511,218-439-3238
Gjs Transport,6770 372nd St,North Branch,MN,55056,651-785-7159
Ownbey & Son's Trking,342 Fieldcrest Ave,Montrose,MN,55363,763-675-5185
Kiler Trucking,2370 N Webb Lake Drive Nw,Hackensack,MN,56452,218-851-7423
Oviatt & Sons Trucking,13837 Apple Rd,Princton,MN,55371,763-389-2978
Armen's Limo Service,1402 Mcandrews Road East,Burnsville,MN,55337,612-423-1367
"Bc Trucking, Inc.",10288 Hupp Street Ne,Blaine,MN,55014,612-618-1665
William T Voss Trucking,6325 Brandon Way,Brainerd,MN,56401,218-829-8458
Alex Lewis Trucking,26087 250th St,Callaway,MN,56521,218-849-2596
Metro Express Courier And Transportation,381 Wilson Street Ne,Minneapolis,MN,55413,612-617-9001
Jw Trucking,26602 Pelican Beach Road,Merrifield,MN,56465,218-831-5462
J & A Trucking,416 5th St,Browns Valley,MN,56219,320-305-0978
Jericho Transport,24750 90th Ave N,Hitterdal,MN,56552,218-962-3362
Nicholas Omang Trucking,44488 Hwy 59 S,Winger,MN,56592,218-280-2477
Jimmy's Auto Repair,2845 16th Ave S,Minneapolis,MN,55407,612-722-4187
Ward Briggs Trucking,9333 Power Dam Rd Ne,Bemidji,MN,56601,218-759-9999
"Pst, Inc.",2130 S Broadway Suite # 100,Rochester,MN,55904,507-285-3339
Gavin Transport,6836 161st West,Rosemount,MN,55068,952-797-4179
Curt's Salsa,402 North Main Street,Stillwater,MN,55082,651-351-2797
Pg Transort,312 Viking Terrace,Northfield,MN,55057,952-412-5181
Hirte Transfer & Storage,2077 A Ellis Ave,St Paul,MN,55114,651-644-5888
Ray Wheeler Transport,1119 Eighth St,International Falls,MN,56649,218-285-2981
Munson Express Delivery Service,233 Ely Street Ne,Fridley,MN,55432,646-542-7858
Dan Weiler Trucking,42519 150th Ave,Tamarack,MN,55787,218-432-8907
Dm Properties,169 Sunrise Dr,Minnesota City,MN,55959,507-458-7222
Kam Trucking LLC,8638 302nd St,Chisago City,MN,55013,651-257-2586
Polynesian Delivery,190th Lane Ne,Blaine,MN,55434,763-228-1694
Seurer Trucking,621 Frohn Rd Se,Bemidji,MN,56601,218-556-6687
Tom Barnum Trucking,2959 6th Ave Nw,Hackensack,MN,56452,218-682-2105
"Kal Lgistics, Inc.",7065 90th Ave Ne,Murdock,MN,56271,320-533-0469
Liberty Limo Service,404 Hope Street,Mankato,MN,56001,507-345-5466
Vienna Carriers,29456 160th St,Waseca,MN,56093,507-491-1994
Farah Transport,4133 W 141st Street,Savage,MN,55378,612-644-6142
Philip Reiling Trucking,14952 90th Ave S,Barnesville,MN,56514,218-789-7648
Soltis Express,2577 20th Ave Se,St Cloud,MN,56304,320-217-2144
Olds Trucking,818 Se 2nd Av,Grand Rapids,MN,55744,218-326-0370
Northern Transport,54843 453rd St,New York Mills,MN,56567,218-385-2745
Lone Eagle Express,1003 Boxelder Ave 1,Marshall,MN,56258,507-531-0051
Carrier,8452 275th Street,Chisago City,MN,55013,651-399-0046
Mcnamara Trucking,50464 195th Avenue,Pine Island,MN,55963,507-421-9463
Rahns Trucking,18925 Par Place,Garrison,MN,56450,320-532-5435
Wes Anderson Trucking,31957 County Road 38,Chatfield,MN,55923,507-867-4075
Moonshine Trucking,14696 County Rd 25,Brainerd,MN,56401,218-828-3402
Northern Valley Transport,202 2nd St Sw,Climax,MN,56523,218-857-3369
Motor Carrier,19442 Elmwood Circle,Farmingtion,MN,55024,612-875-4171
Pleasant Lake Transfer,2873 County 45 Nw,Hackensack,MN,56452,218-675-6002
Drive For America Transportation Company,877 W Minnehaha Ave #301,St Paul,MN,55104,651-330-9727
Car Nuts,24400 Greenway Ave,Forest Lake,MN,55025,651-464-9997
Pb Express,196 Westchester Drive,West St Paul,MN,55118,651-329-1611
Friedl Trucking,2724 Atwood Drive,St Cloud,MN,56301,320-224-2545
Swanny Shuttle Service,6732 County Road 16,Pequot Lakes,MN,56472,218-543-5057
Hauskins Trucking,415 N Moore,Blue Earth,MN,56013,507-526-2824
Pro-cut Lawn & Hydroseeding Service,13222 Hesselroth Avenue,Wilmont,MN,56185,507-926-5352
"Service Equipment, Inc.",28166 Minnie St,Paynesville,MN,56362,320-548-3222
Hold On Transport,403 8th St S #352,Moorhead,MN,56560,701-866-8574
Grand Marais Standard Service,214 6th Avenue West,Grand Marais,MN,55604,218-387-1646
Lighthouse Transport,16182 Narcissus St Nw,Andover,MN,55304,763-427-9976
N & R Services,5952 Crane Lake Road,Orr,MN,55771,218-993-2994
Mid State Pullers,1505 Durand Ct Se,Rochester,MN,55904,507-281-3026
Doug Stroschein Trucking LLC,23067 190th St,Long Prairie,MN,56347,320-732-6579
Steussy Diesel Service,6307 Co Rd 87 Sw,Alexandria,MN,56308,320-759-2238
Spt's Metal Express,229 Juniper Ave,Red Wing,MN,55066,651-385-0333
Conrad Eckstrom Trucking,22448 O'brien Creek Rd Ne,Hines,MN,56647,218-835-5580
Hawk's Valley Trucking,18005 Truman Dr,Spring Grove,MN,55974,507-498-5108
Larry A Root Trucking,14380 92nd Ave N,Maple Grove,MN,55369,651-457-8223
Alpha And Omega Transportation,530 N 5th Ave E,Duluth,MN,55805,218-269-7510
Thelen's Septic Service,10717 Insbrook Dr,Park Rapids,MN,56470,218-732-0015
Bli,7464 Peony Lane N,Maple Grove,MN,55311,612-490-9420
Touch Of Class Luc Limo Service,227 W Main,Ottertail,MN,56571,218-367-2400
Dougs Auto & Truck,900 N Hwy 59,Marshall,MN,56258,507-537-1932
"B & O Services, Inc.",1201 North 5th Street,Cannon Falls,MN,55009,507-263-5933
R & C Danielson Trucking,10941 225 Ave Se,Lake Lillian,MN,56253,320-220-1781
Sonnyknight Trucking LLC,6103 Creekview Trail,Minnetonka,MN,55345,612-870-9109
Vango Transportation,46823 Benny Road,Perham,MN,56573,218-346-6517
Kiwi Trucking,4220 Penn Ave No,Minneapolis,MN,55412,612-354-2173
Douglas Mortenson Trucking,56729 Csah 28,Litchfield,MN,55355,320-693-8732
K G B Trucking,817 Colorado St Nw,Lonsdale,MN,55046,507-744-5283
Banderas Trucking,1113 Hudson Road,St Paul,MN,55106,651-307-3946
Zoe Trucking,765 Hwy 65 N,Mora,MN,55051,320-679-5997
L & L Auto Sales,251 Lake Ave No,Balaton,MN,56115,507-734-2289
Kocsis Us Transport Ltd,500-701-4th Ave South,Minneapolis,MN,55415,612-337-0025
Md Swenson Trucking,521 E Gilman,New York Mills,MN,56567,218-385-3564
Harlin Habben Transportation,223 West Hall Avenue,Buffalo Lake,MN,55314,320-833-2112
Barneys Trucking,422 S Grove Place,Hallock,MN,56728,218-843-2149
Eagle Ridge Trucking,188 400th Ln Ne,Stanchfield,MN,55080,320-396-3921
Js Services And Motorsports,32158 Lever Street Ne,Cambridge,MN,55008,763-689-1883
Proell Transport,19336 Oxford Street Nw,Elk River,MN,55330,763-441-3175
R Zembal Trucking,17465 166th St Se,Big Lake,MN,55309,763-300-5249
Grh Contracting & Crane Service LLC,4417 Channel Lane N E,East Bethel,MN,55092,763-413-7824
Dwayne Nielsen Trucking,35914 300th St Sw,Fisher,MN,56723,320-760-1684
"Ben Wulff Trucking, Inc.",717 W 5th St #105,Graceville,MN,56240,320-630-8010
"Nicholson Trucking, Inc.",13424 Apollo St,Columbus Township,MN,55014,763-780-2380
Dan Ryan Express,31642 128th Street,Waseca,MN,56093,507-835-3525
Heideman Trucking,25773 Ahlers Ave,Adrian,MN,56110,507-483-2771
Hinnenkamp Trucking,731 Pine St South,Sauk Centre,MN,56378,320-492-7573
C&d Trucking,14079 State Hwy 76,Caledonia,MN,55921,507-724-3153
David L Alfson Trucking,23057 360th Ave,Winnebago,MN,56098,507-893-4440
"Denis, Inc.",6725 Ashwood Rd #103,Woodbury,MN,55125,651-714-5210
Overland Transportation LLC,8130 East Point Douglas Road,Cottage Grove,MN,55016,651-226-1728
Big Bear Trucking,443 Culver Avenue,Buhl,MN,55713,218-929-1174
Asap Transfer,1478 301st Ave Ne,Isanti,MN,55040,763-291-6101
J & N Trucking,309 Forest St,Beardsley,MN,56211,320-265-6931
Dykstra Trucking,817 Tanager Road,Mankato,MN,56001,507-344-1187
Michael Hoff Transportation,14411 Hwy 22 N,Hutchinson,MN,55350,800-845-5838
J & M Transport,13611 County Rd 35,St Charles,MN,55972,507-932-4852
Troy Peter Brand,Po Box 251,Windom,MN,56101,507-830-0233
Carebreak Adult Day Program,5430 Boone Ave No,New Hope,MN,55428,763-592-2666
Johanning Trans-fare,12500 Cty 11,Park Rapids,MN,56470,218-732-4655
Dash Delivery Services,19725 S Diamond Lake Road Ste 100,Rogers,MN,55374,763-398-3988
Orchid Trucking,219 3rd Ave Se,Dover,MN,55929,507-932-5019
Larry & Danial Trucking,2215 County Rd 116,International Falls,MN,56649,218-286-3168
Larry Trucking,56928 State Hwy 70,Pine City,MN,55063,320-629-6282
Neal Transport,5075 80th Av Ne,Murdock,MN,56271,320-875-3428
Sugarbush Trucking,2853 110th Street,Lengby,MN,56651,218-688-3030
J And T's Trucking,216 Marvin Elwood Road,Monticello,MN,55362,763-295-5131
Lrt Enterprize,106 2nd St Sw,Dodge Center,MN,55927,507-251-5896
Daryls Service,107 First St,Rushmore,MN,56168,507-478-4114
Dale Birr Trucking,324 Catfish Street,Mankato,MN,56001,507-388-1456
Loon Land Logistics,23885 Serpent Road,Deerwood,MN,56444,218-534-4965
Servicemaster Of The North,115 N 23rd Ave West,Duluth,MN,55806,218-727-2313
Stryker Trucking,80479 220th Street,Renville,MN,56284,320-329-8434
Archer Racing Accessories,4415 Venture Avenue,Duluth,MN,55811,218-727-4806
Gravel Lick Industries,400 N Seeley Ave,Dunnell,MN,56127,507-695-7320
Valley Delivery,1404 W Maple Ave,Red Wing,MN,55066,651-388-2621
White Glove Transfer,136 32nd Ave N,St Cloud,MN,55303,612-812-1011
E & D Delivery Service,9084 Brook Dr,Pine City,MN,55063,320-629-6379
Hackler Trucking,1147 Pike Lake Circle,New Brighton,MN,55112,651-639-1077
Gar's Mobile Repair & Garage Service,204 5th Street Ne,Pine Island,MN,55963,507-356-8632
Rick Rossow Housemoving,59453 Csah 3,Litchfield,MN,55355,320-693-0043
Shelley Trucking,28312 Us Highway 169,Onamia,MN,56359,320-267-2404
C A & Sons Trucking,217 Walnut Street #2,Chaska,MN,55318,952-361-9352
Lan Auto Recovery,133 13th Avenue South,South St Paul,MN,55075,612-518-2112
Brad Tews Trucking,125 E 9th St,Rush City,MN,55069,612-282-9630
Able Cold Storage,905 1st St,Newport,MN,55055,651-768-0810
Maack 1,3188 210th St,Rothsay,MN,56579,218-522-1327
Nick Stoll Trucking,506 Borden Avenue West,Buffalo Lake,MN,55314,320-833-9949
Alsum Trucking,6148 Woodbine Ave,Woodbury,MN,55125,320-212-0089
Nauveon Logistics,6130 Starlite Blvd,Fridley,MN,55432,612-578-1359
Kenny Timm Farms,41294 Hwy 58 Blvd,Zumbrota,MN,55992,507-208-2033
Timberland Tree Spade Service,20226 Akin Road,Farmington,MN,55024,651-463-8617
Shorewood Nursery,23505 Smithtown Road,Shorewood,MN,55331,952-474-2637
"John's Trucking, Inc.",19975 Swallow St Nw,Oak Grove,MN,55011,763-208-5326
Lees Eagle Transportation,26237 Forest Blvd,Wyoming,MN,55092,651-462-5466
Tim Sargent Trucking North Star Water,2722 St Hwy 200,Ada,MN,56510,218-784-3675
John Giefer,6161 250th St East,Hampton,MN,55031,507-263-7191
Wren Brothers Outdoor Services,8915 Colfax Ave S,Bloomington,MN,55420,612-998-7438
Dmi Transfer,419 Armstrong Ave,Litchfield,MN,55355,320-593-0625
Ae Gruber Trucking,33555 375th Ave,Sauk Centre,MN,56378,320-987-3655
Steve Dankers Trucking,35940 215th Ave,Goodhue,MN,55027,651-923-4113
Rapid Transit,504 Nw 8th Avenue,Grand Rapids,MN,55744,218-327-8294
Newark Transport,402 Gilbertson St W,Battle Lake,MN,56515,218-282-0341
Rk Trucking,55154 440th Street,New York Mills,MN,56567,218-640-2346
Quality Truck,13915 Robins Drive,Hinckley,MN,55037,320-384-0414
A J Trucking,111 Johnsen Rd,Rushmore,MN,56168,507-920-8422
Jmj Trucking Of Markham LLC,2941 Vermilion Trail,Makinen,MN,55763,218-638-2707
Wendolek Truckiing,4202 Clearwater Rd Apt 101,Saint Cloud,MN,56301,320-980-7717
C & M Urecycle2,25431 N Wall Lake Drive,Fergus Falls,MN,56537,218-736-1034
Keynan Trucking,8212 Pillsbury Ave,Bloomington,MN,55420,612-423-6492
Pulp Sticks Logistics,923 Hwy 23 N #30,Sandstone,MN,55072,320-245-2463
Gms 1987,240 Main Street,Gonvick,MN,56644,218-776-3676
Hauling Cars Andtrucks,27344 Laser Ave,Redwood Falls,MN,56283,507-644-2277
Big Elk Transport,36333 County Rd 188 #1,Sauk Centre,MN,56378,612-669-2031
Dahlen Pauling Trucking,4136 180th Street,Montevideo,MN,56265,320-293-4503
Roach Coach Express,7821 Zane Avenue Apt 105,Brooklyn Park,MN,55443,763-503-6100
Maximum Construction Services,783 Winterberry Draw,Woodbury,MN,55125,612-810-9891
Rural Energy Services,315 Main Ave No,Bagley,MN,56621,218-694-6829
"R S O Trucking, Inc.",910 Hastings Ave,Newport,MN,55055,612-805-8800
T & S Trucking,823 11th St Nw,Bemidji,MN,56601,218-333-8914
Yeti Land Trucking,8987 Ohland Ave,Elk River,MN,55330,763-441-7197
J E L Trucking,2459 Co Rd 142,Mahtowa,MN,55707,218-389-9817
Dj Logistics,17831 Idalia Path,Lakeville,MN,55044,612-309-7763
Burt Foote Trucking,73186 225th Street,Grand Meadow,MN,55936,507-754-4472
R & D Trucking,29229 160th Ave Sw,Crookston,MN,56716,218-281-1589
One Way,217 Ne 5th St Box 165,Pennock,MN,56279,320-905-1908
Matt Johnson Trucking,706 3rd Ave,Mountain Lake,MN,56159,507-427-2000
"Adb Delivery, Inc.",7030 Drew Avenue North,Brooklyn Center,MN,55429,763-560-2998
Ct Anderson Services,10377 Kimberly Court,Cottage Grove,MN,55016,651-493-7591
Smith Transport,1534 Eagle Street,Ogilvie,MN,56358,320-272-9928
D&n Haugen Trucking,242 East 2nd Street,Cottonwood,MN,56229,507-423-5623
Top Coat Painting Service,110 4th Ave Se,St Cloud,MN,56304,320-654-1086
Jon Bragg Trucking,2761 Hwy 11 South,Loman,MN,56654,218-285-7244
James Kronebusch Trucking,20798 Hwy 248,Rollingstone,MN,55969,507-450-8330
Flynn Trucking,6128 Scenic Hwy Ne,Blackduck,MN,56630,218-209-1461
Wintergreen Lawn And Snow Services,228 Division St,Chatfield,MN,55923,507-259-5255
Slinden Trucking,23475 545th Ave,Grove City,MN,56243,320-699-0501
Thompson Koop Trucking,1928 Co Rd 3,Carlton,MN,55718,218-384-9358
T Kalmi Trucking,922 Ash St S,Sauk Centre,MN,56378,320-761-1213
Madah Express,2740 Minnehaha Ave Suite 130 Pmb 64,Minneapolis,MN,55406,612-876-2644
Kruse Backhoe Service,103 Dakota,St Hilaire,MN,56754,218-964-5260
Thornton Custom Trucking LLC,66723 County Road 4,Lake City,MN,55041,651-345-2435
Larry Harsma Trucking,412 South St,Rushmore,MN,56168,507-478-4427
Winslow Trucking,500 Fillmore St E,Preston,MN,55965,507-765-2240
Axis Global Logistics Of Mn,396 American Blvd,Bloomington,MN,55420,952-884-0070
Abe Crowell Trucking,40070 440th Ave,Windom,MN,56101,507-822-1137
Warren And Sons,11514 286th St,Bagley,MN,56621,218-694-2086
Niemans Auto Repair,32029 Elk Lane,Stacy,MN,55079,651-462-0597
Richard & Sons Trucking,4318 County Road 79,Littlefork,MN,56653,218-278-4868
Dhoonbe Trucking,199 Biglow Lane Apt D,St Paul,MN,55117,651-340-2979
Jr Yeske,1102 Rose Ave,Worthington,MN,56187,507-376-4065
Jeff Prins Trucking,16187 Birkett Ave,Kenneth,MN,56147,507-472-8500
Kk & Dtransportation,1293 120th Ave,Clearlake,MN,55319,320-309-4847
"Fireplace Service Center, Inc.",5632 Hwy 53,Saginaw,MN,55779,218-729-7146
All Square Frame Repair,6260 Hwy 10,Ramsey,MN,55303,763-421-2867
Grannes Trucking,405 N 11th St,Olivia,MN,56277,612-747-3845
Milkyway Trucking,30524 600 Ave,Waltham,MN,55982,507-477-2950
Duane Reamer Trucking,887 Wildwood Drive,Wrenshall,MN,55797,218-384-4297
Emery Trucking,37326 State Hwy 92,Bagley,MN,56621,218-694-3832
Wilkemeyer's Trucking,5601 Ne 34th Ave,Owatonna,MN,55060,507-451-3353
Charles Tate Trucking,38608 Cty Hwy 87,Frazee,MN,56544,320-267-3587
Cusman Transport,1400 E Franklin Ave #206,Minneapolis,MN,55404,612-518-0855
Al's Truck And Equipment,4874 County Road 61,Moose Lake,MN,55767,121-848-5448
Richard Larsons Mobile Home Transport,19366 120th Ave Sw,Red Lake Falls,MN,56750,218-253-2659
Tyler Hoban Trucking,35291 Us Hwy 59,Ogema,MN,56569,763-486-6232
T & D Expedite,15240 Ute St Nw,Ramsey,MN,55303,763-377-5520
Gary Deutsch Transport,26608 Cty Hwy 3,Beardsley,MN,56211,320-265-0109
Laitinen Trucking,3142 County Road 106,Barnum,MN,55707,218-389-0451
Cbase,132 31st Ave Ne,Minneapolis,MN,55418,612-782-9799
Kaschmitter Trucking,8012 70th Avenue,Foley,MN,56329,320-387-3554
Fat Boys Truckin',13052 180th St,Little Falls,MN,56345,320-632-1052
A & W Transport LLC,9559 55th Ave Ne,Foley,MN,56329,320-387-2952
Abdirazak Trucking,1247 St Anthony Ave #713,St Paul,MN,55104,651-216-7481
Bob Frechette Trucking,300 West Main,Elysian,MN,56028,507-267-4893
Stassenhauling& Skidsteer Service,1982 Nightengale Street,Mora,MN,55051,320-679-0917
Kevin Mehrkens,25726 390th St,Goodhue,MN,55027,651-380-5453
Jack's Trucking,121 Main Ave S,Harmony,MN,55939,507-886-3479
Kopper K Transport,620 Se 13th Ave,Grand Rapids,MN,55744,218-301-9245
Jeremy Bolles Trucking,22069 710th St,Hayfield,MN,55940,507-477-3330
Gebhart Transportation,48352 Shadow Oak Road,Kerrik,MN,55756,218-485-8762
Elrite Trucking,610 Westfall St,Beardsley,MN,56211,320-265-6165
Sid Rice Trucking,407 Colleen St Se,Remer,MN,56672,218-398-4515
Mobile Home Mover,8117 40 Street South East,Eyota,MN,55934,507-545-0120
Hager Trucking,315 Rena Belle Street Nw,Eyota,MN,55934,507-421-9374
Njl Trucking,1826 290th Ave,Mora,MN,55051,320-679-2149
Contract Transportation,2600 7th Street North,St Cloud,MN,56303,320-253-7729
Edward Trucking,4158 Jannings Ave Ne,Saint Michael,MN,55376,763-497-8588
North American Car Transportation,12126 Bataan St Ne,Blaine,MN,55449,612-363-2233
Quality Vending Services,8301 Grand Ave So,Bloomington,MN,55420,612-801-9220
Eastman Trucking,1013 Lincoln Avenue,St Paul Park,MN,55071,651-459-4386
Larry Gish Trucking,3251 Thomas Rd,Tower,MN,55790,218-741-5130
M J Fitzgerald Trucking,59526 County Road 84,Kellogg,MN,55945,507-767-3076
J Bar D & Sons Livestock,31678 240th St,Winnebago,MN,56090,507-734-6942
Justin's Trucking,719 North Court,Eveleth,MN,55734,218-744-2251
Never Late Delivery & Farm,9696 Unity St Nw,Coon Rapids,MN,55433,763-767-5674
Safari Transportation,416 East Hennepin Ave Ste 117,Minneapolis,MN,55414,618-331-3863
Thorson Trucking,3602 Highway 65,Isle,MN,56342,320-679-2414
Sobol Trucking,13919 Mallard Trail,Rogers,MN,55374,763-428-2286
Jeanne's Packing Unpacking Service,109 Main St,Bethel,MN,55005,941-721-7725
Mjs Services,5751 357th Ave Nw,Princeton,MN,55371,612-685-3589
Mike Minier Trucking,4410 Hwy 21,Embarrass,MN,55732,218-984-3090
Wanted Transportation,1041 127th Ave Ne,Blaine,MN,55434,763-222-3011
Kesler Trucking,13205 Grover Dr,Utica,MN,55979,507-990-1535
Schulz Trucking,21557 140th St Sw,Euclid,MN,56722,218-281-6349
Driving Force,5045 560th Street,Pine City,MN,55063,320-629-2555
St Croix Valley Home Delivery,11140 Lansing Ave N,Stillwater,MN,55082,651-307-1384
Nyborg Trucking,76307 490th Ave,Jackson,MN,56143,507-847-3817
Tw Trucking,1865 180th Street,Canby,MN,56220,507-223-7721
E&e Brown Auto Transport,2801 Park Ave Apt 302,Minneapolis,MN,55407,651-216-7095
Loving Touch Hauling,57068 County Hwy 58,New York Mills,MN,56567,218-343-6533
Touch-down Transport Services,2900 Park Ave Suite 9,Minneapolis,MN,55407,612-382-6565
Chaffee Transport,10383 55th Street,Clear Lake,MN,55319,320-743-5570
Too Tall Trucking,23942 400th St,Bagley,MN,56621,218-785-2859
Putte's Back 40 Trucking,3363 Co Rd 14,Tracy,MN,56175,507-629-4258
Capital Cargo,2123 County Road 1 Sw,Evansville,MN,56326,320-256-7968
Fobbe Trucking,60 River Terrace,Monticello,MN,55362,612-384-1049
Craig Snook Trucking,221 State Street,Evansville,MN,56326,320-834-5365
Peterson Trucking,675 37th Ave Nw,Backus,MN,56435,218-947-4204
Dizzys Transport Services,72 North Cloquet Road West,Esko,MN,55733,218-879-4516
Rc Trucking LLC,6699 State 64 Sw,Staples,MN,56479,218-397-2542
Sure Shot Drilling LLC,7518 Camp Three Road,Forest Lake,MN,55025,651-464-1458
Class Act Trucking,188 W Curtice St,W St Paul,MN,55118,763-441-3223
K & K Enterprises,83405 320th,Ellendale,MN,56026,507-339-3691
Rogahn Trucking,13986 110th St,Menahga,MN,56464,218-252-3217
B W Auto Sales,100 West Franklin Street,Morristown,MN,55052,N/A
Hassebroek Trucking,308 180th Avenue,Iona,MN,56141,507-425-2881
T Friesen Trucking,17971 220th Avenue,Fergus Falls,MN,56537,218-998-4285
H A Trucking,Route 3 Box 84,Blooming Prairie,MN,55917,507-440-3180
B Bros Trucking,Rr 1 Box 188,Madelia,MN,56062,507-642-8194
Sandels Express,1505 Lincoln Ave,Red Wing,MN,55066,507-259-7418
Specialty Vehicle Transport,1708 Southgate Dr,Buffalo,MN,55313,763-682-0493
D & D Transport,297 Old Hwy 61,Duluth,MN,55810,218-389-6939
Schenk Trucking,Rural Route 8 Box 474,Mankato,MN,56001,N/A
Roy's Trucking,109 Mill Street Box 145,Preston,MN,55965,507-261-4542
Auto Parts Unlimited,890 Pine Ave,Ortonville,MN,56278,320-839-2579
"Interstate Crane Service Co, Inc.",6880 50th St W,Webster,MN,55088,507-663-7891
"Pro Auto Sales & Service, Inc.",547 Us Hwy 12,Ortonville,MN,56278,320-839-2911
W F T S,2700 E Hwy 12,Willmar,MN,56201,320-238-5178
Anderson Construction,36038 150th Ave Nw,Newfolden,MN,56738,218-874-4611
Vitek's Trucking,12079 Dogwood St Nw,Coon Rapids,MN,55448,763-757-8660
F & F Trucking,Rural Route 2 Box 23,Staples,MN,56479,218-894-3958
Decker Trucking,7552 Dempsey Ave Sw,Waverly,MN,55390,763-658-4568
Midstates Flexo Cleaning Services,525 First Avenue Sw,Plainview,MN,55964,507-534-4142
Chris Ferrell Trucking,20711 Poppy Street Nw,Oak Grove,MN,55303,763-753-4892
Chad Luhman Trucking,34270 Wheat Trail,Goodhue,MN,55027,507-254-1212
James Buxcel Trucking,408 Woodley Street West,Northfield,MN,55057,507-581-1710
Lerma Welding,1632 Oxford Street,Worthington,MN,56187,202-521-1493
All Earth Services,27341 361st Avenue,Henderson,MN,56044,507-248-3674
Puzzle Trucking,2207 Roosevelt Rd,St Cloud,MN,56301,320-224-6080
K & M Transfer,502 Cottonwood St Sw,Isanti,MN,55040,763-444-4619
Lindemann Trucking,22193 300th Street,Rushmore,MN,56168,507-478-4328
Hageman Trucking,2961 140th St,Preston,MN,55965,156-388-3805
L & M Trucking,Rr #2 Box 145,Wabasha,MN,55981,651-565-2153
Kay Bee Trucking,49335 Dogwood Ave,Rush City,MN,55069,320-358-4477
I S S,2305 Daniel Street,Long Lake,MN,55356,612-475-0027
Specialty Transportation Systems,4064 Magnetite Point,Eagan,MN,55122,651-688-0691
Trav's Trucking,3673 Brookston Rd,Cloquet,MN,55720,218-879-4853
Amazon Express,1200 East 79th Street,Bloomington,MN,55425,952-854-6676
A & M Meyer Trucking LLC,24543 615 Street,Theilman,MN,55945,507-534-2602
G & H Trucking,3238 92nd Ave Ne,Foley,MN,56329,320-250-1909
Craters & Freighters,13432 County Highway 5,Lake Park,MN,56554,952-890-1855
Hickory Lake Auto,23994 Us Hwy 169,Aitkin,MN,56431,218-678-3838
Casper Express,23013 180th Street,Mcgrath,MN,56350,320-592-3473
Auto Transport Co,1311 S Pokegama Ave,Grand Rapids,MN,55744,218-326-5443
Thunder Trucking,412 4th Avenue,Sacred Heart,MN,56285,320-765-2229
R & L Transports,427 East Viking Drive,Little Canada,MN,55117,651-484-4269
Shenanigan Schaefer Trucking,6804 8th Street Lane North,Oakdale,MN,55128,651-739-0490
"Yaeger Bus Service, Inc.",56548 Doc Jones Road,Mankato,MN,56001,507-345-5470
Dan Ohearon Trucking,108 E 11th St,Duluth,MN,55805,218-341-0902
T & J Trucking,101 Delling St,Mcgregor,MN,55760,218-768-3225
Hughes Transport,42500 W Elysian Lake Rd,Janesville,MN,56048,507-234-6613
Adrian Nelson Trucking,13945 305th Ave,Princeton,MN,55371,612-282-8813
R & J Transportation,803 10th Avenue Se,Austin,MN,55912,N/A
Keim Trucking Company,317 North Main,Grand Meadow,MN,55936,507-754-5307
Solberg Trucking LLC,28473 Hwy 75 Nw,Warren,MN,56762,218-745-9251
X L Express,244 Jack Pine Drive,Cloquet,MN,55720,218-879-5294
Gerald Kujak Trucking,6920 Woodland Blvd,Minnesota City,MN,55959,507-454-5394
Hulstein Trucking,11225 Birkett Avenue,Leota,MN,56153,507-443-5025
Transfair-transgroup,990 Lone Oak Road Suite 102,Eagan,MN,55121,651-688-7071
Pioneer Auto Sales,3835 East 5th Avenue,Hibbing,MN,55746,218-263-5790
J & L Transport,3401 152 Lane Nw,Andover,MN,55304,763-208-9249
"Go Power Electric Services, Inc.",20604 Co Rd 10,Corcoran,MN,55340,763-566-1451
Field Service Mechanic,284 Prevost Road,Cloquet,MN,55720,218-878-1644
Hwy 2 Auto Recycling,Route 2 Box 6aa,Shevlin,MN,56676,218-785-3000
S B Trucking,1510 E St Germain #53,St Cloud,MN,56443,320-749-2183
Brad's Auto Repair,1620 1st Avenue,Worthington,MN,56187,507-372-5031
D & D Trucking,11974 Quail Rd,Onamia,MN,56359,N/A
Ronning Trucking,32951 Dahlberg Lake Rd,Shevlin,MN,56676,218-785-2336
Ted Lorch,2282 430th Street,Nerstrand,MN,55053,507-789-6402
M & T Trucking,47335 323 Road Avenue,Cass Lake,MN,56633,218-335-4116
National Seafood Delivery,720 20th Street Ne,Owatonna,MN,55060,N/A
Palm Trucking,32574 520th Avenue,Grove City,MN,56243,320-593-4550
Howe Trucking,62538 280th Ave,Chokio,MN,56221,320-324-7435
There N Back Transport,1498 Grosbeak Rd Nw,Bemidji,MN,56601,218-209-9560
Homeward Bound Moving & Storage,615 River Street South,Pillager,MN,56473,218-746-3669
Tate Trucking,132 Vista Villa,Waseca,MN,56093,507-835-5283
John Godden Trucking,7070 Rice Lake Road,Duluth,MN,55803,218-721-5916
D C M Transport,21268 York Street Nw,Elk River,MN,55330,763-482-2225
Rohloff Trucking,7888 Whispering Woods Lane No,Brainerd,MN,56401,218-270-0129
"Braithwaite Distributors, Inc.",6891 Long Lake Road,Willmar,MN,56201,320-231-1822
John Weseman Trucking,59859 Csah 16,Litchfield,MN,55355,320-693-6271
Keystone Construction,23351 Keystone Road,Milaca,MN,56353,320-983-5958
Used Auto Sales,1570 Us Hwy 14 - 61 E,La Crescent,MN,55947,507-895-2767
Starship Auto Transport,208 South Atwood Street,Shakopee,MN,55379,952-445-1908
Elite Waste Disposal,845 Corporate Drive,Jordan,MN,55352,952-445-4301
J C Johnson Trucking,1872 Harbor Street,Mora,MN,55051,320-679-2759
Wil-mor Trucking,2233 Maxwell Ave,New Port,MN,55055,612-868-0599
Sandbulte Trucking,1176 N River Rd,Luverne,MN,56156,507-227-4683
Rust Trucking,27527 Lake Linka Ln,Glenwood,MN,56334,320-278-2715
J&s Express,1608 180th Ave,Slayton,MN,56172,507-763-3278
Garcia's Trucking,6375 Concord,Inver Grove Heights,MN,55076,651-306-0959
Gary's Auto,4362 214th Avenue Nw,Anoka,MN,55303,763-753-2187
Randy Devos Trucking,302 Church Street West,St Leo,MN,56264,507-224-2203
Box Car Transportation,1140 101st Lane,Coon Rapids,MN,55433,763-783-8969
Schipper Transport,320 N Main,Dundee,MN,56131,507-760-0074
Aggregate & Bulk Carriers,Po Box H,Delano,MN,55328,320-286-2710
John G Mcintosh Transportation,508 1st Avenue Ne,Byron,MN,55920,507-254-5352
P & V Trucking,2610 149th Avenue N E,Ham Lake,MN,55304,612-237-1027
James Hoppe Trucking,29533 State Hwy 4,St James,MN,56081,507-375-7326
Sperry Construction Services,1227 East County Road D,Maplewood,MN,55109,651-766-6676
K T L Truck Lines,837 Apollo Road Suite 200,Eagan,MN,55121,727-584-2499
Cross Country Service,799 Joachim Dr,Waseca,MN,56093,507-835-4696
Dation Enterprises,2902 8th Lane North,Anoka,MN,55303,763-439-1070
Knudson Trucking,1301 4th Street Se,Bemidji,MN,56601,218-751-5313
Stromwall Trucking,3590 13th Ave Se,Saint Cloud,MN,56304,320-654-0640
F R O G Transportation,19410 546th Ave,Austin,MN,55912,507-440-3311
Mac Tools - Distributor,1422 Janis Road,Cloquet,MN,55720,218-879-8928
D L Trucking,2627 Stillwater Road 6,Maplewood,MN,55119,651-248-3096
Otterstetter Trucking,63336 County Hwy #46,Eagle Bend,MN,56446,218-738-5145
Vold Trucking,14899 Great Valley Road Nw,Shevlin,MN,56676,218-243-2743
Straight Shot Express,12610 Edinborough Circle,Apple Valley,MN,55124,952-423-7287
Schow Distributing,213 O'day Street North,Maplewood,MN,55119,651-738-1914
Leger Construction Service,12033 Louisana Avenue North,Champlin,MN,55316,763-422-1611
Specialty Transportation Systems,4064 Magnetite Point,Eagan,MN,55122,612-849-5051
H & W Lakeside Transport,19965 Cedar Lake Trail,Morristown,MN,55052,507-838-8279
Austin Transportation,58929 119th Street,Mapleton,MN,56065,507-524-3006
H Trans,13601 Sw 42nd Avenue,Ellendale,MN,56026,507-684-2102
Huddleson Transportation Company,7800 Maple Hill Rd E21,Corcoran,MN,55340,763-712-0045
Kay Kat Trucking,26954 93rd Street,Buckman,MN,56317,320-468-2621
"Airport Car Service, Inc.",3209 Terminal Drive Suite 300,Eagan,MN,55121,651-456-9020
Mike Fitzgerald Trucking,23069 469th Avenue,Morris,MN,56267,320-589-4839
T & K Trucking,620 3rd Street,Nashwauk,MN,55769,218-885-2891
M L K Transport,13858 County Road 75 Nw,Monticello,MN,55362,763-878-2829
Smook Trucking,312 E Luverne Avenue,Magnolia,MN,56158,507-283-4977
D Gibson Trucking,319 Keystone Ave W,Beardsley,MN,56211,320-265-6908
Koniarski Trucking,6630 West 230th Street,Belle Plaine,MN,56011,952-492-2979
Garon's Trucking,3252 Beech Street,Duluth,MN,55804,218-525-9587
Egan Trucking,14703 Dunbar Ct,Apple Valley,MN,55124,952-423-4895
Angle Transportation,48167 County Road 12,Roseau,MN,56751,218-463-1695
Nay's Trucking,2782 Welke Dr,Hokah,MN,55941,507-894-4143
Rogers Construction Services,9334 Dunlap Ave,Lexington,MN,55014,612-308-8541
Midbo Trucking,Lot 72 Northwestern Ct,Thief River Falls,MN,56701,218-751-1668
Rauch Trucking,10720 Csah #10,Cosmos,MN,56228,N/A
Josh Ihlenfeld Trucking,715 14th St Ne,Owatonna,MN,55060,507-444-0014
Ltl Direct,167 Creekview Lane,Loretto,MN,55357,651-775-7278
Tom Conroy Trucking,959 Aspen Ave,Red Wing,MN,55066,651-388-7910
M & J Trucking,1193 36th Ave 5 E,Baudette,MN,56623,218-634-2565
Myli Trucking,1303 11th Ave Ne,Rochester,MN,55906,507-289-5952
City Sprint,5555 W 78th St Suite D,Edina,MN,55439,952-943-0300
Ben Klaehn Transport,23877 670th Ave,Dexter,MN,55926,507-584-0194
Mark Cairns Trucking,17151 Golf Course Rd,Glenwood,MN,56334,320-634-4273
Rivard Trucking,12094 80th St N,Stillwater,MN,55082,651-439-5038
Lynn's Auto,41762 Us Hwy 59 Se,Winger,MN,56592,218-938-4112
Hennen Trucking,713 Oak St,Alexandria,MN,56308,320-762-8063
Jeff Paulson Trucking,12653 177th Ave,Hanska,MN,56041,507-439-6854
Country Haven Trucking,8202 72nd Street Sw,Staples,MN,56479,218-397-2548
Bar M Trucking,1408 Victory Circle,Luverne,MN,56156,507-254-2595
Paws Express,31597 Raven St Nw,Cambridge,MN,55008,763-689-1621
J & D Heyer & Sons Trucking,R R 1 Box 141a,Dakota,MN,55925,507-643-6265
Ed Foucault Trucking,6574 Hermantown Rd,Cloquet,MN,55720,218-729-0777
Paul Hein Trucking,1528 130th Street,Welcome,MN,56181,507-728-8928
Sagmo Transport,504 Clover Lane,Ada,MN,56510,701-388-7032
Hulbert Trucking,24268 169th Street,Big Lake,MN,55309,763-263-7311
David Taylor Construction,917 20th Ave North East,Minneapolis,MN,55418,612-781-5779
C W B Trucking,3631 Country Estate Dr,Hibbing,MN,55746,218-290-9399
Special Interest Autos Transport,125 Pacific Ave,Waverly,MN,55390,612-803-4075
Autos By Owners,307 N Ash Street,Canton,MN,55922,507-743-8519
Marvies Express,1553 30th Avenue,Sherburn,MN,56171,507-764-2726
Whispering Wind Transportation,35101 Blackfoot St Nw,Cambridge,MN,55008,612-670-7630
Ants Transportation,591 Snelling Av,St Paul,MN,55104,651-917-0134
Scott Stimpert Trucking,5887 Walden Ave,Stewart,MN,55385,507-562-6397
Hernandez Trucking,119 Se 2nd St,Renville,MN,56284,320-212-7728
Roy Mulskes Mobile Home Repair,50071 County Hwy 67,New York Mills,MN,56567,218-385-3143
Jeff Wildung Trucking,12365 Co Rd 152,Cologne,MN,55322,952-466-2065
Still Trucking,Box 344,Freeport,MN,56331,320-836-2525
James Leek Trucking,41352 331 Avenue,Laporte,MN,56461,218-224-2303
Twister Transport Services,6202 Cty Rd 8 Sw,Rochester,MN,55902,507-282-4131
Extreme Trucking,107 Tischler Ave,Faribault,MN,55021,507-334-9249
Steve Mccone Trucking,33583 120th Street,Sanborn,MN,56083,507-220-5255
Lynn Schefus Trucking,1178 S Ramsey,Redwood Falls,MN,56287,507-627-3166
Krv Transport,313 2nd St Sw Box 2,Fertile,MN,56540,218-945-6694
Nowacki Transport,224 East Sorenson Avenue,Appleton,MN,56208,320-289-2479
Ready To Go Trucking,112 4th Street,Hibbing,MN,55746,218-263-4636
Bms,7300 Colorado Avenue N,Brooklyn Park,MN,55443,612-810-1507
Yellow Cab Of Winona,Po Box 378,Winona,MN,55987,507-457-8200
Fenske Trucking LLC,130 Center Street,Utica,MN,55979,507-273-2019
Arnold Andersen Trucking,122 Center Ave S,Madelia,MN,56062,507-642-3894
Tcs Trucking,2582 130th Street Sw,Pillager,MN,56473,651-777-8696
Voyageur Transport,2007 E Superior St,Duluth,MN,55812,218-724-1558
Tommy G Transfer,10991 Lakeview Heights Road,Pine City,MN,55063,320-629-2725
Justin L Swenson Trucking,33759 260th Street,Westbrook,MN,56183,507-920-3461
Chris Mathews Livestock Express,19723 Moser Avenue,Reading,MN,56165,507-372-7750
Longhorn Trucking,13 Evergreen Dr,Starbuck,MN,56381,320-239-4434
Randys Bulk Transport,2253 For's Rd,Two Harbors,MN,55616,218-213-3161
Rauschendorfer Trucking,23780 Pickett Ave N,Scandia,MN,55073,651-433-5079
Hugo's Trucking,540 16th Street,Windom,MN,56101,507-831-5509
Ms Coffman Construction Co,15901 Sunfish Trail Se,Prior Lake,MN,55372,952-447-6180
Ellefson Farms,85534 530th Avenue,Jackson,MN,56143,507-847-5225
Reiman Auto & Trailer Sales,920 1st St East,Milaca,MN,56353,320-983-6329
Long Trucking,25005 55th St Ne,New London,MN,56273,320-905-0804
"Dave Nelson Trucking, Inc.",5261 240th St N,Forest Lake,MN,55025,612-239-6523
Jeff Guy Trucking,52145 Fairfield Ave,Rush City,MN,55069,651-325-5039
Randy Daniels Trucking,5916 Crane Lake,Buyck,MN,55771,218-993-2237
Craig Thom Trucking,1743 Samuelson Rd,Cook,MN,55723,218-666-5577
J & K Trucking,63348 200th Street,Rose Creek,MN,55970,507-438-1898
Islander Transport,903 4th Ave Se,Rochester,MN,55904,507-398-7251
Ken Dittrich Trucking,30 4th Avenue S E,Elgin,MN,55932,507-876-2056
Csi,5197 Lavaque Rd,Duluth,MN,55803,218-729-9105
Forum Trucking,Rt 1 Box 605,Gully,MN,56646,218-268-4080
Mike Hanson Trucking,510 S Main St,Starbuck,MN,56381,651-460-2337
Thoreson Trucking,25492 Rum River Dr,Isanti,MN,55040,763-444-5079
Absolute Hauling,5500 297th Ave Nw,Cambridge,MN,55008,763-444-9887
Atkins Cargo Carriers,919 3rd St Ne,Kasson,MN,55944,507-254-5096
Vold Trucking,24049 County Rd 71,Graceville,MN,56240,320-748-7962
Kenwolf Heavy Truck,30200 Fir Trail,Stacy,MN,55079,651-462-0643
Warren-out Trucking,336 10th St,Cloquet,MN,55720,218-879-1392
Allied Driveaway Service,5310 Pleasant Court E,White Bear Twp,MN,55110,612-749-1511
Kelly's Sales & Service,725 First St,Mazeppa,MN,55956,507-843-2855
Matt Brown Trucking,24702 Brill Ave,Park Rapids,MN,56470,218-573-3429
Bryan And Connie Hill Enterprises,25457 Chippendale Avenue W,Farmington,MN,55024,651-460-4937
J & M Trucking,206 Park St Box 264,Barrett,MN,56311,320-528-2551
All Around Freight,2nd St W,Zimmerman,MN,55398,763-856-2450
Allen Weinzetl Trucking,815 N Griffin St,Lakefield,MN,56150,507-662-5079
H & M Trucking,10376 State Hwy 32 Ne,Thief River Falls,MN,56701,218-964-5105
"Vogel Trucking, Inc.",1657 Vern Drive,Mora,MN,55051,763-552-0212
Baerg Trucking LLC,32833 530th Ave,Mountain Lake,MN,56159,507-380-4188
Sobania Transport,14063 450th St,Bowlus,MN,56314,320-746-2848
Thomas Altenhofen Trucking,213 Elm Rd,East Bethel,MN,55092,651-982-6952
Chad Betland Trucking,16233 Marble Street,Ramsey,MN,55303,612-963-0238
Simon Deliverscom,3440 Winpark Drive,New Hope,MN,55427,763-656-5610
Caster Trucking,1106 Omaha Ave,Worthington,MN,56187,507-727-5471
Layman Excavating,47778 Co Hwy 14,New York Mills,MN,56567,218-346-3621
Gartland Transport,1965 3rd Ave Ne,Owatonna,MN,55060,507-456-3452
James Yonts Trucking,600 East Park,Rushford,MN,55971,507-864-7845
Norkat Transport,3125 11th Ave S,Moorhead,MN,56560,218-287-4760
Shot-n-dark Express,3505 9th Avenue W Apt # 219,Hibbing,MN,55746,218-263-8653
Don Gieseke Trucking,51896 Fort Rd,New Ulm,MN,56073,507-228-8326
Zylstra Trucking,11882 725th St E,Blooming Prairie,MN,55917,507-390-0370
Qualley Trucking,4173 Hwy 11,International Falls,MN,56649,218-283-2309
Beaver Auto Transport,30871 Regal Ave,Shafer,MN,55074,503-735-0540
Time Line Transportation,8191 Ryan Lake Drive Ne,Stacy,MN,55079,651-462-5164
Espe Trucking,302 E 5th St,Albert Lea,MN,56007,507-377-9024
S T Services,6568 30 North East,Buffalo,MN,55313,N/A
Dairyplus Home Delivery,6771 Overton Drive Ne,Fridley,MN,55432,612-709-0230
Larry Kalis Harvesting,59289 190th St,Wells,MN,56097,507-553-5100
Steris Isomedix Services,380 90th Ave Nw,Coon Rapids,MN,55433,N/A
Hr Trucking,4545 Echo Lane,Stacy,MN,55079,651-462-2923
Dro Trucking,13232 Co Rd Y2,Princton,MN,55371,763-631-4497
R & R Field Service,4064 Olivine Drive,Eagan,MN,55122,651-405-6741
"Jrb Trucking, Inc.",118 Wilson Dr,Owatonna,MN,55060,507-455-9155
Goulet Hauling,105 River Drive,Wolverton,MN,56594,218-995-2008
Shellum Trucking,22352 110 Th St,Hannska,MN,56041,507-439-6498
Twin City Travel Express,1972 Stanich Court N,Maplewood,MN,55109,651-353-7009
Tucker Transport,999 210th St N,Hawley,MN,56549,701-361-7610
Doerr Farm Services,24052 Cty 14,Preston,MN,55965,507-765-5359
Wark Trucking,21551 411th Avenue,Arlington,MN,55307,507-964-5786
Idi Bobcat Services,26309 146th Street,Zimmerman,MN,55398,763-856-4700
Interstate Motor Carrier,2405 Highway 59,Clarkfield,MN,56223,320-669-6013
"Pure Delivery, Inc.",900 W Co Rd D Apt 207,New Brighton,MN,55112,651-639-8372
Allfleet Leasing,13830 Northdale Blvd,Rogers,MN,55374,320-290-1624
Higgins Haulers,38 32nd St Nw,Buffalo,MN,55313,763-286-0577
Tou Fong,277 University Ave,St Paul,MN,55103,612-998-6538
Dean's Cartage,9601 Vincent Ave North,Brooklyn Park,MN,55444,612-382-3263
Green Transport,211 West Riverside,Melrose,MN,56352,320-260-9189
Nicks Service,101 North Park Ave,Park Rapids,MN,56470,218-732-5119
Silestone Of The Twin Cities Stonite Of The Twin Cities,2425 Waters Drive,Mendota Heights,MN,55118,651-683-9672
David Murphy Trucking,2460 260th Avenue,Ada,MN,56510,218-784-8049
D & R Trucking,46039 County 10 Blvd,Zumbrota,MN,55992,507-732-5974
Demcon Disposal,1179 County Road 37 Ne,Buffalo,MN,55313,763-295-0707
Automobile Service,5708 W 35 1/2 Street,St Louis Park,MN,55416,952-929-0615
Triple B Trucking,421 S 3rd St E,Aurora,MN,55705,218-780-5173
"Industrial Service, Inc.",10620 Courthouse Blvd,Inver Grove Heights,MN,55077,651-457-3930
Kenny James Express,316 E 9th St,Starbuck,MN,56381,320-241-0501
Dave Syverson Freightliner Sterling,7 County Rd 16 Se,Rochester,MN,55904,507-289-3357
Mendota Electric Service Company,3925 Cedarview Drive,Eagan,MN,55122,N/A
Laus Meat Market,1100 Second Street Nw,Waseca,MN,56093,507-835-1970
Metro Restoration Services,2525 Nevada Ave N Suite #304,Golden Valley,MN,55427,952-476-1141
Michael Whiteford Trucking,26180 Territorial Road,Rogers,MN,55374,763-428-4608
Dawson Heartland Express,675 Chesnut Street,Dawson,MN,56232,320-769-2154
Ivanhoe Service Center,412 E Ashby,Ivanhoe,MN,56142,507-694-1830
J Marvel Trucking,586 Stark Rd,Cloquet,MN,55720,218-879-1222
J & T Trucking,32260 170 Th St Sw,Euclid,MN,56722,218-779-9407
Ortiz Trucking,18458 750th Avenue,Albert Lea,MN,56007,507-318-8228
Hoffmann Trucking,19995 200th Ave,New Ulm,MN,56073,507-359-9794
Crain Gravel,480 3rd Street East,Franklin,MN,55333,507-557-2767
Wessman Service,2341 153rd Ne,Ham Lake,MN,55304,763-286-4676
Rohlik Auto,21717 295th St,Vesta,MN,56292,507-829-5459
J T Transport,17820 100th Avenue,Barnesville,MN,56514,701-361-1008
Pro-serv,19928 Industrial Drive,Big Lake,MN,55309,763-262-3837
Kelly Smith Trucking,17676 370th St,Bagley,MN,56621,218-694-6048
C & R Excavating & Hauling,1409 2nd Avenue So,Wheaton,MN,56296,320-563-4534
Ron Kirkham Trucking,Route 2 Box 187,Deer River,MN,56636,218-246-2414
M J Trucking,9282 Bavaria Beach,Chaska,MN,55318,952-443-2468
Finn Trucking,26281 600th Street,Mantorville,MN,55955,507-635-5749
Eldon Haas Trucking,4707 Highway 169,Elmore,MN,56027,641-948-3507
Kind Intermountain Express,2013 Haughton Avenue,North Mankato,MN,56003,507-345-8652
R & S Wobschall Trucking,503 2nd St Nw,New Richland,MN,56072,507-465-3632
Rauschnot Trucking,6840 Dixie Ave,Inver Grove Heights,MN,55076,651-451-1637
Davis Trucking,816 Broadway Po 71,Cleveland,MN,56017,507-931-2630
Dockbusters Express,2072 East Center Circle,Plymouth,MN,55441,763-553-1920
D & M Hanson Trucking,302 Willow,Fairmont,MN,56031,507-235-9554
Sanford Brown Trucking,6351 120th St N W,Pine Island,MN,55963,507-356-8748
Jim Olson Trucking,902 Meadow Lark Drive Sw,Alexandria,MN,56308,320-762-0814
Town & Country Oil,1015 No Industrial Road,Mora,MN,55051,320-679-3037
Douglas Myhre Trucking,5282 Wilderness Trail,Duluth,MN,55811,218-720-2814
Howard Nopola Trucking,4691 Hwy 3,Silver Bay,MN,55614,218-226-3030
Kuehl Trucking,Rural Route 1 Box 3,Verdi,MN,56179,507-368-9219
Carpenter Trucking,30423 St Hyw 92,Bagley,MN,56621,218-694-6985
Sauke Trucking,57608 215th St,Austin,MN,55912,507-433-7599
"Paradise Trucking, Inc.",2021 Heritage Dr,Shakopee,MN,55379,952-445-0728
D K Trucking,26346 370th Ave,Hillman,MN,56338,320-277-3319
M S Trucking,87869 380th Ave,Heron Lake,MN,56137,507-853-4505
Enevoldsen Trucking,187 3rd Street,Dawson,MN,56232,320-769-4646
Duane Jensen Trucking,401 Minnesota Street,Ostrander,MN,55961,507-657-2449
Minnesota Trucking Mngt,9320 305 Avenue Nw,Princeton,MN,55371,651-771-5099
Winter Transport,41810 350th Avenue Se,Fosston,MN,56542,218-435-1280
Don Buys Trucking,800 W Main,Chandler,MN,56122,507-677-2391
Petersen Trucking,Rt 2 Box 97,Butterfield,MN,56120,507-956-2800
Arends Farms,28895 State Hwy 68,Wabasso,MN,56293,507-342-2190
Ostrowski Trucking,9671 Ostrowski Way,Brainerd,MN,56401,218-829-2689
Ballard Moving & Storage,7100 Washington Ave S,Eden Prairie,MN,55344,952-828-7970
Strain Transport,15459 County Road 27,Pine Island,MN,55963,507-356-8019
Lehmann Trucking,3323 Hwy 247 Ne,Rochester,MN,55906,507-753-2236
Gile Trucking Of Cedar,15710 St Francis Blvd Nw,Ramsey,MN,55303,763-421-5599
Kermith Eppen Trucking,410 Iowa St,Lake City,MN,55041,651-345-2138
E T Transport,6415 112th Place North,Champlin,MN,55316,763-493-9507
T K Truckin,28575 Denham Crossing Rd,Sturgeon Lake,MN,55783,218-522-0234
Ole Gunderson Trucking,2780 - 30090th Street,Gary,MN,56545,218-356-8646
R & M Trucking,53703 134th Street,Amboy,MN,56010,507-278-4832
A & T Trucking,56 Circle Drive,Circle Pines,MN,55014,763-783-5889
Bruce Freerksen Trucking,Rt 1 Box 3,West Concord,MN,55985,507-527-2461
Jim's Trucking,31777 150th St Sw,Euclid,MN,56722,218-773-1475
B & R Trucking,16994 County Rd 433,Swan River,MN,55784,218-492-1691
Three Rivers Trucking,3668 190th Avenue,Breckenridge,MN,56520,218-643-6065
Chuk Transport Services,2822 2 Ave East,Hibbing,MN,55746,218-262-5392
Chuck Mathues,41768 2060th St Sw,East Grand Forks,MN,56721,218-893-4435
Robert Benson Transport,945 Point Pleasant Road,Madison Lake,MN,56063,507-243-3441
Fjerstad Trucking,43967 340 Ave Se,Fosston,MN,56542,218-435-1002
Rau's Trucking & Setting,27587 County Road 9,Richmond,MN,56368,320-597-3786
Country Custom,20850 State 34,Park Rapids,MN,56470,218-732-3768
Paradise Freight Trucking,1631 Oakdale Ave West,St Paul,MN,55118,N/A
Maki Trucking,5513 Hwy 2,Hermantown,MN,55810,218-729-1446
Chris Hassett Trucking,Rr 2 Box 46a,Lanesboro,MN,55949,507-765-2226
Dependable Crane Service,773 U S Hwy 75,Ortonville,MN,56278,320-839-3980
Hoffman Trucking,Rural Route 1 Box 79,Altura,MN,55910,507-534-4165
Cummins Trucking,Hc 3 Box 29a,Karlstad,MN,56732,N/A
B A M Transport,11764 Co Rd 25,Wawina,MN,55736,218-355-8101
Auto Trim Design,Rural Route 1,Owatonna,MN,55060,507-451-3630
Specialized Blasting LLC,103 State St,Kenyon,MN,55946,507-649-4131
Customization Services,24460 Chippendale Avenue,Farmington,MN,55024,651-460-6647
Jim Chapman Milk Hauling,720 Normal Ave,Lake Wilson,MN,56151,507-879-3509
Carsten Auto,Rural Route 1 Box 53,Bingham Lake,MN,56118,507-831-0238
Fjosne Trucking,Rural Route 1 Box 529,Sturgeon Lake,MN,55783,218-372-3052
Nasset Trucking,308 15th Street North,Moorhead,MN,56560,701-361-3279
Richard P Helgerson Cartage,65038 143 Road Ave,Wabasha,MN,55981,651-565-4151
R L Leistico Jr,9010 Viking Blvd Nw,Elk River,MN,55330,763-441-8532
Lawrence Vandenplas Trucking,1729 Constance Blvd,Ham Lake,MN,55304,763-413-0139
Teiken Trucking,Lot 54 Greendale Manor,Thief River Falls,MN,56701,218-681-2610
K D S Trucking,Hc 76 Box 125b,Backus,MN,56435,218-947-3405
Lien Express,5100 Dickerman Rd,Saginaw,MN,55779,218-729-6524
Good News Express,1710 Simplicity Drive,Ellendale,MN,56026,507-688-3622
S P Express,217 Galtier Place,Shoreview,MN,55126,651-481-8831
D And L Express,Rural Route 2 Box 141,Sacred Heart,MN,56285,320-765-2323
Kim Ibach Auto Sales,508 1st Avenue Sw,Kasson,MN,55944,507-634-2277
Earl Cornwell Trucking,3508 Salo Rd,Embarrass,MN,55732,218-827-3717
John Steffl Trucking,1311 Summit Ave,Detroit Lakes,MN,56501,218-847-1788
Mikey's Express,1023 W 21st St,Hastings,MN,55033,N/A
Kvamme Trucking,22509 Seifert Brach Rd,Pelican,MN,56572,218-863-1195
"R L H Grain, Inc.",18 Beacon Street,Lanesboro,MN,55949,507-467-2300
Ralph Frank Moris,Rr 2 Box 365,Perham,MN,56573,218-346-4495
Flannigan Trucking,2945 Troseth Road,Roseville,MN,55113,651-633-9301
D S Transport,16445 221st Ave Nw,Elk River,MN,55330,763-263-6056
Reisdorfer Trucking,Rt 3 Box 40,Adrian,MN,56110,507-483-2116
Preferred Services,10201 Foley Blvd,Coon Rapids,MN,55448,763-755-1038
David Leek Trucking,R 2 Box 20,Laporte,MN,56461,218-224-2708
Loyal Transport Co,14653 E Fish Hook Dr,Park Rapids,MN,56470,320-826-2548
D J Express,3739 Aldrich Ave N,Mpls,MN,55412,612-522-2814
Midwest Transportation Of Minnesota,101 South 64th Avenue West,Duluth,MN,55807,N/A
J M W Services,17030 180th Ave,Fergus Falls,MN,56537,218-739-3045
J & M Squires Trucking,700 Oak Avenue East,Montgomery,MN,56069,507-364-8060
R & L Trucking,636 230th Avenue,Fairmont,MN,56031,507-238-1376
Enga Trucking,11974 230th Street,Milaca,MN,56353,320-983-2678
Justin Bauer Trucking,31913 64th Ave,Cannon Falls,MN,55009,507-263-5304
Ken Hoeschen Trucking,406 1st Ave Se,Freeport,MN,56331,320-290-2694
Tj Transport,17836 210th Ave ,Glenwood,MN,56334,320-491-2286
Showcase Van Lines,216 2nd Street Ne,East Grand Forks,MN,56721,218-773-1173
Bruce Madsen Trucking,1864 County Hwy 20,Canby,MN,56220,507-223-7506
Midtown Auto Service,431 5th Street East,Duluth,MN,55805,218-727-9474
Kerwin Trucking,9334 255th Street,Onamia,MN,56359,320-532-3325
Bondhus Trucking,Rural Route 1 Box 77,Storden,MN,56174,507-445-3338
Hansen Trucking,451 Main St,Currie,MN,56123,507-763-3575
Floyd Radke Trucking,1812 Us Hwy 59,Slayton,MN,56172,507-763-3765
Dan's Trucking,708 12th St Sw #104,Forest Lake,MN,55025,612-982-1383
Heikes Distributing Company Factory Direct,15873 Highway 7 East,Hutchinson,MN,55350,320-587-3971
Adrian Karsky Trucking,Rural Route 1 Box 12,Clinton,MN,56225,320-325-5232
Sistad Trucking,32350 455th St Se,Fosston,MN,56542,218-286-1385
Randy Resseman Trucking,15178 Co Rd 17,Holdingford,MN,56340,320-746-8123
W R W Trucking,2027 145th Ave,Ogilvie,MN,56358,320-679-5905
Automated Support,7263 Commerce Circle West,Fridley,MN,55432,763-572-2204
Zena,9081 Brook Dr,Pine City,MN,55063,763-568-9536
Tims Trucking Express,2900 12th Street Sw,Austin,MN,55912,507-437-3788
Fenske Truck Lines,1034 1st Ave,Gibbon,MN,55335,507-317-7168
Tumbleweed Express,1333 Miles Drive,Worthington,MN,56187,507-376-5835
Lewis Transportation Service & Auto Sales,7925 79th Street South Apt 3,Cottage Grove,MN,55016,651-768-9432
Keith Truck & Equipment,7313 University Avenue Ne,Fridley,MN,55432,763-786-4610
M & J Transport,27840 Lamar Avenue,Chisago,MN,55013,651-964-4435
Dan Schlichting Trucking,1435 125th Street Nw,Rice,MN,56367,320-393-4815
Hanson Transportation,19739 County Road 5 Nw,Evansville,MN,56326,320-834-4682
Tri-h Trucking,4990 Jackson Avenue,Webster,MN,55088,507-744-2822
Eaton Farms Trucking,15790 320th Ave,Waseca,MN,56098,507-835-1443
Hawk Trucking,270 Camp Pearson Road,Red Wing,MN,55066,651-388-1747
Matich Trucking,519 3rd Avenue Ne,Brainerd,MN,56401,218-828-1907
Johnson Transportation,217 N 6th St,Kiester,MN,56051,507-294-3541
Gary Foster Trucking,53398 111 Lane,Amboy,MN,56010,507-674-3335
Martin Eberling Trucking,2008 Bob White Court,Waseca,MN,56093,507-833-2858
Paul Eversman Trucking,811 Broadway Ave,Wabasha,MN,55981,651-565-2836
International Freight Company,1750 West County Road C,Roseville,MN,55113,N/A
Westman Trucking,15 7th Ave S,St James,MN,56081,507-375-4200
Hagge Trucking,209 Washington,Garden City,MN,56034,507-546-3329
Madson Trucking,115 Hawley Street,Lake Park,MN,56554,218-238-6819
Janssen Livestock Hauling,17757-510th Ave,Austin,MN,55912,507-437-7271
Rickert Farms Trucking,21138 County #85,Osakis,MN,56360,320-859-3391
Klasen Trucking,Hcr 1 Box 10,Kerrick,MN,55756,218-380-9817
Seifert Trucking,6812 550th St,Dumont,MN,56236,320-748-7535
M & M Contracting,63539 250th Street,Dexter,MN,55926,507-951-2758
"A Division Of Carrier Commercial Refrigeration, Inc.",6325 Sandburg Road Ste 800,Golden Valley,MN,55427,763-231-8300
Hassett Trucking,Rr 1 Box 55,Ostrander,MN,55961,507-324-5285
Wiggert Trucking,53336 807 Ave,Buffalo Lake,MN,55314,320-833-5804
Thomas Sampson Trucking,25108 #2 Itasca Ave N,Forest Lake,MN,55025,952-235-2209
R F C Transport,657 White Birch Court Nw,Oronoco,MN,55960,507-282-6769
Rad Trucking,33693 Wabana Road,Grand Rapids,MN,55744,218-326-1706
Menken Farms,36682 620th Avenue,Butterfield,MN,56120,507-956-2223
Ron Wang & Sons Trucking,307 East Minnesota Ave,Winger,MN,56592,218-938-4123
Mcbride Trucking,38305 Hwy 59,Fulda,MN,56131,507-425-2198
C & M Trucking,11340 Hanson Blvd,Coon Rapids,MN,55433,763-754-1864
King Transportation,Hc 9 Box 423,Detroit Lakes,MN,56501,218-847-8876
Haas Farms,Rr 2 Box 69,Gibbon,MN,55335,507-834-6755
Jim Burkhart Trucking,850 Marschall Road South #304,Shakopee,MN,55379,952-445-0745
Ten Acre X-press,22588 Co Rd 5,Lamberton,MN,56152,507-752-7719
East Central Parcel,18616 Franconia Trail,Shafer,MN,55074,651-257-5452
Hoshal Trucking,20416 Cty Rd 12,Bovey,MN,55709,218-256-0191
Prins Farms,21335 Mccall Ave,Reading,MN,56165,507-478-4259
Venture Transportation Services,1550 North Douglas,Worthington,MN,56187,507-376-6595
Flury Transportation,201 4th Street Ne,Dodge Center,MN,55927,507-374-0905
A & R Transfer,251 West Stark Rd,Cloquet,MN,55720,218-879-5325
Ronald Bressler Trucking,514 W Ciro St,Truman,MN,56088,507-776-5718
Steve Starry Trucking,1065 South Spruce Street,Onamia,MN,56359,320-532-4814
Pickups Express,9389 County Rd 138,Saint Cloud,MN,56301,320-253-7992
Murto Bros Trucking,225 Murto Road,Esko,MN,55733,218-879-4262
Schuh Trucking,7317 North Store Trail,Forest Lake,MN,55025,651-464-4374
Kadlec Trucking,14921 214th Place,Mcgrath,MN,56350,320-592-0660
A-1 Transport,8338 Greenway Ave S,Cottage Grove,MN,55016,651-459-9222
Mike Pearson Trucking,1171 Timbershore Ln,Eagan,MN,55123,651-688-6446
Two Cats Trucking,29997 Timberwolf Rd N E,Blackduck,MN,56630,218-835-5619
Gowan Trucking Co,3397 15th St North East,Oslo,MN,56744,701-699-3470
Quarter Horse Trucking,219 2nd St Ne,Madelia,MN,56062,507-642-3240
Wester Trucks,508 6th Street Sw,Little Falls,MN,56345,320-632-5480
Trans Dopp Express,11922 Stevens Ave,Becker,MN,55308,763-261-5118
Hrstka Trucking,750 273rd Avenue Nw,Isanti,MN,55040,507-269-7090
David Finn Trucking,3 Mesaba Place,Duluth,MN,55806,218-720-3245
E J Trucking,5624 Stevens Ave S,Minneapolis,MN,55419,612-866-1044
Bosma Dairy Trucking,1451-150th Av,Holland,MN,56139,507-347-3103
C F S,12581 57th Street,Clear Lake,MN,55319,320-743-2096
Mcgough Trucking,R R 3 Box 37b,Nevis,MN,56467,218-652-3229
Mcelwain Trucking,6020 600th Street,Wheaton,MN,56296,651-777-8696
Akona Trucking,730 Industry Avenue,Anoka,MN,55303,763-427-7935
Saatela Trucking,5348 Saatela Road,Mountain Iron,MN,55768,218-735-8383
Lone Tree Transfer,222 Prairie Ave,Porter,MN,56280,507-296-4472
Kabasa Freightways,1502 Pennsylvania Ave N,Champlin,MN,55316,763-323-1857
Bois De Sioux Trucking,Route 2 Box 84a,Wheaton,MN,56296,218-479-5861
Corporate Motorcoach Service,15975 Putnam Blvd S,Afton,MN,55001,651-436-8870
Greg Boettger Trucking,18270 Omega Avenue,Springfield,MN,56087,507-723-5194
Ash Transport,Rural Route 1 Box 47,Georgetown,MN,56546,218-494-3918
Spartan Trucking Co,634 West Third Avenue,Shakopee,MN,55379,952-496-2534
Wiegers Trucking,14244 Stearns Line Rd,Sauk Centre,MN,56378,320-352-2530
Downs Trucking,411 Clayborn,Parkers Prairie,MN,56361,623-322-8846
Larry Sandretsky Trucking,2534 East Pioneer Road,Duluth,MN,55804,218-525-7117
Erickson Trucking,12964 E Arrow Lake Rd,Audubon,MN,56511,218-439-3118
Highlander Trucking,Route 2 Box 41,Saum,MN,56650,218-647-8668
Rich Mizer Trucking,Route 2 Box 348,Pine City,MN,55063,320-629-6595
Darrin Lout Trucking,4774 Midway Road,Duluth,MN,55811,218-729-7355
Swanson Distributing Co,25 University Court,Mankato,MN,56001,507-345-4746
L & R Trucking,20923 Cty Hwy 114,Fergus Falls,MN,56537,218-739-4501
Hills Trucking,942 Carlton Avenue,Faribault,MN,55021,507-332-2064
Albarado Trucking,1329 East Avenue,Red Wing,MN,55066,651-388-2256
Laue Transport,11998 Bean Dr,Princeton,MN,55371,605-594-3524
Ace's Trucking,112 Cottage Street,Lake Benton,MN,56149,507-368-4228
Dohrn Trucking,20 5th Ave Ne,Plainview,MN,55964,507-696-1136
Priority One Freight,13599 Embry Way,Apple Valley,MN,55124,952-423-7024
M & M Express,1538 9th Avenue Se,St Cloud,MN,56304,320-252-9810
G L R Trucking,Route 1 Box 87,Westbrook,MN,56183,612-781-9341
Scott Gates Trucking,Sturgeon River Route,Big Falls,MN,56627,218-276-2298
Train Trucking,Route 1 Box 325,Bagley,MN,56621,218-694-2928
Quist Trucking,38179 Hemingway Avenue,North Branch,MN,55056,651-674-5142
Norm Meyer Trucking,350 120th St Sw,Montevideo,MN,56265,320-842-4252
B M B Trucking,5545 24th Avenue South,Minneapolis,MN,55417,612-810-9544
Steve Sanasack Trucking,714 4th Street,Graceville,MN,56240,320-815-0407
Harlow Trucking,24243 210th St,Long Prairie,MN,56347,320-732-0987
Luehmann Trucking,Po Box 582,Lewiston,MN,55952,507-523-3547
T & K Transportation,31083 420th Ave Lot 51,Roseau,MN,56751,218-463-9435
Stan Anderson Trucking,43945 Vista Road,Isle,MN,56342,320-676-3463
Johnson Trucking,6730 Sw 168th Street,Ellendale,MN,56026,507-684-2035
Strese Trucking,12253 Fillmore Ne,Blaine,MN,55434,763-360-4299
Long Transport,Rr 1 Box 86,Pine City,MN,55063,320-629-7280
Sellin Trucking,87 West,Menahga,MN,56464,218-821-7537
Ice Hauler Trucking,402 Front St,Barnesville,MN,56514,218-354-2135
R & D Trucking,Po Box 184,Deer River,MN,56636,218-246-9878
Ernie's Transfer,30081 County Rd 16,La Crescent,MN,55947,507-643-6458
T & C Trucking,Rural Route 1 Box 267,Bagley,MN,56621,218-694-6111
Lacek 4-j's,48235 State Hwy 109,Easton,MN,56025,507-787-2648
Lamont Truck & Equipment Repair,511 4th St,Lyle,MN,55953,507-325-2213
Peterson Trucking,401 Pelican River Road,Detroit Lakes,MN,56501,218-846-9294
Kroll Trucking,1616 Old Hwy 61 N,Hinckley,MN,55037,320-384-7548
R I Schmidt Trucking,425 2nd Ave Sw,Oronoco,MN,55960,507-367-2183
Gibson Trucking,Box 122,Morris,MN,56267,320-265-6109
Manning's Trucking,Hc 9 Box 144,Detroit Lakes,MN,56501,218-847-6915
Hgmt Service,15322 120th St Ne,Thief River Falls,MN,56701,218-681-2298
Dale Perreault Trucking,980 W 8th St Box 113,Rush City,MN,55069,320-358-3413
David Tiboni Trucking,5788 Polar Circle,Silver Bay,MN,55614,218-353-7457
Relo-x,3837 Pillsbury Ave S,Minneapolis,MN,55409,612-822-3132
Wildwood Trucking,390 Lax Lake Road,Silver Bay,MN,55614,218-353-7677
Bangert Trucking,4910 Rush Lake Lane,Rush City,MN,55069,763-444-9920
John Austin's Trucking,2629 201st Ave Nw,Cedar,MN,55011,651-453-3869
Flambeau Freight Lines,11548 Stacy Trail,Chisago City,MN,55013,651-257-4190
Double R Trucking,39501 695th Lane,Saint James,MN,56081,507-269-6164
Northern Transport,Rural Route 8 Box 275,Aitkin,MN,56431,218-927-4627
Baron Trucking,3115 County Road 24,International Falls,MN,56649,218-283-9858
Swanson Trucking,111 7th Avenue,Foley,MN,56329,320-968-6896
Holt Trucking,4111 County Road 136,Kettle River,MN,55757,218-273-4383
Stewarts Trucking,18204 County Hwy 25,Fergus Falls,MN,56537,218-739-5680
Christian Trucking,35516 Us 71,Eagle Bend,MN,56446,218-738-5665
Bergendahl General Services,516 17th St Nw,East Grand Forks,MN,56721,218-773-2691
Robert Landsom Trucking,Rural Route 3 Box 41,Caledonia,MN,55943,507-724-5273
Sk Trucking,1460 115th St Nw,Rice,MN,56367,320-393-4752
C And J Trucking,12356 Knollwood Rd,Caledonia,MN,55921,507-724-3704
Brummer Auto Sales,512 Ash Avenue Nw,Wadena,MN,56482,218-631-4563
Michael Wolf Trucking,150 2nd Ave Nw,Plainview,MN,55964,507-534-2346
M And D Trucking,31547 State Hwy 38,Grand Rapids,MN,55744,218-326-2904
V B Trucking,4715 Paupores Blvd,Brookston,MN,55711,218-391-3943
J A W Lines,1840 Goodview Ave N,Oakdale,MN,55128,651-770-0628
Don Lee Trucking,4121 N 81st Ave W,Duluth,MN,55810,218-349-3656
Hermantown Amoco,4803 Miller Trunk Hwy,Hermantown,MN,55811,218-722-3330
Hanson Trucking,11543 State Hwy 65,Mcgrath,MN,56350,320-279-3116
Hot Delivery Service,2917 37th Avenue S,Minneapolis,MN,55406,612-729-5127
D W Transportation,30572 820th Ave,Olivia,MN,56277,320-523-5140
Willemssen Trucking,641 Elm Avenue,Westbrook,MN,56183,507-227-5334
C & S Trucking,1444 County Road 333,Bovey,MN,55709,218-245-3282
"Lucken Trucking, Inc.",23125 430th St Se,Winger,MN,56592,218-938-4191
D J Trucking,251 5th Ave Nw,Hutchinson,MN,55350,320-587-4976
Cindy Peterson Mobile Transport,56480 198th St,Park Rapids,MN,56470,218-732-7950
Kingsley Trucking & Excavating,3784 Christianson Hill Rd,Houston,MN,55943,507-864-2519
Sander Trucking,111 East Lake Geneva Road,Alexandria,MN,56308,320-762-5443
Baker Trucking,4231 County Road 16 Se,Rochester,MN,55904,507-282-7922
John West Trucking,606 2nd Street South,Atwater,MN,56209,320-974-8935
King And Son Trucking,6800 Highway 2 East,Grand Rapids,MN,55744,218-326-6002
H&s,11782 20th St,Bowlus,MN,56314,320-267-4587
R & G Transport,32860 210th Ave Se,Erskine,MN,56535,218-687-4106
Dick Stoehr Specialized Deliveries Dssd,Hcr-2 Box 43-s,Breezy Point,MN,56472,218-562-4947
Nowak Services,3272 69th St Ne,Medford,MN,55049,507-451-1615
Paul Cullifer Trucking,1021 1st Street Se,Wadena,MN,56482,218-631-1899
Schulz Trucking,Route 2 Box 183,Clearbrook,MN,56634,218-776-3604
Soppa's Farm Service,Rural Route 1 Box 35,Peterson,MN,55962,507-875-2630
Sunrise River Express,25782 Grafton Ave,Wyoming,MN,55092,651-462-2751
Del Cronquist Trucking,27005 Jewel Road,Fort Ripley,MN,56449,320-745-2526
Superior Trucking,301 Central Ave W,Aurora,MN,55705,218-306-0055
Hooper Trucking,40416 Isle Ave,North Branch,MN,55056,612-674-7362
Wittnebel Trucking,4450 155th Street West,Rosemount,MN,55068,651-423-5833
Sigeltown Transport,124 North Minnesota Street,New Ulm,MN,56073,651-777-8696
Long Creek Carrier,10504 80th Ave Ne,Elgin,MN,55932,507-876-2950
Amundson Trucking,30397 Us Highway 10 # 5,Frazee,MN,56544,218-847-5360
Royale Express,Highway 2 West,Fosston,MN,56542,218-435-1038
Peterson Farms,4155 409th Ave Nw,Braham,MN,55006,320-396-3496
No Longer In Business,No Longer In Business,No Longer In Business,MN,55315,952-361-9702
Patton Trucking,230 Hope Ave W,Nelson,MN,56355,320-859-5032
Haneca Trucking,1198 530 Tn Str,Wood Lake,MN,56297,507-423-5232
Bucher Trucking,640 Miller Ave,Windom,MN,56101,507-832-8117
Walker's Trucking,17 E Washington St,Burtrum,MN,56318,320-285-8210
Schuch Trucking,40180 West Elysian Lake Road,Janesville,MN,56048,507-234-6464
Circle T Hay Sales & Trucking,420 W 3rd St,Winthrop,MN,55396,507-647-2882
Radtke Transport,235 4th Ave,Minnesota Lake,MN,56068,507-317-4247
Lakota Transportation,212 Michigan,Dennison,MN,55018,612-801-4505
Ness Livestock Trucking,615 2nd Street South,Middle River,MN,56737,218-222-4095
4-b Trucking & Excavating,Minnesota & 5th Avenue,Tintah,MN,56583,218-369-2474
Benson Transfer,16001 Bass Lake Road,Maple Grove,MN,55311,763-420-5132
Danielson Trucking,3999 Abbott Drive,Willmar,MN,56201,320-235-0454
Steinbach Trucking,Rr 1 Box 527,Felton,MN,56536,218-494-3469
J & T Transport,2635 132nd Court West,Rosemount,MN,55068,651-423-3919
Kacc Transport,707 2nd Ave Sw,St Joseph,MN,56374,320-334-1378
Baker Trucking,2022 15th St Se,Rochester,MN,55904,507-289-6456
Jansen Custom Hauling,210 1st St E,Kennedy,MN,56733,218-674-4299
Slivers Transfer,9800 Redwood Street Nw #113,Coon Rapids,MN,55433,763-862-3683
Nicholson Trucking,5927 Highway 11,International Falls,MN,56649,218-283-8805
Chris Mahrer Trucking,1005 Tower Way,Breckenridge,MN,56520,218-643-1910
Kasten Auto Transport,6186 County Road 3 Ne,Nelson,MN,56355,320-859-4979
Krom Trucking,912 19th St Nw,East Grand Forks,MN,56721,218-773-6930
Bob Erdman Trucking,Rt 3 Box 56,Hawley,MN,56549,218-937-5341
Roth Trucking,34458 County Rd 233,Grand Rapids,MN,55744,218-326-5563
Chaddock Truck Parts,7450 Highway 14 East,Rochester,MN,55904,507-288-3346
Boody Trucking,911 First Avenue Ne,Little Falls,MN,56345,320-632-8978
Hackbarth Logging & Transport,45282 Lanes Valley Rd,La Crescent,MN,55947,507-895-6326
Cassidy Trucking,28750 Dickman Ave,Randolph,MN,55065,507-663-1491
Dean A Slavick Trucking,185 N Broadway,Alden,MN,56009,507-874-2652
Stray Dog Transport,1403 8th St Nw,Kasson,MN,55944,507-634-4728
Meester Trucking,12898 330th Street,Ellsworth,MN,56129,507-967-2538
Doc's Transport,37053 180th Ave Se,Erskine,MN,56535,218-687-2576
M E Olson Trucking,51207 109th Avenue,Gonvick,MN,56644,218-487-5815
Mahlum Trucking,Lincoln Ave,Fertile,MN,56540,218-945-6069
Lent Trucking,1915 16th Ave S 18,Moorhead,MN,56560,218-236-5582
Cook Trucking,10652 Hwy 11,Birchdale,MN,56629,218-634-1982
S & K Truck Line,419 West Jackson,St Peter,MN,56081,507-931-3529
Jon's Moving Service,34913 Cty Rd 13,Salol,MN,56756,218-463-3043
R D Trucking,42180 Harvest Avenue,Perham,MN,56573,218-640-0169
S L S Livestock Hauling,58274-205th St,Austin,MN,55912,507-437-8576
Mill City Transport,1708 83rd Av N,Brooklyn Park,MN,55444,612-483-0249
Hansgen's Sales & Service,18158 Co Rd 39,St Charles,MN,55972,507-932-4219
M R J Trucking,308 Lynn St,Sherburn,MN,56171,507-764-4155
Austin Trucking,70184 260th Ave,Lake City,MN,55041,507-876-2534
Olson Trucking,11676 100th Street East,Northfield,MN,55057,507-645-1360
O J Trucking,3712 Highway 53,Orr,MN,55771,218-757-0059
Schmid Transport,Hco Box 248a,Park Rapids,MN,56470,218-732-7037
Al Church Trucking,736 North 5th Street Apt 106,Breckenridge,MN,56520,218-643-4557
G & C Transport,23150 County Road 453,Bovey,MN,55709,218-245-2937
Flom Freight,4454 State Hwy 113,Twin Valley,MN,56584,218-567-8566
Possin Trucking,316 1st Street Nw,New Richland,MN,56072,507-463-3399
Jeffrey Ives Trucking,1924 122nd Ave. Nw,Coon Rapids,MN,55448,763-370-8057
Snook Trucking,128 Viking Terrace,Northfield,MN,55057,507-663-0736
Haley Transport,435 3rd Street Southwest,Plainview,MN,55964,507-534-3206
Scott Kohler Trucking,36229 State Highway 34,Detroit Lakes,MN,56501,218-847-9535
Neal Kragt Trucking,11027 85th Ave,Milaca,MN,56353,320-983-6621
Schneider Services,206 West 18th Street,Hastings,MN,55033,651-438-4084
Lon & Sons Trucking,22911 County Road 434,Bovey,MN,55709,218-245-1737
S & A Logistics,213 Jupiter Drive,East Grand Forks,MN,56721,218-773-6638
Gordon Cunningham Trucking,621 Chestnut Street,Mantorville,MN,55955,507-635-3381
Greg Hohman Trucking,1080 West Alcott Avenue,Fergus Falls,MN,56537,218-739-9474
Burak Trucking,5901 - 140th Street,Milaca,MN,56353,320-983-6248
Truck Systems,3004 Woodlark Lane,Eagan,MN,55121,651-452-9036
Mages Trucking,25436 278th Avenue,Paynesville,MN,56362,320-548-3524
Petroleum Distributor,1128 Nw 3rd Avenue,Faribault,MN,55021,507-334-6574
Bob Halverson Trucking,1030 West Highway 16,Blue Earth,MN,56013,507-526-2316
Hanenburg Trucking,Box 74,Pease,MN,56363,320-369-4283
Bradley Distributing,1912 Hastings Ave,Newport,MN,55055,651-459-9751
D And D Transport,215 S 90th Ave W,Duluth,MN,55808,218-626-3980
Don Doeden,502 5th Avenue,Round Lake,MN,56167,507-945-8106
Royal Automotive Carriers LLC,10902 Able St Ne,Blaine,MN,55434,763-228-6029
Monticello Trucking,2854 90th St Ne,Monticello,MN,55362,763-295-2024
Olinger Truck Service,80587 County Road 16,Hector,MN,55342,320-848-6636
James D Prokasky Trucking & School Bus Service,1718 County Rd 6 Sw,Stewartville,MN,55976,507-533-4598
Schipper Trucking,Rr 1 Box 200,Fulda,MN,56131,507-425-2677
Rupp Trucking,612 Nevada Ave,Adrian,MN,56110,507-483-2122
Storden Transit,304 America Street,Storden,MN,56174,507-445-3460
Clark Trucking,Po Box 95,Cromwell,MN,55726,218-644-3924
Como Oil & Propane,4330 West Superior Street Suite A,Duluth,MN,55807,218-722-2666
Brockhouse Trucking,1978 Street Highway 14,Lake Benton,MN,56149,507-368-4678
C W Wass Trucking,Rr 1 Box 2105,Solway,MN,56678,218-751-0055
Wobbrock Trucking,62561 120th Ave,Claremont,MN,55924,507-528-2422
"Twin Cities Newspaper Services, Inc.",220 East Fillmore,St Paul,MN,55107,651-222-8298
G B X,30 Mill Ave,Minnesota Lake,MN,56068,507-462-3148
Wickner Trucking,Route 2 Box 177b,Bemidji,MN,56601,218-751-0486
Kiley Trucking,Po Box 251,Upsala,MN,56340,320-573-2879
Naab Truck Line,8th Street Box 56,New Auburn,MN,55366,320-328-5270
Bailey Trucking,48881 164th Street,Madelia,MN,56062,507-642-8671
K A Wilson,25957 County Road 33,Utica,MN,55979,507-932-4718
Industrial Supply Service,5143 Queen Ave N,Minneapolis,MN,55430,612-529-7974
Bach Trucking,Rt 1 Box 124,Thief River Falls,MN,56701,218-681-5686
Hutchinson Moving & Storage,824 North Horace Avenue,Thief River Falls,MN,56701,218-681-3940
Takco,46106 Nitche Rd,Perham,MN,56573,701-388-1382
Tim Haluptzok Trucking,2041hwy 210,Carlton,MN,55718,218-879-5717
S T S Trucking,1245 Hawk Street,Detroit Lakes,MN,56501,218-847-3149
T & M Distributers,1069 Manning Avenue South,Afton,MN,55001,651-436-6746
Sandy Ridge Farms,16820 230th Ave,Detroit Lakes,MN,56501,218-841-5976
Keystone Automotive,3621 Marshall St Ne,Minneapolis,MN,55418,612-706-5321
"Sponberg Trucking, Inc.",26563 155th Street,New Richland,MN,56072,507-465-8008
Bingham Lake Truck Center,919 Hwy 60,Bingham Lake,MN,56118,507-831-4046
Meyer Transfer,914 East Main,Melrose,MN,56352,320-256-3873
"Valley Grain Company Trucking, Inc.",12167 Lake Rd,Browns Valley,MN,56219,605-694-2800
J & M Transportation,Po Box 426,Prior Lake,MN,55376,612-781-9341
Torgerson Milk Hauling,Rr 1,Mabel,MN,55954,507-743-8358
Olson Trucking,400 Center Ave,Spring Valley,MN,55975,507-346-2927
Dick Hoglo Trucking,18441 Us Hwy 59 Ne,Thief River Falls,MN,56701,218-681-1544
Fairfield Trucking,580 190th Ave Nw,Appleton,MN,56208,320-394-2430
Around The Clock Express,1605 Third Ave N,Mankato,MN,56001,507-388-3033
Deutsch Trucking,1942 51st St,Magnolia,MN,56158,507-967-2355
Thorson Trucking,42926 County Road 2,Leonard,MN,56652,218-968-2223
Viking Enterprises,442 Maddy Street,Mcgregor,MN,55760,218-768-2772
Ron Larson Trucking,19067 E Abercrombie Trail Nw,Evansville,MN,56326,320-834-4413
Second Bridge Auto Sales,3696 Hwy 11 E,International Falls,MN,56649,218-286-3424
Sibilrud Trucking,608 Johnson St,Hartland,MN,56042,507-845-2843
Unique Trucking,9611 County 14,Caledonia,MN,55921,507-724-5453
Sorenson Trucking,Rt 2 Box 163,Byron,MN,55920,507-282-5529
Catco Parts And Service,60 West Sycamore Street,St Paul,MN,55117,651-288-5940
Doug Harberts Trucking,Po Box 83,Dawson,MN,56232,320-769-4661
Greenway,3520 East River Road Ne,Rochester,MN,55906,507-289-4086
Oldfather Trucking,103 N 8th St,Kiester,MN,56051,507-294-3858
"Truckers Inn, Inc.",1420 So Main Street,Sauk Centre,MN,56378,320-352-5241
Pedersen Trucking,Rural Route 1 Box 69,Beardsley,MN,56211,320-265-6267
Demarais Trucking,18668 370th St Sw,Beltrami,MN,56517,218-926-5614
Girtz Trucking,26947 370th Avenue,Hillman,MN,56338,320-277-3116
Hauschild Trucking,327 S Cedric St,Ivanhoe,MN,56142,507-694-1346
Lane Wacek Trucking,802 East Breu,Olivia,MN,56277,320-523-1138
Butch's Bulk Milk Transfer,Route 2 Box 92,Minneota,MN,56264,507-428-3228
Big Horn Trucking,Highway 2,Floodwood,MN,55736,218-879-7445
Rainbow Trucking,405 West 2nd Street,Winthrop,MN,55396,507-647-5331
Forsberg Trucking,Rr 1 Box 80,Gully,MN,56646,218-268-4316
Richard's Trucking Service,110 Sandpiper Circle,Hastings,MN,55033,651-438-5979
A-1 Interstate,2480 Long Lake Rd,Roseville,MN,55125,651-639-2800
Van De Streek Trucking,Rural Route 5 Box 1,Thief River Falls,MN,56701,218-681-2867
Benson Trucking,Rr 3,Janesville,MN,56048,507-234-5146
Erickson Trucking,502 East County Rd 2,Barrett,MN,56311,320-528-2542
Fankhanel Trucking,Po Box 435,Barnesville,MN,56514,218-354-7704
Mayer Distributing And H C Mayer & Sons,2105 Daniels Street,Long Lake,MN,55356,952-473-5488
Hackens Trucking,Rural Route 2 Box 125,Madelia,MN,56062,507-642-8783
Minn-alaska Transport,32287 Hwy 38 N,Grand Rapids,MN,55744,218-327-4970
North Trails Trucking,1162 140th Ave,Slayton,MN,56172,507-836-6881
Dale Herding Trucking,33420 State Highway 30,Westbrook,MN,56183,507-274-6161
Hutchinson Trucking,18406 110th St Ne,Thief River Falls,MN,56701,218-681-3784
Jones Freight Service,Po Box 26,Waseca,MN,56093,507-835-1488
Hofmaster Trucking,1028 Dakota Street,Shakopee,MN,55379,952-496-1967
Verns Trucking,104 Central Avenue S,Geneva,MN,56035,507-256-4400
Arctic North Trucking,6721 Columbus Avenue South,Minneapolis,MN,55423,952-445-1622
Dakota Suns Trucking,319 Park Lake Blvd # 104,Detroit Lakes,MN,56501,701-222-8914
Environmental & Infrastructure Drilling Services,209 Le Mieur Street,Little Falls,MN,56345,320-632-6552
Jergenson Trucking,555 Hwy 12 Sw,Benson,MN,56215,320-567-2160
"Skylane Express, Inc.",1900 West 105th St,Bloomington,MN,55431,952-881-9677
Thorn Trucking,47595 391th Lane,St Peter,MN,56082,507-388-4832
Schroeder Transfer,711 5th St Se,Barnesville,MN,56514,218-494-3969
Henry Trucking,1380 20th St Ne,Murdock,MN,56271,320-875-2546
Kurt Miller Trucking,460 Hilltop Avenue,Owatonna,MN,55060,507-455-3028
Haley Trucking,650 North Wabasha Street,Plainview,MN,55964,507-534-2696
Dittmer Transit,601 Atlantic Ave,Felton,MN,56536,218-494-3494
Petersen Trucking,25711 County Rd 18,Brooten,MN,56316,320-346-2758
Francis Auto,805 Main St,St Paul Park,MN,55071,612-963-8166
"Safe Transport, Inc.",8651 Naples St N E,Blaine,MN,55434,763-780-0783
Brands Trucking,415 4th Ave Sw,Pipestone,MN,56164,507-825-2754
Wuorio Truck Sales,10816 Ziegler Drive,Brooklyn Park,MN,55443,763-427-4140
A M Trucking,P O Box 1172,Bemidji,MN,56601,218-751-4622
S & S Haugen Truck Lines,1520 Widman Ave,Crookston,MN,56716,218-281-1144
Francis Smith Trucking,175 E Minnesota St Apt 38,Le Center,MN,56057,507-357-6692
J & J Auto Sales,Rr 6 Box 238a,Little Falls,MN,56345,320-584-8264
North Wind Trucking,108 N 63rd Ave W,Duluth,MN,55807,218-391-7553
D H Arens Transfer & Supply,Box 235 Main St,Barry,MN,56210,320-748-7367
Gibson Trucking,1805 East Highway 7,Montevideo,MN,56265,320-269-2127
Morley Trucking,407 S W 15th Street,Forest Lake,MN,55025,651-464-4597
Rob Stier Trucking,74418 Hwy 16 East,Grand Meadow,MN,55936,507-754-5250
Ellison Meat Company,1401 Sioux Drive,Pipestone,MN,56164,507-825-5486
Jim Bloom Trucking,216 3rd St Se,Grand Meadow,MN,55936,507-754-5927
Matson Oil Company,1221 1st Avenue N,Moorhead,MN,56560,218-236-6248
Newayne Transport,317 - 99th Ave West,Duluth,MN,55808,218-626-1942
Winters Trucking,25 Maple Ave,Butterfield,MN,56120,507-956-5206
Olson Truck Service,Main St & S Johnson Sw Corner,Brownsdale,MN,55918,507-567-2622
Hugo Auto & Truck Parts,16615 Forest Blvd N,Hugo,MN,55038,651-429-5420
Steve Sellman Trucking,37815 Park Trail,Center City,MN,55012,651-583-3265
D & D Installation & Service,13918 Knollway Dr S,Minnetonka,MN,55343,952-546-1531
Boone's Enterprises,Route 2,Preston,MN,55965,507-352-6386
G & L Trucking,Hc 1 Box 231,Longville,MN,56655,503-678-1060
Goodhart Trucking,601 West Broadway,Browns Valley,MN,56219,320-695-2200
Gibbs Trucking,Rt # 1 Sherry Drive,Minnesota City,MN,55959,507-689-4210
Goetz Trucking LLC,11850 Co Rd 32,Waconia,MN,55387,952-442-2302
Dean Wind Trucking,Route #2 Box 227 J,Cass Lake,MN,56633,218-335-2015
Koskela Trucking,18977 County # 4,Park Rapids,MN,56470,218-732-9305
Riechers Transport,9625 110th Ave South,Sabin,MN,56580,218-789-7572
Mike Saumer,6559 Raspberry Rd,Pine City,MN,55063,320-420-7216
Christensen Auto Repair,1518 E 13th St,Glencoe,MN,55336,320-864-3764
Todd Nickel Trucking,30376 County Road 1,Mountain Lake,MN,56159,507-877-3304
Kurt Pikop Trucking,25234 230th St,Elbow Lake,MN,56531,218-685-4542
Distribution Dynamics,6450 Carlson Dr,Eden Praire,MN,55342,256-356-2500
Eagle Ag Service,101 Cedar St N,Grey Eagle,MN,56336,320-285-2423
Gady Trucking,7474 County 21,La Crescent,MN,55947,507-895-4285
R & R Trucking,4840 4th Ave,Brookston,MN,55711,218-453-5583
Floyd's Auto,7559 Jamaca Avenue North,Stillwater,MN,55082,651-429-6009
Maus Delivery,4383 Sundby Road,Duluth,MN,55811,218-722-4091
Pat's Field Service,14209 Ash Circle Ne,Prior Lake,MN,55372,952-496-9293
T & E Distributing,9405 Holly St Nw Ste B,Coon Rapids,MN,55433,763-780-5100
Jesme Transport,14422 Riverbend Trail,Theif River Falls,MN,56701,218-681-2398
"Lovegreen Turbine Service, Inc.",8010 Ranchers Rd,Fridley,MN,55432,763-785-0650
H & E Trucking,12655 Hwy 27e,Osakis,MN,56360,320-980-3954
B & R Hellickson Transportation,Rr 3 Box 230a,Spring Valley,MN,55975,507-346-7632
Bravinder Trucking,5636 Oliver Ave Sw,Cokato,MN,55321,320-286-2284
Ron Rosenau Trucking,12614 525th Ave,Cosmos,MN,56228,320-877-7448
Richard L Miller Trucking,14200 110th St,Leroy,MN,55951,507-561-2921
Metzger & Sons Trucking,2137 100th St,Hills,MN,56138,712-478-4691
Anaconda,27056 County Road 21,Terrace,MN,56334,320-304-0433
E & A Distributing,8832 Elliott,Bloomington,MN,55420,952-854-7821
Wewers Tree Spading,15880 Harrow Ave North,Hugo,MN,55038,651-426-5607
Keil Trucking,11558 Hwy 2e,Floodwood,MN,55736,218-476-3087
Classic Horse Transp,Rr 1 Box 283,North Branch,MN,55056,617-753-3742
Colsch Trucking,219 Iowa Ave,Eitzen,MN,55931,507-495-3154
Dmj Trucking,11356 150th Ave,Little Falls,MN,56345,320-632-2866
Falcon Trucking,Rr 2 Box 135,Fertile,MN,56540,218-574-2125
Roger's Auto Sales,211 Howard Street,Edgerton,MN,56128,507-442-3111
Appert's Foodservice,900 South Highway 10,St Cloud,MN,56304,320-251-3200
R D L Trucking,231 Birchwood Terrace,Wyoming,MN,55092,651-462-2835
Ziegler Trucking,136 N Nelson St,Appleton,MN,56208,320-297-0238
Gunderson Trucking,39411 Us Hwy 25e,Fosston,MN,56542,218-668-2854
D H Bebler Trucking,Route 1 Box 127,New Prague,MN,56071,952-873-4581
J & J Trucking,1844 Cherry St Box 142,Mazeppa,MN,55956,507-843-2875
Slegers Bros Trucking,County Road 9,Lake Benton,MN,56149,507-368-4684
Johnson Brothers Farm,2224 190th Ave,Hallock,MN,56728,218-843-2496
Certified Auto Recovery,3555 Enterprise Drive Sw,Rochester,MN,55902,507-285-0929
E J Edin Trucking,4794 Co Rd 61,Moose Lake,MN,55767,218-485-4133
U M A D C O,1743 West County Road C,Roseville,MN,55113,651-631-8499
Anderson Trucking & Excavating,10343 County Rd 17 Se,Delano,MN,55328,763-972-3362
T & B Trucking,Rt 1 Box 186,Spring Valley,MN,55975,507-346-7508
Pozanc Aichele Trucking,29998 Northwood Drive,Winona,MN,55987,507-452-3924
F & M Halverson Trucking,Route 2 Box 38,Shevlin,MN,56676,218-785-2448
Timothy Fox,1724 280th St N,Hawley,MN,56549,218-238-5283
Torgerson Trucking,607 Gateway Drive Ne,East Grand Forks,MN,56721,218-773-2585
Midwest Commodities Of Marshall,601 Ontario Road,Marshall,MN,56258,507-532-2279
Marvin Merkens Trucking,Route 2 Box 71,Ada,MN,56510,218-784-4333
Oak Woods Transportation,2 Willow Lane,Elk River,MN,55330,763-441-5545
F S Transport,529 2nd Street Se,St Cloud,MN,56304,320-253-5837
Gary Reed Trucking,506 East Broadway,Browns Valley,MN,56219,320-695-2413
Mike Babb Trucking,5166 124th St Sw,Pillager,MN,56473,218-746-3760
Jim's Bulk Service,61849 County Road 12,Warroad,MN,56763,218-242-4309
Gage Trucking,Rr 1 Box 46,Marietta,MN,56257,605-987-2496
Dick's Refrigerated Express,Po Box 87,Elkton,MN,55933,800-532-0724
Egeland Trucking,610 6th Street Se,East Grand Forks,MN,56721,218-773-2146
Tomfohrde Trucking,2116-109th Avenue Sw,Byron,MN,55920,507-775-2567
Middlewest Carrier Corp,8844 St Croix Road,Woodbury,MN,55125,651-739-3460
Royal Economy Moving,703 West 5th St,Winona,MN,55987,507-454-2448
Schear Trucking,22861 Cty Hwy 252,Crookston,MN,56716,218-281-7615
Koland Trucking,49014 321st Ave,Motley,MN,56466,218-352-6178
Missouri Farm Drainage,17075 560th Street,West Concord,MN,55985,507-273-9110
R & T Milk Hauling,613 Polk Avenue,Red Lake Falls,MN,56750,218-253-2399
Paul's Trucking,32364 640th Ave,Sargeant,MN,55973,507-584-6666
"Austin Sanitation, Inc.",616 7th St Ne,Austin,MN,55912,507-433-5290
Borgesen Pumping Service,Rural Route 1 Box 225,Kasson,MN,55944,507-289-1668
Cargo Express,2944 Acorde St,St Paul,MN,55109,612-889-2754
Conklin Trucking,1220 - 8th Street Se Lot 34,Detroit Lakes,MN,56501,218-847-1733
Northern Transportation,5347 Old Hwy 61,Proctor,MN,55810,218-624-5089
Yonker Trucking,715 3rd Street,Jackson,MN,56143,507-847-5494
R M T Trucking,23379 130th Street Sw,Euclid,MN,56722,218-281-3586
V F S Transportation,2309 Consul Street,Albert Lea,MN,56007,507-373-7235
Sistad Trucking,64709 Thunder Rd Nw,Grygla,MN,56727,218-294-6223
"Northern States Tower Service, Inc.",6870 Lent Trail,Stacy,MN,55079,651-462-2307
Burns Trucking,30472 330 Ave,Westbrook,MN,56183,507-274-5332
Kopischke Trucking,19204 Us Hwy 169,Lake Crystal,MN,56055,507-546-3389
Donnybrooke Motorsports,4444 Shoreline Drive,Spring Park,MN,55384,952-471-8518
Auto Trans Service,1490 3rd Avenue,Newport,MN,55055,651-459-8931
Direct Consolidation Services,5267 Program Ave,Mounds View,MN,55112,763-785-6226
Lind Trucking,Route 1 Box 15,Oslo,MN,56744,218-965-4891
Tom's Auto Sales,120 West County Road C,St Paul,MN,55117,651-482-8795
Lincoln County,319 North Rebecca St,Ivanhoe,MN,56142,507-694-1813
Mark Blair Trucking,26156 Co Rd 28,Lowry,MN,56349,320-283-5489
Vic Lynne Iii Trucking,8670 Cardinal Road N W,Bemidji,MN,56601,218-751-0531
Beck's Trucking,131 Big Circle,Little Canada,MN,55117,651-483-5812
Independent Pumping Service,229 Lena Ln,Minnesota City,MN,55959,507-452-5658
Truck Used For Farm Use Only,23951 400 Th Avenue Ne,Grygla,MN,56727,218-294-6692
Quibell Trucking,Route 1 Box 44,Kennedy,MN,56733,218-455-6252
J L Murphy Trucking,6737 Seville Road,Saginaw,MN,55779,218-729-7543
Reliable Delivery Service,2822 Atwood Dr,Saint Cloud,MN,56301,320-259-1344
Butch's S Auto & Trucking,16433 117th Ave,Milaca,MN,56353,952-983-3000
Chuck Healey Trucking,501 4 St #5,Courtland,MN,56021,507-235-3792
"Jiffy Express, Inc.",6822 Oneka Lake Blvd,Hugo,MN,55038,651-426-4620
Keith De Groat Trucking,633 241st St,Pipestone,MN,56164,507-734-6407
Harvey Winkelman Trucking,40194 Xeon St Nw,Stanchfield,MN,55080,320-679-5789
Winona Homes,6710 Martina Road,Minnesota City,MN,55959,507-452-2373
Hesse Distributing,46080 194th St,Morris,MN,56267,320-589-4781
Al Nelson Jr Trucking,2511 Falcon Lane,Buffalo,MN,55313,612-590-1647
Hanson Floor Service,9157 Athman Rd,Saint Cloud,MN,56301,320-252-9299
Schad Trucking,Rr #1 Box 60,Plainview,MN,55964,507-534-3228
John's Trucking,3250 Owasso Heights Road,Shoreview,MN,55126,651-486-8155
D K Trucking,Rr 3 Box 125,Detroit Lakes,MN,56501,218-847-8092
Pony Express Truck Lines,10008 Lakeview Rd ,Lake Crystal,MN,56055,507-947-3197
Buy-rite Produce,2075 Ellis Avenue,St Paul,MN,55114,651-645-0250
Chapman Trucking,561 Carrie,Lake Wilson,MN,56151,507-879-3296
Nelson Trucks & Parts,18649 Highway 65 North,Cedar,MN,55011,763-434-5757
C & H Distributing,721 2nd Street Nw,Pipestone,MN,56164,507-825-5139
Pray Trucking,Rural Route 3 Box 57,Parkers Prairie,MN,56361,218-338-0618
B 'n' G Trucking,12240 239th Ave,Elk River,MN,55330,763-241-9688
Jln Trucking,1927 Hartle Ave 1b,Owatonna,MN,55060,507-444-3926
North Country Transport,7129 Irvine Avenue Nw,Bemidji,MN,56601,218-751-7812
"Northstar Rigging & Erecting, Inc.",2554 Como Avenue,St Paul,MN,55108,651-659-0063
Don Chambers Trucking,1007 Fort Rd,Henderson,MN,56044,507-248-3817
Ross Auto Sales,120 N St W,Detroit Lakes,MN,56501,218-847-7857
Brownie's,19435 County Road 131,Detroit Lakes,MN,56501,218-847-8383
Kuchinka Transport,13136 Halstad Avenue,Lonsdale,MN,55046,507-744-2663
Screaming Eagle Transportation,Rural Route 1 Box 569 Cr 64,Mora,MN,55051,320-679-2857
Hedtke Trucking,15191 State Hwy 55 Ne,Belgrade,MN,56312,320-223-2840
E M S,6472 City West Parkway,Eden Prairie,MN,55344,952-944-8543
Abeldgaard Trucking,First St West,Lengby,MN,56651,218-686-6774
Koenigs Trucking,11620 670th Ave,Adams,MN,55909,507-582-3118
Len Van Meer Trucking,13517 Co Hwy 15,Fergus Falls,MN,56538,218-739-2643
Rentz Trucking LLC,12770 111 Ave,Wadena,MN,56482,218-631-4304
Bober Trucking,9783 Hwy 2,Brookston,MN,55711,218-879-2697
Benson Trucking,2000 Lake Avenue Ne,Bemidji,MN,56601,218-751-6058
Severtson Trucking Co,1800 - 1st Ave Ne,Austin,MN,55912,507-432-8598
Mike Kamrath Trucking,76100 440th Ave,Lakefield,MN,56150,507-840-1992
Richie Rich Trucking,302 Bench Street,Taylors Falls,MN,55084,651-465-3203
"Swanson Trucking, Inc.",201 5th St,Walnut Grove,MN,56180,507-859-2661
All American Express,117 9th Ave Se,Rochester,MN,55904,507-281-2131
Mato Aka Hda Iyanka,39411 County Highway 24,Morton,MN,56270,507-644-3380
Mike Stade Trucking,49921 735th Street,Jackson,MN,56143,507-847-5149
J M S Trucking,409 W 7th Ave,Floodwood,MN,55736,218-476-2500
Burr Oak Trucking,P O Box 175,Randolph,MN,55065,507-263-7211
Slininger Trucking,351 Lakehill Dr,Worthington,MN,56187,507-376-4580
Olson Trucking,7 18th Avenue S W,Rochester,MN,55902,507-289-1374
Ron's Auto Parts,Hwy 2 East,East Grand Forks,MN,56721,218-773-2428
K J Lambrecht Trucking,20358 331st Ave,Burtrum,MN,56318,320-547-2342
Gary Smith Livestock Hauling,Rr 1 Box 128,Rose Creek,MN,55970,507-450-4060
Nienaber Trucking,311 4th Street South,Sauk Centre,MN,56378,320-352-2343
R & K Material Hauling,Rr 1 Box 66,Lewisville,MN,56060,507-435-4174
Bock Trucking,Rr 1 Box 381,Twin Lakes,MN,56089,507-852-2283
M D N Trucking,4054 Jay Lane,White Bear Lake,MN,55110,651-653-8175
Tools And More,2525 4th Street Se,Minneapolis,MN,55414,612-362-9751
Bondeson Trucking,2176 397th Ave Ne,Stanchfield,MN,55080,763-286-7244
Hp Trucking LLC,7350 150th Ln Nw,Ramsey,MN,55303,763-370-7343
Bdj Farms,2224 190th Ave,Hallock,MN,56728,218-843-2496
Lawrence Hansen Trucking,901 19th Ave Sw,Austin,MN,55912,507-437-6834
Lazy H Truckin LLC,1035 Petra Ct Sw,Pine Island,MN,55963,612-619-1434
"Mn Logistics, Inc.",4633 Taylor St Ne,Columbia Heights,MN,55421,763-221-5102
"Minnesota Recovery Bureau, Inc.",6781 146th Street,Apple Valley,MN,55124,952-953-7376
Eric Prins Trucking,501 3rd Ave N,Edgerton,MN,56128,507-215-5083
Load To The Road LLC,45 Rolling Hills Dr Se,Elgin,MN,55932,507-951-4916
C & A Trucking,21557 350th St,Bagley,MN,56621,503-607-1088
"Dalal Trucking, Inc.",8625 Columbine Road,Eden Prairie,MN,55344,952-261-8222
Lakeland Express LLC,7225 Guider Dr Apt 122,Woodbury,MN,55125,651-340-7771
W J Trucking,23957 700th Ave,Dassel,MN,55325,320-282-8766
"Worthington Grain & Feed, Inc.",1521 Joosten Road,Worthington,MN,56187,507-376-3153
Owner Operator,2934 Monroe Dr Nw,Rochester,MN,55901,507-421-3680
Kremer Farms,1420 31st,Iona,MN,56141,507-264-3701
"Milbrandt Bros, Inc.",2455 330th Ave,Elmore,MN,56027,507-525-3348
A Church,301 8th Ave Nw,Kasson,MN,55944,507-634-7110
Armstrong Farms,6151 Ne 84th Ave,West Concord,MN,55985,507-527-2703
Dillon''s Lawn Care,235 1st Ave S,Clinton,MN,56225,320-304-1040
Kane & Company,528 North Hood St,Blue Earth,MN,56013,507-236-2028
Tj Lowell LLC,5790 Highlands Trl,Lake Elmo,MN,55042,651-274-6016
King Insulating LLC,624 E Grant St,Caledonia,MN,55921,507-725-8711
"Bill Tierney Sales Associates, Inc.",1377 Interlachen Dr,Eagan,MN,55123,651-683-0100
Industrial Coatings Mn,1250 115th St E,Burnsville,MN,55337,952-955-8140
Kringle Trucking,11659 Quist Ave Sw,Cokato,MN,55321,320-223-0447
Patriot Racing,37312 185 Avenue,Avon,MN,56310,320-339-2485
Sears Hometown Store,303 Main Ave N,Thief River Falls,MN,56701,218-681-4511
Geesapley Enterprise,6551 67th Ave N Apt 305,Brooklyn Park,MN,55428,763-221-9677
Geisler Farm,20495 Downey Rd,Pine City,MN,55063,320-629-5833
Southwest Minnesota Delivery,408 South Hill Street,Marshall,MN,56258,507-337-4455
Olson And Olson Transport,2209 Hunters Point Road Sw,Nisswa,MN,56468,612-237-5860
Cc Farms,6235 Davenport Rd,Princeton,MN,55371,763-389-5680
Eagle Lake Sawing,14148 355th Ave,Battle Lake,MN,56515,121-874-7256
Markgraf Trucking,701 Cedar Ave E,Hector,MN,55342,320-848-6491
Dan Swedberg,25642 Brooks Rd Ne,Blackduck,MN,56630,218-835-7188
Hoogers Farm,2551 120th St,Steen,MN,56173,712-472-3097
Unveiled Wedding Event,711 West Lake Street #609,Minneapolis,MN,55408,612-770-0970
Wilson Brother Trucking,48355 Rediron Rd,Kasota,MN,56050,507-469-9049
Dixon Express,430 104th Lane Nw,Coon Rapids,MN,55448,763-757-4097
D & J Seeds,2605 570th Ave,Kiester,MN,56051,150-729-4340
Scott Haberman Trucking,31470 Cedar Crest Trail Ne,North Branch,MN,55056,651-674-5053
Kobena Trucking,3945 Lancaster Ln N Apt 319,Plymouth,MN,55441,617-384-1293
Minnesota Mudd-ox,36812 Grove Street,Palisade,MN,56469,218-232-3046
Tyler's Farrier Service,656 Stanley Rd,Two Harbors,MN,55616,218-393-4591
Legacy Limousine,1730 Sartell Ave,Eagan,MN,55122,612-282-0198
Rick Motz Services,781 Co Rd 60,Grand Marais,MN,55604,218-387-1926
Grove Lake Transfer,12074 200th St,Glenwood,MN,56334,320-268-3614
Arbor-co Tree Care & Landscaping,310 River Street,Holdingford,MN,56340,320-746-9910
W J Layman Trucking,52767 440th Street,New York Mills,MN,56567,218-385-3413
Huston Land & Cattle,335 60th St Se,Benson,MN,56215,320-815-1981
D & J Express,12820 Sunset Trl,Plymouth,MN,55441,612-363-1459
Hetrick Trucking,401 1st Ave Se,Hayfield,MN,55940,507-251-7577
Rochefort Welding & Grain Systems,6463 370th Ave,Elmore,MN,56027,507-526-5027
Msm Services,1346 30th St S E,Buffalo,MN,55313,612-363-7723
Dbx,8443 Jasmine Ave So,Cottage Grove,MN,55016,651-458-3036
Jim Garvin Trucking,919 South St,Jackson,MN,56143,507-841-2032
Tnt Limo,310 Delana St,Sherburn,MN,56171,517-262-6646
Full Throtle Transport,4281 Hwy 11,International Falls,MN,56649,218-240-1927
Nature Boyz Tree Service,9621 Hilton Road,Little Falls,MN,56345,412-818-7005
Amandas Auto Sales,12250 Afton Ave Ne,Monticello,MN,55362,612-275-1441
Lakes Service Supply,49548 325th Ave,Vergas,MN,56587,218-849-7267
Allways Billiard And Spas,9124 3rd Ave S,Bloomington,MN,55420,651-366-1791
Burl Buhr Construction,34924 State Hwy 34,Detroit Lakes,MN,56501,218-847-9657
Lake Itasca Shuttle Service,54725 Sunset St,Osage,MN,56570,218-573-2216
George's Home Delivery Service LLC,10437 35th St Ne,St Michael,MN,55376,612-207-9864
Mudug Express,1400 2nd St S Apt# B416,Minneapolis,MN,55454,612-483-0936
White Pines Contracting LLC,207 2nd Street,Cass Lake,MN,56633,218-335-2738
Rdr Services LLC,31355 Co 5 Blvd,Lake City,MN,55041,651-345-3780
Rolling Smokehouse Barbeque,3168 70th Ave,Princeton,MN,55371,763-233-9352
Larcrest Holsteins,14368 700th Ave,Albert Lea,MN,56007,507-852-2159
Loucks Racing,2651 Chloe Lane,Carlton,MN,55718,218-310-1771
Parties To Go,3150 Leroy Ave,Hastings,MN,55033,651-437-7324
Osowski Trucking,21733 Lilac Ridge Rd,Viking,MN,56760,218-686-1398
Roettger Welding,12511 40th St N,Stillwater,MN,55082,651-439-3597
Lmc Transportation,1120 5th St Apt 3,St Paul Park,MN,55071,651-261-8544
C&n Farms,2362 Crescent Road,Harris,MN,55032,651-674-1767
Moonlight Magic,1204 Hickory St,Fairmont,MN,56031,507-848-6546
El Torito Mexican Market LLC,2225 Roosevelt Road,Saint Cloud,MN,56301,320-281-5040
Bens Welding,14827 Strand Rd Nw,Shevlin,MN,56676,218-243-3465
Spina Logistics,23698 Stoney Bar Circle,Pelican Rapids,MN,56572,218-863-1033
Essentia Health Medical Equipment & Supplies,4418 Haines Road,Duluth,MN,55811,218-722-3420
Rom Express,9237 13th Av S,Bloomington,MN,55425,952-992-0904
Premier Land Design,3590 Stebner Rd,Hermantown,MN,55811,623-229-7399
Nelson Racing,1935 Iris Drive,Watertown,MN,55388,952-956-4993
Genius Solution Movers,8000 Powell Rd Ste 102b,Hopkins,MN,55343,612-216-2665
Klassen Enterprises,61838 County Rd 12,Warroad,MN,56763,218-386-3506
First Rate Trailers,12355 100th St Sw,Howard Lake,MN,55349,804-436-2509
Midstate Trucking,21392 County Road 34,Eden Valley,MN,55329,320-339-6145
Liberty Exteriors LLC,6320 190thst,Milaca,MN,56353,763-689-5997
Hunter Trucking,5939 Pioneer Rd,St Paul Park,MN,55071,651-459-6231
Hardwood Floors & More,14608 Bridle Ridge Tr,Prior Lake,MN,55372,952-447-6684
G3 Transport,34860 Legrand Ave,Redwood Falls,MN,56283,507-301-2509
Gogo Bistro,40 86th St Nw,Rice,MN,56367,612-239-6953
Cashway Sales,501 9th St Ne,Dilworth,MN,56529,701-371-6588
Aa Transportation Service,4345 Bear Path Trail,Eagan,MN,55122,612-715-1478
Circle T Trucking,15 10th St Ne,Glenwood,MN,56344,575-652-7794
Cj Ponderosa Farms,3895 County Road 1,Fertile,MN,56540,218-945-6966
Da' Brat,3311 Selkirk Dr,Burnsville,MN,55337,612-747-7408
Hanson Goat Ranch,22425 Garden Ave,Wabasso,MN,56293,605-222-7843
Heavy Metal Hauling,30679 650th Avenue,Warroad,MN,56763,218-242-1810
Evening Mowers,12 3rd St Nw,Dilworth,MN,56529,218-979-9503
Allstars General Construction,30720 Hwy 61,Red Wing,MN,55066,715-792-5527
Salmon Forks Outfitters,10519 645th Ave,Eagle Bend,MN,56446,218-738-4761
"Super, Inc.",7866 83rd Court North,Brooklyn Park,MN,55445,612-217-3906
Melin Trucking,8506 Swan Lake Road,Alborn,MN,55702,218-345-6466
Civil Ag Group,41172 695th Ave,St James,MN,56081,507-736-2187
Barneys Trucking,117 S Church Ave,Hills,MN,56138,507-962-3014
Valencia's Roofing,396 Cimarron,Lake Elmo,MN,55042,303-705-1035
William Omalley,2512 County Rd H2,Moundsview,MN,55112,651-274-2138
P A Hoffbeck Outdoor Solutions,3401 Canterbury Drive,Bloomington,MN,55431,952-884-5746
Fresh Start Adult Day Program,1500 1st Ave Ne,Rochester,MN,55906,507-206-0791
Tj Zabel Farm,53361 255th Ave,Plainview,MN,55964,507-534-3245
Tyren Trucking,321 3rd Ave Ne,Aitken,MN,56431,612-655-0070
Jco Hotshot Transport,410 Franklin Ave,Eyota,MN,55934,507-358-6349
Nexxus Trucking,7802 County Road 101 #100,Shakopee,MN,55379,952-224-9980
Xceed Soda Blasting,925 West Branch St Apt 1,Princeton,MN,55371,612-578-6237
2 Dogs Trucking,405 Cimarron,Lake Elmo,MN,55042,763-688-4070
Mclains Auto,5540 County Road 3 Sw,Williams,MN,56686,218-783-3135
Dearing Farms,7823 County Rd 39 Nw,Annandale,MN,55302,320-963-6481
Athletic Performance Solutions,5525 Memorial Ave N 5,Oak Park Heights,MN,55082,651-439-9050
Bnf Transportation,7315 Humboldt Avenue N,Brooklyn Park,MN,55444,770-205-0218
Jason Kotnik,2401 Station 44 Rd,Eveleth,MN,55734,121-875-0701
Becker Livestock,805 3rd Ave,Albany,MN,56307,320-845-2434
Greenway Enterprises LLC,331231st Ave Nw,Saint Francis,MN,55070,612-619-0926
Dragonfly Trucking,15 10th St Ne,Glenwood,MN,56334,320-805-0098
"Cali Delivery, Inc.",2225 10th Ave S #1,Minneapolis,MN,55404,612-876-0358
Longtin Transport LLC,418 E Lyon St,Minneota,MN,56264,507-828-3527
Matco Tools,2711 150th St,Barnesville,MN,56514,701-866-8910
T & G Trucking,1203 Greenhill Drive,Thief River Falls,MN,56701,218-791-5354
Gorilla Buck 212,1300 Oakside Circle,Chanhassen,MN,55317,952-426-2348
"Twin Cities Logistics, Inc.",3920 Valleyview Dr #101,Eagan,MN,55122,952-688-7301
Girard Transport,3849 290th Ave,Cottonwood,MN,56229,507-829-5434
"Vhc, Inc.",1055 Westgate Dr Suite 170,St Paul,MN,55114,651-288-3855
"Chris S Mp, Inc.",1590 Stephanie Circle,Eagan,MN,55121,612-386-0872
Border View Farm,2275 Border View Drive,Hokah,MN,55941,150-748-2621
Base Ventures Shipping,1405 Silver Lake Rd Nw Ste 201,New Brighton,MN,55112,612-276-3504
Arden Lundeen,33734 140th St Se,Oklee,MN,56742,218-796-5640
Thunder Bird Sky Drayage,654 Elm St,Georgetown,MN,56546,218-443-1678
Kimber Livestock & Trucking,207 2nd Ave Se,Bertha,MN,56437,218-639-8806
Dixon Trucking,4023 4th St Sw,Backus,MN,56435,320-808-3701
Alpha Time And Tide LLC,8769 N Maplebrook Circle,8769 N Maplebrook Circle,MN,55445,763-227-9755
R&b Services,1868 Prairie Drive,Centerville,MN,55038,952-292-5307
H & C Trucking,10418 Us 71,Wadena,MN,56482,320-760-2061
Sf Planet,2280 Ventura Dr,St Paul,MN,55125,651-578-2988
Al Munshaw Trucking,5430 Clayton Drive,Maple Plain,MN,55359,651-777-8696
Airport Connect,1821 W University Ave S-213,St Paul,MN,55104,612-362-8888
Dairy Farmer,2071 71st St,Magnolia,MN,56158,507-227-3070
Wiebold Transfer LLC,971 Lacy Ct,Belle Plaine,MN,56011,952-200-6004
Josh Mohs Trucking,41301 County Road 1,Rice,MN,56367,320-309-2109
"Dicks Towing, Inc.",24810 County Rd 4,Nisswa,MN,56468,218-831-5112
Elmi Express,520 Morgan Ave N,Minneapolis,MN,55405,612-481-4000
K & S Transport,8891 Broderick Blvd #124,Inver Grove Heights,MN,55076,952-250-5769
Garage Sale Warehouse,1950 West County Rd C,Roseville,MN,55113,612-390-7497
Yokosato Import Motor,804 First Ave East,Shakopee,MN,55379,952-457-8880
Ziptie Rally Team,8393 Hwy 8,Culver,MN,55779,281-349-8216
"Brusseau Logistics, Inc.",1005 Windcrest Drive Se,New Prague,MN,56071,952-758-4000
River Ridge Express,56700 County Road 23,Millville,MN,55957,507-798-9407
Davis Transmission,529 Concord Street North,South Saint Paul,MN,55075,651-487-0674
Bliss Ford,901 Lyndale Ave N,Faribault,MN,55021,507-334-6478
Finne Transportation,461 Lynnhurst Apt 11,Saint Paul,MN,55104,612-483-0032
Winter Equipment LLC,714 100th Ave,Sherburn,MN,56171,507-236-0903
Dittberner Livestock & Trucking,11470 State Hwy 210,Hewitt,MN,56453,218-924-4006
Sm Concrete & Masonry LLC,4723 560 Th St,Pine City,MN,55063,320-629-6099
We-haul Rv Transport,505 Northwoods Ave Ne,Hutchinson,MN,55350,320-587-6049
Peter Grubish Trucking,2263 Se 68th St,Owatonna,MN,55060,507-456-7502
Earley Farms,25012 Mulligan Road,Wykoff,MN,55990,507-352-2176
T A's Automotive,4554 Chicago Ave S,Minneapolis,MN,55407,612-823-7100
Nanik Trucking,27188 Nanik Drive,Staples,MN,56479,218-639-4690
"Hd Polishing, Inc.",420 33rd Ave South,Waite Park,MN,56387,320-980-4643
Robinson Trucking,107 W Trail Court,Cannon Falls,MN,55009,507-298-1007
Nathan Dixon,8260 10th St Se,Buffalo,MN,55313,763-286-3029
Robbe Fennern Trucking,220 W Dineen,Sanborn,MN,56083,507-227-1405
Mike Bredow,6023 Sunny Lane,Duluth,MN,55811,218-428-7099
Rover Transport,160 Broadway St,Akeley,MN,56433,817-526-0837
"Superior Trucking, Inc.",10673 Terrace Rd Ne,Blaine,MN,55434,763-267-3903
Johndcarrollfarm,600street,Dodge Center,MN,55927,507-635-5543
Granite Transformations,575 Shoreview Park Road,Shoreview,MN,55126,165-177-7760
Skyline Tours LLC,1638 County Hwy 10,Spring Lake Park,MN,55432,763-670-1504
Pj And K Limo Service,25875 101 Street Nw,Zimmerman,MN,55398,612-805-9919
High Caliber Transport,9275 Fawn Lake Dr,Stacy,MN,55079,651-274-2307
Red Barn Kitchen LLC,1616 26th St Se,Rochester,MN,55904,507-421-2892
Advance Seamless,1702 3rd St S,Moorhead,MN,56560,218-979-8927
R & S Timber Express,419 Main St W,Hinckley,MN,55037,612-240-3736
Albert Lea Towing,1010 Ramsey Street,Albert Lea,MN,56007,507-377-8485
Huston Transport & Distribution,1500 29th St Se,Buffalo,MN,55313,612-723-7284
Pederson Trucking,412 Front St Apt #2,Barnesville,MN,56514,701-552-3055
President,2465 Wildwood Ridge,Red Wing,MN,55066,651-775-0264
Chris Miller,214 Silverwood Ave,Marble,MN,55764,121-824-4883
Express Piano Moving,771 2nd Ave Nw,New Brighton,MN,55112,612-644-9715
Trout Run Outfitters,312 Spring St,Preston,MN,55965,507-421-2581
Jarvi Transport,11154 Cr 71 Ne,Nelson,MN,56355,320-852-7084
Hesse Trucking,17213 150th St Se,Red Lake Falls,MN,56750,218-964-5304
G-rock Party Bus,919 Clover Lane,Grand Rapids,MN,55744,218-212-4161
Jeffrey A Reidemann Fisheries,2953 320th Ave Nw,Cambridge,MN,55008,763-689-9671
Steamatic Of The Twin Cities,666 Transfer Road,St Paul,MN,55114,651-481-4991
Kandi Hay,6150 45 Ave Se,Willmar,MN,56201,320-382-6443
Trail Tamer,8399 Coral Sea St,Blaine,MN,55449,763-786-6159
Morris Manufactured Home Service,14577 Buzzle Rd Nw,Pinewood,MN,56676,218-243-2777
Ugs,705 E 4th St,Winthrop,MN,55396,507-647-6600
Ada Trucking,319 W 25th St Apt 3,Minneapolis,MN,55404,612-805-1521
Corporate Rides,515 So Lexington Pkwy #102,St Paul,MN,55116,651-399-6892
"Drive Then, Inc.",510 1st Ave No 800,Minneapolis,MN,55403,612-338-4656
Pasture Managment Services,12151 Norell Ave N,Stillwater,MN,55082,651-439-8478
Micon Trucking,2215 Century Ave S,Woodbury,MN,55125,651-771-3664
Ramada Mall Of America Hotel,2300 American Blvd,Bloomington,MN,55425,952-854-3411
Barts Trucking,206 5th Avenue Se,Baudette,MN,56623,218-202-0476
Cedar Oak Transportation,16865 169th Ave Se,Big Lake,MN,55309,763-263-1836
M & J Transport Of Heron Lake LLC,88370 380th Ave,Heron Lake,MN,56137,507-370-1962
Garrett Transport,218 10th St S,Virginia,MN,55792,218-393-1712
Care A Van,204 South 4th St Nw,Rothsay,MN,56579,218-998-3520
Heavy Metal Trucking,908 1st Street,New Port,MN,55055,651-459-6044
Trevor Schouweiler Trucking LLC,430 North Rice St,Kellogg,MN,55945,507-951-3754
Hanes Truck,32649 County Highway 77,Wadena,MN,56482,218-631-2252
Michael Andrew Anderson,17581 Cleveland St,Elk River,MN,55330,763-441-8218
Lesarge Trucking,5493 Morris Thomas Rd,Hermantown,MN,55810,218-729-5277
Zack's Trucking,4718 Rice Lake Rd ,Duluth,MN,55803,218-722-4581
Mark A Bening,16554 30th St,Brownton,MN,55312,320-328-4220
E & J Trucking,9316 Prestwick Ln N,Brooklyn Park,MN,55443,763-424-8997
Jlt,1441 W 143rd St #312,Burnsville,MN,55306,952-892-5138
"Specialized Carriers, Inc.",938 Lincoln Avenue,St Paul Park,MN,55071,651-755-1509
Flying J Trucking,15161 Edgewater Cr,Prior Lake,MN,55372,952-447-6116
Robert S Lusso Sr,11118 7th St Ne,Blaine,MN,55434,763-754-5572
Armstrong & Son,421 Lakewood Ave,Lake City,MN,55041,651-345-3883
Moeller Farms,Hwy 16 And 63 North,Spring Valley,MN,55975,507-346-2057
Dennis Wacek Trucking,108 E Depue Ave,Olivia,MN,56277,612-812-7921
Kimball Trucking,421 E Mccuen St,Duluth,MN,55808,218-626-1659
Ccg Trucking,9255 - 9th Avenue,New Auburn,MN,55366,320-510-1457
K J & E Properties,4845 Miller Trunk Highway,Duluth,MN,55811,218-727-8811
Thomas Contracting,101 27th Avenue Se,Minneapolis,MN,55414,612-627-9908
Sikorski Bros Farms,30866 110th Ave,Lancaster,MN,56735,218-782-2783
Bawdit Sandell Express,2003 103rd Ave,Braham,MN,55006,320-209-3495
J & P Transport,"Rt. 2, Box 105a",Alden,MN,56009,507-863-2353
Peterson Logging,40735 Co Rd 612,Nashwauk,MN,55769,218-885-1146
"Davinci Solutions, Inc.",1225 Lasalle Ave,Minneapolis,MN,55103,651-487-5884
"Degroat Ffy, Inc.",1547 141 Street,Balaton,MN,56115,507-530-3497
Spitzer's Farm,321 Oak St Se,Browns Valley,MN,56219,218-998-4579
American Mat & Specialty,1600 6th Street Sw,Austin,MN,55912,507-433-8866
Suburban Towing & Recovery,2193 3rd Ave,Newport,MN,55055,651-459-0091
Silverfox Tempest Express,7365 Adair Ct N,Brooklyn Park,MN,55443,612-366-8313
Cdp Excavating,506 Ulstad,Albert Lea,MN,56007,507-383-2040
Nelson's Repair,12602 Sw 72 Ave,Ellendale,MN,56026,507-684-3132
Laney Trucking,19649 190th Ave,Audubon,MN,56511,218-790-3591
Gerad Paur Mobile Technician,293 192nd Street South,Hawley,MN,56549,218-483-3505
"Wojtysiak Construction, Inc.",109 12th Street,Cloquet,MN,55720,218-879-6649
Olson Consrtuction,116 Belleville Ct ,Thief River Falls,MN,56701,218-681-3846
Jl Robinson,12425 Riley Ave,Becker,MN,55308,763-262-9677
J & L Steel Erectors,11621 95th Avenue North,Maple Grove,MN,55369,763-315-4720
"Larry J Larsen, Inc.",501 East 5th Street,Grand Marais,MN,55604,218-387-2994
Mcardell Farms,2736 195th Ave,Mora,MN,55051,320-679-9088
Crowbar Towing,928 East Franklin,Minneapolis,MN,55407,612-490-3434
Northland Caretakers Landscaping,2730 State 6 Ne,Remer,MN,56672,218-566-4444
L & R Escapade,55689 Poplar Rd,Sandstone,MN,55072,320-384-0953
K B H Towing,40611 120th Ave,Holdingford,MN,56340,320-363-4487
Nelson Farms,427 N Main St Apt J,Warren,MN,56762,218-745-5290
Premier Lawn & Landscape,2459 Farrington Circle,Roseville,MN,55113,651-303-3669
Hendricksen Boys,2993 160th Street,Granada,MN,56039,507-236-0561
Amigos Auto Repair & Towing,2812 University Ave Se,Mpls,MN,55414,612-623-1999
Mc Morrison Contracting,2243 103rd Ave,Braham,MN,55006,320-396-3181
Ron Grose Refuse,215 Trestle View Rd,Kenyon,MN,55946,507-789-5439
Passehl Bros,25 1st Ave Ne,Altura,MN,55910,507-796-5708
Precision Van Lines Apartment Pros,4721 18th Avenue South,Minneapolis,MN,55407,612-721-9222
J&s Trucking,23602 Co Rd 17,Preston,MN,55965,507-272-7670
Brad Meyer Construction,13704 722nd Ave,Leroy,MN,55951,507-324-1717
Classic Towing,2609 W 9th St,Duluth,MN,55806,218-726-5962
Mo Line Transport LLC,4250 Rolling Ridge St Se,Rochester,MN,55904,507-202-8086
Brummers Tack Horse And Trailer Sales,2697 40th St Sw,Waverly,MN,55390,463-658-4427
Farxan Ibrahin,1501 Greenhaven Dr,Burnsville,MN,55306,612-554-7959
Allen Trucking,966 1/4 Street Se,Rochester,MN,55904,507-951-8310
St Jude Trucking,780 10th St Nw Apt 305,New Brighton,MN,55112,612-423-0836
Scott's,2053 Co Rd 8,Ghent,MN,56239,507-428-3844
Braton Trucking,16037 210th Street South,Barnesville,MN,56514,218-493-4568
Arc Towing,520 S Broadway St,Jordan,MN,55352,N/A
Onkot Transportation,3040 4th Ave S Suite 5e,Minneapolis,MN,55408,612-223-8092
Hilde Bros Trucking,20032 Hwy 34,Barnesville,MN,56514,218-234-0909
Fox Inspection & Construction,3777 New Brighton Rd,Arden Hills,MN,55112,651-638-9278
The Bus Jockeys,17272 Cty Rd 37 Nw,South Haven,MN,55382,320-286-2337
Sands Repair And Chrome Shop,16048 Hwy 10 Ne,Royalton,MN,56373,320-584-5850
Vasiliy Towing,15600 Iodine Street,Ramsey,MN,55303,612-735-4539
Tillges Ii Excavating & Landscaping LLC,5122 30th Street West,Webster,MN,55088,952-469-3979
Elko Trucking,820 3rd Avenue - Apt #106,Excelsior,MN,55331,952-474-1935
J & J Transport,207 North 6th Street,Henderson,MN,56044,612-685-4043
Glessing Trucking LLC,11573 78th St Sw,Howard Lake,MN,55349,320-543-3707
C&t Transport,4995 Dover Trl,Faribault,MN,55021,507-291-6197
Schlueter Trucking,28514 Co Hwy 73,Deer Creek,MN,56527,218-462-2473
G & R Enterprises,302 8th Avenue N,Saint James,MN,56081,507-304-3909
Tow-pros,718 4th St,Proctor,MN,55810,218-428-7870
Sunrise Towing,33497 Malmberg Ave,Lindstrom,MN,55045,651-257-7283
Double Trouble,180 9th Ln Se,Dover,MN,55929,507-208-6286
K & K Enterprises,19251 Wells Lane,Jordan,MN,55352,952-492-6775
North Shore Towing And Recovery,3414 Riley Rd,Duluth,MN,55803,218-428-4003
Lundberg Bros,2052 190th St,Kennedy,MN,56733,218-674-4463
Rv Doctor,17153 County Hwy 82,Fergus Falls,MN,56537,218-531-0182
Jn Express,1601 East Cliff Road Suite 308,Burnsville,MN,55337,952-261-1475
Option One Trucking,211 Lillie Ave,Roscoe,MN,56371,320-219-3091
James Dubiel Trucking,1025 North Circle Ne,Fridley,MN,55432,612-729-7478
Seric Logistics,336 Labore Rd,Little Canada,MN,55117,651-707-2548
Jr Anderson Racing,8 Juniper Lane,Duluth,MN,55810,218-391-5027
Ellingson Farms,150 60th St Sw,Benson,MN,56215,320-843-2359
Circle H Trucking,202 S 4th St,Beaver Creek,MN,56116,605-460-0101
Exterior Companies,6360 205th Ct N,Forest Lake,MN,55025,651-248-1673
Hoffman Scraping,216 Burnside Se,Sleepy Eye,MN,56085,507-227-0307
Homecraft,40195 Paradise Drive,Browerville,MN,56438,218-838-6757
Wulf Motorsports,22700 Pine Trail,Lakeville,MN,55044,952-469-9433
Sealmaster,530 Cleveland Ave N,St Paul,MN,55114,651-647-9275
Sei,7995 Main Street Ne,Fridley,MN,55432,612-298-9458
Austin Trucking,230 Beech St E,Trimont,MN,56176,715-202-0234
El Rey Azteca LLC,3717 S 5th,Minneapolis,MN,55409,612-282-2841
M & M Handyman Services,2091 Terrace Drive,Mounds View,MN,55112,612-750-3598
Meyer Farms,180th Ave Sw,Clara City,MN,56222,320-894-9272
Stine Seed,18 Riverview Rd,Mantorville,MN,55955,507-251-0677
Imb Distribution,8301 Grand Ave South #100,Bloomington,MN,55420,952-253-1982
S & J Trucking,21648 State Hwy 29,Henning,MN,56551,218-639-0749
"Resource Recovery, Inc.",3920 Neal Ave S,Afton,MN,55001,612-747-2740
Ernest Jr Trucking,1107 N Lake St,Fergus Falls,MN,56537,218-205-1988
D & G Trucking,34576 555th Avenue,Warroad,MN,56763,218-386-9428
Rod Storey Trucking,58633 County Road 13 Lot #110,Warroad,MN,56763,218-242-3710
Jtc Transportation,14556 Endicott Ave Nw,Clearwater,MN,55320,623-703-3817
Dam Trucking,601 Jamie Circle Sw,Saint Michael,MN,55376,763-438-4495
Presidential Auto Recovery,3246 N 2nd St,Minneapolis,MN,55412,612-296-1282
Alstate Peterbilt Of Mankato,2265 Howard Drive West,North Mankato,MN,56003,507-388-9312
Hassig Trucking,75 1st Ave Ne,Elgin,MN,55932,507-273-0643
Ls Logistics,70 Interlachen Lane,Excelsior,MN,55331,952-401-3977
St Croix Training Center,16355 25th St S,Lakeland,MN,55043,651-436-2414
Steve Pederson Trucking,50438 50th Ave,Kenyon,MN,55946,507-951-7369
Isaks Auto Sales,330 E Sharon Street,Le Center,MN,56057,507-380-9743
Pete's Auction & Photo,25664 Cty 5,Wykoff,MN,55990,507-352-4162
Mr Electric Of The Northwoods,25329 Alvwood Rd Ne,Blackduck,MN,56630,218-835-7396
J And M Grian Bin Services,1009 Weston Ave,Saint James,MN,56081,515-290-9001
Tlu Trucking,80371 320th St,Ellendale,MN,56026,507-256-7754
Bluebird Gardens,26060 County Hwy 18,Fergus Falls,MN,56537,218-205-4739
Games2u,9161 Rich Valley Blvd,Inver Grove Heights,MN,55077,651-454-1451
Billy Bus,19678 Lee Lake Rd,Lake Park,MN,56554,701-866-1580
Sharif Brothers,2022 Park Ave So Apt 301,Mpls,MN,55404,651-307-7429
Kiss's Autobody And Frame Shop,695 7th Ave,Newport,MN,55055,651-459-0329
Twin Cities Car Service,921 20th Avenue Ne,Minneapolis,MN,55418,952-941-7000
J Evers Farms,57451 County Road 17e,Comfrey,MN,56019,507-877-6802
Cc&s Carrie's Cleaning & Services,6468 Riverdale Drive Nw,Ramsey,MN,55303,763-427-2586
Dw Trucking,14855 166th St,Spring Valley,MN,55975,507-259-7808
Manomin Resawn Timbers,15152 Freeland Ave,Hugo,MN,55038,651-464-1771
Nelson Family Trucking LLC,266 Great Divide Rd Nw,Bemidji,MN,56601,218-243-2495
Ps Indian Style Tacos,713 Lake Ave,Worthington,MN,56187,507-376-5736
J White Farms,50081 200th Street,Morris,MN,56267,320-589-3512
Fastline Delivery,4167 Jordan Ave N,New Hope,MN,55427,612-817-8138
Daniel Christiansen Custom Carpentry,4521 Rice Street,Shoreview,MN,55126,864-979-2781
Point B,8400 Normandale Lake Blvd #920,Bloomington,MN,55437,952-233-0747
D&m Over The Road,216 Elm St,Claremont,MN,55924,507-990-2193
Lawn Care,8200 Zenith Ave S,Bloomington,MN,55431,952-835-1209
Pause Training Service,1211 34th Ave S,Moorhead,MN,56560,218-233-8280
Broulik Farms,1751 138th St Se,Blooming Prairie,MN,55917,507-583-2602
Farming,75790 375th Ave,Lakefield,MN,56150,712-330-6340
Dick Booth Trucking,1111 Ford Rd,Newport,MN,55055,201-230-0783
Solum Painting LLC,4037 2 1/2 St S,Moorhead,MN,56561,701-361-8106
Stemper Brothers,11320 County 3,Caledonia,MN,55921,507-724-3294
Dads Transportation,42569 450th Street,Perham,MN,56573,218-841-0013
Dessco Trucking,202 22nd Ave N,Minneapolis,MN,55411,612-871-5244
Tei,10100 Viking Drive Suite 200,Eden Prairie,MN,55344,952-258-0220
Cottage Treasures,21681 310th Avenue,Isle,MN,56342,763-767-0906
Loock's Total Performance,32981 Knox Ave,Redwood Falls,MN,56283,507-641-5610
Bouthilet Racing,10559 Manning Avenue North,Stillwater,MN,55082,612-723-4311
Home Care Specialists Care A Van,101 E Howard St,Hibbing,MN,55746,218-262-4117
Bushman Farms,1276 180th St,Lake Benton,MN,56149,507-220-1753
Kathryn Stephan,26564 Saint Croix Road,Pine City,MN,55063,320-629-7163
Empty Pockets Holsteins,18928 Mn Hwy 4,Grove City,MN,56243,320-857-9444
Francis Family,4364 204th Street East,Faribault,MN,55021,507-838-8250
River View Farm,45303 595th Ave,Sebeka,MN,56477,218-544-0010
Reed Truckin,821 Reserve Ave,Thief River Falls,MN,56701,218-689-1147
Healthcare Resources Group Transportation,14573 Grand Ave,Burnsville,MN,55306,952-432-4020
Proside Exteriors,415 2nd St Se Cokato Mn 55321,Cokato,MN,55321,651-592-1772
"Tobe Carrier, Inc.",423 33rd Ave N #3,Saint Cloud,MN,56303,651-361-9226
"Delong Trucking, Inc.",302 Pennington St E Box 172,Goodridge,MN,56725,218-378-4594
Homefront Trucking,33176 325th Ave,Utica,MN,55979,507-421-7005
Stoen's,16084 State Hwy 29,Glenwood,MN,56334,320-634-4360
Universal Services,4122 Queen Avenue North,Minneapolis,MN,55412,612-239-8835
Above All Expediting,15054 Davenport St Ne,Ham Lake,MN,55304,763-226-5980
Flbrothers Transportation LLC,9300 Old Cedar Ave S #221,Bloomington,MN,55425,952-686-1816
Kia Of St Cloud,901 2nd St S,Waite Park,MN,56387,320-259-4542
Universal Trucking Solutions,7737 Vincent Ave N,Brooklyn Park,MN,55444,517-507-0612
Saurdiff Farms,45943 Dalos Rd Nw,Grygla,MN,56727,218-294-6402
