Company Name,Street Address,Address Locality,Address Region,Postal Code,Telephone
Shekinah Express,152 Flowers Rd,Pope,MS,38658,662-578-7552
Brown Trucking,90 Lehr Crossing Road,Tylertown,MS,39667,601-876-4557
G & S Transport,8507 Highway 492,Union,MS,39365,601-616-0983
Travis Johnson Trucking,5649 Grove Lane,Horn Lake,MS,38637,662-781-3255
Rci LLC Chandler Industries,2306 Memorial Circle,Flora,MS,39071,601-750-3688
Draper Trucking,3671 Alderson Rd,Dundee,MS,38626,662-519-1606
Clint Tindall Farms,918 Shaw Road,Eupora,MS,39744,662-258-8609
J M K E Farms,1037 State Road 355,Etta,MS,38627,662-419-4440
Jenkins Trucking,801 Old Hwy 49 South,Richalnd,MS,39218,601-940-5290
Bear Trucking,149 Lehr Crossing Rd,Tylertown,MS,39667,601-876-5171
J E Hf Express,149 Cr 14,Paulding,MS,39348,601-787-4711
Juan Auto Repair,6134 Hwy 80 East,Morton,MS,39117,601-732-2223
C&j&k Transport,177 Pecan St,Rolling Fork,MS,39159,662-873-0451
Charles Walker Jr C & K Trucking,1016 Hall Lane,Hazlehurst,MS,39083,601-894-1950
B G Trucking,11040 Old Port Gibson Road,Hazelhurst,MS,39083,601-277-3316
Lawaski Trucking Company,203 Field Street,Shaw,MS,38773,662-754-4376
Jackson Trucking,1086 Byrdtown Road,Hazlehurst,MS,39083,601-894-6690
Williams Trucking Of Pontotoc,1418 Toxish Rd,Pontotoc,MS,38863,662-419-5265
2 Southern Men & 1 Truck,3843 Highway 82 West,Greenville,MS,38701,662-334-1248
Gann Trucking,5 Cr 40,Dennis,MS,38838,662-397-7720
Bris Trucking,629 Hwy 98 West,Tylertown,MS,39667,601-876-9849
Williamson Trucking,8 Serenity Lane,Ellisville,MS,39437,601-323-3915
Easterling Trucking,26160 Broad Ridge Dr,Picayune,MS,39466,228-342-4113
Waltrez Transport LLC,985 A Eureka Rd,Batesville,MS,38606,662-563-9505
Tdj Trucking,1104 Garrard Ave,Indianola,MS,38751,502-310-9440
C & E Trucking,497 Mary Grove Church Rd,Mendenhall,MS,39114,601-969-1764
Taylor Transportation,5925 Waverly Dr,Horn Lake,MS,38637,662-393-5504
Chance Trucking,14-1 Tortoise Ridge,Hattiesburg,MS,39401,601-434-9361
Southward Trucking,171 Colt Lane,Guntown,MS,38849,662-348-2762
J And D Trucking Of Ms LLC,25 Robinson Rd,Eupora,MS,39744,662-341-0110
D & H Transportation Co,306 Mcintyre,Natchez,MS,39120,504-246-7255
D & D Transporting,21020 Deerwood Rd,Kiln,MS,39556,228-493-0352
Mt Trucking,210 Sundown Trail,Jackson,MS,39212,601-372-8909
Pugh Trucking,266 North Pine Street,Brooksville,MS,39739,662-738-4718
Bradys Transport LLC,27305 Hwy 8e,Grenada,MS,38901,662-230-3567
Hall's Trucking,369 Beamon Road,Forest,MS,39074,601-469-5023
Santa Fe Express,17777 Second St,Saucier,MS,39574,601-218-6734
Powell Trucking,5957 Scr 540,Raleigh,MS,39153,601-382-3137
B G & N Farms,102 Tuscohoma St,Holcomb,MS,38940,662-230-2010
K S Transportation,9100 Cottonwood Cove,Olive Branch,MS,38654,901-647-2594
R&w Trucking,28484 J P Ladner Rd,Pass Christian,MS,39571,228-255-0983
Joe's Heavy Hauling,4153 Hwy 48w,Mccomb,MS,39648,601-684-7832
Mcgill & Sons Trucking,257 A Dan George Rd,Mendenhall,MS,39114,601-847-2632
G-force Trucking,5545 W Stateline Rd,Walls,MS,38680,901-301-3804
Williams Farm Trucking,11680 Old Hwy 61 South,Dundee,MS,38626,662-357-8203
Dj Bolin Trucking,925 Cheney Road,Thaxton,MS,38871,662-419-8011
Curbside Plus Delivery,111 E Lakewood Dr,Hattiesburg,MS,39402,601-307-6424
Mcrae Trucking,2091 Thomas-lang Road,Dekalb,MS,39328,601-486-3040
Slo Rollin Express,803 Eagles Nest Drive,Bryam,MS,39272,601-371-1902
Taylor Trucking,117 North Cedar Street,Forest,MS,39074,601-507-6857
A&a Trucking,5869 W Homochitto Rd,Crosby,MS,39633,601-639-7474
Alford Trucking,1480 Hwy 13 N,Morton,MS,39117,601-507-5096
Delozier's Trucking,825 Mccall Creek Rd Ne,Mccall Creek,MS,39647,601-835-1371
K N P Trucking,1301 Hwy 198,Beaumont,MS,39423,601-336-7800
Double M Express,2787 Pruitt Rd,West Point,MS,39773,662-494-4744
Reynolds Express,2819 Old Hwy 3,Yazoo City,MS,39194,662-590-7033
Lynn-dale Trucking,2810 Rocky Ford Rd,Pontotoc,MS,38863,662-489-4045
E & S Trucking,423 Stebbins St,Greenville,MS,38701,662-537-4587
A & J Auto Transport,209 Kings Ridge Cove,Brandon,MS,39047,601-720-1411
Tc's Trucking,414 Old Wesson Rd Lot 24,Brookhaven,MS,39601,601-431-0800
Cbjk Trucking,1136 Old Camp Rd,Poplarville,MS,39470,601-365-9282
Gbl Transportation,305 Angie Street,Houston,MS,38851,662-610-8049
Holliday Trucking,211 County Road 1212,Bay Springs,MS,39422,601-342-9355
Woodall Trucking,450 Bibbs Rd,Batesville,MS,38606,662-934-6524
Xcellent Transport Service,5905 Hwy 13,Lumberton,MS,39455,601-310-4097
M & M Services,51 Cr 864,Dennis,MS,38838,662-454-3128
Eagles Way Transport,1528 N Pumping Station Rd,Ovett,MS,39464,601-344-4515
Ferrills Trucking Service,21061 Forest Lee Rd,Picayune,MS,39466,228-342-6294
Robinson Trucking Company,75 Roseland Forest,Natchez,MS,39120,601-304-4063
T L Trucking,4575 Hwy 43,Silver Creek,MS,39663,601-886-9959
Bmb Trucking,914 Main Street South,Mendenhall,MS,39114,601-668-5853
C & N Trucking,312 East South Street,Merigold,MS,38759,662-588-3428
Me & My Brothers Trucking,1976 Hwy 503,Paulding,MS,39348,601-727-2149
K & J Trucking,289 Cr 5091,Booneville,MS,38829,662-728-5298
Holmes Transport,802 Walnut St,Braxton,MS,39044,601-946-9893
D & W Trucking,1926 Old 80 Road,Lawrence,MS,39336,601-775-8168
B&s Trucking,113w Cherry Street,Shannon,MS,38868,662-231-2268
Page Trucking,3119 Dogwood Avenue,Laurel,MS,39440,601-342-6476
Danny Beauchamp Auto & Wrecker,2134 Market St,Pascagoula,MS,39567,228-769-5020
Hopson Trucking,10891 Woods Rd,Meridian,MS,39305,601-917-0153
Landing Transportation,363 Shelly Rd,Mendenhall,MS,39114,601-849-3804
Pjl Transportation,125 Syder St,New Albany,MS,38652,662-534-7745
Triple D Trucking,1101 Mitchell Lane,Crystal Springs,MS,39059,601-892-8770
Mark L Williams Trucking,1645 Busy Corner Rd,Gloster,MS,39638,601-225-4698
Granger Trucking,711 Binnsville Road,Scooba,MS,39358,662-476-8356
Phillips Trucking,1103 Fortenberry Circle,Mccomb,MS,39648,601-810-1047
J And R Trucking,3451 Glenwood Dr,Nesbit,MS,38651,901-359-5051
Tst Transport,57 Patterson Lane,Golden,MS,38847,256-577-0362
Taylor B Trucking,1096 Cypress Dr,Tunica,MS,38676,662-393-3213
B & E Trucking,127 N 2nd St,Roxie,MS,39661,601-828-9983
Jana L Lann,30011 Clay Hill Road,Nettleton,MS,38858,662-322-4015
Johnson Trucking,403 Willow St,Sandersville,MS,39477,601-428-8570
Herrington Trucking,339 Smith Cr 53,Mt Olive,MS,39119,601-849-4017
H B Trucking,361 Little Creek Rd,Beaumont,MS,39423,601-753-2029
Valley Transport,40 South Main Street Apt #30,Water Valley,MS,38965,662-417-3602
Frost Trucking,23 County Road 106,Tishomingo,MS,38873,662-660-6516
Hunter's Trucking,1675 Faulkner Grace Yard Road,Morton,MS,39117,601-519-7630
Kincaid Trucking,109 Hall Rd,Forest,MS,39074,601-625-7635
Jm Trucking,299 Blackcreek Rd,Columbus,MS,39705,662-422-1320
Kjtrucking-simpson Trucking,1286 Hwy 3,Sunflower,MS,38778,662-207-9587
Mike Trucking,1207 Schley St,Itta Bena,MS,38941,662-299-7828
Southern Oilfield Service,Highway 184 East Gerald Williams Drive,Laurel,MS,39440,601-649-4748
Terrell Trucking,1901 Ford Road,Terry,MS,39170,601-966-0532
Clark Trucking,1093 Henry Dr,Tunica,MS,38676,901-273-5448
Rusty Lamb Trucking,395 Parker Rd,Pope,MS,38658,662-809-0996
Parker Enterprises,1817 Shell Oil Rd,Brandon,MS,39042,601-845-7705
Cc&c Trucking,42 Jordan Drive,Collins,MS,39428,601-765-2731
Johnson Brothers Trucking,432 Dock Gator Road,Meridian,MS,39326,601-480-8690
Reids Dozer Service LLC,3629 Primitive Dr Se,Ruth,MS,39662,601-734-2623
Stell Trucking,1569 Seminary Mike Conner Road,Seminary,MS,39479,601-466-1954
J-steele Trucking,332 County Road 182,Bay Springs,MS,39422,601-764-2733
Harris Trucking,4691 County Road 150,Stonewall,MS,39363,601-659-7362
Flat Broke Trucking,5026 Morton Marathon Rd,Pulaski,MS,39152,601-988-2515
Eric Thomas Trucking,80 Otis Trl Sw,Bogue Chitto,MS,39629,601-551-0326
Ht&t,2798 Lake Lowndes Rd,Columbus,MS,39702,662-328-8294
L&n Freight Services,4231 Tela Dr,Moss Point,MS,39563,228-219-8553
Mosley Trucking,1076 Wilkins Chapel Rd,Holly Springs,MS,38634,662-252-7782
5h Truckiing,176 Iris St,Greenville,MS,38701,662-332-1571
B & G Trucking,15252 River Rd,Natchez,MS,39120,601-446-6416
R Lyons And Son Trucking LLC,163 Leetown Rd,Lumberton,MS,39455,601-796-2296
Keyline Transportation,9119 Conrad Drive,Olive Branch,MS,38654,662-892-8166
R & R Transport,1150 Bartlett St,Laurel,MS,39440,601-649-1279
G & L Trucking,4920 Hwy 569 N,Liberty,MS,39645,601-657-4659
R & R Trucking,4734 Nash Rd,Gloster,MS,39638,601-341-3342
Dixon Trucking,1180 Craft Rd South,Hernando,MS,38632,662-893-6748
Smith Trucking,1084 Larry Rd,Mccomb,MS,39648,601-680-0170
Town & Country Delivery Services,104 Longstreet Ave,Macon,MS,39341,601-513-3382
Steve's Trucking Co,2105 A St,Meridian,MS,39301,601-693-6077
Bollinger Farms,121 County Road 130,Bruce,MS,38915,662-414-0794
Guaranteed Transportation Services LLC,222 East South Street,Merigold,MS,38759,662-703-0564
Lacy's Trucking Company,236 Buckatunna Mt Zion Road,Buckatunna,MS,39322,601-648-2444
Nautiknight Transport,12433 Cypress Creek Cove,Biloxi,MS,39532,228-324-8585
Mcgowan Trucking & Farm,96 Darbun Rd,Jayess,MS,39641,601-876-4270
Story Trucking,710 Blue Mountain Road,Ripley,MS,38663,662-882-3616
G J Robinson Trucking,114 A New Galilee Rd,Mendenhall,MS,39114,601-867-3771
A & B Trucking,201 Brinkley Lane,Batesville,MS,38606,662-563-5825
66 Bks,117 Vercon Circle,Brandon,MS,39042,601-291-0537
Ice Water Trucking,1462 South Colorado Str Apt 11d,Greenville,MS,38703,662-303-4880
Hac Trucking,379 Cedar Heights Dr,Pope,MS,38658,662-578-9916
W C James Trucking,36 Rawls Drive,Hattiesburg,MS,39402,601-579-2916
Galbo Trucking,211 Cotton Wood St,Picayune,MS,39466,601-569-6678
Nobles Trucking,33 Triple H Rd,Ellisville,MS,39437,601-477-9950
Bws Transport,35590 Hwy 63 North,Richton,MS,39476,601-989-2014
Jackson Trucking,2802 Nina Drive,Picayune,MS,39466,601-347-9461
D And B Reddick Trucking,30210 Chapel Grove Rd,Okolona,MS,38860,662-422-1818
Whopper Stopper Transportation,111 El Hall Trail,Bassfield,MS,39421,601-325-4485
Ingram Trucking,1145 Woodlea Drive,Yazoo City,MS,39194,662-571-3218
Dyess Trucking,14447 Cemetary Road,Gulfport,MS,39503,228-832-3475
Jr Transportation Services,2284 Salem Rd,Senatobia,MS,38668,N/A
Jv Transportation,7927 Davis Parkway,Southaven,MS,38671,901-831-4634
Gibbs Trucking,1843 Congress St,Laurel,MS,39440,601-619-4188
Magnola Tours,4081 34th Ave,Meridian,MS,39305,601-482-1149
Unique Transportation,6931 Church Avenue,Potts Camp,MS,38659,888-503-3271
Dba R & R Trucking,122 County Road 405,Corinth,MS,38834,662-284-0926
Smith Trucking,181 Coleman Rd,Carriere,MS,39426,601-916-0344
Lrg Trucking,162 Serene Hills,Hattiesburg,MS,39042,601-466-5642
R Mcgreger Trucking,2265 Highway 178,Blue Springs,MS,38828,601-265-9280
Johnson Enterprises,162 Henderson Rd,Corinth,MS,38834,662-287-2780
L & P Chesser Trucking,1290 Mt Pilgram Rd,Camden,MS,39045,662-468-0329
Thomas Express,216 Rising Sun Circle,Greenwood,MS,38930,662-374-1882
Skeeters Trucking Company,948 Beckham Road,Pontotoc,MS,38863,662-489-2753
Tfp Trucking,2315 Cr 39,Paulding,MS,39348,601-670-0734
Anderson Trucking,10 Babin Lane,Natchez,MS,39120,601-446-5636
L S R Contractor,2713 Cr 615,Shubuta,MS,39360,601-687-6891
Hays Farms,8755 Ridge Road,Caledonia,MS,39740,662-356-4379
Lm Trucking,510 Winona Road,N Carrollton,MS,38947,313-971-5111
E Pickett Trucking,6764 Hwy 513,Stonewall,MS,39363,601-616-4976
Pittman Mobile Home Movers,223 New Hope Rd,Sandy Hook,MS,39478,601-736-4704
C&j Trucking,17091 Hwy 19 N,Philadelphia,MS,39350,601-656-5055
S & S Trucking,404 Hill Top Drive,Raleigh,MS,39153,601-507-8691
Youngblood Trucking,12 Morris Smith Lane,Centreville,MS,39631,601-645-5493
L A S T,801 Cypress Ave Apt 10b,Greenwood,MS,38930,662-962-4298
Tnt Trucking,515 Liberty Rd,Gloster,MS,39638,601-551-7445
Nations Trucking,2591 Heucks Retreat Rd Ne,Wesson,MS,39191,601-823-9095
Mcm Transport,2655 County Road 14,Minter City,MS,38944,662-374-6984
Ms Hauling,95 Bonner Rd,Enid,MS,38927,662-458-0173
Kennedy Trucking,2206 16th Avenue,Gulfport,MS,39501,228-861-3499
Mm&d Trucking,3131 Littlerock Road,Crystal Springs,MS,39059,601-955-2406
Sr Trucking,1005 Claude Watts Lane,Crystal Springs,MS,39059,601-382-4201
Lowrance Trucking,6029 Berretta Cove,Southaven,MS,38671,901-606-4485
Triple Nickel Truckin,247 George Street,Brandon,MS,39042,601-506-7865
Tucks Transport,21565 Saucier Lizana Rd,Saucier,MS,39574,228-263-0953
Southern Transport,Mill Creek Rv Park 70 Ten Mile Rd. # 17 ,Perkinston,MS,39573,337-348-2705
Advanced Disposal,4340 Milwaukee Street,Jackson,MS,39209,601-922-9339
Keyes Trucking,932 Springwater Ranch Rd,Brandon,MS,39042,601-825-1610
Ezo Hot Shots,4066 Harmony Road,Crystal Springs,MS,39059,601-892-6333
Mama's Trucking,140 Old Creek Rd,Picayune,MS,39466,601-916-5253
Hines By Design,404 W Meadowbrook Drive,Brookhaven,MS,39601,601-754-1813
Williams Trucking,1050 Crystal Hill Lane,Crystal Springs,MS,39059,601-754-5415
M & H Farms,10052 Hwy 6 W,Batesville,MS,38606,662-934-3303
Jonathan Shorters Trucking,835 S Colorado St,Greenville,MS,38703,662-822-6881
Andre Maurice Cooper Sr,425 Beasley Rd Apt H-4,Jackson,MS,39206,662-607-1811
Livingston Transporters,510 North 38th Ave Apt 47,Hattiesburg,MS,39401,601-441-9888
Owner Operator,620 Hwy 9 N,Bruce,MS,38915,662-983-2472
Mcdaniel Trucking,313 Pluck,Belzoni,MS,39038,662-207-0848
Sc Auto Repair And Towing LLC,4659 Van Winkle Park Dr,Jackson,MS,39209,601-922-3000
Sharp's Welding Service,9127 Augusta Road,Moss Point,MS,39562,228-475-4171
H & J Trucking,176 Cr 534,Rienzi,MS,38865,662-462-5063
Uga,518 South High School Avenue,Columbia,MS,39429,601-736-4884
Kdj Transport,1012 S Lakebreeze Dr,Hickory Flat,MS,38633,662-988-2448
Cox Enterprise,50 A N Windridge Lane,Purvis,MS,39475,404-593-5789
Cox Transport Co,2082juniperdr,Biloxi,MS,39532,N/A
Shaw Trucking,201a Collier Rd,Leland,MS,38756,662-379-3386
A & B Trucking,1186 Rosemary Road,Terry,MS,39170,601-405-4311
T & B Trucking,3055 Lakewood Drive,Jackson,MS,39212,601-238-8202
B & G Transport,86 Brandon Bay Road,Tylertown,MS,39667,601-876-9115
P & O Trucking,1452 Dickens Lane,Crosby,MS,39633,601-225-7322
Jones Trucking,150 Cemetary Lane,Woodville,MS,39669,601-888-7188
Lark Trucking,5733 Lucious Taylor Rd,Como,MS,38619,662-209-1320
T Neely Trucking,1802 Texas St,Leakesville,MS,39451,601-394-9406
E B E Transport,2260 Gates Road,Bassfield,MS,39421,773-969-0106
B L Henry Trucking,390 Cr 113,Water Valley,MS,38965,769-218-0289
Bryant's Logistics,1605 Griggs Rd,Meridian,MS,39301,601-527-4438
Fifteen Trucking,6441 Highway 53,Poplarville,MS,39470,601-795-1513
Mclaurin Trucking,144 Robert Owens Rd,Mount Olive,MS,39119,601-447-5386
Jo's Trucking,153 Whispering Pines Rd,Crawford,MS,39743,662-275-0555
Taylor Trucking,14702 Hwy 72,Ashland,MS,38603,N/A
Thompson Transportation,103 W Cherry St,Shannon,MS,38868,662-767-3763
B & N Transport,101 Curly Seal,Picayune,MS,39466,601-798-6886
L & L Trucking,809 Mulberry St,Vaiden,MS,39176,662-392-3831
Debbie & Dan's Trucking,18189 Hwy 49,Saucier,MS,39574,228-224-6376
Wds Trucking,1854 Martin Lake Road,Isola,MS,38754,662-207-8523
A R Allen Trucking,1100 Cowan Rd,Gulfport,MS,39507,122-822-9985
Double K Trucking,110 Gerald Street,Leland,MS,38756,662-820-4356
Bass Trucking,4823 29th Street,Gulfport,MS,39501,228-669-1341
D & G Transportation,2656 Hwy 61 S,Woodville,MS,39669,601-888-3490
Davis Trucking,589 Singley Rd,Columbia,MS,39429,601-736-2360
Dogwood Trucking,11055 East Dogwood Dr,Gulfport,MS,39503,228-832-8429
David Dearman Autoplex,1510 West Pine Street,Hattiesburg,MS,39401,601-545-9555
Spearman Trucking LLC,1107 Sunset Drive,Grenada,MS,38901,662-294-8961
Empire Equipment,14610 Hwy 6,Thaxton,MS,38871,662-419-1376
Mjr Trucking,116 Nichols Blvd,Senatobia,MS,38668,662-562-6625
T & S Hot Shot,1875 Columbia Purvis Road,Columbia,MS,39429,601-674-1092
E & R Enterprise,98 Mattie Dr,Byhalia,MS,38611,662-850-0140
Lh Francois Trucking LLC,865 Serville Dr,Jackson,MS,39206,601-982-2196
Cox Trucking,80 Cr 218,Coila,MS,38923,662-897-9643
Pilate Transports,150 Roanoke Circle,Columbus,MS,39705,662-352-3488
Tippah Auto Movers,1390 Cr 312,Tiplersville,MS,38674,662-223-8993
Ml Brown Trucking,3706 47th Street,Meridian,MS,39305,601-513-0066
C & C Pryor Trucking,1220 6th Street,Marks,MS,38646,662-326-0493
Mann's Trucking,869 Highway 4 East,Booneville,MS,38829,662-650-0189
Ray's Rv Transport,6 Del Ray Dr,Poplarville,MS,39470,601-795-7279
Rp Trucking,5 Crd 386,Calhoun City,MS,38916,662-637-2296
Royal Trucking,29 Greater Brushy Creek Rd,Columbia,MS,39429,601-441-6695
Gary Winstead Trucking,116 Galilee Road,Carthage,MS,39051,601-267-5284
Simmons Mobil Transport,3 Union Creek Rd,Tylertown,MS,39667,601-563-5441
M R Trucking,4524 Busby Ln,Liberty,MS,39645,601-657-8239
Bobby Williams Trucking,190 B Beauvoir Road,Biloxi,MS,39531,734-233-7261
Hicks Trucking Company,1667 Mcfarlan Road,Raymond,MS,39154,601-373-1314
Wj Trucking,755 Henry Baker,Centreville,MS,39631,504-782-9970
Turnmire Trucking,133 Scenic Drive,Byhalia,MS,38611,901-598-7996
Johnson Trucking,951 Malone Rd,Hernando,MS,38632,901-334-7406
Riley Trucking Ii,28 Lot1 James Smith Rd,Tylertown,MS,39667,601-876-6512
Graham Trucking,5520 Moon Lake Rd,Dundee,MS,38626,662-337-2343
R L Brown Trucking,23780 Hwy 18,Raymond,MS,39154,601-885-9674
V & L Trucking,4485 Douglas Drive,Olive Branch,MS,38654,662-895-5190
C & J Trucking,729 Evans Rd,Boyles,MS,38730,901-338-8842
Buchanan Trucking,126 Cemetery Street,Lexington,MS,39095,601-291-4780
P C R T Trucking,1112 Mclaurin Dr,Magee,MS,39111,601-316-0110
Lonnie Broom Trucking,12 Holmes Rd,Tylertown,MS,39667,601-341-1621
Akw Trucking,4842 County Road 532,Greenwood,MS,38930,662-453-9356
Rath Trucking,10677 Plummer Circle,Gulfport,MS,39503,228-383-2466
Cage's Trucking,125 Ferguson Street,Woodviille,MS,39669,601-888-4562
Southern Concrete Trucking,6 Fred Mallett Rd,Carriere,MS,39426,601-916-5325
Hytec Carriers,13200 Hwy 404,Philadelphia,MS,39350,704-281-3839
Gates Trucking,619 Avalon St,West Point,MS,39773,662-242-0357
Cain's Trucking,4447 Cain Lane,Liberty,MS,39645,601-657-4104
B J Trucking,966 Hwy 61 North,Natchez,MS,39120,601-818-8338
Md Transport,2439 Leslie Rd,Pope,MS,38658,662-326-0918
J & J Trucking,23 Cr 8142,Laurel,MS,39443,601-580-3256
M C Trucking,1016 Elijah Ln,Summit,MS,39666,601-341-7472
Tj Trucking,320 Ethel Johnson Rd,Sontag,MS,39665,601-748-7500
B & R Express,884 Church Lane Apt 2c,Southaven,MS,38671,901-679-9396
Grayson Custom Carriers,401 Hwy 278,Amory,MS,38821,662-401-9374
C & L Trucking,48 Mills Road,Poplarville,MS,39470,601-403-8375
C3m Trucking,1384 Lousiville Street Lot #10,Starkville,MS,39759,662-648-8554
Charles Jackson Trucking,76 Obed Magee Road,Tylertown,MS,39667,985-630-2878
Maylo Trucking,18260 Hwy 82,Mathiston,MS,39752,662-418-3130
Henry Transportation,304 Church St,Belzoni,MS,39038,662-336-0142
J & S Trucking,320 N Martin Luther King Drive,Sunflower,MS,38778,662-569-3669
Pittman Transport,453 Elliott Cemetery Rd,Tylertown,MS,39667,405-283-0698
Apex Freightlines,470 Goodman Road,Southaven,MS,38671,901-603-9092
Wilson Trucking,305 Mixon Street,Winstonville,MS,38781,662-741-3158
Dillards Mobile Home Transporters,6405 Warrior's Trail,Vicksburg,MS,39180,601-831-6606
Dts Transports,3447 Shady Oaks Street,Jackson,MS,39213,601-906-7482
T And R Transport,2148 Attala Rd 4990,Sallis,MS,39160,662-289-6062
Bo's Hauling,4107 Hwy 496,Toomsuba,MS,39364,601-527-6520
B & B Carriers,8241 Claiborne Drive,Southhaven,MS,38671,901-857-9646
Haynes Trucking,3941 Scr 53,Mt Olive,MS,39119,601-797-3311
Rcw Trucking,1681 Bethany Rd,Potts Camp,MS,38659,662-333-4029
J & L Trucking,403 Dorothy St,Charleston,MS,38921,662-647-5801
Cox Dozer Service,162 Magnolia,Pope,MS,38658,662-934-0521
F E S Trucking,36 Indian Springs Church Rd,Laurel,MS,39443,601-763-8669
Naylor Trucking,6031 Castle Rd,Vicksburg,MS,39180,601-661-5562
Champagne Trucking,63 El Shaddai Rd,Poplarville,MS,39470,601-795-0882
Danny Trucking Service,96 Dwyer Rd,Sunflower,MS,38778,662-207-5439
Mcgee Hotshot Services,45 Whitecreek Cove,Coldwater,MS,38618,662-233-2702
M N Transport,76 Yawn School Rd,Lumberton,MS,39455,601-520-0551
Universal Services,708 Main Street,Leakesville,MS,39451,601-394-4510
Johnson Trucking,30 Polk Lane,Prentiss,MS,39474,601-792-9510
The Transporter,1332 Rasco Road #353,Southaven,MS,38671,662-280-0038
C & L Trucking,514 Highway 11 North,Ellisville,MS,39437,601-477-2184
H & H Hot Shot,1535 Denson Road,Morton,MS,39117,601-732-2891
Daddy Longlegs Express,471 County Road 21,Laurel,MS,39443,601-323-0385
War Eagle Trucking LLC,1428 Mississippi Drive,Waynesboro,MS,39367,601-735-3916
Mccrory Trucking,134 Patrick Place,Brandon,MS,39042,601-825-0521
Chris Bond Trucking LLC,16249 Bill Bond Rd,Saucier,MS,39574,228-832-0015
C & R Trucking,20a Hogan Drive,Alligator,MS,38720,662-902-1299
County Line Transport,3003 Hwy 51 North Lot 15c,Nesbit,MS,38651,901-494-0703
Thomas Trucking,3596 River Road,Fayette,MS,39069,601-786-8791
Tommy Nichols,299 Church St,Hickory,MS,39332,601-646-5911
K & C Trucking,456 Dean Turner Road,Leakesville,MS,39451,601-394-2436
R T Trucking,664 Highway 2,Corinth,MS,38834,662-462-5381
Bryant Farms,56 Hodge Rd,Mozelle,MS,39459,601-670-1916
Tyrone Newson Trucking,199 Lloyd Lane,Byhalia,MS,38611,901-859-3901
Gutta Boyz Trucking,129 Redhawk Rd,Vicksburg,MS,39180,601-636-3022
Harvey's Transportation,539 Jaynesville Rd,Mt Olive,MS,39119,601-259-2064
C & B Transportation,#3 Holly Street,Charleston,MS,38921,662-647-7072
Manns Drilling Services,2501 Hwy 301 S,Hernando,MS,38632,662-449-0899
Gassey Transportation,374 Roanoke Circle,Columbus,MS,39705,662-327-9024
J & J Services,17375 Hwy 51 South,Tillatoba,MS,38961,662-752-9540
M B Trucking,3888 Hwy 43 North,Picayune,MS,39466,601-749-9878
Taz Delivery & Expedited,125 Peachtree Drive,Byram,MS,39272,601-346-6331
Gerry Anthony Trucking,10030 Road 1103,Union,MS,39365,601-416-7126
Dudley Trucking,2250 Ferguson Mill Rd,New Hebron,MS,39140,601-694-2458
Abcd Express,297 Huckleberry Ln,Brandon,MS,39042,601-573-6084
Brown Flying Service,Route 2 Fairview Road,Charleston,MS,38921,901-262-0086
Bo Blackmon Trucking,68 Malley Ln,Poplarville,MS,39470,601-795-2161
Allen Stevens Trucking,1160 Sunrise Road,Petal,MS,39465,601-270-2640
Gold Dust Trucking,50014 Moccasin Creek Drive,Amory,MS,38821,662-640-8647
Ecr,106 Van Wye Rd,Carthage,MS,39051,601-267-4098
T D Express,106 South Franks Road,Booneville,MS,38829,662-728-8778
B And R Trucking,7286 Hwy 51,Oakland,MS,38948,662-623-0019
R D Trucking,418 East Madison St,Tupelo,MS,38804,662-840-6820
Lucky Lane Express LLC,1525 Lucky Lane,Brookhaven,MS,39601,601-835-2518
Warren's Trucking,107 Hull Circle,Indianola,MS,38751,662-887-6239
T & E Trucking,920 Dorgan Street,Jackson,MS,39204,601-885-9915
Porter Express,1007 Roy's Rd,Gautier,MS,39553,228-497-0660
Trantham Trucking,134 Cr 346,Glen,MS,38846,662-287-2529
Rushing Transport,6491 Ms Hwy 9,Walthall,MS,39771,662-258-3563
Wilborn's Logistics,5056 Hwy 42 Apt F3,Hattiesburg,MS,39401,601-326-2189
J-dub Transport,159 Jon Cris Road,Byhalia,MS,38611,901-853-3119
Mdt,131 County Road 2218,Saltillo,MS,38866,662-348-2287
J & G Trucking,92 Mitchell Rd,Poplarville,MS,39470,979-548-3614
Holland Excavating,6409 Cr 216,Oakland,MS,38948,662-623-7914
Hibbler & Hibbler Trucking,3949 Highway 310,Crenshaw,MS,38621,662-934-5235
Singley Trucking,401 Woodland Ave,Raleigh,MS,39153,601-421-3729
Yo Yo Express,1857 Hwy 41,Pontotoc,MS,38863,N/A
Milling Farms,808 Richland East Dr,Richland,MS,39288,601-936-9994
R H Trucking,8197 Hwy 51 South,Wesson,MS,39191,601-894-1303
H & H Trucking,402 Scr Hwy 36,Mt Olive,MS,39119,601-517-3038
Sbg Trucking,502 Deer Run Suite 1,Meridian,MS,39305,601-693-7066
W&w Trucking,3922 Busy Corner Rd Gloster,Gloster,MS,39638,601-225-4881
Double J Transport,4810 Highway 6 West,Marks,MS,38646,662-357-0143
R And D Trucking,15 Wilbourn Rd,Vance,MS,38964,662-345-8400
A Plus Delivery & Moving,4002 A Adams Avenue,Gulfport,MS,39507,228-864-1499
Johnny Orr Trucking,8060 Stewart Weir Road,Weir,MS,39772,662-547-9392
Gator Bait Trucking,80 Steven Hickman Rd,Perkinston,MS,39573,601-299-0091
Highly Favored Trucking,451 Page St,Clarksdale,MS,38614,662-280-7176
Sparks Transportation,7868 Rocky Creek Blvd,Southhaven,MS,38671,662-342-7155
C Cam Express,1205 Marydale Drive,Jackson,MS,39212,601-373-0756
Sundown Express,30 Gregory Circle,Natchez,MS,39120,601-870-0049
Adrian Overall Trucking,1855 Parks Place Rd,Como,MS,38619,662-487-3973
Phillips Trucking,131 Circle Drive,Sumrall,MS,39482,601-758-3262
Moore Logging & Trucking,6480 Hwy 43 South,Kosciusko,MS,39090,662-289-5872
Millsaps Trucking,2029 Hilton St,Laurel,MS,39440,601-426-3050
Pookat Trucking,2838 Hernando Rd,Holly Springs,MS,38635,662-278-9542
Tand S Trucking,1029 Laughlin,Boyle,MS,38730,662-719-4602
Wimberly Trucking,2144 Stateline Road,Southaven,MS,38671,662-382-7027
J T Express,9657 Geneva Loop,Olive Branch,MS,38654,901-289-0318
Herrin Trucking,73 Cameron Road,Harrisburg,MS,39402,601-268-1331
Bam-bam Boonie Trucking,239 Cr 203a,Pittsboro,MS,38951,662-412-2216
Choctaw Transport LLC,1900 Kelly Town Rd,Carthage,MS,39051,601-298-0944
Toot Floyd Transportation,519 Mary Grove Church Rd,Mendenhall,MS,39114,601-849-2064
Extreme Auto Transport,7200 Us Hwy 11,Lumberton,MS,39455,601-796-8603
Freight Plane Trucking,32 American River Drive,Lake Cormorant,MS,38641,662-429-4376
Rockette & Son Trucking,725 Molly Barr Rd,Oxford,MS,38655,662-607-6793
Steven Stringer Trucking,1026 Gates Rd,Columbia,MS,39429,601-731-1144
Tate Trucking,1549- Monterey Rd,Florence,MS,39073,228-332-2382
D H Trucking,79 Corinth Cut Off,Purvis,MS,39475,601-394-7043
Hannah Trucking Co,616 Pine Street,Ruleville,MS,38771,662-719-7381
R Ward Trucking,123 East North Street,Pass Christian,MS,39571,310-429-1231
W B Trucking,1079 Annison Rd,Wesson,MS,39191,601-454-3218
Wayne Williams Transport,12116 Marlane Place,Gulfport,MS,39503,228-669-6722
Woodson Trucking,1414 Neal Road,Picayune,MS,39466,601-590-4764
Wayne's Trucking,27 Touchstone Lane,Prentiss,MS,39474,601-792-2359
Clemmer House Moving,210 Pocahontas Rd,Ripley,MS,38663,662-837-1524
Ross Armstrong Trucking LLC,1129 P D Armstrong Lane,Crystal Springs,MS,39059,601-892-9034
Dc Trucking,2885 Shiloh Rd,Courtland,MS,38620,662-934-1413
Crossgates Transport,92 Woodgate Drive,Brandon,MS,39042,601-214-7760
Floyd Jones Trucking,Po Box 953,Carriere,MS,39426,985-960-0488
Nunnery Car Haulers Enterprises,5773 Hebron Road,Liberty,MS,39645,601-567-2118
River Town Transport,29 Mckinzie Cv,Hernando,MS,38632,901-481-0048
Sleepy Express,19364 Hwy 14,Macon,MS,39341,662-726-2481
P & P Trucking,420 Oakleaf Court,Ridgeland,MS,39157,662-303-0112
Gilleys Hot Shot Service,1780 Hwy 178w,Myrtle,MS,38650,662-988-3055
Dan's Heavy Hauling,3496 Highway 178 West,Fulton,MS,38843,662-862-7752
Rays Trucking,10060 Road 648,Philadelphia,MS,39305,601-412-6252
Kendalll Trucking,4 Smith Rd,Cascilla,MS,38920,662-647-5636
T G Hulbert Hauling,2116 Vaughandale Rd,Gautier,MS,39553,228-497-2377
P & A Trucking,250 Cypress Lane,Greenville,MS,38701,662-820-8336
Gowdy Trucking,116 Piper St,Belzoni,MS,39038,662-392-6543
Evans Trucking,1071 Old River Rd,Waynesboro,MS,39367,601-410-8775
R & R Const Trucking Co,1008 Washington St,Picayune,MS,39466,601-441-9773
Dossett Trucking,2646 Burnt Bridge Rd,Picayune,MS,39466,601-916-9273
A & C Trucking,2495 Bootsie Trail,Smithdale,MS,39664,601-734-2757
I & L Trucking,1425 A Wire Road West,Perkingston,MS,39573,228-627-1160
Equipment Assembly & Transport,22 Riverbend Rd,Columbia,MS,39429,601-736-8038
H & L Trucking,12484 Hwy 35,Batesville,MS,38606,662-578-0848
Dockery Transport Sheriff Div,160 Motor Scooter Cove,Nesbit,MS,39051,901-603-0545
Lowery Trucking,1446 Blackjack Rd,Starkville,MS,39759,662-617-4503
Big John Trucking,1686 Stump Road,Gloster,MS,39638,601-225-7714
D&m Trucking,8707 Twitley Branch Rd,Collinville,MS,39325,601-626-8296
Y-not Trucking,7 Candi Lane,Purvis,MS,39475,601-606-2969
Hill & Son Trucking,13 Stringer Road,Wiggins,MS,39577,601-928-2726
Rogers Pumping Service,374 Fairway Oaks Dr,Hernando,MS,38632,662-449-5061
Chandler Trucking,2165a Whitaker Rd,Meridian,MS,39301,601-692-4906
Seay Transportation,619 Ridge Dr,Biloxi,MS,39532,228-388-2779
Dba Cooley Trucking,239 Cr 820,Heidelberg,MS,39439,601-498-2733
A Rod Trucking,469 Scr 531-1,Bay Springs,MS,39422,601-764-2378
Stinston Trucking,353 Allen Corner Rd,Lamar,MS,38642,901-827-7530
R & A Transports,496 Futheyville Road,Grenada,MS,38901,662-809-5949
C L Trucking,590 Greenfield Rd,Glen Alan,MS,38744,662-839-4711
Ll Trucking,6171 County Road 303,Itta Bena,MS,38941,662-616-3650
Tim Prince Trucking,205 Rolling Wood Drive,Carrier,MS,39426,601-916-7994
A & B Trucking,138 Jr Merrill Rd Old Hwy 45 South,Buckatunna,MS,39322,601-648-9249
Scott Trucking,1196 Custer Drive East,Southaven,MS,38671,662-280-2522
Carr Farm Trucking,860 Ranch Rd,Fernando,MS,38632,901-603-0239
Sutton Trucking,298 Scr 35-1,Mt Olive,MS,39119,601-572-6804
Hathorn Trucking,28 Champ Dr,Carson,MS,39427,601-943-6108
Barlow Trucking,2042 Shaw-skene Road,Cleveland,MS,38732,662-843-2721
Haas Auto,1569 Blue Meadow Rd,Bay St Louis,MS,39520,228-493-3904
A & C Trucking,181 Willoughby Rd,Jayess,MS,39641,601-748-1273
Nelson Trucking,1708 Cr 32,Etta,MS,38627,662-538-0407
C & T Trucking,22 Mcullum Rd,Ellisville,MS,39437,601-213-1363
M&r Hauling,385 Reedy Creek Rd,Laurel,MS,39443,601-498-0266
Parish Trucking,4018 Attala Rd 1115,Kosciusko,MS,39090,662-417-2719
Git R Dun Truckin',2151 A Dean Road,Little Rock,MS,39337,601-480-3162
Lone Wolf Trucking,200 Jackson Street,Indianola,MS,38751,662-884-0344
Norwood Trucking,107 Cr 282,Water Valley,MS,38955,662-413-4096
M & L Trucking,1692 Culpepper Rd,Forest,MS,39074,601-469-5596
H & J Car Carrier,903 Beatrice Dr,Long Beach,MS,39560,228-822-1211
Roadside Auto Sales,350 County Road 85,Houston,MS,38851,662-456-4757
Stacy Everhardt Trucking,568 Old Camp Road,Popularville,MS,39470,504-583-8817
Delta Wrecker Service,1008 Lee Drive,Clarksdale,MS,38614,662-902-6198
Ramar Trucking,1240 Scenice Hills Drive,Fulton,MS,38843,662-862-6698
Last Dollar,277 Willow Lane,Cary,MS,39054,662-873-4824
Larry Griffin Trucking,1053 Sisson Drive,Greenville,MS,38703,662-334-1333
Rawls Transport,119 Floren Lee Road,Lumberton,MS,39455,601-795-0407
V And V Trucking,10875 Hwy 8 West,Holcomb,MS,38940,662-226-1127
Rockin' K Trucking,903 Tanglewood Drive,Clinton,MS,39056,601-278-9961
Ddt Trucking,3207 Jr Lynch Street,Jackson,MS,39209,601-918-8396
Bennett's Cooler Consultation Delivery And Assembley,3621 Cr 805,Ripley,MS,38663,662-587-3276
Tooterman Trucking,1645 Augustard Rd,Ellisville,MS,39437,601-498-0614
397 Trucking,2716 Marquette Ave,Natchez,MS,39120,601-807-6791
Action Transport,4822 Willowwood,Jackson,MS,39212,601-594-0806
Tony T Trucking,3833 Boyd Road,Hernando,MS,38632,662-449-1850
Four G Trucking,1999 Burrage Rd,Preston,MS,39354,662-773-5975
Makamson Transportation,374 Gammill Rd,Ackerman,MS,39735,662-419-0730
F&k Trucking,6886 Fox Briar Cove,Walls,MS,38680,901-603-4929
Pender Trucking,9633 Attala Road 3122,Vaiden,MS,39176,662-289-4274
C & C Trucking LLC,10808 Hwy 563,Crosby,MS,39633,601-639-4544
Triple F Trucking,10548 Hwy 61 S,Cary,MS,39054,662-873-2158
Blessed Transportation,413 Pine Brake Circle,Ridgeland,MS,39157,601-707-7060
Woods Trucking,111 Choctaw Circle,Vicksburg,MS,39180,601-883-7570
T C B Trucking Company,400 Storm Road,Lena,MS,39094,601-267-6604
Gregory Trucking,304 Cr 233,Water Valley,MS,38965,662-419-7888
Algon Thomas Trucking,709 Mississippi Ave,Greenwood,MS,38930,662-385-3995
Mkj Express,747 Mcclyde Road,Como,MS,38619,662-526-1255
R & D Trucking,115 Penton Archer Rd,Carriere,MS,39426,601-798-3863
Lil Guy's Truckin,3218 Dickerson Sawmill Road,Lucedale,MS,39452,601-947-5820
Deep South Mobile Home Movers,186 Rt 1 Hwy 35,Prentiss,MS,39540,228-861-3164
A-1 Transportation,204 Wildwood Blvd,Byram,MS,39272,601-906-8631
S Coley Trucking,3 Birdwood Dr,Natchez,MS,39120,601-660-7118
Wj Horn Transport,100 5th Street,Pace,MS,38764,662-588-0233
Cw Trucking,51 Gaylors Rd,Natchez,MS,39120,601-437-7040
Dry Creek Tie & Timber LLC,24801 Hwy 4 West,Booneville,MS,38829,662-728-6800
Curry Trucking,111b Fall Strong Rd,Bay Springs,MS,39422,601-764-4095
Wem Transport,507 Augusta Street,Tupelo,MS,38801,731-692-3456
Skippy Haulin,507 Main St,Weir,MS,39772,662-547-6941
Oracle Transportation,4466 Robinhood Drive,Mosspoint,MS,39563,228-474-8679
William Wells Tire & Auto,1250 Hwy 182 E,Starkville,MS,39759,662-324-1006
A G & G Trucking,829 Mrs Everett Road,Pelahatchie,MS,39145,601-566-9714
T H J Trucking,1867 Vfw Road,Greenville,MS,38703,662-332-1571
Mgr Trucking Company,4633 Hwy 569 N,Liberty,MS,39645,601-870-6542
A Gray Trucking,205 Mcbride Road,Lake,MS,39092,601-668-9161
K & D Trucking,7540 Bill Dexter Road,West Point,MS,39773,662-494-9341
Gordon Trucking,7224 Hamp Lea Rd,Magnolia,MS,39652,601-783-3672
Double H Trucking,325 Frazier Road,Leland,MS,38756,662-616-6008
Hot Cat Express,10798 Curtis Road,Batesville,MS,38606,662-563-9689
Oneal Cartage,59 Shirley Oneal Rd,Perkinston,MS,39573,601-928-3572
Jamieson Trucking,23 County Road 604a,Corinth,MS,38834,662-415-1910
Delta Vending,1300 Sycamore,Greenwood,MS,38930,202-591-1493
Po Boy Trucking,1142 Sanderhill Rd,Brooksville,MS,39739,662-322-1334
Steven Trucking,4830 Old Hwy 7,Waterford,MS,38685,662-544-3084
S & A Trucking,128 Byron Rd,Mt Olive,MS,39119,601-382-6718
Norwood Trucking,4744 W E Ross Pkwy Apt 30-106,Southaven,MS,38671,662-719-8425
S&l Transport Service,2607 Stage Rd,Coldwater,MS,38618,951-242-6841
J C Watson Trucking,4211 Pyle Ave,Jackson,MS,39209,601-352-8848
R K Trucking,20 El Hall Trail,Bassfield,MS,39421,601-943-5447
Jm Farms & Transport,35 Walton Rd,Wiggins,MS,39577,601-408-8367
S & K Trucking,#38 Longhorn Rd,Laurel,MS,39443,601-649-6339
Mcconnell Trucking,6318 Moondance Dr,Olive Branch,MS,38654,662-895-0990
Integrity Hot Shot Services,317 Pear Orchard Cr,Ridgeland,MS,39157,601-850-8881
Jlj Hot Shot Service,366 Double Signboard Road,Mathiston,MS,39752,662-263-5456
Capt Kirk Enterprises,250 Sundown Trail,Jackson,MS,39212,601-371-1221
York Trucking,1676 Bankhead Road,Fulton,MS,38843,662-213-4175
Rsn Trucking,1 Peacock Lane,Greenwood,MS,38930,662-254-7373
Wicker Trucking,533 Scr 558-d,Pulaski,MS,39152,601-536-2046
Servpro Of Corinth Iuka,1405 Sawyer Road,Corinth,MS,38834,662-287-7881
B And B Trucking,2375 Antioch Rd,Golden,MS,38847,125-646-0579
Bell Trucking,495 Emanuel Street,Hickory,MS,39332,601-646-0156
3 L's Express,2710 Hwy 13,Lumberton,MS,39455,601-606-2123
Holly Springs Car Hauling,2586 Hwy 370 E,Baldwyn,MS,38824,662-365-2320
S And J Transport,13094 Old Highway 67,Biloxi,MS,39532,228-806-7606
Jwj Trucking,202 Columbia St,Hattiesburg,MS,39401,601-447-1433
C And B Distributors,320 Jones Road,Clarksdale,MS,38614,662-624-6528
Scottie's Trucking,512 Lower Rockport Rd,New Hebron,MS,39140,601-847-1377
Tatum Trucking,103 Cr 179,Stringer,MS,39481,601-764-3635
B&n Haulers,100 Hickory Drive,Richton,MS,39476,601-788-2399
Viking Express Freight LLC,1327 New Garden Rd,Coldwater,MS,38618,662-510-5431
B & W Trucking,371 Water Tank Rd,Sandy Hook,MS,39478,601-736-9977
Hendon Trucking,612 Williams Road,Florence,MS,39073,601-613-0327
Bobo Transport,220 Flowers Road,Pope,MS,38658,662-578-6854
Go Trucking,4879 Mcnair Road,Roxie,MS,39661,601-322-7317
Jpg Trucking,6903 Hwy 11,Carriere,MS,39426,601-590-0321
K&s Transport,1911 Swallow Lane,Tupelo,MS,38801,662-401-5867
Victory Transport,10361 Rd 567,Philadelphia,MS,39350,601-656-8805
Leverett Trucking,2203 Hwy 310,Crenshaw,MS,38621,662-382-7747
B M Trucking,32 Park Street,Durant,MS,39063,662-653-6221
Sands Towing & Car Hauling,20 Gandsi Rd,Seminary,MS,39479,601-543-2044
C&l Hotshot,2091 Dogwood Ridge,Kiln,MS,39556,228-493-7257
O & W Earthmovers,8920 Orange Lake Rd,Moss Point,MS,39562,251-895-1904
J & J Trucking,101 Holly,Shaw,MS,38773,662-588-3501
Phillips Trucking,140 Conway Drive,Coldwater,MS,38618,662-233-2077
Jm Trucking,313 Amite Road,Brookhaven,MS,39601,601-201-1787
Buck Wheat Trucking,65 Polk Lane,Prentiss,MS,39474,601-792-5912
Pbn,284 Eastabuchie Road,Petal,MS,39465,601-543-0875
Lc Trucking,6240 Lynnfield Rd,Horn Lake,MS,38637,901-484-6036
Ward Trucking,238 Walnut Street,Rolling Fork,MS,39159,662-828-3779
Area 51 Trucking,3865 Meadow Ln,Jackson,MS,39212,602-828-0828
K & J Trucking,1095 Lyons Road,Bolton,MS,39041,601-866-2169
Amerson Trucking,26 Nora Lane,Petal,MS,39465,601-467-8637
Heads Hauling,1794 Wallace Rd,Smithdale,MS,39664,601-532-7153
C & K Trucking,9203 Lorrie Lane,Olive Branch,MS,38654,901-215-6691
Joseph Marcum Trucking,130 Tatum Camp Rd,Purvis,MS,39475,601-307-4024
Washington's Transport,229 Cree Street,Webb,MS,38966,662-375-9981
Norwood Contract Hauling,1200 Rural Dempsey Road,Louisville,MS,39339,662-773-8201
Blue Streak Trucking,3345 Hwy 24,Gloster,MS,39638,985-514-7814
Dunn-rite Septic Service,25 Cr 663,Corinth,MS,38834,662-287-8937
Empty Pockets Trucking,1404 Texas St,Leakesville,MS,39451,601-394-7940
W & N Transport,19469 Hwy 35,Mize,MS,39116,601-342-1015
Redland Express,1942 Redland Rd,Pontotoc,MS,38863,662-489-4163
J H Transport,42 Harrison Road,Forest,MS,39074,601-469-2152
James Brown Trucking,145 Experiment Station Road,Crystal Springs,MS,39059,601-259-0902
Wilson Trucking,1000 West Lincoln Dr Sw,Brookhaven,MS,39601,N/A
Lenior Trucking,89 Mt Olive Rd,Tylertown,MS,39667,601-876-9538
Polk Trucking & Farm,Rt Box 97,Prentiss,MS,39474,601-943-5022
Thomas Lewis Waste Tire Transporter,19 Pine Hill Drive,Natchez,MS,39120,601-442-1162
"J & W Virgil Trucking Co, Inc.",137 Pleasant Hill Dr,Holly Springs,MS,38635,662-851-0348
Jodie Tutor Trucking,904 Ruffin Rd,Enid,MS,38927,662-623-5414
Massey Construction Service,3501 Hwy 25 South,Sturgis,MS,39769,662-465-7503
Aerial Signs Andn Service,624 Timber Cove,Hernando,MS,38632,662-449-0644
I J Martin Trucking,21 Maeola Lane,Bassfield,MS,39421,601-543-3430
Foster Trucking,105 Burt Jordan Rd Se,Mccall Creek,MS,39647,601-833-1304
Khirin Transportation Co,144 Pemble Rd,Merigold,MS,38759,270-454-4469
Sugar Baby Trucking,178 Morris Smith Lane,Centreville,MS,39631,877-260-7922
Griffin Trucking,17375 Marian Court,Saucier,MS,39574,228-831-1948
Necaise Trucking,23269 S Pinecrest Rd,Saucier,MS,39574,228-832-9711
T & L Trucking,352 Cr 1113,Plantersville,MS,38862,662-610-3499
Mclaurin Trucking,149 Cr 755,Corinth,MS,38834,662-415-0665
J&r Trucking LLC,6909 Jackson County Line Road,Lucedale,MS,39452,228-588-9188
Syble A Williams,12274 Purdie Circle,Gulfport,MS,39503,228-832-3527
Sapps Auto,446 N Jackson St,Houston,MS,38851,662-456-7247
Hughes Trucking,3287 Inside Horseshoe Rd,Tchula,MS,39169,662-235-4717
Murray's Contract Hauling,Rt 2 Box 72,Dekalb,MS,39328,601-743-4736
N & N Thompson Trucking,541 Wellington Dr,Jackson,MS,39272,601-373-6462
Fly-by-knight Transportati0n,10080 Rd 2645,Philadelphia,MS,39350,601-416-3121
Taylor Trucking,1248 Matthews Road,Sarah,MS,38665,662-560-6516
"Print Services, Inc.",7282 Maygan Drive,Olive Branch,MS,38654,662-893-4500
W Galmore Trucking,25 Myrtle Drive,Natchez,MS,39120,601-445-9911
Daves Trucking,111 Kaiser Lake Road,Natchez,MS,39120,601-445-0508
Cordell Trucking,7786 Glen Allan Road,Glen Allan,MS,38744,662-839-5188
Hillbilly Haulers LLC,4218 Cr 87,Vaiden,MS,39176,662-614-0123
Steen's Trucking,306 Hanna Av,Indianola,MS,38751,662-207-0655
Athenas Trucking,107 Pearson Street,Pass Christian,MS,39571,228-323-3063
M & M Trucking,721 Primos Ave,Jackson,MS,39209,601-944-1721
Kmc Trucking LLC,3088 Allred Dr,Wesson,MS,39191,601-833-4826
Bk & L Hauling,1113 College Street,Cleveland,MS,38732,662-846-6939
Valdez Trucking,222 Ms Hwy 46,Mantee,MS,39751,662-456-2737
Smith Trucking,124 Cr 8251,Rienzi,MS,38865,662-720-4794
J & S Trucking,958 A Hwy 407,Winona,MS,38967,662-283-3086
S & G Trucking Company,585 Co Rd 121,Quitman,MS,39355,601-776-5913
Alex Wamsley Backhoe Service,15 County Rd 144,Corinth,MS,38834,662-287-6510
John Terry Trucking,182 Sparta Road,Holcomb,MS,38940,662-417-7424
Brian K Dace Trucking,1580 Shubutaeucutta Rd,Shubuta,MS,39360,601-818-3154
Bridges Trucking,609 Cleveland Street,Ellisville,MS,39437,601-477-8135
Sharpley Trucking,34 Scr 15,Taylorsville,MS,39168,601-725-4131
Walter Steele Trucking,10730 Road 632,Philadelphia,MS,39350,601-656-3811
Mason Trucking,204 Jerome Street,Mound Bayou,MS,38762,662-741-2077
Tomcat Trucking,1060 Dickerson Lane,Wesson,MS,39191,601-643-8847
K R & G Trucking,450 Camp Eight Road,Richton,MS,39476,601-788-5504
Bruce Wells Trucking,718 Highway 27 South,Tylertown,MS,39667,601-222-0576
Shanks Trucking LLC,23 Mccann Dr,State Linel,MS,39362,601-648-2184
Sdm Transport,2361 Rocky Hill Deaux Rd,Kiln,MS,39556,228-493-1880
L & D Trucking LLC,1430 Cr 961,Belmont,MS,38827,662-454-9780
Crs Trucking,7 Henry Lee Lane,Foxworth,MS,39483,601-736-5154
Newberry Trucking,1756 Hollyspring Rd,Hernando,MS,38632,901-546-0639
R & K Trucking,203 Newsome Drive,Waynesboro,MS,39367,601-735-1146
Timothy Deaton Trucking,Rt 1 Box 48-1,Dekalb,MS,39328,601-743-9998
Open Road,421 Dozier Street,Picayane,MS,39466,601-749-4483
Rc's Trucking,10280 Rd 771,Philadelphia,MS,39350,601-562-0651
Gant Trucking,427 Gloster Rd,Meadville,MS,39653,601-384-7794
Pace Auto Sales,558 South Gate Road,Hattiesburg,MS,39401,601-544-9758
Roberts Trucking,1018 Buckley Lane,Osuka,MS,39657,601-542-3679
Mds Trucking LLC,4 Twin Lanes Road,Picayune,MS,39466,601-799-0559
A & T Transportation,718 Cumberland Cove,Southaven,MS,38671,662-228-0647
Khy Trasportation,5910 South Ridge Dr,Olive Branch,MS,38654,901-292-2799
A & D Trucking,31 New St Paul Church Rd,Waynesboro,MS,39367,601-671-3402
6 Pack Trucking,623 Lola Dunn Trl,Brookhaven,MS,39601,601-754-3910
Carl Hayes Trucking,8821 Jones Rd,Olive Branch,MS,38654,166-289-5324
Ms Trucking,153 Toshas Trail,Batesville,MS,38606,662-578-4951
Triple 7 Trucking,935 County Road 294,Cruger,MS,38924,662-455-1407
T & G Trucking,13111 Maida Hurd Rd,Moss Point,MS,39562,228-990-1427
Barefoot Hauling,Hwy 35 North 3720-1,Carleston,MS,38921,662-647-0686
J D Searcy & Co,655 Old White Springs Rd,Fulton,MS,38843,662-862-2444
Meeks Transportation,307 Senica Avenue,Greenwood,MS,38930,662-453-6693
J & A's Trucking,115 John Fortenberry Rd,Mendenhall,MS,39114,601-847-2063
Give And Recieve Trucking,1 Demaris Avenue,Cleveland,MS,38732,662-843-4880
Reejay's Transport,732 Jefferson Drive,Greenville,MS,38703,662-332-1754
Donald Jefferson Trucking,27 Jefferson Rd,Jayess,MS,39641,601-876-4770
H & J Mobile Home Movers,10416 Old Sidney Rd Pass,Christian,MS,39571,228-255-3041
Kenny Barr Trucking,193 Goodhope Road,Mendenhall,MS,39114,601-847-0197
Ac Colenberg Truck Tractor,114 Hillcrest Drive,Fayette,MS,39069,601-786-1408
Castle Trucking,941 County Road 282,Quitman,MS,39355,601-776-0137
Norm Cooper Trucking,203 Johns Lane,Richton,MS,39476,601-989-2366
T Ruth Trucking,10 Cr 259,Bruce,MS,38915,662-983-5825
Dani Truck,4399 Hwy 8 E,Cleveland,MS,38732,662-402-6061
Ms Brenda's Trucking,166 Stewart Leggett Rd,Seminary,MS,39479,601-722-4979
Journey Transport,34 Kirkland Road,Carriere,MS,39426,601-798-2730
C R W Trucking,345 Plum Point Avenue,Southaven,MS,38671,901-508-4751
J And L Trucking,1179 Blaylock Rd,Winterville,MS,38703,662-820-0618
Scl Trucking,20285 Old Hwy 25 N,Fulton,MS,38843,662-862-9721
Nick's Dozer & Tractor Service,32498 Old Bouie Rd,Carriere,MS,39426,985-960-1335
"G A Trucking, Inc.",1703 Bellavista Road,Cleveland,MS,38732,662-843-0359
Ltl Truck Lines,6869 Casino Strip Blvd,Robinsonville,MS,38664,832-248-7520
Smith-harmon Trucking,464 Covington Drive,Canton,MS,39046,601-859-5321
L & M Shanks Trucking,844 Pleasant Grove Altair Road,Shubuta,MS,39360,601-735-1409
Alan L Hargens Transport,128 Forest Drive South,Sardis,MS,38666,662-934-7253
White's Hauling,225 Wiygul Road,Nettleton,MS,38858,662-963-7088
Dunnam Trucking LLC,706 Main Street,Leakesville,MS,39451,601-394-4188
Easy Haul Transporters,26 Broadway Lane,Carriere,MS,39426,601-798-8130
Karl Nelson Trucking,16255 Wickstrand Road,Biloxi,MS,39532,218-259-7961
Gossett Trucking,149 Inside Road,Picayune,MS,39466,601-799-2717
Willow Lane Wrecker Service,390 2nd Street,Belmont,MS,38827,662-454-3002
Cottonville Express,264 Hunters Run Road,Coldwater,MS,38618,662-562-5575
Young Farms,225 Starlyn Ave,New Albany,MS,38652,662-534-3927
Merritt Trucking,1394 Coleman Road,Thaxton,MS,38871,662-322-3947
Vip Transportation,1501 P P Wilson Rd,Osyka,MS,39657,225-647-1159
Shelton Trucking,91 Spicer Rd,Bentonia,MS,39040,662-755-2939
S&k Trucking,1016 Goodhope Rd,Lake,MS,39092,601-775-8749
Triple H Transportation,13102 Highway 51,Oakland,MS,38948,662-623-0307
Tj's Wholesale Cedar Hill Transport,3321 Hwy 11,Moselle,MS,39459,601-554-8444
Kendall Trucking,325 Baldwin Rd,Lake Cormorant,MS,38641,530-355-3643
Buddy's Contract Hauling,Route 4 Box 44,De Kalb,MS,39328,601-743-4940
K & D Trucking,81 Cr 812,Blue Mountain,MS,38610,662-685-0184
J & J Trucking Co,441 Woodland Drive,Kosciusko,MS,39090,662-290-8405
"Buie Trucking, Inc.",141 S Holly Street,Bude,MS,39630,601-384-4958
H & A Express,1118 Cr 32,Etta,MS,38627,662-316-4538
Polk Trucking,106 King Street,Taylorsville,MS,39168,601-785-9692
Weaver Express Company,168 Ups Road,Charleston,MS,38921,630-330-6886
D & C Trucking,618 Fork Road,Lucedale,MS,39452,601-394-2951
Boswell Trucking,838 S Oliver Street,Brooksville,MS,39739,662-738-5015
Scott Trucking,68 John Scott Lane,Petal,MS,39465,601-545-1378
Klunk'n Truck'n,Po Box 2852,Bay St Louis,MS,39521,228-363-0909
Msp Trucking,15131 Hwy 35 North,Kosciusko,MS,39090,662-289-7850
P&k Trucking LLC,381 Whistle Rd,Foxworth,MS,39483,601-736-7886
Newson Trucking,4510 Dupree Dr,Olive Branch,MS,38654,662-895-8365
At & T Trucking,44 Myrtle Drive,Natchez,MS,39120,601-897-0242
F& W Truckin,129 Wayied Rd,Mendenhall,MS,39114,601-849-5820
Byrd Man Trucking,197 Pond,Doddsville,MS,38736,662-756-2561
Callen Trucking,20 Callen Drive,Vicksburg,MS,39180,601-636-6694
Walters Trucking,16741 Attala Rd 2247,Mccool,MS,39108,662-674-5915
Amjf Xpress,3496 Inez Cir,Moss Point,MS,39563,228-366-1096
Double L Trucking,80 Wood Forest Dr,Gulfport,MS,39503,228-547-4566
Duck Trucking,375 Cr 9,Bay Springs,MS,39422,601-764-6976
Hudson Trucking,13300 Hwy 404,Bellefontaine,MS,39737,662-258-7601
Neeley Farms,770 Dickerson Road,Marietta,MS,38856,662-365-7791
M&wtrucking,7235 Dubbs Rd,Dundee,MS,38626,622-363-1155
J & E Trucking,177 Cr 453,Quitman,MS,39355,601-776-9131
Lewis Trucking,1038 Raborn Rd,Mc Comb,MS,39648,985-634-6625
Bar - D Trucking,284 D E Denman Rd,Charleston,MS,38921,662-647-3113
Sullivan Trailer Sales,4295 Halls Ferry Rd,Viclsburg,MS,39180,601-636-7905
Hub City Transport Co,74 Old Rawls Springs Road,Hattiesburg,MS,39402,601-543-4454
Whitney Livestock And Transportation,11749 Nancy Drive,Collinsville,MS,39325,601-513-6516
Johnkali's Trucking,50010 Swan Hill Rd,Amory,MS,38821,662-256-1492
Lil Hammer S Trucking,484 South Main Street,Fayette,MS,39069,601-597-2759
Burns Dozer Service,3004 Jacinto Road,Booneville,MS,38829,662-728-4555
Bubba's Trucking,61 Hisaw Rd,Sarah,MS,38665,616-886-0998
D & B Trucking,5625 Mcdowell Lane,Crosby,MS,39633,810-395-0831
Winters Trucking,398 County Road # 569,Oakland,MS,38948,662-623-8631
Floyd & Sons Trucking,1256 Simpson Hwy 149,Mendenhall,MS,39114,601-849-1702
Bacon Express,1420 Lone Oak Park,West Point,MS,39773,662-494-8379
Bobs Light Transportation Service,Rt 2 Box 437 B,Maben,MS,39750,662-263-4242
Freedom Autoplex,105 Ironwood Drive,Florence,MS,39073,601-978-3253
Reo Trucking,500 Wood Street,Newton,MS,39345,601-683-3916
Bib Trucking,200 Hunt St,Rolling Fork,MS,39159,662-428-6184
Smiley's Express,227 Mulberry Street,Greenville,MS,38703,662-335-5356
Robert Lee Trucking,55 Brewer Lane,Poplarville,MS,39470,601-795-2710
Thrasher Trucking,113 Cr Road 619,Corinth,MS,38834,662-287-2824
Nelson Trucking,500 Oak Street,Picayune,MS,39466,601-798-9828
Hard Trucking,123 West Union Rd,Carriere,MS,39426,601-799-4619
Crowder Trucking,11594 Old Hwy 61n Apt 12c,Robinsville,MS,38664,662-363-5021
Sunbelt Express,1419 Oak Street,Flowood,MS,39232,601-487-8049
Lee Trucking,417 Pershing Ave,Indianola,MS,38751,662-887-3089
F & M Transportation,622 East Lake Washington,Glen Allen,MS,38744,662-839-2769
Mckenzie Farms,1877 Lipsey Road,Prentiss,MS,39474,601-792-4783
Diane Davis Trucking,94 Judy Dahl Plantation Road,Woodville,MS,39669,601-888-3620
Sandifer Trucking,2580 Bahalia Road,Wesson,MS,39191,601-823-3564
K & B Transportation,31 Dan Walker Rd,Silver Creek,MS,39663,601-792-9466
King's Moving Company,852 N Broad St,Leland,MS,38756,662-686-2876
Chaney Trucking,19153 Palmer Creek Dr,Saucier,MS,39574,904-234-9529
R & S Trucking,1059 Guiding Light Rd,Magnolia,MS,39652,601-783-0029
"Kcj Trucking, Inc.",27 Jasmine Street,Fayette,MS,39069,601-786-8718
Turner Truck Service,2108 Cresent Lane,Southaven,MS,38671,662-342-1292
Harvison Hauling,1447 Neely Avera Road,Neely,MS,39461,601-525-3851
Mcfarland Trucking,214 Pleasant Grove Chaparral Road,Waynesboro,MS,39367,601-735-0873
Biron Hailey Express,154 Cr 1529,Baldwyn,MS,38824,662-274-1060
Thomas Trucking Company,113 Wesley Grant Rd,Hattiesburg,MS,39401,601-310-5559
Two -w's,2880 19th St Suite D,Gulfport,MS,39501,866-822-2104
"Smileys Trucking, Inc.",102 Donley Burkes Rd,Carriere,MS,39426,601-798-6854
Gaston Trucking,89 High Rd,Tutwiler,MS,38963,662-375-9311
Double D Trucking,12968 Joe Myers Road,Cedar Bluff,MS,39741,662-494-4912
Pj's Hotshot,118 Levon Owens Dr,Terry,MS,39170,601-878-0440
Bems Trucking,923 Church Ave,Cleveland,MS,38732,662-402-4735
Fan Trucking,51 Woodbridge Lane,Seminary,MS,39479,601-722-0104
Harris Trucking,7458 Chippendell,Southaven,MS,38671,901-237-0970
S And T Trucking,2779 Sanders Road,Sardis,MS,38666,662-609-2398
Andrew Cole Trucking,423 Deercreek Rd,Byhalia,MS,38611,901-491-8816
A&s Trucking,41 A Evergreen Road,Shubuta,MS,39360,601-687-1538
H And M Transport,105 South Mcnair,Purvis,MS,39475,601-794-5847
Holston Trucking,6405 Hwy 53,Poplarville,MS,39470,228-234-2210
Chad Everett Trucking,11940 Hwy 322 Bellview Rd,Clarksdale,MS,38614,662-624-2315
"Pete-repete Co, Inc. Trucking Co",151 Mill Rd,Columbus,MS,39702,662-251-7091
H&d Poole's Trucking,161 North Natchez Street,Woodville,MS,39669,601-888-6122
Carona's Auto Transport,307 Argyle,Mccomb,MS,39648,985-415-3686
Newell Trucking,26 Harry Sones Road,Carriere,MS,39426,601-798-9437
Wally Trucking,19645 Martin Luthur King Drive,State Linel,MS,39362,601-848-7576
Ls Enterprises,1110 Airport Fernwood Road,Mccomb,MS,39648,601-684-0242
R & G Trucking,408 Bennett Circle,Byhalia,MS,38611,956-212-4959
Glen's Auto & Repair,2226 Fig Farm Rd,Lucedale,MS,39452,601-947-4780
Garrison Trucking,7029 Church Ave,Potts Camp,MS,38659,662-419-2948
Ezey Trucking,1441 Joe Ellen Circle,Gulfport,MS,39501,228-860-2337
Rob Adkisson Trucking,2629 Loneoak Drive,Westpoint,MS,39773,662-275-1405
Perry Fogleman Trucking,2171 Popps Ferry Road,Biloxi,MS,39532,228-388-5962
Fields Transport,18 Fioranelli Dr,Cleveland,MS,38732,662-843-8639
J&j Wholesale Auto & Truck,209 Hwy 7 South,Greenwood,MS,38935,662-455-3498
J L Transport Company,19 Herrington Drive,Ellisville,MS,39437,601-422-0735
Angel Express,210 Liberty St E,Osyka,MS,39657,601-542-0135
R&s Trucking,9189 Coryelle Lane,Hernando,MS,38632,662-233-0277
Sutton Trucking,510 Fourth Street,Picayune,MS,39466,601-213-4579
Triple T Trucking,404 Mims Gregory Rd,Mendenhall,MS,39114,601-849-5057
Mcdaniel Mobile Home Transport,1147 Churchwell Rd,Hattiesburg,MS,39401,601-928-8147
Pettys Trucking Co,2508 22nd Ave N,Columbus,MS,39701,662-352-1523
R & J Trucking,11 Green Acres Road,Natchez,MS,39120,601-660-2298
Up Hill Transport,1165 Cr 115,Blue Mountain,MS,38610,662-837-6639
Livingston Trucking,955 Wiley Rd,Caledonia,MS,39740,662-356-0030
Cet Trucking,1381 O M Cox Rd,Potts Camp,MS,38659,662-333-4014
Mccrary Trucking,48 Kathern Road,Greenville,MS,38701,662-332-7448
Dj Hauling,128 Bobbie Circle,Mendenhall,MS,39114,601-867-3914
Graham Farms,10288 Curtis Rd,Batesville,MS,38606,662-563-1048
Heavenly Trucking,811 Southwest St,Forest,MS,39074,310-603-9393
Days Trucking,309 Highway 556,Meadville,MS,39653,601-384-5073
Kemp Trucking,1320 Shivers Road,Pinola,MS,39149,601-625-0181
Anthony Varnell,507 Ridgeway Dr,Brandon,MS,39047,601-238-5875
Mid-south Movers,4 Cr 511,Corinth,MS,38834,662-284-9898
Ll Trucking,702 Bay Ave,Richton,MS,39476,601-788-2872
T Harris Truck,819 Hwy 475 South,Pearl,MS,39208,601-956-8422
William G Riley Trucking,648 Woolfolk Road,Senatobia,MS,38668,662-288-6548
C & L Trucking,319 Tugwell Rd,Magee,MS,39111,601-946-3404
Clearshot Trucking,3119 A Street,Pearl,MS,39208,601-326-2613
C & S Trucking,1651 County Rd 147,Quitman,MS,39355,601-604-4976
Rlg Trucking,114 1st Street,Isola,MS,38754,662-836-8462
Desoto County Plumbing& Backhoe Services,1365 Milam Lane,Hernando,MS,38632,662-890-3738
B & C Trucking,69 College Street,Shuqualak,MS,39361,662-793-4586
J & S Construction Services,509 Beecher Rd,Lucedale,MS,39452,251-777-8718
Sd Riley Trucking,9333 Riverlodge Drive,Escatawpa,MS,39552,228-475-4074
Day & Night Express,1760 Oak Crest Rd,Hernando,MS,38632,901-365-0173
A&d Express,7092 Brenwood Dr,Horn Lake,MS,38637,901-239-2035
Burge Trucking,169 Rayburn Rd,Carriere,MS,39426,601-273-2195
J & E Creel Trucking,P O Box 156,Louise,MS,39097,601-247-0094
Billy Harrell Trucking,3002 George Town Street,Hazelhurst,MS,39083,601-668-6109
Rollins Trucking,516 Avenue K,Mccombs,MS,39648,601-250-0570
Nolen Trucking,330 Hanging Moss Circle,Jackson,MS,39206,601-982-4961
Furnish Trucking,5896 Westminster,Horn Lake,MS,38637,601-393-4668
Micheal Mobley Trucking,601 W Main,Utica,MS,39175,601-885-9546
Fulgham Trucking,605 Virginia Cir,Inverness,MS,38753,662-887-6543
Bc Trucking,193 Stewart Rd,Carthage,MS,39051,601-267-3086
B&j Transport,11424 Canal Road,Gulfport,MS,39503,228-832-0703
Charles Taylor Trucking,Highway 45 South,Buckatunna,MS,39322,601-648-2334
Walston Trucking,1020 Beach Blvd,Gulfport,MS,39506,228-896-4227
Weaver Trucking,219 Weaver Rd,Pelahatchie,MS,39145,601-854-6892
Lil'dennis Trucking,1345 Oakley Palentine,Raymond,MS,39154,601-857-5258
Jordan Transports,6086 Jenness Road,Pearlington,MS,39572,228-533-7096
Pace Truck And Equipment LLC,19193 Hwy 43,Kiln,MS,39556,228-255-7575
Reid Trucking,702 County Road 132,Quitman,MS,39355,601-917-6075
W & W Trucking,311 County Line Rd,Mendenhall,MS,39114,601-824-7315
Pollard Trucking,273 Chuck Pollard Rd,Clarksdale,MS,38614,N/A
J R Walker Trucking,303 South Prentiss Street,Jackson,MS,39203,888-217-8700
W H Trucking,733 Forrest Cr,Coldwater,MS,38618,662-622-5243
Mae's Trucking,404 S Johnson Ave,Louisville,MS,39339,662-773-8058
Holloway Trucking Co,4566 Hwy 341,Pontotoc,MS,38863,662-489-0235
J & L Trucking,263 Old Harriston ,Fayette,MS,39069,601-786-3976
James Deaton Co,2020 Heard Rd,Hazlehurst,MS,39083,601-894-2236
Wade Mciver Trucking,73 Hunters Run Cove,Coldwater,MS,38618,662-562-8826
Johnson Trucking,1825 Wisteria Drive,Jackson,MS,39204,601-371-8818
Tyler Trucking,2267 Brownsferry Rd,Senatobia,MS,38668,662-209-4309
Steve Sullivan Trucking,1470 Jc Warren Rd,Preston,MS,39354,601-677-2928
K & M Trucking,Rte 3 Box 130,Lexington,MS,39095,662-834-0177
Rocking B Trucking,12009 Old Highway 80 West,Meridiam,MS,39307,601-655-8715
C & M Trucking,33610 Hwy 25 N,Golden,MS,38847,601-585-4191
Whatever Courier Service,11154 Wildwood Drive,Olive Branch,MS,38654,662-890-5491
Morris Trucking,91653 Highway 42 East Rt 1,Richton,MS,39476,601-788-2738
D & J Trucking Ltd,1025 Graves St,Hazlehurst,MS,39083,601-969-3886
G Mcgee Trucking,11185 Whispering Pines,Olive Branch,MS,38654,662-895-3781
J & V Trucking Co,796 Ponta Hills Rd,Meridian,MS,39305,601-679-8882
C & M Trucking,110 Bill Terrell Rd,Carriere,MS,39426,601-798-8699
Waye Windham Farms,235 Grant Road,Rolling Fork,MS,39159,662-873-6276
L Cameron Trucking,79 Cedar Ln,Natchez,MS,39120,601-446-5855
Burks Trucking,Rt 2 Box 57,Collins,MS,39428,601-722-4428
Drummond Trucking,814 1st St Nw,Magee,MS,39111,601-849-2462
Ejb Trucking,16019 Madison Street,Pearlington,MS,39572,228-216-3674
F C Luna Transportation,218 Patterson Rd,Sumrall,MS,39482,601-579-9666
M & S Trucking,223 Turner St,Waynesboro,MS,39367,601-735-2376
J & A Trucking Company,225 Horn Road,Carthage,MS,39051,N/A
V & T Express,156 Bunker Hill Rd,Columbia,MS,39429,601-736-3952
Davis Trucking,137 Old Crossroads W,Poplarville,MS,39470,601-772-9907
B Way Trucking,1142 South Mound St,Grenada,MS,38901,662-262-5537
Lil' Dennis Trucking,1345 Oakley Palentine,Raymond,MS,39154,601-857-5258
Easleys Trucking,430 Cedar,Greenville,MS,38701,662-335-6541
Sessions Transport,162 Bluebird Lane,Picayune,MS,39466,251-648-2975
Dj Trucking,600 Adams St,Brookhaven,MS,39601,060-182-3003
M & J Transport,61 Chapparrell Hiwannee Rd,Waynesboro,MS,39367,601-735-4698
Hooker Trucking,203 J E Johnson Rd,Prentiss,MS,39474,601-792-8884
Hide A Way Dozer,66 Turnage Stateline Road,Tylertown,MS,39667,601-876-9908
Middle Express,109 Red Oak Rd,Clinton,MS,39056,601-925-0219
Haynes Quick Trans,1401 South Davis,Cleveland,MS,38732,979-559-7504
"Cms, Inc.",3248 N Gloster St,Tupelo,MS,38801,662-844-9953
Jones Trucking,4016 California Avenue,Jackson,MS,39213,601-362-6837
K & K Trucking,Rt 1 Box 178,Shugualak,MS,39361,601-677-3642
Abundant Life Transportation,1188 Cathy Dr,Grenada,MS,38901,662-227-1719
Dj Trucking,600 Adams St,Brookhaven,MS,39601,601-823-0033
Waters Auto Transport,785 Country Oaks Circle,Tupelo,MS,38801,662-840-4702
N & M Trucking,1432 Sawmill Road,Crystal Springs,MS,39059,601-878-9359
American Dreamers Trucking Adt,526 Cr 261,Tupelo,MS,38802,662-840-6792
Nelson Hunt Trucking Company,83 Flint Creek Rd,Wiggins,MS,39577,601-928-5937
Mitch Hopper Transportation,141 Munn Drive,Walnut,MS,38683,662-750-0757
Williams Trucking,127 Clara St,Brookhaven,MS,39601,601-835-0396
B G Riley Trucking,808 Hwy 366,Baldwyn,MS,38824,662-365-7511
Glen Jourdan Trucking,414 Walnut Street,Macon,MS,39341,662-726-5805
Lees Wrecker Service,415 Salem Rd,Picayune,MS,39466,601-798-1714
Mostly Trucks,525 E Central Ave,Wiggins,MS,39577,601-928-0290
R & R Delivery,1025 County Rd 256,Myrtle,MS,38650,901-485-3355
D & L Trucking,7308 Hwy 61 N,Rolling Fork,MS,39159,863-558-1420
L & D Trucking,7160 Hw 35 South,Bassfield,MS,39421,601-441-4660
Lott Trucking,Rte 2 Box 115-a,Prentiss,MS,39474,N/A
Blackwell Family Trucking,Rt 2 Box 146a,Mize,MS,39116,601-733-5387
Griffin Transport,1708 Marina Drive,Gautier,MS,39553,228-497-2844
S & S Automotive & Transmissions,3660 Highway 61 South,Vicksburg,MS,39180,601-661-0039
Magee Trucking,10 Dave Andrew Road,Tylertown,MS,39667,601-876-2985
Thomas Trucking,5625 Karen Dr,Walls,MS,38680,662-781-0525
Sessums Trucking,Rt 1 Box 75,Coila,MS,38923,662-237-0297
R Chamberlin Trucking,Rt 4 Box 75,Dekalb,MS,39328,601-743-9498
Richard Knight Trucking,County Rd #913,Bay Springs,MS,39442,601-764-6401
Southside Trucking,413 Enochs St,Tylertown,MS,39667,601-876-3485
Greer Trucking,8745 Jones Road,Olive Branch,MS,38654,901-604-7720
Lite Weight Trucking,1834 Hickory Grove Rd N,Starkville,MS,39759,662-323-7663
A & J Fast Freight,4023 Hwy 12 E,Steens,MS,39766,662-328-4023
F M Trucking,840 Newton Conehatta Rd,Newton,MS,39345,601-683-3070
45 Wrecker Service,2113 Hwy 145 N,Saltillo,MS,38866,662-869-5723
C & S Trucking,4437 F Shelby Gressett Rd,Toomsuba,MS,39364,601-632-4831
Franks Trucking,908 Fulton Street,Corinth,MS,38834,662-287-5393
Hunter Transportation Company,8 Washington St,Lake,MS,39092,601-775-0030
Deep South Trucking,36 Myrtle Drive,Natchez,MS,39120,601-213-3778
A & C Trucking,762 3rd Street,Osyka,MS,39657,601-542-5438
Hng Trucking Company,4715 Marquette Place,Olive Branch,MS,38654,662-895-2460
Aj Trucking,200 Longstreet Ave,Macon,MS,39341,662-726-4608
Thomas Trucking,119 Wesley Grant Rd,Hattiesburg,MS,39401,601-584-8757
S & K Trucking,449 Cold Springs Rd,Collins,MS,39428,601-722-9214
Sewell Trucking,18494 Highway 61 N,Lyon,MS,38645,662-624-9450
Magnolia Auto Haulers,2715 Oak Grove Rd,Hattiesburg,MS,39402,662-282-4276
Hibbler Trucking,3949 Hwy 310,Crenshaw,MS,38621,662-382-5906
K & G Trucking,388 Main Street,Biloxi,MS,39530,228-806-1462
Double Creek Trucking,166 Cedar Lane,Columbus,MS,39702,662-889-4979
Borden Trucking,7212 Brenwood Dr,Hornlake,MS,38637,662-342-2137
Jhr Trucking,105 Grape,Petal,MS,39465,610-310-5139
Deita Truck Sales,11726 Hwy 6 West,Batesville,MS,38606,662-578-4222
Yates Trucking,1111 Alverado Dr,Long Beach,MS,39560,228-868-6787
Curle Trucking & Construction,01 Cr 529,Como,MS,38619,662-526-9413
Calvin Fairley Trucking,P O Box 246,Carson,MS,39427,601-943-6119
Yates Trucking,46 Lombardy Road,Drew,MS,38737,662-745-8453
Victor Calcote Trucking,2204 Bethel Rd Se,Brookhaven,MS,39601,601-835-1832
Holloway Transport,4660 Highway 341,Pontotoc,MS,38863,662-489-6993
Mcduffy Carriers,816 Reaves St,Jackson,MS,39204,601-371-6933
E & W Hauling,731 East Fulton St,Canton,MS,39046,601-855-0657
Kam Truck & Trailer Repair,10416 A Collinsville Martin Rd,Collinsville,MS,39325,601-737-4871
Pro Automotive,124 Porter St,Senatobia,MS,38668,662-562-5115
Lewis Trucking,1322 Estes Mill Rd,Walnut Grove,MS,39189,601-253-2760
Overby Trucking,8916 Ferry Point Road,Gautier,MS,39553,228-522-0851
L & L Transport,410 Salem Rd,Picayune,MS,39466,601-799-4305
D Brown Trucking,110 James Black Cv,Olive Branch,MS,38654,901-503-5567
Homeboy's Trucking,2221 Wood Glen Cove,Greenville,MS,38701,662-334-6613
Bullet Trucking,2211 Austin Road,Nesbit,MS,38651,662-280-2348
D & D Trucking,1984 Highway 26,Wiggins,MS,39577,601-928-6174
S & T Trucking,106 Harrisville Rd,Harrisville,MS,39082,601-847-1939
Chris Diamond Trucking,1237 Newman Trl,Brookhaven,MS,39601,601-672-6601
Clyde Young Trucking,5158 Silver Drive,Mccomb,MS,39648,601-542-5303
King Trucking,1408 Sherman Ave,Vicksburg,MS,39180,601-634-6575
Bill Morton Hauling,329 Sunnybrook Rd,Ridgeland,MS,39158,601-506-0798
Herring Trucking,301 Maywood Drive,Petal,MS,39465,601-584-8056
Skw Hauling,609 Mclaurin Drive,Rolling Fork,MS,39159,662-873-6941
R & C Holderfield Freight,27 Sharp Cove,Byhalia,MS,38611,662-851-0002
G & E Auto Sales,1120 Cr 2788,Baldwyn,MS,38824,662-365-3432
Ravencraft Trucking,809 Marion Ave,Gloster,MS,39638,601-225-7992
Red Dog Trucking,515 Harkins Rd,Carthage,MS,39051,601-267-4449
M Express,1765 Northwood West Dr,Hernando,MS,38632,901-830-0397
Smith Trucking,464 Covington Drive,Canton,MS,39046,601-859-1628
W Newberry Trucking,1756 Holly Springs Road,Hernando,MS,38632,662-429-9652
Ray Stanford Jr Trucking,266 Fawngrove Church Rd,Mantachie,MS,38855,662-282-4373
E & I Transportation,6007 Hwy 48 East,Magnolia,MS,39652,601-783-0154
Ironman Truck And Auto Repair Service,10086 S Hutter Rd,Gulfport,MS,39503,228-539-0115
Mla Express Company,14240 Hwy 51 N,Grenada,MS,38901,662-688-3381
Harbor Lights Trucking LLC,617 Briarwood Dr,Long Beach,MS,39560,800-226-3696
Friendship Trucking Co,21 North Sheffield Rd,Moorhead,MS,38761,662-246-5472
T & M Trucking,570 Wilcher Rd,Carthage,MS,39051,601-267-0321
Larry Joe And Molly Bee Trucking,975 Baldwin Road,Brooksville,MS,39739,352-461-7341
Hammond's Trucking,2300 Tuckers Drive,Bogue Chitte,MS,39629,601-734-2331
Red Baron Trucking,P O Box 821,Ripley,MS,38663,505-832-6783
Heartfelt Transportation,167 Ridge Rd,Byhalia,MS,38611,662-838-6317
Jantz Willard,405 Cr 157,Okolona,MS,38860,662-447-3129
Magnolia Express,3244a Dickerson Sawmill Road,Lucedale,MS,39452,601-947-6925
Sensations Transportation,72 Floyd Smith Rd,Indianola,MS,38751,662-265-5576
Stephens Trucking Company,3147 Steens Vernon Road,Steens,MS,39766,205-662-3304
Barksdale Trucking Co,Rt 2 Box 24 C,Sallis,MS,39160,662-653-6308
Govan Trucking,Hwy 84 W Moses Ln,Prentiss,MS,39474,601-792-5950
R H Frazier Trucking,Cr 140 1034,New Albany,MS,38652,662-538-4657
J And J Trucking,1304 Melwood Drive,Forest,MS,39074,601-469-1905
M B Trucking,Po Box 563,Port Gibson,MS,39150,601-437-6850
Roy Rogers Pumping Service,1101 Lake Road,Tunica,MS,38676,662-357-9689
Pole Transport Company,306 4th Street,Grenada,MS,38901,662-227-2772
R & K Trucking,107 Roy Shoemaker Rd,Waynesboro,MS,39367,601-735-5799
L M H Trucking,Po Box 156,Morton,MS,39117,601-732-6521
Smith Trucking,P O Box 1136,Fayette,MS,39069,601-442-9660
Circle H Trucking,2232 Rocky Branch Rd,Sumrall,MS,39482,601-758-0671
G L T Trucking,428 Hwy 448,Benoit,MS,38725,662-742-3470
Clark Trucking,303 Syramore Ave,Richton,MS,39476,601-788-2704
Four By Four Trucking,3005 Beauregard Rd,Wesson,MS,39191,601-643-2013
Cornerstone Trucking,647 Cr 157,Coffeeville,MS,38922,662-675-2628
J R Trucking,1062 E Starlanding,Nesbit,MS,38651,662-449-0447
Michael's Autos,499 Cr 1599,Baldwyn,MS,38824,662-365-9384
J & M Transport,1416 Restertown Rd,Poplarville,MS,39470,601-795-6840
T & J Trucking,270 Cr 142,Blue Mountain,MS,38610,662-534-0021
Mid Delta Auto Sales,811 N Davis St,Cleveland,MS,38732,662-283-2100
C & B Trucking,5240 Standing Pine Rd,Carthage,MS,39051,601-267-9039
H & J Hotshot Trucking,Po Box 243,Columbus,MS,39703,662-327-8455
Tc's Trucking,414 Old Wesson Rd Lot 24,Brookhaven,MS,39601,601-833-4908
Gary Bryan Trucking,272 Bryan Lane,Carthage,MS,39051,601-267-4749
Pruitt Trucking,20 Cr 604,Ripley,MS,38663,662-837-4554
L & P Trucking,Rt 1 Box 37,Prairie,MS,39756,662-494-2438
M & R Trucking,80 Reese Rd,Carriere,MS,39426,601-916-9512
Christian Trucking,4096 Pumping Station Rd,Osyka,MS,39657,601-542-0024
Tunica County Shuttle Service,2374 Old Hwy 61 North,Tunica,MS,38676,662-357-9000
Crowe's Livestock Hauling,6518 Ms Hwy 567,Liberty,MS,39645,601-657-4084
"Sign Services, Inc.",3834 Hwy 471,Brandon,MS,39047,601-829-0777
Casey Pope Trucking,4053 Mars Hill Rd,Philadelphia,MS,39350,662-724-2739
Quay L Peacock Log Hauling,177 Cr 167,Coffeeville,MS,38922,662-675-8576
J & L Transport,499 Lake Mike Conner Rd,Collins,MS,39428,601-765-6837
H & S Trucking,142 Staggs Rd,Doddsville,MS,38736,662-756-4466
Superman Trucking,#34 Doster Rd,Sunflower,MS,38778,662-569-3478
Miles Trucking,185 Miles Rd,Canton,MS,39046,601-859-6086
David Denning Trucking,964 Kingbee Road,Perkinston,MS,39573,601-928-5359
Turner Trucking Co,170 Cementary Lane,Woodville,MS,39669,601-888-7188
Raines Trucking,1020 Hwy 145,Guntown,MS,38849,662-365-9355
Williams Trucking,2787 Newton Conehutta Road,Lawrence,MS,39336,601-683-0208
Diggs Trucking,110 Barker Rd,Courtland,MS,38620,662-609-2061
C & S Haulers,895 Cr 1349,Mooreville,MS,38857,662-841-1693
Gerald Graves Trucking,2230 Deep Creek Road,Lucedale,MS,39452,601-945-2717
Glen Roberts Trucking,5709 Hwy 33,Fayette,MS,39069,601-786-3746
Trucking,670 Ellerby Road,Dekalb,MS,39328,662-476-8108
Mohead Trucking,2170 County Road 5,Scobey,MS,38953,662-226-2048
Satellite Delivery Service,2831 Westover Park St,Belden,MS,38826,N/A
Sullivan's Transport Express,50091 Jonesboro Rd,Aberdeen,MS,39730,662-369-2349
Bas Transportation,367 Industrial Rd,Ecru,MS,38841,662-489-8770
Holloway Trucking,Rt 2 Box 82,Mt Olive,MS,39119,601-797-3764
Cherry Transport,407 Thomasville Road,Florence,MS,39073,601-845-0592
Graziosi Trucking,242 East Santa Claire Street,Jackson,MS,39212,601-371-4469
Freeman Transport Hotshot Trucking,10384 Highway 9n,Belden,MS,38826,662-840-3133
Kellmay Trucking,Rt 2 Box 134a,Monticello,MS,39654,601-587-0115
Gulf Coast Freight & Air Co,6328 Chaucer Drive,Ocean Springs,MS,39564,228-872-8738
B & P Hotshots,Rt 2 Box 673,Mathiston,MS,39752,662-263-4599
Sanford And Son Trucking,386 Shiolh Rd,Courtland,MS,38620,662-710-4018
Herbert Spann Trucking,4520 Parisian Drive,Jackson,MS,39206,601-366-8952
"Baldwyn Truck And Van Sales, Inc.",886 Highway 145 South,Baldwyn,MS,38824,662-365-5115
We Haul,8364 County Road 164,Greenwood,MS,38930,662-453-5021
Drumm's Express,5097 Pine,Pearlington,MS,39572,028-533-0100
Jessie Little Trucking,871 Potterchitto Rd,Newton,MS,39345,601-683-7808
Gholar Express Trucking,Rt 2 Box 75 E,Prentiss,MS,39404,601-792-8344
T & B Transport,11 Cr 4102,Marietta,MS,38856,662-728-0468
C J R Transportation,141 Mc Lauren Pend Rd,Harrisville,MS,39082,601-331-0697
Mayo Transportation,7748 Walnut Hill Pt,Southaven,MS,38671,662-393-5422
Jimco Trucking,3208 Lakewood Dr,Jackson,MS,39212,601-923-9991
Mike Goad Trucking,304 Lafayette St,Charleston,MS,38921,662-647-0564
Snookey Trucking,1224 Devonshire Pl,Greenville,MS,38701,662-334-3783
H & H Trucking & Equipment Svc,2216 Phillips Hill Road,Columbus,MS,39702,662-327-7537
Long Leaf Transportation Co,37 Cawthon Rd,Petal,MS,39465,601-584-0470
Beloved 7 Son's Delivery Service,115 Oakdale Drive,Columbus,MS,39705,662-328-0775
S & K Trucking,1100 Collier Ferry Rd,Carthage,MS,39051,601-298-0081
J T H Backhoe Services,30 Lake Sharra Loop,Petal,MS,39465,601-583-9776
K & B Trucking,270 Airline Hwy,Tylertown,MS,39667,601-222-0683
Smith Trucking,1406 Katherine St,Waynesboro,MS,39367,601-735-1630
Reed & Hill Trucking,5121 Post Oak Rd,Jackson,MS,39206,601-982-5326
Farris Trucking,6823 Valerie Dr,Olive Branch,MS,38654,662-895-9104
K D M Trucking,860 Redwood Road,Redwood,MS,39156,601-638-5888
"Richardson Trucking, Inc. LLC",5375 Bent Rd,Southaven,MS,38671,662-349-5921
Junior Ellis Trucking,804 Collier Ferry Road,Carthage,MS,39051,601-267-7595
Road Hog Trucking,354 Old Ruleville Rd,Cleveland,MS,38732,662-846-7751
C & D Trucking,253 Friendship Rd,Florence,MS,39073,601-845-1361
Red-line Express,4516 Old Hwy 8,Big Creek,MS,38914,662-628-1535
Buffington Mobile Home Transporters LLC,29 Hickory Nut Rd,Decatur,MS,39327,601-635-5375
Williams Mobile Service,318 Harbor Lane,Brandon,MS,39047,601-829-9507
Puppy Trucking,7911 Cr 500,Ripley,MS,38663,662-837-7916
Eugene Peters Trucking,144 Cr 260,Glen,MS,38846,662-287-6338
C & C Trucking,P O Box 33 Mccall Creek,Mccall Creek,MS,39647,601-833-4480
Patricia Holmes Trucking,Cannonsburg Road,Natchez,MS,39120,601-304-0215
Boyd & Sons Trucking,62 Bullock,Tylertown,MS,39667,601-876-6730
T L V Trucking,140 Dry Creek Rd Lot18 Box 13a,Magee,MS,39111,601-849-0268
"O'brian Carriers, Inc.",1357 Old West Point Rd,Starkville,MS,39759,662-325-1571
D M Echols Trucking,118 Sinclair Rd,Columbia,MS,39429,601-310-0546
M & L Auto Sales,913 W Chambers Drive,Booneville,MS,38829,662-728-3798
B L & G Transportation,806 Lot #7 Ten Mile Creek Rd,Foxworth,MS,39483,601-731-9896
Mcgee Trucking,711 S Elmwood Circle,Indianola,MS,38751,N/A
Price Trucking,54 Roosevelt Lane,Prentiss,MS,39474,601-943-5485
Cva Truck Service,1605 Monterey Rd,Florence,MS,39073,601-420-5580
Kyle Trucking,4804 Hwy 45 South,Columbus,MS,39701,662-327-6534
Mossy Creek Trucking LLC,168 Ward Loop,Columbia,MS,39429,601-731-9206
Holmes Trucking LLC,8107 Us Hwy 98,Sumrall,MS,39482,601-271-2161
Christian Trucking,Po Box 572,Magnolia,MS,39652,601-642-5901
Hallelujah Transport,37 Peachtree Lane,Seminary,MS,39479,601-752-3507
B & E Great Waters Expedited Truck Service,1851 Jamison Rd,Marks,MS,38646,662-326-5074
"J & C Trucking, Inc.",1009 Hwy 21s,Philadelphia,MS,39350,601-656-6496
R & R Trucking,121 Boxx St,Morton,MS,39117,601-732-7175
Dolphin Trucking,22581 Hwy 16 E,Carthage,MS,39051,601-267-4754
C & D Trucking,162 Apple Blossom Dr,Brandon,MS,39047,601-992-7142
Ks Trucking,211 Black Berry St,Charleston,MS,38921,662-647-1194
Ghost Trucking,2237 Cr 226,Coffeeville,MS,38922,662-675-8465
C A T Express,P O Box 302,Morton,MS,39117,601-537-9004
Leslie O Roberson Trucking,152 Mc-lawrin-pendleton Rd,Harrisville,MS,39082,601-858-2436
P & J Auto Sales,1003 Cr 179,Guntown,MS,38849,662-869-2043
Mcclollums Transport,111 Tate Circle,Greenville,MS,38701,662-332-3414
T S I,2150 First Commercial Drive,Southaven,MS,38671,662-342-6161
Bush Construction & Dump Truck Service,9221 Cook Road,Bailey,MS,39320,601-934-5717
M H Jones Trucking,773 County Rd 172,Iuka,MS,38852,662-423-1707
B J Trucking,Gerald Williams Drive,Laurel,MS,39443,601-426-6651
M & T Hauling,4183 Pleasant Hill Rd,Olive Branch,MS,38654,901-619-5000
Maples Septic Service,13417 Ware Lake Rd,Vancleave,MS,39565,228-826-1940
"Gulf Coast Intermodal, Inc.",141 River Road,Hattiesburg,MS,39401,601-554-0660
Hall Trucking,4429 Old Panola Rd,Sardis,MS,38666,662-563-3566
Terry Flowers Trucking,203 Vernice Ave,Ruleville,MS,38771,662-756-2690
C D Trucking,773 West St,Coldwater,MS,38618,662-622-5662
Gatewood Trucking,3505 Ringgold Rd,Forest,MS,39074,601-469-4525
Kaiser Trucking,2947 Vaughn Robertson Rd,Steens,MS,39766,662-574-4330
Closson Trucking Service,56 Luke Lane,Picayure,MS,39466,601-798-3255
Clint Rowell Trucking,259 Clear Creek Rd,Lumberton,MS,39455,601-794-7888
John H Sossaman Trucking,7397 Cr 211,Coffeeville,MS,38922,662-675-2273
Vmcw Trucking,716 North Cypress Lane,Picayune,MS,39466,601-798-9622
G W Express Trucking,116 Childress,Metcalfe,MS,38760,662-378-5217
Holmes And Son Trucking,1751 Brents Rd,Pottscamp,MS,38659,662-333-9051
Southern Steel Structures,28 Park St,Lucedale,MS,39452,601-947-1201
"Hubbard Trucking Company, Inc.",405 Haas Street,Vicksburg,MS,39180,601-634-8668
Little Money Trucking,129-a Greyline Drive,Vicksburg,MS,39183,601-661-6051
Westmoreland Trucking,300 Westmoreland Road,Blue Springs,MS,38828,662-488-6116
L R Crosby Jr Trucking,160 Crossroads Ch Rd,Sumrall,MS,39482,601-943-8000
G Y G Trucking,7117 Thistle,Ocean Springs,MS,39564,228-875-6235
B P Transport,188 Mossy Pond Rd,Purvis,MS,39475,601-794-5643
C L Trucking,43 Hooks Pond Rd,Mt Olive,MS,39119,601-797-9536
M P T,660 Robinson Rd,Grenada,MS,38901,678-428-8130
Turnpike Mountain Express,629 Cr 31,Iuka,MS,38852,662-423-3002
Triple K Trucking,3916 Sunset Drive,Jackson,MS,39213,601-981-1650
Jackson Trucking,5848 Tower Rd,Gloster,MS,39638,601-225-9858
D K W Trucking,2146 South Ridge Road,Jackson,MS,39292,601-373-1194
Holder Trucking,Po Box 5594,Van Cleave,MS,39565,228-826-2025
R & W Trucking,10124 Bancroft St,Bay Saint Louis,MS,39520,601-324-4626
Mobley Trucking,5928 York Rd,Lauderdale,MS,39335,601-513-8703
Billy Norman Trucking,3163 Hwy 51 Se,Bogue Chitto,MS,39629,601-754-1215
R B Trucking,601 Hwy 72a,Walnut,MS,38683,662-287-7781
C & D Trucking,Rt 1 Box 83,Eupora,MS,39744,662-258-6778
King Trucking,56 Longtown Rd,Crenshaw,MS,38621,662-382-7864
Lanehart Trucking,224 Silver Creek Rd,Crosby,MS,39633,601-888-7647
Pirate Trucking,Rt 1 Box 27,Bassfield,MS,39421,601-943-5279
Rak Trucking,309 Old Washington Rd,Natchez,MS,39120,318-334-8898
Double S Trucking,508 Marilyn Dr,Pearl,MS,39208,601-774-7227
Adkins Transportation,1762 Mcgee St,Jackson,MS,39204,601-918-2473
Jerry Williams Trucking,400 Eisenlauer,Belzoni,MS,39038,662-836-7656
Williams Trucking LLC,1204 Gill St,Columbia,MS,39429,N/A
Iron Horse Trucking,20905 Busby Road,Vancleave,MS,39565,228-826-2331
Tommy Frierson Trucking,3194 Jackson Landing Road,Nicholson,MS,39463,601-798-7266
American Lenders Service Co Of Gulfport,16524 Highway 49 N,Saucier,MS,39574,228-328-1415
J & A Singley Trucking,141 Coats Rd,Mt Olive,MS,39114,601-954-0235
Omni Movers,514 Second Street,Picayune,MS,39466,601-799-5735
Williams,46 Don Curt Road,Laurel,MS,39440,601-428-2214
Hailey Trucking,3161 Mathis Rd,Crystal Spring,MS,39059,601-892-5466
Holmes Trucking,Route 4 Box 238,Natchez,MS,39120,601-392-7199
Country Boy Trucking,4512 Butler Road,Shuqualak,MS,39361,601-677-3771
"Jarvis J Construction & Trucking, Inc.",150 West Jones St,West Point,MS,39773,662-494-6657
Price & Grandsons Family Trucking Co,203 Bruce Street,Winstonville,MS,38781,662-741-3166
Franks Express Freight Company,Apt A 409 1/2 N Madison St,Tupelo,MS,38804,662-840-1174
Tigue's Farm And Express Trucking Co,170 Tigue Road,Rena Lara,MS,38767,662-627-4325
A & M Trucking,125 Barberry Street,Oakland,MS,38948,662-623-9183
L S Trucking,Rt 1 Box 549,West Point,MS,39773,662-494-6211
Blount Trucking,1375 Dan St,Prentiss,MS,39474,601-792-2881
Davis Trucking,936 Savannah-millard Road,Poplarville,MS,39470,601-795-1373
M M T,7242 Little Rock-decatur Road,Little Rock,MS,39337,601-774-8973
Miller Trucking,137 Miller Rd,Petal,MS,39465,601-545-3112
Kbr Trucking,207 Maple Street,Coffeeville,MS,38922,662-675-2393
Mcatee & Son Trucking,1309 Pine Hilll Road,Oakland,MS,38948,662-902-6399
Klg Trucking,14489 Cemetary Road,Gulfport,MS,39503,228-216-2181
A Plus Trucking,6117 Hwy 22,Jackson,MS,39209,601-573-1196
Ripley Auto Sales,615 City Ave North,Ripley,MS,38663,662-837-8341
Rodgers Logistics,342 Nalco Lane Ne,Brookhaven,MS,39601,601-823-4093
Wallace Trucking,222 West China Street,Rolling Fork,MS,39159,601-925-0094
Gt Express,2031 Dear Road,Crystal Springs,MS,39059,601-892-7222
Cooper Trucking,906 Mill St,Moorhead,MS,38761,662-887-4468
Passman Trucking,86 Stephens Rd,Petal,MS,39465,601-544-3465
Here 2 There Hot Shot,3327 Hwy 49 S,Florence,MS,39073,601-845-8243
Duke Trucking,118 Robinson St,Belzoni,MS,39038,662-745-8700
Bond Trucking,8300 Us Hwy 98,Sumrall,MS,39482,601-264-9523
Brent Cobb Trucking,87 Hwy 49,Isola,MS,38754,662-265-5793
Shone Allen Trucking,64 Monticello Circle,Columbus,MS,39702,662-386-0941
Jimmy Cook Trucking,302 E Gresham,Indianola,MS,38751,662-887-1954
Sdl Enterprises,135 Verna Rd,Jayess,MS,39641,601-833-1043
F & T Trucking,949 W Mound Bayou Road,Mound Bayou,MS,38762,662-719-8380
Phillips Trucking,10060 Road 2640,Philadelphia,MS,39350,601-389-0126
A&g Auto Sales,19 Matthew Road,Mound Bayou,MS,38762,662-719-3431
J & E Trucking,205 Hicks Road,Preston,MS,39354,601-677-9114
S & E Trucking,1446 Hwy 15 N,Richton,MS,39476,601-788-6772
T & S Trucking,139 Siloam Church Rd,Magee,MS,39111,601-849-6514
Shane Cox Trucking,154 Cr 2640,Guntown,MS,38849,662-891-2714
Spencer Trucking,2768 Hwy 45 South,Waynesboro,MS,39367,601-648-2618
J Warren Trucking,203 S Davis Circle,Indianola,MS,38751,662-887-7096
Lynns Trucking,757 East Main,Midnight,MS,39115,662-247-4263
Lowry Brothers Trucking,315 N Highland Drive,Tupelo,MS,38801,662-844-3567
Mike Kitchens Trucking,13 Rufus Walley Rd,Richton,MS,39476,601-788-9215
Double K Farms & Trucking,217 Hardy Hodge Road,Laurel,MS,39443,601-425-1078
Woolbright Motor,307 Holly Hills Rd,Columbus,MS,39705,662-329-1811
Harrison Trucking,990 Cr 530,Ripley,MS,38663,662-837-7729
Srn Trucking,991 Timber Oaks Dr,Baldwyn,MS,38824,662-231-6907
Gause's Transport,20151 Nells Rd,Saucier,MS,39574,228-539-2800
Jason B Davis Trucking,4235 Melvin Shaw Road,Poplarville,MS,39470,228-255-9022
B & M Trucking,157 Thornton St,Lake,MS,39092,601-775-3280
Beard Transportation,5590 Old Canton Rd,Jackson,MS,39211,601-206-5799
O & W Trucking,833 Robinson Rd,Forest,MS,39074,601-625-0112
Pistol Pete's Express,22 Old Radio Road,Prentiss,MS,39474,601-792-2327
Brooks Trucking,2357 Forest Park Dr,Jackson,MS,39212,601-346-6181
Little Man Tate Trucking,36 Scotland Drive,Natchez,MS,39120,601-442-5810
Chris Carvan Trucking,544 Cr 228,Oakland,MS,38948,662-623-0373
Roosevelt Jones Trucking,58 Balducci Rd,Shelby,MS,38774,662-588-0753
Terry Leavy Trucking,Rt 2 Box 282a,Charleston,MS,38921,N/A
Ricky Bell Trucking,738 Gilbert Road,Boyle,MS,38730,N/A
Pipkin & Son Trucking,5236 Cr 211,Coffeeville,MS,38922,662-675-8402
Tyrone Powe Trucking,260 Claiborne Jones Road,Waynesboro,MS,39367,601-735-9754
Crawford Trucking,206 Hope Rd,Jayess,MS,39641,000-876-9127
Gerald Vance,306 Julianne Drive,Indianola,MS,38751,662-887-3794
My Three Sons Trucking,2017 County Road,Itta Bena,MS,38941,662-254-7333
C & R Trucking,57 Tom Warner Rd,Tylertown,MS,39667,601-876-6382
K B O Trucking,136 Brook Ridge Lane,Canton,MS,39046,601-859-1787
"Lily May Trucking, Inc.",2777 Terry Rd,Jackson,MS,39204,601-573-6735
Dunn Trucking,Rt 1 Box 244b,Eupora,MS,39744,662-258-3739
Causey's Trucking-gravel-sand,29 Magee's Creek School Dr,Tylertown,MS,39667,601-876-2072
C & C Trucking,620 Gaulden Clinton Rd,Centreville,MS,39631,601-645-5252
Carter Trucking LLC,1020 Neal Road,Picayune,MS,39466,601-273-0378
Alexis Trucking,2655 Turnipseed Rd,Weir,MS,39772,662-773-2811
Terry's Dixie Wash & Transfer,1361 Hwy 1 North,Greenville,MS,38704,N/A
M & H Transport,1004 Country Meadows Rd,Myrtle,MS,38650,662-988-2759
M D R Transport,124 Cr 500,Rienzi,MS,38865,662-462-3850
"Aps, Inc.",6251 Old Hill Road,Bay St Louis,MS,39520,228-463-1275
T & T Trucking,31gray Rd,Prentiss,MS,39474,601-792-4767
Fleming's Trucking,12049 Highway 371,Marietta,MS,38856,662-365-8007
Prestige Trucking Company,102 Moore Dr Apt K38,Greenville,MS,38703,662-378-8684
A & W Trucking,# 6 Lakewood Cove,Jackson,MS,39213,601-454-3164
S & J Auto Sales,50005 Athens Hat Leg Rd,Amory,MS,38821,662-305-5015
Hailee's Trucking,5300 Cc Road,Kiln,MS,39556,228-255-3729
Matthews Trucking,403 West Woodlawn,Natchez,MS,39120,601-446-4191
Gigat,9482 Hwy 45 Alt So,Crawford,MS,39743,662-272-8204
Edwards Trucking,Old Hwy 46,Mantee,MS,39751,662-456-7225
Dennis Plunkett Trucking,212 N Second St,Brookhaven,MS,39601,601-823-0467
Denton Trucking,1740 Old Highway 61,Lyon,MS,38645,662-627-1861
K D Trucking,383 Briarwood Lot # 110,Meridian,MS,39305,601-616-6611
Quality Transportation,721 Primos Ave,Jackson,MS,39209,601-713-3099
Brassell Trucking,956 Lawerence Brothers Rd,Batesville,MS,38606,662-710-4187
Whites Auto Sales,18 Cr 192,Corinth,MS,38834,662-287-1041
Robert Mars Trucking,217 Jj Holcomb Rd,Carriere,MS,39426,601-798-2279
Dasher Transportation LLC,12409 Moreton Place,Ocean Springs,MS,39564,228-875-1188
Hodges Trucking,20431 Landon Rd,Gulfport,MS,39503,228-831-0182
Luttrell Trucking,18 Bridalwood Drive,Poplarville,MS,39470,228-363-1753
Wofford's Trucking,156 Cr 76,Woodland,MS,39776,662-456-3950
Hernan Walker Trucking,319 Pink Smith Rd,Carriere,MS,39426,601-798-8551
Michelle Lee Trucking,28 Falcon Road,Natchez,MS,39120,601-442-1269
Willie Vance Trucking,156 County Road # 2,Houlka,MS,38850,662-448-9573
Kirby Trucking,303 Brooklyn Dr,Natchez,MS,39120,601-431-5970
Pace Brothers Trucking,1278 Us Highway 98 Bypass,Columbia,MS,39429,601-736-9225
W H N Trucking,2001 Silverwood Lane,Woodville,MS,39669,601-888-4343
K & D Trucking,363 Hwy 587,Foxworth,MS,39483,601-731-3738
Mosley Trucking,602 Residence St,Shuqualak,MS,39361,N/A
East Ms Express,2006 Valleyview Dr,Meridian,MS,39305,N/A
D & E Trucking,588 Old Country Club Rd Ext,Marion,MS,39342,601-483-0056
Pilgrim Trucking,Hwy 45 South,Brooksville,MS,39739,662-738-4695
E & C Transportation,102 Drive 1708,Saltillo,MS,38866,662-842-0902
Dickson Trucking,748 Logan Road,Lawrence,MS,39336,520-904-4411
Martin's Trucking,4 B Vernon Lane,Jackson,MS,39204,601-346-0022
Smith Trucking,130 Josh Lane,Lucedale,MS,39452,601-947-4931
Jones Trucking,1212 Harrison Road,Steens,MS,39766,662-244-5684
Crossroads Transportation,116 West Melody Lane,Corinth,MS,38834,662-287-1444
M & C Trucking,100 Quitman Ave,Crowder,MS,38622,662-326-5487
C & N Trucking,1828 River Side Road,State Line,MS,39362,601-848-7837
Morris Transportation,6422 Curtis Road,Batesville,MS,38606,662-578-2444
Healthcare Services Of Mississippi,934 Broadway Drive Suite 20,Hattiesburg,MS,39401,601-545-3007
F & J Express,79 Cr 291,Abbeville,MS,38601,662-234-4043
Dennis & Sons Trucking Company,1331 Cr 85,Coffeeville,MS,38922,662-675-8731
Graves Trucking,717 S Springlake Circle,Terry,MS,39170,601-668-0482
Circle T Transportation,21 Shadyhaven Rd,Roxie,MS,39661,601-442-0891
Perma Jack,180 East Park Avenue,Holly Springs,MS,38635,N/A
Rg & G Trucking Company,11 Cr 541 Lot # 7,Harmontown,MS,38619,662-526-0272
"Barmark's Express Trucking, Inc.",415 Brookhaven Street,Monticello,MS,39654,601-587-0492
Bull Mountain Trucking,26 County Rd 102,Corinth,MS,38834,662-284-9939
H & A Trucking,Rt 1 Box 183,Carson,MS,39427,601-943-6132
C & C Express,210 King St,Taylorsville,MS,39168,601-785-4570
Gower Trucking,1617 59th Pl South,Meridian,MS,39307,601-490-0735
Larry Trotter Trucking,360 Palston Ave,Coahoma,MS,38617,662-337-0196
C & G Express,23 School St,Pachuta,MS,39347,601-776-9155
Kemp Trucking,6050 Ebenezer Rd,Carthage,MS,39051,601-298-1550
Johnson Bro Trucking,1059 C R 157,New Albany,MS,38652,662-534-9110
A & B Trucking,78 Reese Rd,Carriere,MS,39426,601-798-1140
J & J Trucking,1422 E Lakeshore Dr,Carriere,MS,39426,601-916-3754
North Miss Trucking,1229 West Jackson St,Tupelo,MS,38801,662-840-3944
A J A Logistics,1338 Dora Road,Brooksville,MS,39739,662-272-5051
J & J Trucking,1707 W Jackson,Tupelo,MS,38801,662-225-1942
Amerigo Trucking,916 Turner Street,Waynesboro,MS,39367,N/A
Wilson Trucking Co,5270 Elmore Rd,Southaven,MS,38671,901-283-7556
B-mac Trans,555 Yocona Ave,Crowder,MS,38622,662-645-2622
M G Trucking,115 N Second St,Booneville,MS,38829,662-315-2125
Marshalls Auto,972 Hwy 49 N,Seminary,MS,39479,601-722-9168
Kyle Sones Dozer Service,157 L K Sones Rd,Carriere,MS,39426,601-798-5776
D & S Transport,795 Monie Vista Dr,Biloxi,MS,39532,228-326-5633
Byrd Trucking,1206 Scr 61,Mize,MS,39116,601-498-4287
G & G Transportation,808 Hillendale Dr,Hattiesburg,MS,39402,601-261-9548
Ezell Trucking,950 Woodrow Ezell Rd,Decatur,MS,39327,601-683-7899
M & M Trucking,327 Pearl St ,Houston,MS,38851,662-456-7044
Long Hauling,8929 Fisher Ferry Road,Vicksburg,MS,39180,601-456-3330
Ken's Trucking Service,1889 Hwy 15 N,Richton,MS,39476,601-689-7115
Redneck Express,7179 Macon-lynn Creek Road ,Macon,MS,39341,662-574-7786
Patrick Miller Trucking,8959 Hwy 14 East,Louisville,MS,39339,662-779-2476
Dean Transportation,12284 Springridge Rd,Terry,MS,39170,601-372-7471
Shady Express,3337 Hwy 26 W,Poplarville,MS,39470,601-772-9023
Cjt Auto Sales,2119 Hopper Road Lot 2,Lucedale,MS,39452,601-947-1550
Goss Dozer Service LLC,36 Monk Mitchell Rd,Picayune,MS,39466,601-798-6330
J Truck 1,4878 Hwy 309 So,Byhalia,MS,38611,662-564-2893
R L E Trucking,123 Rebecca St,Magee,MS,39111,601-382-2545
Bear Trucking,1485 Browns Bridge Rd,Hattiesburg,MS,39401,601-544-8324
Tez & Son Trucking,Po Box 783,Mt Olive,MS,39119,601-797-9817
Rds Trucking,370 Barrow St,Pearl,MS,39208,601-936-9053
Greer's Hauling,1650 Westwood Ln Nw,Brookhaven,MS,39601,601-833-9443
A S Trucking,1000 North 34th Ave,Hattiesburg,MS,39401,601-271-2389
Kiwi Distribution,Po Box 5283,Greenville,MS,38704,662-335-0957
Whitney Trucking,Route 4 Box 264,Natchez,MS,39120,601-445-5277
E & E Trucking,1301 Windsor Dr,Hattiesburg,MS,39401,601-579-9591
D & D Hurst Trucking,2669-d Antitoch Perkins Road,Gloster,MS,39638,601-225-7216
Hot Rod's Dozer Service,420 Craft St,Holly Springs,MS,38635,662-252-0959
"Shiloh Hills Carriers, Inc.",46 Shiloh Road,Laurel,MS,39441,601-649-3782
Adams Hot Shot,29040 Hwy 51 North,Crystal Spring,MS,39059,601-892-4034
Owen Harris Trucking,3635 Lagrange Rd,Mathiston,MS,39752,662-258-3645
B & L Trucking,1061 Road 193,Blue Springs,MS,38828,662-871-1077
R & M Delivery Carpenters,27756 Hghwy 32 E,Oakland,MS,38948,901-409-3057
Page Trucking,106-b Heritage Lane,Plantersville,MS,38862,662-346-6269
Pate Transportation,363 Livingston Vernon Rd,Flora,MS,39071,601-317-0282
Hudson Trucking,937 Hwy 98 West,Kokomo,MS,39643,N/A
Segura Trucking,9609 Oakdale St,Ocean Springs,MS,39565,228-238-1796
James Trucking,3651 Little Rock County Line Rd,Union,MS,39365,601-774-8325
R & R Trucking,311 N Broadway St,Natchez,MS,39120,601-304-0737
Mayo Trucking,61cr Meadows Loop,Richotn,MS,39476,601-788-6517
T & J Trucking Corp,175 Marshview Lane,Byhalia,MS,38611,662-851-7631
L & R Reed Trucking,108 South Street,Shuqualak,MS,39361,662-793-4814
Mek Trucking,6969 Mcgowen Rd,Lake Cormorant,MS,38641,901-461-3409
W Trucking,2634 E Lake Blvd 5-9,Robinsonville,MS,38664,662-363-7938
Heard Contract Hauling,1719 Harris Rd,Decatur,MS,39327,601-928-9601
Brown Trucking,Route 4 Box 102 A,Eupora,MS,39744,662-637-2548
Rdb Contract Hauling,90 Mitchell Rd,Poplarville,MS,39470,601-268-3355
Srf Transport,107 Lawrence Dr,Calhoun City,MS,38916,662-628-5400
Hooks Express,Jc Stonnis Dr,Louisville,MS,39339,601-260-3159
Hl&j Trucking,3432 Nola Rd,Brookhaven,MS,39601,601-823-0652
Bobby G Burge Trucking,975 West Bobo Rd,Clarksdale,MS,38614,662-497-7808
Automotive Equipment Warehouse,1303 B Nelle St,Tupelo,MS,38801,662-680-4393
Jenkins Wrecker Service,4776 Hwy 11 N,Purvis,MS,39475,601-794-5167
P & F Express,260 Fate Ward Rd,Carson,MS,39427,601-792-2327
M & M Auto Sales,62 Cr 1211,Booneville,MS,38829,662-720-0347
Allen Farms & Trucking,Rt 1 Box 183,Silver City,MS,39166,662-247-4082
G & G Contract Hauling,5600 Hwy 513,Stonewall,MS,39363,601-659-3217
Brisco Transport,437 Hwy 432,Benton,MS,39039,662-673-0276
J & J Trucking,199 A Holly Bush Road,Waynesboro,MS,39367,601-671-0296
C&m Trucking,5890 Ferncreek Dr,Jackson,MS,39211,601-978-3330
Jens Trucking,727 North Hill Dr,Hattiesburg,MS,39401,601-582-9223
Stt,30100 Bourland Drive,Aberdeen,MS,39730,662-436-5599
Fairley Trucking Company,1406 Bradley,Beaumont,MS,39423,601-323-1800
Bill Nicholson Trucking,10170 Box 361,Union,MS,39365,601-650-9325
Qp Express Freight,506 Third Street,Cleveland,MS,38732,662-843-1506
Ironhorse Trucking Co,6251 Old Hill Road,Bay St Louis,MS,39520,228-341-4600
Copeland Automotive,1701 Hwy 72 West,Corinth,MS,38834,662-287-1944
Kae Trucking,4936 Gloster Road,Meadville,MS,39653,601-384-0128
G & R Transport,245 Cr 400,Rienzi,MS,38865,662-462-5210
Little Ponderosa Trucking,504 St Paul Rd,Byhalia,MS,38611,662-838-4893
Freeman & Son Trucking,149 B Dozier Rogers Road,Lucedale,MS,39452,601-770-1704
Triple B Express,111 Cr 444,Quitman,MS,39355,601-934-1232
P & G Trucking,557 Young Crossing Road,Louisville,MS,39339,601-773-7506
Fortitude Logistics,602 S Spring Street,Fulton,MS,38843,662-862-3355
Mc Kinley Latham,800 Henry Hall Rd,Mound Bayou,MS,38762,662-741-2303
Michael T Trucking,401 Bouslog St,Gulfport,MS,39507,228-822-9048
Ram Trucking,5162 Hwy 301,Walls,MS,38680,901-212-3177
Randall's Auto Transport,5206 Highway 80,Jackson,MS,39209,601-260-9219
Sturdivant Brothers Flying Service,738 Sturdivant Road,Glendora,MS,38928,662-375-9315
C & F Express,777 Dale Road,Duck Hill,MS,38925,662-565-2460
B & D Transport,11 Knotts Road,Natchez,MS,39120,601-445-0852
King Of The Road Transportation,86 Hal Crocker Rd,Ellisville,MS,39437,601-477-5200
G R I Trucking,40069 Rye Bottom Rd,Hamilton,MS,39746,662-343-9051
Stricks Transport Services,536 Claybourie Rd,Heideleberg,MS,39111,601-935-0513
M & A Trucking,11043 Chunky Duffee Rd,Little Rock,MS,39337,601-986-5276
Smith Trucking,2230 Misty Woods Rd,Lk Cormorant,MS,38641,662-429-5208
A J R Trucking,7705 Old Hwy 80,Lake,MS,39092,601-775-0201
4 H Trucking,319 J W Matthews Street,Pace,MS,38764,662-723-6739
Bad J Trucking,45 Cr 229,Iuka,MS,38852,662-423-9822
Clarks Trucking,23880 Highway 80 West,Chunky,MS,39323,601-655-8400
D C Trucking,537 Barnes Landing Road,Greenville,MS,38701,662-378-3891
3 D Trucking,5671 Highway 14 East,Louisville,MS,39339,662-773-8555
"Stu-no Hauling, Inc.",702 Magnolia Drive,Indianola,MS,38751,662-836-4333
D & A Transportation,169 Townsend Dr,Florence,MS,39073,601-845-1111
Gafford Trucking Company,1023 Cr 47,Etta,MS,38627,662-534-8973
Hullette Trucking,120 Peach Tree Street,Senatobia,MS,38668,662-562-5979
Rocky Langston Trucking,811 Hooper Millcreek Rd,Carthage,MS,39051,601-267-3208
Mcgregor Transport,2512 W Reynolds Street,Pontotoc,MS,38863,662-489-1659
S & J Mobile Home Service,1046 Hwy 315,Water Valley,MS,38965,662-473-9779
D King Trucking,105 Cobblestone Rd,Walnut Grove,MS,39189,601-416-5169
Randy Mcwilliams,141 Agnes Windham Rd,Magee,MS,39111,601-765-3887
C D C Trucking,Rt 6 Box 665,Lucedale,MS,39452,601-947-1505
"P J Trucking, Inc.",133 Harris St,Crystal Springs,MS,39059,601-892-5143
Hughes Trucking,Mount Horeb Rd,Seminary,MS,39479,601-722-4881
Kenny Castle Trucking,961 County Road 282,Quitman,MS,39355,601-776-2480
F & S Trucking,Rt 1 Box 797,Sumrall,MS,39482,601-943-6022
Big Jim Trucking,3400 Lyles Rd,Senatobia,MS,38668,601-562-7695
Holly Britt Trucking,10 Park Road,Glen Allan,MS,38744,662-839-2060
Wood Mobile Home Contractors,116 S Cr 64,Mize,MS,39116,601-808-0191
Mccoy's Auto Sales,Po Box 803,Booneville,MS,38829,662-728-0405
Motens Crain Hauling,3795 Hwy 315 West,Sledge,MS,38670,662-382-5941
Westside Trucking,Rt 10 Box 53,Corinth,MS,38834,601-287-0136
Jeff Holcombe Trucking,660 Hwy 45 North,West Point,MS,39773,601-494-7614
Tommy's Car Care Center,411 Old White Rd So,West Point,MS,39773,662-494-0160
Lake City Express,601 Apple Valley Rd,Grenada,MS,38901,601-227-1266
Geco Transport,Hwy 49,Inverness,MS,38753,601-265-6012
Hughes & Son Trucking,287 Perry Dr,Lyon,MS,38645,601-627-1465
Baldwin's Wrecker Service,501 Highway 45 North,Columbus,MS,39701,601-329-3294
"Railway Services, Inc.",205 Industrial Park Road,Winona,MS,38967,601-283-4803
T B S Autos,Rt 1 Box 170-a,Corinth,MS,38834,601-287-5758
Bridgman Trucking,104 Reynolds St,Pontotoc,MS,38863,N/A
Power Mobile Home Service,Rt 2 Box 165c,Eupora,MS,39744,601-258-7825
Sanford Trucking,Rt 4 Box 261,Carriere,MS,39426,601-798-5686
M Robinson Trucking,121 Shiloh Drive,Morton,MS,39117,601-732-2327
T M Brown,135 Cr 208,Houston,MS,38851,601-956-4112
21st Century Trucking,154 Mayfait Drive,Jackson,MS,39212,601-922-0563
Mcfarland Trucking,4673 County Rd 320,Enterprise,MS,39330,601-659-9262
R & S Trucking,816 Chulahoma Road,Holly Springs,MS,38635,662-564-4262
M & B Transport,114 Copeland Dr,Sandersville,MS,39477,601-428-8819
Goodson Trucking,Rt 5 Box 985,Batesville,MS,38606,601-563-3051
Dawson's Recycling & Trucking,237 Greenfield Rd,Natchez,MS,39120,661-431-4144
Barnes Trucking Co,8 Cr 5353,Marietta,MS,38856,601-728-5122
Bar B Trucking,P O Box 354,Marion,MS,39342,601-679-7569
Stanley Mangum Trucking,Rt 4 Box 213a,Magee,MS,39111,601-849-4219
K L T Transport,Rt 2 Box 149 1a,Baldwyn,MS,38824,601-365-7080
Big Sycamore Properties LLC,1124 Jeff Sanders Road,Batesville,MS,38606,662-563-8251
Hughes Trucking,R 1 Box 673,Plantersville,MS,38862,N/A
Eagle Transportation,1109 Hwy 11 S Suite C,Picayune,MS,39466,800-261-2519
"Joshua Bus Service, Inc.",115 Juanita Blackwell Drive,Beaumont,MS,39423,601-268-3416
Jill Trucking,705 S 5th St,Rolling Fork,MS,39159,601-873-2169
Papa Smurf Trucking,Rt 2,Newton,MS,39345,601-683-6138
Madison Trucking,1058 Fairview Avenue,Greenville,MS,38701,601-335-2180
Dan Sullivan Trucking,Box 151a Rt 1,Saltillo,MS,38866,601-869-5157
Enterprise Trucking,2110 Lynch St,Jackson,MS,39209,601-355-7593
R & B Trucking,P O Box 41,Nettleton,MS,38858,N/A
Talley Auto Sales,205 Norman Road,Corinth,MS,38834,662-287-9833
L & L Trucking,Rt 1 Box 504 C,Leland,MS,38756,601-335-9408
C & W Trucking,187 Springfield Rd,Carthage,MS,39051,601-267-4066
Jamie Chaffin Trucking,219 Hwy 366,Marietta,MS,38856,601-365-3368
Harvey Mobile Home Movers,600 N Bayou Avenue Lot 12,Cleveland,MS,38732,601-843-0032
Hester's Mobile Home Service,283 Bubba Taylor Rd,Byhalia,MS,38611,601-838-2822
Plumpp's Trucking LLC,326 E Sowell Rd,Canton,MS,39046,601-856-2308
T R C Trucking,2501 W 7th St Apt #706,Hattiesburg,MS,39401,601-544-6449
Allen Trucking Services,5292 Circle 20,Minter City,MS,38944,601-658-4453
L & R Auto Transportation,Po Box 388,Columbia,MS,39429,601-736-1178
Woody's Express Trucking,10 Harmon Circle,Batesville,MS,38606,601-563-8343
Gardner Trucking,Route 2 Box 198g,Saltillo,MS,38866,601-840-6388
Movers & Shakers,913 West Pine St,Hattiesburg,MS,39401,N/A
B & L Trucking,61 Hisaw Road,Sarah,MS,38665,662-562-6242
B H B Transport,308 Calhoun Street,Calhoun City,MS,38916,662-628-5830
Fisher Trucking Co,5026 Rollingwood Estate Drive,Vicksburg,MS,39180,601-638-7129
Funches Trucking,Lott 9 Underhill Street,Raymond,MS,39154,866-857-4340
Tony Rooney Trucking,8 Rd 430,Iuka,MS,38852,662-423-2459
S & S Trucking,Rt 2 Box 99a,Bruce,MS,38915,N/A
J D Broome Trucking,1690 Old Hwy 24,Hattiesburg,MS,39402,601-261-3903
George Mcghee Trucking,303 Martin Luther King Dr,Mccomb,MS,39648,601-684-7392
Jim Turner Trucking,Po Box 79,Bruce,MS,38915,601-983-4042
Gant Trucking,Rt 5 Box 123,Corinth,MS,38834,601-287-3843
R B Trucking,Rt 1 Box 60b,Sarah,MS,38665,601-562-5565
"Pine Belt Recycling, Inc.",1244 N Meridian Ave,Laurel,MS,39440,601-422-0945
Smitty Trucking,7020 Labouy Road,Pass Christian,MS,39571,770-908-1031
Continental Express,2880 19th St Ste D,Gulfport,MS,39501,N/A
Luna Brothers Auto Sales,Cr 536 Box 50,Ripley,MS,38663,601-837-7171
Walley's Rollback Service,135 Stevens Street,Petal,MS,39465,601-544-0690
David Skinner Transportation,100 West Church St,Newton,MS,39345,601-482-8632
S & S Trucking,756 County Rd 664,Quitman,MS,39355,601-776-5208
W & W Truck Line,54 Guard Rd,Parchman,MS,38738,601-745-8473
T J's 99 Cent And More,422 Hwy 481 So,Morton,MS,39117,601-732-2834
Mike's Auto Sales,30 Cr 192,Corinth,MS,38834,662-603-2535
Martin Trucking,2052 Magnolia,Magnolia,MS,39652,601-783-6033
Ray Spencer Trucking Of Tupelo,184 County Road 855,Shannon,MS,38868,662-767-8573
Larry Garner Trucking,1041 Scr 516 S,Raleigh,MS,39153,601-269-3307
Tommy Ramsey Trucking,33100 Hwy 23 E,Hazelhurst,MS,39083,601-894-2652
B&r Trucking,6647 Cr 216,Oakland,MS,38948,601-623-8696
Greg Massey Trucking,Rt 3 Box 293 B,Booneville,MS,38829,601-837-3170
J D C Trucking,2760 Old Wire Rd,Meridian,MS,39301,601-483-1178
P L Trucking,2191 Dyess Bridge Road,Waynesboro,MS,39367,601-735-5776
Lawrences Hot Shot Service,Rt 3 Box 215,Monticello,MS,39654,601-587-4694
Unity Express,P O Box 429,Metcalfe,MS,38760,662-887-4479
C & M Trucking,128 County Rd 604,Corinth,MS,38834,662-287-9583
Doug Breland Trucking,58 Rome Rd,Perkinston,MS,39573,601-928-5001
Mayfield Trucking,3535 Hwy 301 N,Lake Cormoran,MS,38641,601-781-3661
Anderson's Express,335 St Joe Blvd,Pearl,MS,39208,601-932-6508
Cherub Trucking,8021 Lazy Acres,Pass Christian,MS,39571,601-452-4938
Michael Floyd Trucking,5741 Ms Hwy 568,Osyka,MS,39657,601-542-5324
Daniels Trucking,Rt 1 Box 1220,Silver Creek,MS,39663,601-886-7336
Tommy's Delivery Service,133 Barrett St,Jackson,MS,39204,601-355-5504
"Joe Reves Trucking Co, Inc.",1646 Carpenter Rd,Grenada,MS,38901,601-226-2563
C H Trucking,694 Williams Rd,Florence,MS,39073,601-845-3259
P J Trucking,4712 Hwy 589,Sumrall,MS,39482,601-758-4915
K & H Trucking,Rt 2 Box 89,Braxton,MS,39044,601-847-5774
Williams Trucking,Old Barn Road #5,Laurel,MS,39443,601-649-9426
Sisco Trucking,8642 Hwy 336,Thaxton,MS,38871,662-286-2806
S Bar S Trucking,1217 S 6th Ave,Cleveland,MS,38732,601-843-7183
Dean Trucking,53 Castleberry Cove,Byhalia,MS,38611,601-838-2877
Fugler Trucking Co,119 N 6th St,Mccomb,MS,39648,601-249-1040
Jason Swords,651 Spain Rd,Ecru,MS,38841,662-509-9684
Crossroads Trucking Company,3825 Hwy 63 So,Moss Point,MS,39567,601-497-1092
Charlies Truck's,2812 Pine Circle Dr,Pearl,MS,39208,601-372-2324
Southern Style Trucking,21 Cr 7515,Baldwyn,MS,38824,662-365-3036
Larry C Johnson Trucking,1200 Magnolia Progress Rd,Mccomb,MS,39648,601-783-6241
P & S Trucking,Rt 1 Box 333-a,Corinth,MS,38834,601-286-9766
R & L Trucking,25608 Wallace Saucier Rd,Saucier,MS,39574,601-831-2663
Thompson Trucking,Hwy 389 Rt 1 Box 168,Pheba,MS,39755,601-494-7391
M & G Trucking,3265 Hwy 45 N,Quitman,MS,39355,601-776-5296
Timber Express,106a Carter St,Quitman,MS,39335,601-776-6621
"A-1 Mobile Home Service, Inc.",1407-a Harper Rd,Corinth,MS,38834,601-286-9946
B & L Trucking,127 Short Street,Brookhaven,MS,39601,N/A
T & M Trucking,19586 B Saucier Rd,Saucier,MS,39574,601-832-9412
Stonewall Trucking,12880 Byhalia Rd,Byhalia,MS,38611,601-838-3498
Hayes Trucking,1376 Matherville Diamond Rd,Waynesboro,MS,39367,601-687-1383
Ramblin Rose Trucking,P O Box 283,Hickory,MS,39332,N/A
Wayne Young Trucking,717 Hyron Ave,Poplarville,MS,39470,504-732-0417
Bagwell Trucking,109 Montgomery St,Edwards,MS,39066,601-852-2862
Salmon Trucking Co,15237 Pendora Lane,Gulfport,MS,39505,530-941-7800
"Reid Trucking, Inc.",169 West Broad St,Monticello,MS,39654,601-587-2993
Woods And Son Trucking Co,Route 3 Box 72-a,Winona,MS,38967,601-464-5618
Ira Young Trucking,2 Cricket Lane,Natchez,MS,39120,601-442-1232
Howell's Trucking,5865 Southridge,Olive Branch,MS,38654,901-496-1939
Sullivan Trucking,20527 Bond Rd,Saucier,MS,39574,601-831-0173
Lloyd's Trucking,1107 Four Street,Indianola,MS,38751,601-951-8252
C & J Trucking,31 Albert Ezell Drive,Buckatunna,MS,39322,601-648-2429
"T & L Trucking, Inc.",Rt 3 Box 185,Magee,MS,39111,601-269-3408
"R & A Delivery Service, Inc.",1214 Newman Trail Ne,Brookhaven,MS,39601,601-948-4389
Scott's Trucking,405 Coleman Street,Como,MS,38619,601-526-5388
Robinson Trucking Co,717 Shield St,Greenville,MS,38701,601-334-9250
Mcnair Trucking Company,3450 Hwy 305,Olive Branch,MS,38654,901-493-9961
Thomas Bishop Trucking,288 County Road 673,Quitman,MS,39355,601-776-5050
Circle B Trucking Co,12289 Highway 98e,Lucedale,MS,39452,601-947-2233
Rucker Trucking,106 Peyton Dr,Leland,MS,38756,601-686-2423
D & D Express,310 Holly Street,Tutwiler,MS,38963,662-345-8381
E & S Underwoood Trucking,13160 Old Port Gibson Road,Hazelhurst,MS,39083,N/A
Stones Trucking,Rt 6 Box 279-14,Corinth,MS,38834,601-286-9413
Froshour Excavating & Trucking,927 August Landing Rd,Columbus,MS,39702,601-328-8312
Jrl Truckingg,211 Town Square,Bruce,MS,38915,601-983-4320
S & R Trucking,5072 Magnolia Progress Rd,Magnolia,MS,39652,601-783-3891
Star Express Mail Service,7870 Us Hwy 49 N,Jackson,MS,39209,601-355-1617
Rickey Evans Trucking,Rt 2 Box 170,Oakland,MS,38948,601-647-3168
Goodloe Trucking,528 Tithelo Rd,Canton,MS,39046,601-932-7691
C & S Trucking Company,Rt 2 Box 26a,Sallis,MS,39160,601-289-3029
Vanosdol Trucking,391 Water Oak Road,Waynesboro,MS,39367,601-735-3687
Jimmie Brice Box Trucking,417 Stebbins,Greenville,MS,38701,601-335-7687
Gardner Trucking,120 Key Road,Greenville,MS,38701,662-335-7817
H & H Trucking,306 Birch Ave,Indianola,MS,38751,601-887-7324
Loper Trucking,17 Strengthford-plst Gr Rd,Laurel,MS,39443,601-735-6199
Terry E Kittrell Trucking,553 Kittrell Road,Lucedale,MS,39452,601-947-4301
Twb Trucking,Rt 1 Box 224a1,Cedar Bluff,MS,39741,601-494-4840
R & T Trucking,2535 Ob Hwy 2 East,Walnut,MS,38683,601-837-7031
J M Youngblood Trucking,2747 County Road 20,Rose Hill,MS,39356,601-727-7412
J & J Trucking,246 New Hope Road,Pontotoc,MS,38863,662-489-6782
B And H Trucking,451 Jim Owens Rd,Lake,MS,39092,909-473-1450
Perry's Hauling,100 Felicity St,Brandon,MS,39042,601-824-4411
Easy Flyer,6102 Us Hwy 98 West Ste 1,Hattiesburg,MS,39402,601-261-3232
Lofton Trucking,56 Slater West Road,Buckatunna,MS,39322,601-735-5893
Steve's Trucking,262 State Line Copeland Rd,State Line,MS,39362,601-848-7415
Mauney Trucking,Route 1 Box 148,Corinth,MS,38834,601-286-8681
L & H Trucking,50088 Priestville Rd,Gattman,MS,38844,662-257-1389
James Epperson Trucking,255 Hwy 364,Tishomingo,MS,38873,601-424-0033
"Best Trucking, Inc.",Rt 2 Box 335,Sardis,MS,38666,601-487-3728
"Double D Transport, Inc.",2227 Old Highway 51 Ne,Wesson,MS,39191,601-823-3196
Moulds Trucking,Cb 3002 Sinclair St,Lucedale,MS,39452,601-947-7902
Fondren Trucking Co,301 Wood Ext,Batesville,MS,38606,601-563-3190
C & G Trucking,10 Winter Rd,Holcomb,MS,38940,601-455-6999
"Triple T Trucking, Inc.",1755 Baptist Rd,Nesbit,MS,38651,601-429-5005
Mike Sharp Trucking,Hwy 19 South Rt 4 Box 420-b,Philadelphia,MS,39350,601-656-8395
Begrin & Sons Trucking,1315 Ridge Rd,Sarah,MS,38665,601-562-8875
Morgan Trucking Company,Route 6 Box 34-a,West Point,MS,39773,601-494-1228
Taylor's Farm Trucking,Route 1 Box 240,Monticello,MS,39654,601-833-0307
Rusty's Trucking,282 E Reservoir Rd,Columbia,MS,39429,601-736-1879
K & G Trucking,220 Strangi Ave,Biloxi,MS,39530,228-432-0621
T R Trucking Company,Cr 5001 House #7,Wheeler,MS,38880,601-365-5440
D&d Wholesale Auto Sales & Service,Hwy 16 West,Philadelphia,MS,39350,601-656-7381
Cjjjmtrucking,7414 Paddock Cv,Southaven,MS,38671,601-342-4506
Quality Transport,2255 Switzer Rd Apt J103,Gulfport,MS,39507,228-897-2530
D & K Trucking,2751 Hwy 43 S,Picayune,MS,39466,601-799-1756
T & S Transport,3268 Pleasant Hill Rd,Nesbit,MS,38651,601-392-7532
K & B Trucking,2680 Poplar Corner Drive,Lake Cormorant,MS,38641,662-781-9426
Johnson Trucking,720 West Sunset Drive,Brandon,MS,39042,601-825-0404
Dickerson Trucking,9505 Highway 395,Noxapater,MS,39346,601-724-4775
Ulmer Trucking Co,11313 Robert Walker Rd,Van Cleve,MS,39565,228-826-4560
American Eagle Transport,845 I Hwy 11,Petal,MS,39465,601-582-8999
D & L Trucking,Rt 3 Box 405 B,Baldwyn,MS,38824,601-365-7305
Clyde Archie & Sons Trucking,181 Davis Road,Canton,MS,39046,601-855-2481
Stallings Wrecker Service,1007 Tanglewood Rd,Magnolia,MS,39652,601-783-5741
Haynes Trucking Company,4989 Dr Anderson Rd,Centreville,MS,39631,601-225-4647
Sikma Trucking,64 Tuttle Lane,Byhalia,MS,38611,662-838-3204
Wanda's Trucking,22390 Mennonite Road,Gulf Port,MS,39503,228-831-1656
John Creel Trucking,1017 Dogwood Ave,Richton,MS,39476,601-788-9764
Stanley Thompson Trucking,75 A Cr 151,Bruce,MS,38915,601-983-7209
Cates Trucking,190 Daniels Rd,Coldwater,MS,38618,662-560-7519
Hill's Wrecker Service,188 White Chapel Rd,Purvis,MS,39475,601-794-2627
Croft Trucking,2980 Thaxton Road,Thaxton,MS,38871,662-488-0460
Twin Oaks Trucking,1791 Evans Loop Se,Ruth,MS,39662,601-835-5042
Taylor's Transport,3734 Howze St,Moss Point,MS,39563,228-474-9008
Delta Sales & Service,1507 S Gloster,Tupelo,MS,38801,601-680-3335
Singley Transport,137 Whiddon Lane,Purvis,MS,39475,601-794-2177
Bradley Trucking,1650 Oak Court,Hernando,MS,38632,662-429-7909
Carter Transportation,Rt 4 Box 16,Corinth,MS,38834,601-287-4817
L & Z Trucking,68 Jordan Lane,Columbia,MS,39429,601-731-6377
Doyle G Kyle Trucking,506 Hudson Dr,Utica,MS,39175,601-885-6441
R J Trucking,Rt 3 Box 311 B,Magee,MS,39111,601-849-6240
Newsome Rollback Service,464 Eastabutchie Rd,Petal,MS,39465,601-544-9897
Larry Ladner Trucking,6450 Highway 53,Poplarville,MS,39470,228-255-4188
Triple T Trucking,304 O'neal Road,Perkinston,MS,39573,601-928-4018
Solid Gold Trucking,3127 Greenfield Rd Lot 229,Pearl,MS,39208,601-664-9690
Big H Trucking,880 Cedarlake Rd Lot 14a,Biloxi,MS,39532,601-388-7229
Barnes Trucking,550 Williamsburg Rd,Bassfield,MS,39421,601-943-8182
Kelley-n-sons Trucking,79 Scenic Drive,Hattiesburg,MS,39401,601-544-0843
A&a Express,15604 Van Eaton Cr,Biloxi,MS,39532,601-392-1711
Stan Daniel Trucking,Rt 2 Box 213 A,Raleigh,MS,39153,601-789-5589
G & J Trucking,4202 Dean Rd,Nesbit,MS,38651,601-393-4623
Kevin Funchess Trucking Company,2030 Brushy Creek Road,Georgetown,MS,39078,601-858-2399
Seismic Oil Services,39 Sunrise Hgt,Petal,MS,39465,601-582-1062
Thompson Trucking,231 Culbertson Ave,Jackson,MS,39209,601-354-0476
Laverne & Co Transport,225 Lameuse St,Biloxi,MS,39530,601-374-2222
Fairley Trucking,16202 W River Drive,Kiln,MS,39556,601-255-5221
Shelton Powe Trucking,16 County Farm Road,Waynesboro,MS,39367,601-735-4298
J & T Trucking,621 Gates Rd,Columbia,MS,39429,601-736-0661
Lorthridge Trucking,759 Beaverbrook Dr,Jackson,MS,39206,601-981-8528
Redman Trucking Co,Hwy 63 South,Leakesville,MS,39451,601-394-2660
J & J Trucking,603 Gum St,Sumrall,MS,39482,601-736-9418
Trace Hauling,Hwy 3 & Sabino Road,Lambert,MS,38643,N/A
Reid's Trucking,14 Spence Ln,Monticello,MS,39654,601-587-4623
Cl & Y Trucking,314 W Henry St #23,Greenwood,MS,38930,601-453-4708
W W Trucking Co,7490 Church Rd West,Walls,MS,38680,601-781-3158
James L Castle Trucking,1345 Cr 282,Quitman,MS,39355,601-776-9326
Melton Transportation,Po Box 305,Houston,MS,38851,N/A
M & C Transport,1678 James Street,Hattiesburg,MS,39401,601-545-9626
Rem Transportation Services,13 Cedar St,Charleston,MS,38921,662-809-0668
Bobo Trucking,Curtis Rd,Batesville,MS,38606,601-563-1657
D & J Trucking,Rt 1 Box 820 A,Sumrall,MS,39482,601-943-8177
K&b Express,11-a Street,Charleston,MS,38921,601-647-8879
Dearing Trucking,205 Lillian Ave,Newton,MS,39345,601-683-2977
R C Hall's Trucking,14 Pump Branch Rd,Wiggins,MS,39577,601-928-4437
B & B Trucking,1105 Garrard Ave,Indianola,MS,38751,601-887-6836
G & K Trucking,1st Street,Flora,MS,39071,601-879-8719
E I Trucking,4878 Simpson Highway 49,Braxton,MS,39044,601-847-4706
Mcqueen Trucking,1850 Old Hwy 35 N,Columbia,MS,39429,601-731-2131
A & T Transports,503 East Wilson,Greenwood,MS,38930,601-455-4902
Wilson Transport,126 Carter St,Belzoni,MS,39038,601-247-4125
Jernigan Trucking,Rt 3 Box 989,Macon,MS,39341,601-726-2720
Brian Havard Trucking,113 White Oak,Mclain,MS,39456,601-945-2912
Lee Trucking,405 County Farm Road,Lumberton,MS,39455,601-796-3829
M & H Trucking,Rt 3 Box 6 G,Monticello,MS,39654,601-587-9250
Jason Rollins Trucking,6326 Ms Hwy 567,Liberty,MS,39645,601-657-9268
Pel Trucking,212 Firth Littlefield Rd,Mclain,MS,39456,601-945-2362
Blackwell Trucking,1219 Mcclure Rd,Jackson,MS,39212,601-371-1435
Dick Wallace Trucking,3421 12th Street,Gulfport,MS,39501,601-868-2842
S & T Warren Trucking,5801 Tchulahoma,Southaven,MS,38671,662-349-5670
Allen Hauling,932 Hwy 583 Se,Brookhaven,MS,39601,601-833-7554
Lenoir Trucking,932 3rd St,Osyka,MS,39657,601-542-5360
Woody Trucking,2341 Hwy 301,Lake Cormorant,MS,38637,601-781-2214
Cooper Trucking,9600 Seaman Rd,Ocean Springs,MS,39565,601-875-9443
Wright Trucking,635 King Bee Rd,Wiggins,MS,39577,601-928-7743
L & T Transport,196 Carey Byrd Road,Carriere,MS,39426,601-720-1163
First Class Trucking,405 Holly Street,Long Beach,MS,39560,601-863-0648
S E Duncan Trucking,428 N Main,Poplarville,MS,39470,601-795-4325
Wenward Trucking,22499 Armes Rd,Saucier,MS,39574,601-831-9049
Glen Henderson Logging,4797 Love Well Rd,Richton,MS,39476,601-989-2385
Irving Scott Trucking,1625 Nixon Street,Picayune,MS,39466,601-798-9184
Five Star Express,2315 Pass Rd,Gulfport,MS,39501,601-868-7345
F E W Trucking,Rt 2 Box 193,Meadville,MS,39653,601-384-5169
Abbott's Trucking,35 Davis Road,Brooklyn,MS,39425,601-598-2456
Mike Amacker Trucking,1801 Lot A Hwy 26w,Poplarville,MS,39470,601-795-2478
L R Trucking,1025 Fava Road,Clarksdale,MS,38614,662-902-2872
C & N Trucking,Rt 1 Box 164,Woodland,MS,39776,601-494-5041
W W T Auto Sales,86 B Cr 8401,Rienzi,MS,38865,601-720-0130
M & M Trucking,5847 Hwy 492,Union,MS,39365,601-774-5236
Milton Motors,4000 Main St,Moss Point,MS,39563,601-475-7734
R & R Trucking,3018 Rials Rd,Georgetown,MS,39078,601-894-9000
F & T Trucking,394 Mallette Jones Rd,Cleveland,MS,38732,662-402-8322
Robert Smith Trucking,Key Street Apt A,Greenwood,MS,38935,601-453-3078
Bardwell Trucking,2949 Hwy 26,Wiggins,MS,39577,601-928-5086
John A Henderson Trucking,119 Henderson Rd,Waynesboro,MS,39367,601-735-3105
Mudgrip Mobile Home Service,34 Post Oak Lane,Vicksburg,MS,39180,601-630-9200
Kms Transport,327 Mitchell Street,Itta Bena,MS,38941,601-254-9217
Blissard Travel Service & Tours,509 Lee Horn Ave,Houston,MS,38851,601-456-3019
C&d Trucking,#1 Dobson Lane,Poplarville,MS,39470,601-794-5577
Ridgeway Trucking,Rt 2 Box 317,Batesville,MS,38606,601-563-4843
Burnette's Trucking,Rt 1 Box 598,Sledge,MS,38670,601-382-5941
Back Woods Express,18742 Highway 51,Sardis,MS,38666,662-487-2061
P & S Contract Hauling,3611 Hwy 511,Quitman,MS,39355,601-776-5616
Las Trucking,Rt 4 Box 25 A,Morton,MS,39117,601-854-1004
Wilson Trucking,Star Rt Box 78,Sardis,MS,38666,601-487-1479
Kc S Trucking,830 Riley Rd,Vicksburg,MS,39180,601-636-3662
Reddy Ice,12037 Three Rivers Road,Gulfport,MS,39503,228-832-8601
M-pact Trucking,620 East Chickasaw St,Brookhaven,MS,39601,601-833-5806
Town & Country Body Shop & Auto Sales,709 First Street,New Albany,MS,38652,601-534-9294
Delta Transportation,2023 23rd Avenue,Meridian,MS,39301,601-692-4628
M & W Trucking,238138 Hwy 51,Tillatoba,MS,38961,601-226-8392
Alexander Delivery Service,110 Fisher Street,Brookhaven,MS,39602,601-833-5507
Houpt Trucking,81 Mathews Bend,Ecru,MS,38841,662-489-3893
Triple M Trucking,812 Hays Rd,Conehatta,MS,39057,601-625-7642
Centreville Trucking,12460 E Hay 24,Centreville,MS,39631,601-645-5260
Cary D Pittman Trucking,75 Authur Pittman Dr,Waynesboro,MS,39367,601-735-9130
Double D Trucking,540 Moller Rd,Picayune,MS,39466,601-799-4886
H L Bundrum Trucking,635 Bundum Road,Coldwater,MS,38618,662-562-5929
Prewitt Contract Hauling,Rt 3 Box 137,Philadelphia,MS,39350,N/A
Thomas B Blakely Trucking,761 Matherville Diamond Rd,Waynesboro,MS,39367,601-735-2018
H & H Trucking,12924 Ms Hwy 9,Eupora,MS,39744,662-258-6046
All Trans,602 Kersh Drive,Flowood,MS,39208,601-932-5271
S S Trucking,7495 Rockingham Dr,Southaven,MS,38671,601-393-2480
Delta Area Rural Transit System,510 Hwy 322 West,Clarksdale,MS,38614,602-624-4292
T And C Trucking,903 Mill St,Moorhead,MS,38761,601-246-8039
Jimmy Denton Trucking,337 N Madison,Tupelo,MS,38801,601-844-4663
Gene Johnson Trucking,11 Cr 307,Glen,MS,38846,601-427-9631
Russell Dedeaux Farms,756 B Project Rd,Wiggins,MS,39577,601-928-2005
Big River Transportation,110 Junction St,Metcalfe,MS,38760,601-335-2079
Johnny Hill Trucking,122 Jeff Davis,Indianola,MS,38751,601-887-3617
Lee Trucking,115 Te Breeland Rd,Wiggins,MS,39577,601-928-7449
Holder Trucking,458 Little Creek Rd,Beaumont,MS,39423,601-753-2365
Double C Trucking,2133 Richard Road,Magnolia,MS,39652,504-229-2185
B & B Trucking Co,Judyahauhl Rd,Woodville,MS,39669,601-888-4012
On Time Delivery,1025 Luster Street,Greenville,MS,38701,N/A
Brooks Trucking,105 Matthews Drive Apt A,Senatobia,MS,38668,601-560-4012
Hartfield Truckin,3106 Hwy 53,Poplarville,MS,39470,601-795-0973
His Transport,Rt 5 Box 202-b,Philadelphia,MS,39350,601-656-0234
A & J Trucking,56 County Rd 112,Tishomingo,MS,38873,662-438-7016
D & D Trucking,3791 Cr 100,Corinth,MS,38834,662-287-2077
H & H Trucking,317 Church St,Como,MS,38619,601-526-9628
Calcote Trucking,2820 Horace Lane Nw,Wesson,MS,39191,601-833-8924
L&l Trucking,21281 Houston Ladner Rd,Saucier,MS,39574,228-860-0518
Paige And Taylor Trucking,125 Horseshoe Rd,Mantachie,MS,38855,601-282-7546
Reeluke Transportation,22 Woodlands Trace,Hattiesburg,MS,39402,601-466-3165
Neal Lewis Trucking,2177 Richard Lane Nw,Brookhaven,MS,39601,601-757-4202
Greg Crosby Trucking,Rt 1 Box 34,Seminary,MS,39479,601-722-9781
D & D Trucking,Po Box 70,Decatur,MS,39327,601-656-5948
Bryant Trucking,Rt 1 Box 169,Holly Springs,MS,38635,601-333-6679
T A M S Trucking,990 Jackson Rd,Scooba,MS,39358,601-476-8768
"L W Boney, Inc.",221 Fourth Street,Flora,MS,39071,601-260-1899
M & K Trucking,8 Galleon Way,Carriere,MS,39426,601-799-0578
Mcdaniel Trucking Co,760 Cr 172,Coffeeville,MS,38922,601-628-1828
Triple R Trucking,142 West Pemble Rd,Merigold,MS,38759,662-748-2591
Ritzer Trucking,23012 Owen Ladner Rd,Saucier,MS,39574,601-832-3532
Allison Van Lines,1050 E County Line Rd,Ridgeland,MS,39157,601-956-3267
Larry D Self Trucking,6922 Highway 6 W,Pontotoc,MS,38863,662-489-5966
Sport Goolsby Trucking,950 Highway 15 South,New Albany,MS,38652,662-538-0592
Harris & Holman Trucking & Contracting Co,832 Steens Rd,Steens,MS,39766,662-328-2730
N & M Transport,12285 Highway 98 East,Lucedale,MS,39452,800-450-5861
W S Trucking,132 French Road,Braxton,MS,39044,601-847-4767
Hill's Transport,1187 Basin Refuge Rd,Lucedale,MS,39452,601-947-7678
Granger Trucking Co,10 Flower Rd,Woodville,MS,39669,601-888-3989
Dearing Trucking,2908 Liberty Church Road,Newton,MS,39345,601-683-6278
Hamilton Trucking,7585 Kelley Cove,Olive Branch,MS,38654,601-895-4063
D & D Trucking,Rt 5 Box 266,Lucedale,MS,39452,601-394-2296
Harris Trucking And Construction,832 Steens Rd,Steens,MS,39766,662-328-2730
Western Flyer Xpress,2706 Highway 8 East,Houston,MS,38851,601-456-5757
Chatam Trucking,Route 1 Box 1-aa,Rose Hill,MS,39356,601-727-5193
J & S Trucking,16400 Henry House Rd,Saucier,MS,39574,228-206-2708
Advanced Marine Transmissions,134 Oak St,Biloxi,MS,39530,601-374-5210
R B Terry Trucking,6228 Winthrop C,Jackson,MS,39206,601-982-2034
Spencer Trucking,512 Bray Rd,Pontotoc,MS,38863,662-488-1318
Masters Trucking,Rt 1 Box 350,Marks,MS,38646,601-326-0351
G & G Trucking,220 N Gloster Street,Tupelo,MS,38801,601-844-6688
Varnes Trucking,416 Nevil Craft Rd,Mendenhall,MS,39114,601-849-5852
S & S Transport,P O Box 3456,Brookhaven,MS,39603,601-833-5045
Hound Dog Trucking,Rt 1 Box 224,Monticello,MS,39654,601-587-7528
Gary Lewis Trucking,Rt 9 Box 363,Philadelphia,MS,39350,601-656-6970
J R Trucking,105 Foxfire Dr Apt 2,Hattiesburg,MS,39401,601-545-3731
Fleming Trucking,1033 Martins Ln,Natchez,MS,39120,601-442-3951
R & T Trucking,Hwy 150-a,Polkville,MS,39118,601-537-3382
Ivan Foster Trucking,100 Hutchinson Drive,Carthage,MS,39051,601-267-5924
C & C Trucking,62 B Cr 196,Iuka,MS,38852,601-423-1682
Harbour's Trucking,7711 Hwy 495,Dekalb,MS,39328,601-743-2777
Fountain Trucking,Rt 4 Box 77,Richton,MS,39476,601-989-2810
Quality Auto Sales,200 E Goverment St,Brandon,MS,39042,601-824-0500
Roberts Trucking,282 Hwy 332,Grenada,MS,38901,770-561-7734
Ricks Trucking,Roural Rt 4 Box 166,Eupora,MS,39744,601-637-2596
Tnt Trucking,14402 3rd Ave,Gulfport,MS,39503,228-832-7102
Walker Trucking,Rt 1 Box 87-a,Ruth,MS,39662,601-587-9349
Felon Cooper Trucking,Cooper Road,Delta City,MS,39061,601-873-6293
B & S Trucking,6643 Hummingbird Cove,Olive Branch,MS,38654,601-895-7005
Gloryland Trucking,43 Sandfield Road,Laurel,MS,39440,601-425-2041
Barnes Trucking,Po Box 2122,Prentiss,MS,39474,601-792-8357
Miller Trucking,72 Van Spence Rd,Carriere,MS,39426,601-799-2045
Smith Trucking,Rt 2 Box 131 C,Seminary,MS,39479,601-722-9117
Th Trucking,217 Yates Rd,Byhalia,MS,38611,662-838-2574
Henson Trucking,4218 Cr 87,Vaiden,MS,39176,662-614-0123
Lacy's Trucking Company,236 Buckatunna Mt Zion Road,Buckatunna,MS,39322,601-648-2444
Windy's Auto Sales,374 Caillavet St,Biloxi,MS,39530,601-432-0772
L & M Trucking,7 Mccann Drive,State Line,MS,39362,601-648-9197
"E A Breeland Trucking, Inc.",245 Mt Gilead Rd,Columbia,MS,39429,601-731-1303
Gene Macoy Trucking,10385 Old Hillsboro Rd,Forest,MS,39074,601-664-3098
Manuel Trucking,54 Mars Island Rd,Picayune,MS,39466,601-798-1838
Crawford Trucking,Rte 1 Box 38a-1,Mantee,MS,39751,601-456-9296
Glen Reams Trucking,P O Box 192,Holly Bluff,MS,39088,601-828-3256
Douglas Trucking Co,2198 Misty Lane Se,Bouge Chitto,MS,39629,601-833-7266
Ballard's Delivery Service,5635 Briarwood Dr,Walls,MS,38680,601-781-3509
R S Trucking,1082 Pinola Bridgeport Rd,Pinola,MS,39149,601-858-2398
Haley's Trucking Co,405 S Martin Luther King Ave,Sunflower,MS,38778,601-569-3584
Graham Contract Hauling,14841 Highway 488,Philadelphia,MS,39350,601-389-0120
Greene's Trucking,3632 Jackson Liberty Dr,Wesson,MS,39191,601-835-2976
A & W Transportation,102 Nuggett Ct #5,Hattiesburg,MS,39401,601-264-0631
