Company Name,Street Address,Address Locality,Address Region,Postal Code,Telephone
L & S Trucking,2224 Highway 87 East,Billings,MT,59101,406-248-8955
S & N Palmer Trucking,110 Wettington Drive,Kalispel,MT,59901,406-257-8321
Skelton Wood Hauling,38 9th Ave South East,Cut Bank,MT,59427,406-229-0206
Mountain Man Trucking,1035 1st Rd S,Vaughn,MT,59487,406-788-4691
Tcm Trucking,5533 Carey Ave,Shepherd,MT,59079,406-281-0816
Sampson Transport,203 Buccaneer Lane,Kalispell,MT,59901,406-471-5746
Cougar Peak Trucking,11 Cougar Peak Road,Thompson Falls,MT,59873,832-443-6482
Todd Lehman Trucking,1070 Bulltail Rd,Belgrade,MT,59714,406-388-6987
J Samson Trucking,2256 3rd Street West,Ballantine,MT,59006,406-850-9973
Longfork Trucking,65 Hammond Valley Road,Forsyth,MT,59327,406-346-1685
Tom Carey Trucking,400 Palmer,Miles City,MT,59301,406-853-3050
Shanes Trucking,1086 Granit Creek Rd.,Florence,MT,59833,760-713-4388
Ag Transport,588 Grandview Dr,Stevensville,MT,59870,406-566-2575
Stewart Trucking,910 S 3rd St W,Baker,MT,59313,406-778-3463
Red House Trucking,139 West Monroe,Chester,MT,59522,406-759-5986
Alta Trucking,9315 West Fork Rd,Darby,MT,59827,406-349-0005
Rs Transport,246 First Ave South,Hungry Horse,MT,59919,406-250-1788
Blk Trucks,5 Sweetgrass Road,Clancy,MT,59634,406-461-1076
Maley Express,3285 Canyon Drive #41,Billings,MT,59107,406-248-8955
Zollinger Trucking,424 Glee Place,Billings,MT,59102,406-698-3917
Burcham Trucking,Box 468,Big Sandy,MT,59520,406-945-5994
Panasuk Trucking,6312 Hwy 327,Bainville,MT,59212,701-570-4252
Bos Trucking,274 Hunts Mill Rd Box 692,Troy,MT,59935,406-295-9525
Grizzly Trucking,122 23rd Ave Ne,Great Falls,MT,59403,406-781-8112
L & D Farms,18251 Oswald Road,Broadview,MT,59015,406-855-3538
M And L Transport,503 6th Street S,Greatfalls,MT,59405,206-739-7521
Keepen It Kool Transport,138 Meadow Ln,Miles City,MT,59301,406-232-5814
Fireline Fire Protection Services,18 Benbow Rd,Fishtail,MT,59028,406-328-6957
Ray Main Trucking,1004 Paisley Dr,Belgrade,MT,59714,406-794-2960
Bieber Trucking,3851 Hwy 58,Fairview,MT,59221,406-489-1038
Rebbill Trucking,747 S Sunset Bench Rd,Stevensville,MT,59870,307-259-2374
Hill Trucking,15 N Crawford St,Reed Point,MT,59069,406-425-1346
Precision Concrete Cutting,4310 St Ave,Billings,MT,59101,406-855-7733
All Seasons Trucking,215 N Main,Simms,MT,59477,406-264-5773
Flesher Trucking,21 Thompson Creek Road,Superior,MT,59872,406-291-0865
C & J Trucking,4442 Pony Road,Stevensville,MT,59870,406-777-2162
Bear Paw Enterprise,Hwy 2 W,Chinook,MT,59523,406-248-8955
B Trucking,516 Pebble Lane,Hamilton,MT,59840,406-531-9215
Erb Ranch,53251 Herak Rd,Charlo,MT,59824,406-544-9588
Stotler Trucking,123 Jefferson School Rd,Glendive,MT,59330,406-989-0799
Whitetail Hauling,16 Terrace Court,Superior,MT,59872,406-822-5500
Accurate & Affordable Trucking,152 Belt Creek Rd,Belt,MT,59412,406-451-2618
Rosseland Trucking,408 10th Street,Circle,MT,59215,406-485-2116
Dean Dowse Trucking,149 Sunday Creek Circle,Miles City,MT,59301,406-853-0594
R J's Transportation,351 Westside Road,Hamilton,MT,59840,406-363-4331
Blackjack Transport,402 2nd St Se,Sidney,MT,59270,406-488-6585
Carter Farms & Trucking LLC,133 Maple Ave Hc,Glendive,MT,59330,406-377-1329
Knf Trucking,1101 28th Street West,Billings,MT,59102,406-208-2237
2 Boyz Truck'n,201 6th St Se,Sidney,MT,59270,406-480-5277
Mht,9283 Winifred Hwy,Hilger,MT,59451,406-708-4567
Mehling Spraying Service,213 Pleasant Ave,Fairview,MT,59221,406-747-3021
Freedom Trucking Intl,2500 Madison Rd,Conrad,MT,59425,406-965-3185
Gts Trucking,409 B Boxelder Ave,Colstrip,MT,59323,406-740-2587
Chinook Transport,112 16th Ave Nw,Great Falls,MT,59404,406-781-4015
Neal R Olson Trucking,9550 O'brien Creek Rd,Missoula,MT,59804,406-721-7001
Sweet Pea Trucking,148 Downer Road,Molt,MT,59057,406-670-9283
Nwmt Transport LLC,195 Riverbend Rd,Bigfork,MT,59911,406-214-6753
C & A Trucking,107 1st Street East,Lambert,MT,59243,406-248-8955
Dba Beardsley Trucking,515 N Cottage Grove,Miles City,MT,59301,406-234-6010
Howco Transport,121 1st Ave Sw,Park City,MT,59063,208-540-2204
Shawn Roark Trucking,115 Sw 3rd Ave,Sidney,MT,59270,580-821-6182
B And B Auto Transport,708 Main Street,Billings,MT,59105,406-254-0919
Hayes Hauling,878 South Morrison Lane,Potomac,MT,59823,406-244-5459
Mansfield Motor Freight,11749 Lewis & Clark Dr,Lolo,MT,59847,406-273-0693
M B Trucking,3082 Parlin Park Lane,Lincoln,MT,59639,406-362-4259
Beartooth Trucking,11360 South Frontage Road #1,Laurel,MT,59044,406-861-3683
G H Trucking,504 1st Street Sw,Park City,MT,59063,406-633-2069
Whitehall Trucking,1166 Mt Hwy 55,Whitehall,MT,59759,406-287-3108
Dough Smith Hauling,450 Cougar Lane,Stevensville,MT,59870,402-207-4680
M & M Trucking,36 1st Street North,Lambert,MT,59243,406-774-3342
J N H Trucking,729 16th St,Havre,MT,59501,406-265-5570
Don Smith Trucking,414 6th Ave W,Polson,MT,59860,406-883-9309
Hill Trucking,234 Green Mtn Rd,Trout Creek,MT,59874,406-847-2407
Run Silent Trucking,539 West D Rd,Huntley,MT,59037,406-366-3647
Barnes Hauling,20 Birch Lane,Belgrade,MT,59714,406-388-3266
Swartz Trucking,2055 East I Rd,Yellowstone,MT,59006,406-967-2408
Freight Dog Express,551 Farm Way,Corvallis,MT,59828,406-360-2652
Dwr Trucking,162 Mccoy Rd,Belt,MT,59412,406-799-3626
Double E Trucking,310 Pearl Drive,Belgrade,MT,59714,406-570-6830
K & E Trucking,112 School St,Fromberg,MT,59029,406-951-1352
K & B Transport,167 Old Divide Road,Roundup,MT,59072,406-323-1380
Corpron Trucking,198 Valley View Dr,Kalispell,MT,59901,406-755-5312
"J N L Transport, Inc.",13300 Frenchtown Frontage Road,Missoula,MT,59808,406-626-4263
J & M Transport,1350 East River Road,Pray,MT,59065,406-223-1842
Fjelstad Trucking,900 4th St,Deer Lodge,MT,59722,406-846-3525
Stan Lund Trucking,1111 5th Street Apt 1,Havre,MT,59501,406-265-3406
Sage Brush Express,568 South Sand Road,Ryegate,MT,59074,406-568-2382
"Crane Tech Service & Material Handling, Inc.",2910 Hannon Road #8,Billings,MT,59101,406-248-9090
Drs Construction & Roofing,106 Northern Lights Blvd,Kalispell,MT,59901,406-257-6051
Big Creek Dairy Trucking,2823 Iroquois Trail,Victor,MT,59875,406-642-3288
Flat Iron Automotive,4890 Hwy 200,Thompson Falls,MT,59873,406-827-8473
Robins Service,1302 W Towne,Glendive,MT,59330,406-365-2040
Ralston Farms,Hc 80 Box 405,Brockton,MT,59213,406-774-3757
Flug Services,208 North River St,Cooke City,MT,59020,406-838-2207
Mk Trucking,702 Hickory,Lewistown,MT,59457,406-538-2658
M And M Sales And Service And M & M Road Service,9987 Us Hwy 212,Joilet,MT,59041,406-962-3486
Solf Trucking,Hcr 69,Winnett,MT,59087,406-429-7291
Larson & Dad Trucking,21 Mastin Road,Kinsey,MT,59338,406-951-1605
B & B Trucking,35958 Detwiler Rd,Arlee,MT,59821,406-544-5165
Jf Trucking,430 River Rd,Chinook,MT,59523,406-357-3753
Circle B Trucking,Rd 10 N #2344,Ballantine,MT,59006,406-671-4090
Darvin Struck,521 Eastcottonwood Drive,Kalispell,MT,59901,406-752-0635
Fuels Reduction Services LLC,1104 35th Ave Ne,Great Falls,MT,59404,406-799-0141
Wind Runner Trucking,7277 Bullhook Road,Havre,MT,59501,406-395-5302
Carl's Auto Repair LLC,35 Diamond Rd,Superior,MT,59872,406-822-4691
Get & Done Trucking,1305 West 3rd St,Kalispell,MT,59903,406-314-2434
Del Hansen Trucking,629 7th Street North,Glasgow,MT,59230,406-228-4188
Ken Evenson Trucking,202 Spring Creek Drive,Kalispell,MT,59901,406-752-2428
Wade's Excavator Service,870 Laknar Lane,Dillon,MT,59725,406-683-4828
All Around Hauling,2195 Golden Eye Ct,Kalispell,MT,59901,406-212-1516
Drinkwalter Trucking,4408 Audubon Way,Billings,MT,59106,406-672-2656
Three Rivers Express,104 North Madison Street,Twin Bridges,MT,59754,406-684-5078
Jms Cattle Company,2930 Custer Ave,Billings,MT,59101,406-366-2298
Marly Seaholm Trucking,505 West Sussex,Missoula,MT,59801,406-549-8335
Zwickel Backhoe Service,14000 Dakota Ave,Broadview,MT,59015,406-667-2346
Bemis Trucking,824 Ohio Ave,Chinook,MT,59523,406-357-3529
Dave Gates Trucking,2419 Batchelor,Miles City,MT,59301,406-853-6905
C & S Trucking,33234 Cty Rd 128,Lambert,MT,59243,406-774-3715
Kolstad Trucking,2203 East Echo Drive,Billings,MT,59105,406-248-8955
Go Away Truckin,121 Montclair Street,Kalispell,MT,59904,406-261-5323
Grizzly Mountain Trucking LLC,Po Box 862,Glendive,MT,59330,231-342-0127
Smotherman Trucking,911 Park Avenue,Jordan,MT,59337,406-853-6614
Jr Trucking,633 El Capitan Loop,Stevensville,MT,59870,406-777-5794
Semi Retired,980 Sawbuck Tr,Seeley Lake,MT,59868,406-677-3689
Jay Nunn Trucking,106 N 6th St Apt 1d,Miles City,MT,59301,406-853-2667
Semper Fi Transport,1308 2nd Ave S,Great Falls,MT,59405,406-452-1546
Remote Trucking Services,52 Ekblad Rd,Hot Springs,MT,59855,406-741-3900
Quality Trailers Sales & Service,3426 Hwy 12 E,Helena,MT,59601,406-449-7449
Mcnally Ag Service,12191 Co Rd 353a,Sidney,MT,59270,406-482-8334
Zanes Road Service,261 Swords Lane,Billings,MT,59105,406-245-5405
Able Express,1763 Farragut Ave,Butte,MT,59701,406-490-9732
Commodities Transportation Services,86 Brockway East Rd,Circle,MT,59215,406-485-2134
4 J S Trucking,11s 8th St East,Malta,MT,59538,406-654-3654
Lopes Trucking,160 Bridger Ln,Ronan,MT,59864,208-550-0882
Pierce Fencing And Trucking,1461 Webster Lane,Dillon,MT,59725,406-683-4961
Hawks Brothers Trucking,2181 Sunflower Ln #2,Sidney,MT,59270,406-489-2652
Dry Creek Trucking LLC,5477 Swamp Rd,Belgrade,MT,59714,406-539-5477
Himber Trucking,8500 Zaug Drive,Missoula,MT,59802,406-258-6645
Mbm Express,2180 Molt Road,Molt,MT,59057,406-698-7882
Ret Express,4641 Graham,Missoula,MT,59808,406-728-0136
Bitterroot Fire Services Gregr Wildland,323 Rummel Lane,Hamilton,MT,59840,406-961-0108
Joe Johnson Trucking,88 Montana Hwy 28 North,Plains,MT,59859,406-826-3333
J&d Auto,529 Peno Lane,East Helena,MT,59635,406-431-6801
Se & S Trucking,720 N Lake,Miles City,MT,59301,406-232-0749
Adams Consulting & Rental,2700 Alexander Rd,Billings,MT,59105,406-248-3512
Iverson Ranch Trucking,181 Goodwyn Coulee Road,Great Falls,MT,59405,406-736-5675
Wildish Trucking,23 Franich Lane,Whitehall,MT,59759,406-287-3679
Remington Express,936 North 24th,Billings,MT,59101,406-245-9114
Donny Faber Trucking,909 Illinois,Chinook,MT,59523,406-357-2828
Jims Hauling,12901 Lewis And Clark,Lolo,MT,59847,406-207-0902
Johnson Trucking,805 South Lincoln,Sidney,MT,59270,406-488-8711
Wyo-mont Transport,P O Box 448,Townsend,MT,59644,406-980-7624
Chuck Pluid Trucking,5150 Buena Vista Rd,Belgrade,MT,59714,406-586-7430
Cooley Trucking,12 Peggy Lane,Miles City,MT,59301,406-853-2704
L N Transport LLC,104 3rd St,Broadus,MT,59317,N/A
Mechanical Services,175 Warland Creek,Libby,MT,59923,406-293-3756
Allan Shumate,104 Riverview 7 West,Great Falls,MT,59404,406-453-1548
In Front Trucking,1430 Valley Speedway Road,Helena,MT,59602,406-439-1918
Todds Trailer Sales & Hotshot Hauling,590 Nye Rd,Fishtail,MT,59028,406-328-7477
Knopp Trucking,1325 Webster Ln,Dillon,MT,59725,801-635-7049
Abz Farms,61970 Telcostair Lane,Saint Ignatius,MT,59865,406-745-2492
Big Sky Express Of Billings,5544 Lester Rd,Shepherd,MT,59079,406-373-9085
Hi Valley Trucking,119 3rd Ave North,Stanford,MT,59479,406-868-9254
Janj Trucking,403 Southwood Drive,Belgrade,MT,59714,406-388-4889
Farm Custom Grain Hauling,279 Brinkel Rd,Broadview,MT,59015,406-667-2242
Teton Express,209 Hwy 219,Pendroy,MT,59467,406-469-2239
Mccrea Transport,1425 River Road West,Plains,MT,59859,816-665-4363
Thunder Plains Organics,62 Sourdough Lane,Oilmont,MT,59466,406-937-3765
Hintz Trucking,210 E Johnson,Wolf Point,MT,59201,406-653-2249
Circle Exxon,706 B Avenue,Circle,MT,59215,406-485-3663
Fisher Transportation,350 Cemetary Road,Kalispell,MT,59901,406-756-9616
Keith's Fire And Water Services,35 West Reserve,Kalispell,MT,59901,406-756-3094
"Helena Septic Pumping Service, Inc.",4880 Green Meadow Dr,Helena,MT,59602,N/A
Northwest Carriers,1023 W Broadway,Lewistown,MT,59457,605-331-4590
"L F Trucking, Inc.",1 Louis Street,Judith Gap,MT,59435,406-473-2332
L & K Trucking,330 Highway 2 West,Whitehall,MT,59759,406-287-5018
Blackhat Trucking,225 4th Street,Custer,MT,59024,406-856-4250
C& D Busing,104 Main,Charlo,MT,59824,406-644-2215
Jeske Trucking,836dorothy Ln,Billings,MT,59105,406-256-5920
Pallister Plumbing Heating & Septic Service,3150 Mitchell Street,Helena,MT,59602,406-442-8443
T & R Trucking,116 1st Avenue East,Roundup,MT,59072,406-323-3550
"Steven Foster Trucking, Inc.",307 Pheasant Drive,Kalispell,MT,59901,406-752-2855
Stacey Transfer & Storage,4000 North Star Blvd,Great Falls,MT,59405,406-452-9555
Longshot Enterprises,1310 W Geyser St,Livingston,MT,59047,214-395-5268
River Road Spray Service,285 River Rd East,Plains,MT,59859,406-826-3876
"Heart K Land And Cattle Company, Inc.",5785 Us 89 South,Livingston,MT,59047,406-223-2210
Bitterroot Trucks & Equipment,1694 Meridian Rd,Victor,MT,59875,406-546-3630
Lyle Weist Trucking,470 25th Road North West,Choteau,MT,59422,406-466-2594
Little Red Wagon Hauling,140 Drake Drive,Kalispell,MT,59901,406-752-8866
J F Trucking,2429 Sunrise,Billings,MT,59105,307-899-3998
Risa Trucking,Mason Road 8 Miles Ne Of Opheim,Opheim,MT,59250,406-724-3311
Boneyard Coulee Trucking,123 Blackleaf Road,Bynum,MT,59419,406-469-2370
Bills Mobile Home Service,11920 Chula Vista Lane,Missoula,MT,59808,406-626-4359
Classic Auto Transport,471 Silvertip Lane,Stevensville,MT,59870,406-777-2222
Bobalouey Trucking,48351 Highway 83,Condon,MT,59826,406-754-2394
Nelson Septic Service,3690 Hwy 287,Sheridan,MT,59749,406-842-5371
Ettne Hauling,3730 Hwy 2 West,Kalispell,MT,59901,406-257-4343
Ace Auto Sales,12 South Central,Cut Bank,MT,59427,406-873-3303
Darigold,1075c Trumble Creek Road,Kalispell,MT,59903,406-756-0567
D K Trucking,249 Forest Drive,Kalispell,MT,59901,406-755-3221
Diamond X Trucking,2763 Highway 83,Seeley Lake,MT,59868,406-677-3221
Thrift Homes,5445 Highway 2 West,Columbia Falls,MT,59912,406-756-1367
Wyatt Trucking,3240 Shanda Court,Helena,MT,59602,406-227-7630
Brian Sturgis Trucking,Rt 1,Sidney,MT,59270,406-488-3059
Propane Supply,3675 York Road,Helena,MT,59602,406-449-7961
Marvin L Hankinson Trucking,5 Lake Flat Lane,Great Falls,MT,59404,406-727-5260
6 H Transport,7950 Jellison Road,Laurel,MT,59044,406-656-3096
Dose Farm & Truck,1205 Kuhns Road,Whitefish,MT,59937,406-755-4210
Competition Wireline Services,7069 Niehenke Avenue,Billings,MT,59101,406-652-4400
Disposal Services,416 South 5th,Miles City,MT,59301,406-232-3323
Saunders Trucking,499 Lincoln Lane,Hardin,MT,59034,406-665-4221
Pick's Trucking,7 Pattee Road,Superior,MT,59872,406-822-7425
Steve Ross,5990 Kessler Road,Belgrade,MT,59714,406-388-8240
P O C Transport,3290 Vinces Ct Suite B,Helena,MT,59602,406-475-3190
Shadow Land Trucking,499 West Side Rd,Hamilton,MT,59840,509-447-0445
Jeff Pamin Trucking,20514 Highway 10 East,Clinton,MT,59825,406-825-4799
Pelican Livestock,77 Robertson Draw Rd,Belfry,MT,59008,406-664-3389
Doug's Crane Service,536 Upper Luther Road,Red Lodge,MT,59068,406-446-2171
Graham's Bobcat Service,717 Cedar,Philipsburg,MT,59858,406-859-3039
Levi Braach Trucking,64 Green Bryer Trail,Evreka,MT,59917,406-370-9373
Superior Propane,3675 York Road,Helena,MT,59602,406-442-1739
Jacobson Crane Service,711 Winding Hills Road,Polson,MT,59860,406-883-4465
Seth Chisum Co,207 Young Ave,Baker,MT,59313,406-778-3898
Roy's Backhoe Service,26 Cottonwood Avenue,Stockett,MT,59480,406-736-5794
Highland Trucking Co,356 Frontage Road E,Livingston,MT,59047,406-222-7223
Rick Lawrence Trucking,1205 Helena Flats Road,Kalispell,MT,59901,406-857-3826
Jim Kearney Trucking,3510 Baldwin Rd,Stevensville,MT,59870,406-381-0833
Ken Howard Trucking,150 Pleasantvalley Road,Marion,MT,59925,406-854-2890
Duffin Trucking,10 Joyce Drive,Missoula,MT,59801,406-549-5286
Carter Trucking,122 Rd 643,Volborg,MT,59351,406-421-5650
Trd Transport,1180 Pine St,Hamilton,MT,59840,541-619-2892
Hailey's Trucking,163 Murray Ridge Road,Whitefish,MT,59937,406-862-7580
Gordy's Backhoe Service,850 Highway 84 West,Norris,MT,59745,406-688-3600
Knoll Logging & Trucking,4686 Highway 93 West,Whitefish,MT,59937,406-862-6578
Golden Valley Backhoe Service,516 3rd Avenue East,Ryegate,MT,59074,406-568-2204
K & S Mobile Transport,6594 Raven Road,Helena,MT,59602,406-449-9701
Stafford Dump Truck Service,2385 West Reserve Drive,Kalispell,MT,59901,406-755-7299
Erv's Sewer Service,950 Mossman Drive,Billings,MT,59105,406-252-1034
R & M Trucking,1 Sage Lane,Bridger,MT,59014,406-855-2349
Not Enough Trucking,33 Miles So Hardin,Hardin,MT,59034,406-666-2437
Willig Sweeper Service,3620 Highway 200 East,Missoula,MT,59802,406-549-2814
Clay Brennan Trucking,19 Chelesa Way,Belgrade,MT,59714,406-539-3866
Arnots Auto Sales,1151 W Broadway,Missoula,MT,59802,406-532-5626
H & S Trucking Valley Const LLC,705 Bulltail Road,Belgrade,MT,59714,406-388-1233
Joe Kidd Trucking,3750 Galen Road,Anaconda,MT,59711,406-490-8362
Jim Lawrence Trucking,Trumble Creek Rd,Kalispell,MT,59901,406-249-4114
Custom Earthmoving,6670 Lonepine Road,Helena,MT,59601,406-431-5065
Riverside Gravel & Trucking LLC,612 Springtime Road,Reed Point,MT,59069,406-326-2242
Johnson Hauling,150 Larch Lane,Columbia Falls,MT,59912,406-862-2063
Doug Mcmanus Trucking,27801 Norris Road,Bozeman,MT,59718,406-582-5742
J S & Sons Trucking,1960 South 9th West,Missoula,MT,59801,406-728-2773
Mangus Trucking,68 Calendula Court,Billings,MT,59105,406-698-1928
Hanser's Transmission Exchange,430 S Billings Blvd,Billings,MT,59101,406-248-7795
Corsa Trucking,632 Folly Ln,Stevensville,MT,59870,406-777-2543
T & L Trucking,1600 Boulder Avenue,Helena,MT,59601,406-449-7341
J & P Trucking,1045 Mt Hwy 528,Wolf Point,MT,59201,406-525-3466
Earhart & Sons Trucking,1 Russell Street,Ramsay,MT,59748,406-782-0563
Renville Produce & Distributing Co,101 Liberty Downs,Ismay,MT,59336,406-772-5840
Stacy Trucking,5325 Highway 93 North,Eureka,MT,59917,406-889-5661
Laurel Servicenter,201 West Main,Laurel,MT,59044,406-628-4216
Richard H Kuntz,119 4th Street Sw,Harlem,MT,59526,406-353-2292
Carney Trucking,319 S Cleveland,Boulder,MT,59632,406-225-3271
Dan Saunders,4698 Simpson Lane,Florence,MT,59833,406-777-5160
Stephen W Donahue,19720 Les Hansen,Florence,MT,59833,406-273-2025
Rosenbaum Trucking,7497 Kerns Road,Charlo,MT,59824,406-644-2710
Jt Trucking,1370 Washington Ave,Havre,MT,59501,406-945-2170
Steven Hegar,715 5th Avenue West,Three Forks,MT,59752,406-285-0022
Mckenney Trucking,2935 Prairie Drive,Billings,MT,59101,406-245-4207
Brr Trucking,1308 Swan Highway,Big Fork,MT,59911,406-837-6769
Elza Royce Page,793 Jellison Rd,Columbia Falls,MT,59912,406-892-3369
Npw Trucking,303 Wicks,Boulder,MT,59632,406-225-3468
Sanders Trucking,257 Old Dixon Road,Arlee,MT,59821,406-726-3282
Roger Hearst,369 South Side Road,Superior,MT,59872,406-822-3353
Glynn Needles Trucking,177 Blood Lane,Hamilton,MT,59840,406-363-2980
Dale Walker Trucking,17770 Old Highway 10 East,Clinton,MT,59825,406-240-1651
Native Cowboy Trucking,1 1/2 Mile W Rte 1,Ashland,MT,59003,N/A
I R Trucking,12100 Cottonwood Creek Road,Lewistown,MT,59457,406-538-3910
Afife Trucking,11809 Pulpmill Road,Missoula,MT,59808,406-721-0557
K- Lee Trucking,2736 Meadow,Laurel,MT,59044,406-628-7291
J & D Trucking & Excavation,2939 York Road,Helena,MT,59601,406-363-8140
Fire Transportation,560 Mountain View Drive,Kalispell,MT,59901,406-992-0706
Chad Labuda,10139 Judith Landing Road,Big Sandy,MT,59520,406-390-0518
Michael Pelletier,766 Grantsdale Road,Hamilton,MT,59840,406-381-0784
Wolf Septic Service,449 Grizzly Drive W,Seeley Lake,MT,59868,406-677-2685
Huyser Cattle Hauling,310 S Broadway,Manhattan,MT,59741,406-580-5106
Gordon Brown,3100 Chief Looking Glass Trail,Laurel,MT,59044,406-628-1641
Loyning Farms,441 Clear Creek Road,Roberts,MT,59070,406-445-2484
Holden Trucking,5149 Hwy 41 N,Silver Star,MT,59751,406-684-5883
Tkj Trucking,1010 Rocky Road,Valier,MT,59486,406-279-3504
Soap Creek Express,Hc 36 Box 349,St Xavier,MT,59075,406-666-2310
East West Trucking,927 Piedalue Lane,Ronan,MT,59864,406-676-5086
Di Rock N Roll Trucking,200 High Country Road,Plains,MT,59859,406-826-0148
Out Law Heavy Haul,250 Rosebush Lane,Belgrade,MT,59714,406-570-2933
Ashpoint Cattle Co,13 Miles West Of Wolf Point,Wold Point,MT,59201,406-248-8955
Morgon Trucking,4400 Frontage Road,Three Forks,MT,59752,406-285-6520
Valley Land Services,332 Strickland Creek Rd,Livingston,MT,59047,406-222-1661
Schied's Bodyshop Towning & Wrecker Service,306 North 20th,Billings,MT,59101,406-259-2123
Gen Merr Trucking,1 Broadwater Road,Townsend,MT,59644,406-266-3868
Highland Movers,15 Chinook Trail,Bozeman,MT,59718,406-570-3519
Rocking Koj Trucking,214 Geer Road,Nashua,MT,59248,406-230-2130
Ekmark Trucking,8275 Highway 10 West,Missoula,MT,59808,406-544-5264
Campers Delivery,748 Willow Creek Cross Roads,Corvallis,MT,59828,406-961-1557
J C Frahm Trucking,39696 Road 50 S,Havre,MT,59501,406-945-0855
S & S Log Hauling,311 Searle Way,Corvallis,MT,59828,406-961-4373
Williams Transport,1480 East Side Road,Deer Lodge,MT,59722,406-846-1221
Knoll Red Angus,24 N Orchard Rd,Big Timber,MT,59011,406-932-6261
Local Transfer,324 2 Ave East,Three Forks,MT,59752,406-599-5979
M&m Trucking,5284 Us Highway 2 South,Libby,MT,59923,406-293-9607
Sweetgrass Winch Service,646 Fox Avenue,Sweetgrass,MT,59484,406-335-2529
Lucier Trucking,305 Augusta,Missoula,MT,59801,406-239-4864
"Duffield Express, Inc.",626 N 9th Ave,Forsyth,MT,59327,406-356-3410
Spence Trucking,P O Box 207,Miles City,MT,59301,800-511-4913
Russ Irish Interstate Transporta,52 Miller Road,White Sulphur Springs,MT,59645,406-547-7777
Mining City Trucking,1400 Harrison Avenue,Butte,MT,59701,406-723-9686
Blue Diamond Transport,2011 Farm To Marked Rd,Libby,MT,59923,406-293-4597
Se & S Trucking,1697 Climbing Arrow Rd,Three Forks,MT,59752,406-285-3145
John L Wilson Trucking,12 Miles Nw Of Augusta,Augusta,MT,59410,406-231-3943
Stephen Hughes Trucking,6510 Hwy 10 East #25,Missoula,MT,59801,562-900-2845
Rick Beavers Dozing Service,Box 352,Ennis,MT,59729,406-682-3503
Steele Trucking,4973 Sawmill Lane,Conner,MT,59827,406-821-3308
Runn N Free Transport,Lakeshore Drive #2 Box 6,Decker,MT,59025,406-757-2448
High Lonesome Trucking,7395 Farm To Market Rd,Whitefish,MT,59937,406-862-0028
Kotar's Auto Trucking,512 East 3rd Box 627,Bearcreek,MT,59007,406-446-2738
Hentges Trucking,Hc 30 Box 2001,Wolf Point,MT,59201,406-653-2374
Otter Otter B Truckin,25 Meadowlark Drive,Dillon,MT,59725,406-683-2399
Moonlight Trucking,593 Coal Creek Road,Terry,MT,59349,406-486-5597
Kc Truck Parts,10148 Rudio Road,Billings,MT,59101,406-652-7616
Crane Mountain Trucking,1047 Sunburst Drive,Bigfork,MT,59911,406-837-6071
Quarters Distributing,506 4th Ave S,Lewistown,MT,59457,406-538-7805
Broken Mountain Ranch & Trucking,714 Cattle Drive,Whitlash,MT,59545,406-432-5714
"Morrison Trucking, Inc.",653 Meadowcreek Rd,Fortine,MT,59918,406-882-4889
M R Trucking,2611 Topeka Drive,Laurel,MT,59044,509-994-9518
American Classics & Transport,1855 N Belmar,Kalispell,MT,59901,406-752-5163
Bar C Bar Trucking,377 Pellow Creek Rd,Arlee,MT,59821,406-726-0223
Rocky Mountain Mobile Home Transport And Service,5105 Jellison Rd,Billings,MT,59101,406-252-4254
M & S Trucking,131 Harper Coulee Rd,Roundup,MT,59072,406-323-4208
Pleasant Valley Trucking & Livestock,49 Pleasant Valley,Molt,MT,59057,406-656-5394
Thats Truckin,1328 Maurine,Billings,MT,59105,406-248-9123
Joe Wood Trucking,276 Farm To Market Road,Libby,MT,59923,406-293-6013
Jaws Transport,5345 Hwy 200,Thompson Falls,MT,59873,406-827-9286
Bartoles Trucking,1035 Mill Road,Helena,MT,59602,406-449-8380
Jim Friebel Trucking,210 3rd Street West,Roundup,MT,59072,406-248-8955
Everett Trucking,Rr 1 Box 2037,Roberts,MT,59070,406-248-8955
Rocking R Trucking,420 North Interchange,Dillon,MT,59724,406-683-4760
J R Trucking,11883 Hwy 93 S,Lolo,MT,59847,979-255-2619
Blt's Trucking,1025 Airport Rd,Stevensville,MT,59870,406-777-2358
R & T Trucking,306 2nd St East,Clyde Park,MT,59018,406-220-1208
K W Engler Trucking,1905 Goodnews Lane,Lincoln,MT,59639,406-439-1892
Wight Trucking,27 Wight Mountain Lane,Hall,MT,59837,406-288-3447
4 Bar S Trucking,165 Ricketts Rd,Hamilton,MT,59840,406-381-0152
Selkirk Trucking,Hc 83,Martinsdale,MT,59053,406-572-3300
Welborn & Sons Trucking,95 Tuke Lane,Sheridan,MT,59749,406-723-5803
Z Trucking,274 N 3rd,Forsyth,MT,59327,406-356-7242
Gypsy Road Transport,1114 West Washington,Lewiwtown,MT,59457,406-538-2772
Jaxon Gardiner Trucking,12 East Division,Harlowton,MT,59036,406-932-4790
Flathead Glacier Transportation,298 Brunner,Columbia Falls,MT,59912,406-892-0133
Dawsey Water,325 Blaine Street,Sand Coulee,MT,59472,406-736-5508
Egeland Trucking,42560 Us Hwy 2,Harlem,MT,59526,406-353-2508
Montys Auto Delivery,1305 Mccaffery Rd,Bigfork,MT,59911,406-837-2590
Davis Trucking,53 S Wineglass Loop,Livingston,MT,59047,406-222-7787
Barry Ballenger Trucking,1655 Lower Valley Rd,Kalispell,MT,59901,406-752-4500
Coyote Trucking,1218 Main Ave,Libby,MT,59923,406-248-8955
Drane Drilling Service,802 Dranelane,Broadus,MT,59317,406-436-2313
Symington Express,Po Box 254,Charlo,MT,59827,406-644-4663
Cinch Trucking,638 Howard Avenue,Billings,MT,59101,406-896-8485
Creative Auto Trim,811 E Wren Lane,Glendive,MT,59330,406-377-4333
Holden Trucking,100 Brumfield,Reed Point,MT,59069,406-326-2356
Peculiar Trucking,1638 6th Avenue Nw,Great Falls,MT,59404,406-868-0015
Glens Trucking,6564 Farm Road,Polson,MT,59860,406-883-1895
Cheff Trucking,7700 Flagler Lot #61,Missoula,MT,59802,406-258-9770
Wes Cross Trucking,Box 7,Fallon,MT,59326,406-853-1251
Clark Fork Express,5410 Excalibur Way,Lolo,MT,59874,406-273-4940
Shawn Willis Trucking,1230 4th Ave W,Columbia Falls,MT,59912,406-892-2630
Ghost Express,2472 Greenbriar Rd,Billings,MT,59105,406-256-7894
Montana Tenders,9625 Highway 2 South,Libby,MT,59923,406-291-1229
Berg Trucking Service,616 North 15,Billings,MT,59101,406-248-8206
Elk Running Trucking,484 Highway 10 East,Big Timber,MT,59011,406-932-4683
R & M Trucking,210 2nd Street,Joplin,MT,59531,406-292-3329
Brian Hinman Trucking,1442 Mading Dr,Billings,MT,59105,406-245-9002
Unger Trucking,15 Cooney Dam Road,Boyd,MT,59013,406-962-3619
Western Livestock Transportation LLC,112 S 18th,Billings,MT,59101,N/A
Mammoth Earth Movers,421 Haskill Basin,Whitefish,MT,59937,503-829-8700
Stud Muffins Trucking,100 East Twin Creek,Deborgia,MT,59842,406-678-4099
D&d Transport,3705 Coulson Rd,Billings,MT,59101,406-248-1074
Day Trucking,137 Stewart Lane,Hamilton,MT,59840,406-961-5283
Hojo Transport,12287 Road 328,Lambert,MT,59243,406-774-3035
American Mfg Home Service,#3 Gibbtown Ave,Roundup,MT,59072,406-323-1465
Chaffee Livestock & Trucking,2436 Boggio Lane,Laurel,MT,59044,406-633-2009
Hove Trucking,116 Davis Valley Road,Medicine Lake,MT,59247,406-963-2268
Carl Craig Hauling,281 Farm To Market,Libby,MT,59923,406-293-8486
Md Trucking,128 Hawk Creek Road,Musselshell,MT,59057,406-947-5000
Vern Mccants Trucking,4202 Mitchell Ave,Billings,MT,59101,406-259-6466
Lund Trucking,2584 Old Post Road,Havre,MT,59501,406-265-5101
S And B Trucking,505 Southwind Lane,Dillon,MT,59725,406-683-3396
Joy Fortier Trucking,11420 S Frontage Road,Laurel,MT,59044,406-628-8979
Jim Madsen Trucking,Hc 70 Box 62,Volborg,MT,59351,406-784-2319
Pacific Export Co,101 1st Street,East Glacier,MT,59434,206-915-0536
J&e Auto Transport,773 Jellison Road,Columbia Falls,MT,59912,406-892-0626
Patrick French Trucking,16 Antelope Lane,Forsyth,MT,59327,406-356-4278
Samuel P Nickol,6125 Hwy 93 S,Somers,MT,59932,406-756-8175
Peterson Trucking,Hc 32 Box 4495,Miles City,MT,59301,406-853-1770
"Wolfes Trucking Ii, Inc.",P.o. Box 1525,Plains,MT,59859,406-826-0999
John Crane Trucking,Fox Run Trail,Corvallis,MT,59828,406-961-3921
Rtr Trucking,1203 Lake Elmo,Billings,MT,59105,406-245-2942
J & B Trucking,51 Woody Drive,Roundup,MT,59072,406-323-3551
T Rohrich Trucking,616 Grant Avenue,Troy,MT,59935,406-295-5306
Tiny Tim Trucking,Box 1101,Belgrade,MT,59714,406-580-3177
J & D Greene,976 Old Bitterroot Dr,Marion,MT,59925,406-854-9300
Summers Fire Service,3180 Canyon Ferry Road,East Helena,MT,59635,406-227-6706
Hofman Trucking,5301 Road 1018,Culbertson,MT,59218,406-787-5522
Oconnor Trucking,200 Leavitt Avenue,Jordan,MT,59337,406-557-2632
Genesis Trucking,4040 4x4 Road,Lincoln,MT,59639,406-362-4531
James Harvey Transport,202 E Carbon,Bridger,MT,59014,406-662-5007
Northwest Express,46803 Back Road,Ronan,MT,59864,406-676-3110
Armstrong Helicopters LLC,548 Hohenstein Lane,Stevensville,MT,59870,406-777-1188
So Trucking,73700 Blodgett Ln,Arlee,MT,59821,406-726-3786
Trickey Water Service,32882 Canyon Mill Road,Ronan,MT,59864,406-676-3031
Rolls Hauling,6280 Sleeping Giant View,Helena,MT,59602,406-431-6604
Roadstar Trucking LLC,77230 Gallatin Road,Bozeman,MT,59718,406-763-4757
Double Arrow Transport,432 Pryor Road,Edgar,MT,59026,406-248-8955
"Thompson Water Service, Inc.",28 Anaconda Street,Belt,MT,59412,406-277-4135
D & R Transport,974 Hwy 200 West,Plains,MT,59859,406-826-0109
Diversified Food Service,7720 Shedhorn Dr Ste A,Bozeman,MT,59718,406-585-0922
Graham Water Service,437 Florence Road,Libby,MT,59923,406-293-5312
Beall Transport,2845 Fox Trotter Trail,Victor,MT,59875,406-360-1879
Mt Trucking,617 Madison Way,Great Falls,MT,59404,406-964-8872
Blue Sky Transport,513 Central Ave,Fairview,MT,59221,406-798-3466
Wray Trucking,281 S Birdtail Rd,Sun River,MT,59483,406-264-5179
Heidema Trucking,Box 97 Pryor Road,Pryor,MT,59105,406-248-7716
Ctc Trucking,405 Washington,Miles City,MT,59301,406-233-2495
Gold Trucking,605 Charter Street,Grass Range,MT,59032,406-428-2454
Bison Transport,1900 S 25th Street,Billings,MT,59101,406-671-1512
Ault Trucking,275 Hot Springs Rd,Whitehall,MT,59759,406-287-3191
Forest Services,1330 Country Home Lane,Great Falls,MT,59405,406-452-1664
Pipelines Plus,Hwy 59 & Moorehead Rd,Broadus,MT,59317,406-436-2178
Miller Time Express,10130 Jaret Rd,Shepherd,MT,59105,406-697-0109
D L Fairchild Trucking,1102 Highway 93 N,Victor,MT,59875,406-961-2448
Sandruss Transport,69 Cloverview Dr,Helena,MT,59601,406-443-4190
Drg Trucking,1890 Woody Drive,Billings,MT,59101,N/A
J & J Trucking,1 Bl So Po Hwy 3,Broadview,MT,59015,406-667-2176
Darwin Berosik Trucking,3814 Us Hwy 93 S,Kalispell,MT,59901,406-756-7773
M J Collins,734 Palmer,Missoula,MT,59802,406-366-0601
Duty Trucking,615 Ave B,Billings,MT,59102,406-252-6320
Frontier Log Furniture,815 Mt Hwy 82,Somers,MT,59932,406-857-3525
Jimmy Demaree Trucking,3029 Homer Davis Road,Shepherd,MT,59079,406-373-3477
Mountain Suite Transfer,#1 Dolan,Columbus,MT,59019,406-322-8694
Kornemann Trucking,4300 State Avenue #2,Billings,MT,59101,N/A
Youngs Hauling,72 Silver Leaf Dr,Kalispell,MT,59901,406-755-9458
Kjb Trucking,250 Seville Lane,Coram,MT,59913,406-387-4419
Last Chance Auto Transport,880 Hiawatha,Helena,MT,59601,406-457-2321
Schultz Trucking,1525 Williamsburg,Helena,MT,59602,406-431-2504
Hellert Trucking,314 Water Street,Darby,MT,59829,406-369-3010
Carl Yetman Trucking,575 Camas Creek Lp,Hamilton,MT,59840,406-363-2106
Huntley Auto,837 G Road,Huntley,MT,59037,406-967-2600
Mark W Daw Trucking,1 Barringer Lane,Darby,MT,59829,406-821-3346
Malibu Express Trucking,3547 Pebble Brook Drive,Billings,MT,59101,406-256-8144
Evergreen Homes Ltd,1245 Hwy 2 East,Kalispell,MT,59901,406-756-7774
Taz Truckin,860 Prairie Road,Helena,MT,59601,406-458-3922
"Contractor Freight Service, Inc.",2820 Wilson,Miles City,MT,59301,406-232-4228
Bob Smith Trucking,510 1st St Se,Park City,MT,59063,N/A
Black Trucking,3115 S 55th Street West,Billings,MT,59106,406-652-9509
R J Lucker Trucking,522 Kallen Dr,Billings,MT,59101,N/A
Boon Transport,1544 East 5th Street,Libby,MT,59923,406-291-0758
Brian Wisseman Trucking,1307 Hillcrest Drive,Polson,MT,59860,406-883-2267
Bustin Loose Trucking,1146 Echo Lake Rd,Big Fork,MT,59911,406-837-4175
Mitchell Trucking,635 West 3rd St,Hardin,MT,59034,406-665-1221
Hassel Trucking,8823 Susanna Drive,Billings,MT,59101,406-652-6360
Silver Peak Trucking,4918 Mt Hwy One,Hall,MT,59837,406-288-8223
Hills Bros Transportation,89 Shiloh Dr,Kalispell,MT,59901,406-250-4711
Rian Trucking,1222 Smelter Ave,Black Eagle,MT,59414,406-727-8121
R & L Trucking,742 Kensington Ave,Missoula,MT,59801,406-543-6506
Yellowstone Valley Chemical,1525 Lockwood Road,Billings,MT,59101,406-245-4171
Weyers Trucking,1861 Hwy 312,Ballatine,MT,59006,406-967-3277
Rodney Williams Trucking,1st Avenue North,Lambert,MT,59243,406-774-3358
Don Henry Trucking,102 Beartooth Court,Laurel,MT,59044,406-628-2599
D C Trucking,Po Box 365,Malta,MT,59538,406-654-2170
Reidle Trucking,Hc 69 Box 40,Culbertson,MT,59218,406-747-3411
Doug Russell Trucking,86 Miller Road,White Sulphur Springs,MT,59645,406-547-3843
Lincoln County Medical Transport,P O Box 864,Troy,MT,59935,N/A
Berger Trucking & Cattle Co,P O Box 1,Lewistown,MT,59457,406-538-2554
Ferguson Trucking,3406 Prairieview Dr,Colstrip,MT,59323,406-748-2031
Brian Heagy Trucking,Po Box 249,Ennis,MT,59729,406-467-3161
J W Trucking,1651 Kelby Dr #4,Billings,MT,59105,406-259-5479
Gehnert Trucking,705 E 5th Ave,Big Timber,MT,59011,406-932-4094
Graham Trucking,Rr Po Box 301,Worden,MT,59088,N/A
Bryon Hemming Trucking,Box 31135,Billings,MT,59107,406-252-4299
Kuipers Trucking,64 Sw Round House Loop,Lewistown,MT,59457,406-538-6087
Glendive Transport,15 Cactus Lane,Glendive,MT,59330,406-365-4871
Keith Vink Trucking,Po Box 80551,Billings,MT,59108,406-855-8808
Frank Hilliard Hauling,210 W Balsam,Libby,MT,59923,406-293-3501
T 5 Trucking,1518 Blvd Ave,Havre,MT,59501,406-265-7614
Leduc & Son Trucking,Highway 200 Po Box 38,Ovando,MT,59854,406-248-3244
Frank Newbury Trucking,695 Blanchard Lake Rd,Whitefish,MT,59937,406-862-3883
Donn & Debb Trucking,40 Woodgrain Drive,Billings,MT,59102,406-651-0308
Circle Sinclair Service,Highway 200 East,Circle,MT,59215,406-485-3645
Jim Rice Trucking,309 S 4th St,Forsyth,MT,59327,406-356-7475
R L Trucking,201 East 3rd Ave,Ryegate,MT,59074,406-248-8955
Kent Roberts Trucking,1108 Truscott,Miles City,MT,59301,406-232-0002
Robert Fairchild Trucking,2301 14th Avenue South #10,Great Falls,MT,59405,N/A
Jim Leatherberry Trucking,Po Box 31135,Billings,MT,59107,406-248-3602
Midnight Express,330 Nestling Place,Billings,MT,59102,406-656-0979
Montana Contracting Services,1530 Bitterroot Drive,Marion,MT,59925,406-854-2022
Thornberg Trucking,2049 Clubhouse Way #3,Billings,MT,59105,406-254-8670
Clizbe Trucking,1105 Haaglund Dr #18,Missoula,MT,59802,406-258-6794
Power Transport Co,3811 Mallard Drive,Billings,MT,59101,406-656-4792
4 C Trucking,212 Main Street,Charlo,MT,59824,406-644-2896
C & T Trucking,400 Blue Mountain Road,Libby,MT,59923,406-293-7082
T D Wall Trucking,5483 Carlton Loop Rd,Florence,MT,59833,406-273-2152
D-s Trucking,122 1/2 Karrow Avenue,Whitefish,MT,59912,N/A
Pistol Creek Transport,39 Aspen Lane,Livingston,MT,59047,N/A
Snowline Transportation,6119 Hillview Way,Missoula,MT,59803,406-360-6708
Klompien & Sons Trucking,3640 Linney Road,Bozeman,MT,59715,406-388-4998
Bobkat Trucking & Backhoe,3180 Emory Road,Ronan,MT,59864,406-675-4030
Allison Trucking,520 N 11th Avenue,Bozeman,MT,59715,406-586-0585
Dan Trexler Trucking,1255 Apple Blossom Lane,Corvallis,MT,59828,406-961-4863
Jerry's Trucking,Box 531,Culbertson,MT,59218,406-787-6161
Craig Farley Trucking,16 Darlene Dr,Missoula,MT,59801,406-549-0682
Kevin Sanderson Trucking,123 Hamann Ave,Libby,MT,59923,406-293-3451
Heart To Heart Trucking,590 Hoffman Draw,Kila,MT,59920,406-257-3240
Arvon L Fielding Trucking,336 Smith Lake Rd,Kalispell,MT,59901,406-756-7511
Norm's Delivery,1509 River Rd #4,Missoula,MT,59801,406-123-4567
B & D Express,621 Hwy 16,Glendive,MT,59330,509-246-0475
"Jim Rogers Trucking, Inc.",1212 Davis Creek Road,Laurel,MT,59044,406-248-8890
J H Huck Trucking,310 W Morase,Lewistown,MT,59457,406-538-8689
Rod Brossman Hauling,1051 California Ave,Libby,MT,59923,406-293-3356
Ron Lehman Trucking,78718 Gallatin Road,Bozeman,MT,59718,406-763-4433
Montana Auto Transport,1732 Natalie,Billings,MT,59105,406-698-0119
J & S Trucking,5 Cedar Street,Trout Creek,MT,59874,406-827-3399
Carbon Hill Express,2221 Main Street,Miles City,MT,59301,406-248-8955
Bud Carpenter Trucking,310 W Spring,Lewistown,MT,59457,406-350-0404
"Mountain Mover Motorcar, Inc.",200 Commerce St,Missoula,MT,59807,800-555-9172
Miwok Transportation,Po Box 20337,Billings,MT,59102,N/A
E & M Trucking,County Rd,Wyola,MT,59089,406-343-2155
Dean Bouchard Trucking,920 Sparrow Ln,Glendive,MT,59330,406-365-4913
Joel Freshour Trucking,7250 Zaugg Dr #2,Missoula,MT,59802,406-258-5392
Simonson Trucking,13341 Highway 200,Fort Shaw,MT,59443,406-264-5609
7 Mile Hauling Company,43 Graham Guloh Road,St Regis,MT,59866,406-649-2568
Robert Guckenberg Trucking,1100 Whitefish Stg,Kalispell,MT,59901,406-256-0199
V Bar T Trucking,Box 76,Sidney,MT,59270,541-891-8666
Wee Willie Express,622 E Clement Street,Glendive,MT,59330,406-248-5955
Ljs Trucking,405 Roxy Lane Apt 5,Billings,MT,59105,406-248-3602
C & S Trucking,3220 Leah Drive,Belgrade,MT,59714,403-388-0088
Whitney Trucking,335 North E St,Wibaux,MT,59353,406-795-2920
Sunset Hauling,30 Sunset Drive,Kalispell,MT,59901,406-756-7672
"Tiger's Roustabout Service, Inc.",104 Buffalo Rd,Medicine Lake,MT,59247,406-789-2467
Miller's Trucking,13755 1/2 Fairbanks Lane,Missoula,MT,59808,406-549-8807
Berta Trucking,3732 Columbia Falls Stage,Columbia Falls,MT,59912,406-892-0446
Ray Kuzo Trucking,2224 Highway 87 E Sp 193,Billings,MT,59101,406-252-5712
Cottle Trucking,170 Oldenburg Rd,Somers,MT,59932,509-647-2575
Ed Blueher Trucking,2216 Pueblo Drive,Billings,MT,59102,406-652-4533
Sun Transport,42111/2 Ford Road,Billings,MT,59101,406-248-8955
Kyles Trucking,1148 1st Ave North #3,Billings,MT,59101,406-248-8955
Anderson Trucking,Nc 52 Box 580,Froid,MT,59226,406-963-2331
Gary Johannsen Trucking,6142 Dawson,Billings,MT,59105,406-373-6368
Cumber Livestock Transporting,602 1/2 W Front,Joliet,MT,59041,406-962-3135
"Intercontinental Truck Body, Inc.",234 Hilltop Lane,Conrad,MT,59425,406-278-7535
Gardner Trucking,1123 7th Ave Nw,Great Falls,MT,59404,406-899-5352
Rent-a-wreck,1700 North First St,Hamilton,MT,59840,406-363-3703
Brad Polzin Trucking,66691 Mt Highway 80,Stanford,MT,59479,406-781-1308
Kramer Transport,Rouzel,Harlem,MT,59526,406-353-2407
Hand D Power Wash & Water Truck Service,5489 Eastside Hwy,Stevensville,MT,59870,406-777-3020
Gross Logging,1242 Big Sky Lane,Stevensville,MT,59870,574-848-7050
Dave Brandt Trucking,540 8th St East,Eureka,MT,59917,406-297-2456
Vmh Trucking And Groundworks,Hc 50 Box 4180,Red Lodge,MT,59068,307-645-3024
D & E Trucking,Po Box 50242,Judith Gap,MT,59453,406-248-8955
Thorsen Transport,305 Riverview Dr E,Great Falls,MT,59404,406-965-3815
Rocky Mountain Express,501 S Heights,Valier,MT,59486,406-965-3815
Mackay Trucking,1148 1st Avenue North Suite #3,Billings,MT,59101,406-652-7257
Dean Trucking,12 Miles W Of Willard,Willard,MT,59354,406-778-2977
Joe Warren Trucking,14 Sperling Street,Hysham,MT,59104,406-248-8955
Herigstad Trucking,32 29th Street W,Billings,MT,59102,406-698-7657
Johnny A Olson Trucking,71 Estates Road,Thompson Falls,MT,59873,406-827-3306
Patriot Express Trucking,3535 Eastside Hwy,Stevensville,MT,59870,406-777-1227
Lanning Trucking,Lanning Ranch,Broadus,MT,59317,406-436-2102
T & A Trucking,1291 Webster Road #2,Baker,MT,59313,406-248-8890
Bypass Truck Repair,1301 Thiel Road,Laurel,MT,59044,406-628-6308
Mbl Trucking,Rr 1 Box 269a,Joliet,MT,59041,406-962-3086
B & B Transportation,403 Speedway,East Missoula,MT,59802,406-543-8148
Ottun Trucking,Sarpy Road,Big Horn,MT,59010,406-248-8955
Quilling Trucking,1713 Valley Drive,Laurel,MT,59044,406-248-8955
Big Sky Voyager Trucking,5280 Bozeman Trail Rd,Bozeman,MT,59715,406-587-4800
Humble Trucking,1148 1st Avenue N #3,Billings,MT,59101,N/A
Night Owl Transportation Ltd,Hc 87 Box 2065,Richey,MT,59259,406-773-5244
Jj Trucking,106 Mills St,Saco,MT,59846,406-248-3602
K & S Trucking,Highway 200,Lincoln,MT,59639,406-362-4164
Jd Trucking,24 Klein Road,Roundup,MT,59072,406-323-3140
Denny Mcmanus Trucking,1050 Whitefish Stage Road,Kalispell,MT,59901,406-257-2024
Mike Laughrey Trucking,1148 1st Ave North # 3,Lewistown,MT,59106,406-248-8955
R J Roethle Trucking,523 Rd 261,Glendive,MT,59330,406-580-2294
Schmidt Livestock Hauling,389 Vaughn S Frontage Rd,Great Falls,MT,59404,406-248-3602
Tlk Farms,8133 Amsterdam Road,Manhattan,MT,59741,406-282-7721
Wiley Baker Trucking,17 King Henry,Billings,MT,59105,406-259-3123
L J Morse Trucking,205 Stillwater Lane,Billings,MT,59105,406-259-6016
Simmons Transportation,67 Pony Lane,Livingston,MT,59047,406-223-6865
Monte Mccall Trucking,305 South Main,Plentywood,MT,59254,406-765-2434
K & P Trucking,30 Vista Drive,Billings,MT,59102,406-670-9606
Moore Trucking,Hc 46 Box 7821,Miles City,MT,59301,406-232-2274
Broken Dollar Trucking,938 Us Hwy 9117,Conrad,MT,59425,406-278-7925
Smuggler's Express,515 3rd Ave N,Lewistown,MT,59457,509-710-8642
Keith Wentworth Trucking,17 Shady Lane,Kalispell,MT,59901,406-752-4008
Interior Auto Brokers Auto Trans,125 2nd Ave E,Kremlin,MT,59532,406-372-3191
Stubbs Hauling,556 City Service Rd,Libby,MT,59923,406-293-7374
Sanderson Trucking,3911 Hy 37,Libby,MT,59923,406-293-6153
"Black Hat Auto, Inc.",1372 Hwy 10 West,Livingston,MT,59047,406-222-3883
L&d Trucking,323 Winsor Circle So,Billings,MT,59105,406-245-2512
Skyline Services,7908 Pinto Drive,Shepherd,MT,59079,406-373-9314
Jumper Trucking,1921 Maple St,Missoula,MT,59802,406-542-5258
Ray Pen Trucking,501 Meager Street,Judith Gap,MT,59453,406-366-4115
L & K Trucking,Hc 85 Box 3220,Scobey,MT,59263,406-783-5669
Dave Mcalpine Trucking,114 9th Ave Se,Cut Bank,MT,59427,406-873-5564
A&b Trucking,210 High Street,Judith Gap,MT,59453,406-473-2229
Hellickson Trucking,208 Daniels St,Scobey,MT,59263,N/A
Lyle Doty Trucking,1008 Substation Rd,Conrad,MT,59425,406-627-2237
Randash Auto & Truck Center,5124 Laurel Road,Billings,MT,59101,406-256-6570
Cm Trucking,616 4th Avenue Se,Sidney,MT,59270,406-482-7264
Johnson Trucking,117 3rd Street,Glendive,MT,59330,406-377-6421
Fishbaugh Trucking,1181 19th Rd Nw,Choteau,MT,59422,406-466-3017
U B Trucking,92057 Hwy 93,Rollins,MT,59931,406-844-3846
Bc Trucking,P O Box 332,Hardin,MT,59034,406-639-8986
J Mohr & Son Trucking,1500 California,Butte,MT,59701,406-782-1001
Klind Livestock & Trucking,P.o. Box 157 ,Huntley,MT,59037,406-245-1635
Baptiste Trucking,905 Lynwood Dr,Billings,MT,59102,406-652-5507
Conat Transportation,105 1st N Box 356,Froid,MT,59226,406-766-2402
Erickson Trucking,1017 Falcon Acres Loop,Columbia Falls,MT,59912,406-755-7881
Babes Home & Auto,976 Hwy 2 South,Libby,MT,59923,406-293-2039
Olson Trucking,246 Garden Avenue,Billings,MT,59101,406-245-4296
Oneal Trucking,101 1st Street,Decker,MT,59025,307-750-2713
Q F C,6132 South Frontage Road,Billings,MT,59101,406-656-3955
Bill Parrish Trucking,1405 Church Drive,Kalispell,MT,59901,406-257-3280
Wimberley Trucking,203 East St,Dixon,MT,59831,406-246-0017
"Lbc Trucking & Excavating, Inc.",550 Half Flats Rd,West Glacier,MT,59936,406-212-4918
Benson Trucking,415 Coverdell Road,Big Fork,MT,59911,406-261-5809
Shadow Mountain Trucking LLC,2396 Redcrow Road,Victor,MT,59875,406-642-3136
Birky,425 Min Box 1056,Chinook,MT,59523,406-357-3383
High Country Transport,129 Upper Rader Creek Road,Whitehall,MT,59759,406-949-2762
D & G Trucking,Po Box 1034,Plains,MT,59859,406-826-4480
Harley Barnes Trucking,595 Eckelberry Drive,Columbia Falls,MT,59912,406-892-4511
Pintler Express,1025 Front St,Philipsburg,MT,59858,406-859-3014
Rauser Co LLC,2005 Flowerree St,Helena,MT,59601,406-449-5627
Jim Hill Trucking,4944 Danford Drive,Billings,MT,59106,406-248-8890
Big Sky Express,905 Agate Court P O Box 321,Hardin,MT,59034,406-665-3454
G & J Trucking,20 Dryfield Lane,Dillon,MT,59725,406-683-2527
Dale W Franck Trucking,152 Wood Acres,Lakeside,MT,59922,N/A
Gateway Transport,8816 W Mt Highway 1,Anaconda,MT,59711,406-563-6060
Michael Bailey Trucking,4 Loop Road C,Superior,MT,59872,406-822-3368
Ray Salazar Trucking,1613 3rd Street West,Roundup,MT,59072,406-323-2068
Double E Transport,5304 Leith Drive,Billings,MT,59106,406-656-9794
Wilson Trucking,7661 Eli Gae Road,Polson,MT,59860,406-883-6223
Jon James Trucking,#10 Rt 8,Dodson,MT,59524,406-383-4440
Rockin M Livestock,3203 Highway 87 East,Billings,MT,59101,406-896-0094
K & R Trucking,802 East Montana Avenue,Baker,MT,59313,406-778-3886
K & G Trucking,15 Teepee Box 12,Wilsall,MT,59086,406-578-2049
Cutting Horse Trucking,15610 Erskine Road,Frenchtown,MT,59808,209-482-2701
Hansonl Trucking,530 5th Street N,Havre,MT,59501,406-265-8043
Albaugh Trucking,1 Mossy Road,Denton,MT,59430,406-567-2516
Jordan Trucking,514 3rd Avenue,Columbis,MT,59019,406-322-4691
Tp Trucking,Hc 42 Box 666,Busby,MT,59016,406-592-3805
Flaherty Transport Co,2300 9th Ave N,Great Falls,MT,59401,406-453-6071
T & L Trucking,1125 Nissen Lane,Dillon,MT,59725,406-683-5391
John Ruff Distributors,801 Amsterdam Blvd,Belgrade,MT,59714,406-388-8343
Western Trucking,8261 West Hwy 12,Baker,MT,59313,406-778-3366
Kukal Trucking,534 Brock Creek Road,Garrison,MT,59731,406-846-1974
Walker Trucking,3421 Butler Street,Miles City,MT,59301,406-234-5572
Can Am Distributing,501 Pleasant St,Miles City,MT,59301,406-234-4575
Spartan Trucking,1111 Smelter Ave,Black Eagle,MT,59414,406-761-7602
Bill Rose Trucking,Box 1127,Cut Bank,MT,59427,406-873-4730
Gary Booth Trucking Ltd,2566 Old Hardin Rd,Billings,MT,59107,406-252-0774
Sheyenne Transport,7223 Charolais St,Billings,MT,59106,406-651-4884
Lynn E Miles Trucking,156 Whitetail Lane,Ulm,MT,59404,406-866-3445
Generic Trucking,9255 Hwy 2 West,Marion,MT,59925,406-854-2840
Terry Clarke,5 Ramble Inn Road,Sun River,MT,59483,406-264-5114
"Paraffin Service, Inc.",Six Miles South Of Sidney,Sidney,MT,59270,406-482-3399
Heritage Propane See Others In Edms,754 River Rock Drive,Helena,MT,59602,406-442-9759
T J Zimmerman Trucking,1146 Blue Sage Court,Hardin,MT,59034,406-698-5411
Poker Flat Transport,Hc 53 Box 56,Columbus,MT,59019,406-322-5521
Hendrickson Trucking,223 6th Avenue South,Medicine Lake,MT,59247,406-789-2344
Lorenz Trucking,Sidney Circle 7507,Sidney,MT,59270,406-482-6205
Justesen Trucking,Po Box 194,Belgrade,MT,59714,406-388-2891
M O B Transportation,3027 65th St S W Rt 1,Billings,MT,59106,406-656-2644
R D Nelson Trucking,1900 Highway 41,Dillon,MT,59725,406-683-2184
Hanson Freight,3538 Highway 287 N,Sheridan,MT,59749,406-842-7235
Bill Allen Trucking,Po Box 152,Pompeys Pillar,MT,59064,303-384-9839
B L X,505 Meadowlark Drive,Bozeman,MT,59718,406-586-9791
J S Transport,237 North Hill Road,Helena,MT,59602,406-442-4452
Iverson Trucking,113 N Virginia St,Conrad,MT,59425,406-271-2172
Rec Pete's,9555 Us Highway 10 West,Missoula,MT,59808,406-549-0188
Darr Trucking,20 3rd Ave,Culbertson,MT,59218,406-787-5388
Joe B Mitchell Trucking,# 27 Missoula Village West,Missoula,MT,59802,406-549-4918
B & B Trucking,16 2nd Ave,Laurel,MT,59044,406-628-6007
Dave Holt Trucking,2100 Lovers Leap Road,Dillon,MT,59725,406-683-4551
Mcdonalds North American,218 N 16th St,Billings,MT,59101,406-252-6394
Ronald Sherman Trucking,1308 Star Rt,Ronan,MT,59864,406-644-2886
R & S Trucking,Po Box 61,Ramsay,MT,59748,406-723-5355
Lyle Walker Trucking,2025 Sweetwater Rd,Dillon,MT,59725,406-683-5087
Shrauger Farms Trucking,609 5th St North,Havre,MT,59501,406-265-7557
Cummings Trucking,622 2nd Street East,Malta,MT,59538,406-654-1947
C & A Trucking,316 4th Ave North,Laurel,MT,59044,406-868-0582
B & S Transportation,112 Northniew,Missoula,MT,59803,406-543-6115
Lumley Trucking,1270 Webster Lane,Dillon,MT,59725,406-683-5826
Hilliard Hauling,428 Wards Rd,Libby,MT,59923,406-293-8351
Stentoft Trucking,124 Main St,Scobey,MT,59263,406-487-2888
Jim Bullard Trucking,9400 Morman Creek Rd,Lolo,MT,59847,406-273-0244
Hayward Trucking,2159 Monad,Billings,MT,59102,406-652-4340
Jeff Shaw Trucking,1005 Nth 4th Street,Miles City,MT,59301,406-232-2267
James W Eckart,1936 Bitterroot,Billings,MT,59105,406-855-4010
L & G Davis Trucking,552 Colorado,Missoula,MT,59802,406-543-4731
Shriver Trucking,307 Waterloo Rd,Whitehall,MT,59759,406-287-3827
Steve James Trucking,312 W Washington,Lewistown,MT,59457,406-538-3813
Turner Livestock Trucking,3724 Highway 87 South,Roundup,MT,59072,406-234-6010
Gary King Trucking,216 2nd Ave Se,Sidney,MT,59270,406-433-2514
Wratislaw Trucking,157 Bell Crossing,Stevensville,MT,59870,406-239-6193
Harry Ressler Trucking,3455 Hardin Road,Billings,MT,59105,N/A
Triple D Trucking,501 N Railway,Fallon,MT,59326,406-486-5572
Mts Industrial Testing,12555 W Andrews Ln,Molt,MT,59057,406-839-2013
Judith S Arlt,2806 Prairie Dr,Billings,MT,59101,406-245-6937
Roy Christensen Trucking,11 Harker Road,Heron,MT,59844,406-847-2646
Burtch Trucking,11076 Hwy 200,Dixon,MT,59831,406-246-3556
Mountain States Trucking,1530 Bench Blvd,Billings,MT,59105,406-248-4180
New Horizons Trucking,210 Mormon Ave,Ekalaka,MT,59324,406-775-6570
Williams Trucking,91 White Avenue,Libby,MT,59923,406-293-8144
Gregory Thompson Trucking,3805 7th Street Ne #184,Great Falls,MT,59404,406-466-2411
Tj Donahoe Trucking,3725 Broken Yoke,Billings,MT,59105,406-252-6799
X M Trucking,305 Covert,Billings,MT,59105,406-252-0814
Tomar Trucking,P O Box 377,Jordon,MT,59337,406-248-8955
Yellowstone Transport,320 South 24th Street,Billings,MT,59101,406-259-6250
S & J Transport,22311 Frontage Rd,Belgrade,MT,59714,406-560-0499
Ferguson Trucking,905 Independent Ln,Billings,MT,59105,406-259-2462
Timberman Transloading Trucking,3029 1st Ave S,Billings,MT,59101,406-652-4183
Rocky Rail Services Industrial Salvage Demolition,2249 Rogers,Missoula,MT,59808,406-543-8891
Ron Leighty Trucking,M P 7 On Us #2 7m W Of Troy,Troy,MT,59935,406-295-4147
A J S Express,810 Lake Elmo Drive,Billings,MT,59105,406-248-3138
Blue Mountain Trucking,470 Swan River Road,Bigfork,MT,59911,406-250-3219
Pork & Bull Trucking,3729 Green Acres Drive,Billings,MT,59106,406-652-8978
Bud Marvin Trucking,3550 Snowdrift Lane,Missoula,MT,59802,406-542-1308
R & L Livestock Transportation,P O Box 204,Hardin,MT,59034,406-248-3602
Hoehn Trucking,3518 6th Ave North,Great Falls,MT,59401,406-771-7966
Cogar Trucking,812 Montana Avenue,Missoula,MT,59802,406-728-4921
Hadley Trucking,614 West Arizona,Kalispell,MT,59901,406-752-1319
Reid Flinders Trucking,412 Wilcox Ln,Corvallis,MT,59828,406-961-4216
Byford Trucking Co,620 4th St E,Roundup,MT,59072,406-323-1690
West Wind Courier Service,1510 1st Street,Havre,MT,59501,406-265-8235
Don Brown Trucking,Hwy 13 N P O Box 3137,Wolf Point,MT,59201,406-525-3265
Dave Brown Trucking,Po Box 50653,Billings,MT,59105,406-256-8295
Rocket Trucking,100 Columbine,Missoula,MT,59802,406-728-4809
Lee Wilhelm Trucking,8260 River Road,Bozeman,MT,59718,406-587-5398
L D Helfert Trucking & Equipment,3707 Old Hwy 12 East,East Helena,MT,59635,406-227-6345
"Hammond Trucking, Inc.",404 North Choteau,Hardin,MT,59034,406-665-2726
Gary L Hills,55 Lonepine Road,Lonepine,MT,59848,406-741-5877
Cedar Creek Carriers,201 3rd Ave East,Superior,MT,59872,406-822-4615
J & R Trucking,3807 Cambridge Drive,Billings,MT,59101,406-248-3602
Burney Trucking,212 Chappell St,Loma,MT,59460,406-739-4448
Pat Transport,216 Glenhaven,Billings,MT,59105,406-252-6403
Juhl Trucking,2050 Clubhouse Way #2,Billings,MT,59105,406-256-9012
Dave Curtiss Trucking,1909 Wyoming #6,Missoula,MT,59801,406-721-3119
W & W Trucking,805 16th Street W,Billings,MT,59102,406-248-6800
Brockmier Trucking,114 S Grant,Plentywood,MT,59254,406-765-2914
Hansen Bros,8300 Mt Highway 41,Dillon,MT,59725,406-683-8255
Two Lane Transportation,1248 7th Avenue Nw,Great Falls,MT,59404,406-868-0070
Blue Eagle Wholesale And Distributi,33 Treasure Lane,Kalispell,MT,59901,406-755-8570
Dwight Barnhart Trucking,396 Bierney Creek Road,Lakeside,MT,59922,406-844-3867
Carpenter Trucking,15501 Haycreek Road,Billings,MT,59101,406-256-6275
Woldstad Trucking,363 Cedar Mill Rd,Kalispell,MT,59901,406-756-1202
Rockin Cbar7 Trucking,Undeliverable,Kalispell,MT,59901,406-755-7775
Rich Hyatt Trucking,128 North Allen,Columbus,MT,59019,406-322-4375
T L E Trucking,1112 Truscott St,Miles City,MT,59301,N/A
Deckert Trucking,532 River Road,Glendive,MT,59330,406-362-8822
Andy Olson Trucking,505 2nd Street S E,Sidney,MT,59270,406-433-2395
Coles Trucking,2099 Freeman Ridge Road,Troy,MT,59935,406-295-5482
Chop Chop Express,Rt 1 Box 1244,Hardin,MT,59034,406-248-8955
Poore Boy Trucking,14 Main St Apt 19 Box 627,Garrison,MT,59731,406-288-3415
Indreland Trucking,138 Glasston Rd,Big Timber,MT,59011,406-932-6658
L W Foley Trucking,929 Crist,Billings,MT,59105,406-245-7131
Goodman Trucking,2530 S Colorado St,Butte,MT,59701,N/A
Diamond L Trucking,12615 Gooch Hill Rd,Gallatin Gateway,MT,59772,406-763-4518
Beartooth Express,Hwy 212 4 Mi N Of Red Lodge,Red Lodge,MT,59068,406-446-2000
Four Seasons Trucking,P O Box 174,Lodge Grass,MT,59050,406-639-2546
T & C Auto Wholesale,2038 No Main,Helena,MT,59601,406-443-1930
Lynn Rose Trucking,289 Washington Blvd,Great Falls,MT,59404,406-454-3962
Hufford Sand And Gravel Ltd,Po Box 912,Baker,MT,59313,406-778-3300
M T Pockets Ventures LLC,124 W Pine Street,Missoula,MT,59802,316-617-4734
S B G Trucking LLC,P O Box 50242,Billings,MT,59105,406-480-9965
J&k Trucking LLC,Po Box 683,Miles City,MT,59301,406-234-2191
Cattle Tran LLC,321 S Manhattan Frontage Road,Manhattan,MT,59741,406-581-6885
R And J Construction LLC,Po Box 240055,Dell,MT,59724,406-925-1899
A Prince Trucking,241 South Adams,Plentywood,MT,59254,406-765-2739
"Gary Stevens Trucking, Inc.",P O Box 50242,Billings,MT,59105,701-842-4787
Mountain States Hotshot And Trucking,Po Box 889,Sidney,MT,59270,406-433-1415
Showroom Performance Center,3604 Decathlon,Billings,MT,59102,406-252-1826
Montana Tower,2712 S 7th St W,Missoula,MT,59804,406-239-6769
Shelbi''s Mustang Express,8067 Avocet Dr Unit C,Helena,MT,59602,907-441-2209
B&l Logistics,60 Riverview Dr,Troy,MT,59935,406-291-1531
Nfr Energy LLC - Lodgecreek Pipeline Co LLC,4100 1st Street W,Havre,MT,59501,406-262-9900
4k Angus,121 South Weast Street #1,Absorkee,MT,59001,406-321-3626
Milt Hartman Trucking,2927 Boxcanyon Rd,Buffalo,MT,59418,406-374-2336
Eme Trucking,316 11th Ave East,Roundup,MT,59072,623-693-6463
Montana Lifestyle,1605 Carrigan Lane,Dillon,MT,59725,406-925-3478
Jim Wagar Trucking,975 Truman Creek Rd,Kila,MT,59920,406-249-8900
Minehill Trucking,550 Tobacco Rd,Eureka,MT,59917,406-270-5015
We Dairy,56061 Crow Dam Rd,Charlo,MT,59824,140-664-4296
Miller Creek Trucking,6565 Mt Hwy 200,Plains,MT,59859,406-826-3151
Nm Trucking,665 County Line Road,Havre,MT,59501,406-403-2125
Horn Transport,5 Bear Paw Place,Great Falls,MT,59404,406-268-0572
Rogie Trucking,817 6th Ave S E,Sidney,MT,59270,406-248-8955
Subur Services,3993 Squires Lane,Stevensville,MT,59870,406-360-8356
"Gerald Nash Electric, Inc.",8303 Evergreen Drive,Helena,MT,59602,406-458-6166
Dst,1258 Bluebell Dr,Billings,MT,59105,406-671-4761
Kemps Construction,646 Hiway 89 South,Gardiner,MT,59030,406-248-8955
A& S Metals,2100 Meadowlark Ln,Butte,MT,59701,406-494-1661
"John Rush Contracting, Inc.",2640 Columbia Falls Stg,Columbia Falls,MT,59912,406-250-5072
T & L Trucking,902 Mobile Ave,Glendive,MT,59330,406-248-8955
Rimrock Trailways,5044 Midland Road,Billings,MT,59101,406-245-5392
Leased To Lanny Fry,401 Kings Way,Kalispell,MT,59901,406-756-8152
Jh Performance Horses,750 Torch Drive,Billings,MT,59102,307-371-0490
Rock Creek Services,40 S Rock Creed Road,Noxon,MT,59853,406-847-1995
Wm Trucking,2405 Leighton Blvd,Miles City,MT,59301,406-234-6010
Gomke Enterprises,34558 Us Hwy 93,Big Arm,MT,59910,406-849-6630
C A Sanders Trucking,105 Peterson St,Missoula,MT,59802,208-615-1680
Lone Mountain Ranch,750 Lone Mountain Rd,Big Sky,MT,59716,484-690-3811
Ktm Hotshot Service,6250 12 Mile Rd,Billings,MT,59105,406-670-9836
7 3 Brand Equipment,5282 Rocky Mountain Blvd,Billings,MT,59106,406-652-9640
Montana West,312 Main Street Sw,Ronan,MT,59864,406-676-2500
"Montana State Builders, Inc.",64963 Thornton Road,Ravalli,MT,59863,406-246-4570
A & R Oilfield Services,2050 Broadwater Ste B,Billings,MT,59102,406-591-1850
Jess Martin Trucking,151 Mustang Lane,Dillon,MT,59725,406-925-0308
A&d Asphalt,825 5th Ave South,Great Falls,MT,59405,888-316-7623
Elite Asphalt,413 4th St Se,Laurel,MT,59044,888-490-1875
Driveway Experts,1720 10th Ave South #4,Great Falls,MT,59405,800-283-1361
Irish Acres Trucking,16101 38th St Nw,Fairview,MT,59221,208-816-3732
Bull Custom Transport,18885 Six Mile Road,Huson,MT,59846,N/A
"Beard Pipe, Inc.",2930 Saint Johns Ave,Billings,MT,59102,406-694-2377
Blondie's Hot Shot Service,City Road # 22 35220,Sidney,MT,59270,406-480-4938
Hell Roarin Eagle,6477 Hwy 93 S Box 150,Whitefish,MT,59937,406-862-0746
Wild Badger Excavation,260a Tash Lane,Polaris,MT,59746,406-834-3512
Green Contracting,2949 Greenhouse Road,Deer Lodge,MT,59722,406-930-5914
Elk Creek LLC,39655 Miller Creek Ct,Ronan,MT,59864,406-546-5443
Bill Raihl Trucking,109 4th Ave So,Stanford,MT,59479,406-566-2520
"Wjm Trucking, Inc.",145 Black Bear Lane,Bigfork,MT,59911,406-837-1455
Ypr And Construction,509 7th Ave Nw,Choteau,MT,59422,406-466-5373
Peiffer Forest Maintenance,20 Moon Lake Trail,Kalispell,MT,59901,406-752-5545
Monarch Limited LLC,770 N Montana,Dillon,MT,59725,406-925-2228
Haulin' Dirty LLC,145 Cleveland Rd,Chinook,MT,59523,541-324-0697
Gear Jammer Heavy Haulin',221 S Holland,Philipsburg,MT,59858,406-403-2849
Terry's Service,602 N High,Lewistown,MT,59457,406-350-1306
Rock Steady Trucking,5080 Hwy 83,Seeley Lake,MT,59868,406-493-8765
Land Speed Carriers,84 Glacier Cir,Kalispell,MT,59901,406-471-2941
G & R Enterprises,291 Barbara Street,Stevensville,MT,59870,406-360-2743
Rohr Trucking,466 Fas 335,Glendive,MT,59330,406-234-6010
Fogline Trucking,5025 Indian Ridge Rd,Billings,MT,59101,406-690-1733
Trailhead Taxidermy,3095 Road 545 South,Havre,MT,59501,406-395-4590
Dfr Trucking Limited Liability Company,2 Gee Rd,Rapelje,MT,59067,406-459-0407
Hicks Brothers Trucking,5550 B Foster Lane,Belgrade,MT,59714,406-451-6873
Double Eagle Transport,370 Alpine Dr,Bigfork,MT,59911,406-314-0637
J&s Feeds,1000 N Merrill,Glendive,MT,59330,406-377-2180
T Montanas Hotshot Service,183 Howie Road,Big Timber,MT,59011,701-264-9977
Marozzo Trucking,414 Nevada Ave,Libby,MT,59923,406-291-0003
Sundance Solar Systems LLC,67 Vernetti Road,Red Lodge,MT,59068,406-425-1153
Red Sky Trucking,2705 Ivy Drive,Great Falls,MT,59404,406-590-6205
Eh Brand Trucking,307 Chokecherry Lane,Lewistown,MT,59457,406-350-2172
Underground Sprinkler,31 6th Ln Ne,Fairfield,MT,59436,406-217-6428
Last Chance Trucking,1630 Cr 182,Culbertson,MT,59218,701-580-4655
Arnie's Hotshot Service,100 S Rosser Ave,Glendive,MT,59330,406-939-1017
Waller Hotshot Service,1430 Wicks Ln,Billings,MT,59105,406-896-8025
Truenorth Steel,1501 South 30th Street W,Billings,MT,59102,406-869-2665
Outlaw Trucking,409 6th St Se,Sidney,MT,59270,307-680-2172
Crimson Trucking,4149 Iron Horse Trail,Billings,MT,59106,406-655-0821
Dustys Construction Services,2017 Harrison Ave Suite 322,Butte,MT,59701,406-565-3413
Beartooth Auto Transports,24 Orchard Lane Suite 5,Billings,MT,59101,406-252-2211
Triangle Trucking,1130 Powderville Rd,Ekalaka,MT,59324,406-775-6876
"Dasko, Inc.",1830 Stillmeadow Drive,Billings,MT,59106,406-671-8069
Bowen Ranch Trucking,668 Sleepy Hollow Ln,Lincoln,MT,59639,541-610-2266
Black Rock Contract Services,306 Madison Street,Thompson Falls,MT,59873,406-546-1547
Sandt Transport,527 North G Street,Livingston,MT,59047,406-390-5374
Faw Trucking,28 Black Powder Trail,Bozeman,MT,59715,406-478-1491
Dinsdale Trucking,692 Boyd Cooney Dam Road,Roberts,MT,59070,406-426-0041
"Diversified Freight, Inc.",716 South 1st Street,Hamilton,MT,59840,406-961-9017
Milos Ranch,105 East Highwood Road,Belt,MT,59412,406-277-3549
Williams Trucking,289 2nd Street W,Lambert,MT,59243,406-248-8955
D'agostino Masonry Supply,165 Quail Run Rd #2,Bozeman,MT,59718,406-586-7625
Smd Trucking,508 2nd Ave E,Three Forks,MT,59752,406-581-8121
Oil Field Services,415 S Sargent,Glendive,MT,59330,406-377-2825
Redneck Trucking,366 C Pine Street,Saint Marie,MT,59231,406-465-9303
Professional Power Washing,32723 Timberlane Road,Ronan,MT,59864,406-676-4726
J-d Trucking,211 Ridge Road South,Alzada,MT,59311,605-569-1919
Marks Auto,9797 Derby Drive,Missoula,MT,59808,406-529-9425
Whc,4923 Middle Valley Drive,Billings,MT,59105,406-670-6012
Aloha Hauling,459 Antelope Trail,Whitefish,MT,59937,808-870-4929
Z Hanging Y Livestock,101 Helm Scenic Circle,Miles City,MT,59301,406-421-5594
Mjb Hauling,730 Bullhook Dr Se,Havre,MT,59501,406-265-9227
Cowboy Scrap & Hot Shot,335 E Street North,Wibaux,MT,59353,406-989-1651
Severson Trucking,273 Eagle Creek Road,Redstone,MT,59257,406-779-3373
Wards Cleaning,258 Rickelly,Hamilton,MT,59840,406-381-1792
"Tps Trucking, Inc.",706 Dakota Street,Belgrade,MT,59714,406-388-7118
Larson Trucking,3798 Banff Ave,Billings,MT,59102,406-860-1250
J & K Harvesting,1117 2nd Street West,Roundup,MT,59072,406-323-4129
Hb Enterprises,119 2nd St East,Culbertonson,MT,59218,435-669-4543
Quik E'z Towing,63575 Highway 93 N,Polson,MT,59860,406-883-1444
E & W Trucking,305 2nd West,Roy,MT,59471,406-464-2271
Finnicum Custom Combining,602 11th Se,Sidney,MT,59270,406-482-7260
Lj's Ride,681 Kentucky Ave,Dillon,MT,59725,406-925-1557
Ljl Cattle Co,1390 Lane Rd,Three Forks,MT,59752,406-285-3184
Running Bear Fire Water,561 Wiest Rd,Brady,MT,59416,406-753-2393
Dennis Wagar Logging,735 Pleasant Valley Road,Marion,MT,59925,406-854-2500
Half Ass Ranch,328 Mallard Springs Road,Valier,MT,59486,406-279-3534
Bill Hellman LLC,3821 Mt Hwy 284,Townsend,MT,59644,406-266-5004
T & C Bahnmiller,2058 Mountain View Road,Big Sandy,MT,59520,406-378-3176
Sonny Sands,500 Two Mile Drive,Kalispell,MT,59901,406-752-7812
Tiger Trailer Toters,225 Geyser Street,West Yellowstone,MT,59758,406-640-9292
End Of The Trail Ranch & Rodeo Co,3890 Helberg Dr,Helena,MT,59602,406-227-6941
J & N Orchards,Box 633,Bigfork,MT,59911,406-837-4592
Cv Construction,10 Chets Court,Plains,MT,59859,406-826-0259
The Gravel Man,1511 Armington Lane,Drummond,MT,59832,406-288-3613
Rock Hard Corp,551 Dutch Hill Road,Hamilton,MT,59840,406-961-0094
Trugreen Chemlawn,525 South Moore Lane,Billings,MT,59101,406-256-9499
"Zavala Excavating & Orchards, Inc.",18675 East Lake Shore,Big Fork,MT,59911,406-982-3326
Sharkey Construction Company,9730 Grant Creek Road,Missoula,MT,59808,406-727-0070
Nickol Contracting,265 Pederson Road,Kalispell,MT,59901,406-755-4082
Major Construction,711 Shadow Lane,Kalispell,MT,59901,406-752-1539
Siedentopf Excavating,85 Siedentopf Lane,Polson,MT,59860,406-887-2429
Williams Enterprises,300 Indian Creek Road,Eureka,MT,59917,406-297-2878
Jack Finley,74 Finley Road,Deborgia,MT,59830,406-678-4370
Richard L Juntmen,259 Mc Clellan Creek Rd,Clancy,MT,59634,406-442-3048
H2o On The Go,37 Panoramic Drive,Kalispell,MT,59901,406-257-5924
Badgett And Sons,16534 Fairview Ave,Broadview,MT,59015,406-667-2269
Robert C Sheeler,40 1st Street South,Pendroy,MT,59467,406-469-2220
Rexworth Contractng LLC,325 Parsnix Way,Libby,MT,59923,406-293-3335
Terry Miller,205 North Gold,Anaconda,MT,59711,406-563-7700
Rick Sorlie,70 Silkcox Lane,Thompson Falls,MT,59873,406-827-0888
Ns-fence,3680 Valley Dr,Helena,MT,59602,406-431-4186
Phillips Concrete,307 East Madison,Pony,MT,59747,406-491-0132
Lange Co,6375 Delarka,Lolo,MT,59847,406-278-2818
Carson Contracting,1030 Sunvalley Road,Helena,MT,59602,406-458-0334
Shelton Lots Construction,160 Village Lane,Anaconda,MT,59711,406-563-5483
Grassland Soil And Reclamation,11 Limestone Road,East Helena,MT,59635,406-457-0848
Hounds Towning,2327 Livingston Ave,Missoula,MT,59806,406-721-4283
"Tom Earl Enterprises, Inc.",5490 13th Steet South,Great Falls,MT,59405,406-454-1647
Bear Paw Excavation,623 Hobson,Butte,MT,59701,406-490-0973
All Woody,4189 Ember Lane,Stevensville,MT,59870,406-777-3041
Ganab LLC,33 Eastep Lane,Livingston,MT,59047,406-223-5960
Camden Enterprises LLC,2918 Farm To Market Road,Kalispell,MT,59901,406-755-5228
Road Runner Expediting,2901 7th Ave N,Great Falls,MT,59401,406-452-1411
Ford's Towing,604 Grove St,Thompson Falls,MT,59873,406-827-7800
Tjt,1702 14th St So,Great Falls,MT,59405,406-264-5789
Taz 1 Towing,101 Iron Creek Rd,Troy,MT,59935,406-295-6003
Superior Automotive Repair & Towing,716 Ohio Street,Lewistown,MT,59457,406-538-2951
Yellow Dog Trucking,955 Barbara Dr,Billings,MT,59101,406-670-2540
Swancrest,129 Hemler Creek Rd,Kalispell,MT,59901,406-257-0213
Lyles Sand & Gravel LLC,885 Echo Lake Road,Big Fork,MT,59911,406-837-3425
Lambert Excavation,906 Dimaggio Drive,Belgrade,MT,59714,406-581-7268
R&b Enterprises,3326 St Johns Avenue,Billings,MT,59102,406-371-5339
Mnr Signs,211 Jet Wa Y Drive,Belgrade,MT,59714,406-570-5423
Laubach Red Angus,857 Highway 10 West,Big Timber,MT,59011,406-932-4282
Dunn Cattle Co,1419 S Church,Bozeman,MT,59715,406-599-8277
Northwest Maintenance,505 Bench Drive,Kalispell,MT,59901,406-755-3495
Consolidated Systems,2970 King Ave W,Billings,MT,59102,406-208-9238
Able Towing,2121 4th Avenue North,Billings,MT,59101,406-656-1605
Let Er Buck Trucking,301 North Jensen,Broadus,MT,59317,406-436-2890
Tylco Enterprises,108 Stillwater Lane,Billings,MT,59105,406-698-3017
Hiland Trucking,328 10th St W,Kalispell,MT,59901,406-270-3037
Spike Buffington Hay Grinding,826 Silver Sage Dr,Miles City,MT,59301,406-853-4629
Ed Taylor Trucking,711 Yellowstone Ave,Manhattan,MT,59741,406-581-8810
Beartooth Towing,26 Orchard Lane,Billings,MT,59101,406-252-2211
Dimmicks Towing & Dimmicks Auto,107 2nd St Nw,Harlowton,MT,59036,406-632-4757
Rocky Mountain Shipping,1236 Weil Street,Billings,MT,59101,406-860-3641
Over And Under Trucking,505 5th Ave E,Malta,MT,59538,406-301-1570
Kurt Kautz Trucking,2233 Chloe Drive,Huntley,MT,59037,406-698-4090
Kurt Kautz Trucking,2233 Chloe Drive,Huntley,MT,59037,406-698-4090
Dsi Auto,7473 Us Highway 212,Roberts,MT,59070,406-446-3833
Manda'yaim,201 Joni Lane,Joliet,MT,59479,406-566-2575
Road Towed Transport LLC,1519 Rehberg Lane,Billings,MT,59102,406-259-7255
Nances Trucking,4 North Hillside,Basin,MT,59631,406-422-8136
Rebel Trucking,17 Birch Lane,Belgrade,MT,59714,406-559-0981
Cm Crawford Oilfield Truck,1601 Road 2055,Culbertson,MT,59218,800-226-3696
Rnr Stagelines,2126 Middlle Burnt Fork Road,Stevensville,MT,59870,406-777-7323
Libby Scrap And Steel,346 Pipe Creek Road,Libby,MT,59923,406-291-6619
Last Ride Livestock,91 3rd Ave S,Stanford,MT,59479,406-369-1324
Oil Development & Production,215 7th Ave West,Lewistown,MT,59457,406-535-3736
Gearhead Trucking LLC,42 South Rock Creek Road,Noxon,MT,59853,406-847-9806
Dahl's Livestock,127 Woodland Road,Moccasin,MT,59462,406-566-2575
Lanners Truckng,320 Braig Road # 43,Columbia Falls,MT,59912,503-607-1088
Graham Transport,3608 Kiowa Trail,Billings,MT,59105,406-861-9379
Tipsy Trolley,620 Lake Elmo Dr Suite 11,Billings,MT,59105,406-855-0108
Tipsy Trolley,620 Lake Elmo Dr Suite 11,Billings,MT,59105,406-855-0108
Cole Logging,12 West Fork Combest Creek Road,Plains,MT,59859,406-826-3930
Xec LLC,5835 Interstate Ave Unit D,Billings,MT,59101,208-785-3436
Ferguson's Kustomz,Gf 1 Drive,Poplar,MT,59255,406-768-8393
Kozmic Eatz,19500 Maple Lane,Florence,MT,59833,406-531-2815
Hilyard Enterprises,100 Nichols Rd,Plentywood,MT,59254,406-765-2597
River Mountain Trucking,5353 Canyon River Road,Missoula,MT,59802,406-493-5621
Glacier Transport Systems,236 Wagar Lane,Marion,MT,59925,406-253-2509
Noel Livestock,200 Gleed Lane,Lima,MT,59739,559-960-9892
"Harco, Inc.",5355 Highway 2 West,Columbia Falls,MT,59912,406-260-3485
Glby,1720 10 Avenue South Suite 4,Great Falls,MT,59405,188-887-3447
Mccready Trucking,570 West Missoula Avenue,Darby,MT,59829,406-546-5804
Cullinan Ranch,840 Road 315,Glendive,MT,59330,800-226-3696
Vega's Transport's,604 Obsidian Ave,West Yellowstone,MT,59758,406-640-0949
K & G Transport,13 Stoney Acres Lane,Glendive,MT,59330,406-377-2492
"Js Livestock, Inc.",3080 Clear Creek Rd,Havre,MT,59501,406-265-0871
Snyder Towing And Auto Sales,5248 Jackrabbit Lane,Belgrade,MT,59714,406-781-0458
Ted's Body Shop,133 Riverside Drive,Eurek,MT,59917,406-297-2617
Curran Hot Shot Trucking,108 5th Ave,Clyde Park,MT,59018,406-599-7080
Atc Services,12450 Crystal Mt Rd,Three Forks,MT,59752,406-579-9785
Chimerical,59 Korner Ranch,Cut Bank,MT,59427,517-507-0612
Fiedler Angus,152 L E Peterson Road,Columbus,MT,59019,406-931-0857
Windy City Excavation,1711 32nd Ave So,Great Falls,MT,59405,406-590-6055
Miller's Farm,1310 Rd 248,Glendive,MT,59330,406-486-5673
Mrays Transport LLC,3495 Elk Creek Rd,Grassrange,MT,59032,406-366-6549
Myett Trucking,118 Lilac Ave,Belgrade,MT,59714,406-579-9124
H&n Hotshot,232 8th Avenue Southwest,Sidney,MT,59270,202-521-1484
Western Industries,Top Of Yellowstone Hill,Miles City,MT,59301,406-234-1680
Stensland Land And Livestock,4946 Road 1064,Wolf Point,MT,59201,202-521-1484
Joe's Hotshot Services,4369 Rio Road,Helena,MT,59602,406-475-5154
Cm Trucking LLC,2380 N 9th Rd,Worden,MT,59088,406-967-2490
Goodfellaz Transport,159 Fairway Drive,Missoula,MT,59803,406-381-4061
Ole Blue Trucking,289 Little Creek Road,Eureka,MT,59917,406-291-3858
Blackwood Trucking,133 Wilson Rd,Roundup,MT,59072,253-777-8888
Pelley Ranch,100 Pelley Road,Plains,MT,59859,406-741-3939
Nuckolls Trucking,210 North Ave W,Missoula,MT,59479,406-566-2575
Servpro Of Billings,1375 4th Ave N Ste F,Billings,MT,59101,406-252-0859
Cn The States,31652 S Ferndale Dr,Bigfork,MT,59911,406-250-9913
Td Concrete & Excavation,137 3rd Cottonwood Grove,Glendive,MT,59330,208-731-6188
Thornton Racing LLC,5410 Hwy 2 East,Columbia Falls,MT,59912,406-892-2160
Wf Transport,1220 Elm St,Helena,MT,59601,406-442-3566
Haulin As Transport,2631 Sage Creek Rd,Dell,MT,59724,406-276-3798
T And T Livestock,750 Chreston Ln,Dillon,MT,59725,406-925-2767
Rocking W,5565 Hwy 93 South,Conner,MT,59827,406-821-0111
Stenberg Trucking,36402 Dublin Gulch Rd,Saint Ignatius,MT,59865,406-207-7674
Precision Bop & Tubing,42 W 4th St,Fairview,MT,59221,406-480-1858
Spirit Of The North Sled Dog Adventures,35 Depot Spur Rd,Ennis,MT,59729,406-682-7994
"Pro Tape Iii, Inc.",5585 Sapphire Ridge Road,Florence,MT,59833,406-273-0331
Boushay Trucking,648 West H Rd 7 N,Huntley,MT,59037,406-566-2575
Blue Sky Amusements,6228 Victoria Lane,Billings,MT,59106,406-698-9468
Grizzly Fence,7186 Interstate Place,Missoula,MT,59808,406-549-3993
Wiild West Trucking,35173 County Road 129,Sidney,MT,59270,406-488-2840
Rockn' K Carriers,41769 O'brien Rd,Ronan,MT,59864,970-623-3587
Five D Transport,28 Rain Shadow Drive,Belgrade,MT,59714,406-570-5588
Sammons Hauling And Transport,425 Sweetgrass Court,Great Falls,MT,59405,406-799-6224
Dragoon Logistics,1047 Helena Flats Road,Kalispell,MT,59901,406-212-1001
Gl Earth Movers,1212 29 Th Street West,Billings,MT,59106,307-660-8622
Jdf Hauling,228 Sacajawea Peak Dr,Bozeman,MT,59718,801-259-9358
Rwos LLC,109 4th Ave S,Stanford,MT,59479,406-366-0994
Kittson Rodeo,101 Two Medicine Hwy 89 S,Browning,MT,59417,406-529-6243
Schultz Resource Management,523 W Park St,Livingston,MT,59047,406-551-3703
Mr And Mrs Wilson Trucking,222 2nd Street Nw,Cut Bank,MT,59427,406-229-0670
Dba National And Alamo Car Rental,2000 West Broadway Ste B,Missoula,MT,59808,406-549-3355
Magic City Wrecker & Recovery,4011 T Bar J Way,Billings,MT,59101,406-252-9915
Cm Trucking,1610 36th Ave Ne,Havre,MT,59501,406-399-5111
Core Outdoor Power,36235 Kerr Dam Rd,Polson,MT,59860,406-883-2673
Flathead Party Bus,417 7th Ave W,Kalispell,MT,59901,406-212-6029
"Remart, Inc.",1931 N Last Chance Gulch,Helena,MT,59601,406-443-2535
M&s Logging,8045 Hw 287,Townsend,MT,59644,406-461-7653
Billings Bulls,1606 Mary Street,Billings,MT,59105,406-690-0242
Rough Rider Sand And Gravel,518 G St East,Poplar,MT,59255,406-768-5524
Gentry Apiaries,222 Ponoka Ave,Valier,MT,59486,209-605-8821
Coal Creek Livery And Feed,4680 Old Highway 10,Hathaway,MT,59333,406-347-5466
Monana Wagyu Cattle Company,6195 Round Mountain Road,Belgrade,MT,59714,406-388-2174
Wheeler Trucking,3415 White Coyote Rd,Arlee,MT,59821,406-396-5630
Montana Cool,10 River St Suite A,Big Timber,MT,59011,406-930-0389
Abel Tow,1028 Lewis Ave,Billings,MT,59102,406-876-5514
Powder River Excavation And Trucking,339 Moorhead Road,Broadus,MT,59317,406-427-5168
Cowboy Consultants LLC,12652 County Road 352,Sidney,MT,59270,406-248-8955
Dick Harrell Performance Certer LLC,302 N Last Chance Gulch,Helena,MT,59601-5028,818-833-7171
Big Bear Transit LLC,38580 3rd Street East,Charlo,MT,59824,406-529-6825
Sb Transport,240 N Savoy Rd,Harlem,MT,59526,406-353-4773
Ler Transport,140 Stoner Creek,Lakeside,MT,59922,406-794-8605
Dutton Ranch,8c 69 Dutton Rd,Sandspring,MT,59077,406-557-2936
Cardenas Trucking LLC,407 20th Ave West,Polson,MT,59860,406-883-1966
H T Bar Ranch,61 Wolfe Creek Rd,Broadus,MT,59317,406-436-2882
Leon Russell Enterprises,124 W Pine Street,Missoula,MT,59802,931-840-5500
Drop Tine Express,311 Fallon Ave,Baker,MT,59313,406-891-1417
Taylor Hauling,840 Flathead Creek Road,Wilsall,MT,59086,406-578-2083
"Montana Woodworks, Inc.",76 Whitetail Drive,Rexford,MT,59930,406-889-3728
Inline Carpentry,366 Nw 5th Ave,Kalispell,MT,59901,202-521-1493
Transportation,2938 Weaver Ave,Billings,MT,59101,406-256-2342
J And M Trucking,71729 Us Hwy 93,St Ignatius,MT,59865,406-531-7260
Mathisonlivestock,9942 C A Road,Shepherd,MT,59079,406-951-6464
T Lazy S Ranch,41500 Stasso Rd,Polson,MT,59860,208-861-6811
Alan Erker Trucking,604 Quartz Road,Superior,MT,59872,406-822-1120
Cowgirl Dispatch,830 Kelly Circle,Shepherd,MT,59079,406-702-0669
Cannon Transfer,526 Lookout Trail,Stevensville,MT,59870,406-270-3837
Tumbleweed Express,348 Elk Trl,Whitefish,MT,59937,435-890-9392
Twisted Wire Trucking,65 Billman Ln E-2,Livingston,MT,59047,970-215-2967
Puzzleworks Transportation,90 West Madison Ave Suite E 232,Belgrade,MT,59714,406-210-5512
Copper State Trucking,40 Plainsmen Field Rd,Scobey,MT,59263,208-899-5530
Boondocks Shop And Save,407 North 2nd,Troy,MT,59935,406-295-5108
J Diamond D Equine Express,100 South Old Place Ln,Belgrade,MT,59714,406-552-5366
Williams Trucking,22 Lake Creek Rd,Volborg,MT,59351,202-521-1493
Tony,21536 Conifer Dr,Huson,MT,59846,406-626-5981
Pennington Fencing,16302 Bennie Peer Rd,Sidney,MT,59270,701-565-2611
Jo Richard Mobile Welding,210 Coburn Rd,Billings,MT,59101,406-961-4155
Muddy River Trucking,77 Main,Loring,MT,59537,406-301-1241
Ltl Forestry,45 Willow Drive,Kalispell,MT,59901,406-756-6214
Hilltop Welding,803 Lustre Rd,Wolf Point,MT,59201,406-650-2050
Yellowstone Structural Systems,240 Buckskin Unit 1a,Belgrade,MT,59714,406-587-2903
Respond First Aid System Systems,1353 Elm,Helena,MT,59601,406-475-3208
Jerry Michael Mail Contractor,537 W D Road,Huntley,MT,59037,406-348-3648
Eagle Hollow Hotshot LLC,1003 West Bell Street #8,Glendive,MT,59330,435-253-1002
Easterwood Trucking,2620 Carlin St,Laurel,MT,59044,406-697-6206
Grab Er N Growl Trucking,722 Waverly Place Aptartment 02,Whitefish,MT,59937,701-300-2818
Fox Trucking,1212 Grand Avenue Ste 130,Billings,MT,59102,406-647-9139
Benders Transport,38606 Curlew Dr,Charlo,MT,59824,406-546-2207
Running Iron,5 Eagle Point Ln,Bridger,MT,59014,406-371-1192
Joel Johnson Trucking,2648 Yankee St,Billings,MT,59105-7424,406-698-0119
Anderson Trucking,3 Firestone Lane,Drummond,MT,59832,406-207-4426
Mark Winkler Trucking,442 Laurie Lane,Billings,MT,59105,406-671-5089
The Hay Barn,354 Old Corvalis Road,Hamilton,MT,59840,406-363-5441
Mentzer Livestock,54 New Chicago Rd,Hall,MT,59837,406-288-3395
Advantage Stone Solutions,#4 Two Boy Ln,Plains,MT,59859,406-826-4231
Rocky Mountain Log Homes,1883 Highway 93 S,Hamilton,MT,59840,406-363-5680
David G Mulheim Trucking,720 7th Street N,Great Falls,MT,59403,406-740-1231
Mule Shoe Ranch,Box 322,West Glacier,MT,59936,406-253-6925
Horse Prairie Transportation,1450 Mt Highway 91 S,Dillon,MT,59725-7387,435-632-8994
Lonestar,518 West Front St,Joliet,MT,59041,406-208-1722
Woodchuck Wood Products LLC,211 West 3rd Number 7,Stevensville,MT,59870,406-777-5839
M M & J,5618 Highway 2 West,Columbia Falls,MT,59912,406-249-3796
J D Ostermiller,1216 Bitterroot Drive,Billings,MT,59105,406-245-7042
Pfau Hay Pellet Mill,2685 Eastside Highway,Stevensville,MT,59870,406-777-5866
Wash Away Ranch Excavation,7788 Eastside Road,Deer Lodge,MT,59722,406-846-3423
Earl Bennett Logging,Box 411,Fortine,MT,59918-0411,406-882-4925
S&s Concessions,285 Freedom Drive,Eureka,MT,59917,406-889-5230
"J L Regh General Contractors, Inc.",95 Regh Avenue,Libby,MT,59923,406-293-6020
Todd Bedosky,Rr 1 Box 23,Geyser,MT,59447,406-735-4464
"Superior Color & Lumber, Inc.",109 Mullan Road West,Superior,MT,59872,406-822-4892
Armstrong Transport,1011 Runyon Dr,Alberton,MT,59820-9412,406-531-5758
Francisco Romero,18878 Highway 271,Helmville,MT,59843,406-793-0010
Ed A Clark,9131 150 Mile Trail,Whitefish,MT,59937,406-881-2697
Valvo Logging,12 Main St,Pony,MT,59747-0633,406-685-3257
"Kasilof Fishiers, Inc.",201 21 Road Ne,Dutton,MT,59433,406-466-3491
Mike Warner,120 Schrade Road,Kalispell,MT,59901,406-253-2226
J-e Ranch,237 Flanagin Lane,Stevensville,MT,59870,406-777-5824
Turcotte Trucking,273 Eight Mile Cr Rd,Florence,MT,59833-6625,505-670-0112
Eash Logging,1007 Trego Road,Trego,MT,59934,406-889-3674
Visscher Enterprises,19450 Twin Lakes Road,Frenchtown,MT,59834,406-626-0051
Springtime Farm And Ranch,189 W Springtime Rd,Reed Point,MT,59069,406-326-2378
Sleep City,2675 Palmer Ste F,Missoula,MT,59808,406-541-2860
Van Dessel And Sons,1222 Haul Rd,Joplin,MT,59531,406-292-3343
K&d Hayes Dirt Works,590 Oslovsky Rd,Eureka,MT,59917,406-297-7402
Dublin Cutting Horses,1506 Thiel Rd,Laurel,MT,59044,406-628-4436
High Point Enterprises LLC,420 Ponderosa Dr,Glendive,MT,59330-2926,406-989-2377
Fortified Nutrition,610 Glacier Street,Shelby,MT,59474,406-460-0580
Fuson Trucking,296 Eagle Drive,Conrad,MT,59425,406-289-0664
Skoyen Trucking,1520 Norwegian Rd,Chinook,MT,59523,406-357-2181
Patton's Crushing,519 Van Gundy,Deer Lodge,MT,59722,N/A
Sharp Yachts Transport,570 Glacier Dr,Seeley Lake,MT,59868,425-508-0802
Out Of The West,12323 Axtell Gateway,Bozeman,MT,59718,406-570-7770
Yellowstone Metals,4 N Ellery Ave,Fairview,MT,59221,406-478-9326
Forza,365 Airport Rd,Hamilton,MT,59840,310-562-3206
Klm Innovations,115 16th St South,Great Falls,MT,59401,406-217-3880
Six Point Enterprises LLC,11194 Hwy 83,Bigfork,MT,59911,406-837-5065
Not Sure Trucking,113 N Virginia St,Conrad,MT,59425,406-781-2461
Skaggs Trucking,618 Fowler Rd,Ledger,MT,59456,606-802-3238
A 1 And Fleet Service,461 Main St,Shelby,MT,59474,202-521-1493
Rough Road Enterprises LLC,3716 Yeoman Road,Shepherd,MT,59079,406-545-7044
Butch Selph Trucking,2635 Rd 27 S,Ballantine,MT,59006,406-698-6067
Zimbelman Trucking,194 Shining Mountain Road,Brady,MT,59416,406-217-8017
Joe Bramlette Trucking,309 3rd Ave,Loma,MT,59460,406-788-0431
Calvary Trucking,2019 Burlington Avenue,Billings,MT,59102-2722,406-655-0791
Hendricks Trucking,115 Rocky Rd,Kalispell,MT,59901-3555,406-755-4560
Truck And Rv Shop,5433 Mt Hwy 200,Thompson Falls,MT,59873,406-827-3686
Bb Express Trucking,1616 Shepherd Acton Rd,Shepherd,MT,59079,406-694-9805
Herbs Trucking,3948 Bull Pine Road,Billings,MT,59101,406-256-0996
Mdc Transport LLC,136 Bernard Rd,Kalispell,MT,59901-2407,406-249-4266
Cmchaney Trucking LLC,3 W Front St,Three Forks,MT,59752,406-581-7449
Benedict Trucking,518 Monroe St,Baker,MT,59313,406-778-3436
Castle Mountain Fire,7 Wall Street,White Sulphur Springs,MT,59645,406-547-2149
Hinebauch Feedlot,2003 Main St,Miles City,MT,59301,406-234-9100
Coopers Wildfire,125 Lower Lynch Creek Road,Plains,MT,59859-9556,406-721-6872
Buffalo Bird LLC,34772 Spring Creek Road,Ronan,MT,59864,406-249-5796
Johnson Lane Materials,3530 Coulson Road,Billings,MT,59101,406-896-1904
"Arthun Livestock, Inc.",11 Shields Lane,Wilsall,MT,59086,406-578-2245
Anderson Apiaries,182 Carey Lane,Sheridan,MT,59749,406-842-7599
Bozeman Ford Lincoln Rv,2900 N 19th Ave,Bozeman,MT,59718,406-587-1221
Wentzel Apiaries,170 Goodrich Gulch Road,Twin Bridges,MT,59754-0381,406-684-5555
Aqua Enterprises,1652 River Road,Troy,MT,59935,406-295-5913
"Vanisko Ranches, Inc.",478 Quinlan Road,Deer Lodge,MT,59722,406-846-1627
Meadow Creek Antler Company,458 N Whitetail Road,Bigfork,MT,59911,406-837-0050
Rocky Mountain Showers,46758 Old Hwy 93,Ronan,MT,59864,406-676-2282
Lemco,4212 Us Hyw 312,Billings,MT,59105,406-698-6868
Schine Electric,3070 2nd St W,Havre,MT,59501,406-265-6900
Grizzly Logistics,702 North 19th Ave #2e,Bozeman,MT,59718,406-284-2664
Lp Transportation,513 3rd Ave,Victor,MT,59875,406-203-2969
The Place Of Antiques,110 Mullan Gulch,Saint Regis,MT,59866-0002,406-649-2397
Morning Star,111 Carpenter Rd,Three Forks,MT,59752-9730,406-581-0645
Kohler Transportation,49694 Us Hwy 2,Libby,MT,59923,406-293-6110
Emmer Brothers Cedar,22 Dynamo Drive,Belgrade,MT,59714,406-388-1906
Town Of Culbertson Sanitation,210 Broadway,Culbertson,MT,59218,406-787-5271
Farmer,34427 Co Rd 124,Sidney,MT,59270,406-798-3880
Parry Trucking,404 Fergus Ave,Moore,MT,59464,406-374-2508
Auto Dealer Transport,2500 Madison Rd,Conrad,MT,59425,951-377-0016
Dba Crickett Resources,3839 Kings Green Dr,Billings,MT,59101,406-876-4254
Dba Dufour Trucking,5208 Cattle Dr,Missoula,MT,59808,406-407-6664
0hurni Constuction LLC,685 W Main,Helena,MT,59601,406-442-2118
"10000 Waves Raft Kayak Adventures, Inc.",8080 W Riverside Dr,Missoula,MT,59802,406-549-6670
"12 Guage Timber, Inc.",2410 Hwy 2 West,Kalispell,MT,59901,406-756-0036
"12 Trucking, Inc.",490 Hampton Trail,Hamilton,MT,59840,928-580-9577
1267 Express LLC,595 Elbow Creek Road,Roberts,MT,59070,406-599-0411
1267 LLC,2743 Sheepshank Dr,Belgrade,MT,59714,406-579-9090
"1st Choice Collision Center, Inc.",615 Cambrian Lane,Sidney,MT,59270,406-433-2277
1st Rate Construction,54 Aspen Wood,Bozeman,MT,59718,406-581-4737
2 C LLC,16363 Hwy 12 West,Roundup,MT,59072,406-323-1024
"2 M Company, Inc.",5249 Holiday Avenue,Billings,MT,59101-6398,406-245-1490
"2 Stripes, Inc.",220 Madison Ave,West Yellowstone,MT,59758,406-600-4082
"2 Stripes, Inc.",220 Madison Ave,West Yellowstone,MT,59758,406-600-4082
2df LLC,40663 Irvine Flats Rd,Polson,MT,59860,208-908-4910
2mt Trucking LLC,241 Bass Road,Wibaux,MT,59353,406-796-7669
3 16 Trucking LLC,3567 Granger Ave W,Billings,MT,59102,406-281-3191
3 Boyz Truckn,35171 County Road 129,Sidney,MT,59270,406-478-9865
"3 Mor Enterprises, Inc.",42113 Skid Trail,Polson,MT,59860,406-883-9439
3030 Freight,195 Gerber Rd,Great Falls,MT,59405-8107,406-480-1917
357 Trucking LLC,1319 N 7th St,Miles City,MT,59301,406-951-2115
360 Office Solutions,724 1st Ave North,Billings,MT,59101,406-248-7881
39 Logistics LLC,135 7th Ave N,Shelby,MT,59474,714-417-3930
3b Trucking LLC,Rr 2 Box 2302,Lewistown,MT,59457,406-538-9837
3c Enterprises LLC,4995 Madison Road,Three Forks,MT,59752,406-285-4223
3c Transport LLC,110 Ashuelot Hill Rd,Fort Shaw,MT,59443,406-590-5455
3d Trucking LLC,181 Dales Ln,Stevensville,MT,59870,406-690-8224
3kids Co Trucking LLC,2047 N Last Chance Gulch,Helena,MT,59601,406-475-3190
3r Industries LLC,843 Mystic Horse Ln,Corvallis,MT,59828,406-369-1596
3s Services LLC,632 8th St Se,Sidney,MT,59270,406-480-3196
4 Ace Trucking LLC,9247 151st Avenue Nw,Westby,MT,59275,406-702-0044
"4 Aces Trucking, Inc.",258 Green Park Way,Condon,MT,59826,406-754-2749
4 Aces Trucking LLC,802 2nd St Nw,Harlowton,MT,59036,406-702-9013
4 F Trucking LLC,410 2nd Ave,Homestead,MT,59242,406-963-2269
4 Seeds Logistics LLC,4906 9th Ave South,Great Falls,MT,59403,406-781-8625
4 Star Trucking LLC,601 Cynthia Dr,Kalispell,MT,59901-2408,860-815-0728
4 W Fencing LLC,75 Woodcreek Road,Boulder,MT,59632,406-431-6824
406 Dynamics LLC,100 3rd St N,Martin City,MT,59926,360-608-0150
406 Excavating LLC,10 Countryman Creek Road,Columbus,MT,59019,406-322-0156
406 Hauling LLC,12274 Us Highway 93 S,Lolo,MT,59847,406-239-9541
Hauling Materials With Dump Truck,34 Treasure Ln,Kalispell,MT,59901-5116,406-871-0212
406 Hot Shot Ltd Co,636 Brooks St,Missoula,MT,59801,406-552-9112
406 Logistics And Dirt LLC,50 Tailfeather Ln,Bozeman,MT,59718,406-589-4783
406 Propane LLC,1330 Hole In The Wall Rd,Potomac,MT,59823,303-571-2210
406 Transport & Recovery LLC,7858 Challis Ln,Missoula,MT,59808,406-868-4593
406 Transportation,2636 Woodward Ave,Helena,MT,59601,406-694-2377
406 Transportation LLC,31008 Two Crows Ln,Arlee,MT,59821-9027,406-214-6721
406bigskyexpressLLC,1773 Mossy Rdg,Missoula,MT,59803,406-396-7892
47 Degrees North Transport LLC,160 North Ave West,Missoula,MT,59801,406-549-2526
48 North Unlimited LLC,148 Lodahl St,Dagmar,MT,59219,406-480-1107
4halln Trucking LLC,1212 Heart Butte Cutoff,Browning,MT,59417,406-450-3235
"4j Cattle, Inc.",34174 Cr 131,Sidney,MT,59270,406-798-3456
"4j Well Service, Inc.",1308 S 2nd St West,Baker,MT,59313,406-778-3856
4m Trucking LLC,20 S 4th St E,Malta,MT,59538,406-654-1297
5 D Enterprises LLC,502 S 4th St,Miles City,MT,59301,406-934-9900
5x Express LLC,2850 Overland Ave,Billings,MT,59102,406-698-5147
6s Trucking LLC,10132 Powerline Rd,Floweree,MT,59440,406-750-0953
7 Cattle Company,3749 Upper Road,Hardin,MT,59034,406-665-4181
804 Brokerage,Route 1 Box 114,Eureka,MT,59917,N/A
88mic Logistics LLC,574 Sheafman Creek Rd,Hamilton,MT,59840,406-369-1022
"979 Trucking, Inc.",1907 Lower Canal Rd,Ballantine,MT,59006,406-670-4342
9line Trucking LLC,33815 Jims Dr,Polson,MT,59860,775-813-5491
A & D Logistics LLC,9 Foothill Rd,Roundup,MT,59072,253-720-1363
A & D Truckking LLC,412 4th St South,Martin City,MT,59926,406-387-4350
A & J Trucking,4724 Longley Lane,Stevensville,MT,59870,406-777-5095
"A & M Sitework, Inc.",1020 Pache Rd,Belgrade,MT,59714,406-388-4283
A & M Transport LLC,1269 Mountain Meadow,Kalispell,MT,59901,406-871-7477
A & R Lowboy Service LLC,634 Michigan Avenue,Missoula,MT,59802,406-728-6716
A 1 Usa Trucking LLC,9138 Hwy 2 West,Marion,MT,59925,406-854-2071
A 1 Vintage Limber Enterprises,406 E Third,Hobson,MT,59452,406-423-5334
A 2 B Transport LLC,5405 Lower River Rd Trlr 104,Great Falls,MT,59405-8518,406-564-7078
A A A Construction Of Missoula LLC,3376 Trails End Road,Missoula,MT,59803,406-251-4995
"A A Transport, Inc.",Po Box 1704,Kalispell,MT,59903,406-752-4285
A B Concessions,4852 Danford Drive,Billings,MT,59106,406-860-0987
A Heart Like His Trucking LLC,6 Lonesome Dove Rd,Cameron,MT,59720,719-761-8062
"A L L Transportation Services, Inc.",P O Box 118,Alder,MT,59710,800-728-7526
"A L Transportation, Inc.",2397 South Central Ave,Sidney,MT,59270,406-433-1444
"A M Welles, Inc.",105 Sterling Road,Norris,MT,59745,406-685-3372
"Outback Firefighting, Inc.",4004 Us Hwy 93 N,Stevensville,MT,59870,406-540-1886
A+ Hotshot,4575 Box Canyon Springs Rd,Billings,MT,59101,406-697-3650
A R Trucking In,36873 Light Rd,Ronan,MT,59864,406-493-2312
A W Trucking LLC,1045 Hiway 408,Fairfield,MT,59436,406-248-8955
A&c Trucking LLC,207 Springcreek Dr,Kalispell,MT,59901-2345,530-693-1287
A&c Wrecker Service LLC,15 Aubrey Rd,Browning,MT,59417,406-470-1595
A&j Express LLC,35 Dune Ridge Ln,Great Falls,MT,59404,423-834-1487
Trucking,741 E California St,Kalispell,MT,59901-3255,406-261-3049
A&k Logistics LLC,3578 160th Ave Nw,Fairview,MT,59221,770-307-8072
A&k Transport LLC,618 South Lake Ave.,Miles City,MT,59301,406-232-7428
A-1 Logging,3920 Bitterroot Drive,Billings,MT,59105,406-696-0973
A-1 Yellowstone Sewer,2305 9th Ave North,Billings,MT,59101,406-248-2962
"A-abel Moving & Rigging, Inc.",14100 Highway 93 North,Missoula,MT,59808,406-549-4964
"A-h Services, Inc.",170 Wildhorse Trail,Belgrade,MT,59714,406-570-7370
A-k Trucking LLC,2943 161st Ave,Fairview,MT,59221,405-576-3188
A-ok Trucking,9138 Highway 2 West,Marion,MT,59925,406-854-2071
A1 Outback Construction,11165 South Highway 93,Fortine,MT,59918,406-882-4642
A1 Towing,5847 Highway 93 South,Whitefish,MT,59937,406-863-1125
"Aa Moving Storage Transfer, Inc.",502 Commerce St,Whitefish,MT,59937,406-862-3571
Aaa Foundation Co,2100 17th Street So,Great Falls,MT,59406,406-453-9651
Aaa Night Taxi,3 Riverview Lane,Lewistown,MT,59457,406-366-6351
Aaniiih Nakoda College,269 Blackfeet Avenue-agency,Harlem,MT,59526,406-353-2607
Chambers Trucking,507 Park Avenue,Clyde Park,MT,59018,406-223-7665
Downtown Great Falls Association,13 5th Street N,Great Falls,MT,59401,406-453-6151
"Aasheim Enterprises, Inc.",2842 Trumble Creek Road,Kalispell,MT,59901,406-261-0078
"Abc Glass & Signs, Inc.",1920 Valley Drive East,Miles City,MT,59301,406-234-1234
"Abenroth Trucking, Inc.",505 E Boundary Avenue,Plentywood,MT,59254,406-370-4988
Able Earthworks LLC,1046 Ray Road,Helena,MT,59602,406-461-8498
Abrahamson Trucking,132 S 5th Sw,Malta,MT,59538,406-654-1364
Abz Trucking,565 Madison Road,Three Forks,MT,59752,406-570-1106
Ace Logging,306 N Maple Street,Townsend,MT,59644,406-980-1373
Aces & Eights Transportation LLC,1500 N River Ave,Glendive,MT,59330,406-600-9369
"Acme Asphalt Industries, Inc.",118 East 7th Street,Anaconda,MT,59711,406-797-8177
Acronym Trucking LLC,4599 Rd 1040,Brockton,MT,59213,801-367-5357
Billings Van And Shuttle Service,314 N 20th St,Billings,MT,59101,406-254-2900
Ad Summum Ltd,626 S 38th St W Unit 43,Billings,MT,59102,406-839-4873
Adair Transport LLC,1301 S Lake Sheloole Dr,Shelby,MT,59474,406-450-4761
Holler Trucking,2 Little River Road,Biddle,MT,59314,406-427-5146
Od Systems,1073 Rocky Meadows Trl,Kalispell,MT,59901,406-871-0407
Adam Parke Trucking,143 E Mullan Trail,Drummond,MT,59832,406-288-3265
Att Trucking,106 S Montana,Conrad,MT,59425,406-868-1550
Adam Wood Trucking,1296 Mt Hwy 224,Joplin,MT,59531,406-292-3251
Adams Landscape,72021 Theresa Adams Lane,Arlee,MT,59821,406-726-8899
Adams Transport LLC,721 1/2 11th Ave,Helena,MT,59601,406-248-8955
Adkins Septic Sewer And Drain,118 Riverside,Billings,MT,59102,406-252-1453
Adr Trucking LLC,213 1/2 Toweepah Lane,Saint Ignatius,MT,59865,406-300-2003
Advance Mobile Home Transport,1355 Aspen,Helena,MT,59601,406-439-3956
Treasure State Tree Service,13601 Crystal Creek Road,Clinton,MT,59825,406-240-4095
Advanced Composting LLC,195 Meadows Road,Whitefish,MT,59937,406-862-3854
"Advanced Earthworks, Inc.",2666 Us Highway 93 N,Victor,MT,59875,406-642-9400
Advanced House Moving Construction LLC,5005 Wynne Avenue,Butte,MT,59701,406-494-4468
Advanced Lawn Care And Maintenance LLC,21824 Megan Drive,Frenchtown,MT,59834,406-531-6980
Advanced Material Services LLC,7608 N Leopard Ave,Billings,MT,59106,406-671-4919
Advanced Mobile Home Transport,1001 Antelope Gulch,Anaconda,MT,59711,406-563-7138
"Advanced Pump And Equipment, Inc.",1408 Gold Ave #6,Bozeman,MT,59715,406-586-1700
Advanced Silicon Materials LLC,119140 Rick Jones Way,Silver Bow,MT,59750,509-793-9032
"Advanced Technology Products, Inc.",650 Canyon View Road,Bozeman,MT,59715,202-521-1493
Advanced Transportation Services LLC,4839 Potter Park Lp,Missoula,MT,59808,406-370-9356
Advansed Automotive Transport Solutions,207 Broadway,Willow Creek,MT,59730,406-600-7055
Advent Transport LLC,124 W Pine St,Missoula,MT,59802,805-400-7711
Adventure Cycling Associaiton,150 East Pine,Missoula,MT,59802,406-721-1776
Tracy Garner,813 Ashley Drive,Kalispell,MT,59903,406-752-7669
"Adventure Whitewater, Inc.",310w15thst,Red Lodge,MT,59068,406-446-3061
"Aero Power Vac, Inc.",9015 Cartage Rd,Missoula,MT,59808,406-721-1297
Ag Partners LLC,6840 Sa 2 Dr,Wolf Point,MT,59201,406-653-2330
"Ag Transfer, Inc.",5044 Midland Rd,Billings,MT,59102,406-655-0111
"Ag Wise, Inc.",25 3rd Avenue West,Kremlin,MT,59532,406-372-3200
Agave' Transport & Recovery,536 Sugar Ave,Billings,MT,59101,406-860-9574
Agave Wrecker & Service,536 Surgar Ave Unit A-2,Billings,MT,59101,406-860-9574
Agave' Towing & Service,536 Sugar Ave Unit B-1,Billings,MT,59101,406-860-4878
"Agc, Inc.",139 N Cedar Drive,Kalispell,MT,59901,406-257-1434
"Agricultural Express, Inc.",5044 Midland Road Suite B,Billings,MT,59101,406-655-0111
Agx Holdings LLC,5044 Midland Rd Ste B ,Billings,MT,59101,406-655-0111
Ah Services In,170 Wildhorse Trl,Belgrade,MT,59714,406-570-7370
"Ahayco, Inc.",4 Praire Dog Ln,Great Falls,MT,59403,406-965-3212
"Ahlgren Transport, Inc.",5632 Meadowmist Drive,Shepherd,MT,59079,406-248-8955
Ai Core LLC,1001 S Main St Ste 49,Kalispell,MT,59901,424-419-9102
"Aih Manufacturing, Inc.",5840 Titan Ave,Billings,MT,59101,406-894-2264
"Air One, Inc.orporated",669 Bozeman Trail Road,Bozeman,MT,59715,406-570-5556
Airheart Trucking LLC,303 Ave B,Glendive,MT,59330,406-234-6010
Airwhit Transport LLC,3217 9th Ave N,Great Falls,MT,59401,406-727-3116
Aj Reed Transport,114 3rd Ave Ne,Sidney,MT,59270,208-451-5893
Ajay Concrete Pumping LLC,192 Dracut Hill Road,Vaghn,MT,59487,406-264-5848
"Ak Drilling, Inc.",185 S Parkmont,Butte,MT,59701-7226,406-782-8506
"Akkt, Inc.",3014 Tina Ave #407,Missoula,MT,59808,406-493-0575
Al Cameron Trucking LLC,829 N Haynes,Miles City,MT,59301,406-853-1095
Alan L Whiteside,46 W Grannis Rd,Livingston,MT,59047,406-222-0643
Soapys Stonework & Excavation,109 South 8th Street,Hamilton,MT,59840,406-363-2619
Alan Stender,244 Terrace Ct,Superior,MT,59872,406-822-7223
Ata Trucking,407 A&r Road,Brady,MT,59416,406-627-2494
"Alans Pump Sales & Service, Inc.",510 Fir Terrace,Kalispell,MT,59901,406-756-7728
Alaska Ranch,654 Bear Gulch Road,Twin Bridges,MT,59754,406-684-5155
Al Argabright Trucking,2850 Dillon Rd,Whitefish,MT,59937,406-862-4372
Cooper Farms,95 Cherry Creek Rd,Thompson Falls,MT,59873,406-827-6609
Snowy River Trucking,204 West Madison,Belgrade,MT,59714,406-579-3079
Stuber Enterprise,99 Porcupine,Opheim,MT,59250,406-762-3349
Albrecht Trucking LLC,6195 Linck Circle,Shepherd,MT,59079,406-248-8955
Alder Market LLC,2325 Mt Hwy 287,Alder,MT,59710,406-842-5679
"Alderman Oil Company, Inc.",601 So Park,Broadus,MT,59317,406-436-2898
Aldrich Lumber Company LLC,4110 Neibauer Rd,Billings,MT,59106,202-521-1493
Cavvietta Ranch,5400 Yellowstone Trl,Huntley,MT,59037-9229,406-794-0848
"Alex Hamilton Trucking, Inc.",16355 Queen Anns Lane,Florence,MT,59833,406-273-0459
Brown Transport Services,7330 Kylee Sue Dr,Shepherd,MT,59079,406-690-1884
Alexander Trucking,25 Florine Lane,Billings,MT,59101,406-248-8955
Wheatcroft Trucking,873 Hedgesville Rd,Ryegate,MT,59074,406-575-4200
All About Homes And Land LLC,4215 Broken Spur,Bozeman,MT,59718,406-595-3885
Gregg's Homes,1620 Highway 35,Kalispell,MT,59901,406-752-0700
All Hands Excavation LLC,1079 Upper Ruby Road,Alder,MT,59710,406-842-5777
"All Lanes Moving & Storage, Inc.",4072 Eastside Hwy #7,Stevensville,MT,59870,406-777-1978
All Makes Auto & Snow Plow Services,16095 Touchette,French Town,MT,59834,406-626-5210
All Mechanical Services Of Montana LLC,1196 Mt Hwy 282,Montana City,MT,59634,406-422-1270
All Out Transport And Crane Service,17915 High Mtn Vw,Florence,MT,59833,406-214-7610
All Roads Water Service LLC,13685 N Ranchairo Road,Molt,MT,59057,406-669-3330
All Terrain Services LLC,418 North Walnut,Townsend,MT,59644,406-266-4134
"All Terrain Truckiing And Excavation, Inc.",1631 Ashley Lake Rd,Kalispell,MT,59901,406-752-5439
All Valley Sanitary Services,173 J D Drive,Darby,MT,59829,406-821-4732
All Ways Transporting,200 3rd Ave,Noxon,MT,59853,509-690-4125
All Weather Fence Construction,6200 Hwy 10,Butte,MT,59701,406-494-4413
Timberline Transport,1165 Apples Way,Belgrade,MT,59714,406-388-8883
Allan Labuda,4124 70th Ave West,Havre,MT,59501,406-265-2739
A & E Hotshot,121 North Trautman,Broadus,MT,59317,406-436-2192
"Allen Brothers Trucking, Inc.",2175 Pleasent Valley Road,Fort Benton,MT,59442,406-739-4258
Allen Cynthia Chappell Trucking,548 Grande Vista Dr,Kalispell,MT,59901,406-257-1471
"Allen Earthworks, Inc.",3138 Tiber Ct,East Helena,MT,59635-9435,719-266-2837
"Allen Excavating, Inc.",2603 Meridian Road,Victor,MT,59875,406-360-6458
Rice Brothers,3180 10th Lane Nw,Conrad,MT,59425,406-469-2202
A W Custom Seed Cleaning,5366 Road 1023,Culbertson,MT,59218,406-787-5592
Allen Williamson,134 New Meadows,Missoula,MT,59808,406-542-0303
"Allens, Inc.",1131 Phoenix Ave,Helena,MT,59601-0858,406-442-7703
Allstar Towing,2714 Lackawanna Lane,Laurel,MT,59044,406-861-9111
"Allwest Drilling, Inc.",35059 Mud Lake Trail,Polson,MT,59860,406-883-3151
Almendinger Trucking,505 Main St,Avon,MT,59713,406-492-6802
Alpha Drilling And Completions LLC,2587 Sage Mountain Rd,Billings,MT,59101,406-281-2585
"Alpha Landscapes, Inc.",1030 Custer Ave,Billings,MT,59102,406-690-6714
Alpha Logistics LLC,228 Hodgson Pines Way,Whitefish,MT,59937,406-212-9699
Alpha Propane LLC,1399 Hwy 93 N,Victor,MT,59875,406-961-0198
"Alpha Wolf Express, Inc.",7072 Teakettle Road,Columbia Falls,MT,59912,406-261-7739
"Alpine Country Construction, Inc.",3701 Weaver Road,Belgrade,MT,59714,406-388-4925
"Alpine Reflections, Inc.",150 Pollywog Ln Unit B,Belgrade,MT,59714,406-388-2265
Dumptruck Service,115 Obrian Ave 4,Whitefish,MT,59937,406-249-2195
Alt Trucking,31 Billman Lane,Livingston,MT,59047,406-220-2014
Alt's Automotive Towing And Recovery LLC,314 5th Ave East,Three Forks,MT,59752,406-600-7906
Altenburg Hauling,385 Lost Cr Rd,Kalispell,MT,59901,406-261-7631
Alteneder Trucking,2618 Valley View Drive,Missoula,MT,59803,406-257-5529
Alter Enterprise LLC,107 South Easy St,Missoula,MT,59802,406-550-0292
Altman Ranch LLC,2615 Spring Creek Road,Laurel,MT,59044,406-628-1000
Triple M Truck Brokers,1014 Lake Creek Road,Troy,MT,59935,406-728-9555
Aluminum Critters More LLC,6400 South Frontage Road,Billings,MT,59101,406-545-0693
"Olsen Grain & Livestock, Inc. & Olsen Trucking, Inc.",6 Miles East,Whitewater,MT,59544,406-674-5216
Rocking Y Trucking,5420 Ashley Lake Rd,Kila,MT,59920,406-257-1950
Am J Field Services LLC,516 S Montana Ave,Sidney,MT,59221,406-489-2287
Am Trucking LLC,508 Laundre Ave,Terry,MT,59349,406-234-6010
Ambassador Logistics Corp,415 2nd Ave South,Sunburst,MT,59482,406-885-1338
Amber Waves Harvesting LLC,2986 Highway 363,Malta,MT,59538-9339,717-377-7250
Amber Waves Trucking LLC,3004 Hwy 363,Malta,MT,59538,717-377-9992
Jsc Transport,4400 Lone Rock School Rd,Stevensville,MT,59870,406-777-3710
Ambrose Brokerage,4400 Lone Rock School Road,Stevensville,MT,59870,406-777-3710
Ame LLC Of Montana,7393 Highway 35,Bigfork,MT,59911,406-837-7730
America Overland LLC,1273 Sawmill Road,Garrison,MT,59731,406-559-0886
American Bar & Grill,#6 Front Street,Stockett,MT,59480,406-736-5601
American Blacktop Company,527 W River Rd,Hamilton,MT,59840,406-360-5032
"American Concrete, Inc.",110 12th Street West,Billings,MT,59102,406-208-5465
"American Drilling & Supply, Inc.",7044 Niehenke Ave,Billings,MT,59101-6255,406-652-4444
American Fencing Specialties,13546 Hwy 200,Fort Shaw,MT,59483,406-264-5429
American Ford,100 Ford Ave,Glendive,MT,59330,406-345-3673
American Hotshot Trucking LLC,8883 Douglas Cir,Helena,MT,59602,406-438-1712
American Truck Parts,2047 North Last Chance Gulch Suite 108,Helena,MT,59601,888-760-5436
American Pipe & Supply Co,27 North Central Avenue,Cut Bank,MT,59427,406-873-4148
American Plains Indian Tours,1425 Granite Avenue,Billings,MT,59102,N/A
American Road Runner LLC,2 Willow Dr,Livingston,MT,59047-4108,406-946-2663
"American Spetic Service, Inc.",2590 Colt Drive,East Helena,MT,59635,406-439-7867
"American Stagecoach, Inc.",642 Old Hwy 10,Columbus,MT,59019,406-322-8658
American Tows,418 Elliot,Hysham,MT,59038,406-342-5368
American Welding And Gas Valley Welders Supply Northern Welding Silvertip Propane Willmar Fire Eq All American Welding,320 North 11th,Billings,MT,59101,406-256-3330
Americana Transport LLC,1001 S Main St Ste 49,Kalispell,MT,59901,603-706-7678
Amo Trucking,577 Morning Mist Rd,Manhattan,MT,59741-8555,406-600-5348
A Jay International,661 4th Rd Ne,Fairfield,MT,59436,406-781-1238
Amp Bozeman,376 Circle F Trail,Bozeman,MT,59718,406-589-5458
Amsler Ranch,603 2nd Ave Sw,Wibaux,MT,59353-9091,406-796-2684
Amsterdam Enterprises,7200 Churchill Road,Manhattan,MT,59741,406-282-7234
"Anaconda Disposal Service, Inc.",110 East Pennsylvania,Anaconda,MT,59711,406-563-2185
Affco,1015 East Sixth Street,Anaconda,MT,59711,406-563-8494
Anaconda Wildfire Crash Rescue Services Llp,307 2nd St,Plains,MT,59859,406-826-2332
Anchor J LLC,83 Montana Highway East,Whitehall,MT,59759,406-498-3102
Andersen Custom Ag Services LLC,2675 Matvas Ct,Helena,MT,59602,406-788-0107
Andersite Property Rehab LLC,163 Quinn Creek Road,Bozeman,MT,59715,406-581-4478
Anderson Boys Trucking LLC,544 C St Trlr 11,Columbus,MT,59019,406-780-0547
Anderson Cattle Company,632 Cb Route Rd,Glendive,MT,59330,406-486-5473
Anderson Excavating LLC,274 Upper Flower Creek Rd,Libby,MT,59923-8460,406-283-1943
"Anderson Fencing, Inc.",2050 Hwy 91 N,Dillon,MT,59725,406-683-4620
"Anderson Forklift, Inc.",475 Moore Lane,Billings,MT,59101,406-248-6866
"Anderson Precast And Supply, Inc.",80 E Valley Center Rd,Bozeman,MT,59718,406-388-2413
"Anderson Service, Inc.",5112 Laurel Road,Billings,MT,59108,406-252-0505
Rocky Mountain Showers,37078 Baptiste Rd,Ronan,MT,59864,406-676-2964
Anderson Trucking LLC,4420 Clapper Flat Road,Laurel,MT,59044,406-425-0167
Anderson's Masonry Hearth & Home,16 Woodland Park Drive,Kalispell,MT,59901,406-755-2497
"Andrachick Trucking, Inc.",230 Gopher Lane,Marion,MT,59925,406-854-9321
Andre Excavation 7 Sewer Service,16 Manchester Lane,Great Falls,MT,59404,406-727-0032
Canyon Street Auto Repair & Towing,221 N Canyon Street,West Yellowstone,MT,59758,406-646-7614
Andrew Gartside,570 Railroad Highway,Huntley,MT,59037,406-697-4869
Andrew J Labuda,10139 Judith Landing Road,Big Sandy,MT,59520,406-378-3148
Andrew Long,6887 Ps 2 Drive,Wolf Point,MT,59201,406-546-8660
Andrew Matthew Trucking,711 Matthew Loop,Condon,MT,59826,140-675-4240
Silcox Ranch And Lumber,19 Brotherton Lane,Thompson Falls,MT,59873,406-210-7921
Andy Giles,8c33 Box 5034 Jackson Road,Wolf Point,MT,59501,406-695-2329
Andy Kober LLC,203 South 25th Street,Billings,MT,59101,406-259-7833
Andy Mefford,3325 Ravenwood Lane,Missoula,MT,59803,406-239-5076
Rocky Mountain Propane,2619 Rd 10 North,Worden,MT,59088,406-665-7310
Angel Wings Transportation LLC,73 Chandelle Ln,Great Falls,MT,59404,406-454-3979
Angelo Cattle Company,96 North Mullan Trail,Drummond,MT,59832,406-288-8171
Angle Solutions LLC,3010 Santa Fe Ct Fl 1,Missoula,MT,59808,601-568-3554
"Ankrum Trucking, Inc.",1305 Taylor Pl,Billings,MT,59101,406-245-6955
Annmay Express,43 Stanley Coulee Way,Nye,MT,59061,406-328-9128
Antelope Hotshot LLC,8422 Heag Rd,Broadview,MT,59015,406-670-6967
"Antelope Resources, Inc.",27 North 27th Street Ste 2102,Billings,MT,59101,406-867-3400
Anthony Gonzales Trucking,3452 Lost Boyd Rd,Darby Mt,MT,59829,406-381-5044
Wildfire Mobile Laundry,4935 Lewies Way,Shepherd,MT,59079,406-698-1901
Northwest Trucking,13976 County Rd 356,Fairview,MT,59221,570-786-7773
Miller Trucking,Hcr 272 Box 3145,Glasgow,MT,59230,406-725-3227
Pearson Trucking,4 Big Game Crossing,Saint Regis,MT,59866,406-649-4281
Anything Excavation LLC,2959 Swan Hwy,Bigfork,MT,59911-6415,406-471-6022
Dump Truck Business,65 1st St E Unit 3287,Columbia Fls,MT,59912-7132,406-314-7962
Apex Field Service LLC,222 S State Highway 59,Biddle,MT,59314,406-427-5447
"Apex Group, Inc.orporated",180 Pollywog Lane,Belgrade,MT,59716,406-388-7044
"Apex Restoration And Remodel, Inc.",200 Barnes Ln,Columbia Fls,MT,59912-9015,406-253-5247
Apex Transport 1 LLC,115 Springcreek Dr,Kalispell,MT,59901,402-741-3878
"Apiculture Specialties, Inc.",841 Honey Plant Road,Malta,MT,59538,406-654-1893
Apm Consulting,310 Mill Street,Sheridan,MT,59749,406-842-7355
Applegate Trucking LLC,614 1st Ave Sw,Wibaux,MT,59353,701-260-4013
"Applied Explosives, Inc.",383 Grasshopper Hill Rd,Kalispell,MT,59901,406-755-8095
Kalispell Medical Equipment,55 3rd Ave E N,Kalispell,MT,59901,406-752-6111
Typril Enterprises,2902 Arvin Rd,Billings,MT,59102,707-533-6049
"Apw Service, Inc.",2201 River Ave,Black Eagle,MT,59414,406-452-9590
Aqua Connection Holding LLC,12653 County Road 352,Sidney,MT,59270-4215,406-482-3356
"Ar W Em, Inc.",95 W Brier Court,Kalispell,MT,59901,406-756-8938
Little Stinkers Septic Service,24727 Frontage Road,Bozeman,MT,59719,406-585-0687
"Arc Light Enterprises, Inc.",13566 Maicer Lane,Frenchtown,MT,59834,406-396-2771
Clark Fork Truck Brokers,4300 Trade Winds Road,Thompson Falls,MT,59873,406-827-9653
Knerr Transport,307 3rd St,Plains,MT,59859,406-826-5548
Archie M Knerr,307 W 3rd St,Plains,MT,59859,406-826-5548
Arlian Construction & Crane Service,118 West 1st Avenue,Big Timber,MT,59011,406-932-4562
Triple A Trucking,5918 Mt Hwy 225,Brady,MT,59416,406-627-2417
Arnies Truck Service,206 4th Street West,Billings,MT,59101,406-657-9391
Arnold Kotthoff,568 K Ranch Dr,Shonkin,MT,59450,140-640-3707
Saylor Excavation Arrow Ranch,4518 Highway 89,Choteau,MT,59436,406-466-3061
Arrow Septic & Drain Service LLC,146 Eagle Ridge Ln,Moore,MT,59464,406-538-2225
Arrow Septic Service,2950 Haaland Rd ,Shepherd,MT,59079-3102,406-860-6692
"Arrow Striping & Manufacturing, Inc.",335 Orchard Lane,Billings,MT,59101-2651,406-248-2463
Arrowhead Drilling LLC,100 North 27th Suite 320,Billings,MT,59101,406-259-7782
Arrowhead Leasing LLC,139 A St,Belt,MT,59412,N/A
"Arrowhead Livestock Bedding, Inc.",4225 Amsterdam Road,Manhattan,MT,59741,406-282-7527
"Arrowhead Reclamation, Inc.",550 Cedar Hills Road,Whitehall,MT,59759-8604,406-287-3093
Art And Paul Moving And Storage,4500 North Star Blvd,Great Falls,MT,59405,406-455-8640
Arts Mobile Home Service,2003 E Maryland Lane,Billings,MT,59044,406-628-8457
J Bar E Ranch,12 Mi West Of Plentywood,Plentywood,MT,59254,406-895-2657
As Trucking,4315 Rainbow Drive,Missoula,MT,59803,406-370-8120
"Asap Contracting, Inc.",5655 Jeffrey Lane,Lolo,MT,59847,406-273-4633
"Ascheman Trucking, Inc.",224 South 35 Th,Billings,MT,59101,406-259-1336
Ash Grove Cement Company,100 Hwy 518,Clancy,MT,59634-9701,406-442-8855
Asi Logistics LLC,1040 Partridge Pl Ste 3,Helena,MT,59602,305-527-8765
Aspen Air U S Corp,1524 Lockwood Rd,Billings,MT,59101-7320,406-259-9014
Aspen Excavation And Materials,48 Madison Drive,Ennis,MT,59729,406-539-7133
Asphalt Doctor LLC,232 Revere Road,Eureka,MT,59917,406-889-5967
Asphalt Transportation,P. O. Box 31021,Billings,MT,59107,406-254-1040
"Asphalt Plus, Inc.",425 Johnson Lane,Billings,MT,59101,406-248-5609
"Asphalt Supply Service, Inc.",509 E Railroad,Laurel,MT,59101,406-628-4353
Aspheron Oilfield Services LLC,914 E Thrush Lane,Glendive,MT,59330,701-204-0677
Assembly Of God Church,Box 767,Plains,MT,59859,406-826-3800
AtapLLC,3970 Mullan Rd Apt 109,Missoula,MT,59808,406-552-5446
Atc Hydrovac Co,116 14th Ave S,Great Falls,MT,59405,406-788-9674
Lew Grill Specialized Services,3311 Ben Hogan Lane,Billings,MT,59106,406-248-2766
Atomic Industries LLC,301 Orchard Lane,Billings,MT,59107,406-248-8955
Spirit Of America,255 W Chester Square S,Billings,MT,59105,406-855-8731
Aurora Construction LLC,250 Vista Drive,Dillon,MT,59725,406-925-1550
Austin's Design & Fabrication,7519 Us Hwy 2,Wolf Point,MT,59201,406-392-7010
Windworks,14245 Frontage Rd,Manhattan,MT,59741,406-581-5489
Auto Auction Billings,4432 S Frontage Rd,Billings,MT,59101,406-252-6332
"Auto Carriers Of Montana, Inc.",2617 Atchison,Laurel,MT,59044,406-628-8019
"Auto Dismantlers, Inc.",2700 Edgewood,Miles City,MT,59301,406-234-4028
"Auto Recovery, Inc.",32 Clark Ave,Billings,MT,59101,406-259-3616
A & I Distributors,900 1st Avenue N,Billings,MT,59101,406-245-6443
Autumn Creek Farms,220 Spruce Road,Lavina,MT,59046,406-575-4201
"Av8-orr Helicopter Services, Inc.",690 Eastfork Rd,Sula,MT,59871,406-360-0207
Aw Construction LLC,80 Utley Ln,Twin Bridges,MT,59754,406-684-5762
Aw Service & Repair LLC,116 Olive Dr,Colstrip,MT,59323,406-749-0177
"Axiom Logistics, Inc.",1821 South Avenue West Suite 400,Missoula,MT,59801,406-445-0001
"Axiom Logistics, Inc.",100 Tyler Way Suite C,Lolo,MT,59847,406-662-0000
Axiom Transport LLC,935 Us Highway 93 N Ste 2,Victor,MT,59875-9715,406-445-0001
"Axmen Auto, Inc.",9780 Summit Drive,Missoula,MT,59808,406-239-2698
Axmen Propane,16440 Frontage Rd,Frenchtown,MT,59834,406-626-2490
"J & P Enertprises, Inc.",2220 River Street,Fort Benton,MT,59442,406-622-5594
"B & B Hauling, Inc.",1131 Ohio,Chinook,MT,59523,406-357-4100
"B & D Wagner, Inc.",1053 Mt Highway 13,Circle,MT,59215,406-485-3568
B & G Trucking LLC,190 N Hilltop Rd,Columbia Fls,MT,59912,406-250-2555
Hould Land & Livestock,5867 Hwy 363,Malta,MT,59538,406-654-1762
B & L Pumping,Box 302,Browning,MT,59417-0302,406-338-5150
"B & L Russell Trucking, Inc.",14 Whitehorse South Rd,Laurel,MT,59044,406-697-6922
"B & L Scales, Inc.",503 Wicks Lane,Billings,MT,59105,406-248-4531
"B & L Transfer, Inc.",201 South Maple,Townsend,MT,59644,406-266-3561
B & M Excavating LLC,1423 N Highway 37,Libby,MT,59923,406-293-7799
B & T Trucking,41117 Doubletree Lane,Polson,MT,59860-7130,406-270-7765
B A Xpress,1001 S Main St Ste 5351,Kalispell,MT,59901,678-598-6134
"B And D Excavation, Inc.",851 Oil Well Road,Corvallis,MT,59828,406-961-5545
"B And D Trucking, Inc.",361 Sunrise Avenue,Stevensville,MT,59870,406-544-0759
"B B Transportation, Inc.",3873 Wynne Avenue,Butte,MT,59701,406-533-0316
B Bar E Livestock LLC,30 Jubilee Street,Billings,MT,59105,406-671-4174
B C Well Service LLC,11948 Hwy 261,Sidney,MT,59270,406-480-4884
B D Hastings,112 Snd Ave North,Sunburst,MT,59482,406-937-6625
B D Hauling Llp,2870 King Edward Rd,Helena,MT,59602,406-459-4496
B Lazy Y Services LLC,2037 Old Highway 10,Forsyth,MT,59327,406-351-1371
B N Trucking,2922 Magnolia Rd,Helena,MT,59602,406-439-0595
B P & Co LLC,270 Roosevelt Ln,Hamilton,MT,59840,406-363-3807
B Transport LLC,556 Belt Creek Road,Belt,MT,59412,406-564-0549
B W F LLC,3266 Shenandoah Drive,Billings,MT,59102,406-855-6555
B&b Sales And Service LLC,34940 Hwy 23,Sidney,MT,59270,406-433-1888
"B&b Septic Services, Inc.",3604 North Highway,Baker,MT,59313,406-778-2599
"B&b Telecable, Inc.",6847 Grand Avenue,Billings,MT,59106,406-652-2570
B&b Trucking LLC,195 Buckskin Rd,Belgrade,MT,59714-9257,406-924-6680
"B&h Hot Oilers, Inc.",1216 Husted Road,Lewistown,MT,59457,406-261-7631
B & J Trucking,4147 Highway 35,Kalispell,MT,59901,406-755-6431
"B&m Trucking, Inc.",2919 Weaver Ave,Billings,MT,59101,406-254-1459
Raymond Roy Lamb,6343 Kf1 Dr,Wolf Point,MT,59201,701-770-0111
Cook,4047 Hwy 93 South,Kalispell,MT,59901,406-257-3676
"Babolian Trucking, Inc.",Route 16 Truck Lane,Wibaux,MT,59806,406-728-0420
Ba Bryan Trucking,500 Orr St,Miles City,MT,59301,406-234-6010
Back Country Trucking,204 West Second Avenue,Westby,MT,59275,207-400-4745
Back Yard Sheds LLC,47 5th Lane Se,Fort Shaw,MT,59443,406-750-5779
Backcountry Adventures,224 Electric Street,West Yellowstone,MT,59758,406-646-9317
Backen Spreading Service,3701 450 Road East,Lothair,MT,59461,406-759-5100
Backroads Trucking LLC,13964 Cr 350,Sidney,MT,59270,406-433-8230
"Backwoods Trucking, Inc.",45814 Terry Ln,Charlo,MT,59824,406-644-2514
Bacon Trucking LLC,51 Frontage Rd,Wibaux,MT,59353,406-796-9974
Bad Boy Trucking LLC,312 2nd Street South,Shelby,MT,59474,406-450-8022
Bad Company,925 5th Street West,Roundup,MT,59072,406-323-6067
Bad Donkey Express LLC,215 Olive Ave,Wibaux,MT,59353,406-359-9270
"Badger Directional Drilling, Inc.",185 Bachelor Grade Road,Kalispell,MT,59901,406-257-5561
"Badger Excavating, Inc.",400 Egan Rd,Kalispell,MT,59901,406-250-5039
Badger Materials,160 Hwy 12 E,Townsend,MT,59644,406-266-5498
Hauling And Transport,28 Preston Dr,Kalispell,MT,59901,406-253-1163
Badger State Hauling LLC,5747 Road 1022,Culbertson,MT,59218,701-609-6605
Badland Truck Sales,135 Hwy 16,Glendive,MT,59330,406-989-1740
Badlands Hotshots LLC,604 Glenwood Ave,Plentywood,MT,59254,661-805-8106
Badlands Oil Field Services LLC,308 Interstate Avenue E,Fairview,MT,59221,N/A
"Badlands Trucking, Inc.",Rrt 1 Box 2494,Sidney,MT,59270,406-482-4016
Badrock Crane & Welding LLC,637 Kelley Rd,Columbia Fls,MT,59912-9144,406-212-5146
Bailey And Sons Trucking LLC,8 Old Mine Rd,Clancy,MT,59634-9551,406-475-5736
"Bailey Masonry, Inc.",3243 Latigo,Billings,MT,59105,406-259-7410
Bailey's Dirt Works LLC,56441 Fish Hatchery Rd,St Ignatius,MT,59865-9218,406-531-0375
"Baker Auto, Inc.",521 Cobban Street,Butte,MT,59701,406-782-4743
Baker Boyz Towing,26 South 3rd West,Baker,MT,59313,406-778-2024
"Baker Metal & Recycling, Inc.",Hwy 7 North,Baker,MT,59313-0542,406-778-2710
Bakken Central LLC,805 14th St Se,Sidney,MT,59270,406-488-2840
Bakken Custom Harvesting,514 Minnehan,Medicine Lake,MT,59247,406-789-2236
Bakken Energy Co,302 N Last Chance Gulch #403,Helena,MT,59601,719-641-7040
Bakken Housing Partners Llp,2124 Us Hwy 310,Bridger,MT,59014,406-328-6070
Bald Eagle Land,753 Nicole St,Helena,MT,59634,406-457-0669
Bald Rock Transport Masonry & Finishes LLC,217 Bald Rock Rd,Kalispell,MT,59901,405-792-6946
Baldy Mountain Trucking LLC,1 Mandolynne Lane,Sheridan,MT,59749,406-842-5999
Bale Barns,270 Gregson Lane,Anaconda,MT,59711,406-565-1325
"Balko, Inc.",2587 Erickson Road,Conrad,MT,59425,406-278-3049
Ballenger Freight Land Air Ocean LLC,880 Farm Rd,Kalispell,MT,59901,406-249-6833
Ballensky Trucking LLC,280 Rd 616,Miles City,MT,59301,406-347-5515
"Balock Excavating, Inc.",221 6th St West,Melstone,MT,59054,406-248-8955
Bangert Construction And Excavation LLC,2850 Overland Ave,Billings,MT,59102,406-294-5111
"Banner Wholesale Distributors, Inc.",81 Parklane Dr,Kalispell,MT,59901-2818,406-752-0216
Bar 6 Ranch Trucking,3315 Mcgirl Road,Billings,MT,59105,406-248-3602
Bar C Bar Enterprises,1645 A Street,Helena,MT,59604,406-443-5089
"Bar Ez, Inc.",28 Berg Ave,Billings,MT,59101,406-698-5607
Bar Jt Trucking LLC,131 N State Hwy 59,Volborg,MT,59351,406-554-3123
Bar L Trucking LLC,5261 Lake Creek Rd,Troy,MT,59935,406-321-0264
Bar M Land & Cattle LLC,716 S Central Ave,Sidney,MT,59270,605-488-0837
Bar Ms Ranch LLC,273 Eagle Creek Road,Redstone,MT,59257,406-899-1414
Bar None Trucking LLC,501 3rd Street Se,Sidney,MT,59270,406-489-0830
Bar Us Trucking,45496 Locust Ln,Charlo,MT,59824-9205,406-369-5192
Bull Mountain Express,110 Smith Road,Roundup,MT,59072,406-320-1506
Ray Baier Septic Service,565 Maple Drive,Kalispell,MT,59901,406-752-6904
Diamond Xpress,5695 Keil Loop Rd,Missoula,MT,59808,406-327-0048
Barcus Family Trucking LLC,24047 Us Highway 2,Cut Bank,MT,59427-5045,406-450-1972
"Western Glove Distributing, Inc.",1113 West 4th Street,Laurel,MT,59044,406-855-0777
"Barefoot Hauler, Inc.",1280 South Fork Road,Martin City,MT,59926-0067,406-387-5856
"Barge Trucking, Inc.",640 Wishart,Kalispell,MT,59901,406-756-6381
"Barkan Backhoe And Trenching, Inc.",325 Arrowhead,Miles City,MT,59301,406-234-6010
"Barkell Trucking, Inc.",404 N Railroad,Philipsburg,MT,59858,406-239-2846
Barker Enterprises,8192 Dead End Trail,Lincoln,MT,59639,406-362-3258
Barnaby Ranch LLC,171 Lone Tree Road,Wibaux,MT,59353,406-795-2237
John Barnes,3108 Eldora Ln,Missoula,MT,59803,406-240-0234
Barney's Excavating,25989 Gray Wolf Dr,Arlee,MT,59821,406-726-3490
S4 Ranch,74174 N Couture Loop,Arlee,MT,59821,406-726-2053
"Barringer Trucking, Inc.",#2 N Virginia Street,Conrad,MT,59425,406-278-7716
Berry Riesland Trucking,4725 Eden Road,Belgrade,MT,59718,406-388-9601
Brown's Septic Pumping Service,26 Billman Ln,Livingston,MT,59047-4101,406-222-1493
Barry Bergan Trucking,502 East Garfield,White Sulphur Springs,MT,59645,406-547-2170
Days Trucking,1465 Date Street South,Huntley,MT,59037,406-348-2191
"Barry Smith Logging, Inc.",4200 Spurgin Road,Missoula,MT,59804,406-549-7668
Lammers Pipeline Service,97 Hwy 200 E,Jordan,MT,59337,406-853-1078
"A-10 Drilling, Inc.",6220 Hwy 12 E,East Helena,MT,59635,406-227-2662
Hebgen Basin Campgrounds,410 Parkway D,West Yellowstone,MT,59758,406-646-1012
"Base Financial, Inc.",2208 Thiel Road,Laurel,MT,59044,406-259-3090
Basin Creek Mobile Homes,6501 Highway 2,Butte,MT,59701,406-494-2601
"Basin Industrial Services, Inc.",955 Beech St,Misoula,MT,59808,406-546-6701
"Basin Precast, Inc.",34950 Cr 126,Sidney,MT,59270,406-433-7237
Batie Transport,4011 Prospector Dr,Colstrip,MT,59323,406-740-0633
Bauer Excavating,3662 Montana 40 West,Columbia Falls,MT,59912,406-862-5375
"Bauer Farms, Inc.",50723 Rocky Butte Road,Ronan,MT,59864,406-644-2427
"Bausch Potatoes, Inc.",33 Point Of Rocks Rd,Whitehall,MT,59759,406-287-3490
Baxter Trucking LLC,756 Three Mile Creek Road,Stevensville,MT,59870,406-777-0318
Bay Material LLC,#7 City Shop Roan,Shelby,MT,59474,406-424-8183
Baycam Enterprises LLC,20 Saturn Drive,Clancy,MT,59634,406-459-6993
Disposal Service Of Montana,75 Corbley Road,Lewistown,MT,59457,406-538-8393
Bb Custom Transport,21 Hollowtop Trailo,Three Forks,MT,59752,406-980-0268
Bb Trucking Of Fort Benton,14788 Mt Highway 80,Fort Benton,MT,59442,425-348-8747
"Bbc, Inc.",40204 Briarwood Cir,Polson,MT,59860,406-883-0626
Bc Excavating LLC,86 Briar Place,Belgrade,MT,59714,406-581-9191
Baltrusch Ready Mix,12196 Riverview Dr,Sidney,MT,59270-9039,406-480-4096
"Bcbpd, Inc.",167 Mountain Creek Road,Columbia Falls,MT,59912,406-892-8108
"Bdoa, Inc.",2631 W Main St,Bozeman,MT,59718,406-579-1776
Beach Transportation Company,825 Mount Avenue,Missoula,MT,59801,406-549-6121
Beachfront Sand & Gravel,2621 Kid Curry Dr,Bozeman,MT,59718-8726,406-548-2931
"Beall Transport Equipment Of Montana, Inc.",1635 North Frontage Road,Billings,MT,59101,N/A
Bear Canyon Transport LLC,140 Vinyard Road,Great Falls,MT,59404,406-799-4004
Bear Claw LLC,211 North Merrill Ave,Glendive,MT,59330,231-342-0127
Bear Excavation,2 Broadway,Willow Creek,MT,59760,406-285-3976
"Bear Hat Ready Mix, Inc.",1050 Osloski Road,Eureka,MT,59917,406-297-3156
"Bear Mountain Trucking, Inc.",909 Orr Street,Miles City,MT,59301,403-640-9898
Montana Pollination,410 Clear Creek Rd,Chinook,MT,59523,406-357-3835
Bear Paw Brokerage LLC,6280 2nd Street Nw,Havre,MT,59501,406-262-9778
Bear Paw Livestock,Box 488,Chinook,MT,59523-0488,406-357-2286
Bear Paw Lumber Co,2445 Highway 2 Ne,Havre,MT,59501,406-265-5140
Bear Paw Trucking LLC,45 Grand View,Big Timber,MT,59011,231-342-0127
Bear Traxx Trucking Training,110 Lot #3 Ducktake Road,Browning,MT,59417,406-470-4798
Bear Trucking LLC,805 S 3rd St W,Baker,MT,59313,406-941-0881
Bearable Transportation Compliance LLC,79 Lauretta Drive,Billings,MT,59101-6639,406-671-7230
Bearclaw Petroleum,102 N I Street,Livingston,MT,59047,406-222-8022
"Bearmouth Express, Inc.",16595 Old Highway 10 East,Clinton,MT,59825,406-825-4000
Bearmouth Hauling LLC,1611 Drummond Frontage Rd,Clinton,MT,59825,321-233-9956
Bearpaw Trucking LLC,414 Poplar St,Plentywood,MT,59254,406-765-2821
"Beartooth Fertilizer, Inc.",03 Fox East Bench Road,Roberts,MT,59070,406-425-3082
Beartooth Field Service,218 Lower Luther Road,Red Lodge,MT,59068,406-446-1687
Beartooth Ford LLC,44 N 5th St,Columbus,MT,59019,406-322-5346
Beartooth Hotshot LLC,509 E Benham St,Glendive,MT,59330-2507,307-333-3216
"Beartooth Masonry, Inc.",220 Wineglass Loop N,Livingston,MT,59047,406-222-5358
Beartooth Water Jetting And Video Inspection LLC,609 1 St Se,Park City,MT,59063,406-633-2563
"Beartrap Trucking, Inc.",503 Jackrabbit Ln,Belgrade,MT,59714,406-579-5195
Beau Brian Smith,12387 Hoosac Rd,Stanford,MT,59479,406-567-3075
"Beaver Transport, Inc.",8781 Brady Road,Brady,MT,59416,406-753-2240
"Beaverhead Motors, Inc.",675 N Montana,Dillon,MT,59725,406-683-2371
Beaverhead Post Company,2470 Sawmill Road,Dillon,MT,59725,406-683-2715
Beck Financial Services LLC,146 Beer Can Alley,Wibaux,MT,59353,406-369-5044
"Becker Construction, Inc.",4884 Highway 200 Space 4,Thompson Falls,MT,59873,208-290-1844
"Becker Land & Livestock, Inc.",7650 Cormier Road,Billings,MT,59101,406-245-5995
Becker Oilfield Solutions Corporation,411 4th St Se,Sidney,MT,59270,208-290-5688
Beckman Excavating,371 Blacktail Canyon,Butte,MT,59702,406-533-1529
B & W Trucking,201 Main Street,Greycliff,MT,59033,406-932-6587
Bee Line Express,26 Agate Drive,Miles City,MT,59301,406-853-9911
"Bee-line Service, Inc.",P. O. Box 3987,Missoula,MT,59801,N/A
Beefsteak Express LLC,503 2nd Ave South,Stanford,MT,59479,406-566-2977
"Belgrade Repair, Inc.",920 Frank Road,Belgrade,MT,59714,406-388-9386
Bell Industries Lease LLC,160 Collins Rd,Belgrade,MT,59714,406-388-4555
Bell Ranch LLC,Hiway 66 Mile Marker 22,Hays,MT,59527,406-399-1591
Bella Trucking,14 Ridgewood Dr,Kalispell,MT,59901-2842,406-261-2382
Belle Creeke Landscape LLC,2825 Stockyard Road Suite E-3,Missoula,MT,59808,406-541-3487
Belly Up Express,445 Grizzly Ln,Helmville,MT,59843,406-370-8939
Ben Freeman,2615 Mt Highway 200,Trout Creek,MT,59874,406-242-0262
Ben Kauffman,147 Woodman Dr,Belgrade,MT,59714-7227,406-599-6157
Ben Pluid Trucking,1048 2nd Ave East,Eureka,MT,59917,406-297-2605
Ben Redifer,34463 Hwy 2,Libby,MT,59923,406-283-1435
Ben Robertus,10 Benedict Gulch Rd,Park City,MT,59063,406-697-9027
High Mark Trucking,3665 Heeb Rd,Manhattan,MT,59741,406-539-0172
Pauley Livestock,93 Meadowlark Drive,Dillon,MT,59725,406-683-0057
Ben Ward Trucking LLC,175 Alpine Lane,Lewistown,MT,59457,406-350-1715
"Double W Truck & Trailer Sales, Inc.",2401 W Broadway,Missoula,MT,59808,406-327-1537
Montana Movers,2312 W Foothills Dr Ste 4,Missoula,MT,59803,406-309-0158
Jersey Pride Transport,5599 Highline Rd,Manhattan,MT,59741-8508,712-541-5016
Benjamin Williams,2000 Schilling St,Missoula,MT,59801-5336,877-659-9442
Benners Dump Trucking,210 Sullivan Crossroad,Columbia Falls,MT,59912,406-250-6112
"Bennett Owen Trucking, Inc.",506 N Washington St,Dillon,MT,59725,406-683-5652
Minow Transport LLC,18 Minow Road,Olive,MT,59343,406-554-3540
Benson Excavating LLC,44 Jackson Creek Road,Montana City,MT,59634,406-443-4760
Bensun Energy LLC,417 Lincoln Ave S ,Sidney,MT,59270-3927,406-480-1344
"Bentle Son Trucking, Inc.",3610 Honeysuckle Drive,Belgrade,MT,59714,406-388-4757
Benz Backhoe Service,586 Harvey Lane,Corvallis,MT,59828,406-961-3752
Berg Brothers Trucking LLC,2018 Yellowstone Trl ,Deer Lodge,MT,59722,406-560-0020
Berg Movers LLC,1007 Cardinal Dr,Belgrade,MT,59714,406-214-2230
Bergstrom Farms,5093 Road 1036,Froid,MT,59226,140-696-3223
"Bernies Truck Repair, Inc.",1202 69th Street West,Billings,MT,59106,406-652-3916
"Berosik Trucking, Inc.",584 Kingfisher Ln,Kalispell,MT,59901,406-752-4523
Bert Hartwell,1785 Park Garden Rd,Great Falls,MT,59404,406-788-8347
Bert's Trucking LLC,507 28th Ave Nw 2-15,Sidney,MT,59270,208-255-2598
"Bertolino Livestock Trucking, Inc.",1645 Ave D Ste I,Billings,MT,59102,406-256-1997
Bertolino Trucking LLC,1419 Cook Ave,Lewistown,MT,59457,406-860-8182
Beryn Art Touring LLC,2675 Palmer St Ste F,Missoula,MT,59808,406-327-0401
Bessette Trucking LLC,39 Eden Park Ln,Great Falls,MT,59405,406-231-1273
"Best Oil Distributing, Inc.",5401 River Dr No,Great Falls,MT,59405,406-453-4884
Best Transport LLC,1133 Valier Dupuyer Rd,Valier,MT,59486,503-839-7987
Beyer Trucking LLC,118 7th Ave Nw,Sidney,MT,59270,406-480-3868
Beaverhead Home Center,915 N Montana St,Dillon,MT,59725,406-683-4911
Billings Hotel & Convention Center,1223 Mullowney Lane,Billings,MT,59101,406-248-7151
"Bicker Transfer, Inc.",109 Bokma Rd,Columbus,MT,59019,406-663-2286
Big 8 Trucking LLC,170 B Bernard Road,Kalispell,MT,59901,406-756-3194
"Big B Enterprises, Inc.",160 Highway 12 East,Townsend,MT,59644,406-266-5498
"Big Boomer Fireworks 1 3g, Inc.",20 Bus Lane,Laurel,MT,59044,406-628-2904
Big Boyz Hauling LLC,38362 Turtle Lake Loop,Polson,MT,59860,817-258-5044
Big Cat Excavating,19368 Walkabout Ln,Frenchtown,MT,59834-9564,406-529-0798
"Big Country Transportation Brokerage, Inc.",205 Broadway,Townsend,MT,59644,406-266-4210
"Big Country Transportation, Inc.",205 Broadway,Townsend,MT,59644,406-266-4210
Big Country Trucking LLC,76595 Gallatin Rd,Gallatin Gateway,MT,59730,406-580-0766
"Big Dog Energy Services, Inc.",1610 Mt Hwy 35,Kalispell,MT,59901,406-249-0130
"Big Dog Services, Inc.",34587 County Road 115,Crane,MT,59217,406-488-6360
Big Dog Transportation,125 Ponderosa Ln,Kalispell,MT,59901,406-871-4531
Big Dog Trucking And Excavation LLC,706 Iowa St,Belgrade,MT,59714-4121,406-570-7728
Big Dry Livestock LLC,930 Hwy 200 West,Jordan,MT,59337,406-557-2403
Big Dry Transport LLC,918 Truscott St,Miles City,MT,59301,406-853-2129
Big Equipment Company LLC,1287 Highway 87 West,Havre,MT,59501,406-265-9554
Big Es Backhoe Service,312 Three Pond Drive,Hamilton,MT,59840,406-363-3622
Big Gully Oil LLC,324 3rd Ave W,Roundup,MT,59072-2718,406-323-1245
"Big Hole Fuel Services, Inc.",2550 Little Lake Creek Road,Jackson,MT,59736,406-689-3225
"Big Hole Petroleum, Inc.",Highway 43 W,Wisdom,MT,59761-0175,406-689-3225
"Big Horn Holdings, Inc.",45246 Coyote Trail,Charlo,MT,59824,406-644-2202
Big Horn Sand & Gravel LLC,740 Ten Bear Lane,Hardin,MT,59034,406-679-2027
Big Horn Trucking,617 5th St Se,Sidney,MT,59270,307-272-4022
"Big Iron Heavy Haul, Inc.",2915 Custer Ave,Billings,MT,59102,406-860-6031
Big Iron Outlaws LLC,1336 Klondyke Loop,Somers,MT,59932,406-885-6547
Big Johns,205 Westland Way,Bozeman,MT,59718,406-587-3861
Big Rock Ray,104 Joshua Way,Corvallis,MT,59828,406-360-6827
"Big Sky Asphalt, Inc.",1220 North Rouse,Bozeman,MT,59771-0835,406-587-4164
