Company Name,Street Address,Address Locality,Address Region,Postal Code,Telephone
Hancock Xpress,461 N Valley,Osceola,NE,68651,402-747-2256
D A Auto Sales,346 S Broad,Fremont,NE,68025,402-727-7040
"Shoe's Diesel Service, Inc.",801 Saltillo Road,Roca,NE,68430,402-416-8928
Trauernicht Trucking,7554 E Spruce Road,Wymore,NE,68466,402-674-3283
Lukasiewicz Trucking,105 Mandel Ave,Farwell,NE,68838,308-750-0479
American Rv Service,89541 Hwy 81,Crofton,NE,68730,402-640-9304
H & S Habitat Enhancement,2902 S Oak St,North Platte,NE,69101,308-520-1018
Victoria Express,85405 491 Ave,O Neill,NE,68763,402-517-6377
Steve Bell Trucking,615 E 11th Street,Bridgeport,NE,69336,308-262-1456
Pena's Transportation,14455 Harrison St,Omaha,NE,68138,714-225-8642
Long Trucking,51457 892 Road,Niobrara,NE,68760,402-229-3344
Miller Trucking,625 E Douglas,Oneill,NE,68763,402-336-7373
Tdm Trucking,1511 N Madison,Lexington,NE,68850,308-746-1322
Genesis Enterprises LLC,58790 Hwy 20,Allen,NE,68710,402-945-2115
Salazar Truck Tires Service,840 West O Street,Lincoln,NE,68528,402-610-3571
T A B Trucking,809 Jefferson,Dorchester,NE,68343,402-408-9617
Gotta Lovit Trucking,812 18th Street,Gothenburg,NE,69138,308-537-3151
Teak Trucking,2074 County Road 12,Mead,NE,68041,402-443-8859
Troy Mccaulley Trucking,809 E Eldora Ave,Weeping Water,NE,68463,402-267-7011
Drs Transport,120 S 38th Ave Apt 32,Omaha,NE,68131,402-917-3116
Van Derslice Transportation,284 West Maple,Dwight,NE,68635,402-566-4140
Little Blue Express,13615 S Showboat Blvd,Pauline,NE,68930,402-771-2531
Jc Trucking,2024 Rd 165,Chappell,NE,69129,308-772-3966
Harwood Trucking,1165 Eastridge Dr,Seward,NE,68434,402-643-2178
D & D Services,1421 S 173 Street,Omaha,NE,68130,402-330-9616
Hrbek Carriers,55 Juniper Rd,Niobrara,NE,68760,402-857-3331
M & M Trucking,5548 N 19th St,Lincoln,NE,68521,402-750-6334
Lans Trucking,331 Platte Ave,Stamford,NE,68977,308-991-1648
Pebble Valley Trans LLC,781 Hwy 32,West Point,NE,68788,402-372-6935
Uhing Trucking,820 Wood Street,Norfolk,NE,68701,402-649-0996
Heyen's Service And Custom Hauling,1502 364th Rd,Seward,NE,68434,402-523-4076
Liewer Trucking,250 4th St,Bartlett,NE,68622,308-654-1978
Weimer Transport,100850 County Rd D,Morrill,NE,69358,308-247-2059
Matt Robinson Trucking,20102 Meadow Ridge Drive,Springfield,NE,68059,402-658-9227
Wagner Trucking,1015 N Pierce Lot 26,Fremont,NE,68025,402-489-4296
Two Men Moving,807 Redwood Lane,Papillion,NE,68046,402-597-1474
Matt Welch Trucking,1822 S Meridian,Cozad,NE,69130,308-325-9072
Jsa Express,1775 37th Rd,Minden,NE,68959,308-832-1280
Shane Bernhardt Trucking,1401 S 4th Street,Norfolk,NE,68701,402-371-9467
Joe's Trucking,29782 N County Line Rd,Stapleton,NE,69163,308-636-8489
Schmidt Trucking,313 Forest Drive,Norfolk,NE,68701,402-379-4011
Morrow Trucking,406 N Main St,Stuart,NE,68780,402-841-5602
Justin Mann Trucking,115 W Commercial,Brady,NE,69123,308-584-3018
Triple C Logistics,9823 Military Rd,Omaha,NE,68134,402-571-9779
Jb's Quality Service,50397 Brannan Rd,Minatare,NE,69356,308-783-2442
Ron Schneider Hauling,816 7th Corso,Nebraska City,NE,68410,402-209-3642
Earnest Hauling,7708 South 45th Ave,Bellevue,NE,68157,402-734-0225
Jims Transport,2220 S Chanticleer,Grand Island,NE,68801,308-370-0193
J Bar K Trucking,641 West 6th,Red Cloud,NE,68970,402-746-3133
V R Broders Trucking,406 S Clark,Bloomfield,NE,68718,402-373-2426
Carlos Trucking,1940 Kingwood Av #7,Crete,NE,68333,402-730-1745
M & D Trucking,88448 583rd Avenue,Newcastle,NE,68757,402-355-2264
H & S Trucking,8 York Moble Plaza,York,NE,68467,402-362-0351
Double Slash Seven,18326 Road 42,Oshkosh,NE,69154,308-772-0141
Verdant Environmental Services,11205 Wright Circle Suite 230,Omaha,NE,68144,402-490-7590
T & S Trucking,95 Hwy 92,Stapleton,NE,69163,308-636-2594
R & T Trucking,230 Cottonwood School Rd,Hemingford,NE,69348,308-487-5359
Mohler Trucking Ii,6279 Road S,Belvidere,NE,68315,402-768-6803
Mike's Tool Service,824 N 24th St,Blair,NE,68008,402-426-9161
"Simply The Best Autos, Inc.",4650 Cornhusker Hwy,Lincoln,NE,68504,402-465-4651
Kast Trucking,44042 Rd 759,Lexington,NE,68850,308-325-7391
Gary's Auto Sales,4775 Adams St,Lincoln,NE,68504,402-466-2566
Window Cleaning,10860 Park Meadow Plz Lot 145,Omaha,NE,68142,402-731-9981
3 Sevens Ranch Services LLC,19414 W Kelley Ave,Hershey,NE,69143,308-368-7844
Huebner Trucking,717 W 1st,North Platte,NE,69101,308-520-0576
Pallet Express,2509 Wyoming,Omaha,NE,68112,402-706-3899
D & S Trucking,101 S Garrison,Wallace,NE,69169,308-390-1610
Jrp Express,753 42 1/2 Rd,Riverton,NE,68972,402-746-2329
Franco Transportation,2738 Browne St,Omaha,NE,68111,402-618-8433
Taylor Schwager Trucking,51219 Hwy 20,Orchard,NE,68764,402-340-2507
Mossberg Trucking,1228 E 8th St,Kimball,NE,69145,970-581-1910
James Trucking,309 S Walnut,Arnold,NE,69120,308-636-6242
Double J Transportation,214 S Cherry St,Maywood,NE,69038,308-362-4663
Yonder Road Trucking,219 S I St,Fremont,NE,68025,402-727-1614
Brosius Trucking LLC,23744 North County Line Road,Stapelton,NE,69163,308-582-4645
Autocraft Collision Center,224 Marquis,York,NE,68467,402-362-5557
Working Mule Transport,2230 Park Ave,Lincoln,NE,68502,402-435-8097
Lillich Trucking,1417 Road N,York,NE,68467,402-362-3666
Volker Express,54783 835 Rd,Battle Creek,NE,68715,402-675-9845
Rick Hoover Trucking,6710 Sw 91st,Denton,NE,68339,402-314-1041
Arone Trucking,522 West 5 Street,Schuyler,NE,68661,402-615-2894
Cammack Trucking,19350 State Hwy 103,Dewitt,NE,68341,402-239-9660
Brand X Logistics,339 S 4th Ave,Broken Bow,NE,68822,308-880-1965
Platt Trucking,401 Carlyle,Alma,NE,68920,308-224-0431
Tinker Trucking,55221 862 Rd,Osmond,NE,68765,402-329-4489
Dale Mellor Trucking,207 N Holt,Atkinson,NE,68713,402-925-2038
Black Creek Trucking,54552 840 Rd,Battle Creek,NE,68715,402-675-3253
Mcmullin Trucking,11645 460 St,Leigh,NE,68643,402-487-2837
Pbk Trucking,405 N Chestnut,Red Cloud,NE,68970,402-750-6639
Olympic Transportation Services,14216 Dayton Circle Ste 11,Omaha,NE,68137,402-934-7260
Fossler Trucking,31792 South 10th Rd,Beatrice,NE,68310,402-806-0619
37 Transport,603 Mcmillan St,Holdrege,NE,68949,308-991-8839
Far Expres,1113 Charolais Dr,Norfolk,NE,68701,402-316-8276
Urbanec Trucking,509 Norris Avenue,Pender,NE,68047,402-385-3120
Vp Transport,1012 Creighton Road,Papillion,NE,68046,402-617-4885
Enlow Logistics,602 E 18th St,Scottsbluff,NE,69361,308-672-2898
Ao Welding Services,1336 4th St,David City,NE,68632,402-615-1115
Arteaga Transport,2831 Tierra Drive # 210,Lincoln,NE,68516,402-817-2572
Millwright Service Co,508 North 8th,Oneill,NE,68763,402-336-4349
Figueroa Trucking,D22 Meadows Ct,Alliance,NE,69301,308-760-8640
Aqulia Limousine,420 St Paul Rd Suite 330,Grand Island,NE,68801,888-511-5466
Jessen Trucking,88884 540 Ave,Bloomfield,NE,68718,402-373-4692
Austin Berley Tile Service,13706 Josephine St,Omaha,NE,68138,N/A
Mccart Trucking,49082 874 Road,Oneill,NE,68763,402-336-3579
Desperado Truck Lines,13211 S 27th Cir,Bellevue,NE,68123,402-292-4090
Bhb Trucking,100 S May,Arcadia,NE,68815,308-202-0188
Partyzonelimos,1021 Galvin Road South,Bellevue,NE,68005,402-991-9026
J&l Excavating,36799 S 1st Road,Blue Springs,NE,68318,402-806-5399
Burress Trucking,610 Barger Ave,Hebron,NE,68370,402-768-2198
Smr Transport,5 Lightwater Estates,Firth,NE,68358,402-699-9902
Bolsado Bonito Transport,504 Lincoln,Grant,NE,69140,916-524-0653
Soloma Auto Sales,2305 W 3rd St,Grand Island,NE,68803,308-384-1976
Rollin Rollin Rollin,811 East 51st Street,Kearney,NE,68847,308-236-5187
Larry Bodfield Trucking,116 9th St,Beaver City,NE,68926,308-962-4637
Bob Pindell's Trucking,497 Starr Street,Broadwater,NE,69125,308-262-5853
Erspamer Express,15918 Ohern St,Omaha,NE,68135,402-681-2246
Kbehr Express,8941 Venice Ln,Lincoln,NE,68526,N/A
Troys Auto World,725 Grant Rd,Homer,NE,68030,402-698-2414
Nate Robb,11301 Westmont Drive,Omaha,NE,68138,402-306-8158
Hanson Trucking,3917 12th St,Columbus,NE,68601,402-276-4756
Asap Auto Transport LLC,15012 Cuming Street,Omaha,NE,68154,402-301-0637
Triple E Trucking,175 Mormon Trail Rd,Lincoln,NE,68521,402-217-1723
Rea Trucking,41870 W Railroad St,Cozad,NE,69130,308-325-5143
3-d Ag Transportation Specialists,3945 Diablo Circle,Lincoln,NE,68516,402-423-3389
Fischer Tire Service,1006 Locust St,Dakota City,NE,68731,402-494-8473
P B Trucklines,450 F Street,Ulysses,NE,68669,402-549-2287
Compass Transport,324 S 27th Ave Apt 4,Omaha,NE,68131,402-608-0233
Tnt Termite Services,14920 A Circle,Omaha,NE,68144,402-393-3697
Klingelhoefer Trucking,16415 Odessa Road,Amherst,NE,68812,308-238-3270
Stotts Trucking,Hc 15 Box 54b,Valentine,NE,69201,402-389-1139
Bowman Trucking,205 N Pine,Plainview,NE,68769,402-841-2940
Cherokee Transportation,306 Scotia Ave,Scotia,NE,68875,308-390-4668
Sklenar Industries,2680 Hwy 32,Tekamah,NE,68061,402-669-9313
Luxury Limousine & Trolley Service,4201 Lowell Cir,Lincoln,NE,68502,402-269-3737
Fjg Trucking,1135 Lincoln,Potter,NE,69156,N/A
Elvir Menkovic Transport,14305 Marinda Plz #3,Omaha,NE,68144,402-896-1350
Ryan Teppert Trucking,330889 Cr E,Minatare,NE,69356,307-388-0070
J & W Trucking,204 Hwy 20 N,Laurel,NE,68745,402-256-3552
Double J Auto Transport,52674 844 Rd,Oakdale,NE,68761,402-843-8875
Tyler Kulas Trucking,484 Cr 55,Alliance,NE,69301,308-762-1429
Nick Nehl Trucking,103 Francis Street,Hayes Center,NE,69032,308-737-6108
Kevin Jorgensen Trucking,1319 Page Rd,St Paul,NE,68873,308-336-3234
C & N Ag Service,317 N Saunders Ave,Hastings,NE,68901,402-834-0580
Mengelkamp Express,222 South East Street,Malcolm,NE,68402,402-796-2311
Carson Trucking,21530 W Maple Rd,Omaha,NE,68022,402-676-5579
Double Hooks Trucking,1367 N 7th St,David City,NE,68632,402-367-3668
Charlie Company,4221 N 129th Ave Circle,Omaha,NE,68164,402-990-8803
Triple B & D Trucking,304 S Nebraska,Madison,NE,68748,402-454-9047
Estrada Transportation,1508 S Adams St,Lexington,NE,68850,308-746-4253
Caniglia Painting,7227 S 141st Street,Omaha,NE,68138,402-660-4900
Meyers Cleaning Service,5541 N 61 St,Omaha,NE,68104,402-871-9743
Wester Trucking,718 W Mary #3,Beatrice,NE,68310,402-239-9833
Roy Straw Trucking,407 Ave A,Minatare,NE,69356,308-783-2079
Sheets Trucking,624 N 4th Street,Indianola,NE,69034,308-340-4437
Fetters Livestock Transportation,106 Palmer,Loomis,NE,68958,308-991-1272
Wayne Motor Express,57423 Hwy 35,Wayne,NE,68787,402-375-0673
Dietz Trucking,70570 F Rd,Orleans,NE,68966,308-473-3216
Plattsmouth Transfer,1451 Fort St,Omaha,NE,68110,402-960-3721
Tor Trucking,6618 Gilmore Ave,Omaha,NE,68107,402-734-0992
Moes Trucking,86949 552 Ave,Mclean,NE,68747,402-586-2545
Walker Trucking,602 B Street,Shelton,NE,68876,308-233-2817
Dba Johnstons Auto,100 Main St,Walthill,NE,68067,402-846-5507
"Slk Crane And Equipment Services, Inc.",305 Gill Ave,Jackson,NE,68743,712-203-1637
Oenbring Trucking,613 Pine St,Clarkson,NE,68629,402-649-7817
Clutch Pros,101 Industrial Dr,Bellevue,NE,68005,402-734-7970
R & B Express,1704 Alaska Ave,Norfolk,NE,68701,402-371-9104
Miracle Movers,4301 E Street,Lincoln,NE,68510,402-438-6521
Meyer Transport,4133 Road H,Superior,NE,68978,402-519-0901
Hustlin Hobo Express,103 Norval St,Waco,NE,68460,402-499-9609
Marvin Large,410 Holland St,Imperial,NE,69033,308-882-6675
Young's 66,4423 North 30th Street,Omaha,NE,68111,402-453-7021
Reiber Trucking,2804 Coronado Dr,Lincoln,NE,68516,402-540-3405
Fiesterman Haying,595 West 6th St,Long Pine,NE,69217,402-273-4066
Midwest Office Automations,9305 H Court,Omaha,NE,68127,402-991-6729
Seven Sisters Transportation ,202 9th St,Bayard,NE,69334,512-953-5020
Bill Holson Trucking,703 South York,North Platte,NE,69101,308-660-2934
Todd Schrotberger Trucking,609 K Street,Bridgeport,NE,69336,308-262-1491
Dave Wentz Trucking,1407 Minden Dr,Columbus,NE,68601,402-563-4255
Dave Benson Trucking,73468 614 Ave,Sterling,NE,68443,402-866-4681
Clint Spearman Trucking,1213 2nd Avenue,Scottsbluff,NE,69363,308-633-1590
Peterson Enterprises,518 Olive St,Brule,NE,69127,308-287-2547
Day One Logistics,10008 Sapp Brothers Drive,Omaha,NE,68138,402-916-9944
Copenhagen Express,611 West 1st,Oshkosh,NE,69154,308-778-6145
Mst,33492 Road 706,Benkelman,NE,69021,308-340-3814
Triple H,2477 Omaha Ave,Homer,NE,68030,402-698-2393
Dan Snyder Trucking,451 10th Avenue,Columbus,NE,68601,402-276-4634
Woodward Delivery Service,133 E 12th St,Hastings,NE,68901,402-462-6421
Scott Boggs Trucking,324 Sunset Ave,Hershey,NE,69143,308-368-5217
Cobra Transportation,31821 743 Rd,Lamar,NE,69023,308-882-4485
J A Cook Trucking,710 W 14th St,Falls City,NE,68355,402-245-4002
Suarez Wholesale Produce,1512 Dakota Ave Ste A,South Sioux City,NE,68776,402-412-2446
"Icr Services, Inc.",451 Linden Street,Sutherland,NE,69165,308-386-2422
J & T Trucking,1566 2nd St,Chappell,NE,69129,308-874-9927
Matt Sloan Trucking,74560 438 Road,Bertrand,NE,68927,308-472-5396
West Point Auto Plaza,1200 N Lincoln,West Point,NE,68788,402-372-2444
1733 Express,285 Frontview Dr,Kearney,NE,68847,308-236-3300
Asc Carriers,202 Washington Avenue,Norfolk,NE,68701,402-379-8989
Transportes Juarez,1308 W North Front St,Grand Island,NE,68801,308-381-5934
J R Trucking,1335 County Rd 19,Fremont,NE,68025,402-654-2495
Kody Scarlett Trucking,First And Randolph,Bartlett,NE,68622,308-654-3203
Andy Jackson Trucking,Rr 1 Box 2242,Bridgeport,NE,69336,308-279-0221
Gt Express,530 S Lewis,Pierce,NE,68767,402-750-6870
Mbr Trucking,310 N Brewster Ave,Oakland,NE,68045,402-936-3223
Reliant Transportation Cf,770 N Cotner Blvd Ste 410,Lincoln,NE,68505,402-464-7771
Todd & Sons Trucking,609 West D Street,Trenton,NE,69044,308-334-5327
Denson Trucking,308 N 7th St,Plainview,NE,68769,402-582-4626
Lowe's Linehaul Company,10831 12th St,Murray,NE,68409,402-214-8811
Haulin A Transport,14225 Hwy10,Kearney,NE,68847,308-708-1993
Espinoza Transport,1225 Crestline Dr,Crete,NE,68333,402-802-8107
Hansen Trucking,205 W Elm,Pilger,NE,68768,402-649-7274
Steves Auto,1429 Hickory St,Sidney,NE,69162,308-254-3779
Jal Trucking,5739 S 99th Court - Apt 2b,Omaha,NE,68127,402-312-4488
Str8 Auto And Trailer Sales,116 7th Ave West,Benkelman,NE,69021,308-423-2867
Jason Kaup Trucking,530 N Hall Street,Valentine,NE,69201,402-376-1286
B & K Trucking,54898 851 Rd,Pierce,NE,68767,402-649-5784
Neddermeyer Trucking,15215 Industrial St,Bennington,NE,68007,402-677-4005
Troy Greiner Trucking,1595 County Rd 2000,Wilber,NE,68465,402-418-2458
Ok Trucking,252 152nd St,South Sioux City,NE,68776,402-494-2986
Todd Archer Hyundai,1203 Fort Crook Road North,Bellevue,NE,68005,402-905-2277
Leach Trucking,610 N Reynolds,Arcadia,NE,68815,308-789-6267
Ogan Trucking,82596 555 Ave,Madison,NE,68748,402-454-2886
Laue Trucking,62260 710 Trail,Pawnee City,NE,68420,402-852-2343
Ramer Transportation,1104 Fulton St,Falls City,NE,68355,402-245-7772
Kirk Otte Trucking,428 S Main Street,Gordon,NE,69343,308-282-0699
Schaben Services,39013 Us Hwy 6,Mccook,NE,69001,308-345-4490
Cutsor Trucking Company,13816 J Rd,Silver Creek,NE,68663,402-366-1514
Aida Trucks,33282 740 Rd,Imperial,NE,69033,308-882-4987
Arnold Trucking,Hc 14 Box 641,Valentine,NE,69201,402-376-3273
Rgj Express,56055 846th Rd,Norfolk,NE,68701,402-750-6979
D & D Trucking,1717 Sw Lacey Lane,Lincoln,NE,68522,402-435-8577
Sds Hassler Trucking,200 149th St,South Sioux City,NE,68776,402-494-9158
Ike's Trucking,1020 Sheridan,Potter,NE,69156,308-879-4667
Wessels Transport,1617 N Iowa Ave,York,NE,68467,N/A
Sand Hills Transport,125 River Drive,Valentine,NE,69201,308-636-8718
Tommi Ann Transportation,309 E 9th Street,Harvard,NE,68944,563-249-0676
Hansen Trucking,51648 875,Orchard,NE,68764,402-847-3293
Matt Miller Trucking,4021 Rd 125,Gurley,NE,69141,308-884-3407
Locke Equine Transport,17415 S Powderhorn,Holstein,NE,68950,402-460-6441
Eucalyptus Distributing,3730 Spruce Street,Lincoln,NE,68516,402-430-7426
Navis Pack & Ship,4433 S 134th St,Omaha,NE,68137,402-933-5575
Jon Kime Trucking,419 E B Street,Valentine,NE,69201,402-389-0080
Q Auto Recyclers,151 E Elm St,Sidney,NE,69162,308-254-2255
Allens Big Cat Trucking,601 Howland,Stratton,NE,69043,308-214-0845
Koehn Transport,503 1st,Scotia,NE,68875,308-219-0299
Bledso Trucking,1009 Jefferson,Dorchester,NE,68343,402-418-0233
Kelly Eitzmann Trucking,250 Rd 3900,Superior,NE,68978,402-879-1299
Wayne Allan Express,6139 O Street,Omaha,NE,68117,402-321-5440
Arnold Relford Trucking,4311 Saratoga St,Omaha,NE,68111,402-215-5796
Tiedeman Trucking,1269 N 2nd Road,Eagle,NE,68347,402-780-5529
Konopasek Trucking,51222 884th Rd,Verdigre,NE,68783,402-668-7474
Codaken Trucking,6207 Map 6 St,Omaha,NE,68104,402-990-7721
J Nelson Trucking,302 E 3rd,Laurel,NE,68745,402-256-9112
John Schaub Trucking,211 W Elm,Pleasanton,NE,68866,308-440-9227
All Purpose Carriers,2007 Betz Road Lot 34d,Bellevue,NE,68005,402-707-2888
Stone Trucking,316 West 5th Street,Alliance,NE,69301,308-762-1239
Father Son Trucking,313 S Pine St,Tilden,NE,68781,402-640-6062
Scanner Trucking,207 S Gustin St # 56,Holdrege,NE,68949,308-991-1275
E F Bane Trucking,503 Logan,Scotia,NE,68875,308-850-0464
Viper Auto Transports LLC,4000 Morgan St,Lincoln,NE,68521,402-570-5534
J D Trucking,1304 Road G,Schuyler,NE,68661,402-206-4772
Mc & Sons Trucking,1216 J St,Aurora,NE,68818,402-694-2866
Aamco Transmissions,5254 S 133 Court,Omaha,NE,68137,402-932-3300
"Fox Run, Inc.",375 N 14th Rd,Unadilla,NE,68454,402-613-3521
"On Target Underground Services, Inc.",8706 S 9th Street,Bellevue,NE,68147,402-990-2621
Top Heavy Trucking,839 West B St,Valentine,NE,69201,402-450-5934
Wilhelmsen Trucking,107 West South St,Spencer,NE,68777,402-589-0160
Brian Koenig Trucking,509 Industrial Parkway,Madison,NE,68748,402-649-4551
Triple B Transport,124 S Hadley Ave,Giltner,NE,68841,402-849-2608
Blaine Dake Trucking,620 S Orleans Ave,Orleans,NE,68966,308-473-1215
Colorado Platte Valley Trucking,504 South Railroad,Wellfleet,NE,69170,308-963-4538
"Ruwe's, Inc.",25488 County Road 4,Herman,NE,68029,402-654-3645
Mcelhaney Trucking,51060 884 Rd,Oneill,NE,68763,402-336-2238
Frahm Trucking,86419 533 Ave,Plainview,NE,68769,402-582-4888
Jesse James Trucking,3275 N 150th Rd,Cairo,NE,68824,402-416-6526
Brotts Trucking,626 Nile Street,Ansley,NE,68814,308-293-4854
Baumans Trucking,210 Nemaha,Blue Hill,NE,68930,402-469-5638
Hmt Trucking,312 Poplar St,Hubbard,NE,68741,402-632-1730
M & W Trucking,31055 S Center Rd,Wellfleet,NE,69170,308-362-4551
Side Dump Industries,729 W 21st Street,South Sioux City,NE,68776,402-494-8275
Adlers Mobile Appearance Reconditioning Service,7002 So 183rd St,Omaha,NE,68136,402-679-6761
Palco Deliveries,1104 W 10th Street,Grand Island,NE,68801,308-380-9248
Casey's Transport,2171 N Maple St,Wahoo,NE,68066,402-326-4410
Oswald & Sons Trucking,406 W Murray,Shickley,NE,68436,402-627-2060
Maple 85,8415 Maple St,Omaha,NE,68134,402-571-6136
V&g Distributing,915 Goldenrod Lane,Hickman,NE,68372,402-432-6641
Thelen Trucking,2477 N Nye St Apt 115,Fremont,NE,68025,402-360-2039
C & C Eick Trucking,446 N Main St,Ainsworth,NE,69210,402-760-2103
Palensky Trucking,120 Central St,Osceola,NE,68651,402-367-7680
Beemer Trucking,365 Chase St,Enders,NE,69027,402-936-3899
Luxury Limousine & Trolley Service,634 Park,Syracuse,NE,68446,402-269-3737
Seajay Services,2541 W Claire Ave,Lincoln,NE,68523,402-423-3663
Single Shot Tucking,608 Broad Way,Fullerton,NE,68638,308-536-2479
Jims Buckboard Express,435 3rd St,Inman,NE,68742,403-297-5308
M & M Trans Repair & Racing,285 N 5th St Apt #2,David City,NE,68632,402-367-4608
A-1 Delivery Services,6019 Patterson Street,Omaha,NE,68117,402-738-8705
Lucas Ruggles Trucking,401 Lemon St,Bartley,NE,69020,308-692-3346
Voigt Monument Service,1127 Orange Road,Grand Island,NE,68801,308-384-6252
Jc Transport,503 W Main,Naponee,NE,68960,308-269-2020
Legate Trucking,611 O St,Neligh,NE,68756,402-887-2250
Entertainment Support & Services,1244 May Street,Goehner,NE,68364,402-523-5232
Kurt Micheel Trucking LLC,2nd Street,Newport,NE,68759,402-244-5208
Blakey Trucking,3466 183rd Trail,Lakeside,NE,69351,308-762-5539
F & D Rentals,3377 Fairlane Ave,Columbus,NE,68601,402-564-7452
Briese Trucking,508 Cedar Street,Friend,NE,68359,402-475-8323
C & S Trucking,222 Jefferson Avenue,Norfolk,NE,68701,N/A
Chad Burris Trucking,1203 1st Ave #110,South Sioux City,NE,68776,712-212-7284
B & C Trucking,202 E Mckinley,Wausa,NE,68786,402-586-2101
Heesacker Trucking,500 Chestnut St,Humphrey,NE,68642,402-923-0118
4 W Transportation,105 Commercial,Loomis,NE,68958,308-991-8257
Shawn Reynolds Trucking,513 Maurer Addition,Bassett,NE,68714,402-684-3681
Sanderson Cattle Drive,48726 855 Rd,Chambers,NE,68725,402-482-5924
Jeannie's Trucking,58679 Hwy 12,Ponca,NE,68770,402-355-2357
Maynard Trucking,111 Front St,Kearney,NE,68845,308-236-2074
Wagner Trucking,86381 541st Ave,Osmond,NE,68765,402-582-4879
Paraway Trucking,802 West 1st Street,Ogallala,NE,69153,308-284-2441
Schluter Transportation,616 Us Hwy 6,Friend,NE,68359,402-947-3456
Wiles Trucking,103 8th St,Liberty,NE,68381,402-696-4542
Doug Taylor Trucking,101 Shepard St,Hildreth,NE,68947,308-991-2101
Kingpin Trucking,725 Nw 91st,Lincoln,NE,68528,402-499-7712
Temple Trucking,21801 So 120th St,Hickman,NE,68372,402-613-7326
Dave Hauser Trucking,9200 W Waverly Road,Malcolm,NE,68402,402-796-9581
Extreme Service,3712 Fort Crook Rd,Bellevue,NE,68005,402-214-5230
Maverick Transport,1782 R Road,Central City,NE,68826,308-940-0509
Beeks Transportation,1220 Bluestem Circle,Norfolk,NE,68701,402-379-1360
Wild River Transport,7102 # 2 Otoe Road,Alliance,NE,69301,308-762-8751
Pursley Trucking,33752 Rd 719,Benkelman,NE,69021,308-423-5929
Jat Trucking LLC,49075 887 Road,Oneill,NE,68763,420-336-3002
Km Transportation,1605 Hillview Drive,Norfolk,NE,68701,402-371-3616
Dave's Handyman Services,1111 County Rd R,North Bend,NE,68649,402-652-3749
Paul Lerma Trucking,1313 12th Ave,Scottsbluff,NE,69361,308-631-6755
Ron Warden Trucking,5675 C Rd,Nebraska City,NE,68410,402-873-9376
D L Trucking,640 14th St,Pawnee City,NE,68420,402-852-2366
V & L Transportation,47752 899 Rd,Atkinson,NE,68713,402-775-2563
Dch Transport,9839 Thornwood Circle,Lincoln,NE,68512,402-429-8513
Circle Diamond Carriers,53995 852 Road,Pierce,NE,68767,402-329-4482
Tg Transport,818 14th St,Aurora,NE,68818,402-694-3803
Bar Zz Ranch,86301 522nd Ave,Brunswick,NE,68720,402-842-2081
Triple C Construction,153 E 5th St,Wahoo,NE,68066,402-443-4611
John Frickey Trucking,75865 Rd 329,Grant,NE,69140,308-340-0983
"Psc, Inc.",5020 Hillcrest Dr,Blair,NE,68008,402-426-0260
Brack Trucking,9800 Breagan Road,Lincoln,NE,68526,402-480-2394
Flying H Trucking,Hc 62 Box 21,Gordon,NE,69343,308-282-0361
Concrete Busters,351 N 44th St Apt 601,Lincoln,NE,68503,140-248-6113
Mock Trucking,53846 Hwy 275,Meadow Grove,NE,68752,402-634-2366
Nebraska City Distributing,2410 South 11,Nebraska City,NE,68410,402-873-6278
Hauling Plus,3959 No 40th Ave,Omaha,NE,68111,402-573-3902
G & M Trucking,2965 North 14 Street,Lincoln,NE,68521,402-438-9903
Pony Hill Farms,1796 Co Rd #10,Lyons,NE,68038,402-685-5908
Willie Cook Trucking,1315 Ave H,Kearney,NE,68847,308-237-3042
Dkjs Enterprises,1402 W 2nd,Mccook,NE,69001,308-345-2738
Iskra Trucking,5441 W Leighton Ave,Lincoln,NE,68524,402-770-2767
And All That Trucking,14844 Giles Road Apt 110,Omaha,NE,68138,402-616-6276
B B Enterprises,1817 Robertson Drive,Omaha,NE,68114,402-657-0520
Frisbie Trucking,200 4th St,Utica,NE,68456,402-641-0198
Gcr Transport,12203 William Cr,Omaha,NE,68144,308-730-1297
Wash World Coin Laundries,3010 St Marys Ave,Omaha,NE,68105,402-342-8455
Double H Trucking,2910 Red Barn Drive,Gering,NE,69341,N/A
J & K Transportation,2221 West 2nd Street,North Platte,NE,69101,308-532-4971
Thirsty's Trucking,1503 Howard Ave,St Paul,NE,68873,308-750-1308
Young's Trucking,3207 W State St ,Grand Island,NE,68803,308-750-0346
Aamco Transmissions,2414 N Street,Lincoln,NE,68510,402-476-7681
Leclair Construction Services,9465 Western Plaza #3,Omaha,NE,68114,402-397-3844
Mike Olk Trucking,3178 30 Ave,Columbus,NE,68602,402-910-5757
Mark Turek Trucking,18272 W Husker Hwy,Shelton,NE,68876,308-379-7457
Ktc Transportation,1804 Rd N,York,NE,68467,402-362-2544
Nicholas D Wilson Trucking,231 Road 321,Trumbull,NE,68980,402-743-2351
G & T Trucking,1809 2nd Ave,Sidney,NE,69162,308-254-9511
Cook's Auto,1403 Square Turn Blvd,Norfolk,NE,68701,402-371-7172
B D Trucking,715 North 210th Street #130,Elkhorn,NE,68022,402-289-0194
Gom Trucking,1204 Kingwood,Stanton,NE,68779,402-439-2338
Sq Transport,73572 331 Ave,Imperial,NE,69033,308-882-5649
Beard & Sons Trucking,231 Road East 85,Ogallala,NE,69153,308-284-0930
Brian Sydow Trucking,71751 Rd 355,Stratton,NE,69043,308-276-2114
Rc Trucking,51940 842 Rd,Elgin,NE,68636,402-843-5832
Scott Johnson Trucking,Rr 1 Box 138,Ainsworth,NE,69210,402-387-2522
Terry Wiles Trucking,16940 East Liberty Dr,Liberty,NE,68381,402-696-4528
Irene Transport,3814 295th Trail,Alliance,NE,69301,308-762-9292
Markel Trucking,2630 Road 155,Lodgepole,NE,69149,308-483-5453
Sackville Trucking,85297-564 Avenue,Winside,NE,68790,402-286-3529
Jon Hallsted Trucking,602 Udica,Palmer,NE,68864,308-894-6048
Kaldahl Farms,4495 Hwy 8,Hardy,NE,68943,402-879-1917
Sokol Trucking,330 N C Herny,Valentine,NE,69201,402-376-2831
Husker Express,42299 Hwy 6-34,Arapahoe,NE,68922,308-962-7957
Double A Trucking,8900 East 56th Street,Kearney,NE,68847,308-440-3869
Jaxon Transport,1000 W 1st,Oshkosh,NE,69154,308-778-7238
Tms Trucking LLC,33 Cr 160,Stapleton,NE,69163,308-636-6246
Last Trucking,1306 Ave H,Cozad,NE,69130,308-784-4441
"Guaranteed Clean And Rexco Distributing, Inc.",2330 Keystone Dr Ste 101,Omaha,NE,68134,402-390-0879
Sole Owner,62764 727 Road,Johnson,NE,68378-3540,402-868-6505
Redline Harvesting & Trucking,72494 Ave 338,Enders,NE,69027,308-394-5499
Reicks Trucking,204 West 2nd,Red Cloud,NE,68970,402-746-8260
Noffsinger Trucking,70302 Haigler Rd,Haigler,NE,69030,308-297-3287
Holz Trucking,90112 505 Ave,Lynch,NE,68746,402-569-2354
Dehart Trucking,30580 340th Road,Hazard,NE,68844,308-293-0745
Lazy Hart Trucking,410 Ranke,Kilgore,NE,69216,402-966-2019
Downing Trucking,703 North Hillcrest,Arnold,NE,69120,308-848-4728
Baker Trucking,280 Cr 29 W,Kimball,NE,69145,308-235-5328
Cw Olson Trucking,612 N 4th Ave,Kensaw,NE,68956,402-752-3681
"Hokamp Farms, Inc.",55932 857 Rd,Randolph,NE,68771,402-841-2403
E & C Trucking,63148 711 Road,Humboldt,NE,68376,402-862-2261
3 Brothers Trucking,2027 W 11th Ave,Grand Island,NE,68803,308-379-9703
A & M Express,734 Union St,Wood Lake,NE,69221,402-967-3077
Eliseo Perez Trucking,74 South Street,Gering,NE,69341,308-632-8661
Big Dog Trucking,11035 744 Road,Elm Creek,NE,68836,308-991-6979
A & W Express,701 Pine St,Big Springs,NE,69122,308-289-0140
Laxdal Trucking,605 13th,Auburn,NE,68305,402-274-8549
Anzalone Concrete Service,511 West Centennial Rd,Papillion,NE,68046,402-880-1531
Roy Davison Trucking,402 E 4th St,Lindsay,NE,68644,402-920-2231
Beverly Rich Trucking,5800 Russell Unit 24,Lincoln,NE,68507,402-477-7858
Mike Dean Trucking,39360 Road 716,Indianola,NE,69034,308-340-3789
A J Transport,212 N Harlan,Harvard,NE,68944,402-631-8454
High Voltage Express,2503 Westside Ave,Norfolk,NE,68701,402-992-2844
Ellingson Trucking,552 U Rd,Kearney,NE,68847,308-627-1797
Shriver Trucking,2301 Lynch Ave,Auburn,NE,68305,402-414-5139
Marmolejo Trucking,601 L Street,Bridgeport,NE,69336,956-212-0444
Clausen Truckline,5735 St Paul Ave,Lincoln,NE,68507,402-540-1502
Arrowhead Inn Auto,North Highway 87,White Clay,NE,69365,308-862-4226
Dds Express Trucking,2307 West 42nd #38,Scottsbluff,NE,69363,308-635-8568
Jeff Foltz Trucking,2304 Northeastwood Lot A5,Norfolk,NE,68701,402-316-9519
J & J Transport,110 E 31st St Apt 6,South Sioux City,NE,68776,712-204-6758
Hellbusch Cattle Company Trucking,45031 190th Avenue,Creston,NE,68631,402-285-0230
Reed Anderson Trucking,1223 Elm St,St Paul,NE,68873,308-754-5879
Bob's Trucking,309 S E,Broken Bow,NE,68822,308-872-2206
Chris Steggs Trucking,721 S Eastman Ave,North Platte,NE,69101,308-762-3615
Sandoz Trucking,862 W 2nd,Gordon,NE,69343,308-282-2147
Burnett Trucking,419 S 13th St,Broken Bow,NE,68822,308-870-0667
Dank's,407 1st Street,Deshler,NE,68340,402-365-4202
Jester Express,339 West 9th St,Wahoo,NE,68066,402-443-5881
Becker,88455 Hwy 57,Hartington,NE,68739,402-254-3253
Sperling Trucking,582 19th Avenue,St Paul,NE,68873,308-754-7853
Egle Trucking,612 County Ave,Stratton,NE,69043,308-276-2390
J & J Acosta Trucking,211 Sweetwater,Alliance,NE,69301,308-762-5697
Aguallo Trucking,100704 Cr D,Morrill,NE,69358,308-641-8370
Rbht,117 A Road,Dodge,NE,68633,402-318-1628
Alliance Auto Transport,350 East 15th Street,Alliance,NE,69301,308-762-7968
Ed Magnuson Trucking,1933 Sw 23rd,Lincoln,NE,68522,402-477-5296
L Haug & Sons Trucking,1405 K Street,Gering,NE,69341,308-235-4323
Eugene Poessnecker Trucking,718 Fairway Avenue,Oneill,NE,68763,402-336-5454
Record's Transportation,Hc 2 Box 2,Trenton,NE,69044,308-334-5595
American Lenders Service Co Of Omaha,10002 S 148th Street,Omaha,NE,68138,402-895-7019
Tcs Auto Transport,1342 State Street,Blair,NE,68008,402-533-2578
Pritchard Transport,Rr 1 Box 65a 327 W Webster,Morrill,NE,69358,308-247-2422
Waten Trucking,1491 Elgin Ave,South Sioux City,NE,68776,402-241-0648
Hovorka Trucking,7900 Dodge Road,Hemingford,NE,69348,308-487-3971
Hornung Trucking,Rr 1 Box 88,Arnold,NE,69120,308-848-2839
Two Carat Trucking,8301 N 58th Street Circle Suite B,Lincoln,NE,68517,612-308-3866
J Fritz Farms,473 S Road,Hildreth,NE,68947,308-938-5296
Epp Trucking,Hc 63 Box 17,Brewster,NE,68821,308-547-2469
H & H Land & Cattle Co,80661 Hwy 92,Lyman,NE,69352,308-787-1059
River Road Trucking,2405 W 2nd St,Grand Island,NE,68803,308-380-2306
Mla Distributing,2682 Verda Lane,Sidney,NE,69162,308-254-3442
Evans Trucking,Route 2 Box 107,Loup City,NE,68853,308-745-1447
Woten Trucking,1491 Elgin Avenue,South Sioux City,NE,68776,402-241-0648
R G Francis Transportation,13811 L Street Suite 12,Omaha,NE,68137,402-305-2132
Westcott Farms & Trucking,406 E 6th Street,Ainsworth,NE,69210,402-387-0411
Nyp Trucking,5718 S 148 Court,Omaha,NE,68317,402-894-2113
Parde Trucking,6050 S 96th Rd,Adams,NE,68301,402-988-2000
Alvin's Trucking,911 Court Street,Imperial,NE,69033,308-882-5836
Hamilton Equipment Sales And Service,915 13th Street,Aurora,NE,68818,402-694-2042
Parking Lot Maintenance Service,414 E 24th Street,Kearney,NE,68847,308-234-4441
Affordable Limosine Service,220 South 18th Street,Dakota City,NE,68731,402-987-3358
Gary Maris Trucking,71321 Road 387,Mccook,NE,69001,308-345-5249
Stahl Trucking,606 State Street,Bassett,NE,68714,402-684-3796
Wild Fire Trucking,209 Grant Ave,York,NE,68467,402-363-3886
Chad Bauer Trucking,202 6th Street,Gothenburg,NE,69138,308-537-3007
Stansmit Trucking Transport,13911 Gertrude Circle,Omaha,NE,68138,402-861-6982
Jade's Hotshot & Auction Service,3 Dodd Roade,Crawford,NE,69339,308-665-1187
Lee's Lowboy Service,6950 N 94th Plaza,Omaha,NE,68122,402-572-0354
Transfer 88,7609 N 27th Street,Omaha,NE,68112,402-455-7971
Gregorio Chavez Trucking,1426 13th Ave,Mitchell,NE,69357,308-623-2475
All Hauling,2503 N 58th St,Omaha,NE,68104,402-551-5218
Meta Trucking,5376 Hwy 20,Plainview,NE,68769,402-582-4564
Mike Searles & Son Trucking,California & 2nd Street,Gurley,NE,69141,308-884-2493
H And J Trucking,3610 S County Rd 30,Valley,NE,68064,402-720-5484
Felix Trucking,800 E 11th Street,Scottsbluff,NE,69361,308-635-1830
Larsen Carrier Serv,55968 845th Road,Norfolk,NE,68701,402-379-1405
Gateway Auto Sales,5885 South 118th Circle,Omaha,NE,68137,402-932-0500
Winning Circle Trucking,23688 Hwy 30,Columbus,NE,68601,402-563-1515
L & A Transfer,43399 Rd 762,Lexington,NE,68850,308-324-4062
R & Q Trucking,Po Box 634,Alliance,NE,69301,308-762-9275
Pepperidge Farm Distributor,1211 S 122nd Plaza 319,Omaha,NE,68144,402-691-8183
Travis Vanpelt Trucking,321n 2nd Street,Indianola,NE,69034,308-364-2425
Fiester Trucking,704 3rd Ave,Minatare,NE,69356,308-783-1844
C Moore Trucks,2704 S 13th Street,Omaha,NE,68108,402-689-8610
Bryans Team Moving,13519 Atwood Ave,Maha,NE,68144,402-813-5800
Korb & Son Trucking,940 E 3rd Street,Superior,NE,68978,402-879-3653
Stewart Trucking,Rr 2 Box 453,North Platte,NE,69101,308-368-5808
Sem Trucking,105 E Grandview Drive,Norfolk,NE,68701,402-371-9272
P & R Trucking,3810 Groves Road,Bellevue,NE,68147,402-734-8037
Simpson Trucking,2281 County Rd 13,Lyons,NE,68038,402-687-2742
Shark Transportation,904 N Beadle Street,Papillion,NE,68046,402-593-9250
S E Sinks Bar X S,10758 County Road 7,Morrill,NE,69358,308-247-2886
"Roundtree Trucking, Inc.",2901 Erskine Street,Omaha,NE,68111,402-453-0923
W An D Trucking,1206 Plymouth St Apt B,Bellevue,NE,68123,402-290-8030
Daniels Trucking,406 Creswell Place,Alliance,NE,69301,308-762-9318
Sysel Trucking,2235 St Marys Ave 207,Omaha,NE,68105,888-716-8737
Fun Services,701 S 75th Street,Omaha,NE,68124,402-393-7393
Sayer Farm & Ranch Trucking,41141 Dr 720,Cambridge,NE,69022,308-697-3246
Double R Trucking,615 4th Terrace,Nebraska City,NE,68410,402-873-3294
Lds Transport,1865 Horejshi Rd,Rogers,NE,68659,402-615-0764
Platte Valley Trucking,17514 Park Circle,Bellevue,NE,68123,402-679-0777
Silver Streak Trucking,6564 W Cedar Road,Dewitt,NE,68341,402-683-6445
A & B Shuttle,9999 State Street,Omaha,NE,68122,402-331-7558
Schuler Farms,1910 County Rd Q,Fremont,NE,68025,402-720-0107
Mid Nebraska Transportation,1124 W 12th Street,Hastings,NE,68901,402-463-1511
Martensen Trucking,Rt 1 Box 96,Ericson,NE,68637,308-346-5613
007 Custom Hauling LLC,150865 County Road 26,Gering,NE,69341,308-436-9305
R & E Trucking,2721 N 38th Street,Lincoln,NE,68504,002-474-4164
Svatos Trucking,600 9th St,Wisner,NE,68791,402-212-5323
Wild Man Trucking,Hc 32 Box 321,Valentine,NE,69201,402-389-0646
Doty Trucking,Rr 2 Box 367,Bayard,NE,69334,308-586-3085
Buds Body Shop,211 W 6th Street,South Sioux City,NE,68776,402-494-8906
R & C Trucking,516 S 1st St,Oneill,NE,68763,402-336-1559
Freight Service,6160 Grover Street,Omaha,NE,68106,402-630-0127
Emp Trucking,Rr 1 Box 74,Pender,NE,68047,402-533-4699
Jackson Transportation Co,1071 41st Avenue,Columbus,NE,68601,402-564-4005
Bills Creek Express,3285 W Belvedere Rd,Beatrice,NE,68310,402-223-4040
Mike Nelson Trucking,1430 Watson Street,Fremont,NE,68025,402-720-1030
Frostrom Trucking,18801 Lafayette Street,Washington,NE,68068,402-238-2307
G & G Transport,358 W 7th Street,Wahoo,NE,68066,402-480-4004
Thompson & Dad Trucking,2088 Archer Rd,Archer,NE,68816,308-795-2392
Kroy,135 Spruce Street,Waco,NE,68460,402-362-3058
Double J Trucking,204 N Walnut,Arnold,NE,69120,308-848-2877
Walker Trucking,310359 Green Buck Road,Minatare,NE,69334,308-783-2714
F Martinez Trucking,327 2nd Avenue,Bayard,NE,69334,N/A
M & H Express,5001 N 12th St,Norfolk,NE,68701,402-371-8302
Action Auto Concepts,4857 So 137th Street,Omaha,NE,68137,402-896-6611
Jam Trucking,17512 Rd 56,Oshkosh,NE,69154,308-772-3631
Goforth Truck & Trailer Repair LLC,3301 South Willow Street,North Platte,NE,69101,308-534-6496
Sherman Trucking,2205 North Sheridan,North Platte,NE,69103,308-340-0820
Vision Logistic Services,P O Box 356,Fairmont,NE,68354,402-438-1313
Rudloff Trucking,519 Main Street,Crawford,NE,69339,308-665-1317
Muddy River Farm,7244 S 148th Road,Adams,NE,68301,402-209-2747
Auto Express,1041 Rd E Hwy 30,Schuyler,NE,68661,402-352-3233
K W Trucking,Rt 1 Box 249,Grant,NE,69140,308-352-2515
Mchargue Trucking,1678 Hord Lake Rd,Central City,NE,68826,308-946-2031
3 Reasons Trucking,1510 Bell Street,Beatrice,NE,68310,402-223-4335
Ez Trucking,401 Caldwell Street,Deweese,NE,68934,402-262-2306
Flohr Trucking Co,830 5th St Pobox 96,Gurley,NE,69141,308-884-2508
Hirschbach Logistics,920 W 21st Street,South Sioux City,NE,68776,402-494-5000
Homrighausen,391 Ferguson Rd,Whitney,NE,69367,308-667-2078
Bloomquist Trucking,203 Shannon,Mclean,NE,68747,402-337-0245
Pearson Trucking,717 W 29th Street,Kearney,NE,68847,308-234-2033
Sargent Family Transport,2759 Star Lane,Columbus,NE,68601,402-610-1230
Jet Trucking,Po Box 34846,Omaha,NE,68134,402-964-0304
A & D Express,3230 Pederson Drive,Omaha,NE,68144,402-330-1468
Toombs Transportation,6410 Sprague St,Omaha,NE,68104,402-203-3152
Ebbers Trucking,165 N Harrison,Hallam,NE,68368,402-787-6977
Laudenklos Trucking,154 Gleason Street,Monroe,NE,68647,402-495-2745
Midwest Transport,926 6th St,Fullerton,NE,68638,308-536-2877
Sj Trucking,18196 Rd 74,Oshkosh,NE,69154,308-772-3930
Dennys Lawn Sprinkler Service,1718 N 47th Street,Omaha,NE,68104,402-556-8931
Klabenes Trucking,403 Iowa Street,Clearwater,NE,68726,402-485-1743
H & J Trucking,1706 E 11th Road,Aurora,NE,68818,402-694-2116
Hauge Trucking,49445 Husker Rd,Shelton,NE,68876,308-647-6540
Friesen Motor Service,117 W 3 Road,Fairbury,NE,68352,402-729-3993
Snapp Livestock Transfer,2627 W N River Rd,North Platte,NE,69101,308-534-2939
D & G Trucking,309 4th Street,Ceresco,NE,68017,402-665-2289
Keps Trucking,Rd 82,Broadwater,NE,69125,308-489-5601
R & C Trucking,2523 N 78th Avenue,Omaha,NE,68134,402-689-9269
Howe Now Delivery,1214 Murray Pt,Beaver Lake,NE,68048,402-235-3990
Leseberg Auto Sales,820 N 6th Street,Beatrice,NE,68310,402-223-5626
High Plains Transport,710 O Street,Bridgeport,NE,69336,308-262-1082
Macumber Hay Moving,Hc 62 Box 41a,Gordon,NE,69343,308-282-2137
Night Flyer Transport,15 Filer,Gibbon,NE,68840,308-293-5568
Glf Trucking,747 E 2nd St,Minden,NE,68959,308-832-1582
Central Nebraska Transport,1412 E 33rd St,Kearney,NE,68847,308-390-6764
D & G Distributing,5704 N 117th Circle,Omaha,NE,68164,402-496-0228
"B & H Backhoe Service, Inc.",56028 845th Road,Norfolk,NE,68701,402-565-4336
Berner Farming & Trucking,316 S Park Street,Dalton,NE,69131,308-377-2040
L & J Trucking,302 W 1st,Big Springs,NE,69122,308-889-3148
Randy L Brown Trucking,117 Arlene Drive,Scottsbluff,NE,69363,308-635-0148
Hankinson Trucking,P-2 Meadons Trailer Pk,Alliance,NE,69301,308-762-2479
Midwest Delivery,1102 Charolais Drive,Norfolk,NE,68701,N/A
Veskerna Transportation,1026 O St,Ord,NE,68862,308-728-3510
Richard Trucking LLC,337 Cr G,Ashland,NE,68003,402-660-9740
"Sleeping Giant, Inc.",1220 West 18th St,Hastings,NE,68901,402-462-6343
Bam Bam Express LLC,H C 13 Box 23,Valentine,NE,69201,402-376-2621
Ak-sar-ben Tv Service Co,3021 N 93rd Street,Omaha,NE,68134,402-572-8010
Mattman Trucking,1120 East Ave ,Holdrege,NE,68949,308-995-3974
Ron Johnson & Son Trucking,Rt 1 Box 24c,Madrid,NE,69150,308-326-4494
B & W Trucking,Rt 2 Box 179,Cedar Rapids,NE,68627,308-358-0161
Stingley Trucking,698 Hwy 32,West Point,NE,68788,402-372-2062
John Lee Trucking,Hc 84 Box 52,Gordon,NE,69343,308-282-1264
U-line Express,20374 Husker Drive,Gretna,NE,68028,402-332-0991
Kevin Lieb Trucking,807 Kendall St,St Paul,NE,68873,308-754-5152
Fox Trenching Service,401 E Hiway 275,Tilden,NE,68781,402-368-2136
Dan Falkerson Trucking,5114 Arrow Rock Drive,Omaha,NE,68157,402-738-8823
D&w Enterprises,3204 S 32nd Ave,Omaha,NE,68105,402-933-1992
Davis Trucking,29600 E Kaneb Rd,Brady,NE,69123,308-529-2964
H&h Service Advantage,3300 N 20th Street,Lincoln,NE,68521,402-476-0386
J D Flower Trucking,1011 G Street,Fairbury,NE,68352,402-729-3895
A-1 Services,1215 North Vine Street,North Platte,NE,69103,308-532-0535
Ginn Trucking,166 Main Street,Trumbull,NE,68980,402-469-4929
Frank Nelson Trucking,3015 Dakota Avenue,South Sioux City,NE,68776,402-494-2665
Burney Trucking,6771 Perkins Rd,Alliance,NE,69301,308-762-1673
Barrett Trucking,1223 Broadway,Imperial,NE,69033,308-882-4587
O-k4 Trucking,Hc74 Box 4,Callaway,NE,68825,308-872-6984
Wiese Rentals & Sales,1210 Royal Dr,Papillion,NE,68046,402-333-6655
Reinart Trucking,1883 230th Street,Emerson,NE,68733,402-695-2132
Meyer Trucking,633 W 8th Street,York,NE,68467,402-366-9781
Harms & Sons Trucking,182 4th St,Chappell,NE,69129,308-874-2435
Dean Stiefel Trucking,Hc 78 Box 14a,Crookston,NE,69212,402-376-5270
Hal Jensen Trucking,3612 Kenosha Rd,Plattsmouth,NE,68048,402-235-3504
Filipi Trucking,1296 Sw 142nd Road,Wilber,NE,68465,402-821-2095
Double A Transport,2414 133rd Rd,Shelby,NE,68662,402-527-5858
Runnin In The Red Truckin,Rr 2 Box 187,Superior,NE,68978,402-879-4092
Baker Transport,3916 Avenue F,Kearney,NE,68847,308-236-7125
L&l Transport,6221 N 34th St ,Lincoln,NE,68504,402-483-4505
Bullseye Trucking,816 East Londonderry Drive,Oneill,NE,68763,402-289-4149
Moreno Trucking,509 Sweetwater,Alliance,NE,69301,308-762-2369
Stradleys,309 Johnson,Hubbell,NE,68375,402-324-4188
Harv's Transport,80024 Abner St,Scottsbluff,NE,69361,308-632-6769
"Clean Sweep Parking Lot Services, Inc.",8505 B Madison St,Omaha,NE,68127,402-593-8708
Cox Trucking,504 Elenora Dr,Valentine,NE,69201,605-378-2579
2 K Transportation,902 N Clay Box 544,Harvard,NE,68944,402-772-7781
Barbers Trucking,6251 Sarpy Rd,Alliance,NE,69301,308-762-4465
Rods Truck Farm,304 East Capital Avenue,Grand Island,NE,68801,308-390-6512
Triplett Furniture Distribution,54040 56th Road,Shelton,NE,68876,308-380-2997
Trucks Unlimited Plus,S Hwy 92,Loup City,NE,68853,308-745-0322
Horseshoe Express,123 N Reed,Beatrice,NE,68310,402-223-7614
Meinecke Trucking,918 8th St,Saint Paul,NE,68873,308-750-0104
Benson Trucking,37872 520 Ave,St Edward,NE,68660,402-678-2237
Triple S Transportation,11650 747 Road,Elm Creek,NE,68836,308-856-4340
Lr7 Land & Transportation,304 S 13th,Hebron,NE,68370,402-768-2270
Pilmore Trucking,303 Oakbrook,Norfolk,NE,68701,402-379-0211
Jeremy Moore Trucking,1504 Independence Ave,Lexington,NE,68850,308-325-5864
Kyle Brown Trucking Co,2208 Th Ave,Kearney,NE,68845,308-233-0487
Busyman Trucking,901 Q Street,Aurora,NE,68818,402-694-6394
Maruska Trucking,3525 Schroeder Avenue,Grand Island,NE,68803,308-381-0825
David P Raya Trk,175 N Elm St,Shelby,NE,68662,623-521-9970
E & E Delivery,3209 Golf View Dr,Norfolk,NE,68701,402-371-5591
P T Trucking,2008 Rd U,Ohiowa,NE,68416,402-295-2566
Jedd M Dickman Trucking,42369 Road 739,Elwood,NE,68937,308-325-5815
Bills Classic Auto,3562 W Old Hwy 30,Grand Island,NE,68803,308-382-6582
Pttrans,150 N Center Street Suite 209,Reno,NE,89501,916-837-1370
Double T Trucking,100 N Osborn Ave,Oakland,NE,68045,402-685-6455
Beck Transfer,8100 Roca Rd,Roca,NE,68430,402-309-5430
Walnut Hill Mgmt & Const Service,3226 South 131 St Cir,Omaha,NE,68144,402-660-3438
D&t Trucking,809 East G Street,Mccook,NE,69001,308-345-5870
Kienke Trucking,H C 80 Box 50,Springview,NE,68778,400-497-2309
Watson Disposal Service,614 West 14,South Sioux City,NE,68776,402-494-2610
Siefker & Sons Trucking,901 Gaslight Lane,Lincoln,NE,68521,402-474-6452
A1 Services,2722 Lillian Street,Bellevue,NE,68147,402-932-7463
Columbus Transmission,36058 175th Ave,Columbus,NE,68601,402-564-7754
Jb Car Hauling,201 S Garfield,Weeping Water,NE,68463,402-267-5413
Brandon Kee Trucking,50010 Elm Island Rd,Shelton,NE,68876,308-468-5799
W B Horse Transport,Rt 1 Box 125 A,Indianola,NE,69034,308-364-2743
Mewis Transportation,5602 Ruggles St,Omaha,NE,68104,402-934-6044
Kriha & Kriha,1455 11th St,Gering,NE,69341,308-665-5192
Dickau Trucking,Hc 63 Box 38,Brewster,NE,68821,308-547-2494
Big R Xpress,402 W 2nd Street,Laurel,NE,68745,712-389-2745
Heartland Dumpster Service,2902 N 148 Street,Omaha,NE,68116,402-991-4777
Mels Ag Service,525 Rose Road,Dannebrog,NE,68831,308-226-2418
Bob Lynn Trucking,3529 C Road,Otoe,NE,68417,402-269-2020
Niemeier Trucking,404 Smith Ave,Elwood,NE,68937,308-785-2020
Automotive Machine,1510 9th Street,Columbus,NE,68601,402-564-0034
Johnson Trucking,5039 Rd 59 E,Dix,NE,69156,308-682-5000
Darrin Sprague Trucking,2017 25 Rd,Kearney,NE,68847,308-380-2228
Heir-leif Trucking,1861 Cnty Rd O,Fremont,NE,68025,402-721-3828
Hansen Logging,103 S 2nd,Plainview,NE,68769,402-582-4492
Be 1 Service,970 South 72nd St,Omaha,NE,68114,402-932-3476
A & R Trucking,3641 Q Street,Omaha,NE,68107,N/A
Gregs Auto Sales,1308 W 24th Street,Kearney,NE,68845,308-237-2651
King's Transportation,623 8th Ave,Nebraska City,NE,68410,402-873-8818
Hauptman Trucking,107 Spruce Street,Valparaiso,NE,68065,402-784-2261
G M Transport,Rr 1 Box 38a,Ericson,NE,68637,308-653-5477
Schrad Trucking,616 13th Street,Wisner,NE,68791,402-529-6155
Kudera Trucking,1451 Rd 9,Schuyler,NE,68661,402-352-2928
G & F Trucking Co,504 E 11th Street,Grand Island,NE,68801,308-381-3637
Jaybird Express,Hc 32 Box 23,Alliance,NE,69301,308-762-5722
Sack Trucking,1024 Liberty Rd,Saint Paul,NE,68873,308-754-4470
Billings Trucking,85865 515 Ave,Orchard,NE,68764,402-893-2155
Avila's Trucking,95 Jerry Drive,Scottsbluff,NE,69361,308-630-0657
S & S Auto Transporters,8545 Hackamore Dr,Kearney,NE,68845,308-893-4178
Wilson Trucking,2335 25th Rd,Hildreth,NE,68947,308-938-3035
T N A Trucking,10921 Lancashire Circle,Waverly,NE,68462,402-304-1850
T & T Trucking,414 E Delaware St,Grand Island,NE,68801,308-398-2164
Alandru Belgians,1728 Road 29,Rosalie,NE,68055,402-687-4181
Kw Trucking,512 E 35th St,Scottsbluff,NE,69363,308-641-1117
Salazar Trucking,411 Mississippi ,Alliance,NE,69301,308-762-3162
Tuxter Transport,12121 Rd 32,Sidney,NE,69162,308-254-4439
Jake's Trucking,Box 275,Clearwater,NE,68726,402-485-2748
Blue Wolf Trucking,704 E 4th St,Ogallala,NE,69153,308-284-2403
Allard Cattle Services,2372 Rainbow Heights Dr,Alliance,NE,69301,308-762-5881
Acosta Trucking,5811 Sarpy Rd,Alliance,NE,69301,308-762-8134
Movers Not Shakers,13209 I Street,Omaha,NE,68137,402-614-9770
Ken Roudebush Trucking,204 W Ave J,Oshkosh,NE,69154,308-772-4650
Noland Trucking,111 W 2nd St,Oshkosh,NE,69154,308-772-4558
Dickman Trucking,117 West Hwy 30,Maxwell,NE,69151,308-582-4636
Neiman's Well Service,1411 West 5th,Ogallala,NE,69153,308-284-6016
Tim Vedder Trucking,3301 W 19th St,N Platt,NE,69101,308-520-3398
Kurt Ragland Trucking,5020 W Condor Ln,Lincoln,NE,68528,402-470-3985
J & T Trucking,50501 County Road 3,Lyman,NE,69352,N/A
Riley's Auto Sales,2912 S Locust St,Grand Island,NE,68801,308-398-1780
Mullenhoff Trucking,48303 115 Ave,Leigh,NE,68643,402-487-9998
M & M Express,87287 490th Ave,O Neill,NE,68763,402-336-3049
Brian Martin Trucking,71865 Hiway 4,Steinauer,NE,68441,402-304-1389
Ryann Express,1223 Koenigstein,Norfolk,NE,68701,402-379-7875
Midwest Geothermal,2910 S 57th St,Lincoln,NE,68501,N/A
Don Zak,46540 North Jaguar Rd,Genoa,NE,68640,402-993-2867
Steve Hubl Trucking,18565 South Marian Road,Blue Hill,NE,68930,402-756-2646
Urban Transportation,215 So 7th St,Ulysses,NE,68669,402-549-2793
"Teeter Transport, Inc.",7545 Main Street,Ralston,NE,68127,402-933-3618
A & M Trucking,1001 Main St,Plattsmouth,NE,68048,N/A
Aas LLC,306 N 5th Street,Page,NE,68766,402-338-5474
Lerwick Custom Services LLC,190852 Stegall Rd,Lyman,NE,69352,308-247-2043
Twl Trucking,206 West River Street,Brady,NE,69123,308-584-2304
Al's Hauling And Moving Company,6117 Parklane Drive,Omaha,NE,68104,402-932-2916
Scott's Trucking,615 D Street,Shelton,NE,68876,308-647-5592
Larry Sayer Trucking,1330 10th Avenue,Kearney,NE,68845,308-237-5445
Chisholm Trucking,Rr 2 Box 13c,Auburn,NE,68305,402-274-2459
G And L Trucking,2120 East Avenue,York,NE,68467,402-362-6224
H & M Ff LLC,#6 Summerhaven Lake,Kearney,NE,68847,308-832-0677
Ryan Ridenour Trucking LLC,36361 Yaryan Trail,Mullen,NE,69152,308-546-2878
4-a Trucking,4658 Rd 109,Gurley,NE,69141,308-884-2415
Beaudette Trucking,2872 L Ave,Walthill,NE,68067,402-846-5148
Buhr Pig Express,6010 S 43rd St,Lincoln,NE,68516,402-520-4335
James H Fuhrman Trucking,305 N Park St,Bassett,NE,68714,402-684-2369
L & R Trucking,Hcr 62 Box 38,Hayes Center,NE,69032,308-286-3481
Coffey Express-o,209 Road M,Mccool Junction,NE,68401,402-724-2344
Heath Bish Trucking,406 West 6th Rd,Giltner,NE,68841,402-849-2549
J & J Trucking,110 Inman Street,Seneca,NE,69161,308-639-3279
Spearman Trucking,611 Myoma St,Hazard,NE,68844,308-452-3614
D & S Auto Center,West Highway 20,Hay Springs,NE,69347,308-638-7453
Marston Trucking,1504 W 10th,Mccook,NE,69001,308-340-1549
Griffith Trucking,1503 North N Rd,Aurora,NE,68818,402-694-3954
Randy Way Trucking,Rt 4 Box 191,North Platte,NE,69101,308-532-7266
D J's Auto,224 N 28th,Lincoln,NE,68503,402-437-6879
Kittelson Trucking,7114 Culwells Ct,Lincoln,NE,68516,402-327-0116
V & W Trucking,Rt 1 Box 52,Verdon,NE,68459,402-883-2179
Hauxwell Farms,71386 Road 385,Mccook,NE,69001,308-345-1402
Grand Island Container Service,631 East South Front Street,Grand Island,NE,68802,308-384-9343
D D T I,1212 West 2nd Unit C,Grand Island,NE,68801,308-380-5111
Tomcat,708 P Street,Tekamah,NE,68061,402-374-1249
J-mat Express,14a Lakeview Acres Dr Lot 45,Elwood,NE,68937,308-785-2139
Cawley Carriers,Rt 3 Box 199,Tecumseh,NE,68450,402-335-2609
J & R Trucking,Box 156,Clearwater,NE,68726,402-485-2426
Dave Dishman Hay Hauling,Hc 84,Lexington,NE,68850,308-324-7980
Davenport Trucking,2121 M Street,Ord,NE,68862,308-750-4222
Don Linders Trucking,103 Rushmor Ave,Rushville,NE,69360,308-327-2905
J & M Trucking,Box 296,Dalton,NE,69131,308-377-2349
Charles Trucking,Hc 66 Box 66,Potter,NE,69156,308-879-4201
Payne Trucking,712 East 7th St,Lexington,NE,68850,308-324-6029
E J Zimmer Trucking,Box 67 Rr 1,Fullerton,NE,68638,308-536-2943
Anderson Trucking,Route 2 Box 7,Axtell,NE,68924,308-743-2529
Craven Trucking,Hc 73 Box 13,Newport,NE,68759,402-244-5430
Golden Valley Trucking,50462 Us Hwy 275,Ewing,NE,68735,402-340-2427
Witchway Trucking,5459 Garland Street,Lincoln,NE,68504,402-466-9686
Kaczmarek Trucking & Rigging,5118 Rd 46,Kimball,NE,69145,308-235-2085
Mule Barn Express,809 2nd Ave,Eddyville,NE,68834,308-858-4461
Devall Heavy Haul,1203 N 2nd Street,Oneill,NE,68763,402-336-3120
H & B Service,1316 N 24th St,Omaha,NE,68102,402-451-3660
K & T Transportation,1119 E 4th,Grand Island,NE,68801,308-381-0600
P & L Trucking,Rr 2 Box 102,Oshkosh,NE,69154,308-284-6468
Rathman Trucking,Box 364,Oshkosh,NE,69154,308-635-0643
"Transportation Dreams, Inc.",2100 Yolande,Lincoln,NE,68521,402-477-4929
Dans Auto & Salvage,Hwy 4 Box 671,Humboldt,NE,68376,402-862-2968
Gary Johnson,1018 Hancock St,Holdrege,NE,68949,308-995-4283
Red E Transport,Hc 65 Box 49,Rushville,NE,69360,308-638-7481
Just One Trucking,515 Tibbals,Holdrege,NE,68949,308-995-8726
Brummond Trucking,1422 D Street,Tekamah,NE,68061,402-374-2212
Cliff Hopping Trucking,1601 N Sheridan Ave,North Platte,NE,69101,308-539-1272
Powder Horn Transportation,5118 W Kent St,Lincoln,NE,68524,402-470-0491
Ladely Trucking,906 West 11th Street,Lexington,NE,68850,308-324-4031
Wroblewski Trucking,Box 8,Arcadia,NE,68815,308-789-6376
Jenral Livestock & Trucking,P O Box A,Thedford,NE,69166,308-645-2665
Claypool Trucking,218 N Center Street,Gibbon,NE,68840,308-468-5176
Devil's Duce,503 East Grant,Wausa,NE,68786,402-586-2149
Darin Danielson Trucking,808 South A Road,Doniphan,NE,68832,402-845-2310
Twin City Trucking,1010 12th St,Gering,NE,69341,308-635-0643
Peterson & Wurtele Trucking,5655 H Road,Nebraska City,NE,68410,402-873-4386
Aufenkamp Trucking,64474 730road,Brownville,NE,68321,402-274-5769
William Volkmer Trucking,421 East Maplewood,Exeter,NE,68351,402-266-2391
Petersen Trucking,504 E 16th,Lexington,NE,68850,308-324-3373
Larry L Beatty Trucking,119 Pine St,Dix,NE,69133,308-682-5551
Dan Stukenholtz Trucking,Rr 1 Box 120,Peru,NE,68421,402-274-4135
Stan's Recycling & Salvage,525 North 12th,Geneva,NE,68361,402-759-3208
"Auto Specialist, Inc.",8261 West Center Rd,Omaha,NE,68124,402-393-9009
Don Poole Trucking,2117 S 298th St,Elmwood,NE,68349,402-643-4778
Gray Trucking,12516 S 132nd Street,Louisville,NE,68037,402-234-7288
Dugan Trucking,Rr 1 Box 84,Greeley,NE,68842,308-428-4301
K & T Transportation,Rural Route 3,Beatrice,NE,68310,402-476-7671
Neel Trucking,11538 Rd 56,Dalton,NE,69131,308-377-2551
Stewart Farms,1457 240th St,Emerson,NE,68733,402-698-2119
Meyers Trucking,809 Arbor Drive,South Sioux City,NE,68776,402-494-2903
"Blue Sky, Inc.",1710 Cedar,Gering,NE,69341,308-436-2331
Huettner Truck Lines,Rr 1 Box 68,Verdon,NE,68457,402-883-2356
Road King Trucking,5062 S 108th St #111,Omaha,NE,68137,402-449-1540
Smokes Trucking,2109 Ave C,Cozad,NE,69130,308-325-1720
Bonnie's Fantasy Truck Lines,3021 Pleasant Drive,Bellevue,NE,68147,402-734-9663
D & T Trucking,5062 Ft Kearney Road,Grand Island,NE,68801,308-384-7427
Bowley Trucking,13986 W South River Rd,North Platte,NE,69101,308-539-2317
Joman Express,Rr 1 Box 157,Table Rock,NE,68447,N/A
Mcdonald Trucking,53837 887 Rd,Bloomfield,NE,68718,402-373-4517
Plejdrup Trucking,3870 N Ne Hwy 11,Cairo,NE,68824,308-485-4497
Terry Woosley Trucking,510 W 20th St,Lexington,NE,68850,308-746-0357
Faith Trucking,306 West H Street,Mccook,NE,69001,308-340-9018
Jim West Trucking,1815 West 6th,North Platte,NE,69101,308-534-4233
T L Hass Trucking,105 E 10th,Wahoo,NE,68066,402-443-3038
Robert Larkin Trucking,610 W 26th St,S Sioux,NE,68776,N/A
M & J Trucking,601 E Eisenhower Ave,Norfolk,NE,68701,402-371-2235
Diaz Trucking,Rr 1 Box 162 C,Hershey,NE,69143,308-368-7330
Swarts Enterprises,16555 Adams St,Lincoln,NE,68527,402-486-0831
J R Beemer Trucking,Rr P O Box 1297,Imperial,NE,69033,308-882-4547
B & R Trucking,74265 Rd 409,Farnam,NE,69029,308-569-2531
Lewis Trucking,Rr #1 Box 54,Table Rock,NE,68447,402-839-2148
Carey Mobile Home Transporting,#5 Hasbrouke Ct,Odessa,NE,68861,308-237-0922
Bell Transport,1036 Prinz Street,West Point,NE,68788,402-372-3115
Flat Mountain Express,4 Mi W 1 4 Mi N,Sutherland,NE,69165,308-386-2145
M & C Transportation,Rt 1 Box 142,Firth,NE,68358,402-643-4778
R C Fuller Transportation,1236 So 14th Street,Lincoln,NE,68502,402-643-4778
Last Frontier Trucking,Gen Del,Orchard,NE,68764,402-893-2069
Hard-rock Express,240 West Reo Road,Lincoln,NE,68505,402-643-4778
Ron Kohl Trucking,1324 W 9th,North Platte,NE,69101,308-530-5380
Miller Transport,605 Main St,Fairmont,NE,68354,402-268-6561
Jt&sons Trucking,6305 N 49th Ave,Omaha,NE,68104,402-451-1022
Rdg Trucking,Highway 61 & 6,Imperial,NE,69033,970-867-0245
Bailey Transportation,13202 Cook St,Plattsmouth,NE,68048,402-298-7200
Friesen Trucking,Rt 2 Box 69,Imperial,NE,69033,308-352-2458
M M B L X Trucking,2121 Douglas,Omaha,NE,68102,402-618-1076
G R Trucking,809 Platte Avenue,York,NE,68467,402-362-3398
Twidwell Trucking,1604 West 3rd,North Platte,NE,69101,308-534-0155
Kilpatrick Trucking,Hc 69 Box 18b,Parks,NE,69041,308-423-5462
Lynn E Robeson Trucking,4328 N 20th St,Lincoln,NE,68521,N/A
Jt Farm,17540 Road 58,Oshkosh,NE,69154,308-772-0194
Dave Svatos Trucking,216 E Hiwy 45b,Ewing,NE,68735,402-626-7512
Caseley's Carriers,4200 L Street,Lincoln,NE,68510,402-508-0788
Ziegenbein Trucking,405 O St,Neligh,NE,68756,402-887-4920
Hildee Trucking,Rt 1 Box 46,Maywood,NE,69038,308-362-4832
Baker Trucking,2187 Elm Road,Superior,NE,68978,785-875-4415
All-star Moving & Storage,3529 S 61st Ave Cir,Omaha,NE,68106,402-551-6700
Wissmann Trucking,511 Highland Avenue,Bertrand,NE,68927,308-472-5156
Stevens Trucking,210 Helen Street,Cordova,NE,68330,402-576-3044
Freedom Express,105 N Wetzel,Grand Island,NE,68801,308-389-3295
Dc Express,Rr 2 Box 398a,North Platte,NE,69101,308-534-4674
Scott Kloepping Trucking,1413 M St,Cozad,NE,69130,308-784-3748
Moseman Trucking,102 East 10th St,Okaland,NE,68045,402-685-5672
Landholm Transfer,831 N Main,West Point,NE,68788,402-372-5197
Running J Trucking,Rr #1 Box 34,Kennard,NE,68034,402-427-7127
Moore Trucking,13560 Lake St,Omaha,NE,68164,402-492-4309
Pvh Trucking,Rr 1 Box 60,Mason City,NE,68855,308-732-3490
Texas Rose Express,P O Box 71,Nebraska City,NE,68410,402-751-2758
Lone Rider Express,257 5th Street,Creston,NE,68631,402-920-1257
Daytona Express,Rt 1 Box 34a,York,NE,68467,402-362-4019
Specialized Trucking,9764 Cady Avenue,Omaha,NE,68134,402-498-8133
Jurgens Trucking,1800 N Main St,Madison,NE,68748,402-454-2475
Snack Distributing Co,2595 Riverside Road,Ayr,NE,68925,402-463-4631
Darrell Naderhoff Trucking,Rt 1 Box 97,Adams,NE,68301,402-788-2754
Roberts Trucking,3211 No 205th Street,Elkhorn,NE,68022,402-289-4157
"Concept Services, Inc.",4514 S 67th Street,Omaha,NE,68117,402-597-2620
R D M Transport,611 E 2nd Street,Ogallala,NE,69153,970-286-9473
Deaver Trucking,743 1st Ave,Bayard,NE,69334,308-586-2148
Doug Zach Trucking,Box 202,Humphrey,NE,68642,402-923-1562
Ms Trucking Co,3400 Freemont Street,Whitney,NE,69367,308-667-1707
Travis Land Trucking,Rt 1 Box 4f,Brady,NE,69123,308-584-3387
Brundige Trucking,407 Grand Ave,Callaway,NE,68825,308-836-2331
Tk's Cemetery Services,2304 W John,Grand Island,NE,68803,308-380-0298
H & R Auto Repair,1102 North 20th Street,Omaha,NE,68102,402-341-9343
Bernard Asbra Trucking,303 East 2nd Street,Laurel,NE,68745,402-256-3264
Triple J Trucking,22203 A Street,Eagle,NE,68347,402-781-2114
Dulitz Transfer,Rr,Scotia,NE,68875,308-728-7719
Barnard Trucking,P O Box 10,Champion,NE,69023,308-882-4285
Kemper Trucking,Hc 63 Box 40,Dunning,NE,68833,308-538-2644
Davis Trucking,1512 Putter St,O Neill,NE,68763,402-340-6026
Abc Transport,10601 South 56th St,Lincoln,NE,68516,402-423-3034
Mark's Trucking,Hc 15 Box 45a,Valentine,NE,69201,402-376-1479
Ogier Trucking,Rt 1 Box 67,Hershey,NE,69143,308-368-5208
Thomsen Trucking,58470 852 Rd,Wakefield,NE,68784,402-287-2312
Carlson Transportation,1207 6th St,Columbus,NE,68601,402-910-5180
Potmesil Trucking,910 W 10th St,Alliance,NE,69301,308-762-5624
R Weichel Trucking,57540 Y Road,Plymouth,NE,68424,402-656-3035
Schmid Trucking,3625 Skyline Dr,Scottsbluff,NE,69361,308-635-0125
Raamm Trucking,Po Box 98,Hershey,NE,69143,308-534-6759
Noltuk Auto Express,Hc 80 Box 16a,Ellsworth,NE,69340,308-282-1546
Farmers Nonstock,460 9th Ave,Fairmont,NE,68354,402-268-4541
J & I Trucking,4244 Ellison Ave,Omaha,NE,68111,402-455-7501
Dennis Wells Trucking,4775 N 130th Rd,Cairo,NE,68824,308-485-5801
Wehner Trucking,1107 13th,Stanton,NE,68779,402-439-5272
Ray Olson Trucking,2795 280th Avenue,Albion,NE,68620,402-395-6674
Travis Farms,14611 Folkestone,Waverly,NE,68462,402-786-0415
Hansen Trucking,808 South A Road,Doniphan,NE,68832,402-845-6508
Tom Cunningham Trucking,809 E Mckinley St,Wausa,NE,68786,402-586-2610
B & P Trucking,130828 Hwy 71,Gering,NE,69341,308-436-2985
West River Trucking,506 S Cherry,Blue Hill,NE,68930,402-756-4292
R Kidz Trucking,6544 N 34th Street,Omaha,NE,68112,402-455-7582
Clark Ritz Trucking,386 Hardy Road,St Libory,NE,68872,308-687-6198
Duryea Trucking,305 W 2nd Ave,Sumner,NE,68878,308-752-3801
Reed Hauling,10214 North 190th,Bennington,NE,68007,402-238-2130
Jim Bolin Trucking,615 6th Street,Gibbon,NE,68840,308-468-6465
Jim Rogers Trucking,Hc 69 Box 146,Anselmo,NE,68813,308-749-2344
Graves Express,302 A St,Staplehurst,NE,68439,402-535-2427
Lonesome Dove Express,528 Charles Road,Hebron,NE,68370,402-768-6695
Kalvoda Trucking,6130 E Saddlehorn Road,Glenvil,NE,68941,402-771-2228
Joe Aschoff Trucking,507 W 4th St Po Box 385,Osmond,NE,68765,402-748-3326
Daniels Express,7626 Maple St,Omaha,NE,68134,402-397-9148
Hamilton Trucking,9415 U Plz #7,Omaha,NE,68127,402-651-5453
R Gray Trucking,645 Norman Ave,Crete,NE,68333,402-826-3957
Michael D Wilson Trucking,231 Road 321,Trumbull,NE,68980,402-743-2351
C&e Delivery,5825 S 21st,Omaha,NE,68107,402-734-5891
Dudley Karlson Trucking,Box 63,Edison,NE,68936,308-927-2945
Cornwell Trucking,114 S Cottonwood St,Genoa,NE,68640,402-750-0532
6-k Trucking,910 West 6th Street Lot 72,Papillion,NE,68046,402-537-9025
D & D Express,913 S 3rd Street,Norfolk,NE,68701,402-379-3739
Ram Transportation,519 North Street,Beemer,NE,68716,402-396-3381
Gregg Trumble Trucking,431 W Hwy 34,Phillips,NE,68865,402-886-2349
Pratt Trucking,12310 Grove Road,Kearney,NE,68845,308-627-6608
Wells Trucking,202 N Tuller,Atkinson,NE,68713,402-925-2936
Rvl Trucking,Rr 3 Box 81,Curtis,NE,69025,308-367-5566
Anderson Trucking,5316 Pratt,Omaha,NE,68104,402-453-1385
Geihsler Farms Trucking,39077 Rd 708,Mccook,NE,69001,N/A
Farmers Union Coop,Railroad Street,Wolbach,NE,68882,308-246-5221
T J Express,1908 Lincoln Ave,Plattsmouth,NE,68048,402-296-3046
Manthei Trucking,820 North Jackson,North Platte,NE,69101,308-534-2548
Backer's Transportation,Rrrath,Oakdale,NE,68761,402-776-2434
Hieronymus Trucking,8055 Sw 100 Rd,Clatonia,NE,68328,402-989-6485
Schrock Transportation,705 W 6th Rd,Giltner,NE,68841,402-849-2857
Lauer Trucking,201 N Portland,Hartington,NE,68739,402-254-2480
Showtime Express,45670 70th Rd,Gibbon,NE,68840,308-468-5831
Talich Trucking,344 Logan,Grant,NE,69140,308-352-4176
Mg Water Service,12146 Rd 14,Sidney,NE,69162,308-254-5338
Truck Works,137 S County Rd #29,Fremont,NE,68025,402-478-4572
Meredith Trucking,5310 66th Streeet,Nehawka,NE,68413,402-267-5374
J & R Trucking,9565 S Plaza #206,Omaha,NE,68127,402-596-9314
Partridge Trucking,Rr 1 Box 40,Edgar,NE,68935,402-224-3220
Roggow Trucking,204 South Ash Street,North Platte,NE,69101,308-534-5710
Jon Schell Trucking,Rr 2 Box 85,Wymore,NE,68466,402-696-4432
K & K Trucking,P O Box 53,Oakdale,NE,68761,402-776-2601
Kieler Transportation,64436 735 Road,Peru,NE,68421,402-872-6965
Ostrander Trucking,223 Courtland Street,Trumbull,NE,68980,402-743-2314
Red Willow Creek Transportation,76565 Rd 345,Elsie,NE,69134,308-228-5861
R & L Home Service,Rr 2 Box 285,Waco,NE,68460,402-728-5536
Harpo Dealer Services,9712 N 52nd St,Omaha,NE,68152,040-257-2090
Rich Manary Trucking,1130 Locust,Sutherland,NE,69165,308-386-2574
Garcia Trucking,1501 S 4th Street,Norfolk,NE,68701,402-371-2941
Flying V Trucking,Rr 1 Box 27,Champion,NE,69023,308-882-2208
Larry D Bearinger Trucking,86979 528 Ave,Creighton,NE,68729,402-394-1368
Rob Berst Trucking,224 E Charles,Grand Island,NE,68801,308-384-6622
Rudnick Trucking,137 N Ash,Ainsworth,NE,69210,402-387-1382
J & K Plus Six,7520 Lawndale Dr,Omaha,NE,68134,402-571-9256
Daniels Trucking,Hc 65 Box 108,Ainsworth,NE,69210,402-387-1868
Gintz Express,6505 Center St Lot #1,Omaha,NE,68106,402-552-0807
Dvorak Livestock Transport,417 Road N,Clarkson,NE,68629,N/A
Zimmerman Trucking,1304 35 Rd,Macy,NE,68039,402-837-4047
Burch's Auto Transport Service,261 Hwy 92 West,Lemoyne,NE,69146,308-726-3022
Two Men And A Truck,6702 L Street,Omaha,NE,68117,402-597-6683
Tim Rogers Trucking,808 Main St,Oshkosh,NE,69154,308-772-3158
Sand Hill Trucking,Box 633,Grant,NE,69190,308-352-4162
J & K Freight Haulers,116 East E Street,Elmwood,NE,68349,402-994-2261
"A E T, Inc.",5949 S 74th St,Lincoln,NE,68516,308-263-2336
Garcia Grain Transport,460 N 10th St,David City,NE,68632,402-367-9188
Birdwing Express,P O Box 183,Bartlett,NE,68622,308-654-3527
Alford Trucking,10203 South 152nd St,Omaha,NE,68138,402-895-2200
Betzen Trucking,342 S 6th Street,David City,NE,68632,402-367-3749
B&b Trucking,106 13th Corso,Nebraska City,NE,68410,402-873-3676
Carson Trucking,Rr 2 Box 145,Elgin,NE,68636,308-246-5593
Southeast Nebraska Auto Transport,308 North 27,Ashland,NE,68003,402-944-3631
"R Race Limited, Inc.",517 N Jackson St,Papillion,NE,68046,402-331-5913
Tony's Transfer,Po Box 74,Thedford,NE,69166,308-645-2498
Renteria Trucking,1231 4th Ave,Scottsbluff,NE,69361,308-635-8558
Richardson Trucking,548 N Main St,Valentine,NE,69201,402-376-3395
Marks Auto Sales,201 W 8th Street,South Sioux City,NE,68776,402-494-2501
Big Al Trucking,1210 O St,Bridgeport,NE,69336,308-262-0625
Hilltop Express,Box 43,Spalding,NE,68665,308-497-2472
Kirk Trucking,Rr 2 Box 182,Bloomfield,NE,68718,402-373-2870
Eggen Trucking,311 S 1st St,Bloomfield,NE,68718,402-373-2869
J L Perdue,3461 E Arbor Ln,Kearney,NE,68845,308-236-7943
Pine Tree Trucking,Hc 71 Box 23,Hay Springs,NE,69347,308-638-7555
Don Bruning Trucking,56317 Circle Dr,Hartington,NE,68739,402-254-6203
Mark Martin Trucking,810 W 25th St,Scottsbluff,NE,69361,308-635-6686
Staman Limo,1320 East 11th Street,Ogallala,NE,69153,308-284-4727
Jake S Auto Transport,412 I St,Stapleton,NE,69163,308-636-2264
Grote Trucking,Rr 1 Box 534,Lewellen,NE,69147,308-728-5859
Bohman Trucking,221 N Howe St,Valentine,NE,69201,402-376-2460
E Evans Trucking,202 Ash,Tobias,NE,68453,402-243-2277
C R Hauf Trucking,87309 493 Rd,O Neill,NE,68763,402-336-3386
J&k Trucking,1027 Cord 19,Hooper,NE,68031,402-654-3560
Rose Sewer & Drain Service,2685 Hall Rd,Homer,NE,68830,402-698-2590
Eagle's Hauling,3808 Spencer Street,Omaha,NE,68111,402-455-1900
Ryba Trucking,Box 80546,Lincoln,NE,68501,402-783-2097
Heiser Trucking,Rr #1 Box 56,Emmet,NE,68734,402-336-4412
Yeackley Trucking,686 266th Street,Milford,NE,68405,402-761-2555
A & J Trucking,350246 County Rd S,Bayard,NE,69334,308-586-2062
Hysell Feed & Trucking,204 N Hill,Atkinson,NE,68713,402-925-2204
Larry's Auto Recovery,622 South 14th,Tekamah,NE,68681,402-374-1413
Gd Trucking,2222 Bellwood Drive #77,Grand Island,NE,68801,308-384-6090
T & H Trucking,2206 Ave D,Plattsmouth,NE,68048,402-296-5421
Jake Bartos Trucking,51026 886 Rd,Verdigre,NE,68783,402-668-2311
Bs Express,2440 North Yager Street,Fremont,NE,68026,402-727-6986
Vac A Lot Trucking,542 E 16th,Crete,NE,68333,402-430-7922
"Jim & Betty Sprunk Trucking, Inc.",25446 280 Ave,Columbus,NE,68601,402-246-2911
Ryun Transporters,118 N Douglas,Wallace,NE,69169,308-387-4690
"Superior Deshler, Inc.",5372 Hwy 136,Deshler,NE,68340,402-365-7216
Price's Tree Sales & Service,3555 Us Hwy 77,Cortland,NE,68331,402-798-7070
Dr Trucking,145 N 17th Ave,Broken Bow,NE,68822,308-872-3108
Innovative Transportation Concepts,5062 S 108th St #102,Omaha,NE,68137,402-968-7980
"Bar-55 Trucking, Inc.",Rr 3 Box 20,Moorefield,NE,69039,970-356-5883
S & T Trucking,1825 Aspen St,Gering,NE,69341,308-534-9083
Lee Trucking,Rr 1 Box 103,Kimball,NE,69145,308-235-7287
Worm Trucking,307 1st St,Taylor,NE,68879,308-214-0097
Nemaha Truck Repair,206 Iowa St,Nemaha,NE,68414,402-824-5695
Lucas Smith Trucking,P O Box 683,Rushville,NE,69360,308-327-2526
Clarence Starner Trucking,706 2nd Avenue,Nebraska City,NE,68410,402-873-7070
Laun Trucking,102 Main,Tobias,NE,68453,402-243-2221
Empfield Transport,730 Hwy 281,St Paul,NE,68873,308-687-6030
Tony Escamilla Trucking,1435 Counryside Lane,Alliance,NE,69301,308-762-2207
Baehr Trucking,34630 So 94th Rd,Blue Springs,NE,68318,402-645-8339
Zz Trucking,42598 Road 766,Cozad,NE,69130,308-784-4333
Kool Trucking,Main Street,Brandon,NE,69140,308-447-5577
R L Brown Trucking,1804 Ave D,Gothenburg,NE,69138,308-537-2504
B & L Trucking,3910 Rd 28 S,Kimball,NE,69145,308-230-2051
Farmers Premium Produce,27905 Sweetwater Rd,Pleasanton,NE,68866,308-388-9060
Portner Trucking,810 N Street,Bridgeport,NE,69336,308-262-2997
Mba Poultry,13151 Dovers St,Waverly,NE,68462,402-786-1000
H & P Trucking,2372 Rainbow Heights Drive,Alliance,NE,69348,308-762-9362
B & K Trucking,Rt 2 Box 199b,Neligh,NE,68756,402-887-4862
Thornton Dump Trucking,2323 Bellwood Dr #70,Grand Island,NE,68801,308-383-4999
"Thompson Propane Service, Inc.",211 W Main Street,Crofton,NE,68730,402-388-4588
Rick Budzinski Trucking,P O Box 2,Palmer,NE,68864,308-594-6005
K & P Kramer Trucking,Hc 1 Box 126,Stapleton,NE,69163,308-636-2933
Mtk Transport,4758 Old Smokey,Omaha,NE,68152,402-453-1680
Anderson Trucking,Rr 2 Box 57,Beatrice,NE,68310,402-520-1424
Jose Ornelas Trucking,63 South Street,Gering,NE,69341,308-632-8925
Pospisil Hills Trucking,9233 West Princeton Road ,Hallam,NE,68368,402-826-5215
Christensen Trucking,16 Avenue 200,Arnold,NE,69120,308-848-2614
Provision Transport,306 Sherwood Rd,Norfolk,NE,68701,402-371-6338
"Seitz Distributing, Inc.",13532 Sahler Street,Omaha,NE,68164,402-493-6754
Wild Horse Transportation,721 3rd St,Beaver City,NE,68926,308-268-2900
Snider Farms,313 Road H,Mccool Junction,NE,68401,402-724-2383
Jkn Trucking,907 W Main Street,Stuart,NE,68780,402-924-3988
Nebraska Grain Transfer LLC,271 G Street,Hampton,NE,68843,402-725-3680
Torres Trucking,520 Q Street,Gering,NE,69341,308-641-9211
Benson Trucking,206 Indian St,Scotia,NE,68875,308-245-4212
Siemers Trucking,1674 N H St,Fremont,NE,68025,402-727-6008
J E Trucking,57236 843 Road,Pilger,NE,68768,402-396-3249
Carmonas Trucking,1328 7th Ave,Scottsbluff,NE,69361,308-632-7782
Shawn Wieseman Trucking,Rr 1 Box 201,Silver Creek,NE,68663,N/A
Theis Trucking,3115 2nd Ave,Kearney,NE,68847,308-237-1955
Overland Transport,3800 130th Ave,Cedar Rapids,NE,68627,308-358-0113
A & D Trucking,644 N 5th,Loup City,NE,68853,308-745-0243
"Rb Helms Trucking, Inc.",5335 Pioneer Blvd,Lincoln,NE,68506,402-484-7421
Rknj Trucking,915 S 2nd Street,Norfolk,NE,68701,402-379-4566
Bill Richey Trucking,Hc 82 Box 35,Springview,NE,68778,402-497-2153
Burwell Trucking,2226 E Rd,Minden,NE,68959,402-756-0668
Wehtje Farms Trucking LLC,291 Cr 79,Hemingford,NE,69348,308-487-5340
Mckay Trucking,81947 499th Ave,Spalding,NE,68665,308-497-2608
Wentworth Farms,Hc 82 Box 107,Springview,NE,68778,402-497-3170
Buck's Trucks,3408 El Dorado Way,South Sioux City,NE,68776,402-494-2038
R's Trucking,N 70th St 520,Lincoln,NE,68505,402-890-7854
Jalisco Tow Service,321 South 15th Street,Dakota City,NE,68731,402-987-2464
Heine Trucking,42780 Rd 761,Cozad,NE,69130,308-784-2493
Terry Mccandless Trucking,509 South C Street,Broken Bow,NE,68822,308-872-2351
Vance Tonack Trucking,9019 N 117th Street,Omaha,NE,68142,402-431-0081
Rother Trucking,Box 65,Elba,NE,68835,N/A
Torrey Trucking,7980 46th St,Kearney,NE,68845,308-893-4210
Moreno Trucking,1024 Emerson St,Alliance,NE,69301,308-760-1701
Wilson Trucking,112 E Maxwell St,Maxwell,NE,69151,308-546-0460
Johnson Family Trucking,Rr 1 Box 136a,Ainsworth,NE,69210,402-387-2626
Happy Trails Truckin,P O Box 239,Hershey,NE,69143,308-636-8224
Stettners Crane Service,2218 Newton Street,Sidney,NE,69162,308-254-4388
D B Transport,898 133 Rd,Osceola,NE,68651,402-764-2258
Yost Trucking,76025 Road 337,Madrid,NE,69150,308-326-4238
Benson Trucking,1225 Poole Ave,Kearney,NE,68847,308-234-9394
Ellenwood Transport,Rr 1,Genoa,NE,68640,402-993-6557
Munoz Trucking,19 Heather Rd,Gering,NE,69341,308-632-2048
Lightning Express,6690 Otoe Road,Alliance,NE,69301,308-762-7686
Twins Transport,9905 Sapp Brothers,Omaha,NE,68138,402-896-2300
Tds Trucking,1309 Amberwood Drive Apt 3,Norfolk,NE,68701,402-644-0989
Stearns Trucking,Rr 1 Box 341,Hershey,NE,69143,308-368-7867
Gold Pan Trucking,510 Pavia,Ravenna,NE,68869,308-452-3590
Washington Cartage,5017 County Road 40,Fort Calhoun,NE,68023,402-573-5798
Ldb Trucking,8025 S 36th Street,Bellevue,NE,68147,402-731-2520
Njl Carrier,6943 Colley,Lincoln,NE,68505,402-430-9931
M & M Service,3525 N 107th Plz #319,Omaha,NE,68134,402-658-7289
Dean Schaller Trucking,87718 551st Avenue,Wausa,NE,68786,402-586-2829
Taul Trucking,206 West B,Trenton,NE,69044,308-334-5495
Hiatt & Son Trucking,851 N Park Lot 101,Superior,NE,68978,402-879-5284
Kronhofman Trucking,2217 Rd M,Milligan,NE,68406,402-629-4500
Rons Service,505 West 1 St St,Pitger,NE,68768,402-396-3425
Juan Garza Trucking,659 E 9th Street,Alliance,NE,69301,308-762-8317
D L Krantz Trucking,602 Moose Street,Farnam,NE,69029,308-390-0482
S & J Trucking,2427 Rainbow Acres Ii,Alliance,NE,69301,308-762-7430
J&j Trucking,1008 8th Street,Pawnee City,NE,68420,402-852-2432
Omaha Trucking,13717 Calhoun Rd,Omaha,NE,68152,402-639-9307
Randy Bates Trucking,528 Lincoln Ave,Grant,NE,69140,402-689-0828
Dave Anderson Trucking,309 W 4th St,Wakefield,NE,68784,402-287-2827
Freedom Food Service,610 Pine Street,North Bend,NE,68649,402-652-8737
G&l Trucking,Main Street,Bladen,NE,68928,402-756-1652
Valdez Trucking,D1 Trailerville,Alliance,NE,69301,N/A
Clay Robbins Trucking,706 Lincoln St,Overton,NE,68863,308-233-4450
Windmill Express,84020 569 Ave,Stanton,NE,68779,402-439-2718
D&s Trucking,413 Bighorn,Alliance,NE,69301,308-762-1146
Brandt Trucking,74152 Road 428,Elwood,NE,68937,308-785-2808
Rod Frickey Trucking,413 W 3rd St,Brule,NE,69127,308-287-2154
Glinsmann Trucking,1251 Yutan Rd,Ashton,NE,68817,308-336-9251
Jim Martens Trucking,1622 Minden Drive,Columbus,NE,68601,402-563-2824
Kendall Schuster Trucking,1302 S 25th Rd,Cortland,NE,68331,402-798-7629
Huls,545 Main Street,Sterling,NE,68443,402-866-2239
Craig Knapp Farms,54875 826 Rd,Madison,NE,68748,402-649-5018
Glassworks Distributing,816 N Jeffers,North Platte,NE,69101,308-532-5605
Roy's Auto Service,1418 Maple Street,Fairbury,NE,68352,402-729-3962
Russ Dirks Trucking,56354 874 Road,Coleridge,NE,68727,402-283-4822
Hinrichsen Sand & Gravel,85751 510th Ave,Ewing,NE,68735,402-626-7760
G & R Trucking,413 Fair Oaks Drive,South Sioux City,NE,68776,402-494-8729
Dirks Trucking,307 S Madison,Coleridge,NE,68727,402-283-4914
Marv Fisher Trucking,Rr 3 Box 44,Moorefield,NE,69039,308-367-8742
Got To Go Express,1918 Grand Island Avenue,Grand Island,NE,68803,308-381-0583
Aka Transport,10913 Spaudling Plaza,Omaha,NE,68164,402-498-0434
T & R Express,2453 C R 23,Harrisburg,NE,69345,308-436-9353
S & B Trucking,4701 Stockwell,Lincoln,NE,68506,402-489-8577
All Nations Specialized Transport & Travel Service,2625 North 27th Street,Lincoln,NE,68521,402-467-1339
Southwest Regional Transport,811 North Highway 83,Mccook,NE,69001,308-394-5390
Drueke Trucking Co,89199 Us Hwy 281,O Neill,NE,68763,402-336-2247
Kremer Implement,Rr 2,Seward,NE,68434,402-761-2400
Lockhart Trucking,Po Box 551,South Sioux City,NE,68776,402-494-6348
Perkins Transport,4913 Maple St,Omaha,NE,68104,402-558-1743
Ralph Bridger Trucking,114 N B St,Belgrade,NE,68623,308-357-1252
Betts Trucking,2201 N M Road,Marquette,NE,68854,308-946-2835
E & A Transportation,1810 Elk Street,Beatrice,NE,68310,402-228-6205
Cooper Trucking,160253 Cr 22,Gering,NE,69341,308-436-2868
Coop Non Stock Transport Company,120 8th St,Gothenburg,NE,69138,308-537-7141
Freeman Trucking LLC,411 East 2nd St,Paxton,NE,69155,308-239-4540
Neel's Trucking,207 S Maple St,North Loup,NE,68859,308-496-4302
V & C Grain & Trucking,Rt 1,Edgar,NE,68935,402-364-2340
Agritrans,13842 Meadow Ridge Road,Omaha,NE,68138,402-894-1187
Meisinger Transfer Co,5091 So 105 St,Omaha,NE,68127,N/A
White Trucking Company,1427 N Florida Ave,York,NE,68467,402-362-2970
Archer Transfer,1511 West First Street,Ogallala,NE,69153,308-284-4405
Darrell Huckfeldt Trucking,345 N Miller St,Hay Springs,NE,69347,308-638-7177
T J Trucking,1202 Hynes,Oneill,NE,68763,402-336-4896
Cairo Transfer,General Delivery,Cairo,NE,68824,N/A
Bockmann Trucking,8211 N 78th St,Omaha,NE,68122,402-895-4345
Guyett's Trucking,3412 Davenport,Omaha,NE,68131,402-345-4813
Dean Wills Trucking,464 Hutchinson St E Side,Garland,NE,68360,402-588-2214
L R Gade Trucking,246 2nd Street,Lodgepole,NE,69149,308-254-3810
Cornhusker Trucking Company,3312 12th St,Columbus,NE,68601,402-564-1511
Blanchard Trucking,112 W Hughson Street,Randolph,NE,68771,402-360-0663
Pappy's Trucking,200 South 5th Street,Miller,NE,68858,308-457-2081
Zimmerman Trucking,117 East A,Elmwood,NE,68349,402-994-5415
Carlow Trucking,Rt 2,Bloomfield,NE,68718,402-373-2461
"A J Ninneman, Inc.",1479 Yankee Hill Rd,Denton,NE,68339,402-826-4707
Arnold Trucking,West Hwy 20,Valentine,NE,69201,402-376-3415
Brodersen Trucking,6212 So 149th Street,Omaha,NE,68137,402-861-6843
Sabin Trucking,42871 Highway 30,Cozad,NE,69130,405-283-0698
Larry A Izer,225 South A Street,Blue Springs,NE,68318,402-648-3336
Daum Trucking,308 W. 1st St.,Emerson,NE,68733,402-695-2166
Rinehart Trucking,1318 Garfield,Holdrege,NE,68949,308-995-8134
Tuffernell Trucking,P O Box 526,Chadron,NE,69337,308-432-3829
R & B Trucking,206 W Boone St,Cedar Rapids,NE,68627,308-358-0497
Yonke Trucking,89680 Highway 121,Crofton,NE,68730,402-388-2437
Nekolite Trucking,86456 Us Hwy 281,Oneill,NE,68763,402-336-1781
J Hawke Trucking,815 S Claussen,Grand Island,NE,68801,308-381-1190
C E S Enterprise,18202 Platte View Road,Springfield,NE,68059,402-253-2744
Saldi Express,512 S 91st Avenue,Omaha,NE,68114,402-393-1967
Eltoro Express,Hc 87 Box 25,Angora,NE,69331,308-262-1670
Philamalee Trucking,203 S Wood Hc 15,Valentine,NE,69201,402-376-3207
Lincoln Poultry,800 Cattail Rd,Lincoln,NE,68521,402-477-3757
Kirks Trucking,501 Hwy 34 Suite 2,Utica,NE,68456,402-534-2130
Sherman Feed & Support,2800 O Street,Auburn,NE,68305,402-274-4115
"Heerten Trucking, Inc.",250 South Birch Street,Springview,NE,68778,402-497-3194
Strain Trucking,604 S Oak St,Genoa,NE,68640,402-993-2907
Martin Hot Oiler Service,601 1/2 West 2nd,Kimball,NE,69145,308-235-3157
Pulver Trucking,502 West Elm,Kenesaw,NE,68956,402-752-3339
Wallin Trucking,Rr 2 Box 90,Newman Grove,NE,68758,402-447-6021
Silver Trucking,102 Park Street,Bassett,NE,68714,402-684-2865
Haussermann Trucking,848 25 Road,Bloomington,NE,68929,308-775-2577
Osland Trucking,410 M Street,Aurora,NE,68818,402-694-6046
Jones Feed Service,Box 194,Clearwater,NE,68726,402-485-2357
Friesen Trucking,107 N Forbes Ave,Madrid,NE,69150,302-326-4259
Arrowsmith Trucking,505 Panzer,Bassett,NE,68714,402-684-2703
R G Ogier Trucking,604 Sunset Cr,Bassett,NE,68714,402-684-3880
William G Kurzenberger Trucking,44443 880th Rd,Bassett,NE,68714,402-684-3842
Radke Trucking,901 S West St,Lincoln,NE,68528,402-880-6872
I N C Trucking,West O St 5 Mi West,David City,NE,68632,402-367-4366
Stork Trucking,2130 Pigeon Ave,Hubbard,NE,68741,402-632-4631
Patersens Auto Repair,63898 723 Rd,Auburn,NE,68305,402-274-5388
Augustin Trucking,5455 N Overland Ave,Kenesaw,NE,68956,402-752-3710
Slezak Trucking,#2 Lockridge Road,York,NE,68467,402-362-1814
Norders Trucking,549 East Main,Bruning,NE,68322,402-353-2135
"Leisy Trucking, Inc.",2412 West Overland,Scottsbluff,NE,69361,308-632-7812
Dnj Transportation,87339 493rd Ave,Oneill,NE,68763,402-336-3385
Chuck Krance Trucking,915 17th Avenue,Central City,NE,68826,308-946-3224
Quickcity Delivery,707 No 16th,Omaha,NE,68102,402-342-7243
Owens Trucking,2 West And 1 1/2 South Of,Red Cloud,NE,68970,402-746-2959
"Anderson Trucking, Inc.",Route 3 Box C1,Cozad,NE,69130,308-324-4254
Heath Trucking,Hc 77 Box 5,Cody,NE,69211,402-823-4001
Parker Trucking,90123 Deer Park Road,Valentine,NE,69201,402-376-1412
Tom Snyder Trucking,422 E Fremont St,Oneill,NE,68763,702-564-2520
Decker Ag Service,104 S Center,Tilden,NE,68781,402-368-5367
Pernicek Trucking,1415 B St,Schuyler,NE,68661,402-615-0451
Remmers Trucking,7203 S 12th Rd,Cortland,NE,68331,402-798-7618
Ken Duncan Trucking,5453 N 63rd St,Omaha,NE,68104,402-571-2914
Harms Trucking,Hc 15 Box 8,Valentine,NE,69201,402-376-3524
Angmar Trucking,509 Dearborn St,Wayne,NE,68787,N/A
Lyle Steskal Trucking,420 E Grant,Ewing,NE,68735,402-394-7701
Robinson Trucking,507 W 31st St,Scottsbluff,NE,69361,308-635-0958
Steven J Bremer Trucking LLC,7134 Co Rd 15,Arlington,NE,68002,402-478-4860
Mc Trucking,1503 Center Ave,O Neill,NE,68763,402-336-1134
Strand Trucking,14 Mi E & N Of Purdum,Purdum,NE,69157,308-834-3209
Auto Recovery,4960 Q St,Omaha,NE,68117,402-734-7039
Larry Sayre Trucking,511 Monroe Avenue,Morrill,NE,69358,308-247-3327
Dorrence M Hobbs Trucking,204 So Spruce,Ewing,NE,68735,402-626-7575
J & J Carriers,Rt 1 Box 81,Stella,NE,68442,402-883-2611
Lewis Farms,40974 Rd 713,Cambridge,NE,69022,308-349-4389
Banjo Creek Trucking,2673 I Avenue,Hubbard,NE,68741,402-698-2214
Gettert Trucking,3801 E 7th Ln S,Columbus,NE,68601,402-336-2212
Bossaller Oil Service,410 S 43rd St,Lincoln,NE,68510,402-489-7408
Jon Bodeman Trucking,Near Coop In Hays Center,Hayes Center,NE,69032,308-285-3231
Maas Trucking,125 Pacific Ave,Elm Creek,NE,68836,308-856-4808
Skip's Transfer,Rr 5 Box 399b,Fremont,NE,68025,N/A
Circle Trucking,Hc 88 Box 230,Bassett,NE,68714,402-684-3645
Tc Express,Rr 2 Box 112,Wausa,NE,68786,402-586-2610
R & J Trucking,7217 Monroe Circle,Ralston,NE,68127,402-592-5645
P J Trucking,3901 North 13th St,Lincoln,NE,68521,402-477-9787
Garvin's Truck Salvage,559 Hwy 20 West,South Sioux City,NE,68776,402-494-4011
Eppley Express,818 Central Ave,Kearney,NE,68847,308-234-6066
Gary Meyer Trucking,4057 W Capital,Grand Island,NE,68803,308-384-0036
Walt Sanitary Service,1811 Walnut,Dakota City,NE,68731,402-987-3444
T&c Trucking,107 South Turner Lane,Cairo,NE,68824,308-485-4433
Jim Hoselton & Sons,41516 Hwy 23,Eustis,NE,69028,308-486-5553
Lembke Trucking,151 Lembke Rd,Hemingford,NE,69348,308-487-3798
Klug Transportation,1302 Sunrise Dr,Norfolk,NE,68701,402-371-7826
Sonic Dry Ice Blasting,14959 Ohern Plz,Omaha,NE,68137,402-895-5618
T J Kraus Trucking,10mi North Of Brule,Brule,NE,69127,308-284-8225
Jim Perkins Trucking,3275 N 150 Rd,Cairo,NE,68824,308-380-0919
S & S Trucking,P O Box 621,Minatare,NE,69356,307-834-2445
Richards Trucking,Hc 15 Box 451,Valentine,NE,69201,402-376-1628
R & L Trucking,Hc 56 Box 179a,Hay Springs,NE,69347,308-638-7690
Claycamp Trucking,Rural Route 1 Box 8915,Edgar,NE,68935,402-224-5725
Jaster Trucking,5304 23rd St,Columbus,NE,68601,402-564-8386
Koliha Feed & Trucking,1159 Road P,Clarkson,NE,68629,402-352-3489
Fasse Trucking,1 Mi S & 4 1/2 Mi W Of Eustic,Eustis,NE,69028,308-486-5343
Kric,305 10th St,Stanton,NE,68779,402-439-2988
William E Deans Trucking,Hwy 20 And Baker St,Hay Springs,NE,69347,308-638-4459
"Total Quality Transport, Inc.",9312 Adams St,Omaha,NE,68127,402-331-2441
Hall & Sons Contracting,4520 N 17th St,Omaha,NE,68110,402-451-0379
Mccully Trucking,3 Miles South And 1 West Of,Maxwell,NE,69151,308-582-4543
Jeff Ashby Transportation,1305 North Highway 14,Aurora,NE,68818,402-694-6958
4 S Trucking,Rt 1 Box 189,Franklin,NE,68939,308-425-3779
Grothe Trucking Co,205 S 4 St,Elgin,NE,68636,402-843-5352
Flowers Trucking,4021 Crown Point Ave,Omaha,NE,68111,402-455-8048
Ruyle Trucking,308 N 27,Ashland,NE,68003,402-521-2122
Garwood Trucking,601 S Madison St,Atkinson,NE,68713,402-925-2205
Wheeler Trucking,3818 Nw 50th Street,Lincoln,NE,68524,402-470-0403
Dave Peters Trucking,912 W Church St,Albion,NE,68620,402-741-2249
Doug Warner Trucking,Rr 2 Box 231,Holdrege,NE,68949,308-995-2289
G & R Trucking,Rr 1 Box 1638,Saint Paul,NE,68873,308-754-4940
Clarke's Express,7 M East 2 M North 1 M West,Brock,NE,68320,402-242-2221
B&d Transportation Services,2201 Rodeo Rd,North Platte,NE,69101,N/A
Bohlen Trucking,Rt 1 Box 212,Hastings,NE,68901,402-463-5260
B & B Valley Scale Service,160757 Haig Rd,Mitchell,NE,69357,308-635-3981
Chalupa And Sons Trucking,6172 240th Lane,Gordon,NE,69343,308-282-0607
Jay Merritt Trucking,1320 12th Street,Gering,NE,69341,308-436-4436
Kinney Farms,1608 Claycomb Road,Wayne,NE,68787,402-375-1976
"Gilbert's Hauling, Inc.",1816 Military Ave,Omaha,NE,68111,402-558-8196
Saathoff Trucking,Box 125,Pickrell,NE,68422,402-673-3083
Haffke Trucking,510 North 41st Street,Omaha,NE,68131,402-556-6716
Lee's Driveway Service,7537 Edward Ave,Omaha,NE,68128,N/A
Steven's Trucking,4820 S 61st St,Omaha,NE,68117,402-733-6610
Open A Bar Trucking,13761 Rd 92,Broadwater,NE,69125,308-489-5610
Clay Bode Trucking,4 Miles West And 1/2 South,Elgin,NE,68636,402-843-5385
Triple Eight Trucking,1907 West 14th Street,North Platte,NE,69101,N/A
B & B Transport,4943 Huntington St,Lincoln,NE,68504,402-467-6232
Tabco Trucking,9 Miles East And 2 1/4 North,Scottsbluff,NE,69361,308-783-1165
Steve Meyer Trucking,6706 156th St,Weeping Water,NE,68463,402-267-5279
Tom Iverson Trucking,3 Miles South & 1/2 East Of,Ainsworth,NE,69210,402-387-0637
Ace Sales,5372 Hwy 136,Deshler,NE,68340,402-365-7216
Kirchmann Transfer,600 E Logan St,West Point,NE,68788,402-372-2245
Brase,1426 2nd Avenue,Dannebrog,NE,68831,308-226-2207
Hammers Trucking,426 North St,Greenwood,NE,68366,N/A
Rosey's Delivery,811 So Harrison St,Papillion,NE,68046,402-690-2580
Vonheeder Trucking,241 E 2nd,Ainsworth,NE,69210,402-387-0245
Durham Transfer,4912 Y St,Omaha,NE,68117,402-733-6338
Randy L Knapp Trucking,106 South Werner,Battle Creek,NE,68175,402-675-1085
Rolland White Sales And Service,1210 North H Street,Broken Bow,NE,68822,308-872-5088
Trail Drive Trucking,Hc 91 Box 110b,Gordon,NE,69343,308-282-2550
Hill & Hill Combining & Trucking,110255 County Rd 4,Lyman,NE,69352,308-787-1840
Kelly's Distributing,4645 Dudley #7,Lincoln,NE,68503,402-466-2125
Luber Trucking,1102 Sunset,Oneill,NE,68763,402-340-4770
Allan M Mitchell Trucking,1517 Lawndale Ave,Oneill,NE,68763,402-336-3238
Classic Auto,2301 Cornhusker,Lincoln,NE,68521,402-438-3858
Rick Devall Trucking,217 Birch St,Oneill,NE,68763,402-336-3954
Brodersen Trucking,2 Blocks West,Herman,NE,68029,402-456-7856
Blue River Transportation,543 North Shimerda,Wilber,NE,68465,N/A
Oelke Trucking,232 6th Street,Unadilla,NE,68454,402-828-3805
A & Sons Trucking,3003 S 9th St,Omaha,NE,68108,402-341-8644
Bob Anderson Trucking,451 10th Ave,Columbus,NE,68601,402-564-7445
D & W Trucking,#2 Pinewood,Gering,NE,69341,308-632-8415
Lueken Trucking,Rr 2 Bpx 238,Pierce,NE,68767,402-329-4054
J & L Transports,164 Northwest Railway,Wauneta,NE,69045,308-394-5243
Hill Trucking,Rr 1 Box 117,Oneill,NE,68763,402-336-1329
C & D Transport,11 Miles South And 1 West Of,Dix,NE,69133,308-682-5284
Schultz Trucking,108 South A Road,Trumbull,NE,68980,402-743-2344
Ttbn,58994 877 Rd,Ponca,NE,68770,402-755-2969
B & E Trucking,2828 Nw 7th St,Lincoln,NE,68521,402-475-1479
Dorn Trucking,4 Block East Of Hwy 275,Ewing,NE,68735,402-626-7780
Bradley Trucking,1506 West Circle Dr,Mccook,NE,69001,308-345-5133
J & L Trucking,1521 North Bryan,North Platte,NE,69101,308-532-0884
Mark Fanning Trucking,73502 338th Ave,Imperial,NE,69033,308-882-4437
M & L Trucking,431 South Street,Sutherland,NE,69165,308-386-2294
Creasman Trucking,315 E Smith Street,Anselmo,NE,68813,205-688-1199
Edwards Trucking,2005 K St,Ord,NE,68862,308-728-3339
Scott Carstens Trucking,Route 3 Box 125,Beatrice,NE,68310,N/A
Johnson Trucking,1620 West Military,Fremont,NE,68025,402-727-5857
Steel Horse Trucking,301 East 7th,Mccook,NE,69001,308-345-6037
H & N Trucking,2139 Jefferson St,Omaha,NE,68107,402-731-6634
Wildheart Trucking,Box 781,Mccook,NE,69001,308-345-3077
Doug Budd Trucking,417 S Main Box 84,Rushville,NE,69360,N/A
Billy D Trucking,Box 175,Dwight,NE,68635,402-566-2525
Bockelman Grain,517 N 1st,Pierce,NE,68767,402-329-4730
Mitch Sliva Trucking,1057 21st Ave,Columbus,NE,68601,402-562-1517
Surge Sales & Service,306 N Broadway,Hartington,NE,68739,402-254-3970
Mark Welfl Trucking,1830 P Street,Gering,NE,69341,308-436-2609
Weber Farm,46214 Hwy 91,Burwell,NE,68823,308-346-4474
Shriver Transport,7225 Cuming,Lincoln,NE,68507,402-467-1962
Harlow Trucking,410 Madison St,Waterloo,NE,68069,402-779-3251
John Fullerton Trucking,249 W 8th,Superior,NE,68978,402-879-3075
Skie,1411 N 72nd Street,Omaha,NE,68114,402-689-0331
Rutherford Trucking,3 1 2 Miles East Of,Hayes Center,NE,69032,308-286-3402
C & B Trucking,Box 301 909 Fairfield,Ansley,NE,68814,308-935-1735
Millsap Trucking,1001 West Main,Sargent,NE,68874,308-345-5521
Albion Limo Service,301 S 4th,Humphrey,NE,68642,402-923-1093
24 Hour Tire Auto & Tow,400 Otoe St,Nemaha,NE,68414,816-744-6440
"Dannull Engine Service & Auto Sales, Inc.",309 W 4th St,Holdrege,NE,68949,308-995-5434
Triple T Trucking,Rr 1 Box M-3,Ruskin,NE,68974,402-226-3131
Nationwide Express Moving & Delivery,243 S 9th St,David City,NE,68632,N/A
"Ron Crisman Trucking, Inc.",1315 Ave A,Gothenburg,NE,69138,308-537-3137
Clifton And Clifton Trucking,1055 N 30 Rd,Syracuse,NE,68446,402-297-5501
Tybo Recovery LLC,1701 Ave I,Scottsbluff,NE,69361,308-672-8375
Cordova,Po Box 2523,Grand Island,NE,68802,308-227-1623
Triple B & D LLC,304 S Nebraska,Madison,NE,68748,402-454-9047
Bmk Trucking,12919 Himebaugh Ave,Omaha,NE,68164,402-216-7117
Gad Trucking,2003 12th Avenue,Kearney,NE,68845,308-234-9453
Gowen Truckin' LLC,Po Box 38,Roseland,NE,68973,402-705-0544
Oeidi Trucking,410 S Rhode Island Ave,Hastings,NE,68901,402-462-2583
Blessing Trucking,803 S Rhode Island,Hastings,NE,68901,402-902-9689
Deer Ridge Trucking Llp,10505 N 234th St,Valley,NE,68064,402-616-6487
Tc Towing,781 Co Rd 11,Ithaca,NE,68033,402-889-3027
A&k Transport LLC,Po Box 59,Plattsmouth,NE,68048,402-510-4743
Rocking L,1408 19th Ave,Beatrice,NE,68310,402-806-4224
H Carlson,Po Box 225,Kimball,NE,69145,308-235-3348
Johnson Enterprises,220 Lawrence Rd,Whitney,NE,69367,308-665-3960
Lynn Nieveen,10101 West Olive Creek Road,Crete,NE,68333,402-826-3932
Nazario G Escamilla,607 S St Joseph Ave,Hastings,NE,68901,402-984-1927
R L Novotny,8230 Mackenzie Rd,Lincoln,NE,68505,402-613-7568
R & M Trucking,1150 2nd Street,Chappell,NE,69129,970-466-7272
Wagon Wheel Trailers,74183 S Rd,Funk,NE,68940,308-263-4431
Am Transport,83386 556th Ave,Norfolk,NE,68701,402-750-8286
Klk Logistics,19019 Jacobs Street,Omaha,NE,68135,402-536-9223
Cody Harms Trucking,602 Hayward,Chappell,NE,69129,308-874-4579
Oak Point Design,5755 Meadow View Lane,Blair,NE,68008,402-468-4512
Cars,4820 South 61st Street,Omaha,NE,68117,402-734-7575
Otteman Trucking,705 Logan,Scribner,NE,68057,402-620-1686
Luxury Limousine,4201 Lowell Circle,Lincoln,NE,68502,402-269-3737
Buchholz Trucking,608 N Fulton,Osmond,NE,68765,402-748-3580
"Hms, Inc.",123 West Alexander Street,Valley,NE,68064,402-660-4669
A & J Trucking,206 N First Street,Cook,NE,68329,402-239-0499
Wilkinson Trucking,327 5th St,Otoe,NE,68417,402-265-2531
Workhorse Trucking,312 West Walnut,Riverdale,NE,68870,605-645-2523
Ayala Siding And Windows,5618 South 13th Street,Omaha,NE,68107,402-208-3565
A Usa 1 Auto Sales,641 W South St Ste 1b,Lincoln,NE,68522,402-477-7117
Skyline Construction Services,716 Beaver Lake Blvd,Plattsmouth,NE,68048,402-960-4918
Makey Trucking,508 1st Street,Gurley,NE,69141,308-249-1709
Bill Morford Masonry,3343 N 57th Street,Omaha,NE,68104,402-706-8173
C & L Transport,17404 States St,Bennington,NE,68007,402-238-2901
Feik Farms,75451 Road 421,Cozad,NE,69130,308-784-4685
Autobuses Mexicana,521 E 10th Street,Grand Island,NE,68801,308-258-1754
Daringer Enterprises,129 N Sheridan Str,Gordon,NE,69343,308-282-1307
Chrome Enhancements,4533 S 88th Street,Omaha,NE,68127,402-932-7933
Lincoln Grand Theatre,1101 P Street,Lincoln,NE,68508,404-323-6720
Second Nature,2905 N 47th Ave,Omaha,NE,68104,402-932-6456
Three Brothers Auto,340 Hwy 34,Eagle,NE,68347,402-781-9340
Hog Heaven M & R Vending,1088 Sunken Cove,Loup City,NE,68853,308-750-3936
Shooting Star Express,342 Republican Ave,Stamford,NE,68977,308-868-3012
Fleischmann Family Farms,13332 I Road,Osceola,NE,68651,308-940-1039
Triple T Farms,47536 Hwy 22,Ord,NE,68862,308-728-1420
Ahl Right Farms LLC,56656 Hwy 136,Fairbury,NE,68352,402-587-0669
Rolf Glerum Angus,84552 Hwy 7,Brewster,NE,68821,308-547-2400
Hermitage Ngt,916 - 23rd Street,Columbus,NE,68601,402-564-2707
Junck Dairy,56625 860 Rd,Carroll,NE,68723,402-585-4605
Cabieles & Company,3500 N 44th St,Lincoln,NE,68504,402-770-8148
Dvorak Trucking,723 Belmont Street,Alliance,NE,69301,308-762-6287
Notthedump,575 S 120th Avenue,Omaha,NE,68154,402-203-5098
Premier Towing,3111 Pleasant Dr,Bellevue,NE,68147,402-290-4748
Steves Towing,6634 Wirt St,Omaha,NE,68104,402-210-6864
S-1-s Siding & Gutter,4870 Robin Drive,Omaha,NE,68157,402-659-4352
Hirschman Farms,51381 887 Road,Verdigre,NE,68783,402-394-1764
Jw Trucking,70304 Hwy 61,Benkelman,NE,69021,308-423-5342
Trim Carpentry,Bay Meadows Rd,Omaha,NE,68127,402-616-1726
"Per Ardua Trucking, Inc..",4300 Cornhusker Hwy F-14,Lincoln,NE,68502,402-315-7235
Rave On Productions,15919 Mary Street,Omaha,NE,68116,402-659-3140
Hike Landscaping,15818 Timberlane Dr,Omaha,NE,68136,402-630-1501
Dalton Zimmerman,302 1/2 S Perkins,Madrid,NE,69150,308-326-4573
Dz Trucking,85967 530 Ave,Plainview,NE,68769,402-582-4640
Kory White Construction,11734 Ruggles Circle,Omaha,NE,68164,402-770-1072
Quality Alfalfa,42871 Hwy 30,Cozad,NE,69130,308-324-5701
Edwards Iron,420 West 1st Street,Mccook,NE,69001,308-737-9658
Stephen A Miller,3716 Savannah Circle,Lincoln,NE,68516,140-243-2208
Leisure Bus Transportation,1835 West O Street,Lincoln,NE,68528,402-440-2772
A & J Farms,1215 Adams Street,St Paul,NE,68873,308-754-5681
Chris Meints Farms,2791 E Aspen Rd,Cortland,NE,68331,402-450-8250
Huckleberry Construction And Design,1350 Monte Vista Dr,Sidney,NE,69162,308-254-6126
Big Springs Truck And Travel,100 Frontage Rd,Big Springs,NE,69122,308-889-3608
Smith & Sons Feedlot Cleaning,1925 23rd Ave,Elba,NE,68835,308-968-3300
Borchers,4345 Mckelvie Rd,Utica,NE,68456,402-534-4345
Buck's Wood Products,502 East 4th Street,Neligh,NE,68756,402-270-4046
B's Turf,1501 Childs Rd West,Bellevue,NE,68147,402-650-4094
Action Crane & Rigging,4335 S 67th St,Omaha,NE,68117,402-672-2080
H & H Carrier,1506 C St Apt 20,South Sioux City,NE,68776,612-532-3516
R M Trucking,1 Durwood Ln,Hastings,NE,68901,786-366-5303
F & H Trucking,3345 N 107th St,Omaha,NE,68134,605-929-6745
Burkey Hay Co LLC,609 294th Rd,Milford,NE,68405,402-761-2414
Olcott Trucking,47386 827 Th Rd,Burwell,NE,68823,308-383-0039
Sunrise Ag,10798 726 Rd,Holdrege,NE,68949,308-337-2337
Nebraska's Best Exteriors,2536 S 7th St,Omaha,NE,68108,402-658-5772
Pms Trucking,2204 Lucille Dr,Bellevue,NE,68147,443-553-5777
Hoss,55165 891st Rd,Crofton,NE,68730,605-660-0864
Noakes,511 South 6th Street,Beatrice,NE,68310,402-223-5348
"Versa Crete, Inc.",1239 Royal Drive,Papillion,NE,68046,402-934-8335
T Schuler Trucking,418 E Hamilton,Morrill,NE,69358,308-247-2245
Layne Miller Trucking,218 South Sheridan,Hershey,NE,69143,308-520-1083
Eagle Eye Enterprises,1420 S 77 St,Lincoln,NE,68506,402-616-6486
Wheeler Trucking,90420 481 Ave,Butte,NE,68722,402-775-2052
Mitchell Refrigeration,2530 Ramona Drive,Gering,NE,69341,308-436-5645
Pc Recycling,7754 I Plaza,Omaha,NE,68127,402-763-8767
Tweedy Trucking,509 S Vine St,Mead,NE,68041,402-624-2067
Prime Contracting,79033 485th Ave,Ashton,NE,68817,308-750-6055
Farrell Trucking,43750 Rd 756,Lexington,NE,68850,308-746-0276
Mcneal Transport,2425 Hancock Ave,Grand Island,NE,68803,308-258-0525
Mosertruckin,2730 County Road D,Tekamah,NE,68061,402-377-3777
Vaughans Auto Transport,11238 Kentucky Rd,Papillion,NE,68133,402-617-4885
Midwest Restorations,1618 North 203 Street,Omaha,NE,68022,402-991-0339
K & A Trees,412-476th Unit 10,Beaver Crossing,NE,68313,402-576-3050
Estochen Masonry,Box 441,Homer,NE,68030,712-490-3290
H A S,402 Prairie Ridge Road,Mccook,NE,69001,308-345-8870
Farm And Ranch Building Supply,1500 S 1st Street,Norfolk,NE,68701,402-371-2260
Black Diamond Paving,410 E Leota Ste 5 #185,North Platte,NE,69101,308-289-6922
Thomsen Transfer,17148 Co Rd 36,Kennard,NE,68034,402-660-5215
Smokin Stan's Bbq,2311 N 51st Street,Omaha,NE,68104,402-680-6220
Demon Trucking,129 Western Ave,Minden,NE,68959,308-832-7400
J & B Trucking,401 W Bothwell,Oxford,NE,68967,308-824-3645
Chaney Transfer,1813 Road I,Fairmont,NE,68354,402-759-1774
J D Lawns,319 Remington Rd,Papillion,NE,68046,402-250-2181
Scott Farmer,1158 N 24th Rd,Syracuse,NE,68446,402-269-7219
Roys Grand Dodge,1803 Locust St,Grand Island,NE,68801,308-384-8300
Conaway Trucking Company,10269 Oakview Dr,Plattsmouth,NE,68048,402-658-3800
Linton Polled Herefords,77414 Hwy 183,Miller,NE,68858,308-457-1127
Tripp Transportation,22 Park Lane Dr,Elwood,NE,68937,308-991-9991
White Trucking,6753 E Highway 30,Dix,NE,69133,308-249-0641
Kritter Kreek Express,57236 843 Rd,Pilger,NE,68768,402-404-1153
Fuller Trucking,4335 N 1st St #236,Lincoln,NE,68521,402-326-0244
Husker Glass,8415 Blondo Street,Omaha,NE,68134,140-239-7310
Nobody's Business,1201 E 3rd,Ogallala,NE,69153,308-220-8426
Reverts Industrial,606 S 200th St,Elkhorn,NE,68022,402-990-0113
Rm Truk Transportation,803 Ontario Ave,Elwood,NE,68937,308-320-2344
Cd Sign Design,23 Cypress Street,Lorton,NE,68382,402-259-4665
America's Best Choice,13418 Lst,Omaha,NE,68137,402-502-2415
Wrecking Crew,240 Nw 17th St,Lincoln,NE,68528,402-806-7272
Midwest Transportation,260073 Seagull Rd,Scottsbluff,NE,69361,308-631-9517
P & B Livestock Transportation,100 S 8 St Apt D2,Beaver City,NE,68926,402-746-0390
R And E Trucking,606 Lucas St,Gordon,NE,69343,715-896-9995
Timm Farms,14030 S Union Ave,Glenvil,NE,68941,402-984-6698
Tmf Shipping,739 N Hastings Ave #3,Hastings,NE,68901,402-462-0630
Jk Transfer,2164 Southwood Place,Lincoln,NE,68512,402-420-0589
R Fisher Trucking,3308 Ernst St,Omaha,NE,68112,402-917-3671
Cdh Freight,5200 West Mill Rd,Raymond,NE,68428,402-770-3876
Mark David Floors,7052 Maple St,Omaha,NE,68104,402-558-6734
D D Craven Trucking,605 Sunrise Circle,Bassett,NE,68714,402-684-2375
Reiser Trucking,39114 Brownlee Flats,Thedford,NE,69166,308-748-2350
Jacobsen Brothers,1105 F Street,Fairmont,NE,68354,402-366-7105
Lym Framing,24808 Hwy 275,Waterloo,NE,68069,402-972-0931
3pc Transport,5220 West Madison Ct,Lincoln,NE,68524,402-613-3502
J&s Jenkins Trucking,101 N Walnut,Paxton,NE,69155,308-239-4295
Todd Of All Trades,6006 S 149th St,Omaha,NE,68137,402-968-2983
Dave's Complete Home Care,651 N 63rd St,Omaha,NE,68132,402-301-4331
Kent Pigg Trucking,504 So Maple St,Laurel,NE,68745,712-490-8754
Leland Transport,1460 W 12th,Fremont,NE,68025,402-709-0911
Morris Trucking,1740 Nelson Ave,Gering,NE,69341,308-641-8035
J & L Transfer,1006 W Court St,Beatrice,NE,68310,402-806-8855
Parrott Trucking,113 Adams St,Jansen,NE,68377,402-754-4183
Loftus Trucking,410 County Rd C,Ashland,NE,68003,402-944-7636
Fiesta Tours,304 S Pine St,Grand Island,NE,68801,308-384-2448
M And M Home Exteriors,1105 South Grandview Ave,Papillion,NE,68046,402-651-0930
"The Cleaner Company, Inc.",6524 N 91st Plaza,Omaha,NE,68122,402-571-9615
Paul A Grant,1173 County Rd P41,Omaha,NE,68122,402-212-8885
Y F L,401 E 7th,Stromsburg,NE,68666,402-362-8645
Motis Construction,933 F Street,Geneva,NE,68361,402-366-9169
Horton Trucking,302 Galena St,Memphis,NE,68042,402-944-2513
Jbj Enterprises,295 Main St,Beaver Crossing,NE,68313,402-532-2107
P & R Ent,83964 Union Creek Rd,Madison,NE,68748,402-841-0246
D & D Stricker,290306 Cty Rd H,Minatare,NE,69356,308-783-1172
A Model Trucking,405 S A St,Blue Springs,NE,68318,402-239-3915
Campbell Farms,36685 Sodtown Road,Ravenna,NE,68869,308-379-6061
C 7 Farms,1170 Salem Rd,Farwell,NE,68838,308-336-3414
Klug Farms,54475 844 Rd,Meadow Grove,NE,68752,402-675-2365
Lanz Livestock,56950-833rd,Stanton,NE,68779,402-439-2526
Lukes Towing,6135 Homels,Omaha,NE,68117,402-306-3745
Aaa Alan's Always Available,466 County Road M,Yutan,NE,68073,402-625-2093
Kl Walker,Rr 2 Box 227,Bayard,NE,69334,308-586-3082
T C & Company,140 Road W,Leigh,NE,68643,402-487-2281
Whetstine's Monument Setting & Engraving,207 S Gustin St 10,Holdrege,NE,68949,N/A
J L Grant,15912 Nw 56th St,Raymond,NE,68428,402-783-2811
Tatro Farms,1320 Road J,Geneva,NE,68361,402-759-4077
Empty Pockets Trucking,2755 1st Ave,Columbus,NE,68601,402-563-1551
Diamond Plus Products,809 4th Street,Gothenburg,NE,69138,308-537-3204
Heartland Enterprises,654 20 Road,Thurston,NE,68062,402-385-2568
Mid Ne Body,109 South Grand,Callaway,NE,68825,308-836-2366
Logemann Lawns,15456 Reagan Drive,Washington,NE,68068,402-238-0238
B&s Jensen,138 Fremont Street,Mason City,NE,68855,308-215-0385
Miranda's Towing,6043 S 42 Ave,Omaha,NE,68107,225-315-5451
Emrald Green,5058 39 St,Omaha,NE,68107,402-216-5296
Midland Towing,1015 Washington Avenue,Plattsmouth,NE,68048,402-658-0025
Warren Steele & Son,202 19th Rd,Thurston,NE,68062,402-695-2335
S R T LLC,1517 Co Road 2,North Bend,NE,68649,402-936-3191
Garcia Express,2419 N Huston Ave,Grand Island,NE,68803,308-382-5561
Elite Recovery,518 W Hwy 20,Valentine,NE,69201,800-409-6306
O Town Express,2012 G Street,Ord,NE,68862,308-730-2016
Wam,2528 N 62nd St,Omaha,NE,68104,402-934-4281
Ssm Trucking,24 Court Ave,Chappell,NE,69129,970-580-1839
Badcat Construction,4400 Rodeo Rd,North Platte,NE,69101,308-539-4380
Rwt,4323 Seward St,Omaha,NE,68111,402-558-9111
Hooknrun Recovery & Towing,12739 So 38th St,Bellevue,NE,68123,888-535-1255
Razzy's Enterprise,207 W Amity,Clarks,NE,68628,402-206-5443
"Recovery Pros, Inc.",15520 Rita Mary Lane,Louisville,NE,68037,402-234-5050
Purcell,3301 South 19th,Omaha,NE,68108,402-525-2514
L And R Transport Service,19430 17th Road,Kearney,NE,68845,308-216-1214
C&c Trucking,1920 15th Ave Trl 11a,Kearney,NE,68845,402-450-1366
Ductmedic Air Duct Cleaning,10163 J Street,Omaha,NE,68127,402-829-3828
Swirls N More,74249 C Road,Bertrand,NE,68927,308-379-1279
Creative Tile Image LLC,1924 North Gate Rd,Lincoln,NE,68521,402-217-5576
Kennedy Trucking,79070 Rd 423,Callaway,NE,68825,308-836-4486
L P Sales & Repairs,606 Duffield,Hebron,NE,68370,402-768-3315
Hampton Inn And Suites Omaha Downtown,1212 Cuming St,Omaha,NE,68102,402-345-5500
Homewood Suites Omaha Downtown,1314 Cuming St,Omaha,NE,68102,402-345-5100
Pinpoint,611 Patterson St,Cambridge,NE,69022,308-697-7678
Nhm Trucking,120 W O Street,Lincoln,NE,68528,402-730-0139
A Materpiece Design,720 North Frontier Drive,Papillion,NE,68046,402-891-0114
Us Recycling Co,5 East E Street,Ogallala,NE,69153,308-284-3135
"Star 4, Inc.",478 Road T,Clarkson,NE,68629,402-487-2413
"Kokes Repair, Inc.",81472 Mortensen Dr,Ord,NE,68862,308-728-3009
Starlight Transport,5532 S 38th St,Lincoln,NE,68516,402-601-4229
Overbeck Trucking,325 N Walnut,Clatonia,NE,68328,402-432-7219
Solo Transports,7245 Thurston St,Lincoln,NE,68507,402-217-4471
Proclean,706 W Pilcher Ave,Plainview,NE,68769,402-582-3431
Juhl Trucking,402 Randolph,Holbrook,NE,68948,308-493-5372
Sears Hometown Store,5804 2nd Ave,Kearney,NE,68845,308-236-6148
Lawyer Farms,57577 868th Rd,Laurel,NE,68745,402-584-2158
Schumacher Stump Removal,55287 888 Rd,Crofton,NE,68730,402-388-4487
Btd,115 Westgate Dr,Ames,NE,68621,402-720-5409
Bt Trucking,150024 Robidoux Road,Gering,NE,69341,308-750-2216
Abc Towing,606 Avenue B,Minatare,NE,69356,308-633-3195
A And D Trucking,413 Oxnard,Grand Island,NE,68801,620-640-5505
Tde Enterprises,401 S Pennsylvania Avenue,Venango,NE,69168,308-353-0040
Pk Quality Services,747 Belmont Ave,Lincoln,NE,68521,402-770-4546
Quarter Circle T Ranch,43892 Worth Rd,Taylor,NE,68879,308-942-3148
"La Michoacana, Inc.",1723 Dakota Ave,South Sioux City,NE,68776,402-494-1900
Private,215 Paxton,Hayes Center,NE,69032,308-539-2206
Metal Products Company,836 Highway 385,Chadron,NE,69337,308-432-5301
Eskew Livestock,41521 Rd 764,Gothenburg,NE,69138,308-537-2919
Konnerth LLC,7217 Yosemite Dr,Lincoln,NE,68507,402-309-9038
Dvs Express,9375 S Conestoga Ave,Roseland,NE,68973,308-224-5374
Towit,604 Skyview Cir,Norfolk,NE,68701,402-379-4180
Montgomery Auto Transport,2007 Harlan Dr Apt 48,Bellevue,NE,68005,402-516-2526
Hilton Garden Inn Omaha Downtown Old Market Area,1005 Dodge St,Omaha,NE,68102,402-341-4400
Ducky Livestock Transport,6216 Oakridge Drive,Lincoln,NE,68516,517-507-0612
Midwest Casino Tours LLC,7561 Main Street Suite 404,Ralston,NE,68127,402-915-9240
K & K Trucking,1601 G,Fairbury,NE,68352,402-729-2129
Carnero Trucking,402 E 11th St,Imperial,NE,69033,712-293-1742
Erickson And Son Transport,2209 Road 7,Grafton,NE,68365,402-984-6948
B & D Trucking,119 Sheridan St,Gordon,NE,69343,308-282-1307
Lazy W Land And Cattle LLC,90150 Highway 26,Morrill,NE,69358,308-641-2560
Trades Of Code,914 N Platte,York,NE,68467,402-362-0228
Lucky7 Express,420 West Saunders Ave,Lincoln,NE,68521,402-730-7631
Ideal Wheels,104 Hwy 16,Bancroft,NE,68004,402-648-7575
Drop Tine Trucking,224 Johnson St,Funk,NE,68940,308-991-0246
Hunt Farms,803 W Main,Pierce,NE,68767,402-860-1049
Mardos Auto Transport,708 Oak Ridge Road,Papillion,NE,68046,402-763-4797
Dougherty Trucking,87449 Hwy 281,O'neill,NE,68763,402-336-4128
Chavez Trucking,#19 Heather Road,Gering,NE,69341,800-226-3696
Layle Trucking,305 N Pear,Shickley,NE,68436,402-366-9855
Extreme Carnivals,8724 North 31 Street,Omaha,NE,68112,402-537-8004
Short - Handed Independent Trucker Co,306 Sabin St,Scotia,NE,68875,308-850-1595
Nebraska National Transport,711 Mansfield,Bertrand,NE,68927,402-219-1444
Jko Implement And Iron,400,Creston,NE,68631,402-649-0416
Lewis Scrap Iron And Metal,44895 884 Th Ave,Bassett,NE,68714,402-239-0876
Blc Transport,4007 Ann Marie,Grand Island,NE,68803,308-379-6061
Cable Guyz Cableguyz,1945 Sw 5th,Lincoln,NE,68522,402-742-4899
Jeremy Wagner Trucking,51131 Highway 275,Clearwater,NE,68726,402-394-7422
Vance & Lorri Wilkinson,1599 4th Road,Chapman,NE,68827,308-986-2527
Sleepin B Trucking,205 South Monroe,Pilger,NE,68768,405-701-4173
Drive-a-way Concrete,2103 Pleasantview Ln,2103 Pleasantview Ln,NE,68005,402-955-9076
B K Carpenter Trucking,206 Conn St,Superior,NE,68978,402-879-8293
King Farms,1451 County Road 1,Oaklnd,NE,68045,402-380-6495
Fast Attack Transport,130 North Highway 11,Burwell,NE,68823,308-212-0800
Mac Boom,71617 Dove Trail,Mccook,NE,69001,308-340-9248
Gill Trucking,234 W Elm St,Elm Creek,NE,68836,308-224-5211
Grace Trucking,518 Omaha St,Beaver Crossing,NE,68313,402-643-0650
C & J Trucking,1403 Sheridan Dr,Norfolk,NE,68701,402-750-8296
Quarter Valley Trux,57567 825 Road,Howells,NE,68641,402-316-6363
Rusty Guns Trucking,1024 Hodges,Atlanta,NE,68923,580-291-9335
"Nebraska Building Services, Inc.",9400 Larges Ct,Lincoln,NE,68512,402-499-2679
Normans Delivery Service,2304 Linocln Rd A8,Bellevue,NE,68005,402-590-6369
Rt Masonry LLC,1759 State,Blair,NE,68008,402-510-0087
Mead Lumber,4303 E 39th Street,Kearney,NE,68848,308-236-9177
Omaha Bar Scene,5020 N 110th Cir,Omaha,NE,68164,402-206-4426
Nielson Ranch Company,2008 241st Trail,Ellsworth,NE,69340,308-762-6962
Homestory Of Omaha,6536 South 118th Street,Omaha,NE,68137,402-505-8770
Kaslon Trucking,421 E Chestnut St,Orleans,NE,68966,308-473-1020
Hall N Cows Express,805 4th Ave Rm 514,Holdrege,NE,68949,352-272-0904
Dc Delivery,9513 Bedford Ave,Omaha,NE,68134,402-880-1326
M & J Transport,207 Nebraska Ave,Arapahoe,NE,68922,308-340-5336
Love Halling,1378 J Ave,Jackson,NE,68743,712-251-4043
Gbs Transport Service,27395 Country Road,Valley,NE,68064,402-960-9493
G&s Auto,35425 Road 702,Stratton,NE,69043,308-276-2214
Sunka Wakan Trucking,83504 Milburn Ave,Brewster,NE,68821,605-415-6605
Hudson Lawn Care,16112 Wright Plaza,Omaha,NE,68130,402-616-2998
Hunt Enterprises,90292 N Ash Street,Springview,NE,68778,402-497-3600
Dr Enterprises,230529 Highland Rd,Scotts Bluff,NE,69361,308-672-4852
Kropatsch Trucking,220 S State St,Osceola,NE,68651,402-363-8594
Ck Trucking,509 Industrial Parkway,Madison,NE,68748,402-992-1731
5k Trucking,302 South Main St,Plainview,NE,68769,402-582-3304
Mule Wagon Express,706 N Maple,North Loup,NE,68859,308-850-0016
Lammers Farms,303 S Portland,Hartington,NE,68739,140-225-4671
Mama J's Transport,49486 839th Road,Bartlett,NE,68622,402-336-7264
"Eagle Builders, Inc.",11726 Laura Ave,Bellevue,NE,68123,402-965-9230
Cybernet Trucks,2701 Candlewood Lane,Lincoln,NE,68521,402-216-6058
"Fjm Transport, Inc.",1905 G Street Apt 14,Lincoln,NE,68510,402-610-5593
Encore Embroidery Equipment,6108 Havelock Ave,Lincoln,NE,68507,402-890-2742
"Brady And Amy's, Inc.",507 W 3rd,Madison,NE,68748,402-454-6531
Tnt Carports,5124 S 20st,Omaha,NE,68107,402-213-1425
Wetzler Trucking,1008 Millard Ave,Creighton,NE,68729,402-394-8953
Cje Transport,212 West 7th St,Grand Island,NE,68801,202-521-1484
Caleb Morgan Arborist,7110 Morgan Cr,Omaha,NE,68152,402-618-9036
Oneil Scrap Iron,113 S Center,Wauneta,NE,69045,308-883-0040
River Rats Salvage,621 South 9th Street,Nebraska City,NE,68410,402-874-0119
Midlands Restoration,1521 N 11th St,Omaha,NE,68110,402-346-7424
Liakos Farming & Feeding,11298 Cr83,Bayard,NE,69334,308-586-1387
Nes,14977 Grover St,Omaha,NE,68144,402-315-4411
J K Carpentry,4228 Florence Blvd,Omaha,NE,68110,402-457-3020
Jay Baumann Trucking,104 Market Place,Norfolk,NE,68701,402-992-2406
Marushak Trucking,1416 10th St,Columbus,NE,68601,402-910-8089
Twin City Towing,502 1/2 W 18th St,Scottsbluff,NE,69361,308-631-4104
"Eastman, Inc.",2316 Willow Cir,Bellevue,NE,68123,402-206-3835
J&s Hauling,1727 N 15 St,Beatrice,NE,68310,402-230-1256
A & T Electric,7092 Dodge Rd,Hemingford,NE,69348,308-763-1607
Alan L Witte Sales And Service,1719 W 2nd St,Hastings,NE,68901,402-463-0057
"Klever's Towing, Inc.",409 E 10th Street,Schuyler,NE,68661,402-515-2443
Midwest Electronic Recycling,14615 Grover St,Omaha,NE,68144,402-201-2270
Schake Livestock,202 North 25th St,Ashland,NE,68003,402-340-7933
4 Smokin Blondes,1510 S 193 Street,Omaha,NE,68130,402-972-5520
La Ranches,2620 Rd 39w,Kimball,NE,69145,308-235-5811
Long Pine Farm,88499 Us Hwy 183,Long Pine,NE,69217,928-774-9283
Roberto Martinez,216 N A St,Shelton,NE,68876,308-258-3401
Zayn 2,1421 Hilltop Rd Apt 101,Lincoln,NE,68521,402-405-8089
Hallock Ranch,89682 Union Avenue,Springview,NE,68778,402-497-3631
Two Men And A Truck,6400 Cornhusker Hiway Suite 225,Lincoln,NE,68507,402-466-4669
Restore Ministries,2811 30th Ave,Kearney,NE,68845,308-440-2022
S & F Trucking,15343 Drexel Circle,Omaha,NE,68137,402-203-0543
World Of Bees,2001 W Foothills Rd,Lincoln,NE,68523,402-309-9047
D L Fischer,323 West 23rd Street,South Sioux City,NE,68776,402-494-4536
Prosser Trucking,420 Broadway,Champion,NE,69023,308-883-8460
7n Transport,85771 529th Ave,Neligh,NE,68756,402-640-0161
Armstrong Trucking,47879 Mill Rd,Ord,NE,68862,308-728-3937
Night Hawk Express,6204 Curtis Ave,Omaha,NE,68104,402-415-9766
A & L Trucking,1716 3rd Ave,Kearney,NE,68845,308-529-1915
Thiemann Trucking,17266 S 148 Rd,Adams,NE,68301,402-239-6091
Breaking Ground,6610 N 264th Circle,Valley,NE,68064,402-779-4444
Cn Transport,403 1/2 S Hardy,Madrid,NE,69150,308-326-4620
Koehler Trucking,1403 Channel Road,Norfolk,NE,68701,402-649-8503
Ernie Whiting,50543 852nd Road,Ewing,NE,68735,402-340-5109
Jh Trucking,308 North Spruce,Gordon,NE,69343,202-521-1493
R-n-d's Quality Carpet And Painting LLC,202 W Ave B,Oshkosh,NE,69154,308-464-0437
Davis Trucking,2105 Elkhorn Rd,Whitney,NE,69367,308-430-5535
R A Reza,2119 J Street,Ord,NE,68862,308-760-0034
Mount Carmel Home,412 West 18th,Kearney,NE,68845,308-237-2287
Hammer Seamless Gutter,524 Ave C,Plattsmouth,NE,68048,402-298-4091
Tri State Highway Maintenance LLC,438 1/2 B St,Lincoln,NE,68502,402-637-3612
J R Trucking,302 W 1st,Big Springs,NE,69122,308-289-4793
Joe Smith,60899 Sunflower Rd,Mitchell,NE,69357,308-631-8487
Auto Turn Trucking,501 W Lancaster,Blue Hill,NE,68930,402-756-3095
Benstrans,403 Maple Street,Chadron,NE,69337,706-224-7616
777 Express,458 N 24th St,Lincoln,NE,68503,402-570-9332
Father & Son Trucking,1 Durwood Lane,Hastings,NE,68901,402-834-0403
Snap On Tools,7457 370th Trail,Rushville,NE,69360,605-209-6136
Peter Enterprise LLC,6870 North 24th Street,Omaha,NE,68112,402-451-6257
Smoking Gun Jerky,443 N 48th Street,Lincoln,NE,68504,402-467-6315
"Paunchy Springs, Inc.",721 Parker St,Cambridge,NE,69022,308-697-3802
Taylor Trucking,208 East Madison,Norfolk,NE,68701,402-379-6528
Pietrzak Trucking,714 Elmhurst Drive,Papillion,NE,68046,402-237-9172
Rusher Hardscapes & Sprinklers,1002 Max Drive,Imperial,NE,69033,308-883-0353
M S & Sons Transportation,4312 Link 34 E,Kimball,NE,69145,517-507-0612
60th St Auto Sales,6101 L Street,Omaha,NE,68117,402-884-3824
Cas Farm Enterprises,2269b Big Island Road,Fremont,NE,68025,402-720-3603
Andersen Trucking,7885 County Road 34,Fort Calhoun,NE,68023,402-651-8558
Rulon's Woodworking,15858 Larimore Plz Apt 89,Omaha,NE,68116,402-672-7425
Xotic Customs,2045 S Folsom St Ste C,Lincoln,NE,68522,402-525-9929
Chappell Door Service,16551 Rd 14,Chappell,NE,69129,308-874-2267
Pit Stop,101 Hwy 275,Meadow Grove,NE,68752,402-634-2220
Rooney Trucking,42546 German Valley Rd,Brewster,NE,68821,308-547-2482
2 Kings Transportation,816 W Burt Dr,Lincoln,NE,68521,402-314-3098
Soule Transport,40329 11th Avenue,Mitchell,NE,69357,308-641-5026
Sugar Valley Transport,2201 W 19th St,Scottsbluff,NE,69361,308-765-0811
Dragoon Mountain Express,209 Shamrock Rd,Gretna,NE,68028,520-990-2945
Good Times Roll,6311 S 245th St,Elkhorn,NE,68022,402-609-9009
Helping U Barbeque,15791 W Dodge Ste131,Omaha,NE,68118,402-932-4578
Exhaust Pro's,3601 S St,Omaha,NE,68107,402-637-9879
Tm Enterprises,12724 S 29th St,Bellevue,NE,68123,402-917-4111
Walden Enterprise,405 4th Ave #404,Holdrege,NE,68949,706-741-6902
Denny's Trucking,1720 Garfield St,Beatrice,NE,68310,202-521-1493
Roberts Custom Hauling,550 North County Road,Broadwater,NE,69125,308-279-0640
Schurman Trucking,86547 563 Ave,Randolph,NE,68771,402-337-0778
Slice Transport,941 N 7th St,Seward,NE,68434,402-641-2842
Kohles Trucking,305 E Oniell St,Battle Creek,NE,68715,402-640-4605
Nu-trend Dry Cleaners,1316 N 181st Ave,Elkhorn,NE,68022,402-650-0470
Storm Transportation,2755 River Road Drive,Waterloo,NE,68069,402-779-2000
Townmart,4732 N 71st,Lincoln,NE,68503,405-701-4173
Tes Truck & Equipment Sales,41364 Road 761,Gothenburg,NE,69138,308-529-2202
Kilis Siding And Gutter,4412 Center Street,Omaha,NE,68105,402-297-0723
Midwest Medical Transport Company,2155 33 Avenue,Columbus,NE,68601,402-563-3396
Danas Gift Shop,4733 South 24th St,Omaha,NE,68107,202-521-1493
Kunc Trucking,1105 Jefferson Ave,Hebron,NE,68370,402-984-1149
L&m Gomez Trucking,1420 Boise Ave,Alliance,NE,69301,308-760-4239
President,6202 Orchard Ave,Omaha,NE,68117,402-401-6185
Cj Lawnscapes & More,5505 S Street,Omaha,NE,68117,402-677-1853
Silent Shadow Trucking,1200 Hespe Dr Apt 202,Norfolk,NE,68701,559-415-5050
Jme Tranz,121 Iowa,Murdock,NE,68407,402-.35-0.25
Knaub Distribution,13909 Edna St,Omaha,NE,68138,402-214-0277
Chavez General Interprise,803 W Maple,Sutton,NE,68979,402-759-5374
Rockn V Transfer,777 123rd Rd,Stromsburg,NE,68666,402-366-7319
Connelly Trucking,422 Webster Ave Box 31,Genoa,NE,68640,402-948-0278
Mamaritas,815 E 20th St,South Sioux City,NE,68776,712-389-6054
Bartels Seed,402 W Harold St,Crofton,NE,68730,402-640-8011
Daugherty Land & Cattle,5605 Knox Rd,Alliance,NE,69301,308-760-0726
Zippy Shell Nebraska,1916 S 183rd Circle,Omaha,NE,68130,402-210-5090
M N H Trucking,412 E 9th Street,Bridgeport,NE,69336,308-279-1267
M&n Trucking,4914 33rd Street,Columbus,NE,68601,402-389-1933
Joel Mcafee,84987 585th Ave,Pender,NE,68047,402-369-3432
Perimeter Fence,4626 N 94th St,Omaha,NE,68134,402-850-8791
Road Bound Transport,1603 15 St,Columbus,NE,68601,402-910-2453
H&h Trucking,89598 Rager Rd,Gordon,NE,69343,308-360-1803
Rj Daly Trucking,1505 Bucktail Rd,Paxton,NE,69155,308-726-2317
Scott Kort Trucking,18900 S Elkhorn Ave,Blue Hill,NE,68930,402-984-3837
Cts Farm,71853 T Road,Alma,NE,68920,308-991-5126
Elite Aerial,1802 Ridgewood Drive,Papillion,NE,68133,402-999-6025
Stewart Farm & Ranch,88790 5825th Ave,Newcastle,NE,68757,202-521-1493
Arrow Freight Lines,2810a Melacon,Elwood,NE,68937,N/A
Ltx,4070 Hwy 30,Elm Creek,NE,68836,308-233-4169
Sts,130690 Stongate Rd,Minatare,NE,69356,308-783-2152
Zeleny Trucking,3510 Hancock Street Lot 93,Omaha,NE,68005,402-706-9610
D & L Trucking,5418 S 105th,Omaha,NE,68127,402-596-9129
Holiday Van & Storage,4512 S 68th St,Omaha,NE,68117,402-734-3834
John Kavanaugh Karriers,87519 487th Avenue,Emmet,NE,68734,402-256-9015
Nerud Harvesting,1079 County Rd 1200,Dorchester,NE,68343,402-416-9562
Hgt,609 W Main St,Humphrey,NE,68642,402-841-8367
Robert Smith Trucking,3812 Se 7th St,Columbus,NE,68601,402-564-3974
Elite Exteriors,201 Oakcreek Dr,Lincoln,NE,68528,402-466-1001
F & F Trucking,105 W Apple,Shelby,NE,68662,402-276-2161
Twin Valley Commodities,550 Rd W 85,Brule,NE,69127,308-284-2477
Beaver Creek Fencing LLC,1107 Rd C,Bradshaw,NE,68319,402-736-4669
Emerald Ranch,9964 Rd 48,Gurley,NE,69141,308-250-1203
C J Trucking,539 N 9th,Geneva,NE,68361-1109,402-759-5273
Lazy E P,Hc 30 Box 105,Mccook,NE,69001,307-532-5726
Kelly Discount Equipment Sales,4425 S 87 St,Omaha,NE,68127,402-390-2388
B & L Trucking,1021 N Roosevelt,North Platte,NE,69101,308-534-0693
Hei Transport,9420 Third Street,Lincoln,NE,68526,402-805-3683
Robert Blanke Trucking,2880 Rd 111,Sidney,NE,69162,308-254-6312
Wild Card Trucking,10495 N 1st Ave Place,Kearney,NE,68847,308-234-1497
Hds Transit,3801 Nw 34th,Lincoln,NE,68524,402-441-5895
Twarling 38 Ranch,522 Frances St,Dalton,NE,69131,308-377-2508
Tl King Trucking,2047 N Cotner Blvd,Lincoln,NE,68505,402-467-5496
Brauer Ag Consulting,110 Jackson Ave,Seward,NE,68434,402-641-5657
Nick Busch Trucking,1314 Jackson Street,St Paul,NE,68873,308-750-9007
Smeal Services,8020 Maple St,Omaha,NE,68134,402-321-6301
Blaise Trucking,1903 9th St,Columbus,NE,68601,402-276-6695
Jeramy J Klausen,204 Adkins Dr,Laurel,NE,68745,402-256-9167
Scott Sauer,190111 Loseke Road,Scottsbluff,NE,69361,308-631-6060
Reid's Farmacy LLC,1060 Ashland Road,Ashland,NE,68003,402-944-2139
Cano Trucking,715 S Sycamore,Grand Island,NE,68801,308-380-5677
Tiger Transport,1410 Rd 103,Sidney,NE,69162,308-249-5970
6040 Trucking,8154 E Road 106,Bayard,NE,69334,308-672-6476
