Company Name,Street Address,Address Locality,Address Region,Postal Code,Telephone
Automotive Street Styles LLC,2745 Moliere Ct,Henderson,NV,89015,416-209-1313
Rj Transport,3486 Willow Hills Circle,Reno,NV,89512,775-313-5011
Italian American Transport,Po Box 33584,Las Vegas,NV,89133,702-292-5646
Boc Trucking,513 Iron Stirrup Ave,North Las Vegas,NV,89081,702-405-9587
Best Connection Logistics,9651 Autumn Leaf Way,Reno,NV,89506,775-772-1117
Victory's Trucking,3585 Artemisia Rd,Winnemucca,NV,89445,775-625-1473
Get 'er Done Trucking,5175 Mandalay Springs Dr,Las Vegas,NV,89120,702-435-6117
Lady Luck Trucking,2425 Crestone Drive,Reno,NV,89523,530-210-3681
Over The Hill Truck'n,7835 Bass Street,Silver Springs,NV,89429,775-771-4517
Slaton Trucking,2615 Fir Street,Silver Springs,NV,89429,916-849-1674
Exotic Transport,6443 Lake Scene Street,Las Vegas,NV,89148,702-569-2349
Lynch Trucking,12200 Jean Way,Reno,NV,89506,775-287-2219
Chicas Trucking,3116 Cardinal Drive,Las Vegas,NV,89121,702-809-4112
A And D Services,3230 Wedekind Rd,Sparks,NV,89431,775-745-5846
Jake Trucking Company,363 Seine Way,Henderson,NV,89014,702-300-1614
Intrepid Transport,3321 Western Ave,Las Vegas,NV,89109,702-405-9848
Geo Trucking,3662 Springbud Dr,Las Vegas,NV,89147,702-622-1440
Lance's Water Truck,530 13th Street,Sparks,NV,89431,775-313-2235
C & A Trucking,3050 N Jones,Las Vegas,NV,89108,702-333-0623
Eclipse Distributing,9103 Clear Sky Avenue,Las Vegas,NV,89178,702-430-9901
B And M Express,2106 Bourgogne St,Carson City,NV,89701,775-560-1438
M & E Transport,211 Lynbrook St,Henderson,NV,89012,702-263-7023
Norland Trucking,6091 Katie,Pahrump,NV,89061,702-696-8382
"Xpress Delivery Service, Inc.",3350 W Ali Baba Ln Suite B,Las Vegas,NV,89118,702-492-9390
Diamond Dawg Trucking,1870 Smith Street,Las Vegas,NV,89108,702-810-8513
Gs1 Trucking,10958 Porto Foxi St,Las Vegas,NV,89141,702-308-8252
Smg Services,5319 Skystone Dr,Sparks,NV,89436,775-224-6006
Jk Trucking,304 Van Dalia,Las Vegas,NV,89106,702-503-3908
Lcr Transportation,1559 Vegas Valley Dr,Las Vegas,NV,89109,702-719-9053
W E B Transport,6868 Sky Pointe Drive #1155,Las Vegas,NV,89131,702-423-0434
Garcia's Food Service,6411 Strongbow Dr,Las Vegas,NV,89156,702-834-6009
Genesis Trucking,2983 Ferndale Street,Las Vegas,NV,89121,702-358-7684
Jc And Sons Trucking,1 Lewis Lane,Moapa,NV,89025,702-202-1248
"Derek Bowen Distributing, Inc.",7835 S Rainbow Blvd 3-16,Las Vegas,NV,89139,N/A
La-vegas Daily Express,1665 Sahara Ave 2121,Las Vegas,NV,89104,N/A
Gm Transport,1220 Tree Line Drive,Las Vegas,NV,89142,N/A
Rem Trucking,1218 Melarkey St,Winnemucca,NV,89445,775-623-5542
Gc Trucking,3124 Brady Ave,Las Vegas,NV,89101,702-428-4462
Global Moving And Storage,10161 Park Run Dr #150,Las Vegas,NV,89145,702-463-9677
Gaf Auto Transporters,3301 South Heritage Way,Las Vegas,NV,89121,702-735-9129
Sierra Golf Cart & Auto,39 Webb Circle,Reno,NV,89506,775-972-3205
Monkeys Trucking,3970 El Camino Road,Las Vegas,NV,89103,702-241-1439
Star Transport,2717 Eagle Springs Ct,Las Vegas,NV,89117,702-982-5131
Proffesional Roofing Services,4180 W Patrick Lane,Las Vegas,NV,89118,702-796-7663
Dh Transport,10025 Dove Ridge Dr,Las Vegas,NV,89117,702-722-8917
Uv Camarillo Trucking,4109 Arcola Ave,Las Vegas,NV,89110,702-689-3739
Sin City Trucking,400 Max Court,Henderson,NV,89011,702-273-9214
Aries Express,9635 Mayhew Drive,Winnemucca,NV,89445,775-247-3872
Chaparral Freightlines,3300 S Needles Hwy #72,Laughlin,NV,89029,702-420-6540
Yargi Express Car Shipping Transportation,525 Wing Gull Ct,North Las Vegas,NV,89032,702-325-7289
Double G Trucking,3400 W Lynx Rd,Winnemucca,NV,89445,775-623-3653
Patriot Freight Service,1000 East William St Suite 204,Carson City,NV,89701,909-992-0433
Blue Moon Exterminators,290 Talus Way,Reno,NV,89503,775-232-3738
Above And Beyond Transport,919 Sangabriel,Henderson,NV,89002,702-564-2426
Mrd Trucking,408 Cherry Meadows Ct,Las Vegas,NV,89145,702-804-7910
Ms Trucking,370 Casa Norte Drive #1048,North Las Vegas,NV,89031,702-768-0201
Midnight Air Farms,8212 Cabin Springs Ave,Las Vegas,NV,89131,702-278-1399
D & J Classic Auto Transport,4400 Saddlehorn Drive,Reno,NV,89511,775-852-6213
Slobber Dog Trucking,8219 Timely Treasures Ave,Las Vegas,NV,89178,702-807-8940
Automove,1150 N Buffalo Dr 1023,Las Vegas,NV,89123,702-363-4661
Blue Street Trucking,5013 Meadows Lilly Ave,Las Vegas,NV,89108,702-839-0870
Sandoval-leyva Trucking,703 Yew Barrow Ct,Henderson,NV,89011,702-240-2793
Dimensions Delivers,4050 W Sunset Road Suite B,Las Vegas,NV,89118,702-944-6091
Jesus S Trucking,1625 Arthur St,North Las Vegas,NV,89030,702-265-1588
Express Shuttles,2162 N Lamb Blvd Suite K,Las Vegas,NV,89115,702-505-4281
Top Tours Of Las Vegas,5115 Dean Martin Drive #408,Las Vegas,NV,89118,702-538-9305
D&j Trucking,6500 Fern St,Reno,NV,89506,775-830-8382
Gg Transportation,108 Amethyst Stars Ave,North Las Vegas,NV,89031,702-649-4150
L&l Transport,3416 Baldoyle Ln,Las Vegas,NV,89129,702-547-6011
Rite Now Transporting,655 Oregon Ave,Sandy Valley,NV,89019,702-723-1290
Malagons Trucking,1645 Ridgeland Dr,Sparks,NV,89434,775-750-5168
H R Cattle Co,500 Mcneil St,Winnemucca,NV,89445,775-304-5339
Mp Delivery,1015 20th Street,Sparks,NV,89431,775-303-0988
Merrifield Trucking,4645 Aster Dr,Reno,NV,89502,775-772-6836
Rapid Logistics,2300 Angelfire St,Las Vegas,NV,89128,702-772-5840
"24-7 Production Services, Inc.",2965 Westwood Drive,Las Vegas,NV,89109,702-699-7053
Jc Trucking,4255 W Viking Rd #199,Las Vegas,NV,89103,323-228-6054
Chimney Peak Freight,1100 S Highway 95,Beatty,NV,89003,760-377-5244
Nevada Party Bus,2080 Mill St Suite B,Reno,NV,89502,775-815-2313
N & L Trucking,4299 El Cholo Way,Las Vegas,NV,89121,702-336-7522
J&j Delivery Service,4440 E Tropicana # X0004,Las Vegas,NV,89121,702-457-8554
Alas Transport,6363 Tanager Way,Las Vegas,NV,89103,702-722-7978
Fundin Pump & Well Service,4030 Eastlake Blvd,Washoe Valley,NV,89704,775-849-1027
Anaya's Transport LLC,1530 E Sahara Aver,Las Vegas,NV,89104,702-773-2694
Blackhat Trucking,8985 South Durango Drive Unit 1137,Las Vegas,NV,89113,206-426-1028
J Deleon Trucking,3810 Snipe Dr,Reno,NV,89506,775-996-1884
Party Up Vegas Shuttles,1500 E Sahara Ave Ste E3,Las Vegas,NV,89104,702-405-8000
Moomoo-moving Services,5400 Mountain Vista St #1415,Las Vegas,NV,89120,702-762-2908
Ed Smith Trucking,721 Eagle Ave,Sandy Valley,NV,89019,702-723-1346
Polo Transportation,202 Alexandrite Ct,Sun Valley,NV,89433,775-843-4043
Lisbanis Transportation,5249 Sun Valley Dr,Las Vegas,NV,89122,702-542-2319
Seiling Trucking,3850 S Verde Avenue,Pahrump,NV,89048,702-250-2935
A Sprint Delivery LLC,4681 E Leonesio Drive,Sun Valley,NV,89433,775-322-3358
La Dolce Vita,645 Oxbow Court,Reno,NV,89511,775-853-1692
Leon Trucking,3760 Leisure Lane,Las Vegas,NV,89103,702-696-0589
Craigs Car Transport,5392 Siltstone Way,Sparks,NV,89436,775-626-8562
Larry's Hauling,3256 Sky View Drive,Wendover,NV,89883,775-664-9994
Pineda West Transport,8806 Sierra Linda Dr,Las Vegas,NV,89147,702-301-8806
Heritage Extradition Services,123 W Nye Lane Ste 129,Carson City,NV,89706,775-884-9380
All American Moving And Storage,1958 Nuevo Rd,Henderson,NV,89014,702-232-4014
Sierra Hot Shot Transport LLC,3150 Kings Cyn Rd,Carson City,NV,89703,775-671-4557
Boxer Trucking,713 K St,Sparks,NV,89431,775-745-1704
Metro Truck Line,9500 West Maule Ave Unit 2005,Las Vegas,NV,89148,702-750-4807
M & K Transportation,1406 E Hometown Ave,Henderson,NV,89074,702-443-5585
Joker Logistic,2753 Craigmillar Street,Henderson,NV,89044,702-528-8561
Mayne Trucking,1750 Castleberry Lane,Las Vegas,NV,89156,702-768-9891
Magana Trucking,4350 Elm St,Winnemucca,NV,89445,775-623-0471
Gear Transport,1492 Echo Falls Ave,Las Vegas,NV,89183,702-522-9944
J F Sotelo Transport,900 Shoshone Drive,Reno,NV,89512,775-356-6294
R And N Trucking,208 W Boston Ave Apt,Las Vegas,NV,89102,303-870-5099
Hauling Men,350 Gentry Way #14,Reno,NV,89502,775-826-0381
Tafoya Trucking,4793 Terra Linda Ave,Las Vegas,NV,89120,702-415-8598
Rd Express,1729 Palo Alto Cir,Las Vegas,NV,89108,702-767-5331
All Material Transport,10657 Angel Dreams Ave,Las Vegas,NV,89144,702-426-9494
Transportes Wilson,1709 Leslie Ave,Las Vegas,NV,89101,702-649-2177
Sec,3027 E Sunset Rd Ste 201,Las Vegas,NV,89120,404-357-4683
Saul N Trucking,3408 Turquoise Rd,Las Vegas,NV,89108,702-504-8420
Rc Trucking,2883 San Juan Circle,Minden,NV,89423,775-267-1641
Vegas Trucking,8183 Shoreham St,Las Vegas,NV,89117,702-227-3638
Fretwell Transport,4840 Cessna Drive,Winnemucca,NV,89445,208-989-8395
Grb Transport,2972 Capistrano Circle,Las Vegas,NV,89169,770-205-0218
Ferrers Trucking,2202 Pardee Place,Las Vegas,NV,89104,702-812-7592
Rms Transport,104 Health Aster Ct,Las Vegas,NV,89183,702-614-4804
Empire Freight,1487 Empire Ranch Road,Carson City,NV,89701,775-882-1149
Jc Furniture,2201 Civic Center Drive,North Las Vegas,NV,89030,702-657-8843
Xalis Transportation,3683 Rochester Ave,Las Vegas,NV,89115,702-845-9489
Garcia & Sons Service,3295 N Nellis Unit 13,Las Vegas,NV,89115,702-438-9830
Flores Trucking,4242 Montdale Avenue,Las Vegas,NV,89121,702-630-4297
F J Transport,240 Shetland Cir,Reno,NV,89508,775-969-3977
Shoop Trucking,4790 Caughlin Pkwy # 713,Reno,NV,89519,775-434-9974
Speedway Auto Center,5977 Mcleod Dr,Las Vegas,NV,89120,702-458-5008
J&r Trucking,7605 Glorietta Bay Court,Las Vegas,NV,89139,702-893-6531
Nevada Cargo,3928 Hampton Grove Ct,Las Vegas,NV,89129,702-768-2368
Angel Trucking,2333 E Bonanza Road,Las Vegas,NV,89101,702-415-5711
Mjm Express Freight,15509 Quicksilver Drive,Reno,NV,89511,530-913-6365
Hiline Xpress,2750 S Durango Dr Ste 2057,Las Vegas,NV,89117,818-322-5447
Mo Trucking Co,3225 Mcleod Drive Ste 100,Las Vegas,NV,89121,323-202-2311
Sage Trucking,250 Ave De Couloeurs,Sparks,NV,89434,775-342-0903
Jimenez And Son Trucking,309 Eldorado Canyon Street,Las Vegas,NV,89107,702-648-9877
Jcp Trucking,921 Green Valley Drive,Fernley,NV,89408,775-575-6388
Xtreme Heavy Haul,4375 N Las Vegas Blvd,Las Vegas,NV,89115,702-368-3900
Jos Trucking,1600 Ardmore St,Las Vegas,NV,89104,702-755-0087
Saborit Truckin,9658 Quarterhorse Ln,Las Vegas,NV,89178,702-263-7023
Dasmarelis Perez,1508 Canyon Rose Way,Las Vegas,NV,89108,702-638-1039
Beto Transportation,3053 W Craig Road Ste E #229,North Las Vegas,NV,89032,702-927-0477
Tlc Construction Backhoe Service,951 Riverview Drive,Gardnerville,NV,89460,775-265-4293
Wicked Transport,263 South G Street,Virginia City,NV,89440,775-691-8732
Brothers Star,1824 Vanderbilt Court,Las Vegas,NV,89104,702-372-3248
C Hinkle Trucking,1220 Soda Lake Road,Fallon,NV,89406,530-347-9033
D S Schmidt Trucking,1480 Wildes Road,Fallon,NV,89406,775-223-1703
Over The Road Truck'n,9300 Navajo Trail,Stagecoach,NV,89429,775-629-9242
C D L Trucking,6351 Strongbow Dr,Las Vegas,NV,89156,562-866-4144
Humbolt Trucking,4825 Airview,Winnemucca,NV,89445,775-846-7308
Government Contracter,32033 Austin Hwy 50,Austin,NV,89406,775-426-2001
Keliinoi Trucking LLC,8997 Ivybridge St,Las Vegas,NV,89123,702-293-5996
V Salomon Transport,1413 E Oakey Blvd,Las Vegas,NV,89104,702-384-7427
Silver State Trucking,9550 S Eastern Ave Suite 253,Las Vegas,NV,89123,702-430-9466
T C L,75 Bank Street Suite 3,Sparks,NV,89431,775-351-2555
Fly By Day Express Delivery Service LLC,68 Brown Swallow Way,Henderson,NV,89012,702-566-5963
Ss Transportation,1115 Majestic Court,Reno,NV,89503,775-530-8150
Servicios Dominicano Transport,2412 E Ogden Avenue,Las Vegas,NV,89101,702-464-3003
Action Services Unlimited,1350 East Flamingo Rd #3340,Las Vegas,NV,89119,619-247-2922
First Choice Trucking,9706 Cathedral Stairs Ct,Las Vegas,NV,89148,702-612-5331
Mark Keller Transportation,6955 N Urango Dr Unit 1115,Las Vegas,NV,89149,702-478-7617
Solo's Trucking,1422 Lodgepole Drive,Henderson,NV,89014,702-478-6712
Wong Transport,3332 Beca Faith Drive,North Las Vegas,NV,89032,702-415-0322
Are Trucking,5795 W Flamingo Road #112,Las Vegas,NV,89103,702-335-0444
J & D Enterprise,6980 Berkshire Place,Las Vegas,NV,89147,702-247-4916
Jw Cattle Company,3485 East Commander Drive,Winnemucca,NV,89446,775-335-5229
Rafter 5 R Trucking,11925 Deodar Way,Reno,NV,89506,530-260-6804
Meza Trucking,1005 Ferguson Ave,North Las Vegas,NV,89030,702-399-9350
Ac Trucking,3247 Gold Run St,North Las Vegas,NV,89032,702-638-1087
Aloha Trucking,245 Front Street,Fernley,NV,89408,775-354-6042
G & E Trucking,6231 Cambria Ave,Las Vegas,NV,89108,702-638-1965
Napa Auto Parts,174 Glendale Ave,Sparks,NV,89431,775-353-0402
Norsemen Drayage,425 North Trescott Suite 12,Battle Mountain,NV,89820,775-560-1630
Arrow Exp,59 Damonte Rnch Pkwy B 263,Reno,NV,89521,775-232-8333
A&p Trucking,3954 Bridle Ct,Las Vegas,NV,89121,702-789-8269
Nestor Avila,3626 Bronco Rd,Las Vegas,NV,89103,702-822-6283
Aguilar Transportation,60 Tierra Buena,Las Vegas,NV,89110,702-275-7510
Zapoteco Trucking,5408 Alpine Place,Las Vegas,NV,89107,702-822-6830
Mordazo Trucking,409 Lakehurst Rd,Las Vegas,NV,89145,702-256-8957
J Q Transportation,923 Sagerock Way,North Las Vegas,NV,89031,702-338-8038
J & K Hartnett Water Truck Service,105 Gymkhana Lane,Reno,NV,89508,775-969-3703
Ocean Express Sea Food,3155 East Patrick Lane Ste 13,Las Vegas,NV,89120,702-436-7005
Aloha Transport,4894 W. Lone Mountain Rd. Suite #114,Las Vegas,NV,89130,702-355-6163
Ndad Trucking,2725 Harrigan Road,Fallon,NV,89406,775-867-5887
Pauls Trucking,3230 E Flamingo Rd Ste 8,Las Vegas,NV,89121,702-508-7363
Midnite Express,1185 Tyler Way,Sparks,NV,89432,775-527-1535
Las Vegas Freight,3360 Paso Andres Street,Las Vegas,NV,89146,702-248-0777
Almazan Trucking,3229 Lapis Beach Drive,Las Vegas,NV,89117,702-405-7461
Nationwide Transport,3120 Pleasant Brook St,Las Vegas,NV,89142,702-302-8468
Lempira Transport,3246 Gold Run St,Las Vegas,NV,89032,702-927-3271
Rtw Transport,5072 Village Drive,Las Vegas,NV,89142,702-818-3967
C & L Trucking,808 8th St,Boulder,NV,89005,702-581-8873
Five Star Moving & Storage,800 Stillwell Road Suite 40,Reno,NV,89512,775-355-7988
Silver State Transport,4420 Mitchell St,North Las Vegas,NV,89081,702-643-2218
Lvlm,4512 Yellow Harbor Street,Las Vegas,NV,89129,702-253-7848
C W Transport,8697 Roping Rodeo Avenue Bldg 103,Las Vegas,NV,89178,702-806-7185
Road Runner Trucking,101 Wendover Ave,Las Vegas,NV,89110,702-525-4656
Wpps Transport,510 Sparrow Gull Court,North Las Vegas,NV,89032,702-639-6943
Esquer-one Trucking,6414 Goldmine Drive,Las Vegas,NV,89156,702-457-5885
M Enniss Specialized Transport,705 Thoroughbred Circle,Reno,NV,89508,775-750-4732
Anaya Trucking,4747 Pennwood Ave,Las Vegas,NV,89102,702-979-0709
J&g Automotive Recylclers,2380 N Gateway Rd,Las Vegas,NV,89115,702-419-6397
Backhoe Service,675 West Bettles Road,Amargosa Valley,NV,89020,775-372-5162
Arellano Trucking,4647 Linda Avenue,Las Vegas,NV,89121,702-413-5039
Uptown Expedited Logistics,2024 Western Ave,Las Vegas,NV,89102,702-433-8500
Xtreme Auto Transport,9515 Stoney Creek Way,Reno,NV,89506,775-356-6294
Ocs Boat Movers,5546 Camino Al Norte Ste 1-2,North Las Vegas,NV,89031,702-336-4354
Z-best-transportation,2620 S. Maryland Pkwy #423,Las Vegas,NV,89109,702-280-4402
Rkb Trucking,800 Nichols Blvd Apt 148,Sparks,NV,89434,503-752-2297
Monters Trucking,9764 Silver Harvest Ct,Las Vegas,NV,89123,702-897-6831
"Transport United, Inc.",8275 S Eastern Ste 200-285,Las Vegas,NV,89123,702-566-5615
B & J Mobile Service,4995 S Maryland Pkwy # 75,Las Vegas,NV,89119,702-577-3252
Perry Fam Trucking,4456 Hidden Meadow Drive,Carson City,NV,89701,775-882-5044
Denali Moving,4286 S Durango St Ste D,Las Vegas,NV,89147,702-368-1070
Chiflon Trucking,808 Langtry Drive,Las Vegas,NV,89107,702-258-0204
Behnke Transport,3221 Brambling Avenue,Las Vegas,NV,89084,702-610-2571
Cynthia Mangosing Turks Trucking,755 Mcdonald Drive,Reno,NV,89503,775-544-9643
American Lion Transportation,2055 Las Vegas Blvd Suite # 2,Las Vegas,NV,89130,323-589-9545
Snake Stomper Trucking,4000 Shinners Place Suite A,Reno,NV,89502,775-342-5100
Haines Automotive Transports,1001 South Meadows Parkway #1822,Reno,NV,89521,562-303-0281
Bajwa Express,405 Gentry Way,Reno,NV,89502,775-527-2075
Countrywestern,5805 W. Harmon Ave.#407,Lasvegas,NV,89103,702-251-8291
Romero Trucking,1671 Fox Glove Dr,Las Vegas,NV,89142,702-207-0268
Estrupo Transport,7075 W. Gowan Rd #1141,Las Vegas,NV,89129,818-339-3727
Gould Transport,1182 Sewell Dr,Elko,NV,89801,775-777-3366
Bowen Freight LLC,1464 Hagar Rd,Reno,NV,89506,775-622-0868
Town & Country Sales & Service,120 Moapa Valley Boulvard,Overton,NV,89040,702-397-2400
Dlc Trucking,2661 Squires St,Minden,NV,89423,775-267-1627
Rubicon Trucking,963 Topsy Lane Ste 306-362,Carson City,NV,89705,775-671-5946
Nites Coastal Transportation,406 Linden Street,Reno,NV,89502,916-236-9939
Dominguez Trucking,3225 So Pecos Road # 263,Las Vegas,NV,89121,702-300-2132
Streamline Logistics,2660 Kinghorn Drive,Henderson,NV,89052,702-426-6556
All Material Transportation,9988 Tittleton Ave,Las Vegas,NV,89148,702-426-9494
Lg Eaters,2546 Stonequist Ave,Henderson,NV,89052,702-263-0723
Weaver Logistics,2083 Angel Falls,Henderson,NV,89074,708-497-4683
Xt Ranches,1377 S Jennys Ln,Fernley,NV,89408,775-575-4168
Bo Mendez Trucking,6369 Silverfield Drive,Las Vegas,NV,89103,702-220-8257
Strom Trucking,161 Trescartes Ave,Spring Creek,NV,89815,775-738-7844
Super Truck Freight Services,5051 E Stewart Avenue Suite 111,Las Vegas,NV,89110,702-296-9587
Taylor Trucking,3085 N Moapa Valley Blvd,Logandale,NV,89021,702-283-1600
Left Lane Transportation,1705 Armagnea,Carson City,NV,89701,702-300-6667
Natt Trucking,4005 Moor Park Ct D326,Sun Valley,NV,89433,775-250-3476
Mc Trans,1301 Darlene Way #2,Boulder City,NV,89005,702-293-4567
Lynde B Transport,10604 Primrose Arbor Ave,Las Vegas,NV,89144,702-349-0937
Miracle Transport,101 Convention Ctr Dr Ste 700,Las Vegas,NV,89109,702-368-5201
Mac Trucking,5441 Sunnyville Street,North Las Vegas,NV,89031,702-452-8153
"Sasi Transport, Inc.",1348 Spague St,Henderson,NV,89015,702-300-3852
Long Time Auto Transport,4797 Monaco Road,Las Vegas,NV,89121,702-529-4364
Mule Train Transportation,230 Ash St,Hawthorne,NV,89415,775-527-0909
K-t Contract Services Elko,4105 W Idaho,Elko,NV,89801,775-777-9309
Mendez Express,3740 Singing Lark Court,North Las Vegas,NV,89032,702-622-3102
Epm Trucking,1161 Pleasant Brook Street,Las Vegas,NV,89142,702-312-3135
Danber Logistics,4560 S Decater Ste 202,Las Vegas,NV,89103,760-912-8651
Dos Okies Trucking,Mvr 295-1,Elko,NV,89801,801-597-0495
Nts,6280 Mcleod Dr 120,Las Vegas,NV,89120,702-792-5466
Bakker Hay Services,Hc 61 Box 195,Battle Mountain,NV,89820,775-931-0120
Vallejo & Daughter Trucking,3710 Caymus Dr,Sparks,NV,89436,775-626-5540
Jacks R Better,7665 Skokie Way,Reno,NV,89502,775-830-0442
Dts,4141 Vivian Ct,Reno,NV,89502,775-772-1028
Call And Haul 1-866-yb Messy,3695 Green Acres Dr,Carson City,NV,89705,530-979-0161
Igo Trucking,1580 Muddy Rd,Winnemucca,NV,89445,775-623-4042
Grenz Trucking,8227 Frontier Drive,Elko,NV,89801,775-777-2240
Bk&l Trucking,3075 West Jupiter,Winnemucca,NV,89445,775-623-1296
Hudson Lowbed Service,3099 Elmrock Place,Las Vegas,NV,89121,702-289-7481
Glider Trucking,9052 San Marin St,Las Vegas,NV,89123,702-407-4178
Solis Trucking,1813 E Poplar Avenue,Las Vegas,NV,89101,702-400-6607
Kd Watts Trucking LLC,7191 Hinson St,Las Vegas,NV,89118,702-795-0520
Langa Express,4044 Syracuse Drive,Las Vegas,NV,89112,702-338-6268
Mcmillan Trucking,7200 Pirates Cove Rd,Las Vegas,NV,89145,702-256-4490
Ray Crawford And Family Water Trucks,823 Wintersweet Rd,Henderson,NV,89015,707-575-5967
2-k Trucking,6440 West Hammer Lane,Las Vegas,NV,89130,702-649-6287
Vegas Props,5530 S Arville St Suite B,Las Vegas,NV,89118,702-804-8095
Bop Transport,7035 Orange Grove Lane,Las Vegas,NV,89119,702-400-5420
Highlander Transportation,790 Sage Street,Fernley,NV,89408,775-575-4483
"Blue Turtle Express, Inc.",4660 S Eastern Ave Ste 207,Las Vegas,NV,89119,707-292-9519
Shadeco Trucking,2055 Buckeye Reaf,Henderson,NV,89015,702-564-0576
Rick Miller Transport,9484 Veterans Court,Las Vegas,NV,89148,702-248-4299
Master Trucking,3001 W Warm Springs Rd Apt 1512,Las Vegas,NV,89118,702-275-9185
Olson Transport,7885 Muldrow St,Las Vegas,NV,89139,702-348-8261
Martin Transport,3001 East Navajo,Pahrump,NV,89061,775-751-1550
R J Imperial,2072 Mesquite Lane Apt# H-304,Laughlin,NV,89029,702-420-9658
Evenson Trucking,1295 Cibola Drive,Sparks,NV,89436,775-626-3678
Transfers,447 Wheaton Ct,Henderson,NV,89015,702-289-7278
V & V Services,1455 Deming Way #27,Sparks,NV,89431,775-358-9200
E & R Interstate Trucking,407 Casa Del Norte Dr,North Las Vegas,NV,89031,702-453-5348
Sure Thing Transportation,3983 S Mccarran #191,Reno,NV,89502,702-580-5236
G & G Transport Services,1905 Arville Street,Las Vegas,NV,89102,N/A
J Palangi,1100 Hwy 95 S,Beatty,NV,89003,760-764-2024
Ricos Trucking,9596 Autumn Leaf Way,Reno,NV,89506,775-358-2131
Household Services Unlimited,1014 Mallory Way,Carson City,NV,89701,775-841-1128
Scott Jones & The Boys,39 Baker Lane,Yerington,NV,89447,775-224-7771
J & L Transport,3809 Patricia Ave #111,Reno,NV,89512,775-240-7124
D And D Trucking,7013 Pinelake Rd,Las Vegas,NV,89145,702-202-6474
Arm Braker Trucking,4749 Pagosa Springs Drive,Las Vegas,NV,89139,336-602-1955
H&r Transportation,4650 E. Carey Avenue #50,Las Vegas,NV,89115,702-400-9118
Fred's Trucking,132 El Dorado Ave,Dayton,NV,89403,775-901-2426
Jfs Trucking,138 Daggett Way,Stateline,NV,89449,775-722-1560
Steve Gallegos Trucking,5333 Welch Valley Avenue,Las Vegas,NV,89131,702-395-1053
Uhs Express,561 Beckfield Court,Reno,NV,89521,775-842-6744
Hannah Heavy Haul,5712 North Torrey Pines Dr,Las Vegas,NV,89130,702-429-9158
Arctic Trucking,1884 Mt Carmel Ave,Las Vegas,NV,89123,702-576-5681
Mel's Trucking LLC,1445 Bumblebee Ln,Gardnerville,NV,89460,775-315-2869
Silver State Express,3145 Eugene Way,Fallon,NV,89406,775-427-1976
Adan Trucking,9585 Brightridge Drive,Reno,NV,89506,775-972-3492
Grand Canyon West Express,3471 W Oquendo Rd Suite 201,Las Vegas,NV,89118,702-260-6506
Young's Trucking,25 El Caballo Trail,Sparks,NV,89441,775-425-3707
A &m Trucking,1400 Ingraham St,Las Vegas,NV,89101,702-370-2479
Tibbals West Coast Hay Service,280 Pete Hendrichs Rd,Yerington,NV,89447,775-463-1885
Keypon Trucking,731 Mall Ring Circle#210,Henderson,NV,89014,702-458-2774
Hm Trucking,848 N Rainbow Blvd #588,Las Vegas,NV,89107,702-416-2149
Nana Paf Trucking,9225 West Charlston Blvd Suite 1039,Las Vegas,NV,89117,702-300-9050
Esquivel Trucking,3165 E Valley Way,Winnemucca,NV,89445,775-623-0389
Shely Express,55 S. Valle Verde #235-172 ,Henderson,NV,89012,702-465-4465
Pti,1320 Freeport,Sparks,NV,89431,775-336-4430
Mckay Express LLC,410 Ruby Hill Ave,Eureka,NV,89316,775-318-0661
Atlanta Farms,1000 E Atlanta Road,Pioche,NV,89043,775-724-3210
Jw Trucking,217 Bobcat Drive,Dayton,NV,89403,775-246-3288
John Dobbins Hauling,1055 S Main Street Space 9,Fallon,NV,89406,775-423-4614
Bsd Transport,2800 W Sahara Suite 1-k,Las Vegas,NV,89102,702-806-7725
Rll Transportation,86 Lailani Street,Las Vegas,NV,89110,702-808-1135
Jth Trucking,823 S 6th St Ste 100,Las Vegas,NV,89101,661-301-2917
Accurate Courier And Logistics,4050 West Sunset Road #e,Las Vegas,NV,89118,702-914-1919
3 C's Transport,1746 Crossing Court,Sparks,NV,89434,775-331-0691
Mares Trucking,3317 Osage Ave,Las Vegas,NV,89101,702-370-0987
Deuce Trucking,4317 Candlecreek Lane,Las Vegas,NV,89032,702-644-2710
Mv Express,4612 E Van Buren Ave,Las Vegas,NV,89110,702-759-9077
Flightlinez Bootleg Canyon,1512 Industrial Rd,Boulder City,NV,89005,702-293-6885
Vts,1050 East Flamingo Road #e-325,Las Vegas,NV,89119,702-733-1501
Turbo Transportation,1175 E Antelope Street,Silver Springs,NV,89429,209-251-9112
E & M Trucking,5575 Northridge Lane,Las Vegas,NV,89122,702-374-2698
Ts Express,8729 Evan Lilas St,Las Vegas,NV,89148,323-440-4454
Alier Ricardo Trucking,6109 Dayton Circle,Las Vegas,NV,89107,702-581-5066
Amd Trucking,605 Stonehenge Walk Ave,Las Vegas,NV,89178,702-798-0173
Servicemaster By Buchanan,1263 Spice Island Drive,Sparks,NV,89431,775-359-6688
R S Transport,1350 E. Flamingo Rd Ste 414,Las Vegas,NV,89119,702-666-4373
Sol Azteca,2055 North Las Vegas Blvd,North Las Vegas,NV,89030,323-666-3491
Ely Truck And Equipment,930 North Street North 93 Mcgill Highway,Ely,NV,89301,775-289-2880
Cmc Trucking,5550 West Flamingo Road Suite A2,Las Vegas,NV,89103,702-289-5854
Hockett Trucking,15 Aztec,Cal Nev Ari,NV,89039,702-297-1153
Mendez Transport,963 Eureka Dunes Ave,Henderson,NV,89012,702-343-6677
Yayo Auto Transport,6360 East Sahara Avenue Apt 2079,Las Vegas,NV,89142,702-561-3631
Salcedo S Trucking,4435 Marble Bay Cir,Las Vegas,NV,89147,702-368-7759
Hermanos Ruiz Transportation,4624 Pennwood Ave,Las Vegas,NV,89102,702-247-9007
Nevada Cores,4440 East Carey Ave,Las Vegas,NV,89115,702-480-0592
Roto-rootor Plumbers,200coney Island Suite B,Sparks,NV,89431,775-345-5300
Arkalena Trucking,388 Rancho Rosario Court,Las Vegas,NV,89138,702-858-5666
Barzaga Trucking,1333 Eastwood Drive,Las Vegas,NV,89104,702-321-0541
Double J Transport,312 Hull St,Henderson,NV,89015,702-525-8356
Sierra Transport,516 Merseyside Drive,Las Vegas,NV,89178,702-809-3321
Md Transport,8619 Gabilan Court,Las Vegas,NV,89123,916-799-4107
D J Campbell Trucking,4812 Lakestream Ave,Las Vegas,NV,89110,209-765-7174
"Specialty Transport, Inc.",701 Green Valley Parkway,Las Vegas,NV,89074,702-269-4854
Danny's Trucking,4650 E Carey Ave # 11,Las Vegas,NV,89115,702-283-8480
Mountain Tractor & Transport,755 W Highway 40,Verdi,NV,89439,775-223-1522
Pinero Trucking,4945 Blanton Drive,Las Vegas,NV,89121,702-454-0170
Michael's Transport,1666 Garden Path Court,Las Vegas,NV,89119,702-506-2718
D&i Express,4005 Lighthouse Ave,Las Vegas,NV,89110,702-453-6252
Jerry Adams Enterprises,9375 Grass Valley Rd,Winnemucca,NV,89445,775-625-4294
Shalom Trucking,10264 Sweet Woodruff Drive,Las Vegas,NV,89141,702-361-1145
T F Campbell And Sons Trucking,8025 W Russell Rd Unit 2024,Las Vegas,NV,89113,702-485-5578
Richard Batista Trucking,2380 Palora Ave,Las Vegas,NV,89109,702-732-7209
Dale Trucking,446 Temple Canyon Place,Hendersonrk,NV,89014,952-471-9605
Villafana Trucking,4205 W Tompkins Ave #2,Las Vegas,NV,89103,702-253-9200
Excalibur Express,180 W Comstock Circle,Pahrump,NV,89048,775-537-6511
Strawberry Moving Assistance,6413 Stormy Creek Road,Las Vegas,NV,89108,702-658-3369
Anderson Consulting Construction,1275 Dry Falls Circle,Reno,NV,89523,775-747-5847
J & M Trucking,1772 East Marlin,Las Vegas,NV,89101,702-256-5289
Retail One,434 Washington Street,Reno,NV,89503,800-458-0056
Bremar Transport,848 Coral Cottage Drive,Henderson,NV,89015,702-564-7328
Sierra Transport,5405 Marcel Court,Sun Valley,NV,89433,775-674-2080
Sachs Transport,5612 Island Breeze Ct,Las Vegas,NV,89130,702-645-0795
Hughes Trucking,Hc 32 Box 450,Tuscarora,NV,89834,775-756-6510
R & B Hauling,3628 Brent Cove,North Las Vegas,NV,89032,702-210-3766
Runnin Wild Ranch,15850 Fawn Lane,Reno,NV,89511,775-849-2647
K-mar Trucking,7149 Abbeville,Las Vegas,NV,89119,702-499-4092
Holton Transportation,9976 Hawk Feather Avenue,Las Vegas,NV,89183,N/A
Sierra Tahoe Transport,923 Dresslerville Rd,Gardnerville,NV,89460,775-265-9275
Jc Trucking,3355 Spring Mountain Road #69,Las Vegas,NV,89102,702-252-3222
Lynch Trucking,2176 Rockin Robin Dr,Sparks,NV,89436,775-425-2176
The Star Trucking,917 Stanley Ave,North Las Vegas,NV,89030,702-649-1384
Straight Shot Express,11001 Mount Royal Ave,Las Vegas,NV,89144,920-727-4969
E W Trucking,1115 Browne Ln,Fernley,NV,89408,775-742-9357
Savanic Transport,915 Blue Jay,Spring Creek,NV,89815,775-934-1874
Mount Grant Transportation,129 B Street,Hawthorne,NV,89415,775-945-2665
Ewing Transport,5240 Leopard Spot Court,Las Vegas,NV,89031,702-646-0032
J W Trucking,187 Rosepeak Rd,Dayton,NV,89403,909-923-6444
Dayton Valley Backhoe & Dump Truck,168 Roughing It Rd,Dayton,NV,89403,775-246-4646
Obregon Trucking,4866 Angelo Court,Carson City,NV,89706,775-230-3035
A & R Transport Services,4438 Scarlet Sea Ave,Las Vegas,NV,89031,702-657-0070
B&p Silver Sage Express Ltl,4450 Solias Rd,Fallon,NV,89406,775-240-9175
Big D Hauling,3540 N Cox,North Las Vegas,NV,89032,702-378-7888
M And N Transportation,5334 Via De Palma Dr,Las Vegas,NV,89146,N/A
D & G Transportation,4132 S Rainbow Blvd # 229,Las Vegas,NV,89103,702-876-3155
Lillys Trucking,6500 Angel Mountain Rd,Las Vegas,NV,89130,602-353-9447
I & M Trucking Company,2459 Via De Cortona,Henderson,NV,89014,702-340-6231
Acme Bobcat,1663 Kiss Ln,Minden,NV,89423,775-267-3242
John Henry Logistics,1632 F Street,Sparks,NV,89431,775-356-8899
Abc Transportation,8620 Dollhouse Drive,Las Vegas,NV,89145,702-256-4208
Sams Water Truck Service,428 Bramble Lane,Fernley,NV,89408,775-575-1936
Devore Construction Trucking,3485 N Nellis Blvd #61,Las Vegas,NV,89115,702-643-3703
Griffith Trucking,6201 Boulder Hwy 170,Las Vegas,NV,89122,702-313-4261
Dale Monson Transportation,201 Summit Avenue,Winnemucca,NV,89445,775-623-5619
Abbey Road Trucking,139 Desert Springs Lane,Fernley,NV,89408,775-575-5772
Trans America Freight Company,2417 Sunrise Ave #12,Las Vegas,NV,89109,626-705-0465
Freitas Transport,386 Umbria Way,Henderson,NV,89014,702-435-2115
Mbc Trucking,6250 W Flaming Rd #72,Las Vegas,NV,89103,702-307-5066
Golden Wheels Transport,3678 Redwood Street,Las Vegas,NV,89103,702-257-7149
Aja Trucking,3260 Della Circle,Fallon,NV,89406,775-423-6628
Gastelum Trucking,1528 Rio Bravo Dr,Las Vegas,NV,89031,702-638-8589
Shadow Mobile Home Transport,3802 Cypress,Silver Spring,NV,89429,775-577-4900
J & J Transport,1116 Tamarisk St,Carson City,NV,89701,775-846-4589
Truckman Freight Line,895 Howard Place,Fallon,NV,89406,775-427-1885
R & J Trucking,618 Gabbs Street,Yerington,NV,89447,775-463-1835
T N & T Trucking,3017 Johannan Lane,North Las Vegas,NV,89032,702-636-6788
Waters Vacuum Truck Service,Hc34292-16 Osino,Elko,NV,89810,775-753-5122
"Fitch Transportation, Inc.",655 S Rock,Reno,NV,89502,775-857-1666
D C Trucking,4990 Cincinnatti Avenue,Las Vegas,NV,89104,702-644-5314
I S A Trucking,432 Antonello Way,Las Vegas,NV,89123,702-617-0968
Trucking 2000,8635 W Sahara Pmb 567,Las Vegas,NV,89117,702-255-2342
Juliot Trucking,1500 Sunflower,Fernley,NV,89408,775-575-4709
Pitcher Transportation,2400 Fox Road,Silver Springs,NV,89429,775-772-5398
"A J Constructors, Inc.",Pmb 239 2880 Bicentennial Pkwy Ste 100,Henderson,NV,89044,702-326-3913
Nora Express,9717 Terrace Green Ave,Las Vegas,NV,89117,702-304-9870
American Moving Transportation,5278 Jane Way,Las Vegas,NV,89119,702-895-7011
T O M Express,2164 Rosemary,Sparks,NV,89434,775-843-6143
Gitty-up Fast Freight,150 So Hwy 160 Ste C8 Pmb 588,Pahrump,NV,89048,702-269-0232
Four L Transport,7332 Young Doe Ave,Las Vegas,NV,89130,559-351-1429
Mel Deubler Trucking,800 Capri Drive,Boulder City,NV,89005,702-294-2283
Pace Trucking,416 Nettleton Cir,Las Vegas,NV,89123,702-454-6670
Chucho's Trucking,6616 Johnny Love Ln,North Las Vegas,NV,89086,619-942-6613
Silverado Xpress,6330 Pima Court,Sun Valley,NV,89433,775-233-4018
9 Ball Express,7740 Four Season Drive,Las Vegas,NV,89129,702-515-7074
Melvin Jones Trucking,1422 Starlight Canyon Ave,Las Vegas,NV,89183,702-614-9555
Isalnds Corp,3905 West Diablo Dr Ste 100,Las Vegas,NV,89118,702-894-9340
Wayne L Cook Trucking,1390 Farm Districk Rd,Fernley,NV,89408,775-848-5858
Haryana Trucking,561 Keystone,Reno,NV,89503,541-576-2167
T & A Express,9909 Tarzana Lane,Las Vegas,NV,89117,702-228-6711
Reno Rock,7780 N Virginia Street,Reno,NV,89506,775-677-9574
Manhire Trucking,504 N Hyw 95,Tonopah,NV,89049,775-482-3754
Carpenter Trucking,1618 East Valley Road,Gardenerville,NV,89410,775-782-3136
Hdc Logistics,3308 Susileen Drive,Reno,NV,89509,775-359-5886
"A-1 Interstate Transportation, Inc.",350 Kresge Lane,Sparks,NV,89431,775-359-9990
Carney Trucking Equipment Services LLC,1375 Bryan Ln,Gardnerville,NV,89410,775-782-5850
Fussell And Son Transportation,3555 Rosalinda Dr,Reno,NV,89503,775-359-1864
D & L Transportation,1819 Winterwood Blvd,Las Vegas,NV,89142,702-431-7765
Karim Enterprises,2160 W Blosser Ranch Rd,Pahrump,NV,89060,310-707-8641
Awr Ent,1205 Deerlodge Rd,Reno,NV,89508,775-742-9318
F N A Trucking,4251 Hillview Drive,Carson City,NV,89701,775-883-5541
Mountain Flatlander,644 Morracco Dr,Sparks,NV,89434,775-324-4881
Williams Trucking,1412 N Peters St,Carson City,NV,89701,775-359-5886
Noel Cowley's Field Service,10721 Turquoise Valley Dr,Las Vegas,NV,89144,702-838-9307
Western Pride Transportation,319 Bens Way,Fernley,NV,89408,775-359-5886
West Coast Trucking,3920 W Sunset Rd Suite G,Las Vegas,NV,89118,702-270-7900
Tinet Transport,6020 Santa Catalina Ave,Las Vegas,NV,89108,702-595-1517
Krc Trucking,258 Spring River Ave,Las Vegas,NV,89123,N/A
R J Edwards Transport,1809 Gatewood Dr,Las Vegas,NV,89108,702-648-4993
Roux Transportation,4015 W Canyon Rd,Winnemucca,NV,89445,775-623-3724
Big Trucking,2202 Citroen St,Las Vegas,NV,89142,702-326-1235
Exotic Transportation,3595 Polaris Avenue Ste 104,Las Vegas,NV,89103,702-837-2666
Kc Trucking,520 Gentry Road,Panaca,NV,89042,775-728-4276
Colony Trucking,4500 Mira Loma Dr #296,Reno,NV,89502,775-448-9758
Csk Transportation,2130 Running River Road,Henderson,NV,89074,702-436-5809
Circle M Trucking,20926 White Rock Dr,Reno,NV,89506,775-971-9195
Heldt Truck Service,1979 Kaiser Street,Fallon,NV,89406,775-428-1965
Armstrong Trucking,910 Horizon Court,Sparks,NV,89434,N/A
Bauer Trucking,1311 White Rd,Pahrump,NV,89060,775-751-3061
Ej Trucking,3474 Indian Dr,Carson City,NV,89705,775-267-1325
I'll Take You There Express Service,6925 Rancho Santa Fe Drive,Las Vegas,NV,89130,702-396-8628
Turbo Express Transport,2121 Santa Rosa Dr,Las Vegas,NV,89104,702-453-6566
Scraps,1420 Shadow Lane,Sparks,NV,89434,775-354-2686
"Moonman Trucking, Inc.",7716 Partridge Ave,Las Vegas,NV,89145,702-604-7751
Norman Transport,1280 Idaho St,Silver Springs,NV,89429,775-577-9621
Goodman Manufacturing,3101 Marion Drive Suite 109,Las Vegas,NV,89115,702-651-0621
Lj's Trucking,6321 Guadalupe Ave,Las Vegas,NV,89108,702-636-0917
T & J Trucking,3649 Susana St,Las Vegas,NV,89121,702-456-4620
"Portes Transportation, Inc.",4183 Zavata St Apt #b,Las Vegas,NV,89103,702-813-1347
A I Express,4455 E Twain #160,Las Vegas,NV,89121,702-450-9928
Lane Trucking,1125 Heaten Ave,Hernderson,NV,89052,702-837-4213
Black Jack Trucking,3145 Manti Peak Ave,N Las Vegas,NV,89081,702-326-1235
Htp Trucking,1439 Harmony Hill Dr,Henderson,NV,89014,702-591-9587
Bob Wallin Metals & Trucking,184 Sunshine Lane,Spring Creek,NV,89815,775-777-8489
5 Star Transportation,8555 W Russell Road #2086,Las Vegas,NV,89117,559-781-8900
A & M Trucking Sp,850 Delmar Wy,Reno,NV,89509,775-329-8874
George Express,5788 Yerington Avenue,Las Vegas,NV,89110,702-277-2720
Newman Trucking,781 Christina Dr,Boulder City,NV,89005,702-294-0270
A&t Delivery,4720 Waldron Lane,Reno,NV,89506,775-853-8844
Pjs Transport,10631 Vista Bella Lane,Reno,NV,89521,775-233-7676
Vallarta Auto Sales,1717 E Fremon Ave,Las Vegas,NV,89101,708-935-5356
Speed I Transportation,8445 S Las Vegas Blvd#1098 B11,Las Vegas,NV,89123,702-361-9083
Reynolds Trucking,5914 Saddletree Rd,Pahrump,NV,89061,775-751-0670
"Hovtel Transportation, Inc.",4430 Eureka Cir,Las Vegas,NV,89103,702-367-1211
Kodsam Trucking,215 Hoover Avenue,Las Vegas,NV,89101,702-452-4859
Sierra Santa Cruz Trucking,6236 Fargo Avenue,Las Vegas,NV,89107,702-870-4117
Auto Transport Especial,814 Beach,Sandy Valley,NV,89019,661-816-0058
Lighthouse Express,7500 W Lake Mead Blvd Ste 9 45,Las Vegas,NV,89128,702-694-2552
S & D Transportation,4516 West Diablo Drive #e 102,Las Vegas,NV,89118,702-896-4374
Goodall Trucking,2250 Silver Lane,Jackport,NV,89825,775-755-2475
Burns Transport,1430 Palisade Circle,Gardnerville,NV,89460,775-790-1982
T-t Trucking,417 Scenic Drive,Henderson,NV,89015,702-810-2772
Determan Trucking,3825 Gold Point St,Las Vegas,NV,89129,702-491-3209
"Simpsons Water Truck Service, Inc.",1440 Topaz Ranch Road,Wellington,NV,89444,775-266-1029
Mohawk Trucking,337 Occidental Drive ,Dayton,NV,89403,775-246-9361
Matt Van Vliet Trucking,31830 Cantlon Dr,Wadsworth,NV,89442,209-988-2028
Latigo Truck Lines,300 E 2nd St Suite 1500,Reno,NV,89501,775-742-7207
Jorgies Transportation,4300 N Lamont St #242,Las Vegas,NV,89115,702-515-6477
Car Carrier,1967 Barton Drive,Jackpot,NV,89825,775-755-2700
Display Transportation,800 N Rainbow Blvd #208,Las Vegas,NV,89107,866-428-5484
Natrans,8218 Mount Nido Drive,Las Vegas,NV,89147,702-807-5244
Duff Transportation,2880 Talapoosa,Silver Springs,NV,89429,775-577-9190
"Hot Shot Transport, Inc.",125 Cuerno Verde Dr,Spring Creek,NV,89815,775-738-5364
Virk Transportation,9305 Hummer Ct,Reno,NV,89521,775-829-7699
1st Ten Trucking Services,1827 W Gowan Rd Ste 2127,Las Vegas,NV,89032,702-312-3013
1st Ten Trucking Services,1827 W Gowan Rd Ste 2127,Las Vegas,NV,89032,702-312-3013
Xff Trucking,901 Prospect ,Sparks,NV,89431,775-331-6971
"Over The Hill Transport, Inc.",2260 Clinton Ln,Las Vegas,NV,89156,702-438-1348
Hollers Refrigerated Transport,1400 E Reno Apt 30,Las Vegas,NV,89119,702-561-0490
Dice Express,4710 Beatrice Lane,Winnemucca,NV,89445,775-761-9119
Willstar Trucking,2059 Camel St,Las Vegas,NV,89115,702-649-2503
Senior Express,1690 Van Diest Rd 148,Winnemucca,NV,89445,775-625-4393
Kirk's Auto Repair,901 Las Vegas Blvd So,Las Vegas,NV,89101,702-382-1124
Concrete Delivery,1423 Marlette Circle,Gardnerville,NV,89410,775-450-2317
Persistent Transport,495 Sycamore St,Fernley,NV,89408,775-575-4749
"Hajj Trucking, Inc.",1905 South Eastern Ave,Las Vegas,NV,89104,800-713-7995
Vegas Metro Transport,2375 E Tropicana No 804,Las Vegas,NV,89119,702-203-8528
Xtreme Auto Transport,9515 Stoney Creek Way,Reno,NV,89506,775-771-7636
New Horizon,24 Gold Bar Ct Suite A,Las Vegas,NV,89110,702-438-8794
All Purpose Vending Distributors,68 Glen Carran Cir # 68,Sparks,NV,89431,N/A
Merriwethers Pit Stop Pots And Septic Service,1 Green Acres Lane,Yerington,NV,89447,775-463-5142
Ortiz Transport,3869 Reflection Way,Las Vegas,NV,89147,702-876-3790
High Desert Transportation,3415 Cypress Street,Silver Springs,NV,89429,775-577-0462
Water Septic Service And Chemical Toilets,1035 Tahoe Boulevard,Incline Village,NV,89450,775-831-3413
Gt Pierson Trucking,175 Sagebrook Dr,Verdi,NV,89439,530-412-3950
Bachtle Trucking,31795 Hwy 80 East,Wadsworth,NV,89442,775-530-8006
Ameritrans,6821 Bottle Sage Ave,Las Vegas,NV,89130,702-210-0922
Go Fast Trucking,17443 Kingbird Ct,Reno,NV,89506,775-224-1998
Curtis Auto Truck Transport,2200 Highpoint Apt 201,Laughlin,NV,89028,702-299-5320
Santos Trucking,3412 Orr Circle,North Las Vegas,NV,89030,702-274-6468
E R Fiore Company,1077 Bootspur Drive,Henderson,NV,89012,702-565-8939
Silver City Transportation,3529 Falkenberg St,Las Vegas,NV,89129,702-491-2430
"A & F Services, Inc.",6275 South Sanhill Rd #400,Las Vegas,NV,89120,702-454-6520
Eli Trucking,222 S Rainbow Blvd Suite 201,Las Vegas,NV,89145,702-233-8517
L Chas Stevens Trucking,2950 S Sandhill Rd Number 98,Las Vegas,NV,89121,702-361-2842
G & R Trucking,524 Amethyst,Henderson,NV,89015,702-565-0149
Sierra Transport,713 J Street,Sparks,NV,89431,702-359-1552
G And J Trucking,2400 Theresa Ave,Las Vegas,NV,89101,N/A
Express Tours,3500 W Naples Suite 200,Las Vegas,NV,89103,702-739-8120
Wayne's Transport Service,2485 Sutro St,Reno,NV,89512,N/A
Bb Trucking,301 Helen Avenue,Yerington,NV,89447,775-463-2900
Pro B Refrigerated Transport,7051 W Pebble Rd,Las Vegas,NV,89113,800-862-1447
Mcintyre Trucking,1050 Calvada Blvd,Pahrump,NV,89041,702-727-1926
T & L Transport,5120 Carmen Blvd,Las Vegas,NV,89108,N/A
Rcm Trucking,39 East Taylor St,Reno,NV,89501,702-673-2304
Paragon Express Delivery,2200 E Patrick #17,Las Vegas,NV,89119,702-739-7711
C M D Trucking,4530 Spring Dr,Reno,NV,89502,702-828-4531
Smith & Son Trucking,1942 Richards Place #7,Sparks,NV,89431,916-591-2932
R J M Transport,1146 Heavenly Harvest Pl,Henderson,NV,89002,702-564-1102
Coe Transportation,603 Pitt Rd,Lovelock,NV,89419,702-273-7646
Lost Cause Trucking,6812 Saddlehorn Road,Carson City,NV,89701,775-267-3885
Larry's Mobile Home Transport,P O Box 943,Overton,NV,89040,702-397-2305
Scooter Truckin,7520 Rhinestone Drive,Reno,NV,89511,775-852-5662
Rick Stewart Transport,6801 Rhea Street,Las Vegas,NV,89131,702-396-0544
Sally Burkharts Truckin',4825 Zorano Circle,Las Vegas,NV,89117,702-257-3450
Lariat Transportation,Po Box 7707,Reno,NV,89510,N/A
Hootsmans Moving Services,2901 S Highland Ave,Las Vegas,NV,89109,N/A
Dave's Trucking,5 Hwy 95a East,Yerington,NV,89447,775-463-2875
Brauer Trucking,3111 S Valley View E104,Las Vegas,NV,89102,N/A
S & P Trucking,7068 Montcliff Ave,Las Vegas,NV,89147,702-452-4485
G & M Trucking,1136 Meadowlark Cir,Gardnerville,NV,89410,702-265-3288
W D Transport,4009 Arrowood Dr,Las Vegas,NV,89117,702-362-3677
Harrison Trucking,2462 Marlene Way,Henderson,NV,89014,702-454-6077
Lozano Brothers Trucking,2501 Wigwam Pkwy Apt 511,Henderson,NV,89014,702-433-9581
Best Tours & Services,7219 Gallery Dr,Las Vegas,NV,89117,702-222-9223
B S Enterprises,261 Riverside Rd,Mesquite,NV,89024,702-346-5776
F T D Overland,1360 Bart Lane,Fernley,NV,89408,775-575-4496
Quick Mover Recycle Crushers,Star Route Box 118,Orovada,NV,89425,916-665-1650
J & M Trucking Service,4016 North Tenava Way-no 164,Las Vegas,NV,89129,N/A
Armstrong Express,1530 Model Way,Reno,NV,89502,775-827-3540
Ruddy Trucking,1200 E Antelope St,Silver Springs,NV,89429,702-577-2063
Hawaiian Delight Trucking,7810 Iroouois Trail,Stagecoach,NV,89429,702-629-0554
Tdn Logistics,6187 Naha Port Avenue,Las Vegas,NV,89110,702-434-5774
Grable Trucking,1516 Glenwood Dr,Gardnerville,NV,89460,775-265-4638
Eagle Express Auto Carriers,# 4 Lyons Avenue,Cave Rock,NV,89449,916-542-1009
Gold Coast Trucking,609 N Yale St,Las Vegas,NV,89107,702-878-3737
Cardenas Trucking,250 W Laval Dr,Henderson,NV,89015,702-898-2417
X-press Movers & Freight Company,107 W Wyoming,Las Vegas,NV,89102,702-385-9001
J & L Transport,1347 Red Hollow Dr,North Las Vegas,NV,89031,702-657-0016
Bates Construction Service,3600 Rice Rd,Fallon,NV,89406,702-423-6738
Nevada Western Transport,872 Arrowhead Dr,Gardnerville,NV,89410,702-265-2473
T J S Trucking,1500 E Harris #8,Las Vegas,NV,89101,702-366-1673
Bull's Mobile Home Transporting,659 Elm St,Elko,NV,89801,702-738-6468
Ferriera Trucking,1310 S Pahrump Valley Blvd,Pahrump,NV,89041,702-727-8237
Gls Trucking Co,6808 A S La Cienega,Las Vegas,NV,89119,702-896-4728
D R Durall Transportation,4220 E New York Avenue,Las Vegas,NV,89104,702-641-4868
C C Transport,2382 N Sabroso,Las Vegas,NV,89115,702-453-7548
J T Wholesale & Delivery,1300 Hansen Street,Winnemucca,NV,89445,702-623-0586
Special Express,3049 Rigel Ave #a10,Las Vegas,NV,89102,800-927-7324
Running Bear Trucking,4600 East Ashley Lane,Pahrump,NV,89041,702-727-4755
Keva Transport,8230 Marcasel Dr,Las Vegas,NV,89123,702-263-2038
Humphries Trucking,891 Marita Ct,Boulder City,NV,89005,702-294-1394
Sugden Trucking,987 Fairway,Gardnerville,NV,89460,775-265-2064
Dt Trucking,500 South Third St #3,Las Vegas,NV,89101,702-386-6161
C & R Premium Distribution,5469 Hidden Valley Ct,Reno,NV,89502,702-856-3022
Bo Bar Express,6236 Diazo St,North Las Vegas,NV,89031,702-399-0882
B & H Transport,1172 Country Club Dr,Minden,NV,89423,775-342-2636
"Trickle Racing, Inc.",4305 Boulder Hwy,Las Vegas,NV,89121,702-361-8075
Pas'n Thu Truck'n,2100 West Fir Avenue,Silver Springs,NV,89429,775-577-3419
J&t Express,4935 Buffalo Dr,Stage Coach,NV,89429,702-577-2049
Heart To Heart Trucking,1721 Ferrell St,Las Vegas,NV,89106,702-647-1340
Twi,4540 South Arville B-16,Las Vegas,NV,89103,702-362-8680
Jl Trucking,3317 W Lone Mountain Rd,Las Vegas,NV,89031,702-646-0895
Sure Success Rv Movers,6201 Boulder Highway Sp #150,Las Vegas,NV,89122,702-434-6085
M & B Trucking,5409 Bible Circle,North Las Vegas,NV,89031,702-631-5495
Ken Rodgers Trucking,260 Granada St,Fernley,NV,89408,702-575-5199
Otter Trucking,Hc 34-501-9,Elko,NV,89803,702-777-3784
K & R Trucking,6069 Sundoro Drive,Las Vegas,NV,89110,702-531-8060
Lofstrand Trucking,215 Penrose Lane,Yerington,NV,89447,775-852-7088
Shart Transports,2240 Sandy Ln,Las Vegas,NV,89115,702-813-9138
Jm Trucking,351 Corbin St,Pahrump,NV,89041,702-824-0728
R W Hughes Trucking,2067 Las Vegas Blvd N,North Las Vegas,NV,89030,702-642-1166
Cpr Trucking,6038 Carlsbad Ave,Las Vegas,NV,89115,702-459-3801
Prophecy Trucking Co,912 W Washington Ave,Las Vegas,NV,89106,702-648-6432
Kinser Hotshot Service,Meadow Valley Ranchos 11 Lot16,Elko,NV,89801,702-753-0824
R T Truckiing,6844 Elm Creek #103,Las Vegas,NV,89108,702-655-8352
D & G Trucking,4132 S Rainbow Blvd Ste 229,Las Vegas,NV,89103,702-755-1076
Stauffer Trucking,8 Main St,Ruth,NV,89319,775-636-5884
Dairy Express,830 N Lamb Blvd Ste 62,Las Vegas,NV,89110,702-437-9707
Par Excellence Warehousing & Transportation,3713 Blairmoor Street North,Las Vegas,NV,89030,702-648-8082
W M G Transport,734 S Boulder Highway Ste 321,Henderson,NV,89015,702-873-3488
Vojtasek Trucking,5324 Great Pine Drive,Las Vegas,NV,89118,702-326-6519
Land Transportation,3671 Brittlewood Ave,Las Vegas,NV,89120,702-898-1634
Mounatin Coin Machine Distributors,5675 S Valley View,Las Vegas,NV,89118,702-798-0900
Lone Wolf Trucking,125 Day Ln,Smith,NV,89430,775-465-2665
Tim Mcardle Discount Hauling,209 Bigler St,Stateline,NV,89449,800-693-9856
H K Transport,763 Lincoln Street,Caliente,NV,89008,702-726-3288
Gold Star Trucking,1000 East Freemont St No 262,Las Vegas,NV,89101,702-382-1424
Russell Transfer,1151 Koontz Ln,Carson City,NV,89701,702-883-0137
Cs&s4mobilehometransport,1402 Rabe Way,Carson City,NV,89701,702-267-9137
Winston Tank Lines,Pobox 335387,North Las Vegas,NV,89033,702-506-4351
Varela Trucking,2017 W Gowan Rd,North Las Vegas,NV,89032,702-365-7620
Ron Finger Trucking,5000 Jean Avenue,Las Vegas,NV,89108,702-271-9353
Premier Limousine,5015 West Sahara Ave Suite 125,Las Vegas,NV,89102,702-367-1000
Top Hatt Transportation,800 Stillwell Ave ,Reno,NV,89512,775-355-7988
Day & Zimmermann Services,4755 Pasture Road Bldg 15,Fallon,NV,89496,775-423-1010
Mountain High Transportation,17670 Blackbird Drive,Reno,NV,89506,702-677-1301
Little By Little Trucking,4821 Peaceful Pond Ave,Las Vegas,NV,89131,702-396-3820
Cls Transportation Las Vegas,6430 S. Procyon St.,Las Vegas,NV,89118,702-740-4545
Grapes Trucking,1539 Mill Street,Ely,NV,89301,775-289-6827
Desert Mountain Trucking,623 Fairgounds Road,Winnemucca,NV,89445,702-623-2877
Ammon Transport,1307 S 17th Street,Las Vegas,NV,89104,702-382-6287
Bonanza Septic Service,20 Martin Dr Ste A,Mound House,NV,89706,775-883-3411
M&s Distributing,806 Cherry Drive,Henderson,NV,89015,702-565-8029
Diamond D Ranch & Transport,Hc 61 Box 146,Battle Mountain,NV,89820,702-931-0133
Bear's Hauling,5575 Dayspring Drive,Sun Valley,NV,89433,N/A
R T Laureano Transport,9040 Hickam Ave,Las Vegas,NV,89129,702-296-9818
Down & Dirty Express,4316 Thicket Ave,North Las Vegas,NV,89031,702-278-2604
R & M Transportation,3671 West Donner Street,Pahrunt,NV,89048,702-219-4236
Arrowhead Service,Interstate 15 Exit 91,Moapa,NV,89025,702-864-2260
M & S Trucking,1871 E Bell Vista,Pahrump,NV,89041,503-735-0540
Walter S Trucking,5570 Old Hwy 395 N,Carson City,NV,89704,702-885-2822
Taylor Trucking,5425 Tropicana #109,Las Vegas,NV,89122,702-454-4869
Ron Douglas Trucking,3701 Citrus Street,Silver Springs,NV,89429,702-577-0112
Komeka Trucking,900 So Meadow Parkway #3412,Reno,NV,89521,928-220-2735
Magyar Trucking,4148 Bk Place,Winnemucca,NV,89445,702-623-1445
Pony Express Studio Rentals,120 Artist View,Wellington,NV,89444,701-465-2878
Premium Transportation Services,98 Gillman Circle,Austin,NV,89310,775-964-2828
Fravell Trucking,208 Mariposa Way,Henderson,NV,89015,702-564-0773
Ap Tractor Service,6814 Chesterfield Ln,Reno,NV,89523,702-787-2457
M & B Transportation,1200 E Foremaster Ln,Las Vegas,NV,89101,702-642-1959
X C T,2050 Russett Way,Carson City,NV,89703,323-597-7188
Peoples Trucking,4512 Yellow Harbor Street,Las Vegas,NV,89129,702-253-7848
L & R Trucking,4009 Colusa Cr,Las Vegas,NV,89110,702-453-2943
Kiltz Trucking,750 Lassen Wy,Gardnerville,NV,89410,702-265-7035
J & V Trucking,703 C Street,Fernley,NV,89408,702-575-4707
Jmj Trucking,604 W King St #14,Carson City,NV,89703,702-882-2287
J R Transport,552 N Mccarran Boulevard Suite,Sparks,NV,89431,702-787-3824
Joe Hill Trucking,2590 Presidential Blvd,Battle Mountain,NV,89820,702-635-3258
Danube Transport,1135 Meaquite Avenue #a,Las Vegas,NV,89101,818-769-1197
High Desert Tire Service,1731 Shadow Bay Ct,North Las Vegas,NV,89030,702-492-2803
Ryans Express,5410 Cameron Street - Suite 205,Las Vegas,NV,89118,702-795-7021
Tri J&m Transport,919 S Roop St Apt 705,Carson City,NV,89701,702-841-5917
Gipsy Gold Trucking,2530 East Shore Pl # 1,Reno,NV,89509,702-824-0168
L C Trucking,27 Smith Gaze Road,Smith,NV,89430,775-465-2027
Tnt Transportation,1751 Forest Walk Dr,Las Vegas,NV,89119,702-361-9749
Mk Auto Transport,1350 Grand Summit #255,Reno,NV,89502,702-746-9565
Evans Trucking,2300 Glenn Dr,Carson City,NV,89703,702-882-7990
Luke's Trucking,1090 Green Valley Dr,Fernley,NV,89408,530-200-1311
Eric Pugh Trucking,3101 Birdwood Ln,Las Vegas,NV,89134,323-930-1432
Cobra Trucking,1345 Bowers St,Silver Springs,NV,89429,702-420-6830
J R Salter Trucking,3485 Shamrock Ave,Las Vegas,NV,89120,702-433-4149
Robinson & Son Transport,1105 Jimmy Ave,Las Vegas,NV,89106,702-648-9281
Bartow Trucking,P O Box 1096,Silver Springs,NV,89429,775-577-2515
Reno Expo,300 Sierra Manor Drive,Reno,NV,89511,775-851-4700
Dow Trans,601 Sutro Springs Road,Dayton,NV,89403,775-246-3489
Sierra Delivery Systems,767 Redwood Place Suite B,Reno,NV,89502,775-329-2885
B & J Trucking,9475 Pasture Rd,Fallon,NV,89406,775-423-4119
Tot Trucking,6599 Solitary Avenue,Las Vegas,NV,89110,702-531-6893
Soriano Bros Trucking,215 Ambee Way,Fernley,NV,89408,775-575-3366
Nezperce Trucking,8790 Maggie Ave,Las Vegas,NV,89131,702-645-2843
Gary Kelso Trucking,7925 Maverick Street,Las Vegas,NV,89131,702-363-3092
Bowen Enterprises,201 Wild Horse Canyon Drive,Mccarran,NV,89434,775-355-0930
Swrs,23 Brown Drive,Carson City,NV,89706,775-246-3171
Treasure Tours Of Nevada,1800 Monterey Cypress Street,Las Vegas,NV,89144,702-360-7978
Intel Transportation Logistics,8635 W Sahara Ste 588 The Lake,Las Vegas,NV,89117,702-227-0844
E Z And Sons Transportation,350 Kresge Lane,Sparks,NV,89431,775-355-9990
Archmicnael Trucking,3508 E Tonopah,North Las Vegas,NV,89030,702-642-8674
Aspen Trucking,1524 Caboose Drive,Carson City,NV,89701,775-887-9088
Launer Trucking,4617 Sergeant Court,North Las Vegas,NV,89031,702-657-2935
Esp Trucking,3040 Cougar Court,Winnemucca,NV,89445,775-625-1161
J Bar L Trucking,3861 E Navajo Blvd,Pahrump,NV,89048,775-751-4738
New Era Trucking,17650 S Reno Park Blvd #74,Reno,NV,89506,775-843-1046
Rival,1308 Palantine Hill Dr,Las Vegas,NV,89117,702-360-8328
Trinity Transport,774 Rojo Way,Gardnerville,NV,89460,775-265-1669
Sds Transport,3934 Talara Ln,Las Vegas,NV,89030,702-349-3610
Sierra Freightliner,1550 E Greg Street,Sparks,NV,89431,775-331-2550
Crane Services,1181 Los Amigo's Dr,Sparks,NV,89431,888-880-0911
Bohemia Transport,2156 Clancy St,Las Vegas,NV,89156,702-666-5654
T N H Truck Co,9457 S Las Vegas Blvd Bldg 10,Las Vegas,NV,89123,702-320-5606
K & C Trucking,2244 Greenbrae Dr #215,Sparks,NV,89432,775-848-7265
Tnt Trucking,9416 Crown Vista Lane,Las Vegas,NV,89119,702-233-4132
Junior Express,2531 Sutro Street Ste A,Reno,NV,89512,775-323-8785
"Reno Armored Transport, Inc.",910 W 6th St,Reno,NV,89503,702-786-4630
Bobby G Graham Trucking,4005 West Highway 50,Silver Springs,NV,89429,775-721-3013
Kelso Trucking,706 Upland Blvd,Las Vegas,NV,89107,702-739-9655
Advanced Trucking & Transport,2090 Kleppe Lane Suite B,Sparks,NV,89431,775-358-4920
Sandon Trucking,East 2nd Street,Winnemucca,NV,89445,702-623-2877
Sierra Crane Service,1705 Marietta Way,Sparks,NV,89431,702-331-2522
Desert Gmc Volvo Trucks,3222 E Sahara Ave,Las Vegas,NV,89104,702-457-3222
Alko Services,9575 Azure Drive,Las Vegas,NV,89149,702-604-7866
Findlay Automotive Group,3024 East Fremont,Las Vegas,NV,89104,702-457-1021
D&s Rippee & Son Trucking,3120 5th Street,Silver Springs,NV,89429,775-577-9068
Express Mobile Home Transport,248-a Elliott Rd,Henderson,NV,89015,702-564-1112
Wilson Transportion,812 Short St,Gardnerville,NV,89410,775-265-2230
M & W Trucking LLC,2222 West Cheyenne Suite A,North Las Vegas,NV,89032,702-631-7851
Interstate Batteries Of Western Nevada,2301 Arrowhead Dr,Carson City,NV,89706,775-883-6576
G & T Trucking,320 E 11th,East Ely,NV,89315,702-289-2936
J C Trucking,7950 Meadow Vista Ct,Reno,NV,89511,775-224-1494
Thomas & Laura's Express,316 Duchess Ave,North Las Vegas,NV,89030,N/A
Mike Parker Trucking Company,5325 Louie Ln #1,Reno,NV,89511,775-828-9003
J & L Transportation,8885 Star Valley Ct,Las Vegas,NV,89123,702-897-4949
Refrigerated Transport,3751 S Nellis Blvd #144,Las Vegas,NV,89121,N/A
Day & Night Moving,713 Ogdon Ave,Las Vegas,NV,89101,702-382-1009
Raven Refrigerated Transport,7165 Eldora Street,Las Vegas,NV,89117,702-253-5355
Abt International Services Ltd,5870 S Spencer St #164,Las Vegas,NV,89119,702-261-5924
G & W Trucking,1620 Saratoga St,Minden,NV,89423,775-267-4214
Jlr Trucking,1404 Karin Drive,Carson City,NV,89701,702-882-1463
Wes Cargo Trucking,3820 Amador Way,Reno,NV,89502,775-827-3053
Mcmullan Trucking,660 Irish American Rd,Lovelock,NV,89419,775-273-7811
Med-express Transport,450 Edison Way,Reno,NV,89502,775-858-5700
D & R Enterprises,846 Calle Myriam,Sparks,NV,89436,775-626-0699
Cody Trucking Co,780 Regina Ave,North Las Vegas,NV,89030,N/A
Silver State International,2255 Larkin Cir,Sparks,NV,89431,775-685-6000
Ritt Transportation,344 Lenwood Drive,Sparks,NV,89431,702-355-0974
Power Fuel Transport,4550 West Oakey Blvd,Las Vegas,NV,89102,702-258-1684
Sparno Trucking,4128 Thicket Ave,North Las Vegas,NV,89030,702-645-5321
Peakcock Transport,4975 S Valley View Blvd,Las Vegas,NV,89118,702-798-5800
Ajax Auto Transport,8801 Las Vegas Blvd S #a,Las Vegas,NV,89123,N/A
G E M Transport,581 N Hwy 169,Overton,NV,89040,N/A
A&l Transport,1006 Nyala St,Reno,NV,89512,702-359-6866
Pdq Express Company,7405 Starhill,Sparks,NV,89436,702-425-9384
D W Wilson Trucking,81 Laine Way,Fernley,NV,89408,775-835-8717
"Mgl Trucking, Inc.orporated",101 Front St,Elko,NV,89801,775-738-6560
J & L Transportation,162 N Bybee,Yerington,NV,89447,775-527-0549
Blue Ribbion Transportation,2770 Spanish Springs Rd,Sparks,NV,89436,775-626-2111
Silver State Truck Lines,1230 Arabian Road,Battle Mountain,NV,89820,702-635-2235
Gumba's Transport,4535 West Sahara Ave Unit 105,North Las Vegas,NV,89030,N/A
R & D Hughes Trucking,42 Wells Fargo Ave,Dayton,NV,89403,775-241-0492
Rawhide Trucking,1755 Linn Lane,Las Vegas,NV,89115,N/A
A-t Water Truck Service,5471 Spanish Moss,Sparks,NV,89436,775-425-4773
Coast-to-coast Moving&auto Transport,3925 W Hacienda Ave Ste A10,Las Vegas,NV,89118,N/A
Wildsmith Truck Lines,2401 Harvard Way Apt 264,Reno,NV,89510,702-828-1342
L & D Martin,2868 Laguna,Sparks,NV,89434,775-356-7413
Dave Donaldson,5610 Wedgewood Cr,Sparks,NV,89436,775-425-5787
Western Sign Service,10695 Silver Knolls Blvd,Reno,NV,89506,775-972-1231
"Cold Springs Excavation & Septic Service, Inc.",17555 Northridge St,Reno,NV,89506,702-972-0634
B & K Trucking,9050 Raindance Dr,Reno,NV,89506,775-972-6717
Stu's Trucking,3936 Kentwood Ct,Reno,NV,89503,N/A
Heartriver Transport LLC,1032 Atticus Ave,Henderson,NV,89015,702-567-2567
Cunningham Transportation,3150 Casey Drive #202,Las Vegas,NV,89120,702-898-3114
Kristin Trucking Co,Po Box 156,Glenbrook,NV,89413,N/A
Francis Trucking,1405 South Rock Blvd #b2,Sparks,NV,89431,N/A
Mendoza Trucking,2228 Crawford St,North Las Vegas,NV,89030,N/A
"Liberty Van Lines, Inc.",1037 East Colton Ave,North Las Vegas,NV,89030,702-649-7743
Reno Trucking Co,123 N Sec St Box 11-12,Battle Mountain,NV,89820,702-635-5715
Silver State Executive Services,Hwy 28,Crystal Bay,NV,89402,N/A
Kyle Vegas Transport,125 East Reno #8,Las Vegas,NV,89119,N/A
A D Bryant Trucking,2570 Marco St,Las Vegas,NV,89115,702-234-5210
D & V Transport,5038 Alcorn Rd,Fallon,NV,89406,N/A
Jerry's Trucking,1749 Kiwi Lane,Las Vegas,NV,89123,702-896-1883
Kaspian Trucking,112 Cabernet Parkway,Reno,NV,89512,N/A
Bing Wesner Trucking,105 Lone Mountain Road,Lovelock,NV,89419,702-273-7237
Doug Watts Trucking,3480 Mesa Verde Lane,Las Vegas,NV,89139,702-896-4137
T & J Auto Enterprises,5813 Idle,Las Vegas,NV,89102,N/A
Sartorial Masonry,1920 Greenfield Drive,Reno,NV,89509,775-322-8843
Richard Elliott's Trucking,6212 Rosalita Ave,Las Vegas,NV,89108,702-646-5824
R & E Transportation,1095 Badger Street,Silver Springs,NV,89429,702-577-2985
Hurley Trucking,1061 Miller Ave,Las Vegas,NV,89106,N/A
John R Hearon Trucking,17650 S Reno Pk Blvd #10,Reno,NV,89506,702-677-7792
Aireus Trucking,806 Ryland St,Reno,NV,89502,775-745-2492
Montes Trucking,1317 S Commerce St,Las Vegas,NV,89102,702-366-8585
P & A Trucking,1953 N Decautr Ste 178,Las Vegas,NV,89108,N/A
Geocel Transportation Service,2441 Fargo Way,Sparks,NV,89434,N/A
C H Rose Trucking,2100 Sunrise #10,Las Vegas,NV,89101,N/A
A B C Auto Transport,3709 Bonanza Cir,Las Vegas,NV,89107,702-870-3721
Jenkens Refridgerated Transport,325 South 3rd St Bldg 1-217,Las Vegas,NV,89101,702-791-1791
Bill Phillips Trucking,1123 East Appion Way,Carson City,NV,89701,775-883-6667
Queen Mirjana Transportation Co,7100 Pirates Cove #2050,Las Vegas,NV,89128,702-256-3822
Richard Trucking,5445 West Reno Dr Apt #2113,Las Vegas,NV,89118,N/A
Wild West Express,8109 Mt Harris Ct,Las Vegas,NV,89128,N/A
Mt Rose Transportation,P O Box 305,Sparks,NV,89432,N/A
Precise Transport,3355 Spring Mountain Rd #50,Las Vegas,NV,89102,702-871-1799
Mendez & Sons Trucking,1100 North Center St #1824,Henderson,NV,89015,N/A
Bill Bates Trucking,Hc 73 Box 31034,Pahrump,NV,89041,N/A
J J Transport,210 East Flamingo Road,Las Vegas,NV,89109,702-734-6494
Ghost Transportation,4220 Rollingstone Rd,Las Vegas,NV,89103,N/A
Devin Trucking Co,106 Whitaker Way,Reno,NV,89503,702-322-2890
Fly By Nite Trucking,129 Carson Street,Virginia City,NV,89440,702-847-9606
Saveon Logistics LLC,2875 N Lamb Blvd Suite 16,Las Vegas,NV,89122,702-632-0826
Rst Transport LLC,5202 Cheetah Ct,N Las Vegas,NV,89031,702-481-9835
Lico's Trucking,686 Pine Ridge Dr,Las Vegas,NV,89110,702-438-0564
Chava Trucking,3320 E Lake Mead,Las Vegas,NV,89030,702-399-1151
M&k Trucking,959 Plantain Lily Ave,Las Vegas,NV,89183,702-897-6432
High Desert Shuttle LLC,320 Clover Glen Ct,Henderson,NV,89015,702-568-1104
Pcf Transport LLC,45 Stokes Drive,Mound House,NV,89706,775-246-8440
Greenstar Transportation LLC,9332 Canyon Shadows Ln,Las Vegas,NV,89117,702-233-5577
Meoqui Delivery LLC,875 Silverado Ranch #1272,Las Vegas,NV,89183,702-417-9157
Michael L Marshall,1057 Bootspur Dr,Las Vegas,NV,89012,702-348-5292
What's Up Trucking LLC,2620 Sierra Seco Unit 105,Las Vegas,NV,89106,702-628-4051
"Franky Transport, Inc.",1666 D Street,Las Vegas,NV,89106,702-327-0470
Apex Trucking,3916 New Hope Way,Las Vegas,NV,89110,702-807-8806
Eagle One Transport,2001 Ramrod Ave Apt 2011,Henderson,NV,89014,702-589-4904
Ranchero Express,447 Concord Way,Henderson,NV,89015,702-629-9405
Nv Frozen Treats & Snacks,1120 Kietzke Ln,Reno,NV,89502,187-732-6642
G A Carrier,1987 W Winnemucca Blvd,Winnemucca,NV,89445,775-223-7746
Burning Rubber LLC,847 Patagonia Ridge Ave,Las Vegas,NV,89183,702-527-8699
Etchegaray,1801 Keg Rd,Eureka,NV,89316,775-237-5711
G Mora Trucking,1036 Prater Way,Sparks,NV,89431,775-379-2209
Martin Ross Security,9480 Double Diamond Pkwy 103,Reno,NV,89521,775-336-4440
Culligan Of Elko,2180 Pinion Rd Ste A,Elko,NV,89801,775-777-1107
Specialized Environmental,4790 Caughlin Pkwy #178,Reno,NV,89519,775-240-9903
Diamond G Enterprise,860 Oklahoma Street,Reno,NV,89506,775-219-8659
Quickmoves LLC,15615 Patti Ln,Reno,NV,89511,775-851-2639
Northwest Express,101convention Center Drive Ste 700,Las Vegas,NV,89109,800-583-3364
Bengoa Hay,1200 Skyline Blvd,Battle Mountain,NV,89820,775-635-8520
Al Express Transportation,5055 Lindell Rd #2070,Las Vegas,NV,89118,702-349-9549
Diamond Trucking,6536 Ouida Way,Las Vegas,NV,89108,702-378-5413
Classic Transport,4511 Welter Avenue,Las Vegas,NV,89104,702-372-5560
Edward Stone Logistics,135 E Harmon Ave Unit 38705 Box 38,Las Vegas,NV,89109,917-488-2842
Krieger Canine LLC,1308 Penn Lane,Gardnerville,NV,89410,775-782-8168
Taga Transport,1028 E Greenbrae Drive,Sparks,NV,89434,775-356-6294
K Lazy W Pilot Car & Hot Shot Services,2039 Goerge Washington Ave,Battle Mountain,NV,89820,775-635-9467
Brazileno Transport,8309 Palmada Dr,Las Vegas,NV,89123,702-508-1506
Super Moving & Storage,3225 S Pecos Rd Apt 230,Las Vegas,NV,89121,702-420-4637
Rock N Roll Moving And Storage,8871 W Flamingo Rd Suite 202,Las Vegas,NV,89147,808-258-1979
Vip Deliveries Service,37 Leadfield Ave,Reno,NV,89506,775-412-1481
Dsi,5255 S Valley View Blvd,Las Vegas,NV,89118,702-479-5255
Avindico,6130 W Flamingo Rd 338,Las Vegas,NV,89103,702-217-3738
Bk Trucking,385 North 3rd Street,Panaca,NV,89042,435-406-6915
Badger Trucking,7954 Martingale Lane,Las Vegas,NV,89123,702-249-4704
Woods Hauling,5190 Neil Road Suite 430,Reno,NV,89502,775-345-3478
Jaime Enterprises,1971 La Vante Ave,Las Vegas,NV,89169,702-439-0482
Bravo Sand And Gravel Transport,351 Longacres,Henderson,NV,89015,702-296-6728
East Country Place LLC,100 E Country Place Road,Pahrump,NV,89060,616-902-0954
K Enterprize,425 South 3rd Street,Elko,NV,89801,775-753-9393
Road Rooster Trucking,9385 Fleetwood Dr,Reno,NV,89506,775-843-5044
Grand Canyon Airlines,1265 Aiport Rd,Boulder City,NV,89005,540-966-2174
A A & L Trucking,1429 Sapphire Springs Cir,Las Vegas,NV,89108,305-457-8379
Warehouse Furniture,621 Ryland St,Reno,NV,89502,775-348-8222
Bully Breed Transport,3060 South Decatur Boulevard Apt L6,Las Vegas,NV,89102,702-586-5096
Julieanne LLC,3393,West Wendover,NV,89883,801-427-2906
Angel's Trucking,5026 N Valadez St,Las Vegas,NV,89149,702-286-5751
Sipes Antiques,625 Spice Island Drive Suite H,Sparks,NV,89432,775-359-8555
Tj Transport,2160 Vista Famosa Ct,Las Vegas,NV,89123,702-379-8580
Super Trucking,2983 Ferndale St,Las Vegas,NV,89121,702-358-7684
A&b Express,8735 Dean Martin Drive,Las Vegas,NV,89139,702-726-1412
"Driven Concepts, Inc.",913 Ripplestone Ave,North Las Vegas,NV,89081,702-639-8626
Driven Concepts,913 Ripplestone Ave,North Las Vegas,NV,89081,702-639-8626
Aerial Unlimited,160 Industrial Way,Fallon,NV,89406,775-423-1610
"Cc, Inc.",848 N Rainbow Blvd Ste 2061,Las Vegas,NV,89107,702-219-1853
American Freeway Service,4340 Escondido #17,Las Vegas,NV,89119,305-305-9556
Sinors Handy,182 Front St And Box 174,Montello,NV,89830,385-226-2478
Elite Hot Shot & Air Freight Delivery,965 Lyon Street Space 1,Elko,NV,89803,775-738-1121
Lopez Express,11120 Abbeyfield Rose Dr,Henderson,NV,89052,702-419-1486
Construction,3121 N Nellis Blvd,Las Vegas,NV,89115,702-682-7647
Desert Rats,1557 Foothill Drive A106,Boulder City,NV,89005,702-293-4766
Arcon-general Contracting,4830 Turning Leaf Way,Reno,NV,89519,775-829-0533
Go Bike Adventure,5442 Bristol Bend Ct,Las Vegas,NV,89135,702-944-0378
Mk Trucking,6250 W Arby Ave Unit 119,Las Vegas,NV,89118,702-637-7817
Tourvegas,6525 W Warm Springs Road Suite 100,Las Vegas,NV,89118,702-473-9247
J & K Transport,6 Gamay Lane,Reno,NV,89512,601-341-9643
Comp U Rent,4270 Cameron Street Ste 3,Las Vegas,NV,89103,702-838-8536
A & C Co,240 Harmony Ln,Sun Valley,NV,89433,775-443-0834
Dba Andres Mobile Mix,2657 Windwill Pkwy #138,Henderson,NV,89074,702-898-2939
Nevada Mobile Automotive Service,18192 Spruce Lake Ct,Reno,NV,89508,775-200-4669
24 Hour Labor,618 Grande Sombrero,Henderson,NV,89015,702-428-5284
Renegade Trucking,618 Grande Sombrero Way,Henderson,NV,89015,602-334-3674
Cosmopolitan Of Las Vegas,4285 Polaris Ave,Las Vegas,NV,89103,702-698-1382
Itruck,9485 Camino Capistrano Ln,Las Vegas,NV,89147,702-768-7542
Rk Contractors,9250 Bull Rd,Reno,NV,89506,775-677-7564
Mg Express,10691 Allegrini Dr,Las Vegas,NV,89141,702-569-0652
Pto Esperanza,1438 E Hacienda Ave Ste #a,Las Vegas,NV,89119,702-883-7700
Rush Logistics,2961 Juniper Hill Apt 103,Las Vegas,NV,89142,702-203-2321
Eag Trucking,2300 Mariposa Ave,Las Vegas,NV,89104,702-622-8250
"All Over Transport, Inc.",4560 S Arville Street Ste C 15,Las Vegas,NV,89103,702-445-3817
Sja Transport,571 Scott,Overton,NV,89040,702-379-4741
Aaaa Fabrication,105 El Cid,Sparks,NV,89441,775-424-2908
Dtr,8500 Soneto Ln,Las Vegas,NV,89117,702-806-6159
Pearson Walls,8625 Edmond St,Las Vegas,NV,89139,702-361-7372
Desert Wind Express,397 Baytree Drive,Spring Creek,NV,89815,775-777-1060
Barone Management,297 Kingsbury Grade Suite 100 Mailbox 4470,Stateline,NV,89449,775-339-8633
Gel,5470 Wynn Rd #600,Las Vegas,NV,89118,888-885-7892
Jason Kohler Trucking Service,921 County Rd 101,Eureka,NV,89316,209-810-5871
Gomes Transportation,631 Appaloosa Lane,Gardnerville,NV,89410,775-359-7145
Grand Trucking,3343 Canoe Cove Court,Las Vegas,NV,89117,702-526-8977
Diaz Trucking,6255 S Sandhill Rd,Las Vegas,NV,89120,702-303-1342
Independent Truck & Trailer Repair,1701 Athol Avenue,Henderson,NV,89011,702-522-0724
Ultimate Bouncers,234 Liberty Springs Ct,Sparks,NV,89436,775-424-4386
Rg Universal,4201 S Decatur Blvd,Las Vegas,NV,89103,702-715-9486
Macpherson Transportation,8103 Leroy St,Reno,NV,89523,775-335-6756
J S D Transport,4405 San Joaquin Ave,Las Vegas,NV,89102,702-403-2078
Justran LLC,260 W 2nd Street,Battle Mountain,NV,89820,775-635-8582
Max Courier,9580 W Reno Ave #201,Las Vegas,NV,89148,702-524-2375
1st Lane Transport,6241 Boulder Rise St,Las Vegas,NV,89115,702-326-1235
Gray Te's Transport,4770 East Owens Apartment B208,Las Vegas,NV,89110,702-307-8949
Charles M Beitler Trucking,817 Jackson Way,Carson City,NV,89701,775-434-4648
United State Perimeter Relocation,2515 Begonia Valley Ave,Henderson,NV,89074,702-210-2261
The Lenox Ranch,Hc61 Box 6143,Austin,NV,89310,775-964-2513
Eagle Transport,13200 Mount Babcock St,Reno,NV,89506,775-359-7145
Scaae,3717 Peny Cross Dr,N Las Vegas,NV,89032,702-619-1241
Expedite General Contracting & Development,6101 Resort Ridge Street,Las Vegas,NV,89130,702-232-4033
Ram Express,545 Aspen Way,Fernley,NV,89408,775-379-8784
Liquid Solutions,9728 Bear Trap Ct,Las Vegas,NV,89178,702-241-0106
Liberty Suplies,Nevada,Las Vegas,NV,89121,702-644-2734
Flatline Trucking,4227 Pheasant Dr,Carson City,NV,89701,775-230-1145
Acquire Holdings Corp,6975 Speedway Blvd,Las Vegas,NV,89136,702-355-8901
Sierra Ice,7380 Eastgate Road,Henderson,NV,89011,702-314-4423
John Williams Trucking,9365 Brightridge Drive,Reno,NV,89506,775-359-7145
U S Logistics,2212 Bridle Wreath Lane,Las Vegas,NV,89156,617-240-8842
Sheehan Hauling,3330 Rand Ln,Pahrump,NV,89060,775-751-0575
Bermudez Trucking,6300 W Tropicana Ave Trlr 183,Las Vegas,NV,89103,786-379-0792
Aaakexpress,8316 Palmada,Las Vegas,NV,89123,702-361-2013
Lantinos Transportation,1408 S Main Street,Las Vegas,NV,89104,702-444-0890
Angel Wing Las Vegas,3722 Las Vegas Blvd South #1907 E,Las Vegas,NV,89158,517-507-0612
Nevada Carrier Service,4502 Hearts Desire Ave,N Las Vegas,NV,89115,702-809-1431
Fif Trucking,1420 Cornhusk Rd,Las Vegas,NV,89142,702-406-7651
Fast Moving,5900 Prospector Trail,Las Vegas,NV,89118,702-768-3992
Usa Transport,6360 East Sahara Ave Apt 2083,Las Vegas,NV,89142,786-399-8845
Full Throttle Excavating,3751 Percheron Ave,Pahrump,NV,89048,775-727-8832
Bautista's Trucking,3099 Tumwater St,Las Vegas,NV,89121,702-609-0366
M & D Trucking,2308 Juana Vista St,Las Vegas,NV,89102,702-523-4685
Sonny Boys Tours,340 Cortez Court,Sparks,NV,89441,775-200-5205
Super Trucker,9850 Maryland Parkway Ste A-5 # 415,Las Vegas,NV,89183,702-210-5600
"Marquardt Global Transportation, Inc.",5554 Markley Ave,Las Vegas,NV,89141,702-578-0790
Angeles Livestock,91 Luzier Ln,Yerington,NV,89447,775-781-2137
Cf Trucking,2244 Greenbrae Drive #86,Sparks,NV,89431,775-378-3819
Double H Paint & Stain,617 East Bridge Street,Yerington,NV,89447,775-463-2260
"Comet Transportation, Inc.",1306 W Craig Rd E156,North Las Vegas,NV,89032,702-889-9868
"Rlc Transport, Inc.",3206 English Colony Ct,North Las Vegas,NV,89031,702-636-6164
For Hire Trucking,777 North Rainbow Blvd,Las Vegas,NV,89107,254-498-2106
10-4 Transport,1200 South Commerce St Ste 110,Las Vegas,NV,89102,702-688-7940
Eric Delos-reyes,8837 Sunset Breeze Dr,Reno,NV,89506,775-762-6771
Ray R Williams,120 Pine,Austin,NV,89310,775-964-2531
C & B Ranch,1114 George St,North Las Vegas,NV,89030,702-649-6192
Central Coast Provisions,31 Mason Pass Rd,Yerington,NV,89447,775-463-4112
Jk Enterprises,5000 Encore Paradise,Las Vegas,NV,89131,702-296-1012
"J & M Enterprises, Inc.",400 Lexis Lane,Pahrump,NV,89048,775-727-0499
"Jbc Drywall, Inc.",977 Plantain Lily Ave,Las Vegas,NV,89183,702-630-3934
D A Macedo,485 Truck Inn Way Space 10,Fernley,NV,89408,559-799-7372
Sundance Trucking,2224 Chism Dr,Elko,NV,89801,775-397-4191
Van Camp Towing & Road Service,1710 Ave C,Ely,NV,89315,775-289-2238
Luna Enterprises,919 Incline Way 9,Incline Village,NV,89451,775-831-2684
Just Truckin,3447 Tourmaline Way,Carson City,NV,89705,775-267-9725
Miles To Go,2075 Ives Avenue,Reno,NV,89503,775-746-8245
"Enck's, Inc. Repair & Towing",1820 West Mesquite Ave,Pahrump,NV,89060,775-727-8221
Cargopacific Com,1800 E Sahara Ave #107,Las Vegas,NV,89104,702-940-0406
"R And C, Inc.",569 Grimsby Ave,Henderson,NV,89014,702-400-9728
Action Worldwide Cargo,4 Chenal Pass,Henderson,NV,89052,702-506-2969
Dd America,4334 Powell Ave,Las Vegas,NV,89121,702-203-2951
Ramirez Proenza Associate Enterprice,1551 Palora Ave,Las Vegas,NV,89109,702-693-4542
Hg Trucking,3537 E Hacienda,Las Vegas,NV,89120,702-373-6695
The Water Granny,9617 Canyon Meadows Drive,Reno,NV,89506,775-971-9617
Two Small Men With Big Hearts,1500 E Tropicana Avenue Suite 100,Las Vegas,NV,89119,702-739-0907
Jc Came,1118 Princess Katy Ave,Las Vegas,NV,89119,702-431-7694
S W A T,2685 Industrial Dr,Las Vegas,NV,89109,702-210-4249
Lc Hay Company,2091 Last Chance Road,Elko,NV,89801,775-738-7449
Dmx Enterprise,1048 Yucca Avenue,Las Vegas,NV,89104,702-245-4663
Irish Fox Transportation,14530 Shannon Lane,Golconda,NV,89414,435-722-7549
Jimenez Trucking,11224 Crosseto Dr,Las Vegas,NV,89141,760-810-3242
Southern Nevada Towing,3736 Jasmine Heights,North Las Vegas,NV,89081,702-648-5151
Vegas Line,7243 Archcrest Ave,Las Vegas,NV,89147,702-324-1843
Toys In Tow,71 Webb Circle,Reno,NV,89506,503-539-4437
Diamond Enterprises,5220 Deodar St,Silver Springs,NV,89429,775-223-1022
Larex,313 Wind River Dr,Henderson,NV,89014,818-430-1334
Cougar Mountain Hotshots,8204 Streamer Circle,Las Vegas,NV,89145,509-670-0302
24-7 Energy Express,17 Castello Ct,Henderson,NV,89011,405-283-0698
P W C,"4910 Donovan Way, Suite A",North Las Vegas,NV,89031,702-632-2931
Parker Trucking Company,7725 Security Circle,Reno,NV,89506,775-828-9003
Owner Operator,4356 Flagship Ct,Las Vegas,NV,89121,702-581-9355
Las Vegas Trucks & Equip,8668 Caribbean Ct,Las Vegas,NV,89117,702-232-4403
M & A Transport,3700 Garden South Dr,Las Vegas,NV,89121,702-343-2104
Revolution Shipping,109 Colleen Dr,Las Vegas,NV,89107,702-280-3654
Galin Trucking,8201 Diamond Star Ct,Las Vegas,NV,89145,702-738-4730
Falcon Pallets,928 Shriver Blvd,Sparks,NV,89434,775-351-6224
The Transporter,2405 Sturrock Dr,Henderson,NV,89044,702-349-4634
Canyon Bus Line,5130 S Fort Apache Road #215-273,Las Vegas,NV,89148,702-349-6993
Advantage Corp Trucking,1040 Unit B Matley Ln,Reno,NV,89502,775-673-1101
Bennett Transport,7000 Paradise Road #2061,Las Vegas,NV,89119,860-604-6094
Nps Pool Supply,6740 S Boulder Hwy #a,Las Vegas,NV,89122,702-873-4545
Nd Concrete,6377 Elizabethtown Ave,Las Vegas,NV,89110,702-656-9700
West Coast Connection,920 Matley Lane Ste 1,Reno,NV,89502,775-322-9292
Eyl Trucking,8000 W Spring Mountain Road,Las Vegas,NV,89117,702-443-2719
Nv Crystal Premium,6185 South Valley View Suite # H,Las Vegas,NV,89118,702-892-0535
Vegas Express Pick Up,5233 Aztec Heights St,Las Vegas,NV,89081,702-481-6060
"Carnesecca, Inc.",7241 Mesquite Tree St,Las Vegas,NV,89131,702-982-4374
Northern Horizon Transportation,1125 Neva Ranch Ave,North Las Vegas,NV,89081,701-570-6719
Francisco O Trucking,4151 Lady Barron Court,Las Vegas,NV,89115,702-504-2656
Las Vegas Trucking,3430 Wilmot St,Las Vegas,NV,89102,702-696-0589
Lucky Express,6646 Star Glow Ct,Las Vegas,NV,89118,909-720-2727
Trucking Xpress,3417 Losee,Las Vegas,NV,89030,702-641-6111
M & A Logistics,3601 Hudson Bay Ave,Las Vegas,NV,89110,702-685-7327
Him Trucking,5423 Sunnyville St,North Las Vegas,NV,89031,702-303-1706
Leonard Trucking,4474 Shalimar Ave,Las Vegas,NV,89115,702-572-4919
Three A's Transport,3050 S Nellis Blvd #2009,Las Vegas,NV,89121,770-205-0218
K5 Trucking,324 Maritocca Ave,North Las Vegas,NV,89031,702-427-8249
Y & P Trucking,5904 Eugene Ave,Las Vegas,NV,89108,702-782-0756
Jack Ross Ammunition,4900 Mill St Ste 23,Reno,NV,89502,775-857-1111
Palmstone Expedited,10175 Spring Mountain Rd,Las Vegas,NV,89117,702-335-0553
Anytime Movers,1639 Ashfield Valley,Las Vegas,NV,89123,702-343-2122
Hue Thai Restaurant,4568 Spring Mountain Rd,Las Vegas,NV,89102,702-353-1100
East West Van Lines,4201 S Decatur Bl Ste 2122,Las Vegas,NV,89103,866-866-8644
Canyon Air,2642 Airport Drive,North Las Vegas,NV,89032,702-522-1909
Blancos Recycling,4125 Shinners Pl,Reno,NV,89502,775-376-6299
Silver State Trucking,1729 Stocker St,North Las Vegas,NV,89030,702-982-7966
S & F Logistics,5200 Summit Ridge Dr #8921,Reno,NV,89523,775-338-7472
Tld Distribution,4375 S Valley View Blvd Ste F,Las Vegas,NV,89103,702-642-8342
Rubalcaba Trucking,5638 Sidehill Dr,Sun Valley,NV,89433,775-247-8339
Rcp Transport,5255 Saratoga Dr,Las Vegas,NV,89120,702-773-1067
Dav Productions,711 Pilot Road Suite F,Las Vegas,NV,89119,702-795-8805
North Star Trucking,6216 Novak St,Las Vegas,NV,89115,702-301-5424
Sooner Transportation,771 Rojo Way,Gardnerville,NV,89460,517-507-0612
Monster Transport,918 Choctaw Ave,N La Vegas,NV,89031,702-400-7512
Rossy Trucking,5914 Hills Echo St,Las Vegas,NV,89031,702-331-3635
Nu Waste Management,1931 Losee Road,North Las Vegas,NV,89030,702-472-5108
Emd Trucking,4317 Lindsey Cir,Las Vegas,NV,89130,702-496-3149
Samira Transport,2036 E Charleston Blvd,Las Vegas,NV,89104,702-533-0249
Vasallo Transport,1517 Sapphire Springs ,Las Vegas,NV,89108,702-410-5230
Cook Transport,5045 Glittering Star Ct,Las Vegas,NV,89130,702-540-0762
So And So Designs,3075 Greensburg Circle,Reno,NV,89509,949-338-3816
M E M Trucking,6881 Solaron Ave,Las Vegas,NV,89156,702-503-6728
Ouba Transport,5232 Daywood St,N Las Vegas,NV,89031,646-721-7931
Jandjtrucking,8174 S Las Vegas Blvd No 109,Las Vegas,NV,89123,702-600-4033
Centurion Insurance Services,711 Mall Ring Circle # 204,Henderson,NV,89014,702-871-0001
Unique Design Cabinet Co,625 Spice Island Dr Unit K,Sparks,NV,89431,775-355-8818
Desert Wolf Transport,3910 Atkins Street,Silver Springs,NV,89429,775-316-6152
Galvez Stucco,5460 Wildwood Dr,Reno,NV,89511,775-691-1323
Freedom Force Trucking,3301 Peggy Ave,Pahrump,NV,89048,765-960-8127
D And B Trucking LLC,51 La Laguna St,Henderson,NV,89012,702-521-5664
Bb Trasport,3811 Squirrel St,Las Vegas,NV,89122,702-461-6480
Dotty's Casino,835 West Bonanza Rd,Las Vegas,NV,89106,702-635-2760
Over The Top Trucking,1010 Pecos River Ave,Henderson,NV,89002,702-497-0699
Silver State Shipping And Transport,247 Clemson St,Henderson,NV,89074,702-577-6369
Las Vegas Towing,2968 Marco Street,Las Vegas,NV,89115,702-644-4398
Leyva Transport,5212 Forrest Hills Ln,Las Vegas,NV,89108,702-443-3105
Dgk Truck,800 N Carson,Carson City,NV,89701,775-721-8098
Se Drywall,350 Greg Street,Sparks,NV,89431,775-331-9090
Extreme Fire Protection,4125 Latigo Dr,Reno,NV,89519,775-219-9280
Cot Trans,10094 San Gervasio Ave,Las Vegas,NV,89147,714-767-1282
United Moving & Storage,7917 Ramblewood Avenue,Las Vegas,NV,89128,702-499-4663
Night Star Trucking,9882 Santa Ponsa Ct,Las Vegas,NV,89178,702-884-7461
Fast Mission,2314 Logsdon Dr,N Las Vegas,NV,89032,816-419-2232
A2truck,3642 Boulder Hwy Unit 333,Las Vegas,NV,89121,786-474-5178
Wolf Transport,1175 S Main St,Fallon,NV,89406-7804,956-570-6948
B & B Transportation,8440 West Cliff Drive Apt 1018,Las Vegas,NV,89145,267-342-3682
Custom Quality Fence,18200 Volunteer Court,Reno,NV,89508,775-971-3027
Cc Transport,5801 Bromley Ave,Las Vegas,NV,89107,702-353-0365
K C T Transport,850 Alena Way,Sparks,NV,89441,517-507-0612
Speedy Transportation,1754 Peanut Ct,Las Vegas,NV,89115,702-772-1860
Toby Transport,3190 Garehime Street,Las Vegas,NV,89108,702-513-3939
503 Transport,2001 Ramrod Ave Apt 1414,Henderson,NV,89014,702-708-5881
Preet Trans,800 Nichols Blvd Apt 218,Sparks,NV,89434,775-356-6294
Big Mouth Transport,1732 Eddingham Ct,Las Vegas,NV,89156,702-480-9193
Czc Trucking,5836 Windy Point Trail,Las Vegas,NV,89142,530-518-9119
Gntt,755 Kuenzli St Apt 208,Reno,NV,89502,775-762-5538
Blue Chip Transportation,1469 Lodgepole,Henderson,NV,89014,316-516-6780
Rapture Carriers,5330 E Charleston Blvd Unit 70,Las Vagas,NV,89142,702-510-6558
Aspen Electric LLC,320 Western Rd Suite #3,Reno,NV,89506,775-284-1530
Great Basin Heavy Haul,8225 Bonanza,Elko,NV,89801,775-455-5972
Dunhill Usa Transport,2728 E Charleston Blvd,Las Vegas,NV,89104,702-606-2760
Tw Logistics,1313 Crystal Rainey Ave,North Las Vegas,NV,89086,702-644-6587
Priority Fright & Convention Services,4056 Arrowood Dr,Las Vegas,NV,89147,702-834-5063
D Transportation,9542 Friant St,Las Vegas,NV,89123,702-378-5413
Treasurer,31 Rangeland Dr,Wellington,NV,89444,775-790-4797
Prs Trucking,3000 Kings Way,Las Vegas,NV,89102,702-474-4733
Marble Express,4133 W Patrick Lane,Las Vegas,NV,89118,702-294-1037
Michael J Proctor ,245 Penelope Dr,Sun Valley,NV,89501,812-927-0478
Sin City Hauling,6325 Guy Ave,Las Vegas,NV,89131,702-481-3620
Bec Transport,976 G St #1,Hawthorne,NV,89415,559-999-2060
A Diaz Trucking,1146 Blue Lakes Rd,Reno,NV,89523,773-565-5919
Md Transport,5320 Alta Drive,Las Vegas,NV,89107,202-521-1484
Clark Honey Bees,7 Yermo Ln,Yerington,NV,89447,775-463-1809
Infinity Trucking,8212 Lake Isle Ct,Las Vegas,NV,89145,702-379-2396
Carrillo Trucking,2475 Bledsoe Avenue,Las Vegas,NV,89115,702-496-4752
A Catered Affaire,2811 S Carson St,Carson City,NV,89701,775-882-4900
Primm Lanes,10736 Tottenham Ave,Las Vegas,NV,89135,951-299-6130
Semper Fi Logistics,409 Calareras Ct,Las Vegas,NV,89110,702-704-4794
Qp Vegas,2235 C Renaissance Dr,Las Vegas,NV,89119,202-521-1484
Guate Transportation,1105 Shifting Sands Dr,Las Vegas,NV,89108,702-340-9163
American Southwest Electric,4485 Riviera Ridge Ave,Las Vegas,NV,89115,702-643-2900
We Haul It Transportation Services,2680 S Rainbow Ave,Pahrump,NV,89048,775-513-9008
America Transport,3789 Silbert Ln,Las Vegas,NV,89104,702-808-6457
Redline Wheels,4224 Losee Rd Ste B,North Las Vegas,NV,89030,702-735-5988
Pdq Trucking LLC,625 Sheehan Street Suite A,Winnemucca,NV,89445,775-304-0272
Hcc Logistics,409 Calaveras Ct,Las Vegas,NV,89110,702-704-4794
Lewis & Son Moving & Delivery,275 Medgar Ave,Reno,NV,89506,775-762-2912
Bradsters Auto Transport,789 G Street,Fernley,NV,89408,775-302-3259
Desert Oasis Tours,5117 Cereus Ct,Las Vegas,NV,89146,702-241-5776
The Food Factory,6784 Rowena Circle,Las Vegas,NV,89131,702-533-8450
Las Vegas Hanin Tour,475 Sierra Vista Dr #18,Las Vegas,NV,89169-2747,702-575-4800
Event Transportation,4815 Reno Avenue,Las Vegas,NV,89118,702-802-6600
Lidia E Larson,1817 Sierra Valley Wy,Las Vegas,NV,89128,702-526-8727
Xba Cargo,1602 H Sreet,Sparks,NV,89431,559-300-2105
"Vegas Transport, Inc.",2109 Piccolo Way,Las Vegas,NV,89146,702-466-5269
Rti Trucking,1281 Terminal Way Suite 216,Reno,NV,89502,209-601-6120
Eagle Lines,9050 W Warm Springs Rd Unit 2174,Las Vegas,NV,89148,702-580-3771
Dave's Taxi Tahoe,967 Mica Court,Incline Village,NV,89451,530-553-1555
Brand Used Works,10 Bench Rd,Fallon,NV,89406,775-527-0775
Daniels Trucking,7943 Dexter Falls St,Las Vegas,NV,89149,907-332-1054
Topmen Trucking,2053 Quartz Cliff St #203,Las Vegas,NV,89117,702-685-2202
Emun Trucking,5125 West Reno Ave Apt#2032,Las Vegas,NV,89118,702-824-2361
Tpm Safety,6373 Carmen Blvd,Las Vegas,NV,89108,702-538-0417
Lalo's Usa Transport,4612 Scott Ave,Las Vegas,NV,89102,702-400-8515
Boulder Dam Guided Tours,6324 Elmira Drive,Las Vegas,NV,89118,702-889-1834
Transportes Pastran,4880 Pancho Villa Dr,Las Vegas,NV,89121,830-267-1848
Pdr Trucking,897 El Camino Way,Boulder City,NV,89005,702-461-6491
Riley & De Lamora,9175 Heather Way,Winnemucca,NV,89446,775-304-7734
Effect,8810 Steaming Thunder Ct,Las Vegas,NV,89148,702-556-0461
All Star Transportation,2487 Abbeystone Cir,Henderson,NV,89052,702-204-2385
Joshua Delivery & Transportation,3055 S Nellis Blvd 2114,Las Vegas,NV,89121,702-576-1633
Jeffery A Reitz,1011 Industrial Rd # 6,Boulder City,NV,89005,702-533-0631
Cnbj,615 Humboldt St,Fallon,NV,89406,307-466-4181
Lvm Distributors,860 E Twain Ave #117,Las Vegas,NV,89169,702-778-6461
Specialty Services,7231 South Eastern Ave B-101,Las Vegas,NV,89119,770-205-0218
Vegas Mobile Vip,7435 Ullom Dr,Las Vegas,NV,89139,702-773-3726
Hill Transportation,6517 Sandy Rock Road,Sparks,NV,89436,517-507-0612
Katherine Transportation,6091 Desert Sun Dr,Las Vegas,NV,89110,702-272-7457
Power 2 Go,309 Hibiscus Drive,Las Vegas,NV,89107,702-257-1012
Winner Transportation,9550 South Eastern Suite 253,Las Vegas,NV,89123,702-336-4722
V & M Transport,1671 Foxglove Dr,Las Vegas,NV,89142,702-370-8099
Daddio's Truckin,150 Ember Drive,Sparks,NV,89436,775-425-2544
A Budget Transport,6935 Aliante Pkwy Ste 104,Las Vegas,NV,89130,702-380-8011
Innovative Cabinets & Design,10300 S Virginia St Suite B,Reno,NV,89511,775-355-1102
Jackie Express,2036 E Charleston Blvd,2036 E Charleston Blvd,NV,89104,702-767-9837
Aerial Experience Productions,123 W Nye Lane 129,Carson City,NV,89706,775-230-3073
Spradley Brown Refrigerated Express,3140 Hartley Cove Ave,North Las Vegas,NV,89081,702-528-7480
Duc Pham & Lai Huynh Transportation,7406 Scottish Castle Ave,Las Vegas,NV,89113,702-525-4267
Us Liberty Freight Line,1930 Village Center Cle Dr Suite 3 #429,Las Vegas,NV,89134,517-507-0612
Overland Express,7752 Corso Street,Reno,NV,89506,404-563-9634
Ion Trucking,Hc 34 Box 1000,Wells,NV,89835,775-293-0128
Gonzales Hay And Cattle,510 Winchester Rd,Fallon,NV,89406,530-310-1444
Ogd Transport,5308 Overland Ave,Las Vegas,NV,89107,702-769-8503
Nevada Transport Logistics,4512 Possum Berry Lane,N Las Vegas,NV,89081,702-868-4225
Jks Transport,7508 Sand Pebble Lane,Las Vegas,NV,89129,702-553-8976
Tfs Trucking,8550 W Charleston Blvd Ste 102,Las Vegas,NV,89117,702-327-3297
American Auto Transport,4705 Estate Ranch St,N Las Vegas,NV,89031,702-885-7449
24-7 Roadside Service,1001 Sage View Dr,Sparks,NV,89434,775-815-2629
Rcm Express,4719 Lucite Lane # 2,Las Vegas,NV,89115,562-453-9366
Deliver All,3921 Delta Dawn Ln,N Las Vegas,NV,89032,702-523-6505
Trans Barrera,6338 Water Dragon Ave,Las Vegas,NV,89110,702-339-0845
Mcintosh Bros,3110 S Pecos Rd,Las Vegas,NV,89121,702-769-4609
Hot Shots Transports,3604 Briarglen Lane,Las Vegas,NV,89108,702-401-8299
Gwp,1513 Emerald Peak Ave,Henderson,NV,89012,323-273-5037
Iron Mountain Nursery And Farm,7575 Iron Mountain,Stagecoach,NV,89429,775-690-4245
Stevens Mobile Welding And Trailer Repair,1951 Wilder St,Reno,NV,89512,775-351-4705
Mobile Ventures Las Vegas,2208 Tarraso Way,Las Vegas,NV,89102,702-850-1111
A & T Liquidators,6330 Sandhill Rd #1,Las Vegas,NV,89120,702-498-1829
Vegas Vip Vampires,6671 S Las Vegas Blvd Bldg D Suite 210,Las Vegas,NV,89119,323-245-1929
Jones Transport,3660 Boulder Hwy Lot 509,Las Vegas,NV,89121,813-405-6432
Santa Barbara Trucking,4543 Margarete Ave,Las Vegas,NV,89121,702-439-4083
Sosa Express,6997 Pleasant View Ave,Las Vegas,NV,89147,702-513-8855
Xp Productions And Staging Designs,4000 W Ali Baba Lane Ste F,Las Vegas,NV,89148,702-463-4839
Am Express,9782 Overlook Ridge Ave,Las Vegas,NV,89148,702-553-6689
Best Motors,1613 North Boulder Highway,Henderson,NV,89011,702-682-4500
John Loflin Trucking,882 Coloma Dr,Carson City,NV,89705,775-230-5621
Cars & More LLC,5925 Sky Terrace Court,Reno,NV,89511,775-852-8323
Fdy Transport,8321 W Sahara Ave Apt 2085,Las Vegas,NV,89117,702-531-4068
Godsend Transport,593 Caribbean Palm Dr,Las Vegas,NV,89138,702-943-0604
Dancer Transport,8903 Red Baron Blvd,Reno,NV,89506,775-378-3653
Alpen Sierra Coffee Roasting Company,2222 Park Place 1a,Minden,NV,89423,775-783-7263
E&b Delivery Service,5868 Cathedral Peak Dr,Sparks,NV,89436,775-830-1855
Panda Windows And Doors,3415 Bellington Rd,North Las Vegas,NV,89030,702-643-5700
Las Vegas Ice Center,9295 W Flamingo Road Suite 130,Las Vegas,NV,89147,702-243-6271
Wence Trucking,383 Sawyer Way,Sparks,NV,89431,775-233-1090
Staballoy Integrated Services,543 6th Street,Sparks,NV,89431,775-842-4179
Caf Trucking,4320 Thyne Ave,Las Vegas,NV,89110,702-630-2640
Stempien Trucking,1330 Antelope Valley Rd,Reno,NV,89506,808-359-8767
Premier Transport,4660 S Eastern Ave Ste 110,Las Vegas,NV,89110,702-806-2229
Wgs Trucking,6255 W Tropicana Ave Apt 431,Las Vegas,NV,89103,702-205-7493
Crown Freight Services,8020 S Rainbow Blvd Ste 100-281,Las Vegas,NV,89139,702-673-7097
Cpc Family Logistics,101 Convention Center Dr Suite 700,Las Vegas,NV,89109,817-228-0949
Black Friday Home Electronics Outlet,4199 S Fort Apache Rd Suite C,Las Vegas,NV,89147,702-220-5006
Millers Auto Transport,8930 Rising Moon Dr,Reno,NV,89506,775-342-5676
Hog Hauling Motorcycle Transport,2486 Denholme Street,Henderson,NV,89044,702-586-0536
A&l Transport,5034 Cindy Way,Las Vegas,NV,89146,702-328-8965
Std Transport,5201 S Torrey Pines # 1244,Las Vegas,NV,89118,702-403-2631
Sarabby Trucking,10697 W Centennial Pkwy # 2097,Las Vegas,NV,89166,540-966-2174
Bl Express Transport LLC,4996 Ridgeview,Las Vegas,NV,89120,702-769-3727
Ocampos Products,4116 Lighthouse Ave,Las Vegas,NV,89110,202-521-1493
D & Y Transportation,4341 El Antonio Pl,Las Vegas,NV,89121,702-203-2576
Brother Trucking,5080 Indian River Dr Unit 400,Las Vegas,NV,89103,702-635-7602
Delivery,2695 Patrice Drive,Sparks,NV,89431,775-830-7703
New Bee Trucking,7624 Golden Lantern Ct,Las Vegas,NV,89139-5331,702-686-3999
702 Elite Transport,3220 Orr Ave,No Las Vegas,NV,89030,702-504-5554
Elbita Trucking,5044 Turner St Apt 3,Las Vegas,NV,89119,702-708-4870
Alans Chimney Sweep And Ajs Stoves,1267 A Hwy 395,Gardnerville,NV,89410,775-783-9986
Zareck Transport,4049 Lancewood Ave,Las Vegas,NV,89110,213-210-7335
Fch Trucking,5406 E Owens,Las Vegas,NV,89110,517-507-0612
Julienne Logistics,725 S 1st St Apt 1,Las Vegas,NV,89101,702-982-2410
"Alfredo Transportation, Inc.",4469 Charles Ronald,Las Vegas,NV,89121,702-755-9987
Galindo Express,3642 Boulder Hwy # 380,Las Vegas,NV,89121,702-609-2593
Over The Road Joe,5348 Vegas Dr #1443,Las Vegas,NV,89108,404-232-0261
Alonso Transport,704 N Bruce St,Las Vegas,NV,89101,702-815-9280
Anytime Trucking,150 S Murphy St,Pahrump,NV,89048,702-817-8148
Jbolt Transport,4320 Falcon Drive,Fallon,NV,89406,775-217-3375
Medeiros Transportation,6200 Rosalita Ave,Las Vegas,NV,89108,702-701-4548
Owner,6647 Casa Linda Drive,Las Vegas,NV,89103,702-416-3135
All Eagle LLC,4215 Rewana Way,Reno,NV,89502,775-400-8290
LLC,5180 Indian River Dr#350,Las Vegas,NV,89103,702-386-9102
Robe,1755 Idaho Street Apt # 136,Elko,NV,89801,775-629-6535
New West Trans,4656 E Desert Inn Rd,Las Vegas,NV,89121,702-305-3560
Northern Nevada Motorsports,1965 Hwy 95a,Fernley,NV,89408,775-224-7644
Alko Transport,621 Hardy Way #2,Mesquite,NV,89027,435-592-0712
Whitco,435 Milan Street,Henderson,NV,89015-4802,702-564-9124
Two College Guys,599 Nugget Avenue,Sparks,NV,89431,775-356-5536
Highland,1425 Chestnut,Carlin,NV,89822,775-754-2840
M & M Tranportation,1120 Wyoming Ave,Reno,NV,89503,775-787-8884
Dealcap,273 Faith Filled Ct,Henderson,NV,89052,626-712-4129
A-spear Cattle Company,Rr 31 Box 13,Reno,NV,89506,775-742-8667
Lucas Livestock,3300 Feedlot Rd,Winnemucca,NV,89445,775-623-4099
Faith David Thomas,164 State Route 339,Yerington,NV,89447,775-622-2604
A B T Trucking Company,1031 Palmerston St,Las Vegas,NV,89110,702-400-6348
Pt Trucking,1809 E Mesquite Ave,Las Vegas,NV,89101,702-340-4357
E&a LLC,200 Lakeview Dr,Boulder City,NV,89005,702-807-7650
Jss Trucking,6130 W Tropicana Ave,Las Vegas,NV,89103,702-992-0453
Spire Trans,1925 Franklin Avenue,Las Vegas,NV,89104,323-424-5818
Mohrs Trucking,35 Country Club Drive,Henderson,NV,89015,702-600-1341
Power Lines Trucking,2783 Beaconfalls Way,Las Vegas,NV,89142,702-539-4966
Allied Washoe,2500 E 4th,Reno,NV,89512,775-323-3146
Sin City Auto Transport,370 Casa Norte #2118,North Las Vegas,NV,89031,702-305-2333
Medegal Transport,3625 S Decatur Blvd Apt 1108,Las Vegas,NV,89103,725-400-3001
Guerrero Trucking,5516 Tallulah Falls St,North Las Vegas,NV,89081,702-274-2704
702 On Time Delivery,3635 Russian Olive St,North Las Vegas,NV,89032,702-601-0006
Pcx,561 Keystone Ave #681,Reno,NV,89503,209-269-0733
K & H Transport,4255 Comstock Drive,Winnemucca,NV,89445,775-304-3394
E J Sims Trucking,3185 Tarpon Dr,Las Vegas,NV,89120,702-466-5236
Diamond Express Yasunay,6557 Arrow Creek Ct,Las Vegas,NV,89156,702-779-9591
Leyva Transport,6316 Casada Way Apt C,Las Vegas,NV,89107,702-443-3105
Hamilton Transportation,1905 Carpenter Rd,Lovelock,NV,89419,209-996-6273
Ahr Express,7916 Coronado Island St,Las Vegas,NV,89139,702-544-0527
Sl Cargo Service,1709 S 14th St,Las Vegas,NV,89142,725-244-7830
Simon Transportation,5225 W Reno Ave #138,Las Vegas,NV,89118,701-609-2486
Drp Transport,5244 Sunnywood Dr,Las Vegas,NV,89120,702-378-2879
Malu Express Trucking,3306 Del Marino St,Las Vegas,NV,89121,702-854-9195
Jr Transportation,6005 Pillar Rock Ave,Las Vegas,NV,89139,951-552-3144
Djs Logistics,5902 Spinnaker Point Ave,Las Vegas,NV,89110,702-491-6394
Uk Trucking,7527 Reindeer Court,Las Vegas,NV,89147,702-825-2577
Trinity Transportation,1050 Connolly Dr #81,Elko,NV,89801,775-753-8409
Katherine Transportation,4729 Bennett Dr,Las Vegas,NV,89121,702-782-8403
John Getto,2325 Sheckler Rd,Fallon,NV,89406,702-423-4022
La-vegas Daily Express,5445 W Reno Ave #2106,Las Vegas,NV,89118,702-468-2189
My2 Trucking,4024 Saguaro Ln,Las Vegas,NV,89110,702-427-1543
Frank James Trucking,1027 South Rainbow Blv Apt 305,Las Vegas,NV,89145,702-610-3110
G&r Carrier,9005 Medicine Wheel Ave,Las Vegas,NV,89143,702-743-9113
Nw Trans,6653 Chardonay Way,Las Vegas,NV,89108,702-704-3079
Dan's Specialized Transport,1044 Wisteria Dr,Minden,NV,89423,775-450-3508
Munoz & Sons Express,3820 Shearwater Dr,Reno,NV,89508,775-813-2440
R E Wyatt Transportation,1125 Bluff Ave,Las Vegas,NV,89030,702-717-6526
Bella Marie Transport,5470 Turkey Lane,Las Vegas,NV,89131,702-882-0930
Ron Nichols Trucking,12920 Seminole Rd,Silver Springs,NV,89429,707-328-9878
Yl Transport,6405 Titan Ct,Las Vegas,NV,89108,786-916-4082
H & A Transportation,1630 Sherwin Ln,Las Vegas,NV,89156,725-666-9540
Stallion Fr8,3871 South Valley View Suite 12,Las Vegas,NV,89103,702-539-8558
Best Snacks Distribution & Transportation,624 Juneau Street,Elko,NV,89801,775-753-6325
R & T Logistics,6329 Wichita Falls Ave,Las Vegas,NV,89031,818-321-5203
Dsnd Trucking Express,6013 Lazy Creek Ave,Las Vegas,NV,89139,707-239-3212
Olarte Transport,4550 Karen Ave Apt 216,Las Vegas,NV,89121,702-601-8473
Esmy Trucking,2721 Flathead Falls St,Las Vegas,NV,89156,432-438-7544
Sierra's Transport,7570 W Flamingo Rd #259,Las Vegas,NV,89147,702-790-3097
Right On Express,8101 W Flamingo Rd Apt 1036,Las Vegas,NV,89147,702-848-0004
Premier Storage & Marine,992 Packer Way,Sparks,NV,89431,775-813-3199
Ten Trucking,5055 Lindell Rd 1088,Las Vegas,NV,89118,702-825-2742
Acl Trucking,"6935 Flowering Willow St Las Vegas, Nv 89148",Las Vegas,NV,89148,702-757-8940
Lm Trucking,5055 Lindell Rd 1088,Las Vegas,NV,89118,702-825-2742
P & M Transportation,5500 Crinoline Ave,Las Vegas,NV,89122,702-936-2889
Gloria Trucking,5055 Lindell Rd 1088,Las Vegas,NV,89118,702-825-2542
Auto Ride Transport,7440 Pollock Dr,Las Vegas,NV,89123,702-491-1926
Echa Mara Andro Trucking,5055 Lindell Rd 118,Las Vegas,NV,89118,702-825-2742
D&d Logistics,5455 S Fort Apache Rd #108-67,Las Vegas,NV,89128,702-755-4606
Miso Trucking,4981 River Glen Drive,Las Vegas,NV,89103,702-825-2742
Addis Trucking,10170 Kermode Court,Las Vegas,NV,89178,702-825-2742
Vegas 702 Transport,2415 North Martin L King Blvd,North Las Vegas,NV,89032,702-636-0364
Ag Trucking,5155 W Tropicana Ave Unit 2116,Las Vegas,NV,89103,702-825-2742
Veitia Transport,1517 E Saint Louis Ave,Las Vegas,NV,89104,702-337-7490
Americoast Services Transport,1350 E Flamingo Suite B,Las Vegas,NV,89119,702-659-1995
Sierra Hotshot Delivery,1650 Elk Run Trl,Reno,NV,89523,775-849-7879
Cline Transport,9215 Palmetto Ct,Reno,NV,89523,800-226-3696
Galaxy Trucking,9655 Ensworth St Apt 156,Las Vegas,NV,89123,702-884-7461
Echa Andro Mara Trucking,5055 Lindell Rd 1088,Las Vegas,NV,89118,702-825-2742
R S A Transport,3255 E Desert Inn Rd Apt 267,Las Vegas,NV,89121,702-340-4291
El Palma One Transport,126 Cervantes St,Las Vegas,NV,89101,702-860-7659
Nit Trans,401 Ryland St Ste 200,Reno,NV,89502-1643,775-401-6800
Nevada Haulers,848 N Rainbow Blvd # 5144,Las Vegas,NV,89107,702-333-5523
J's Trucking,1770 Santovito St.,Pahrump,NV,89048,725-261-1862
Ernesto Rosales,5167 Sun Valley Dr,Las Vegas,NV,89122,702-583-2810
Robert N Ward Trucking,17 Plumas Lane,Austin,NV,89310,405-576-3188
Sdt Transport,240 Mission Catalina Ln Apt 107,Las Vegas,NV,89107,631-992-2824
Jmrd Trucking,905 N 18th St,Las Vegas,NV,89101,405-576-3188
M S Trucking,616 Thrush Dr,Las Vegas,NV,89145,702-583-0043
Leyva Transport,4201 Claymont St Apt 1,Las Vegas,NV,89119,702-978-0512
J&l Transport,134 Springfield Pkwy,Spring Creek,NV,89815,775-934-7026
Brianson Trucking,400 Gamez Way,N Las Vegas,NV,89031,405-576-3188
Soggy Bottom Trucking,2475 Casey Rd,Fallon,NV,89406,775-404-2609
Jones & Sons,7315 Pembroke Dr,Reno,NV,89502-9761,530-258-6499
Lohmann Logistics,698 Tarn Way,Reno,NV,89503-1262,916-549-3240
Mn Trucking,1251 Casa Palermo,Henderson,NV,89011,405-283-0698
His Transportation,2220 Big Sky Way,Pahrump,NV,89048,775-835-1566
Arjun Kooner Trucking Lines,11703 Splendor View Dr,Las Vegas,NV,89183-5693,209-406-7417
Roadrunner Drilling & Pump Co,7800 S Herschell Road,Winnemucca,NV,89445-5301,530-406-8559
Young Bros,Hc 65 Box A,Austin,NV,89310,775-964-2504
4 Wall Las Vegas,3325 West Sunset Road Suite F,Las Vegas,NV,89118,702-263-3858
Hood Machine,45 Vista Boulevard-suite 102,Sparks,NV,89434,775-356-2796
Portable Sanitation,519 Upper Colony Road,Wellington,NV,89444,775-463-5142
Just Working On It,150 Penelope Ct,Sun Valley,NV,89433,775-674-2273
"Baxter And Son Mechanical Co, Inc.",15777 Fawn Ln,Reno,NV,89511,775-852-8372
Trabant Co,2700 Greensburg Cir,Reno,NV,89509,775-322-3302
Pen Reed Company,16770 Dry Creek Rd,Reno,NV,89511,775-849-4201
"Woodmasters, Inc.",46 Stokes,Moundhouse,NV,89706,775-246-5110
Tnb Enterprises,845 Deming Way,Sparks,NV,89431,775-425-4452
Sierra Welding Supply,1300 Glendale Ave,Sparks,NV,89431,775-359-4445
Rocket Fizz Soda Pop And Candy Shop,770 Mays Blvd #5400,Incline Village,NV,89450,805-987-7632
Country Equipment,1010 Carpenter Rd,Lovelock,NV,89419,775-273-1177
Las Vegas Crating,4255 Dean Martin Drive Suite H-1,Las Vegas,NV,89103,702-748-4973
Transport Services Of Nevada,1285 Glendale,Sparks,NV,89431,775-355-5791
Cocobongos Mobile Sports Bar,1221 Sunny Acres,North Las Vegas,NV,89081,702-574-3798
Costa Bonita Seafoods,3651 Lindell Rd Suite D216,Las Vegas,NV,89103,702-726-8069
Nu 2 U Appliances Nu 2 U Liquidations,395 Freeport Blvd Ste 9,Sparks,NV,89431-6238,775-331-6828
Advertising Wheels,6963 Speedway Blvd Ste 103 ,Las Vegas,NV,89115-1792,310-562-3206
Safeguard Industries,7055 Speedway Blvd Suite E105 ,Las Vegas,NV,89115,702-643-0995
Capco,2402 Centennial Dr,Genoa,NV,89411,775-782-5819
Nvision Glass,350 Greg St,Sparks,NV,89431,775-336-2881
Yim's Asian Supermarket,1210 N Rock Blvd,Sparks,NV,89431,775-356-8949
Monroe Ranch,1625 Reservation Rd,Lovelock,NV,89419,702-273-2526
Knight Ranch,3545 Peterson Road,Lovelock,NV,89419,775-273-2904
Kolo Tv,4850 Ampere Drive,Reno,NV,89502,775-858-8888
Meadow Valley Ranch,#1 Frontier Dr,Elko,NV,89801,775-778-0653
Arc International,4624 Andrews St,N Las Vegas,NV,89081,702-644-1444
Pj'z Transport,1234 Pebble Beach Dr,Mesquite,NV,89027-6756,702-497-9139
Translogic,2434 Amoretti St,Henderson,NV,89052,718-986-8331
Sourbee Transportation,5135 Shimmering Peak Way,N Las Vegas,NV,89031,888-702-8458
America Transport,5062 Kell Ln Apt 118,Las Vegas,NV,89115-6624,702-308-2497
808 Transport,5108 Del Rey Ave,Las Vegas,NV,89146,808-226-0431
Brs Xpress Transport Service,2150 N Tenaya Way Apt 2181,Las Vegas,NV,89128,702-854-9647
The Risen Phoenix Express,1228 Oak Village Ave,Las Vegas,NV,89183,619-630-1675
Lion Freight And Logistics,1492 N Lamb Blvd Apt 2125 ,Las Vegas,NV,89110,702-581-3947
Silverline Trucking,4290 El Esteban Way,Las Vegas,NV,89121,702-583-8361
Pro Interstate Trucking Services,8236 Cedar Leaf Dr,Las Vegas,NV,89147,408-857-2984
Pld Transport,1524 Ascension Cir,N Las Vegas,NV,89031,702-479-1196
Kingdom Transportation,1230 E Badger St,Silver Spgs,NV,89429,775-870-3978
T&m Logistics,10234 Audobon Peak Ave,Las Vegas,NV,89166,702-979-0984
Three-0-eight Transportation,8345 Wise Ave,Reno,NV,89506,530-263-5096
Luis And Leonel Transport,5832 Sierra Cliff St,N Las Vegas,NV,89031-1361,702-748-0902
Will Power Logistics,2905 Lake East Dr Ste 150,Las Vegas,NV,89117,844-480-1911
Mde Express,3332 Queens Canyon Dr,Las Vegas,NV,89117-0721,818-621-1056
'ole Pine Transport LLC,6177 Pine Desert Ave Unit 103,Las Vegas,NV,89108,702-481-0384
"0 To 65 Transportation, Inc.",1408 Big Valley Lane,North Las Vegas,NV,89081,702-318-3270
"015 Expedited, Inc.",6752 Oak Valley Dr,Las Vegas,NV,89103,702-445-8983
1 Hauling Hurricane LLC,505 Pinion Pine Wy,Battle Mtn,NV,89820,775-374-0585
1 Shot Delivery Services LLC,304 E Silverado Ranch Blvd Unit 1348,Las Vegas,NV,89183-4424,702-886-6052
1 Toe Truck LLC,9179 Weeping Hollow Ave,Las Vegas,NV,89178,208-214-3881
1 Transport Hotshots LLC,600 E William St Suite 206,Carson City,NV,89701,877-571-1088
"1 Transport Trucking, Inc.",600 E William St Ste 206a,Carson City,NV,89701,941-928-1633
1 Tru Logistics LLC,6935 Aliante Pkwy Ste 104 # 192,N Las Vegas,NV,89084,702-204-6054
1-1804 Trucking LLC,4111 Sanderling Cir Unit 355,Las Vegas,NV,89103,702-750-6526
Reliable Expediting,6426 Gilded Flicker St,N Las Vegas,NV,89084,203-887-1730
101 Transport LLC,150 Hwy 278,Eureka,NV,89316,775-318-0064
103 Transportation Services Ltd,6440 Candlebrush Ln,Las Vegas,NV,89107,573-317-7447
104 Entities LLC,3 Montana Way,Henderson,NV,89015,702-984-8826
105 Logistics LLC,8635 W Sahara Ave # 4062,Las Vegas,NV,89117,702-626-4690
10543 Transportation LLC,2621 Donna St Apt D,N Las Vegas,NV,89030,929-330-3796
1124 Logistics LLC,5710 E Tropicana Ave Unit 1051,Las Vegas,NV,89122,909-486-7438
12 Tribes Trucking LLC,3337 Casey Dr Apt 103,Las Vegas,NV,89120,310-346-8206
121 Express Logistics,9025 Tumblewood Ave,Las Vegas,NV,89143,702-292-3964
1216 Works LLC,315 Silverado Pines Ave,Las Vegas,NV,89123,702-201-3843
13 Bravo Trucking LLC,3016 Hartley Cove Ave,N Las Vegas,NV,89081,702-981-0573
1469 Transport LLC,316 California Avenue #784,Reno,NV,89509,626-217-5846
17 Transporting LLC,6260 Haiku Stairs St,Las Vegas,NV,89148,702-829-8595
1701 Express,2861 Losee Rd,Las Vegas,NV,89030,702-672-5112
"1776 P N D, Inc.",2480 Precision Dr Unit B,Minden,NV,89423,170-296-4159
1983 Fast Transport LLC,1705 Goodrich Cir,Las Vegas,NV,89108,702-809-4693
1affordable Services,3157 Arville St,Las Vegas,NV,89102,702-234-2931
1of1 Trucking LLC,3700 E Bonanza Rd Apt 1081,Las Vegas,NV,89110-6440,714-348-2774
Axle Surgeons Of Reno,1580 Kleppe Ln,Sparks,NV,89431,775-356-8118
"1st Response Towing, Inc.",3975 W Hacienda Ave,Las Vegas,NV,89118,702-210-6659
"1t Trucking, Inc.",1365 Us Highway 395 N Ste 102,Gardnerville,NV,89410,775-600-1911
2 Brothers Transport,3990 Las Vegas Blvd,Las Vegas,NV,89115,774-826-8479
2 Brothers Trucking LLC,10643 Streamside Ave,Las Vegas,NV,89129,201-590-5623
2 Fast Transport LLC,100 Park Vista Dr Unit 3079,Las Vegas,NV,89138,301-659-2724
2 Fords Truck & Transport LLC,27 Church Street,Henderson,NV,89015,775-772-8922
2 Kings Industries,69 Rosa Rosales Ct,N Las Vegas,NV,89031-2592,702-762-1208
2 Zog'z Hotshot Transport LLC,5255 E Winnemucca Blvd,Winnemucca,NV,89445,775-304-9333
2001 Logistic LLC,400 W Winnie Ln Apt 21,Carson City,NV,89703,562-209-5264
201 Express Transport LLC,8109 Chambersberg St,Las Vegas,NV,89147,702-882-1913
2020 Transport LLC,7900 Esterbrook Way Apt 102,Las Vegas,NV,89128,817-382-1531
21 Century Trans,9782 Resting Pines Ct,Las Vegas,NV,89147,248-635-6670
21 Xpress LLC,3080 Saint Rose Pkwy Unit 1053,Henderson,NV,89052,702-885-8750
212 Transport LLC,212 N Lamb Blvd,Las Vegas,NV,89110,702-336-3319
2123 Trucking LLC,5452 Cactus Thorn Ave Apt D,Las Vegas,NV,89118,702-755-5205
21road Lv Trucking LLC,2997 Duxbury Dr Unit A,Henderson,NV,89052,702-501-4884
Psc,2095 Newlands Dr E,Fernley,NV,89408,775-575-2760
24 7 Carriers LLC,4201 W Rochelle Ave Apt 2109,Las Vegas,NV,89103,817-258-5044
24 7 Transit LLC,6250 W Arby Ave Unit 121 ,Las Vegas,NV,89118,702-493-3688
24 7 Trucking,4894 W Lone Mountain #158,Las Vegas,NV,89130,310-722-5631
24 7 Xpress Transport LLC,6909 Bison Cir,Las Vegas,NV,89145,702-277-0584
24-7 Express LLC,2777 Northtowne Ln Apt V1102,Reno,NV,89512,775-846-3409
24-7 Logistics LLC,8756 Autumn Wreath Ave,Las Vegas,NV,89129,702-336-2426
24hoursfreight LLC,580 Siciliano St,Las Vegas,NV,89138,702-788-5892
2nd Chance Transport LLC,2881 N Rancho Dr Apt 1083,Las Vegas,NV,89130,702-541-1851
2r,800 N Raibow Blvd #208,Las Vegas,NV,89107,619-713-0563
2twelve Freight Broker LLC,3753 Howard Hughes Pkwy Ste 200,Las Vegas,NV,89169,888-213-4057
3 0 Gb Transport LLC,7891 N Torrey Pines Dr,Las Vegas,NV,89131,702-523-2830
3 At A Time David Brooks Auto Transport,844 Coral Cottage Drive,Henderson,NV,89015,702-558-7691
"3 G Productions, Inc.",6295 South Pearl St 800,Las Vegas,NV,89120,702-948-0459
3 Generations Trucking LLC,4010 Adabella Ave Apt 103,Las Vegas,NV,89115-1611,702-265-6256
3 Sisters LLC,5080 Bevvie Dr,Las Vegas,NV,89108,702-862-6393
3 Stars Express LLC,1236 Lucia Dr,Las Vegas,NV,89128,702-542-8138
31 Summers Trucking,1050 Wellness Pl Apt 1325,Henderson,NV,89011,504-365-6917
33 Trucking LLC,3317 Helmsman Dr,N Las Vegas,NV,89032-0556,702-493-5883
360 On The Dot Trucking,6275 Harrison Dr #8,Las Vegas,NV,89120,720-410-4179
360 Trucking LLC,6373 Copperfield Ave,Las Vegas,NV,89108,702-824-0233
365 Auto Service LLC,4640 Vegas Valley Dr Apt 1080,Las Vegas,NV,89121-7922,323-975-5828
365 Logistics LLC,10467 Ashlar Point Way,Las Vegas,NV,89135,310-692-6467
365 Transport LLC,8400 S Maryland Pkwy Apt 1047,Las Vegas,NV,89123,725-214-6121
365 Trucking LLC,3346 Kemp St,N Las Vegas,NV,89032,702-670-9462
369 Transport LLC,1575 W Horizon Ridge Pkwy Ste 531373,Henderson,NV,89012,702-963-6269
3828 Freight LLC,5626 Wedgefield,N Las Vegas,NV,89081,702-673-8267
3abs LLC,8878 Kingswood Dr,Las Vegas,NV,89147-8682,702-372-5986
"3d Logistics, Inc.",19th Street,Eureka,NV,89316,775-846-6225
3h Trucking LLC,481 Wheaties Way,Las Vegas,NV,89110,725-599-1550
3j Cattle LLC,73955 Fish Springs Road,Reno,NV,89510,775-530-6780
"3j S Transport, Inc.",33 E Freeport Blvd,Sparks,NV,89431-6306,775-745-2359
"3jd Transport, Inc.",1405 Vegas Valley Dr Ste #330,Las Vegas,NV,89109,702-300-7322
3js Auto Transport LLC,8053 Shadowvale Dr,Las Vegas,NV,89147,702-340-7719
3l Transport LLC,2101 W Warm Springs Rd Apt 4721,Henderson,NV,89014,702-224-4936
3ln Express LLC,500 Sarajane Ln,Las Vegas,NV,89107,702-980-5883
3n1 Carriers LLC,6596 Secluded Ave,Las Vegas,NV,89110,702-768-8968
4 Duarte Transport LLC,3850 Mountain Vista St Apt F176,Las Vegas,NV,89121,702-757-8301
4 G's Transportation LLC,220 Hillcrest Dr,Henderson,NV,89015,619-598-3234
4 G's Trucking Corporation,500 N Rainbow Blvd Suite 300 A,Las Vegas,NV,89107,213-393-0395
4 In The Field LLC,3713 Alcantara Ln,N Las Vegas,NV,89084,725-220-9640
4 Mile Farm & Transport LLC,378 Halleck,Elko,NV,89801-9305,775-340-3183
4 Queens Trucking LLC,8227 Parting Clouds Ct,Las Vegas,NV,89117,702-430-0052
4 Seasons Delivery Services,10035 Navajo Crest Dr,Reno,NV,89506,775-359-7145
4 Star Plastering LLC,10220 Cool Mist St,Las Vegas,NV,89178,775-209-3979
"4 T Trucking, Inc.",7971 Stone Wall Drive,Las Vegas,NV,89123,402-304-0196
4 The Journey Transportation LLC,3030 Hebard Dr,Las Vegas,NV,89121,702-504-3869
"4 Us Logistic, Inc.",4248 Spencer Street Suite 328,Las Vegas,NV,89119,917-653-1474
4 You Movers,312 Shimmering Moon St,Henderson,NV,89015,702-683-9934
4 Your Pleasure LLC,10004 Harpoon Cir,Las Vegas,NV,89117,702-236-6511
42 Strong LLC,6793 Lydian Ct,Las Vegas,NV,89139,808-464-8512
420 Wonderland LLC,304 S Jones Blvd Pmb 7285,Las Vegas,NV,89107,330-906-0431
43 R Vacuum Truck Service,Hc34292-16 Osino,Elko,NV,89801,775-753-5122
48 Freight Transportation Group LLC,2777 Paradise Rd Unit 1801,Las Vegas,NV,89109,214-945-2644
48 States Transport LLC,601 S Highyway 160 #115,Pahrump,NV,89048,626-354-2545
4boi Island Express LLC,6447 Big Pine Way,Las Vegas,NV,89108,844-456-4264
4bz Express LLC,9916 Markhorn Ct,Las Vegas,NV,89149,808-557-7729
4d Express,1019 Felix Palm Ave,North Las Vegas,NV,89032,702-413-2925
4ds Trucking LLC,3080 Saint Rose Pkwy Unit 1214,Henderson,NV,89052,707-712-9247
R&r Mobile Lube,5470 Cameron St No 107,Las Vegas,NV,89118,702-429-7301
4silvas LLC,4718 Fuentes Way,Las Vegas,NV,89121,702-273-4535
5 H Transport LLC,770 Alazon Ln,Wells,NV,89835,775-293-0128
5 Oh Trucking LLC,1709 Flat Ridge Dr,Henderson,NV,89014,808-690-2970
5 Star Grand Canyon Helicopter Tours LLC,1421 Airport Road Suite 105,Boulder City,NV,89005,702-885-7827
5 Star Transport LLC,2255 Marion Dr Ste 10,Las Vegas,NV,89115,702-979-9208
"5 Star Transportation, Inc.",4330 S Valley View Blvd Suite 126,Las Vegas,NV,89103,310-941-5555
5 Star Trucking LLC,5470 Valonga St,Las Vegas,NV,89148,929-233-2209
503 Hotshot Trucking LLC,6139 Meadowgrass Ln,Las Vegas,NV,89103,702-704-9635
54 Express LLC,380 Cactus Stream Ct,Henderson,NV,89074,702-908-6363
55 Trucking,3200 W Thomas Canyon,Winnemucca,NV,89445,775-304-2385
557 Trucking LLC,4358 La Jara Dr,Las Vegas,NV,89120,702-818-9270
584 Trucking LLC,9474 Alma Ridge Ave,Las Vegas,NV,89178,702-327-7993
5k Trucking LLC,901 E Cartier Ave,N Las Vegas,NV,89030-5320,702-504-5301
5ko LLC,9706 Powell Plateau Ct,Las Vegas,NV,89148,702-462-0070
65 Towing LLC,3450 Death Valley Dr,Las Vegas,NV,89122,702-433-1000
7 Five Transport LLC,400 E Barrett St,Henderson,NV,89011,702-541-1993
7 Logistics LLC,4434 Marble Bay Circle,Las Vegas,NV,89147,510-393-1505
7 West Transport LLC,1222 Dawson Drive,Reno,NV,89523,702-490-0540
702 Carriers LLC,9350 S Cimarron Rd Unit 2065,Las Vegas,NV,89178,866-971-0959
702 Gray Line Transport LLC,1700 N Lamb Blvd Apt 204,Las Vegas,NV,89115-6569,702-219-5892
702 Logistics,429 Colorful Rain Ave,North Las Vegas,NV,89031,702-587-3355
702 On The Run,5515 N Campbell Rd,Las Vegas,NV,89149,702-281-8000
702 Prime Transport LLC,1740 Old West Ave,Pahrump,NV,89048,702-406-9018
702 Tranportation LLC,110 W Rolly St,Henderson,NV,89011-4011,702-605-5458
702 Transporting LLC,110 W Rolly St,Henderson,NV,89011-4011,323-975-3249
Bin There Dump That Las Vegas,2728 Monrovia Dr,Las Vegas,NV,89117-0509,702-228-0759
702 Xpress LLC,2740 Morning Meadow Ct,Las Vegas,NV,89156,702-715-2000
74 Carrier LLC,2103 Beverly Way,Las Vegas,NV,89104,305-804-1216
77 Express LLC,9971 Fragile Fields St,Las Vegas,NV,89183,702-727-7932
775g & M Transport,2015 Kim Way,Sparks,NV,89431,775-358-6987
777 Tow,1160 Sax Fifth Ave Henderson,Henderson,NV,89052,650-219-7057
777 Logistics LLC,1751 S Mojave Rd,Las Vegas,NV,89104,702-297-7770
"777 Towing, Inc.",1722 Primrose Path,Las Vegas,NV,89108,702-724-9000
777 Xpress LLC,3987 Ventura Way,Las Vegas,NV,89121,702-727-7932
783 Logistics LLC,2350 Wedekind St # G,Reno,NV,89512-2021,408-430-3155
786 Transportation LLC,10149 Juniper Myrtle Ct,Las Vegas,NV,89183,702-917-8756
786 Transportation Service LLC,6908 Evanston Ave,Las Vegas,NV,89108,786-273-5613
808 Logistics LLC,5130 S Fort Apache Rd Ste 215,Las Vegas,NV,89148,702-850-2041
808 Long Range Trucking LLC,9022 Salvatore St,Las Vegas,NV,89148-4988,808-238-4167
808 Transport LLC,6620 Rocking Horse Ave,Las Vegas,NV,89108,808-840-9698
831 Trucking LLC,5820 Mello Ave,Las Vegas,NV,89131-2940,702-580-3969
86 Trucking LLC,3540 Barrel Bronco Ct,N Las Vegas,NV,89032,909-213-2723
87 Movers LLC,7250 S Durango Dr Ste 130,Las Vegas,NV,89113-2255,702-996-1787
88 Mike Trucking Llp,2913 Domino Way,Las Vegas,NV,89117,702-343-0577
888 Transport LLC,10161 Park Run Dr Ste 150,Las Vegas,NV,89145,702-847-8989
"8bc Trucking, Inc.",3945 Redwood St,Las Vegas,NV,89103,702-858-0320
Great Northern Transit,3325 W Landberg Ave,Las Vegas,NV,89141-8849,703-675-7591
911 Movers,101 N Pecos Rd Ste 113,Las Vegas,NV,89101,702-800-9450
925 Solutions,2249 La Sombra St,Las Vegas,NV,89108,702-550-9698
927 Trucking LLC,3616 Orr Ave,N Las Vegas,NV,89030-6695,702-808-6361
938 Corp,10857 Red Badge Ave,Las Vegas,NV,89166,702-666-5425
99 Carriers LLC,4013 E Sunset Rd,Henderson,NV,89014,888-987-2001
99 Percent Trucking LLC,4438 Mitchell St,North Las Vegas,NV,89081,925-204-5369
9mile LLC,9219 Red Knoll St,Las Vegas,NV,89113,702-934-8537
9th Album,10607 Alondra Peak St,Las Vegas,NV,89183,702-741-9702
9th Island Logistics LLC,8914 Topaz Cliff Pl,Las Vegas,NV,89123,702-978-1142
9th Island Logistics Moving,2120 Hillsgate St,Las Vegas,NV,89134,808-343-2524
9th Island Transport LLC,150 Fourth St Unit B,Henderson,NV,89015,808-306-5349
9th Island Trucking LLC,944 Menands Ave,Las Vegas,NV,89123,808-428-6429
9th Isle Trucking LLC,1810 E Sahara Ave Ste 212,Las Vegas,NV,89104,702-557-7988
A & A Auto Transport LLC,5165 Silverheart Ave,Las Vegas,NV,89142,725-300-1149
A & A Bennett Logistics LLC,7349 Dolphine Crest Ave,Las Vegas,NV,89129,702-919-9210
A & A Express LLC,3701 Lighthouse Ave,Las Vegas,NV,89110-3016,702-439-4747
A & A Logistics LLC,6377 Carmen Blvd,Las Vegas,NV,89108,818-943-1561
A & A Logistics Trucking LLC,2029 E Saint Louis Ave,Las Vegas,NV,89104,702-302-6423
"A & A Towing, Inc.",1395 East 4th St,Reno,NV,89512,775-348-6565
"A & A Transportation, Inc.",4001 S Decatur Blvd Ste37-369,Las Vegas,NV,89103,562-299-5560
"A & A Trucking, Inc.",1147 Evening Canyon Ave,Henderson,NV,89014,702-541-1241
A & A Trucking LLC,1863 Hasib Ct,Las Vegas,NV,89156-7603,702-489-1662
A & B Enterprise LLC,375 Harbour Cove Dr Apt 315,Sparks,NV,89434,775-335-5142
A & E Trucking LLC,8807 Diamond Wood Ct,Las Vegas,NV,89139,702-350-5207
A & F Transport LLC,5348 Vegas Dr,Las Vegas,NV,89108,323-239-3227
A & G Transportation LLC,2450 Shatz St,Las Vegas,NV,89156,702-236-5202
A & I Hot Shots LLC,771 Palo Verde Cir Apt 2,Las Vegas,NV,89119,702-207-9849
"A & K Towing And Recovery, Inc.",944 W Main St,Elko,NV,89801,775-738-5554
A & L Logistics LLC,6342 Hermes Stables Ct,Las Vegas,NV,89131,702-289-0550
A & M Transport LLC,6325 Carmen Blvd,Las Vegas,NV,89108,702-724-3758
A & N Family Trucking LLC,602 Hamilton St,Carlin,NV,89822,775-934-4756
A & O Transportation LLC,10408 Smokemont Ct,Las Vegas,NV,89129-4515,408-757-4332
A & O Trucking LLC,2800 S Eastern Ave Apt 406,Las Vegas,NV,89169,725-400-3928
A & R Delivery Service LLC,500 Connemaras Ct,Reno,NV,89521,775-846-7687
A & R Kboom LLC,2020 Ullom Dr,Las Vegas,NV,89108,702-374-7133
A & R Transportation LLC,11429 Parkersburg Ave,Las Vegas,NV,89119,725-247-7139
A & S Express LLC,280 W Lakemead Pkwy,Henderson,NV,89015,702-931-5591
A & V Trucking Corporation,5962 Tinazzi Way ,Las Vegas,NV,89141-0423,702-619-3993
A & W Transcargo LLC,3536 Carisbrook Dr,N Las Vegas,NV,89081,702-420-3990
A & Y Brothers Express LLC,840 N 18th St,Las Vegas,NV,89101,702-400-7413
A & Y Transport LLC,4469 Don Quixote St,Las Vegas,NV,89121,702-670-9024
A & Y Transport LLC,2843 Beaconfalls Way,Las Vegas,NV,89142,702-202-8824
A & Y Transportation LLC,1171 Casey Rd,Pahrump,NV,89048,702-890-3522
"A - 1 Transportation, Inc.",350 Kresge Lane,Sparks,NV,89431,775-355-9995
A 1 Cabinet Company LLC,1300 E Glendale Avenue,Sparks,NV,89431,775-351-1133
A A Water Truck Service,105 El Cid Place,Sparks,NV,89436,775-424-6661
"A Aaaauto Trucking, Inc.",1017 S Cimarron Road,Las Vegas,NV,89128,702-242-4869
A & D Trucking,4824 Goldeneye Way,North Las Vegas,NV,89031,702-326-1235
A And S Auto Transport LLC,529 Bachelor Button St,Las Vegas,NV,89138,615-574-8828
A B C Road Ways LLC,8414 Vacarez Dr,Las Vegas,NV,89149,424-603-1464
"A B C Trucking Leasing, Inc.",4000 E Charleston Ste C,Henderson,NV,89104,N/A
A C T Freedom Transportation LLC,6771 Sedora Way,Las Vegas,NV,89156,305-303-0555
A C Transport,4575 E Saint Louis Ave,Las Vegas,NV,89104,702-376-9370
A C Transport LLC,228 Falcon Ln,Las Vegas,NV,89107,702-245-2084
A D B Trucking LLC,3900 El Cederal Ave,Las Vegas,NV,89102,702-497-7028
A D Trucking LLC,4302 Chrysalis Dr,Las Vegas,NV,89121,702-981-9165
A F D Transport LLC,613 Stanford St,Las Vegas,NV,89107,702-412-4157
A F M Trucking LLC,5958 Chariot Ln,Las Vegas,NV,89110,786-521-7915
A Ferreira Carrier LLC,4878 Nara Vista Way Unit 204,Las Vegas,NV,89103,801-864-6500
A G N Transport LLC,5919 Balsam Pine Dr,Las Vegas,NV,89142,725-277-2972
"A G Truck Lines, Inc.",1600 Victorian Ave,Sparks,NV,89431,775-737-8621
A J And Eagles Transportation LLC,5809 Gipsy Ave,Las Vegas,NV,89107,702-845-5955
"A J Transportation, Inc.",2708 S Highland Drive,Las Vegas,NV,89109,909-854-9616
A J Trucking LLC,4039 Tara Ave Apt 201,Las Vegas,NV,89101,702-969-3366
A K M Trucking LLC,2267 Tulip Field St,Las Vegas,NV,89142,702-904-6531
"A K W Crane Service, Inc.",42 East Freeport Blvd,Sparks,NV,89431,775-331-5438
"A L S Trucking, Inc.",1430 Louisiana Lakes Ave,Las Vegas,NV,89183,702-350-9656
A M Express Corp,6308 Casada Way,Las Vegas,NV,89107,702-302-9204
A M G D Services LLC,3259 E Flamingo Rd Apt 106,Las Vegas,NV,89121,702-338-7155
A M Transport L L C,2657 Rugsted Street,Las Vegas,NV,89142,702-497-7933
"A M Trucking, Inc.",6360 E Sahara Ave #2083,Las Vegas,NV,89142,702-589-0329
A Man And His Truck,3888 Delling Ct,Las Vegas,NV,89104,702-561-5825
"A Map Transportation, Inc.",4801 Harrison Dr #271,Las Vegas,NV,89121,909-533-0781
A Move Solution LLC,1183 Desert Shale Ave,Las Vegas,NV,89123,725-275-9819
"A N Transport, Inc.",6400 E Washington Ave,Las Vegas,NV,89110,702-531-3148
A Navarro's Delivery LLC,3505 Fort Niagara Ave,N Las Vegas,NV,89032-0491,702-689-7375
"A P E Trucking, Inc.",395 Sage Street,Fernley,NV,89048,775-575-0900
A P Transport LLC,7748 Selby Ct,Las Vegas,NV,89147,702-712-6087
A P Trucking LLC,4550 W Sahara Ave Apt 1137,Las Vegas,NV,89102,702-684-3690
A Plus Bob's LLC,9472 Canalino Drive,Las Vegas,NV,89134,702-234-8125
A Plus Transport LLC,5075 Spyglass Hill Dr Apt 2069,Las Vegas,NV,89142,602-777-0224
"A Revelation Transportation, Inc.",8036 Cool Springs St,Las Vegas,NV,89143,702-372-2737
"A S Trucking, Inc.",3060 S Decatur #k-11,Las Vegas,NV,89102,702-271-1865
A S Trucking LLC,1490 Westwood Drive,Reno,NV,89509,775-762-4595
Asb Logistics,2831 St Rose Parkway Suite 200,Las Vegas,NV,89052,909-770-7314
A Storage On Wheels,5085 Cecile Ave,Las Vegas,NV,89115,702-382-1300
Atomic Motors,704 W Sunset Rd Ste B1,Henderson,NV,89011,702-556-7392
A Team Trash Hauling LLC,30605 Sutcliffe Star Route Space 15,Reno,NV,89510,775-476-0124
A Team Water Truck Service,11805 Claim Stake Drive,Reno,NV,89506,775-247-6089
"A To B Logistics, Inc.",2300 W Sahara Ave Ste 800,Las Vegas,NV,89102,708-830-8536
A To B Transport LLC,2168 Neuer Dr,Sparks,NV,89436,775-856-9251
A To Z Towing LLC,4225 Souh Fidus 103,Las Vegas,NV,89103,702-228-4440
"A V Auto Transports, Inc.",2024 Western Ave,Las Vegas,NV,89102,702-868-0239
A W Express,7695 Crystal Village Ln,Lasvegas,NV,89113,702-253-5549
A Whitaker Transportation LLC,20 Flowery Avenue,Dayton,NV,89403,530-721-0839
A X R Handyman LLC,1600 Camarillo Dr,N Las Vegas,NV,89031-1022,408-401-1497
A Y P Trucking LLC,5921 Blue Grouse Trl,Las Vegas,NV,89142,702-888-0342
A Y Trucking LLC,3610 Becerro Dr,Las Vegas,NV,89121-2923,702-544-8433
A&a Affordable Equipment Corporation,9220 W Rosada Way,Las Vegas,NV,89149,702-271-5234
"A&a Logistics, Inc.",4974 E Sahara Ave Ste #16,Las Vegas,NV,89104,702-432-6274
A&d Trucking,2552 Aviv Ct,Las Vegas,NV,89121,702-468-7926
"A&d Trucking, Inc.",7085 N Jensen St,Las Vegas,NV,89149,702-499-6325
A&f Delivery Service,805 Kuenzli St Apt 125,Reno,NV,89502,775-770-4988
A&g Auto Service,4955 Buckhorn Butte Ct,Las Vegas,NV,89149,818-231-6907
A&g Trucking LLC,5105 Churchill Ave,Las Vegas,NV,89107,702-773-8931
A&j Forrester Transport LLC,2006 Prater Way Space 94,Sparks,NV,89431,332-230-3394
A&j Pro LLC,2355 Cascade St,Las Vegas,NV,89142,702-764-6904
"A&k Earth Movers, Inc.orporated",515 Windmill Dr,Fallon,NV,89406,775-423-6085
A&k Transportation LLC,4118 Bonita Desert Ct,N Las Vegas,NV,89032,702-351-5737
A&l Transportation LLC,4309 Beth Ave,Las Vegas,NV,89108-2801,702-984-1483
A&m Trucking LLC,7654 Morning Lake Dr,Las Vegas,NV,89131,817-258-5044
A&n Trucking,602 Hamilton St,Carlin,NV,89822,775-934-6530
A&o Guerrero's Transport LLC,5126 Denning St,Las Vegas,NV,89122,702-469-0466
A&p Freight LLC,3334 Wardlaw St,Las Vegas,NV,89117,210-995-3970
A&r Trucking LLC,5050 Smoke Ranch Rd,Las Vegas,NV,89108,702-978-3485
"A&r Truckline, Inc.",2140 Stanton Ln,Reno,NV,89502,775-772-4893
A&s Transport,2114 Fountain Valley Way,N Las Vegas,NV,89031-0649,702-412-1058
A&t Transport LLC,10264 Sweet Woodruff Dr,Las Vegas,NV,89141,702-659-1997
A & T Trucking,6395 Whispering Clouds Ct,Las Vegas,NV,89141,702-614-0784
A&v Transportation LLC,625 Ordrich Place,Las Vegas,NV,89145,702-355-1486
A&y Express LLC,3463 Procyon St Unit 431,Las Vegas,NV,89102,725-207-6642
A&y Trucking LLC,1085 Water Cove St,Henderson,NV,89011,702-883-7435
A-1 Towing,45 N Laverne St,Fallon,NV,89406,775-423-2444
A-1 Transport,585 Eastgate Rd,Henderson,NV,89011,702-834-0495
A-1 Truck Driver Training,1105 Industrial Rd,Boulder City,NV,89005,702-293-7335
A-man Transportation LLC,7772 Flowering Quince Dr,Las Vegas,NV,89179,702-695-7618
A-s Trucking LLC,7626 Frenchmans Bay Ave,Las Vegas,NV,89179,714-222-2851
A-village Freight Group LLC,3172 N Rainbow Blvd # 1236,Las Vegas,NV,89108,424-356-8472
A-wall Logistics LLC,4525 S Sandhill Rd Ste 107,Las Vegas,NV,89121,702-809-1250
"A1 Carriers, Inc.",59 Damonte Ranch Pkwy Ste 425,Reno,NV,89521,702-204-3039
Elite Trucking 247,5396 Danville Lane Apt A,Las Vegas,NV,89119,323-827-1771
A1 Express LLC,9453 Spring Blush Ave,Las Vegas,NV,89148,702-403-3740
A1 Secured Transportation LLC,3651 Lindell Rd Ste D337,Las Vegas,NV,89103,702-943-0266
A1 Trucking,4183 Mississippi Ave,Las Vegas,NV,89103,510-493-8885
A2b Transport LLC,6717 Groveview Ln,Las Vegas,NV,89103,702-927-5392
A2m Trucking LLC,3211 Key Largo Dr Apt 101,Las Vegas,NV,89120,702-628-2580
A2z Freight Services LLC,6275 S Sandhill Rd Ste 400,Las Vegas,NV,89120,702-454-6520
A2z Transportation LLC,675 S Green Valley Pkwy # 1017,Henderson,NV,89052,725-265-0525
Aa & N-LLC,3512 Rio Robles Dr,N Las Vegas,NV,89030,813-640-8538
Aa & Y Express LLC,4315 Chafer Dr,Las Vegas,NV,89121,N/A
Action Towing,3035 Westwood Dr,Las Vegas,NV,89109,702-737-9100
Aa And Family LLC,6765 Tulip Falls Dr Unit 2048,Henderson,NV,89011,702-934-9577
Aa Logistics LLC,8056 Eurostar St,Las Vegas,NV,89131,702-482-1818
Aa Pickup Tires,6261 Halstead Ct,North Las Vegas,NV,89081,702-354-9579
Aa Transport LLC,936 Angel Star Ln,Las Vegas,NV,89148,347-659-4991
Aa Transportation LLC,3000 High View Dr Apt 913,Henderson,NV,89014,702-250-8744
"Aaa Anytime, Inc.",10620 Southern Highlands Pkwy #248,Las Vegas,NV,89141,702-889-4963
Aaa Chamizo Express LLC,2247 Portabello Rd,Las Vegas,NV,89119,702-831-2927
Aaa Expedited Services LLC,871 Coronado Center Dr Suite 200,Henderson,NV,89052,N/A
"Aaa Express, Inc.",2850 Horizon Ridge Parkway St Unit 200,Henderson,NV,89052,702-430-4794
Aaa Logistic Services LLC,701 N Green Valley Parkway Suite 200,Henderson,NV,89074,702-990-3325
"Aaa Mfg, Inc.",5055 Convair Drive,Carson City,NV,89706,775-883-6901
Aaa Tt LLC,1405 Vegas Valley Drive,Las Vegas,NV,89169,702-521-6632
"Aaa Turf Services, Inc.",9505 S Buffalo Rd,Winnemucca,NV,89445,775-623-4133
Aaa Vegas Strong Elite Carriers LLC,3939 Rose Canyon Dr,N Las Vegas,NV,89032,702-561-1123
Aabacus Moving Storage LLC,3240 W Sunset,Las Vegas,NV,89118,702-361-3611
Aace Trucking Corp,3241 S Torrey Pines Dr,Las Vegas,NV,89146,909-688-6737
"Aada Logistics, Inc.",3840 W Lake Mead Blvd Ste 110,N Las Vegas,NV,89032,909-743-1961
Aag Transport LLC,5128 Holmby Ave,Las Vegas,NV,89146,702-812-3920
Aal Transportation LLC,4445 Santa Clarita Ave,Las Vegas,NV,89115,310-722-7221
Aamericas One Trucking LLC,4640 Vegas Valley Dr Apt 2081,Las Vegas,NV,89121,702-823-8390
Aamr LLC,9580 Knotweed Ave,Las Vegas,NV,89148,702-704-4431
Aarc Transport LLC,3428 Sheep Canyon St,Las Vegas,NV,89122,877-541-8771
Hess Trash Company,6935 Experiment Ct,Sparks,NV,89436-6385,775-745-5854
Holman Trucking,2113 Echo Bay,Las Vegas,NV,89128,661-349-2117
Aaron Transport LLC,1930 Isaac St,Pahrump,NV,89060,413-212-2550
Aaron Trucking LLC,9717 Forest Glen Pl,Las Vegas,NV,89134,702-955-2952
Aaron's Site Management LLC,3645 Black Forest Ln,Sparks,NV,89434-6759,775-848-6411
Aay Lux Transport LLC,3828 Bach Way,N Las Vegas,NV,89032,702-478-0102
"Ab Express, Inc.",6554 Averill Creek Avenue,Las Vegas,NV,89118,773-575-2990
Ab Hauling & Removal LLC,2101 Belmont St Apt D,N Las Vegas,NV,89030,702-743-3545
Ab Logistics LLC,208 Sierra Breeze Ave,N Las Vegas,NV,89031,702-330-6005
Ab Ruiz Trucking LLC,2514 San Marcos St,Las Vegas,NV,89115,702-823-9287
Ab Transport LLC,9436 W Lake Mead Blvd Ste 5,Las Vegas,NV,89134,317-922-3403
"Ab Transportation, Inc.",6500 Vegas Dr Apt 2076,Las Vegas,NV,89108,702-480-6262
Ab&r Trucking,2735 Columbia Ct,N Las Vegas,NV,89030-4644,323-986-8165
Ab16 Trucking LLC,8746 Moreno Mountain Ave,Las Vegas,NV,89178,702-695-2194
Abay River Trucking LLC,219 Paul Ave,Las Vegas,NV,89106,702-635-6360
Abbeybash Auto Transport LLC,6369 Foxlyn Ave,Las Vegas,NV,89122,702-358-8240
Abbi Logistics LLC,5058 S Rainbow Blvd Unit 202,Las Vegas,NV,89118,702-937-5379
Abbilona Freight LLC,3459 Villa Knolls South Dr,Las Vegas,NV,89120,702-969-4064
Abc Reclamation,1995 Diaz Rd,Amargosa,NV,89020,775-345-3207
"Abc Towing, Inc.",3981 E Sunset Rd Suite E,Las Vegas,NV,89120,702-598-1630
Abc Trans LLC,5453 Green Horn St,Las Vegas,NV,89118,847-749-1027
Abc Trucking LLC,3300 S Jones Blvd Ste 101,Las Vegas,NV,89146,725-276-7061
Abderrahim Khelifa,2500 Chandler Ave Suite 14,Las Vegas,NV,89120,702-629-9636
Abe Froman Productions LLC,241 W Charleston Blvd Ste 111,Las Vegas,NV,89102,702-838-5333
Abebe Courier Delivery LLC,3417 Conterra Park Ave,N Las Vegas,NV,89081,702-444-4553
Abel Auto Transport LLC,7960 Rafael Rivera Way Unit 1160,Las Vegas,NV,89113,818-632-9650
Ac Trucking,3760 Leisure Ln,Las Vegas,NV,89103,702-696-0589
A & E Trucking,1050 E Cactus Ave Unit 2129,Las Vegas,NV,89183,702-788-4619
Abelis Logistics,4775 Topaz St Apt 249,Las Vegas,NV,89121,702-491-1268
Ab Transport,7527 Reindeer Court,Las Vegas,NV,89147,702-825-2577
"Abes Sewer Drain Service, Inc.",821 S Main Street,Las Vegas,NV,89101,702-385-5220
Abex Logistics LLC,5445 W Reno Ave Apt 2113,Las Vegas,NV,89118,222-888-8888
Abga Transports,3555 E Lake Mead Blvd Apt 130,Las Vegas,NV,89115,702-857-0134
Abi Logistics LLC,5743 Montezuma Creek St,N Las Vegas,NV,89031,909-224-9669
Abi Trucking LLC,5146 Gilleran Ave,Las Vegas,NV,89139,702-635-5158
Abian Trucking LLC,804 King Richard Ave Unit 8,Las Vegas,NV,89119,702-234-4558
Abinabis LLC,923 Menandes Ave,Las Vegas,NV,89123,N/A
Abinabis LLC,8418 Clear Ave,Las Vegas,NV,89147,702-979-8255
Abj Trucking Co,1727 Bluehaven Dr,Sparks,NV,89434,775-400-5034
"Able Transport Brokering, Inc.",1464 Carlson Dr,Gardenerville,NV,89410,775-265-9665
Able Transport LLC,711 South 10th Street,Las Vegas,NV,89101,702-651-1916
Abm Courier Logistics LLC,6703 Boom Town Dr,Las Vegas,NV,89122,702-419-7785
Abner Transportation LLC,5357 Chili Pepper St,Las Vegas,NV,89118,619-760-3383
Abone Carriers LLC,2255 E 9th St Unit Mo209,Reno,NV,89512,775-622-7448
Above And Beyond Logistics LLC,653 Pine Ridge Dr,Las Vegas,NV,89110,702-328-4977
"Above Beyond Transportation, Inc.",6255 West Arby Ave Unit 278,Las Vegas,NV,89118,702-824-2414
Abr Express LLC,3502 Anthony Dr,Las Vegas,NV,89121,702-704-2839
"Abraham Limo Service, Inc.",5410 Cameron Street Suite 105,Las Vegas,NV,89118,702-257-7797
Abraham Luna,6241 Boulder Rise St,Las Vegas,NV,89115,702-326-1235
Pulido Cargo,2705 Morning Break Ct,Las Vegas,NV,89142,323-523-6544
Abraham Trucking LLC,5050 Duneville St Apt 207,Las Vegas,NV,89118,702-690-7061
"Abrego Transport, Inc.",800 N Rainbow Blvd 208-182,Las Vegas,NV,89107,702-399-7114
Abreu Delivery LLC,4500 Mira Loma Dr Apt 357,Reno,NV,89502-5471,775-440-8933
Absolute Closets Cabinetry LLC,4325 W Patrick Lane Suite 100,Las Vegas,NV,89118,702-896-5450
Absolute Road Solutions LLC,280 Walmsley Ct,Dayton,NV,89403-6741,831-776-8819
Abt Logistics LLC,5391 Vista Del Canyon Cir,Las Vegas,NV,89149,702-300-0313
Abynabi LLC,5060 W Hacienda Ave Apt 2095,Las Vegas,NV,89118,702-912-8835
Ac Logistics LLC,4430 E Flamingo Rd,Las Vegas,NV,89121,702-886-9306
Ac Ricky Trucking LLC,304 S Jones Blvd # 609,Las Vegas,NV,89107,702-980-8679
Ac Squared Trucking LLC,924 Glamis Cir,N Las Vegas,NV,89032,702-510-7798
Ac Truckingg LLC,900 E Desert Inn Rd Ste 103b,Las Vegas,NV,89109,702-810-4886
Academy Truck Training LLC,1611 Ashfield Valley Ave,Las Vegas,NV,89123,780-807-2968
"Acc Trucking, Inc.",4648 Olguin Ln,Las Vegas,NV,89110,702-591-1056
Accesorios Ibanez LLC,1165 S Wells Ave,Reno,NV,89502,775-232-9661
Accurate Transportation & Logistic Services LLC,4841 Galveston Harbor Ct,Las Vegas,NV,89131-2783,702-274-4972
"Accurate Warehousing And Distribution, Inc.",4050 W Sunset Rd Suite E,Las Vegas,NV,89118,702-914-1919
Ace 17 Express LLC,321 Turtle Peak Ave,Las Vegas,NV,89148,702-622-3870
Ace American Transportation LLC,4761 Norfolk Ct,Las Vegas,NV,89147,702-421-4151
Ace Cargo LLC,3854 Valley Meadow Dr,Las Vegas,NV,89120,702-273-6625
Ace Entertainment LLC,7712 Alina Ave,Las Vegas,NV,89145,702-675-5919
"Ace Express, Inc.",1317 Walstone Rd,North Las Vegas,NV,89031,702-328-6318
"Ace Freightways, Inc.",4824 Powell Ave,Las Vegas,NV,89121-6803,702-960-4839
Ace Logistic Solutions LLC,8912 Spanish Ridge Ave Ste 200,Las Vegas,NV,89148,702-379-6093
"Ace Logistics, Inc.",6659 Tangled Vines Ave,Las Vegas,NV,89139,725-256-3888
Ace Of Roads,3507 N. Campbell Rd.,Las Vegas,NV,89129,702-353-6734
Ace Of Spades Enterprises LLC,7848 W Sahara Ave,Las Vegas,NV,89117,702-980-5663
Ace Transport LLC,356 Cadence Vista Dr,Henderson,NV,89011,702-756-5862
Ace Transportation LLC,9405 S Eastern Ave Apt 2078,Las Vegas,NV,89123,702-601-0230
Aceline Transport LLC,7738 Wolf Wood Ct,Las Vegas,NV,89179,702-239-2131
Aceloaded Trucking LLC,5850 Medallion Dr Unit 203,Las Vegas,NV,89122,310-213-9211
Acelogic LLC,5116 River Glen Dr Building 121 Apt 225,Las Vegas,NV,89103,702-728-0094
Aces Openroad LLC,5650 Wedgefield St,N Las Vegas,NV,89081,909-762-9346
Aces Trucking LLC,9788 Gilespie St Ste 409,Las Vegas,NV,89183,817-258-5044
Acevedo Trucking LLC,4000 Dutch Flat Rd Unit 15,Winnemucca,NV,89445,775-304-0235
Acg Logistics LLC,4430 E Flamingo Rd,Las Vegas,NV,89121,702-580-1892
Ache Trucking LLC,341 Bergin Dr,Las Vegas,NV,89110,786-412-4499
Acl Express LLC,4657 Ashington St,Las Vegas,NV,89147,702-481-8777
Acmc Transport LLC,9277 Ansley Ct,Las Vegas,NV,89148,702-767-5454
Acorn Transportation LLC,4255 Channel 10 Dr Apt 17,Las Vegas,NV,89119,702-899-1300
