Company Name,Street Address,Address Locality,Address Region,Postal Code,Telephone
Beltran Trucking,27 Country Road 103 Sp 113,Santa Fe,NM,87506,505-310-4896
Quintana & Sons Transport,5535 Triste Se,Deming,NM,88030,575-545-0139
Ac Trucking,300 Zuni Ln,Sunland Park,NM,88063,915-412-1786
Olivas Trucking,500 South Wheaton,Clovis,NM,88101,575-309-8336
Thomas Trucking,206 W Ave M,Lovington,NM,88260,575-399-3690
Socorro Granillo Trucking,821 Ross,Clovis,NM,88101,575-742-1386
Frank & Dorena's Transport & Recovery,29 Cr 5018,Bloomfield,NM,87413,505-632-6890
Av Transportation,213 Stephanie,Chaparral,NM,88081,915-241-3306
J E Trucking,2516 N Charlcia Blvd,Hobbs,NM,88240,575-492-1583
Capital Moving & Storage,2869 Trades West Road,Santa Fe,NM,87507,505-471-6189
All-around Transportation,State Hwy 602 Mile Maker 25,Gallup,NM,87305,505-728-1157
Nardco Trucking LLC,1816 Roble Dr Se,Rio Rancho,NM,87124,505-715-1010
Zubiate Trucking,1101 Rio Street,Clovis,NM,88101,505-610-0653
Midnight Express,3791 Schooner Loop,Las Cruces,NM,88001,575-496-6618
Rodriguez Trucking,500 A Bianes Street,Placitas,NM,87043,575-267-4670
Performance Livestock Trucking LLC,14 Gabaldon Access,Los Lunas,NM,87031,505-233-3348
Alamo Auto Recovery,911 Eddy Dr,Alamogordo,NM,88310,575-491-5130
A & D Trucking,915 Houston,Columbus,NM,88029,575-803-7093
Greene Tower Service,805 Old Mescalero Rd,Tularosa,NM,88352,575-491-5554
E & J Transports,Hc 77 Box 145,Laguna,NM,87026,505-507-1854
Rons Service & Hotshot,2 Rd 1633,Farmington,NM,87401,505-327-9048
Harless Trucking,248 E Orchard Park,Dexter,NM,88230,575-621-0079
Al Martinez Roustabout Service,806 Absher,Hobbs,NM,88240,575-390-3984
Eagle Express,1121 N Denson,Hobbs,NM,88240,575-441-4978
Willow Springs Manufacturing & Transportation,1309 E 10th Street,Raton,NM,87740,575-445-9234
4j's & R Trucking,1520 W Hadley Sp 60,Las Cruces,NM,88005,575-524-1090
D&m Transports,1307 Hawaii Ave,Alamogordo,NM,88310,575-491-4368
Espinoza Moving Service,6001 Flor De Rio Court Nw,Albuquerque,NM,87120,505-898-0955
P & J Logistics,174 Short St,Anthony,NM,88021,575-589-2671
Rodriguez Trucking,06 Jones Lane,Los Lunas,NM,87031,505-975-2047
Saga Transport,1416 W 5th,Clovis,NM,88101,806-300-9745
Rodeo Trucking,7 Freedom Way,Los Lunas,NM,87031,505-907-7506
"Industrial Electric Automation, Inc.",501 Kinley Avenue,Albuquerque,NM,87102,505-242-9913
Nitro Auto Transport,10600 Cibola Loop Northwest Apt 322,Albuquerque,NM,87114,505-453-5137
Wheel N Haul,14 Rd 6682,Fruitland,NM,87416,505-598-0608
Robert & Sons Trucking,1130 Wicker Road,Chaparral,NM,88081,575-649-1535
C & J Transport,208 El Paso St,Columbus,NM,88029,575-531-0076
Premier Zoltan Transportation,8744 Broadway,Albuquerque,NM,87105,505-615-1211
Bb Trucking,6480 Templeton,Dexter,NM,88230,575-910-1610
Ross Trucking,1 Twilight Trail,La Luz,NM,88337,575-434-6191
Tom Gunnels Transport,3017 N Prince,Clovis,NM,88101,575-762-6350
Jb Transport,3504 W Trevino Rd,Hobbs,NM,88240,575-390-5511
H & M Recycling Logistics,8125 W Bataan Memorial,Las Cruces,NM,88012,575-636-4593
Macias Trucking,1316 Gidding,Clovis,NM,88101,575-791-3745
Sierra Transport,9608 Desert Mesa Rd Sw,Albuquerque,NM,87121,505-831-7051
M & M Transport,8 Stephens,Buckhorn,NM,88025,575-535-4552
Garcia Transportation,830 E Rose Road,Hobbs,NM,88242,575-392-8570
Porter Trucking,412 Dawn Loop,Clovis,NM,88101,575-309-1400
H A C Trucking,218 Lura St,Sunland Park,NM,88063,915-383-3470
D & S Trucking,229 Cabresto Rd,Questa,NM,87556,575-586-0534
E S T,22200 Stern Dr,Anthony,NM,88021,575-882-2250
Rk Transportation,667 Cedardale Loop,Las Cruces,NM,88005,575-640-8494
W B Truck & Equipment,9 County Road 3542,Flora Vista,NM,87415,505-334-3064
Ortega Trucking,621 Grove Se Apt C,Albuquerqueq,NM,87108,505-268-8519
Bozzman Trucking,3120 Gidding,Clovis,NM,88101,575-714-2285
Mbc Choice Trucking,1033 Railroad Ave,Las Vegas,NM,87701,720-328-5474
Lovita Trucking,14 Redrock Ct,Anthony,NM,88021,575-640-9516
Mtc,620 Oak St,Clayton,NM,88415,575-374-5623
Gallagher Trucking,420 W 8th St,Clovis,NM,88101,575-218-3909
Simmons Well Service,1009 Ridgeway Pl Ste 200,Farmington,NM,87401,505-326-3753
Racing Chicken Express,414 Luna Azul,Chaparral,NM,88081,575-545-0275
L & S Septic Trucks,508 Sunnyview St,Carlsbad,NM,88220,575-706-5095
Mas Lechugas Trucking,381 Meadow Park Ct,Las Cruces,NM,88007,575-541-5631
Pgs Trucking,3100 Aztec Rd Ne #219a,Albuquerque,NM,87107,505-385-6434
East West Transport,11620 Candelaria Rd Ne,Albuquerque,NM,87112,505-934-5609
Nikkel Trucking,127 Anderson Rd,Sedan,NM,88436,575-374-2246
Jireh Trucking,#2callejon Las Animas,Glorieta,NM,87535,505-757-2263
S & M Trucking,1929 N Penasco,Hobbs,NM,88240,575-390-1139
Munoz Trucking,5525 Broadway Se,Albuquerque,NM,87105,505-873-0020
Advanced Safety LLC,4108 St Michaels Drive,Farmington,NM,87401,505-324-0575
V & V Transportation,150 Peppermint,Mesquite,NM,88048,575-233-5371
Esquivel Trucking,1307 Ave D,Eunice,NM,88231,575-937-6117
Cuate Oilfield Services,721 W Tyler,Lovington,NM,88260,575-396-6790
J Vazquez Trucking,1363 Rose Rd Dr,Clovis,NM,88101,806-584-2312
El Shaddi Auto Hauling,390 Mistletoe Ave,Bosque Farms,NM,87068,505-866-9435
Bush Transport,10827 Golinda,Albuquerque,NM,87121,505-261-4707
Rascon Trucking,116 N Beta St,Clovis,NM,88101,575-791-7030
C Arledge & Sons Trucking,112 N Florida,Columbus,NM,88029,575-494-3644
Lujan's Auto Transport,2136 Ferro Rd Sw,Albuquerque,NM,87105,505-319-1835
Davalos Trucking,1406 B Nm 88,Portales,NM,88130,575-309-5802
Jimenez Trucking,2008 Desert Breeze Dr Sw,Albuquerque,NM,87121,505-907-4448
Roadrunner Transport,4860 Jaromi Dr,Las Cruces,NM,88011,575-647-8680
Taba Trucking,516 Chama St Se,Albuquerque,NM,87108,505-730-5654
Triple D Trucking,110 Starlite Road Apt 213,Ruidoso,NM,88345,915-471-3801
Triple Check Enterprise,Hc 66 Box 604,Montainair,NM,87036,575-644-3578
Sosa Distributing,22 Private Drive,Tierra Amarilla,NM,87575,575-588-9360
Durange Trucking,8415 Highway 478 Trl,Vado,NM,88072,575-201-8289
Haynes Trucking,1747 Calle Redonda # 16,Espanola,NM,87532,505-367-0871
Four Way Express,218 Luna Drive,Sunland Park,NM,88063,575-589-0736
"Cherokee Logistics, Inc.",2500 Los Pinos Rd Sw,Albuquerque,NM,87105,505-873-6579
R Olivas Transportation,Hwy 518 Mm 34-5,Holman,NM,87723,575-387-2135
Cottrell Trucking,329 E Navajo,Hobbs,NM,88240,432-758-2403
Barragan And Sons Trucking,2385 Rockhound Rd Se,Deming,NM,88030,575-543-5650
L & W Transportation,115 Three Cross Drive,Roswell,NM,88201,575-622-1653
Score Trucking,3406 W Bender Blvd,Hobbs,NM,88240,575-441-8978
Patriot Transportation,101 West Laguna,Espanola,NM,87532,505-753-3532
Gonzalez Trucking,4524 Valley Garden Cir Sw,Albuquerque,NM,87105,505-235-8193
R Trucking Co LLC,951 Sims Ave,Alamogordo,NM,88310,575-621-3053
J And R Trucking LLC,1504 Zydeco Place,Artesia,NM,88210,575-840-7978
Barb Eric & Sons,16 Jade Ave,Moriarty,NM,87035,505-832-9128
Miller Transport,1920 S Prince,Clovis,NM,88101,575-779-0651
Ml Service,9005 Volcano Rd Nw 16-a,Albuquerque,NM,87121,505-702-5131
Elpidio's Trucking,1025 N Francis,Carlsbad,NM,88220,432-269-4691
3d Trucking,2300 W Apache St Trlr14,Farmington,NM,87401,505-608-0619
Jimenez Trucking,20 Chalk Bluff Rd,Artesia,NM,88210,575-746-3742
Js Trucking,#147 Cr 4800,Bloomfield,NM,87413,505-333-7066
Fifty Fifty Trucking,1528 S Ave A,Portales,NM,88130,575-749-3678
Fowler Transport,Hc 65 Box 259,Pie Town,NM,87827,760-420-9714
New Covenant Transport,2540 Isleta Blvd Sw,Albuquerque,NM,87105,559-285-4318
Four Corners Express,901 N Auburn #6,Farmington,NM,87401,505-801-4472
Milagro Trucking,2031 Metzgar Rd Sw,Albuquerque,NM,87105,505-873-3845
H 4 Trucking LLC,256 Wall Street,Folsom,NM,88419,575-278-3179
Get It Done Trucking,1809 N Grayson,Hobbs,NM,88240,432-758-2403
Leon Transport,7435 Bell Ave Se,Albuquerque,NM,87108,505-265-9520
Sky Trucking,14001 Pearl Valley Road,Monument,NM,88265,432-758-2403
Evco Trucking,1700 E Main Street,Farmington,NM,87401,505-330-9930
Double N & D Trucking,112 S Delta,Clovis,NM,88101,575-799-7071
M & H Trucking,306 N Cecil,Hobbs,NM,88240,602-696-1988
B & D Transport,03 Laurel Lane,Los Lunas,NM,87031,432-758-2403
Eq Trucking,529 Mill Pond Ct,Anthony,NM,88021,575-805-0892
D & M Trucking,408 W Midwest,Hobbs,NM,88240,575-605-1799
Bc Services,115 E Greenacres,Hobbs,NM,88240,575-397-1550
David's Trucking,1124 Georgia Se,Albuquerque,NM,87108,505-265-0965
Jv Trucking,801 E Broadway Spc 10,Farmington,NM,87401,505-330-0678
Jason Willey Trucking,6488 Quay Rd Ad,Tucumcari,NM,88401,888-300-4485
'r' Trucking,99 Road 350,Flora Vista,NM,87415,505-334-3701
Yonke Cadenas Transport,741 Third Street,Las Cruces,NM,88005,505-635-8050
A W Trucking,22 Toms Lane,La Luz,NM,88337,575-430-5296
R N S Trucking,9080 Tammy Lane,Las Cruces,NM,88012,575-373-9219
Dels Trucking,2201 E Dunn,Hobbs,NM,88240,505-397-6221
Hill Top Truck Lines,135 Devine Way,Chaparal,NM,88081,505-523-3999
Romero Trucking,905 N Edwards St,Clovis,NM,88101,505-749-2652
Colbus Trucking,9900 Trevino Nw,Albuquerque,NM,87114,505-792-4981
Loaeza Trucking,56412 Mcnutt Rd,Arrey,NM,87930,505-523-3999
Mc3 Trucking & Cattle,301 E Kincaid Ranch Rd,Artesia,NM,88210,575-513-4159
Triple J Trucking,401 W Blanco Dr,Hobbs,NM,88240,505-393-4023
Daniel Rosales Trucking,211 Spruce Dr,Sunland Park,NM,88063,915-345-8644
Duke Ceres Trucking,3922 Barcelona Rd Sw,Albuquerque,NM,87121,505-489-0195
Romero & Sons Trucking,3650 W View Ave,Las Cruces,NM,88005,505-524-8298
X Gomez Trucking,100 Buena Vista,Sunland Park,NM,88063,505-589-2107
Dominguez Trucking,1113 West Tyler,Lovington,NM,88260,575-396-9164
Alonso Trucking,185 S Tierra Vista,Anthony,NM,88021,505-589-4016
Navarrette Trucking,1802 Brazos,Hobbs,NM,88240,575-631-7819
Tnt Crane Service,2517 Cheyenne Dr,Las Cruces,NM,88011,505-523-3999
Botello Trucking,3309 Cactus Lane,Roswell,NM,88203,575-317-1547
C Miller Farms LLC,169 Camino Sabinal,Bosque,NM,87006,505-861-0846
Ls Trucking LLC,086a N Rr H1/2,Portales,NM,88130,575-749-4359
Tizoc Trucking,5975 Journey Court,Las Cruces,NM,88012,505-312-4162
Perez Trucking,R 246 N 13th St,Artesia,NM,88210,505-748-2781
Hrb Trucking,1212 Nm 480,Portales,NM,88130,575-478-2810
Washington Epd,5301 Sierra Vista,Carlsbad,NM,88221,575-234-5720
Roadrunner Transport,301 S Motel 15,Las Cruces,NM,88007,505-636-4133
Reyes Transport,10025 Benavides Rd Sw,Albuquerque,NM,87121,505-836-2094
Myers Trucking,620 Oak Street,Clayton,NM,88415,575-374-5623
Jara Trucking,504 1/2 Juarez Street,Deming,NM,88030,575-494-7017
Pepitos Trucking,1300 Vinton Rd,Anthony,NM,88021,915-892-3381
Greg Sanchez Trucking,13 Cushman Ct,Peralta,NM,87042,505-903-2653
Winfield Trucking LLC,6420 Redrock Drive,Farmington,NM,87402,505-599-8155
Blessing Trucking,413 W Midwest St,Hobbs,NM,88240,505-393-0085
Landmark Transportation,211 Rio Rojo,Sunland Park,NM,88063,915-850-1532
Midnight Flyer Express,10401 Central Ave Nw #123,Albuquerque,NM,87121,505-720-1771
Cochrell Trucking,21 Liska Lane,Tijeras,NM,87059,505-688-6587
Tiger Auto & Truck Center,2929 Coors Nw 310 I,Albuquerque,NM,87120,505-843-9387
Heredia Trucking,625 E Permian Dr,Hobbs,NM,88240,505-393-1334
Permian Express,55 Sand Road,Maljamar,NM,88264,575-631-2533
Pace Services,1206 E Murray Drive,Farmington,NM,87401,505-327-1958
Southwest Hot-shot Service,102 Meadow Circle,Bloomfield,NM,87413,505-632-5663
Norcon Trucking,2556 Pecos Hwy,Carlsbad,NM,88220,575-236-6444
Tarin Trucking,504 West Midwest,Hobbs,NM,88240,505-391-7821
"Muro's Transportation, Inc.",813 Liza Dr,Chaparral,NM,88081,505-312-2272
Fred's Hauling,10017 Constitution Ne,Albuquerque,NM,87112,505-250-0329
Pcg Transport,4620 Nogal Canyon Rd,Las Cruces,NM,88011,505-532-1279
Shyanne Moving & Storage,11015 Park North St Nw,Albuquerque,NM,87114,505-710-4411
White Wolf Trucking,504 Dorothy St Ne,Albuquerque,NM,87123,505-293-7819
Triple R Trucking,1 Hilda Rd,Mesquite,NM,88048,575-639-4016
Rg & Sons Trucking,123 Meadow Vista,Sunland Park,NM,88063,915-920-3225
Just One Trucking,3815 S Main Space 50,Mesilla Park,NM,88047,505-743-2068
Cave Enterprises,7101 Old Aztec Hwy,Farmington,NM,87402,505-325-3401
Tejano Trucking LLC,2607 Linda Lane Sw,Albuquerque,NM,87105,505-400-0168
Oehm's Hauling,401 Circle,Clovis,NM,88101,505-693-7345
H C S Trucking,1212 Browning Road,Lovington,NM,88260,575-441-7611
Hernandez Trucking,6 And 8 A Street,Roswell,NM,88203,505-347-2255
Morales Trucking,1006 Meadow Lane,Roswell,NM,88203,505-627-0727
West Side Trucking,211 Hurt Road,Radium Springs,NM,88054,505-635-8029
M & M Trucking,Rt 3 Box 193-14,Espanola,NM,87532,505-753-0618
Night Owl Trucking,4312 Roseberry,Albuquerque,NM,87105,505-877-4437
Guadalupe Olivas,6470 Mc Nutt Rd,Santa Teresa,NM,88008,575-201-2850
Ezz Transportation,101 Arizona St,Gallup,NM,87301,602-284-6941
A & A Trucking,605 Ave K,Eunice,NM,88231,505-394-9918
Premier Transportation,1308 E Arizona,Las Cruces,NM,88001,505-523-9393
Fahrion Trucking,712 Ford Street,Aztec,NM,87410,505-402-1173
Reyes Trucking,1405 Rolling Rock Pl Sw,Albuquerque,NM,87121,505-730-4846
Valle Trucking,855 Valle Vista Dr Apt 42,Sunland Park,NM,88063,818-270-7317
Mtdi,770 N 17th Street,Las Cruces,NM,88005,505-526-2446
Ordonez Trucking,1613 Wallace,Clovis,NM,88101,575-791-3938
R & I Transport,309 Altez St Ne,Albuquerque,NM,87123,505-620-0289
Enviro-tech,2610 N Hwy 522,Questa,NM,87556,575-586-0475
Sonny Trucking,735 Tapia Rd,Deming,NM,88030,505-494-7234
Platinum Transports,9205 Ashfall Pl Nw,Albuquerque,NM,87120,505-804-4376
R & M Lara S Trucking,7 Horizon Rd,Lovington,NM,88260,575-396-3643
Lonesome Trail Express,35 Rosebud Lane,Anthony,NM,88021,505-882-5045
Fast Fire Reload,6015 Las Alturas Dr,Las Cruces,NM,88011,575-522-2852
P & J Enterprises,Hcr 73 Box 39,San Jose,NM,87565,505-421-0045
Separ Emergency Road Service,4268 Separ Road Exit 42 1-10,Lordsburg,NM,88045,505-544-2098
Chalk's Trucking,708 N 3rd St,Ft Sumner,NM,88119,575-799-7256
Nunez Backhoe Service,37 West 380,Tatum,NM,88267,575-398-0060
D & D Transport,5721 Melody Ln,Las Cruces,NM,88012,575-642-5734
Joel & Sons Trucking,150 Peppermint Pl,Mesquite,NM,88048,575-635-8896
Travis Transport,1615 Pearl Loop,Bosque Farms,NM,87068,505-869-9367
T N Trucking,County Road 5509 # 27,Bloomfield,NM,87413,505-632-3594
Legacy Transportation,1923 Chapparal Circle,Clovis,NM,88101,575-791-8444
Earp Trucking,49 Rd 1636,Farmington,NM,87401,505-325-4962
Cvc Trucking,3101 Draxton Avenue Sw,Albuquerque,NM,87105,505-730-4777
Construction 101,724 Dalbey Dr,Las Vegas,NM,87701,719-217-0444
Tpc LLC,5412 Us-64,Farmington,NM,87401,505-325-3289
Reliable Source Transport,769 Alice Marie,Chaparral,NM,88021,575-824-4551
Palomino Trucking,18 Camino Soquete,Edgewood,NM,87015,505-715-2713
Amador Fast Auto Recyclers,4511 Miller Road,Los Lunas,NM,87031,505-866-8932
B & D Trucking,759 E Luna,Chaparral,NM,88081,915-203-3519
A & R Double Oo Trucking,7410 N Butler,Hobbs,NM,88240,505-441-6307
Rio Grande Truck Tire LLC,7679 Moore Circle,Las Cruces,NM,88012,575-640-9732
H Ruiz Trucking,4901 Northgate Rd,Las Cruces,NM,88012,575-621-9177
B And Dd Transport Services,1800 North Cambridge Ave,Roswell,NM,88201,575-973-0559
Santa Fe Chihuahua Express,4300 Cerrillos,Santa Fe,NM,87507,505-471-4959
Rocky Mt Hauling,1729 Tucson,Bloomfield,NM,87413,505-402-6505
Lopez Trucking,723 S Fowler,Hobbs,NM,88240,575-441-2078
M & H Trucking,35 Oak Street,Santa Fe,NM,87508,505-913-0286
Unique Vacuum Service LLC,810 W Polk,Lovington,NM,88260,505-396-0598
Fasttrack Auto Transport,7515 Vista Alegre St Nw,Albuquerque,NM,87120,505-999-9192
Thunder Transport LLC,291 Pumice Loop Ne,Rio Rancho,NM,87124,505-891-0453
Jb Delivery,3721 Roth Rd,Hobbs,NM,88240,505-492-9605
Taylor Trucking,14 Dale Douglas,Lordsburg,NM,88045,575-647-8680
Hard Luck Trucking,148 Nm 267,Portales,NM,88130,505-714-3602
Mcewen Freight Line,121 Beecher Road,Alamogordo,NM,88310,575-585-3575
J-ski Trucking,128 E Yucca,Clovis,NM,88101,575-762-9077
Zamarripa & Sons Trucking,51 Pinto Dr,Edgewood,NM,87015,505-832-5477
Two Men And A Truck Albuquerque East,3215 Matthew Ave Ne,Albuquerque,NM,87107,505-872-8787
H D Auto Wrecking,1556 Laville St,Alamogordo,NM,88310,575-439-6891
Casillas Trucking,3958 Montgomery Blvd Ne 71,Albuquerque,NM,87109,209-485-2219
Chris Brandt Trucking,01 Connelly Rd,Peralta,NM,87042,505-869-2913
T5 Trucking,1036 S Main,Las Cruces,NM,88005,575-649-6545
Cw's Backhoe Service,1118 14th Street,Eunice,NM,88231,575-394-0421
K & L Trucking,10505 Carol Place Ne,Albuquerque,NM,87112,505-271-5885
Henry's Hot Shot Service,10 West Ave B,Lovington,NM,88260,575-396-5833
De La Cruz Trucking Ii,603 W Morgan,Hagerman,NM,88232,575-752-0071
Tarango Trucking,1305 S Platinum Ave,Deming,NM,88030,575-544-2089
Lees Hot Shot Service,114 W Burgess,Hobbs,NM,88242,575-392-9254
Prm Trucking,13 Warner Road,Los Lunas,NM,87031,505-319-5077
Desert Edge Express,12240 Fort Cummings Rd,Las Cruces,NM,88007,575-541-7410
C & M Motorcycle Hauling,905 Rainbow Blvd Ne,Rio Rancho,NM,87124,505-850-8742
Grajeda's Trucking,1105 Rancho Rd,Roswell,NM,88203,575-317-1119
Ben-e Boyz Transportation,1522 Blake Rd Sw,Albuquerque,NM,87105,505-830-9255
Ajs Delivery,1510 S Madison,Roswell,NM,88203,575-420-5369
J & C Trucking,3801 Charles Reese,Clovis,NM,88101,575-693-6980
Saldana Trucking,25 E Orchard Prk Rd,Dexter,NM,88230,575-626-3416
Double O Transport,216 N Happy Valley Rd,Carlsbad,NM,88220,575-706-3451
R & L Trucking,7139 Wichita Rd,Dexter,NM,88230,575-420-9745
Aleman Transportation,1209 Wallace St,Clovis,NM,88101,575-760-2279
Joes Mowing Service,1922 N Gary Lane,Hobbs,NM,88240,505-393-6065
Hernandez Trucking,47713 Old Denver Hwy,Glorieta,NM,87535,505-577-3640
Bm Trucking Co,7044 Old Chisum Trail,Dexter,NM,88230,575-734-5357
S & J Auto Transport,1400 Fox Hill Dr Sw,Albuquerque,NM,87121,505-839-3884
J Rojas Trucking,118 Mimbres,Sunland Park,NM,88063,505-589-2289
Elijah Trucking,801 North 6th St,Artesia,NM,88210,505-815-9573
Jsj Transport,555 Old Laredo Road,Chaparral,NM,88081,505-824-5221
Ben Baeza Trucking,4511 Mimosa,Carlsbad,NM,88220,505-885-9889
Lilianas Trucking,19 Dama Rd,Los Lunas,NM,87031,505-250-3143
Klm Transport,456 Goddard Ct,Belen,NM,87002,505-681-1706
A J Trucking,505 Chaparral Drive,Chaparral,NM,88021,505-824-0706
Perez Trucking,5715 Alta Vista Sw,Albuquerque,NM,87105,505-831-0855
Big M Trucking,803 Sarah Arzola Rd,Anthony,NM,88021,505-882-4013
J & G Trucking,660 Vista Lejos Lane Sw,Albuquerque,NM,87121,505-263-4616
Pando's Trucking,1209 S Morris,Hobbs,NM,88240,505-397-4822
Fragoso Trucking,421 Tierra Dorada,Anthony,NM,88021,505-882-5188
Akita Ranch Trucking,841 Hwy 55 E Ste B,Estancia,NM,87016,505-850-6902
Ref Trucking LLC,5528 Arabian Drive Nw,Albuquerque,NM,87120,505-897-0244
Jack Begley Trucking,5190 Little Walnut Rd,Silver City,NM,88061,505-388-4015
Transportes Salcido,4302 Axtell St Se,Albuquerque,NM,87105,505-699-3997
Morales Trucking,304 Las Flores Circle,La Mesa,NM,88044,575-233-2554
D & V Trucking,304 Gilbert,Columbus,NM,88029,505-523-3999
Towering House Event Services,604 East Coal,Gallup,NM,87301,505-863-3157
Aranda Trucking,2100 E Blanco #81,Bloomfield,NM,87413,505-632-3627
Michael Justice Transportation,217 Moon Street Ne,Albuquerque,NM,87123,505-292-1146
Palms Trucking,1880 Mule Deer Trail,Anthony,NM,88021,575-882-5153
R&w Trucking,Sr 196 House 578,Amalia,NM,87512,505-586-0053
Shane Britt Trucking,82 West Orchard Park,Dexter,NM,88230,505-347-5080
Desert Express,1467 Jeannie Dr,Los Lunas,NM,87031,505-332-9221
Trujillo Transport,2713 Cagua Drive Ne,Albuquerque,NM,87110,505-830-0333
Vasquez Farms,7531 Grandi Road,Carlsbad,NM,88220,505-236-6440
Tanks Trucking,115 Pinon,Sunland Park,NM,88063,915-355-2187
King Trucking,393 Cr 3100,Aztec,NM,87410,505-258-8716
Carrizoza Trucking,3502 Eastern Ave Se,Albuquerque,NM,87106,505-256-0889
Gallup Moving & Storage,501 S Patton Drive,Gallup,NM,87301,505-863-3011
"Double J Transport, Inc.",404 Montezuma St,Las Vegas,NM,87701,505-429-3285
Rivera's Trucking,81 W Liman,Lovington,NM,88101,575-631-6679
Stocker Transport,918 8th St Sw,Alb,NM,87102,505-228-6752
Hellums Trucking,600 E Gallina Rd,Roswell,NM,88201,505-317-9705
Rg Express,1828 Neat Lane Sw,Albuquerque,NM,87105,505-270-7734
Dolen Transportation,501 N Atkinson,Roswell,NM,88201,575-317-6077
Hq Delivery And Set-up,13 Boardtree Canyon,Cloudcroft,NM,88317,505-687-3679
Hgf Transport,5885 Munoz Lane,Las Cruces,NM,88011,505-382-5689
Shortie's Transpo,10014 2nd St Nw #48,Albuquerque,NM,87114,505-898-1754
Sun City Transportation Services,2477 Mcnutt Road,Sunland Park,NM,88063,505-589-0928
Chairez Trucking,34 Tarin Rd,Vado,NM,88072,505-523-3999
Bobby Kennedy Trucking,9206 Reba Ave Sw,Albuquerque,NM,87121,505-833-4410
Cal-tex Auto Express,524 Ricegrass Dr,Chaparral,NM,88021,505-824-4563
Dominguez Trucking,219 E Lara Road,Chamberino,NM,88027,505-882-2334
E & D Trucking,7 Road 5287,Bloomfield,NM,87413,505-632-8225
R & R Trucking,401 1/2 N Kilgore,Portales,NM,88130,505-359-1977
Iron Horse Auto Transport,14 Quail Run Drive,Peralta,NM,87042,505-565-0701
Sunwest Trucking,1110 West 2nd St,Roswell,NM,88201,505-627-1600
Crown Express,25 Rose Street,Thoreau,NM,87323,505-862-7072
Maria Teresa Ramirez,100 Roble,Sunland Park,NM,88063,915-313-1271
Herrera Trucking,3618 Lisa Rd Sw,Albuquerque,NM,87121,505-974-4629
Desert Rose Transport,4796 Carter Rd,Las Cruces,NM,88011,505-373-0990
Griffitts Trucking,11 Cardinal Road,Artesia,NM,88210,505-748-3730
Cowboy Trucking,55 Felton Road,Mills,NM,87730,575-485-2459
A To B Trucking,21 Battersby,Alamogordo,NM,88310,575-434-9106
Roadrunner Dump Truck & Backhoe Svc,913 Nirth Love,Lovington,NM,88260,575-738-0461
Transportacion Sin Fronteras,2504 Rancho Siringo,Santa Fe,NM,87505,505-577-3672
Palomo's Trucking,1324 Quiet Desert Drive Sw,Albuquerque,NM,87121,505-489-8770
G & L Trucking,1069 Cr 5,Clovis,NM,88101,575-763-0995
Billy The Kid Trucking,12 Cr 6553,Kirktland,NM,87417,505-598-6655
T & C Transport,Satate Road 91 Lot 94,Socorro,NM,87801,505-838-4050
Bouvet Enterprises,415 Rio Viejo Rd,Garfield,NM,87936,505-267-4309
L & B Trucking,11041 Hwy 82,Maljamar,NM,88264,575-399-2906
"Bryans Oilfield Services, Inc.",2005 Ave O,Eunice,NM,88231,575-394-0608
White Rabbit Express,355 Valley View Rd,Animas,NM,88020,505-494-0752
Lucy's Gomez Trucking,102 Buena Vista,Sunland Park,NM,88063,915-820-9904
J & D Rojas Trucking,102 Buena Vista,Sunland Park,NM,88063,915-204-0681
Longhorn Express,421 Spring Canyon Rd,Hatch,NM,87937,505-267-4490
Dlr Express,1107 Montara,Los Lunas,NM,87031,505-220-4532
Je Transport,302 L Street,Carlsbad,NM,88220,505-234-9128
D&d Transport,6700 San Bernadino Ne,Albuquerque,NM,87199,505-410-9601
Thoreau Wrecker Service,124 Hiighway 371,Thoreau,NM,87323,505-862-7407
Southwest Custom Trucking & Recovery,2511-b South Coors,Albuquerque,NM,87121,505-843-9387
Bark Trucking,12 Tres Montes Rd,Espanola,NM,87532,505-470-1856
Fambrough Enterprises Express Trucking,49 Sun Valley Road,Tularosa,NM,88352,505-585-8198
Zamora Transportation,5310 Saddle Mountain Road,Las Cruces,NM,88012,505-523-3999
"Sanco Roustabout Service, Inc.",513 Tatum Hwy,Lovington,NM,88260,505-396-4314
Serratos Trucking,2705 Los Tretos Nw,Albuquerque,NM,87107,708-717-4335
River Stone Construction,33 Rd 5290,Farmington,NM,87401,505-632-9237
3stars Trucking,2201 Blake Rd Sw,Albuquerque,NM,87105,505-315-0123
Escarcega Trucking,870 Lincoln St,Anthony,NM,88021,915-487-6614
Rodriguez Trucking,4022 W Bender,Hobbs,NM,88240,505-390-4095
Ruiz Trucking,3090 Overhill Drive North West,Deming,NM,88030,575-405-9568
J & W Trucking,1324 Smith Road,Lovington,NM,88260,806-789-2533
William H Britt Trucking,103 Fairway Drive,Dexter,NM,88230,505-347-0085
Orozco Trucking,3216 E Stanolind Rd,Hobbs,NM,88240,505-393-4934
49 State Freight,608 Walnut,San Jon,NM,88434,505-576-0049
Aspen Commercial Service,1309 W Murray Dr,Farmington,NM,87401,505-326-4635
Jdh Transport,50 Aztec Road,Moriarty,NM,87035,505-832-6783
Rk Truck & Oilfield Mechanice Service,300 N Valley Blvd,Bloomfield,NM,87413,505-632-0644
Quick Time Delivery Solutions,Cr 2577 #23,Aztec,NM,87410,505-334-9195
J Ramos Trucking,538 San Andreas Dr,Anthony,NM,88021,505-882-1130
"Herberts Welding, Inc.",6747 East Hwy 64,Bloomfield,NM,87413,505-632-2786
White Stallion Transport,2410 South Espina #2,Las Cruces,NM,88001,505-649-8202
Baeza Trucking,2951 Fountain Ave,Las Cruces,NM,88007,575-647-4237
Fenceline Transportation LLC,40 El Refugio,Tijeras,NM,87059,505-281-3157
Dollahon Trucking,1962 Cherokee Rd Nw,Albuquerque,NM,87107,505-238-1599
Ben's Trucking,114 N 3rd,Loving,NM,88256,505-745-3571
Ww Trucking,400 Sandstone,Farmington,NM,87401,505-324-1089
Eastman's Hotshot Haulin',935 Lomax Ave,Bosque Farms,NM,87068,505-869-6086
Bell Crane Service,850 County Road 5,Clovis,NM,88101,575-683-5272
Cortez Trucking,2403 Los Alamos,Carlsbad,NM,88220,505-234-1424
Lays Roustabout Service,7615 Plainfield,Hobbs,NM,88242,505-631-1234
Gurule Trucking,209 Rd 4800,Bloomfield,NM,87413,505-632-3556
"Nicholas Trucking, Inc.",# 08 Tijeras,Belen,NM,87002,505-864-6317
B&r Trucking,296 Leavitt Rd,Clayton,NM,88415,505-374-2599
Ba3 Trucking,675 Florencio,Salem,NM,87941,575-523-3999
Wilson & Son Transportation Services LLC,5 Arapaho Road,Vado,NM,88072,505-233-4108
Golden Ridge Transportation,3280 South 8th Street,Deming,NM,88031,575-546-9240
Pg Transport,21 Calle Del Rio,Los Lunas,NM,87031,505-864-2974
Perfecto Trucking LLC,416 Trujillo Lane,Taos,NM,87571,505-660-9659
Heredia Trucking,106 Yucca,Sunland Park,NM,88063,915-820-1673
Afredo's Trucking,327 W Alto Dr,Hobbs,NM,88240,575-942-2330
National Cart Service,694 Windsong Lane,Corrales,NM,87048,505-269-0673
Acuna Trucking,415 West 4th,Clovis,NM,88101,505-799-3932
Mike Sciolis Auto Center,121 N Prince,Clovis,NM,88101,505-742-2949
Holl-mor Hotshot Services,1439 Anna Street,Farmington,NM,87401,505-632-7996
Gecko Transport,1001 South Alamo,Las Cruces,NM,88007,575-382-8949
Olivas Trucking,427 E Bowman Unit B,Laas Cruces,NM,88001,505-541-0022
Charlie's Trucking,8335 Grouse Run Dr,Las Cruces,NM,88012,575-635-7526
Ray J's Service,1100 S Shipp Dr,Hobbs,NM,88240,505-393-4241
Ran Trucking,308 Mulberry,Virden,NM,88045,505-358-2195
Ochoa Trucking,1113 West Gore,Lovington,NM,88260,505-396-2183
Butterfield Express,2312 Skyway,Las Cruces,NM,88001,505-523-3999
J & M Transportation,3551 Snow Rd,Las Cruces,NM,88005,575-640-7715
Lucky Star Trucking,2905 Cabral Trail Sw,Albuquerque,NM,87121,505-256-9661
Amador Trucking,339 Tee Pan,Roswell,NM,88201,505-347-2426
Cliff Fire Service,33 Bennett Road,Cliff,NM,88028,505-535-2854
Pc Trucking,2419 Calle Bonita,Las Vegas,NM,87701,505-454-1990
Saenz Trucking,243 Elm St,Hatch,NM,87937,505-267-4675
Harts Super Beverages Trucking LLC,660 West San Mateo Rd,Santa Fe,NM,87505,505-983-4612
Merritt Ranch,Hwy 247 Mm 40 55 South,Yeso,NM,88136,575-849-1423
S & M Trucking,542 New York Dr,Portales,NM,88130,505-478-2807
Dos Potrillos,817 Christopher Dr,Chaparral,NM,88081,915-253-4648
Reza Produce,18 Pheasant Rd,Artesia,NM,88210,505-748-8709
Regional Medical Supply,700 Fairgrounds Street,Alamogordo,NM,88310,505-437-0202
Hm Trucking,409 E Maple Ave,Bloomfield,NM,87413,505-632-9855
Rocker Three Trucking,1001 W Devargas St,Hobbs,NM,88240,575-492-9253
Arras Trucking,402 N Ohio,Columbus,NM,88029,575-531-2213
Hernandez & Sons Trucking,Hwy 110 Put Rd 1686 #25a,El Rito,NM,87530,505-581-4564
Free Spirit Trucking,1032 Collier,Raton,NM,87740,405-283-0521
Balderrama Trucking,7939 Moore Circle,Las Cruces,NM,88012,575-373-1677
J & J Trucking,121 Hannah Court,Mesquite,NM,88048,575-233-0249
Deadwood Transportation,3440 Hwy 60,Quemado,NM,87829,505-773-4210
Morales & Sons Transportation,1728 Calle Feliz,Las Cruces,NM,88001,505-312-0115
Charles Fine Trucking,1603 Jewel,Carlsbad,NM,88220,505-885-5961
Ig Trucking,647 Edna Dr,Chaparral,NM,88081,915-346-4528
Mico Services LLC,18 West Central Suite 6,Lovington,NM,88260,505-399-5551
Garcias Trucking,301 S Motel Rm 144,Las Cruces,NM,88007,575-312-2586
Giron Trucking,2700 S Lime,Deming,NM,88030,505-546-8834
A & B Services,4025 Stirrup Road,Deming,NM,88030,575-546-3975
G & P Trucking,1404 Cottonwood,Lovington,NM,88260,505-396-6897
Bravo Trucking,914 New Orleans,Columbus,NM,88029,505-523-3999
Wilson Trucking,311 Hondo Drive,Roswell,NM,88201,575-622-8180
Longhorn Transportation,1612 Hwy 478,Anthony,NM,88021,915-355-6780
Gonzalez Transportation Services - Gts,1216 Fuego Drive,Anthony,NM,88021,915-204-7168
Mccarty Trucking,918 W Cypress,Bloomfield,NM,87413,505-330-3157
Villanueva Transport,3423 S Union,Roswell,NM,88203,505-623-0964
G Amezola Trucking,200 Newell,Roswell,NM,88203,505-622-7547
Hall Trucking,2006 Connie Rd,Carlsbad,NM,88220,575-302-3741
Archuleta Trucking,6300 Bunker Court,Farmington,NM,87401,505-327-1206
Big Valley Auto,1115 N Chicago,Portales,NM,88130,505-356-8581
Jesse's Trucking,1690 Tucson Ave,Las Cruces,NM,88012,575-571-3576
Mm Trucking,2119 Rocca Secca,Las Cruces,NM,88012,505-373-1829
B N L Trucking,2000 Springfield,Farmington,NM,87412,505-325-5872
Circle H Trucking,1306 Dogwood,Lovington,NM,88260,505-370-1343
Burrola Trucking,1507 S Cochran,Hobbs,NM,88240,505-397-6226
Night Rider Express,422 63rd Street Northwest,Albuquerque,NM,87105,505-836-7058
Guiterrez Trucking,705 Villa Verde Drive,Rio Rancho,NM,87124,505-896-2269
"Jc Trucking, Inc.",3 Herrera Rd,Questa,NM,87556,505-586-1589
Rdc Baeza Trucking,193 W Kincaid Rd,Artesia,NM,88210,505-677-2111
Bj Pilot Car Service,3001 Crestridge Drive,Farmington,NM,87401,505-599-9194
Overland Air Express,4620 Pan American Hwy Ne G-2,Albuquerque,NM,87109,505-259-7110
Mercer Transportation,515 Taos Avenue,Farmington,NM,87401,505-326-0632
C M Acosta Trucking,1700 Hamiel,Las Cruces,NM,88001,505-521-0973
R H Auto Transport,700 Montana Vista,Anthony,NM,88021,915-820-5934
"New Mexico Express, Inc.",8112 Edith Ne,Albuquerque,NM,87113,505-975-5473
Steve's Mobile Home Service,17 Baca Grande,Los Lunas,NM,87031,505-565-2030
C & M Transport,6313 State Rd Hwy 47,Albuquerque,NM,87119,505-452-8949
Slow -poke 2 Trucking,1360 Kiowa,Las Cruces,NM,88001,505-523-5470
Markham & Sons Trucking,Cr 5569 #212,Blanco,NM,87412,505-632-3825
Ronquillo Trucking,6014 Tana Hill Drive,Dona Ana,NM,88032,505-647-1380
Corado Trucking,213 Jung Sun Ln,Chaparral,NM,88081,575-824-0707
Vaquera Trucking,100 Buena Vista,Sunland Park,NM,88063,915-886-3099
J&a Flores Trucking,1924 Regency Park Se,Rio Rancho,NM,87124,505-891-3142
Pro-active Auto Transport,1305 E Amador,Las Cruces,NM,88001,505-527-1069
Dreamers Transport,123 Ironwood,Carlsbad,NM,88220,505-647-1380
Casias Trucking,410 Chino,Gallup,NM,87305,505-722-4761
"Desert Mobile Home Transportation, Inc.",5993 Las Alturas,Las Cruces,NM,88011,915-775-1111
Cobra Trucking,116 1st Street,Sunland Park,NM,88063,505-589-4221
Rusty Roberts Trucking,732 Sr 467,Clovis,NM,88101,505-683-5482
"Triple M Hot Shot Services, Inc.",7 County Rd 6351,Kirtland,NM,87417,505-634-0068
J & S Auto Sales,1211 S Main,Lovington,NM,88260,505-396-3168
Daniel's Transport,10800 Edith Blvd Ne,Albuquerque,NM,87113,505-898-3234
Sonny's Backhoe Service,1111 Sheriff,Clovis,NM,88101,505-769-0529
Rio Bravo Services,1405 16th Street,Eunice,NM,88231,505-394-3041
Almanza Trucking,185 S Tierra Vista,La Union,NM,88008,915-877-1646
D A B Trucking,16980 U S 550,Aztec,NM,87410,505-334-5819
Lrn Trucking,78 Entrada Aragon,Los Lunas,NM,87031,505-865-4950
Wcs Trucking,1501 Eclipse Road,Las Cruces,NM,88012,505-382-0376
Avila Trucking,8511 Cliffhanger Rd,Las Curces,NM,88012,505-523-3999
Ruben Diaz Trucking,P O Box 134,Mesquite,NM,88048,505-621-5573
E&atrucking,121 E Jackson,Artesia,NM,88210,505-365-4048
Lazy Sob Ranch,3367 Estrada Rd,Mesilla,NM,88046,505-525-8663
Rayos Trucking,2908 Opitz Road,Anthony,NM,88021,915-497-1697
H F D Trucking,1400 Mc Nutt Rd,Sunland Park,NM,88063,505-589-0078
L K J Transport,P O Box 1236,Gallup,NM,87305,505-259-1322
3 T Trucking,South Chavez Loop #16d,Prewitt,NM,87045,505-862-7656
Tena Trucking,330 Alamo Seco #1,Anthony,NM,88021,915-856-0968
Isi Livestock,2 Llanito Rd,Bernalillo,NM,87004,505-867-4907
Trail Transport,7914 Guadalupe Trail,Albuquerque,NM,87114,505-897-3376
Mikala's Trucking,208 W 5th,Portales,NM,88130,505-359-3037
Henson Transport,310 N York,Hagerman,NM,88232,505-752-3227
Ray Garcia Trucking,700 E Las Cruces Ave,Las Cruces,NM,88001,505-526-7154
M A Chairez Trucking,112 Salt Bush Dr,Berino,NM,88024,505-647-1380
United Hot Shot Service,22 Cr 3004,Aztec,NM,87410,505-320-0222
Td Transportation,1429 Hwy 170,La Plata,NM,87418,505-325-1019
Nite Owl Vehicle Escort Service,4515 Codorniz Street,Las Chuces,NM,88005,505-523-1411
F & F Cattle,1270 Sr 108,Texico,NM,88135,505-389-3114
Crk Transport,117 Valley Drive,Espanola,NM,87537,505-927-0428
"H & S Sunshine Trucking, Inc.",12400 Smokey Rd,Mesquite,NM,88048,505-233-4244
Leonard's Trucking,1084 Don Felipe Rd,Belen,NM,87002,505-864-9150
Escobedo's Trucking,215 57th Street Nw,Albuquerque,NM,87105,505-804-6366
I-haul Express,128 N Eagle Drive,Ruidoso,NM,88345,505-430-7721
J L H Trucking,83 Cr 2635,Aztec,NM,87410,505-334-0848
Alvaros Trucking,3 Suspiro Ct Box 3,Mesquite,NM,88048,505-647-1380
Hedges Trucking,05 Ramon Rd,Tajique,NM,87057,505-384-4212
Serna's Trucking,4176 Broadview Rd,Las Cruces,NM,88005,575-524-2529
Walker Trucking,17 Meadowlake Rd #13,Los Lunas,NM,87031,000-292-7728
"Ab &d Trucking, Inc.",414 Calle Valdez,Espanola,NM,87532,505-753-4018
J & J Trucking,Star Route Box 165,Mesquite,NM,88048,505-233-0558
Olivas Trucking,112 E Fairground Rd,Artesia,NM,88210,505-748-4932
Ponder Trucking,114 W Mesquite,Lovington,NM,88260,505-396-2996
A & M Trucking,1040 Rivera Rd Se,Deming,NM,88030,505-544-7109
In & Out Hot Shot Service,1206 E Walker,Hobbs,NM,88240,505-393-1400
Cdg Courier And Transportation,1001 South Tennyson Drive,Deming,NM,88030,505-544-0105
Outlaw Auto Transport,County Rd 6351 #12,Kirtland,NM,87417,505-598-1527
Midwest Haulers,1380 Rio Ranch Dr #251,Rio Rancho,NM,87124,909-805-5770
Carrillo Trucking,9 Chamisa Lane,Pecos,NM,87552,505-757-8960
North Valley Trucking Co,10640 N Valley Dr,Las Cruces,NM,88007,505-523-6566
J & D Cattle Trucking,950 Curry Rd G,Clovis,NM,84101,505-763-0977
Wilsons Pecos Valley Tires LLC,3608 National Parks Hwy,Carlsbad,NM,88220,505-885-2310
Collins Trucking,620 2nd Street,Melrose,NM,88124,505-253-4754
Romero Trucking,Hc 62 Box 42,Raton,NM,87740,505-565-2528
Chaffin's Feed & Trucking,1700 Juniper,Milan,NM,87021,505-285-6608
Rodriguez Auto Transport,631 King Edward,Las Cruces,NM,88005,303-564-5293
Otero Transport,1701 10th St Ste B 5,Alamogordo,NM,88310,505-434-6220
S & R Trucking,5000 Daybreak Dr,Farmington,NM,87401,505-325-2699
R K Trucking,646 S Roosevelt Rd Q 1/2,Portales,NM,88130,575-693-6681
Roadmaster Trucking Co LLC,5765 Hwy 64,Farmington,NM,87401,505-632-2925
Ams Trucking,1885 Applewood Ln ,Los Lunas,NM,87031,505-236-6655
Angel's Transport,P O Box 1855,Sunland Park,NM,88063,505-589-2717
Ed Luksich Trucking,2206 Hwy 21,Miami,NM,87729,505-483-5528
D & B Transport,8 Catalano Ct,Los Lunas,NM,87031,505-907-3482
Deherrera & Sons Trucking,10 Herrera Lane,Rowe,NM,87562,505-757-2396
Natividad & Sons Trucking,215 Southern Blvd Se,Albuquerque,NM,87102,505-243-7582
Cerino Trucking,58 Ray Place,Roswell,NM,88201,505-347-9930
S L Trucks,70 Monica Rd,Los Lunas,NM,87031,602-738-5421
D & C Trucking,11 Road 2350,Aztec,NM,87410,505-334-5350
Ponce De Leon Trucking,416 High Se,Albuqerque,NM,87102,505-247-2913
Payan's Trucking,3875 North Fork Arc,Las Cruces,NM,88012,575-373-1189
Mobile Home Transport,625 S Vinton Rd,Anthony,NM,88021,505-882-0011
D & S Trucking,2001 Summit Drive,Farmington,NM,87401,505-327-7007
Mac's Trucking,435 Palomino St,Hagerman,NM,88232,505-626-7210
Scoshan Transportation,13421 Canyonview Pl Ne,Albuquerque,NM,87123,503-298-2668
Quality Oil Field Services,4200 Monroe Rd,Farmington,NM,87401,505-325-8101
Kenneth Hughes,1711 20th Street,Eunice,NM,88231,505-390-6355
Martinez Transport,850 Holly Dr Sp# 42b,Las Cruces,NM,88005,575-525-8401
Cuco's Trucking,120 Swannack Rd,Vado,NM,88072,575-233-3121
Simon's Hauling And Dump Service,2812 Johnson Street,Las Cruces,NM,88005,505-541-8545
Tri Star Fright System,1214 Livesay,Anthony,NM,88021,505-882-4778
"Ga Hauling, Inc.",2155 Rosedale,Las Cruces,NM,88005,505-642-2776
Trinity Transport Services,6116 Grandi Rd,Carlsbad,NM,88220,505-236-6029
Orquiz Trucking,210 N Paris,Artesia,NM,88210,505-748-2420
W T Trucking,704 Parker Rd,Las Cruces,NM,88005,505-649-6218
Manny's Transport,295 Valle Vista,Sunland,NM,88063,505-874-1119
Ez Moving & Storage,402 S Canyon Street,Carlsbad,NM,88220,575-887-3334
Nationwide Freight,347 Turkey Creek Road,Gila,NM,88038,520-591-6345
Zuniga's Trucking,106 Antone Rd,Sunland Park,NM,88063,505-874-9454
Anchondo Transport,1003 W Lea,Hobbs,NM,88240,505-397-5044
Medina Trucking,103-2 Mcclain Rd,Chaparral,NM,88081,505-824-0468
Ron Bell Trucking,4108 Los Tomases N W,Albuquerque,NM,87107,505-780-4069
L M Trucking,607 W Mathews,Roswell,NM,88203,505-420-8693
Bulldog Mud Haulers,2401 N Freeman,Artesia,NM,88210,505-365-6093
North Division Transport,4509 Rincon Nw,Albuquerque,NM,87105,505-410-7191
Allogistics,1120 Will Rogers Drive,Santa Rosa,NM,88435,505-632-0790
C & R Oilfield Service LLC,2410 E Greene St,Carlsbad,NM,88220,575-885-6504
Alamo Shuttle Service LLC,1021 South White Sands Ste A,Alamogordo,NM,88310,575-437-1472
Cisneros Trucking,505 Autumn Fire,Hatch,NM,87937,505-267-3409
J & C Garcia Trucking,7724 Aquamarine Place,Las Cruces,NM,88012,505-373-2376
"L K Trucking, Inc.",4828 Georgia Sw,Los Lunas,NM,87031,505-865-5931
Marquez Trucking,1617 Bosc Ct,Clovis,NM,88101,575-693-1671
Mp & A Trucking,#13 Road 4781,Bloomfield,NM,87413,505-860-2135
Hernandez Auto Sales,Po Box 1733,Sunland Park,NM,88063,915-328-6667
Eagle Trucking,131 Winston Dr,Los Lunas,NM,87031,505-559-4275
Travis Transfer LLC,528 Turner Ne,Albuquerque,NM,87123,505-299-7359
E L K Trucking,Cedar Street Lot 32,Reserve,NM,87830,505-533-6297
Product Delivery Systems,316 Bell Street,Nara Visa,NM,88430,505-783-4206
C E Carrillo Trucking,11 Chamisa Lane,Pecos,NM,87552,505-757-2787
J & R Trucking,219 E Rose St,Portales,NM,88130,505-749-2880
Jls Hauling,713 W Spruce #180,Deming,NM,88030,505-312-3306
F L Acker Transport,50 Aztec Road,Moriarty,NM,87035,505-832-6783
Big West Leasing,505 Menaul Nw,Albuquerque,NM,87107,505-345-6366
A J Transports,200 South First Street,Jal,NM,88252,505-395-2572
Lobas Trucking,516 West 4th,Clovis,NM,88101,505-763-1412
Trusty Trucking,445 Lisa,Chaparral,NM,88081,575-824-4907
J & A Transport,832 Mesilla,Chaparral,NM,88021,916-433-5638
"Independent Transit, Inc.",3995 Desert Broom Court,Las Cruces,NM,88011,575-312-3841
Rpc Trucking,837-a Cr M,Clovis,NM,88101,575-791-5382
Myers Distributing Co,1800 W Millen,Hobbs,NM,88242,505-392-8620
H & M Transportation,1801 East 3rd Ave,Truth Or Consequences,NM,87901,575-894-3868
S & S Trucking,7700 Sandlewood Dr Nw,Albuquerque,NM,87120,505-319-3974
Pbj&r Trucking,# 10 Cr 3147,Aztec,NM,87410,505-334-5495
D C Trucking,400 N Light Plant Rd Sp #50,Aztec,NM,87410,505-334-8641
Cottonwood Creek Trucking,4218 N Grimes,Hobbs,NM,88240,505-492-0049
"American Transport, Inc.",22 Road 3074,Aztec,NM,87410,505-326-3396
Owensby Ranch Trucking LLC,348 Milliken Road,Folsom,NM,88419,575-278-2732
Mayberry Trucking,144 Poor Farm Road,Thoreau,NM,87323,505-862-7283
Three Fingers Hauling,2813 Duckworth Ave,Clovis,NM,88101,505-760-5016
M & M Truckin',820 N State Line Rd,Texico,NM,88135,505-219-9022
Estrada Trucking,6800 Huseman Pl Sw,Albuquerque,NM,87105,505-480-3644
J N J Transport,17 Calle Del Rio,Los Lunas,NM,87031,505-864-0540
D & S Transport,2011 Tower Dr,Carlsbad,NM,88220,505-885-6253
Cs Pacheco Trucking,6389 Sunrise Lane,Tucumcari,NM,88401,505-461-1291
Stallion Transportation,2002 San Juan Ave,Las Cruces,NM,88001,505-525-3397
Jiron Transit,House 87,Cerro,NM,87519,505-586-1371
Rojas Trucking,Box 658,Columbus,NM,88029,505-647-1380
Gary's Hot Shot Services,24 Audra Court,Belen,NM,87002,505-864-1982
Earl Trucking,1245 W Cochiti,Hobbs,NM,88240,505-392-8968
Herrera Trucking,516 West Lea,Hobbs,NM,88240,505-631-3547
O J Trucking,712 E Wood,Carlsbad,NM,88220,505-885-6534
"On The Road Again Trucking, Inc.",Nmsr 68 Cnty Rd 48 #23,Alcalde,NM,87511,505-852-4462
A And A Estrada's Trucking,12 W Wells,Roswell,NM,88203,505-347-5251
Moncada Trucking,4722 Campbell Rd,Las Cruces,NM,88007,505-993-3195
S & K Waste & Recycle,5730 Hanger Lake Road,Las Cruces,NM,88012,505-639-1232
Osborn Trucking,Rt 2 Box 48 Co,Lovington,NM,88260,505-396-2950
Valdez Trucking,832 E Eight St,Willard,NM,87063,505-463-7969
C & L Trucking,230 Palomino Road,Vado,NM,88072,505-647-1380
Bouvet Express,2475 Loma Prada Rd,Garfield,NM,87936,505-523-3999
Finney Mobile Home Service,11111 Skyline Rd Ne,Albuquerque,NM,87123,N/A
Yamel Trucking,2224 Saxton Court Nw,Albuquerque,NM,87104,505-352-6946
Armando's Trucking,339 Jingle Bob Road,Roswell,NM,88203,575-347-4624
Stringfield Trucking,12 Griffin Road,Alamogordo,NM,88310,575-430-7804
J & G Trucking,6350 Vuelta Real,Santa Fe,NM,87507,505-577-4440
J C S Livestock,508 W Hwy 55,Estancia,NM,87016,505-384-1050
Johnson Equipment & Trucking Services,12 Miles East Of Corona,Corona,NM,88318,505-849-8141
J C Tarwater Transport & Sons,507 Bobbie Ln,Chaparral,NM,88081,661-717-9643
Trujillo & Sons Trucking,Cr155 House 149a,Abiquiu,NM,87501,505-685-4181
3pl F Trucking,2709 Salida Del Sol Sw,Albuquerque,NM,87105,505-452-0288
On Demand Transport,6890 Fox Road,Las Cruces,NM,88012,505-650-3747
Jimmy West Trucking,2810 S Rr 17,Elida,NM,88116,505-274-6489
A & A Wrecker Service,Hcr 69 Box 140 Airport Road,Santa Rosa,NM,88435,505-472-5207
Lafont Trucking,1230 Molina Road,Belen,NM,87002,505-864-8280
Jeffrey D's Trucking,710 6th,Melrose,NM,88124,505-253-4532
Olmos Trucking,812 W Plaza Dr,Clovis,NM,88101,505-763-0405
"American Transfer Services, Inc.",1925 Bellamah,Albuquerque,NM,87104,505-345-9992
Loya's Trucking,1907 Lakeview Sw,Albuquerque,NM,87105,505-452-0912
Bold Eagle Express,121 Wyatt Drive #6,Las Cruces,NM,88005,505-647-1380
Perea And Son Trucking,4620 Sunshine Pl,Albuquerque,NM,87105,505-877-7865
Vigil Trucking,6509 Dungan St Ne,Albuquerque,NM,87109,505-821-4572
Maria L Munoz Trucking,211 Colorado,Sunland Park,NM,88063,N/A
Jb & S Transport,115 Calle Sol Se Mete Nw,Albuquerque,NM,87120,505-839-9384
Schwabs Enterprises,908 A Date Street,T Or C,NM,87901,505-894-6382
Fred's Transportation,5011 Edith Blvd Ne,Albuquerque,NM,87107,505-362-8778
"Holguin Trucking, Inc.",1202 W Jackson,Lovington,NM,88260,505-396-0506
Los Alamos Transit Mix Co,3075 E Jemez Road,Los Alamos,NM,87544,505-753-2176
Billy Betts Trucking,916 Rex,Carlsbad,NM,88220,575-234-1534
"Rusty Spike, Inc.",207 East Hobson Road,Roswell,NM,88203,505-626-7277
Ross Hyden Auto Superstore,1044 N Canal,Carlsbad,NM,88220,575-887-5555
Circle J Truck Tires,4300 Rankin Ln Ne,Albuquerque,NM,87107,505-345-7242
Double Dog Water,2100 Joy Lynn Street,Bloomfield,NM,87413,505-632-3606
Wolf Trucking,3114 Truman Ne,Albuquerque,NM,87110,505-883-0211
Thomas & Sons,104 Gray Hawk Rd,Estancia,NM,87116,505-705-2647
Daron Roach Trucking,2005 Weeden,Clovis,NM,88101,505-763-9718
Cliff's Auto Transport,1617 Cedar Ridge Ne,Albuquerque,NM,87112,505-332-9733
C & L Transport,4 Pascua Road,Los Lunas,NM,87031,505-565-2507
Tl Transport,801 Two County Road,Garfield,NM,87936,505-267-4054
Cfl Trucking,720 Terracotta Place Sw,Albuquerque,NM,87121,505-977-5922
Sandy's Clayton Wrecker Service,1408 South 1st Street Rear,Clayton,NM,88415,505-374-8434
Jd Ray Transport,02 Booth Walker Ct,Los Lunas,NM,87031,505-565-0201
Ga Trucking,1913 Hinkle Se,Albuquerque,NM,87102,505-228-5246
Baier Essentials Transportation,County Road 5457 #32,Farmington,NM,87401,970-564-0172
Malouff Trucking,Coty Road 280 #307,Canjilon,NM,87515,719-588-2506
Double D Trucking,1314 Brittnay,Hobbs,NM,88240,505-392-7370
Michael Malouff Trucking,110 A Garcia Rd,Costilla,NM,87524,505-586-0117
Burkart Trucking,1015 East Amazon,Portales,NM,88130,505-356-4859
Riley Trucking,314 South Main,Aztec,NM,87410,505-334-0779
"L & R Anchor Service, Inc.",3204 Southside River Rd,Farmington,NM,87401,505-325-1922
Franklin Trucking,3201 Alhambra,Roswell,NM,88201,505-623-0074
Cherry Services,6514 N Dona Ana Rd,Las Cruces,NM,88005,505-524-4021
Alexander Trucking,1201 Tatum Hwy,Lovington,NM,88260,505-396-4841
T S C Trucking,2481 Clearview Dr,Las Cruces,NM,88011,505-647-1380
Lin-ash Transportation,112 Lisa Box 27,Chaparral,NM,88021,800-808-0798
Black Mesa Transport,451 Meadow Lake Road,Los Lunas,NM,87031,505-866-7837
Good's Feed & Supply,701 Clark Street,Elida,NM,88116,505-274-6270
Joe James Trucking Co,Box 120,Navajo,NM,87328,N/A
Rhodes Trucking,7556 Lincoln,Hagerman,NM,88232,505-752-0117
Arrowhead Trucking,7 Scarlet Ohara,Moriarty,NM,87035,575-706-2294
S & G Trucking,704 Runyan,Artesia,NM,88210,505-748-2027
"Ernest R Garcia, Inc.",58 Northfork,Santa Fe,NM,87508,505-473-4502
Dowco Trucking,914 Walnut St,Clayton,NM,88415,505-374-8826
Ash Trucking,42 Gonzales Rd,Belen,NM,87002,505-861-0287
Riley Trucking,314 South Main,Aztec,NM,87410,505-334-0779
P S Baca Trucking,Rt3 Serafin Rd,Belen,NM,87002,505-864-2269
Payan Transport,2705 Garcia N E,Albuquerque,NM,87112,505-298-8137
Lamy Shuttle Service,1476 Miracerros Loop N,Santa Fe,NM,87505,505-982-8829
Big River Freighting,8121 Stanley Rd,Las Cruces,NM,88012,505-382-8351
Benny Benge Construction,610 South 13th St,Lovington,NM,88260,505-396-7511
J C Bowlin Trucking,Po Box 83,Bluewater,NM,87005,505-470-0492
Roberson Trucking,6129 Frontier St,Hobbs,NM,88241,432-297-1881
Perkins Trucking,Po Box 8246,Roswell,NM,88202,505-627-1024
Morphew Trucking,Rt 2 Box 179 E,Deming,NM,88030,N/A
Needmore Trucking,P O Box 2104,Deming,NM,88031,505-546-4495
Doyal Trucking,5800 Old Clovis Hwy,Roswell,NM,88201,505-625-2183
R J C Trucking,#14 Cr 3511,Flora Vista,NM,87415,N/A
G Stevens Trucking,120 Hwy 72,Raton,NM,87740,505-445-0241
"Translift Services, Inc.",600 Rio Ruidose Rd Ne,Rio Rancho,NM,87124,602-332-6060
T & D Trucking,9101 Aztec Ne,Albuquerque,NM,87111,505-299-7241
R & R Trucking,2201 East Univ Dr,Portales,NM,88130,505-356-8407
Jerry Fulton Trucking,1548 S Rosevelt Rd 6,Portales,NM,88130,505-356-6736
Parker Trucking,1620 E 4th St,Clovis,NM,88101,505-762-8626
L & J Trucking,4001 West Cheedodge Mentmore,Gallup,NM,87305,505-722-4004
Chris Lovato Trucking,816 E Amazon St,Portales,NM,88130,505-359-0779
Em Trucking,#30 Cr 3511,Flora Vista,NM,87415,505-334-9709
Flying J Trucking,109 Dog Ranch Rd,La Luz,NM,88337,505-434-4460
Casares Trucking,1735 North Highway 244,Mescalero,NM,88340,505-687-4241
Troy Jackson Trucking,148 Griffin Rd,La Luz,NM,88337,575-430-9957
Muller Trucking,653 East Sargent,Grants,NM,87020,505-285-6163
Aragon Trucking,1248 Mimbres Sw,Albuquerque,NM,87121,505-688-7430
Taylor Trucking,Star Rt 1 Box 15 Separ,Lordsburg,NM,88045,505-546-6177
Darance S Lewis Trucking,800 West Brady,Clovis,NM,88101,505-749-3206
Justin Burton Trucking,I-25 Exit 419 1 Mile East,Springer,NM,87747,505-483-2897
Fitzgerald Trucking,C R 141,Lovington,NM,88260,575-398-3312
Torrez Distributing,1509 Copper,Gallup,NM,87301,505-722-9062
Silver Dollar Mobile Home Transport,47 Kevin Dr,Edgewood,NM,87015,505-286-8584
Hunt Trans,P O Box 1007,Kirtland,NM,87417,505-598-9765
Torrez Distributing,304 Clark,Gallup,NM,87301,505-722-5572
Mt Trucking,20 Tumbleweed,Tularosa,NM,88352,505-585-2735
Wayne Ary Trucking,Highway 60 Milemarker 79,Datil,NM,87821,505-772-5524
Midnight Express,420 63rd Street Nw,Albuquerque,NM,87105,505-831-4126
T & T Hotshot Service,P O Box 213,Tatum,NM,88267,N/A
American Eagle Express,2415 Princeton Ne #g3,Albuquerque,NM,87197,505-889-3083
Marty Posey's Welding Service,39 Wagon Wheel Road,Artesia,NM,88210,505-484-3423
K & C Express,2 Mile West On County Rd A 67,Estancia,NM,87016,505-384-2826
Diamond Trucking Co,1360 Kiowa Ave,Dona Ana,NM,88032,505-523-5470
Big Bears Bargains,990 N 9th St,Gallup,NM,87301,505-722-4859
B & W Transportation,P O Box 353,Bloomfield,NM,87413,N/A
Bilbo Horse Transportation,6325 Isleta Sw,Albuquerque,NM,87105,505-873-6141
Goodyear Trucking,1195 Talkalai Rd Ne,Deming,NM,88030,575-544-4798
Miller Transportation,3340 Railroad Avenue,Tularosa,NM,88352,505-585-4866
R L Cripe Trucking,18 Zia Lane,Tularosa,NM,88352,505-585-3624
H&m Trucking,5604 Sandhill Sw,Albuquerque,NM,87121,505-244-9735
Chuck-wagon Trucking,6145 Edith Ne,Albuquerque,NM,87107,505-883-8016
Essco,2600 W Main St,Farmington,NM,87401,505-325-7568
Perfection Transport,06 Alamo Rd,Los Lunas,NM,87031,505-861-0054
Mcdonald Trucking Co,5450 Feliz Real,Las Cruces,NM,88011,505-647-1380
Blake Trucking,1479 Baseline Rd,Portales,NM,88130,505-359-1017
Lofton Trucking,1285 N M 170,Laplata,NM,87418,505-326-0017
J & K Trucking,603 Dixi St,Clovis,NM,88101,505-762-9525
High Desert Transport,98-a Molina,Peralta,NM,87042,N/A
Lakeside Trucking,42 Miles North Navajo Rt 12,Navajo,NM,87328,520-724-3262
J & L Trucking,#14 Valle Vista Blvd,Santa Fe,NM,87508,505-471-0548
Kenny Romero Trucking,227 E Darby Rd,Dexter,NM,88230,505-624-2744
Johnson Trucking,1925 Klein Ave,Las Cruces,NM,88001,505-523-2193
Cisneros Service,302 3rd,Sunland Park,NM,88063,505-589-0037
Don Rogers Wrecker Service,6510 W Carlsbad Hwy,Hobbs,NM,88240,505-393-8585
R & B Trucking,Martinez Rd West,Moriarty,NM,87035,505-832-4944
Tuc & A Trucking,403 E Hopi Street,Farmington,NM,87401,505-325-4072
C&b Trucking,1327 Calle Baack,Bernalillo,NM,87004,505-867-5530
Bar 37 Trucking,2310 W Apache,Farmington,NM,87401,505-327-6957
Velasquez Trucking,Cr 425 Hs #213,Mesa Poleo,NM,87064,505-638-0093
Marquez Trucking & Repair,605 S Church,Bloomfield,NM,87413,506-632-9134
Ropin Donut Trucking,207 Spring Dr,Ruidoso Downs,NM,88346,505-257-9516
Flying Heart Trucking Company,209 N Cheyenne Drive,Silver City,NM,88061,505-538-8089
Woodard Trucking Co,14 Griffin Road,Alamogordo,NM,88310,505-439-0215
Transport Retrieval & Services,13 Bonito Gap,La Luz,NM,88337,575-434-2452
Pony Ride Horse Transportation,300 West Avenue D,Lovington,NM,88260,505-396-2796
A B Trucking Services,1752 Van Court Sw,Albuquerque,NM,87105,505-877-4319
Walker Services,201 S Wooldridge,Roswell,NM,88202,505-623-2256
Mcadams Trucking,3200 Carlisle Blvd Ne Ste 101,Albuquerque,NM,87110,505-889-4520
Dugan Trucking,Cr 4720 #45,Bloomfield,NM,87413,505-632-1390
Paradise Trucking,8106 State Hwy 209,Tucumcari,NM,88401,505-461-4681
Ramirez Trucking,200 Ruth,Anthony,NM,88021,505-882-4626
"Aspen Mobile Home Service & Transporting, Inc.",322 Rd 5500,Bloomfield,NM,87413,505-632-8284
R A D Trucking,1800 Smith Ave,Las Cruces,NM,88001,505-527-4418
Lopez Trucking,310 Logan Ave,Artesia,NM,88210,505-748-9813
Diamond P Trucking Co,1555 E Thomas Ln,Silver City,NM,88061,505-538-3427
Albuquerque Auto Ambulance,523 Yale S E,Albuquerque,NM,87106,505-889-5459
Claymore Trucking,245-c E London Rd,Loving,NM,88256,505-745-2915
Rapid Transport,County Road 3549 Sp 29,Flora Vista,NM,87415,505-334-6339
Danny's Transport,14827 W Sideback,La Mesa,NM,88044,505-233-3348
C & D Trucking,39048 Us 295,Tres Piedras,NM,87577,505-758-3459
Walton Transportation,212 South 4th Street,Raton,NM,87740,505-445-8232
Mayo Transportation Service,31 Penny Ave,Alamogordo,NM,88311,505-439-0409
"Arvizu Trucking, Inc.",3904 Ringneck Dr,Las Cruces,NM,88001,575-527-4502
Dee's Auto Sales,2400 Second St N W,Albuquerque,NM,87102,505-220-5545
Rico's Trucking,9629 Higgihs Lane,Las Cruces,NM,88011,505-382-5517
Ramon Perez Trucking,9504 Antares Street,Organ,NM,88052,505-382-8872
Tequila Trucking,Po Box 615,Mesilla Park,NM,88047,N/A
Haul Of Fame LLC,328 East Frontage Road,Algodones,NM,87001,505-991-7228
Prado Trucking,314 Dulce Drive,Bloomfield,NM,87413,505-632-3621
Rabbit Transit,541 Frost Rd,Sandia Park,NM,87047,505-281-0798
C W Trucking,5908 Milliron Rd,Carlsbad,NM,88220,505-236-6306
T A Trucking,508 Dixie Dr,Clovis,NM,88101,575-762-5989
Bauch Bros Trucking,11210 Hwy 549 Se,Deming,NM,88030,505-546-2073
Double D Roustabout Service,823 Gum St,Lovington,NM,88260,505-396-4739
D & D Trucking,15a Road 5173,Bloomfield,NM,87413,505-330-3547
Cherokee Mobile Home Transport & Setup,1697 Spruce Ave,Las Cruces,NM,88001,505-541-9161
B & D Hotshot,6645 Isleta Sw,Albuquerque,NM,87105,505-452-8695
Madrid Trucking,211 S Sherman,Roswell,NM,88203,505-624-2034
Jake Cordova Trucking & Cattle,P O Box 121,San Cristobal,NM,87564,505-776-8526
T & R Transport,5278 Ralls,Las Cruces,NM,88012,505-523-3999
Romero Trucking,Route 1,San Antonio,NM,87832,505-838-4509
Johnson Trucking,2706 W Missouri,Artesia,NM,88210,505-746-9438
"Miles Trucking, Inc.",7048 Loftis Lane,Dexter,NM,88230,505-734-6508
D & A Trucking,3200 Del Rey Blvd #118,Las Cruces,NM,88012,505-382-8159
Sundance Trucking,3120 A Hwy 47,La Lunas,NM,87031,505-866-6122
Goins Transportation,214 South Lake,Carlsbad,NM,88220,505-885-2933
Marshall Auto Transit,Route 10 Box 110b,Santa Fe,NM,87501,505-474-7811
Herradura Transportes,1116 Loma Vista,Sunland Park,NM,88063,505-874-9085
Sunrise Properties,414 E 23rd Sp #1,Roswell,NM,88201,505-623-1864
Poarch Trucking,2409 Nicklaus,Clovis,NM,88101,505-763-3720
Estrada Trucking,725 Legion Dr,Las Vegas,NM,87701,505-454-9355
M & M Trucking,509 W Redwood,Roswell,NM,88201,505-623-9410
C & D Trucking,1110 E Boutz Rd,Las Cruces,NM,88001,505-522-7990
C & D Trucking,1110 E Boutz Rd,Las Cruces,NM,88001,505-522-7990
Desert Hawk Enterprises,240 Valley View,Las Cruces,NM,88005,575-524-3348
Eagle 7 Transport,12801 Indian School Rd Apt1501,Albuquerque,NM,87112,505-275-5880
B W Services,716 Cotton Wood Ln,Hobbs,NM,88240,505-392-2209
Jimmy S Trucking Service,Po Box 2065,Tijeras,NM,87059,505-281-5564
Shanta Trucking,Carrizo Trail House 24,Mescalero,NM,88340,505-257-4775
Erv Meeks Trucking,4565 E Seltice Way,Post Falls,NM,87544,208-773-6742
Thompson Truck Lines,1306 La Mora Lane,Albuquerque,NM,87105,505-877-1420
La Roseberry Trucking,1206 Ohio,Alamogordo,NM,88310,505-434-1545
G & B Hot Oil Services,Rt 1 Box 815,Lovington,NM,88260,505-396-7299
Independent Auto Transport,5041 Valle Del Sol,Albuquerque,NM,87105,505-836-2668
Heartline Trucking,03 Orilla Rd,Los Lunas,NM,87031,505-865-3224
Specialized Carrier Nationwide,6206 A Edith Ne,Albuquerque,NM,87107,505-341-2276
Jose Vega Trucking,160 Dona Ana Road Sw,Deming,NM,88030,505-647-1380
Gk Transport,1621 Capps Pl,Belen,NM,87002,505-864-8602
Jose Ponce Trucking,Camino Carlos Box 4,Espanola,NM,87532,505-753-9267
Lovatos Trucking,1612 Private Drive,Espanola,NM,87532,505-387-5759
Sanchez Trucking,114 Mesa Verde,Sunland Park,NM,88063,505-589-0369
Hartsock And Son Transport,1003 Pate Street,Carlsbad,NM,88220,505-885-1408
Fire Services Of N M,525 N 1st Street,Raton,NM,87740,505-445-1104
R V 's Trucking,463 Jemez Road,Santa Fe,NM,87501,505-471-7160
Tafoya Trucking,1903 S Lead,Deming,NM,88030,505-546-9150
C P E Trucking,3 C Camino De Los Chaves,Belen,NM,88201,505-622-7396
Manuel Maldonado Trucking,P O Box 658,Columbus,NM,88029,505-531-2454
Miller Transport,565 Cr 10,Clovis,NM,88101,505-763-0972
Hrp Hauling,3459 Hwy 193,Raton,NM,87740,505-278-3352
St Louis Mobile Home Services,P O Box 601,Tijeras,NM,87059,505-281-7434
L B M,6400 Prairie Dunes St,Albuquerque,NM,87111,505-292-2999
Hometown Transport,6300 Bar L Road,Roswell,NM,88201,505-347-0080
Southwest Constructors,800 E 30th St Ste 2,Farmington,NM,87401,505-326-3686
Quiroz Trucking,Po Box 1689,Santa Teresa,NM,88008,505-874-3741
Rojas Trucking,118 Mimbre,Los Lunas,NM,87031,505-866-1010
Byrd's Mobile Home Transport Service & Repair,No 11 County Road 3133,Aztec,NM,87410,505-334-6625
Hanway Trucking,705 Farney,Las Cruces,NM,88005,575-527-2897
3 J Transport,1523 N Union,Roswell,NM,88201,505-627-6454
Aerostar Trucking,Po Box 354,Columbus,NM,88029,505-531-2154
Triumph Interstate Trucking,Rt 14 Box 224,Santa Fe,NM,87505,505-424-8905
C & D Distributors,5801 Central Nw,Albuquerque,NM,87105,505-899-0077
Jack Crane,62 Eagle Claw Dr,Quemado,NM,87829,575-518-8038
Rosales Trucking,201 Lura St,Sunland Park,NM,88063,505-589-1835
R H Transport,285 Mcnutt,Sunland Park,NM,88063,915-996-8080
Banister Trucking,1832 South Rr 3,Portales,NM,88130,575-799-1929
Torres Trucking,323 White Cloud Loop,Sandia Pueblo,NM,87004,505-771-9310
Jarretts Septic Tank Pumping,3222 West Jones Road,Hobbs,NM,88242,575-631-0601
Bulldog Transport,5300 Escalante Trail,Farmington,NM,87402,505-325-2611
Fermin Trucking,2829 Joel Road Sw,Albuquerque,NM,87121,505-877-8338
Stateline Transit,3500 Mabry Drive,Clovis,NM,88101,505-742-1887
Hardin Trucking And T And C Cattle,897 South Roosevelt Road J,Portales,NM,88130,505-276-8320
J & L Trucking,652 Hermosa,Chaparral,NM,88081,915-526-2905
Mangum Trucking,#178 Hwy 544,Bloomfield,NM,87413,505-634-0223
On Corse Trucking Alliance,3760 Aggate,Las Cruces,NM,88012,575-520-5086
D-n-j Trucking,#9 None Rd,Alamogordo,NM,88310,575-434-3674
Kcc & M Trucking,A 41-475 B,Estancia,NM,87016,505-384-9774
Tom's Trucking,05 San Mateo Way South,Sante Fe,NM,87508,505-471-7493
Southwest Steam & Trucking,7136 Us 64,Bloomfield,NM,87413,505-632-5236
Rg Trucking,302 S 39th St,Artesia,NM,88210,575-616-1218
Taltrash Service,6292 Qr Ap 6,Tucumcari,NM,88401,505-461-3312
Alvarez Trucking,3531 Snow Road,Las Cruces,NM,88005,505-640-6900
Carlos Chacon Trucking,765 El Paseo Dr,Chaparral,NM,88021,505-824-0443
A & K Transportation,P O Box 2158,Roadforks,NM,88045,505-546-0481
Double D Backhoe Service,823 Gum St,Lovington,NM,88260,505-396-4739
Suitor Trucking,1008 E 25th Street,Farmington,NM,87401,505-326-9113
Cross Country Transport,3836 Pitt St Ne,Albuquerque,NM,87111,505-298-1261
Snodgrass Packer & Hot Shot Service,1412 West Broadway,Hobbs,NM,88241,505-393-5757
Fernandez & Sons,1400 Mcnutt Rd,Sunland Park,NM,88063,575-589-0078
Herrera Trucking,119 Palomilla,Mesquite,NM,88048,915-544-3160
Lance's Home Sales & Service,2224 W Broadway,Bloomfield,NM,87413,505-632-0346
Montes Transport,Higby & El Paso St,Columbus,NM,88029,505-531-2787
Warren Logging,536 Sandia,Bernalillio,NM,87004,505-867-5939
J & I Trucking,6 Morningside Dr,Roswell,NM,88201,505-625-8744
R&j Express,4883 W Picacho Ave,La Cruches,NM,88005,505-524-3765
Kemph Trucking,1010 Ave S,Eunice,NM,88231,505-394-3035
R & B Casing Inspection Service,1535 Yeso Place,Hobbs,NM,88240,505-393-2739
Midas Mobile Home Service,2708 La Salle Street,Farmington,NM,87401,505-325-3771
Bar M R Trucking,3307 Standpipe Rd,Carlsbad,NM,88220,505-887-3601
Cline Transportation,134 W Arnold Palmer Lane,Lordsburg,NM,88045,602-497-1294
Tripod Trucking,6387 Hobbs Hwy Mm 64 Us 62-180,Carlsbad,NM,88221,505-887-4048
Aguirre Trucking,310 Mesa Vista Rd,Anthony,NM,88021,505-882-4214
Durkin Family Farms,786c#3 Nm 408,Lemitar,NM,87823,575-835-1953
Gone Trucking,# 35 Cr 3332,Aztec,NM,87410,505-334-7582
Eagle 7 Transport,Po Box 1603,Moriarty,NM,87035,505-832-0552
Dollar Trucking,16141 Us 550,Aztec,NM,87410,505-334-8981
Mares Trucking,1000 Center St,Melrose,NM,88124,505-253-4317
M L S Trucking,2716 Chrysler Dr,Roswell,NM,88201,505-624-0511
Radell Box Trucking,515 N 8th St,Loving,NM,88256,505-745-2984
Priority Parcel Service,109 W Byers,Hobbs,NM,88240,505-393-3522
Mountain Valley Transportation,4000 Douglas Macarthur Rd Ne,Albuquerque,NM,87110,505-888-4988
G S Farms,412 E Oak,Tucumcari,NM,88401,505-461-4858
Armijo Trucking,860 Daniel Court,Las Cruces,NM,88001,505-523-2445
Cassidy Trucking,Star Rt 2 Box 52,Socorro,NM,87801,505-838-1232
"Blue Sky Trucking, Inc.",257 Riverboat Rd,Moriartiy,NM,87035,505-832-9458
Lynn's Trucking,543 Nm 88,Portales,NM,88130,505-276-8333
A & D Trucking,126 Carrejo Road,Bosque,NM,87006,505-864-7135
K And D Manufactured Homes Transport,945 N Auburn # 39,Farmington,NM,87401,505-326-1712
Desert Star Transport,1850 Martha Drive,Las Cruces,NM,88001,505-525-1446
Diesel Systems Trucking,107 Candelaria Nw,Albuquerque,NM,87107,505-344-4739
"D & M Aggregate Service, Inc.",4460 Gordon St,Los Lunas,NM,87031,505-565-8839
Quality Oil Service Of New Mexico,113 N 3rd Street,Jal,NM,88252,505-395-2010
De La Rosa Trucking,1630 Lincoln Street,Anthony,NM,88021,915-490-7172
Carrillo's Trucking,2112 South Tin,Deming,NM,88031,575-523-3999
B & E Trucking,5717 Jessica Ct Nw,Albuquerque,NM,87120,505-681-1849
Gomez & Gomez Trucking,6028 Grandi Rd,Carlsbad,NM,88220,575-236-6407
Otero Transportation,110 Bao 20w,Estancia,NM,87016,505-384-1127
Sundown Trucking,6413 Cree Rd,Dexter,NM,88230,505-347-4347
Skelton Trucking,200 Tumbleweed Rd,Milan,NM,87021,505-287-4933
H & C Trucking,Hcr 155 House 87,Abiquiu,NM,87510,505-685-4450
Jjj Express,4110 Skyline Dr,Farmington,NM,87401,505-325-6033
R & K Trucking,109 W Mathews,Roswell,NM,88201,505-622-4860
Lazy Cottonwood Transportation,Rd 6700 #49,Fruitland,NM,87416,505-598-9730
J D J Transport,1520 Bessie St,Aztec,NM,87410,505-334-1981
New Mexico Transport Co,60 Yucca Drive,Ramah,NM,87321,505-783-4206
4-bar Transport,7194 Tres Yuccas Road,Las Cruces,NM,88012,505-647-1380
Wildcat Trucking,916 N 6th St,Lovington,NM,88260,505-396-5089
G & B Transport,2704 Gaye Dr,Roswell,NM,88201,505-622-5745
Goertzen Transfer,198 Landing Rd,Ft Sumner,NM,88119,575-355-9201
A B C Services,1201 S Carlton,Farmington,NM,87401,505-325-5000
Altman Brothers Trucking,621 Son Shine Ln,Lovington,NM,88260,575-396-8069
Jim Wright Trucking,300 Hwy 170,Farmington,NM,87401,505-326-2628
West Pecos Express,15 San Maguel Avenue,Los Lunas,NM,87031,505-865-7349
Express West Transport,920 East Main,Tucumcari,NM,88401,505-461-4508
Nottaholotta Trucking,No 26 Cr 5117,Bloomfield,NM,87413,505-632-7931
Kmc Trucking,Po Box 1263,Cuba,NM,87013,505-289-2026
Pdq Escort Service,1109 E Chuska,Hobbs,NM,88242,575-392-9424
Horizon Transportation,906 Firwood,Bloomfield,NM,87413,505-632-7061
H & H Trucking,1115 S Second St,Tucumcari,NM,88401,505-461-3684
Chuck's Car Carrier,7 A C R 5787,Farmington,NM,87401,505-327-1359
Gomez Trucking,100 Buena Vista Road,Sunland Park,NM,88063,575-598-2107
Ru Trucking,943 D Hwy 304,Veguita,NM,87062,505-861-2243
L'esperance & Sons,05 Ramon Rd,Tajique,NM,87016,505-384-2809
J L D Trucking,44 Moondale Road,Alamogordo,NM,88310,505-439-4352
Melton Trucking,1306 North Main,Lovington,NM,88260,505-396-2858
Oj's Express,1240 Las Cruces Ave,Las Cruces,NM,88004,505-526-3101
Spin Doctor Hotshot Services,6319 Foley Ct Sw,Albuquerque,NM,87105,505-873-0107
Shiloh Trucking,900 C R C,Texico,NM,88135,575-742-1800
D C Transportation,Highway 111 #403,Ojo Caliente,NM,87549,505-583-2496
R C Trucking,126 Cubita Rd,Cuba,NM,87013,505-289-0215
Environmental Development Group,4007 South Hwy 90,Silver City,NM,88061,575-534-4239
Southern Cross Trucking,504 S Ave B,Portables,NM,88130,505-359-1421
Victoriana Trucking,129 La Fe Ave,Mesquite,NM,88048,N/A
Laney & Co Trucking,Po Box 405,Reserve,NM,87830,505-533-6150
Side By Side Trucking,210 Willow Lane,Aztec,NM,87410,505-334-2252
David & Sons Trucking,173 Chickasaw Rd,Hagerman,NM,88232,505-734-1503
Wes Transport,1701 10st Suite B-5,Alamogordo,NM,88310,505-437-8627
Lisa's Trucking Center,820 East Central,Moriarty,NM,87035,505-832-4455
Baja Ventures,1901 Darlene St,Las Cruces,NM,88001,505-541-0746
J & I Builders Mobile Home Transport,2100 Leonard,Rio Rancho,NM,87124,505-804-1627
Hatch Bros Motor Co,1293 State Hwy 338,Animas,NM,88020,505-647-1380
J & D Trucking,3719 Ciniza Dr,Gallup,NM,87301,505-409-6888
Snipes Trucking Co,1805 Fairway Ter,Clovis,NM,88101,N/A
Dpi Swthwest,5840 Office Blvd N E,Albuquerque,NM,87109,505-345-4488
William Bass,608 Trailing Heart Rd,Roswell,NM,88201,575-623-1780
Colomex,5510 Broadway Se,Albuquerque,NM,87105,505-873-5889
M&n Trucking,410 Lorena St,Farmington,NM,87401,N/A
Southwest Trucking Co,1303 S Platinum,Deming,NM,88030,505-546-9479
"Lobo, Inc.",2604 Princeton Dr Ne,Albuquerque,NM,87107,505-881-0343
Carl Sower Trucking,19547 Hwy 314,Belen,NM,87002,505-450-3056
J & D Trucking,728 Elko Ave,Grants,NM,87020,505-287-2127
Goodyear Trucking,Po 1718,Deming,NM,88031,N/A
R & B Trucking,1620 Mcnutt Rd,Sunland Park,NM,88063,575-589-5477
Ron Mcgee Trucking,Rt 2 Box 224c,Clovis,NM,88101,N/A
Statewide Mobile Home Service,1750 Indian School Rd N W 143,Albuquerque,NM,87102,N/A
Black Canyon Trucking,4225 Trinity Pl Nw,Albuquerque,NM,87107,N/A
P M Trucking,Rt 3 Box 95-37,Santa Fe,NM,87501,N/A
Crozier Trucking,Rt 1 42009 Us 70 West,Portales,NM,88130,575-356-8528
Ritchey Transportation,Cr 5060 #35,Bloomfield,NM,87413,505-632-3550
7k Express,614 Caballo,Carlsbad,NM,88220,505-302-4224
A & A Trucking,5535 Triste Rd Se,Deming,NM,88030,575-545-0139
W D Beal Trucking,Po 1207,Clovis,NM,88101,N/A
Black River Transportation,P O Box 1331,Loving,NM,88256,N/A
Griffith Brothers Trucking,P O Box 1287,Tularosa,NM,88352,N/A
John Lewis Trucking,2330 Apt B 39th,Los Alamos,NM,87544,505-662-2734
Cordero Transport,6805 Vista Del Sol,Albuquerque,NM,87120,505-550-0221
Mills Trucking,P O Box 931,Carlsbad,NM,88220,N/A
Gdi,8225 Washington Street Ne Suite A,Albuquerque,NM,87113,505-798-4740
Watson Trucking,County Road 3450 #80,Farmington,NM,87415,505-324-0172
Townsend Construction,67 Road 2350,Aztec,NM,87410,505-334-6822
"Ever Ready Oil, Inc.",3200 Broadway S E,Albuquerque,NM,87105,505-842-6120
Circle L Trucking,13th And Cottonwood,Artesia,NM,88210,505-365-2158
B C Trucking,Route 1 Box 75,Socorro,NM,87801,505-835-1586
E J 's Trucks Trailers & Equipment,5408 Hwy Us #64,Farmington,NM,87401,505-325-8743
Muncy Trucking,P O Box 1931,Alamogordo,NM,88310,505-434-1457
Chumley Trucking,817 Lamar,Texico,NM,88135,N/A
D & L Mobile Home Service,547 County Line,Chaparral,NM,88021,505-824-3115
D C W Trucking,16 Bendorz Lane,Tularosa,NM,88352,505-585-4752
Emilio Ashe Trucking,217 Marlow N E,Albuquerque,NM,87113,505-898-2163
A M Ashe Trucking,8401 Pan American Frwy N E 181,Albuquerque,NM,87113,505-821-9193
G & G Trucking,2400 Game Refuge Road,Farmington,NM,87401,505-327-4677
Bewley Transportation,Hy 41,Mcintosh,NM,87032,505-384-5476
Doak Harris Trucking,928 Walnut Street,Clayton,NM,88415,505-374-9547
Southwest Auto Transport,3815 S Main #43,Las Cruces,NM,88004,N/A
Aadf Warehouse Corporation,1414 12th St Nw,Albuquerque,NM,87104,505-842-6563
L A Ballard Trucking Co,P O Box 91,Malaga,NM,88263,505-745-3778
Bonfantini Land & Cattle Company,3326 Venus St,Las Cruces,NM,88002,505-382-0086
E V Trucking & Cruz Contracting Jv,#4 A County Rd 5367,Farmington,NM,87401,505-634-0316
D & A Motor Express,28 Maestas Rd,Belen,NM,87002,505-864-5957
Don Mckibben Trucking,1322 Hopi Road,Carlsbad,NM,88220,505-885-6892
Bradshaw Transport,3201 Sue Circle Se,Rio Rancho,NM,87124,501-268-7084
Jennings Trucking,1421 S Main Ave,Portales,NM,88130,505-356-3769
H T Madsen Trucking,6289 North Main,Roswell,NM,88201,505-625-1928
Ed's Auto Transport,1104 Dillon Ave,Belen,NM,87002,505-864-8445
Assured Express,Po Box 80494,Albuquerque,NM,87198,505-889-0073
Searle Trucking LLC,04 Capitan Circle,Moriarty,NM,87035,505-832-4144
J R Bar Trucking,4476 Franklin Road,Los Lunas,NM,87031,505-866-1459
D & V Trucking,12 Bowersville Rd,Algodones,NM,87001,505-867-5712
Vm Transport,2501 Aztec Rd Ne,Albuquerque,NM,87107,505-883-0086
Sanchez Trucking,State Rd 50,Pecos,NM,87552,505-757-6425
Rays Trucking,31 Easttrail,Edgewood,NM,87015,505-889-3083
Hank Britt Trucking,88 W Orchard Park Rd,Dexter,NM,88230,505-347-5513
Wheeler & Sons Trucking,1609 Utah St Ne,Albuquerque,NM,87110,N/A
Thereton Motor Freight Co,1804 Jerry's Place Sw,Albuquerque,NM,87105,N/A
Thunder Transportation,305 N Light Plant Rd #86,Aztec,NM,87410,505-334-3846
Sertan Trucking,25 Road 5583 Nbu 3012,Farmington,NM,87401,N/A
John's Hot Shot Service,5 De Sosa Ct,Roswell,NM,88201,N/A
"Auto Express, Inc.",4 East Willard Rd,Edgewood,NM,87015,N/A
Randall Trucking,Hc 30 Box 227,Tucumcari,NM,88401,505-576-2544
Don Wilken Trucking,Rosa Street,Hillsboro,NM,88042,505-267-9347
Bridge Transport,20 Kessler Ln,Belen,NM,87002,505-864-2900
Martin & Sons Transport,124 Park Dr,Clovis,NM,88101,N/A
4-t Trucking,Hcr 62 Box 69a,Portales,NM,88130,505-276-8491
Kerby Trucking,612 Nm 267,Portales,NM,88130,505-478-2451
Janzen Construction Limited Liability Company,33 Thunderbird Road,Animas,NM,88020,575-548-2663
S & M Trucking,903 Vista Parkway,Roswell,NM,88201,505-623-4639
Waller Mobile Modular Transport,Hc 078 Box 148 B,Deming,NM,88031,505-546-0312
Silvia's Trucking,3744 Crossroads,Roswell,NM,88201,505-625-9347
Robert Esslinger Trucking,14309 S Hwy 28,La Mesa,NM,88044,505-650-3810
D C Trucking LLC,24 Dalies Rd,Los Lunas,NM,87031,505-865-4600
A & A Dominguez Trucking,S End Of Continental Rd,Continental Divide,NM,87312,N/A
J C M Trucking,316 Zecca Dr,Gallup,NM,87301,505-863-9836
Teller Trucking,2727 Duranes Rd Nw,Albuquerque,NM,87104,505-243-8429
Andrew J Albarez Trucking,809 South Washington,Roswell,NM,88201,505-623-2057
Taylor Services,309 E Washington,Grants,NM,87020,505-287-7472
"Cobra Industries, Inc.",720 Texaco Road,Hobbs,NM,88241,505-393-1491
"Mod Investment, Inc.",201 A Futurity,Sunland Park,NM,88063,505-589-1736
Hi Ridge Trucking Co,826 Us Hwy 516,Flora Vista,NM,87415,505-334-5800
Enchanted Carrier Co,State Rd #192 & Cnty Rd 43,Mesquite,NM,88048,N/A
Corralez Trucking,222 West Ivy,Portales,NM,88130,505-356-8208
Glory Transport,10500 Benavides S W,Albuquerque,NM,87195,505-831-9256
Genuine Hauling,836 North 3rd St,Raton,NM,87740,505-445-3857
Toucan Transport,16 Diablo Dr,Alamogordo,NM,88310,505-434-4580
S & R Rose,3405 Enterprise,Hobbs,NM,88240,N/A
Yates Trucking,455 Garcia Lane,Bosque Farms,NM,87068,505-869-7428
T B Spears Trucking,622 Turner,Texico,NM,88135,575-482-9156
Danielle Trucking,2202 Tucker St Apt 1,Farmington,NM,87499,505-325-6955
Garrett Trucking,7123-d North Main,Las Cruces,NM,88001,N/A
S N H Transport,601 Barnett Dr,Roswell,NM,88201,N/A
Brandt Trucking,Po Box 551,Grants,NM,87020,505-285-6717
"Ctc Trucking, Inc.",4110 West Mcgaffey,Roswell,NM,88201,505-622-9336
T & S Trucking,813 Rio Vista,Santa Fe,NM,87501,N/A
Lonesome Dove Trucking,Po Box 297,Bosque,NM,87006,N/A
Carrasco Transport,700 East Oak,Loving,NM,88256,505-745-3370
D & B Trucking,911 Aliyah #1,Las Cruces,NM,88005,N/A
Villalobos Trucking,2602 A North State Line Road,Hobbs,NM,88240,915-297-1118
Gene Steadman Trucking,807 Hidalgo Road,Carlsbad,NM,88221,505-885-9987
Coppedge Trucking,2200 E Olive,Deming,NM,88030,575-546-8671
Magnum Trucking,686 S Roosevelt Rd P,Portales,NM,88130,505-356-0813
Four Corners Hydro-test Roadrunner Well Service,6121 U S Hwy 64,Farmington,NM,87401,505-632-2412
M T R Trucking,4144 Julia Ln Sw,Albuquerque,NM,87121,505-452-1722
Howard Thomas Trucking,1517 Gschwind S W,Albuquerque,NM,87121,505-831-6356
Delta Transportation Co,5100 Gaviota Nw,Albuquerque,NM,87120,N/A
Bachicha Trucking,6574th Street,Santa Rosa,NM,88435,N/A
"Southwest Feed Transport, Inc.",605 E Hobson Rd,Roswell,NM,88201,505-347-2315
All Red Trucking,17 Forgotten Promise Lane,Los Lunas,NM,87031,505-865-5202
Pino's Wrecker Service,1901 N Grand Avenue,Las Vegas,NM,87701,505-454-1128
D & S Mobile Home Movers,77 A D&s Trailer Ranch Rd,Gallup,NM,87301,505-863-5370
C A Aguilar Trucking,524 Harold Dr,Socorro,NM,87801,505-835-2417
Grady Gardner Trucking,Box 1664,Santa Teresa,NM,88021,505-526-4310
J & A Shuttle Service,3005 Hopi Trail,Alamogordo,NM,88311,505-434-5480
Raton Wrecker Service,601 Kiowa,Raton,NM,87701,505-445-2572
Toro Trucking,3301 R Coors Rd Nw,Albuquerque,NM,87120,N/A
Twin Hearts Express & Transportation,66 Straight Arrow Road,Taos,NM,87571,575-751-1201
Action Safety,2125 North French Dr,Hobbs,NM,88241,505-393-3501
Blue Sky Trucking,214 Lemmons Ln Ne,Albuquerque,NM,87113,505-898-8127
King Trucking,70-b Edmindo Road,Belen,NM,87002,N/A
J M P Transportation,4605 Pedroncelli Ct Nw,Albuquerque,NM,87107,N/A
Cactus Trucking,11127 Loop 540,Logan,NM,88426,505-487-2685
Moore Transportation,,Roswell,NM,88201,505-623-3494
Ps Petrov Trucking,1120 Will Rogers Dr,Santa Rosa,NM,88435,908-414-0793
Waste Disposal Services,Hwy 371,Thoreau,NM,87323,505-287-7250
Kennedy Trucking,Rt 2 Box 137,Portales,NM,88130,505-356-8004
7 Mares Ranch,Po Box 295,Cebolla,NM,87518,386-624-2678
Ojeda Trucking,900 E Yeso Trlr 22,Hobbs,NM,88240,575-399-6330
Shannon Enterprises,4114 N Dal Paso Street,Hobbs,NM,88240,575-390-0832
Outback Fuels LLC,152 Perkins Rd,Sedan,NM,88436,575-374-9790
D&r Light Hauling,3714 Hwy 28 #47,Las Cruces,NM,88005,575-649-6666
J & D Trucking,1206 N Llano Dr,Hobbs,NM,88240,575-397-1010
J Archuleta J Enterprises LLC,844 Rio Arriba St,Las Vegas,NM,87701,505-425-7701
Manuel Rosales Masonry,9230 Higgins Lane,Las Cruces,NM,88011,575-636-4989
Silver Trucking,18507 Castillo Rd,La Mesa,NM,88044,575-993-4828
H & M Distributors,6128 Alderman,Albuquerque,NM,87120,505-314-3593
E N A Transport,230 Highway 228 Lot #6,Mesquite,NM,88048,575-312-3151
B''s Honey Farm,12705 Mountain Rd Ne,Albuquerque,NM,87112,505-293-3135
4s,1001 N College,Texico,NM,88135,575-309-8486
Tc Trucking,1907 Isleta Sw,Albuquerque,NM,87105,432-758-2403
Y & D Transport,2928 San Pablo Ne,Albuquerque,NM,87110,505-453-5480
Mountain Movers,110 Wild Rose Circle,Capitan,NM,88316,575-336-7812
Shields Transport LLC,1235 Cochiti Ave,Hobbs,NM,88240,575-397-0016
Transportes El Indio,27 Cuerro Ln,Los Lunas,NM,87031,505-565-0328
M & M Transport,6 Thump Ridge Road,Ramah,NM,87321,505-783-4079
Al Vigil Trucking,139 Frontier Road,Taos,NM,87571,575-751-6440
Cowboy Auto Recovery,17362 Hwy 550,Aztec,NM,87410,970-884-0373
Rt Rods,123 Tennessee St Ne,Albuquerque,NM,87108,505-265-1327
Mb Trucking,27 County Road 103 Space 100,Santa Fe,NM,87506,505-920-6409
Armendariz Trucking,616 S Aspen Ave,Roswell,NM,88203,575-623-9159
Gamboa Trucking,224 Fossil St,Anthony,NM,88021,915-471-6139
Graystone Transport,5011 Edith Blvd Ne,Albuquerque,NM,87107,505-999-1243
Armadillo Trails,500 Florida Se,Albuquerque,NM,87108,505-401-1220
Fls Sameday Delivery,12412 Chelwood Trail Ne,Albuquerque,NM,87112,505-379-3341
America Oilfield Service,817 W Princess Jeanne Dr,Hobbs,NM,88240,575-602-2569
Mark Simon Sewer Maintenance,Box 842,Socorro,NM,87801,575-835-8637
Lre Express,3440 Ross Ave Se Apt H,Albuquerque,NM,87106,505-417-7177
Culligan Of Alamogordo,143 South New York,Alamogordo,NM,88310,575-437-6500
Rely Enterprises,614 East Smith Lane,Bloomfield,NM,87413,505-632-6993
Cornerstone Contractors,2509 Lucero Rd,Albuquerque,NM,87105,505-385-7531
Ivan Vela Trucking,124 Columbia Lane #22,Clovis,NM,88101,806-676-0771
Lre Trucking,3440 Ross Ave Se Apt H,Albuquerque,NM,87106,505-417-7177
Sjs Ruiz Comm,229 Camunez,San Miguel,NM,88058,915-760-9529
America Transportation,27 County Rd 103 Space 100,Santa Fe,NM,87506,505-920-6409
R Js Trucking,1202 S Selman St,Hobbs,NM,88240,575-441-5120
Nixon Construction,154 Hwy 467,Portales,NM,88130,575-760-0543
Casares Trucking Ii,1735 North Hwy 244,Mescalero,NM,88340,575-464-2989
Wilson Transport,663 Dollores Sw,Albuqueque,NM,87121,505-967-1499
J & Sons Transport,1013 S Love St,Lovington,NM,88260,575-399-6761
Farm Labor Contractor,203 Fifth St,Sunland Park,NM,88063,915-422-3898
Ramos Trucking,303 W Mezquite,Hobbs,NM,88240,575-441-2906
Gutierrez Trucking,1002 Ave P,Lovington,NM,88260,575-635-5582
M & C Trucking,20 Braddy Rd,Vado,NM,88072,575-233-0680
Or Trucking,198 Romans Lane,Bloomfield,NM,87413,505-360-3029
G&f Trucking,5190 Arena Dr,Las Cruces,NM,88012,575-373-9674
One Source Industrial Services,1929 Pecos Hwy,Loving,NM,88256,281-841-8282
L J Trucking,510 S 7th,Carlsbad,NM,88220,575-887-1441
S & N Logistics,7409 Via Sereno Sw,Albuquerque,NM,87121,505-382-2817
Kora Trucking,1022 La Plata Dr,Las Cruces,NM,88007,575-405-9959
Duke City Food Logistics,504 Carmony Ln Ne,Albuquerque,NM,87107,505-344-4205
Iglesias Trucking,3205 County Rd 249j,Hobbs,NM,88240,575-631-0884
Ogb,3711 Paseo Del Norte Ne Suite B,Albuquerque,NM,87113,505-998-0000
Guerras Trucking,2480 Moonriver Loop,Las Cruces,NM,88007,602-214-7201
Nixon Trucking,633 Nm 467,Portales,NM,88130,575-309-6217
Clean Slate Services LLC,6501 Vest Rd,Carlsbad,NM,88220,575-887-0327
Mendoza Trucking,216 Mississippi,Clovis,NM,88101,575-693-4007
"Sun Valley, Inc.",3567 South Main Street,Mesilla Park,NM,88047,575-647-3648
High Caliber Services,950 W De Baca St,Hobbs,NM,88242,575-631-6299
Africa Art,113 Gen Arnold Apt A,Albuquerque,NM,87123,917-312-1860
El Rey Meat Market,108 N Platinum,Deming,NM,88030,575-544-8432
San Mateo Distributors,13262 Candelaria Road Ne,Albuquerque,NM,87112,505-206-1409
Tismo's Welding & Services,562 Nm 523,Clovis,NM,88101,575-760-1050
Long Beach Trucking,2886 Lake Valley Ave,Las Cruces,NM,88007,562-522-5113
K & I Logistics,6408 Sunset Garden Road Sw,Albuquerque,NM,87121,505-433-4084
Gueritos Trucking Services,1400 San Jose Blvd,Carlsbad,NM,88220,979-415-4415
Miller Hay And Feed,1361 Hwy 27,Hillsboro,NM,88042,575-895-5500
Us Trucking,3049 Pueblo Puye,Santa Fe,NM,87507,505-438-0888
Permian Express 2,305 E Blodgett St,Carlsbad,NM,88220,575-887-1400
Bartlett Trucking,2820 N Northacres Dr,Hobbs,NM,88240,575-391-6802
C & M Trucking,2608 Patrick St,Carlsbad,NM,88220,575-689-9097
Queen Ranch Hideaway,3842 Queen Hwy,Carlsbad,NM,88220,575-981-2431
Ben Talley Service Solutions,148 Emilia Road,Los Lunas,NM,87031,505-944-6185
M & M Trucking,1015 Rencher St,Clovis,NM,88101,575-218-3120
Juggernaut Transport,2406 Commerical St Ne,Albuquerque,NM,87102,505-307-5768
Joe's Crane Service,11246 Lovington Hwy,Artesia,NM,88210,575-746-6318
Mcallister Trucking,89 Joe Nestor,Edgewood,NM,87015,505-286-6275
Albuquerque Express,300 Menual Ste 208,Albuquerque,NM,87107,505-261-2921
Double Bars Ranch,2493 Campbell Road,Grenville,NM,88424,575-278-2445
Nease Trucking,1214 Auburn Drive,Roswell,NM,88203,575-420-3722
Db Services,7420 Dulce Rd,Carlsbad,NM,88220,575-302-2779
B&j Motorsports Transport,2211 S Walker,Alamogordo,NM,88310,575-443-3427
Triple Crown Services,6203 S Bronco Dr,Hobbs,NM,88241,575-393-6968
Fire Attack - Fire Management,419b West Commercial St,Portales,NM,88130,917-969-9982
Subcontractor,1020 W Manana Blvd,Clovis,NM,88101,575-791-8141
Beasley Enterprises,105 Gouet Court,Belen,NM,87002,505-859-0605
J And J Inspections,139 Missouri,Bloomfield,NM,87413,505-632-5900
Triple M,22 W Berino Rd,Berino,NM,88024,575-882-1131
Chitos Produce,314 W Midwest,Hobbs,NM,88240,575-391-7565
Mj Hot Shot Services,615 S 8th St,Artesia,NM,88210,575-703-9996
Drury Hauling,Hc 71 Box 1009,Capitan,NM,88316,575-973-3779
Magnum Transport,9116 Starboard Rd Nw,Albuquerque,NM,87121,505-559-4275
M R 49,2529 W Humble,Hobbs,NM,88240,575-393-8068
Decker Cutting Horses,221 Doran Road,Lovington,NM,88260,505-559-4275
Bloomfield Towing Service,183 Road 4800,Bloomfield,NM,87413,505-632-8189
Durbin Produce Co,2307 S Baylor,Roswell,NM,88201,505-622-4730
Pecos Valley Meat,3845 Cedervale,Roswell,NM,88201,505-622-1214
Blue Mesa,200 W Hwy 60,Datil,NM,87821,505-772-5537
Allan Jackson Farm & Ranch,184 East Darby Road,Dexter,NM,88230,719-274-5299
Lazy R,1600 S Industrial Dr,Portales,NM,88130,505-356-0445
Hi-country Towing & Recovery Co LLC,4320 W Main,Farmington,NM,87401,505-326-0177
Lucero Construction,106 South Turner,Bloomfield,NM,87413,505-632-2545
G R Ready Mix,25 B High Valley Rd,Vado,NM,88072,505-571-7854
Sandstone Excavation,1009 Fleming Lane,Bloomfield,NM,87413,505-632-8005
Morgie,835 Ranchitoes,Taos,NM,87571,505-770-3793
Custom Loading,50 Cr 11,Buena Vista,NM,87712,575-387-6758
"D & H Enterprises, Inc.",#43 Cr 3665,Aztec,NM,87410,505-326-6057
"Rick Clarke Enterprises, Inc.",38 Green Trail,Alamogordo,NM,88310,505-434-6520
Diversified Homes,309 Mississippi,Clovis,NM,88102,505-870-7271
B & B Farms,405 N Texico,Elida,NM,88116,505-274-6204
J Jira Ent,2040 Bosque Farms Blvd,Bosque Farms,NM,87068,505-907-3805
Conrado Bobadilla & Sons,200 Sombra Verde,La Union,NM,88007,505-523-3999
Acosta Trucking,215 Skyhigh Sp D,Anthony,NM,88021,575-640-2287
Emr,10 Journey ,Los Lunas,NM,87031,505-804-6984
Pinky's Towing,4209 Quay Rd 63,Tucumcari,NM,88401,505-461-6001
W W Livestock,#2 Walter Road,Animas,NM,88020,505-548-2615
J&j Towing,615 Corbett,Truth Or Consequences,NM,87901,505-894-9759
C & S Livestock,7715 Broadway Se,Albuquerque,NM,87105,505-290-0717
Reed Livestock,Hcr 31 Box2a,Hatch,NM,87937,505-642-4704
Pepe's Trucking,413 Neptune Ct,Clovis,NM,88101,575-935-0250
Gambrel Enterprises,5185 Columbus Rd Se,Deming,NM,88030,505-546-4274
Cox Investments,County Rd A 037,Quemado,NM,87829,505-773-4821
Jackson Farm & Ranch,2525 N Aspen,Roswell,NM,88201,505-623-3469
Segura's Automotive And Towing,209 West Lisa Drive,Chaparral,NM,88081,575-824-4084
Russell Trucking,500 Shakespeare,Lordsburg,NM,88045,575-542-3282
Bogart's Towing Service,2210 S Valley,Las Cruces,NM,88005,505-524-0881
Balderrama Roustabout,605 E Dunnam,Hobbs,NM,88240,505-397-7606
Ralph's Welding & Dirt Work,3728 W Smith Lane,Hobbs,NM,88240,505-392-5017
D & D Dumping & Dirt,5600 Gregg's Nw,Albuquerque,NM,87120,505-550-0325
Ortiz & Son,House #1 Camino Epifiana,La Joya,NM,87562,505-990-1510
Sundown Recovery,1017 Hwy 70 West,Alamogordo,NM,88310,575-437-0500
Blue Moon Ranch,320 Jernigan St,Hobbs,NM,88240,575-738-9019
L & M Recovery,190 Choctaw Rd,Hagerman,NM,88232,575-752-0254
Gac Trucking,420 S Hallam,Hobbs,NM,88240,575-602-9853
Trident Oilfield Service,521 N Eddy,Lovington,NM,88260,575-399-0105
Jjj-t Enterprises,621 16th St,Alamogordo,NM,88310,517-507-0612
Get It Done,59 Swannack Rd,Vado,NM,88072,575-635-3746
Sunland Towing,1146 Mcnutt Rd,Sunland Park,NM,88007,915-342-7236
Aaa Moving,408 Utah St Se,Albuquerque,NM,87108,505-268-5800
Absw Refrigeration,3211 N Dal Paso,Hobbs,NM,88240,575-390-2116
Gutierrez Trucking,511 Barnett Dr,Roswell,NM,88203,505-622-8263
Mg T,8203 Diamond Circle,Las Cruces,NM,88012,928-897-4050
American Eagle Oil Service,301 E Albuquerque,Roswell,NM,88203,915-342-2048
Martinez K,101 Church St,Anthony,NM,88021,915-238-4427
Vm Metal Recycling,1908 Patton Rd Sw,Albuquerque,NM,87105,505-340-6752
S & S Trucking,700 Billie Ave,Farmington,NM,87401,505-716-1919
Eagle Eye Excavation LLC,414 N 8th St,Loving,NM,88256,575-745-2161
W B Trucking,13 Camino Cerrito,Glorieta,NM,87535,480-980-2655
Bruno Trucking,106 Cayote Canyon Dr,Gallup,NM,87305,505-863-6569
S C Trucking,837 Cr M,Clovis,NM,88101,575-762-8669
A & D Trucking,108 Rd 4599,Blanco,NM,87412,505-801-4613
Bump The Chute,204 Paloma Blanca,Chaparral,NM,88081,915-821-6430
Group Auto,4447 Kirk Lane,Albuquerque,NM,87121,505-722-0025
Transportes Marroquin,Barrio San Jose Calle Principal Zona 3,Teculutan,NM,87124,502-787-2601
Ortega Company,1001 Indiana St Se,Albuquerque,NM,87108,505-270-8366
One Fifty's Transport,2302 W Lea,Carlsbad,NM,88220,575-887-9675
Wolverines Service Station,121 Anderson,Texico,NM,88135,575-693-3825
Montano Septic Tank Pumping,3 Cielo Lindo,Santa Fe,NM,87507,505-470-7013
Full Throttle Trucking,2620 Richardson Ave,Artesia,NM,88210,575-513-2848
Kool Arrow Logistics,920 Monroe St,Anthony,NM,88021,915-407-3160
Affordable Delivery Solutions LLC,2200 Hubbell Circle Sw,Albuquerque,NM,87105,505-321-6261
Dea Trucking,1616 E Brady Ave,Clovis,NM,88101,575-749-1166
Woolen Transport,1807 College Ave,Alamogordo,NM,88310,575-491-1737
W & W Oilfield Services,1809 Thomason Rd,Carlsbad,NM,88220,517-507-0612
Tnmr,109 Texas Ave,Eunice,NM,88231,575-394-0108
Youngblood Welding,913 W Van Buren,Lovington,NM,88260,575-602-8553
Diamondback,2525 Nw County Road,Hobbs,NM,88240,770-205-0218
Community Connection Thrift Store,700 E 1st Street,Alamogordo,NM,88310,575-491-2638
Ariat Services LLC,3207 E Anderson Dr,Lovington,NM,88260,575-396-1734
Little J Transportation,1023 4th Street Sw Apt 1,Albuquerque,NM,87102,317-383-1418
Tank Mine & Oil Field Services,8647 Animas Pl Nw,Albuquerque,NM,87120,505-385-8796
Aero Services,212 West Wood Avenue Number 65,Carlsbad,NM,88220,575-369-5969
Munoz,601 S Ivie Ave,Farmington,NM,87401,505-327-7562
Sw Delivery Services LLC,709 Cr M,Clovis,NM,88101,575-693-4457
R R Guss Trucking,420 Garwood Street,Texico,NM,88135,575-693-5576
Q And V Backhoe Service LLC,3205 State Line B,Hobbs,NM,88240,575-390-8289
E & J Hotshot Services,1507 N Cochran St,Hobbs,NM,88240,575-605-1741
Transportes Pineda,109 Thaxton Ave Se,Albuquerque,NM,87102,505-435-3132
Nm Jc Roadisde,2914 Madison St Ne,Albuquerque,NM,87110,505-414-3440
Aj Trucking,5 Chimeso Road,Artesia,NM,88210,575-365-2356
Mrg Transport,2705 19th St-nw,Albuquerque,NM,87104,505-328-2459
Dominguez Trucking,621 Rocky Mountain Rd,Chaparral,NM,88081,915-526-5166
Ec Trucking,10 Cnty Rd B009a,Holman,NM,87723,505-718-6771
Rafter Jr Transport,State Road 115 Bldg 358b,Canjilon,NM,87515,575-684-2218
Wheelbarrel Express,457 Gorman St,Anthony,NM,88021,575-882-0561
Van Horn Trucking,201 S 5th St,Logan,NM,88426,575-487-0305
Kevin Taylor Trucking & Equipment,606 S 13th St,Lovington,NM,88260,575-396-2561
Guajiro Trucking,212 E Santa Anna Pl Apt G,Hobbs,NM,88240,786-566-8552
Elias Trucking,200 Weatherford St,Clovis,NM,88101,575-693-1223
Megaton Trucking Company,756 East Luna,Chaparral,NM,88081,575-824-0474
Elb Transportation,1001 Louisiana Blvd Se #19,Albuquerque,NM,87108,505-559-4275
Oz Trucking,950 W De Baca,Hobbs,NM,88242,575-631-6299
F Loya Trucking,1709 N Washington Ave,Roswell,NM,88201,575-420-3676
R & D Express,3361 Elkridge Ln,Las Cruces,NM,88005,575-635-0593
7b Movers & Hotshot,#77 County Road 7257,Bloomfield,NM,87413,505-215-6588
T5 Transport,1036 S Main,Las Cruces,NM,88005,575-649-6545
Medellin Trucking,111 -b Estancia,Vado,NM,88072,575-805-7696
4 Winns Trucking,3306 Hidalgo Rd,Carlsbad,NM,88220,575-706-3755
Advantage Dodge Chrysler Jeep,3200 East Main Street,Farmington,NM,87402,505-327-4424
Highway Transport,521 N Tennessee,Clovis,NM,88101,575-693-6520
La Joya Trucking,319 S 8th Steet,Jal,NM,88252,575-942-9176
J & H Trucking,17 Road 2974,Aztec,NM,87410,505-608-4780
Xlt Livestock,1122 Srrac,Portales,NM,88130,575-760-4895
Lt Plastic Recovery,7226 W Alabama,Hobbs,NM,88241,575-399-9172
Robert's Towing,4803 Aztec Rd Ne,Albuquerque,NM,87110,505-261-1909
Piggyback Freight,7201 Settlement Way Nw,Albuquerque,NM,87120,505-244-1420
Strevel Enterprises,3680 N Hwy 28,Las Cruces,NM,88005,575-644-6478
Juan Antonio Enriquez Farm Labor,103 Walnut Ct,Sunland Park,NM,88063,915-383-9997
Littlefield Trucking,810 W 16th St,Portales,NM,88130,575-562-0182
Ghost Rider,423 La Paz,Chaparral,NM,88081,915-329-8372
D Rochel & Sons,303 W Llano Drc,Hobbs,NM,88101,575-691-9352
Marios Trucking,7448 La Jara Rd,Santa Fe,NM,87507,505-501-9617
Jovanny's Trucking,1101 W Christopher Ln,Hobbs,NM,88240,915-497-9787
Howell Transportation,1412 Isleta Ct Ne,Rio Rancho,NM,87144,505-559-4275
Porras Trucking,1809 E Albertson Dr,Hobbs,NM,88240,575-391-0823
Ashley's Trucking,Mp16 5 Navajo Route 9,Brimhall,NM,87310,505-735-2247
One Way Oilfield Service,18 Langley Pl,Roswell,NM,88203,575-910-5403
S & J Trucking,9058 Socorro Road,Mesilla Park,NM,88047,575-312-2099
Venegas Trucking,868 County Rd B 2,Texico,NM,88135,575-607-5167
Dave's Towing,825 Mimbres St,Las Cruces,NM,88001,575-112-1795
Advantage Pumping & Rentals,521 W Dunnam,Hobbs,NM,88240,575-631-1646
Us Search And Rescue Det 1,1704 Monte Vista Corte,Alamogordo,NM,88310,210-834-2821
Precision Oilfield Services LLC,303 N 2nd St,Carlsbad,NM,88220,575-885-2333
M Reyes Trucking,760 Moonview Lane,Chaparral,NM,88081,915-217-9747
Spartan Auto Transport,5801 Taurus Ave Nw,Albuquerque,NM,87114,509-496-7407
Mercado 2 Hay Farms,308 Ristra St,Berino,NM,88024,915-238-2771
Eagles Trucking,6501 W Stiles Rd,Hobbs,NM,88242,575-441-5101
Macc Services,5927 Hwy 64 E,Farmington,NM,87401,202-521-1493
Top Gun Tools,7415 Arroyo Seco,Las Cruces,NM,88011,575-694-5600
J&l Trucking,3300 N Garden Ave,Roswell,NM,88201,575-910-4218
Jd Solutions Hot Shot,1008 Sandia Vista Rd Ne,Rio Rancho,NM,87144,505-269-0673
Vega Hotshotting LLC,7224 N Lovington Hwy,Hobbs,NM,88240,575-631-9278
Rl Trucking,6232 Se Main St,Roswell,NM,88203,575-347-7112
Fracmaster,503 S Behrend,Farmington,NM,87401,505-325-6005
Ruiz Transportation,409 Hamilton Pl,Carlsbad,NM,88220,575-706-3418
Southwest Express,910 Hess Terrace,Las Cruces,NM,88005,575-312-4658
M And B Gift Service And Trucking,1601 E Broadway St,Farmington,NM,87401,505-326-5500
Blue Moon Transport,1513 Osage Rd Sw,Albuquerque,NM,87105,505-659-5477
Hotshot Service,1205 West Polk,Lovington,NM,88260,575-396-5596
Champion Oil Field Service,1202 W Jefferson Ave,Lovington,NM,88260,575-935-0250
Marlene M Sanchez Or Ross Sanchez,18329 Us 84 285 Suite B,Espanola,NM,87532,505-747-0557
Jacee Livestock,2301 E Pine Lodge #1,Roswell,NM,88201,575-840-9544
Antonio's Trucking Company,411 Pershing,Gallup,NM,87301,760-859-6059
Jk Auto & Diesel LLC,5031 S Tidwell Rd,Carlsbad,NM,88220,575-200-5651
Rm Recycling,1510 W Amador,Las Cruces,NM,88001,575-405-1148
Felipe's Trucking,480 Fr Ramon Estiville,Salem,NM,87941,575-649-5698
Mogro Mobile Grocery,501 Halona St,Santa Fe,NM,87505,505-988-9715
M & K Trucking,2520 Wallace,Clovis,NM,88101,575-714-5596
Jubilee,1591 Pacheco St Bldg 2,Santa Fe,NM,87505,505-830-9255
De St Jean Trucking,9 Walker Ct,Edgewood,NM,87015,505-227-0679
Metal Wholesale Collection,402 North Compress,Las Cruces,NM,88005,575-635-5493
K & D Transportation & Logistics,1603 East 31st Street,Farmington,NM,87401,505-860-1520
Yungunz Hot Shot LLC,1020 W Caprock,Hobbs,NM,88240,575-263-6723
Quinlan Ranch,4056 Cerrillos,Santa Fe,NM,87507,505-424-5081
Custom Coatings,121 W 4th St,Clovis,NM,88101,888-769-6053
Salinas Trucking,1920 S Prince St,Clovis,NM,88101,575-749-4700
Drs Services,203 S 10th St,Carlsbad,NM,88220,575-689-5220
Pride Energy Services,2800 W Gum Ave,Lovington,NM,88260,575-441-7517
Wild Hare Trucking,3831 Suntrail Road Nw,Albuquerque,NM,87114,505-610-7153
S&a Transport,1726 Stanton Ave,Las Cruces,NM,88001,505-934-7110
Lecitroen Services,1005 Arroyo Lupine Circle Se,Albuquerque,NM,87116,719-306-2982
A & K Trucking,549 Adams Street Sp13,Hatch,NM,87937,575-642-1340
Iaj Trucking,603 South Union,Roswell,NM,88203,575-420-0640
Melrose Range,3771 Sundale Valley Road,Floyd,NM,88118,575-784-6660
Charles Lee Spencer,513 W College Blvd Apt A1,Roswell,NM,88201,312-508-5619
Los Aparicio Trucking,1529 W Ave F,Lovington,NM,88260,575-635-1891
Curry Trucking,500 9th St,Melrose,NM,88124,575-309-4252
Molina Brothers Oilfield Service,1401 E Navajo Dr # 1701,Hobbs,NM,88240,786-227-1771
Venegas Trucking,711 Ash St,Clovis,NM,88101,575-791-8064
A & T Trucking,1503 N Denson Dr,Hobbs,NM,88240,575-263-6616
A And S Transportations LLC,1032 California St Se,Albuquerque,NM,87108,505-800-2164
Harrison Transportation,69a Range Rd,Edgewood,NM,87015,505-559-4275
7 Lightning Transport,110 E Corbett #18,Hobbs,NM,88240,575-390-3691
Thompson Trucking LLC,20902 East Highway 60,Mountainair,NM,87036,505-710-9074
Evirotek,4 Kuleco Lane,Tijeras,NM,87059,505-681-2700
Nozoni Detail,10200 Acoma Se,Albuquerque,NM,87123,270-318-3111
Mcsi,33 Arrowhead Rd,Artesia,NM,88221,517-507-0612
Ace Pumping,1125 Old Coors,Albuquerque,NM,87105,505-871-1140
J & J Trucking,710 W Dogwood Ave,Lovington,NM,88260,575-399-1501
Beezed,10590 2nd Street Nw Suite C,Albuquerque,NM,87114,505-750-0807
"Cooper Excavation, Inc.",5214 Little Walnut Street,Silver City,NM,88061,575-313-4975
Manager,4625 Sioux Dr,Rio Rancho,NM,87144,505-800-8345
Ridiculous Six,1 Santa Fe Studio Rd,Santa Fe Nm,NM,87508,505-954-2535
Mayeq,895 Highlane Dr Nw,Deming,NM,88030,575-544-8339
International Schools,141 Quinella,Sunland Park,NM,88063,575-589-1414
Four Corners Security,203 East Ute,Farmington,NM,87401,505-327-9513
Big Bear Crane Service,2408 Yucca Dr,Silver City,NM,88062-2338,505-388-1840
Petersen Bros Livestock,2119 S Ave A,Portales,NM,88130,505-359-3295
Remco,4600 S Main St,Roswell,NM,88203,575-622-2381
Lat Express,4201 Cottonwood,Clovis,NM,88101,575-762-9152
"Cuatro Caminos, Inc.",314 Mitchell Ave Se,Albuquerque,NM,87105,505-877-7920
Amber Skies,6005 Harmony Ct,Las Cruces,NM,88012,575-382-5281
C W Marine,15 Road 3008,Aztec,NM,87410,505-334-6611
Runnen W Trucking,51 Shugart Rd,Gladstone,NM,88422,575-485-4563
Perry Trucking,6121 S Thomason Rd,Carlsbad,NM,88220,575-706-6420
Castaneda's Trucking,115 E Ave G,Lovington,NM,88260,575-396-8080
Tortilla Factory Bakery,105 E Mc Gaffey St,Roswell,NM,88203,575-627-3667
Dba Go Mini's,44 Marble Canyon Drive,Alamogordo,NM,88310,575-437-5499
Chaffin's Ranch And Rope Supply,1700 Juniper Dr,Milan,NM,87021,505-285-6608
Ww Enterprises Trucking,227 S Newby Lane,Bloomfield,NM,87413,505-632-0202
V And M Trucking,7502 N Valdez St,Hobbs,NM,88242,575-390-6066
I&r Trucking,220 South Avenue B,Hobbs,NM,88240,575-441-5961
Rocky Bottom Trucking,63 Road 5500 Number 42,Farmington,NM,87401,505-320-8353
Anthony Sand And Gravel,435 Joy Dr,Anthony,NM,88021,505-882-3474
Rim Lime,8720 Hatteras Pl Nw,Alburquerque,NM,87121,505-340-5682
Atc Transport,3845 Villa Serena Pl Sw,Albuquerque,NM,87121,505-480-9519
Tonico,316 Cr 4990,Bloomfield,NM,87413,505-215-4808
J & C Trucking,37 Red Rock Ct,Anthony,NM,88021,575-618-0167
Sundogz Logistics,620 W Joffre St,Truth Or Consequences,NM,87901,915-493-0878
Bb Trucking,11 Vista Parkway Circle,Roswell,NM,88201-5829,575-626-6843
Jd's Wrecker & Service Center,921 Texas Ave,Eunice,NM,88231,575-394-2742
Cmt Trucking,1500 W 18th St,Portales,NM,88130,575-218-6314
C Patterson Truckin',1342 Historic Rte 66,Tijeras,NM,87059,505-699-6588
Mendoza Transport,606 W Ave J,Lovington,NM,88260,575-396-2883
Seii Logistics,1521 Country Club Pl,Carlsbad,NM,88220,305-713-8363
Etl Logistics,100 W Gold,Hobbs,NM,88240,575-390-4502
Nemiga Transport,9615 Sundoro Pl Nw,Albuquerque,NM,87120,505-363-1587
Faster Horses Express,109 Esperanza,Mcintosh,NM,87032,505-263-2154
Southwest Propeller,12270 Fort Cummings Rd,Las Cruces,NM,88007,575-649-1932
R&r Auto Transport,1212 N Ohio Ave,Roswell,NM,88201,909-273-7586
Michael Justus Transport,1508 Pleasant Hill Hwy,Clovis,NM,88101,505-763-6943
Clay Wilhoit Trucking,1479 A S Rr 5,Portales,NM,88130,575-760-2338
A & A Trucking,98 Lloyd St,Belen,NM,87002,505-274-3971
Burris Trucking,569 A New Mexico 114,Elida,NM,88116,505-274-6361
Jds Trucking,2129 N Bensing Road,Hobbs,NM,88240,575-392-9892
D & B Trucking,316 N Cochran,Hobbs,NM,88240,575-393-2287
B & G Transport,102 Buena Vista,Sunland,NM,88063,915-861-3036
Erg Transport,861 Loma Hermosa Dr Nw,Albuquerque,NM,87105,505-639-3134
Epa Express,802 Audrey Nance Rd,Anthony,NM,88021,915-422-8857
Jicarita Hauling,1605 N Industrial,Lovington,NM,88260,575-263-1900
Rmrr Shipping,501 W 18th St,Clovis,NM,88101,636-251-0108
Montero Interprise,641 Alcazar St Se,Albuquerque,NM,87108,505-830-9255
Pete Vega Transport,2721 Wendell Rd Sw,Albuquerque,NM,87121,505-450-9658
P & M Hauling,375 Ranchitos Rd,Bosque Farms,NM,87068,505-550-0116
J & J Trucking,241 W Davis St,Salem,NM,87941,432-803-4942
Jaimie's Trucking,116 S Cecil St Trlr 3,Hobbs,NM,88240,575-390-1650
Bar Heart Transport,1100 10th Street,Magdalena,NM,87825,505-559-4275
On The Ball Hotshot Services,5209 Jack Daniels Rd,Hobbs,NM,88242,800-226-3696
Mb Road Runner Services,607 Angelica Ct,Santa Teresa,NM,88008,915-781-9780
E&m Services,3141 N Northwest Dr,Hobbs,NM,88240,575-441-3134
Safari Trucking,6816 Tesoro Pl Ne,Albuquerque,NM,87113,505-301-2739
Santa Fe Rockers And Trucking,23 Sibley Rd #b,Santa Fe,NM,87502,505-429-7928
Maiyo,3320 N Dal Paso 3l,Hobbs,NM,88240,763-639-5478
B & G Fence,11109 Pecos Sw,Albuquerque,NM,87121,505-836-0545
Lms Enterprises LLC,6110 Ensenada Way,Farmington,NM,87402,505-325-4951
Mann Pipe Co,894 Cr 3000,Aztec,NM,87410,505-325-4045
Medlock Trucking,168 Alkali,Carlsbad,NM,88220,417-926-8646
Usa Ranch,County Road 194 Canones House 136,Abiquiu,NM,87510,575-638-5434
El Paisano,3140 Cerrillos Rd Ste D-e,Santa Fe,NM,87505,505-204-5250
Kern Ranch,51 Highline Rd,Maxwell,NM,87728-0303,575-375-2969
John Leever,453 Rob Roy,Gallup,NM,87301,505-863-2001
Otl Recycling,1556 La Velle Rd,Alamogordo,NM,88310,575-439-6891
Buddys Home Furnishings,403 North Turner,Hobbs,NM,88240,575-393-7043
Quick Ship Diesel,3713 Rt 66,Moriarty,NM,87035,505-350-7028
Only Call Excavation & Hot Shot Services,238 Santiago Circle,Alto,NM,88312,575-686-9399
Mother Road Mobile Canning,1823 Commercial Street Ne,Albuquerque,NM,87102,505-235-2443
Desert Blooms,184 Osuna Rd Nw,Albuquerque,NM,87107,505-217-4546
Jay Walton Automotive,9401 Central Ave Ne,Albuquerque,NM,87123-2613,505-296-4816
Jose Diego Munoz,42 School Rd ,Arrey,NM,87930-0452,575-915-5344
Inside Ideas,2632 E Main,Farmington,NM,87401,505-326-0713
Mountain Oasis Water Conditioning,1015 Mechem Dr,Ruidoso,NM,88345,505-258-3646
"For Stars Catering, Inc.",5119 Warren Rd,Carlsbad,NM,88220,575-236-6612
Digitech Office Equipment,4310 Paseo Del Norte Ne D,Albuquerque,NM,87113,505-888-7575
Speedys Installers,1121 N Edwards St,Clovis,NM,88101,575-218-8270
Rosa Maria Torres,701 Camino Real ,Anthony,NM,88021,575-882-3900
E & A Transportation,5204 S Pennsylvania Ave,Roswell,NM,88203,575-415-2098
Andy Grice Trucking,10 Bullsnake Rd,Artesia,NM,88210,575-616-9033
Sanchez Trucking,620 Engler Rd,Las Cruces,NM,88007,575-644-8181
Carlsbad Express,2109 Hillcrest St,Carlsbad,NM,88220,559-901-9144
Rocking Yz Enterprises,350 Pine St,Bosque Farms,NM,87068,405-576-3188
Rl Trucking,1004 Bellamah Dr,Alamogordo,NM,88310,575-415-2185
Black Gold Oilfield Services,611 W Idaho,Jal,NM,88252,830-776-2512
Trade Match Network,9525 Arvilla Ave Ne,Albuquerque,NM,87111,505-298-8631
Ismarz Trucking,276 N 13th St Tlr 79,Artesia,NM,88210,575-386-2320
Fulton Trucking,401 North Kilgore,Portales,NM,88130,575-760-7261
Olvera Trucking,2625 Carriage Hills Rd,Garfield,NM,87936,575-343-0160
Evolution Transport,3116 21st Ave Se,Rio Rancho,NM,87124,505-206-7160
Ricky's Trucking,1785 Venadito Trl,Anthony,NM,88021,208-731-2275
L&s Transport Services,3600 N West County Road,Hobbs,NM,88240,575-263-5654
Yuiopa Transport,41 Windy Ridge Rd,Artesia,NM,88210,720-503-2473
Gilbert's Transport,523 N 4th St,Belen,NM,87002,505-553-1569
1 Tons Trucking LLC,8736 Spring Sage Ct Sw,Albuquerque,NM,87121-7750,505-850-7094
10 Tanker Air Carrier,3201 University Blvd Se Ste 102,Albuquerque,NM,87106,760-246-8288
101 Pipe & Casing,5609 Alameda Place,Albuquerque,NM,87113,505-343-1101
11 11 Transport LLC,2005 N 1st St,Lovington,NM,88260,575-704-4866
"111aerowest Helicopter Services, Inc.",7401 Paseo Del Volcan,Albuquerque,NM,87120,505-352-0950
13 Nails LLC,912 Highway 170,Farmington,NM,87401-8701,505-860-7884
18 Forward LLC,3904 Ringneck Dr,Las Cruces,NM,88001,575-640-0307
18 Transport LLC,5222 Pettes Blvd,Las Cruces,NM,88012,559-246-1465
1822 First Corporation,1822 First Street Nw,Albuquerque,NM,87102,505-766-9730
195 Trucking,120 Primavera Rd,Belen,NM,87002-8002,505-449-8752
1982 Logistics LLC,1200 Madeira Dr Se Apt 125,Albuquerque,NM,87108-4687,505-261-4290
1st Backhoe Services LLC,323 Hickman St,Hobbs,NM,88240,202-521-1493
1st Transport Services LLC,1435 N Gila Dr,Hobbs,NM,88240,575-605-9953
2 Boys Service & Trucking LLC,115 W Vega Dr,Hobbs,NM,88240-4441,575-200-8859
2 Bros Trucking,7611 N Rolling Meadows,Hobbs,NM,88242,575-399-6071
2 Guys Trucking LLC,806 N 2nd St,Lovington,NM,88260-3402,575-399-6016
2 Nations Trucking LLC,7306 Kevil Rd,Carlsbad,NM,88220,915-920-8787
2 Roads Services LLC,701 S 3rd St,Jal,NM,88252,505-231-1923
2 S Trucking LLC,1207 Hopi Rd,Carlsbad,NM,88220-8514,303-502-6480
22 Bar LLC,Po Box 31,Loving,NM,88256,575-499-3563
"22, Inc.",504 S Hull,Clovis,NM,88101,575-762-4422
24 7 Oilfield Services LLC,914 W Birch,Lovington,NM,88260,575-263-6042
"24 7 Service Supply, Inc.",1700 B Juniper St,Milan,NM,87021,505-287-9823
"24-7 Towing, Inc.",122 Frontage Road,Rio Rancho,NM,87124,505-896-9757
2b Transport LLC,607 W North Boundary Ave,Columbus,NM,88029,575-202-0727
2g Trucking LLC,2115 S Santa Monica St,Deming,NM,88030,575-639-8784
2kc Trucking LLC,1201 E Ave D,Lovington,NM,88260,575-631-7509
2nd Chance Trucking,524 Palisades Dr Sw,Albuquerque,NM,87105,505-369-9494
2r Transport LLC,19 Fairmont Ct,Hobbs,NM,88240-1083,575-605-2002
2r Transport LLC,19 Fairmont Court,Hobbs,NM,88240,575-241-6785
2r Trucking LLC,4332 W Brady Ave,Clovis,NM,88101,575-218-2054
3 Amigos LLC,732 Michigan Ste 520,Hobbs,NM,88240,575-942-2323
3 Angels Trucking LLC,9600 Central Ave Sw Trlr 104,Albuquerque,NM,87121,575-631-9431
3 Brother's Transport LLC,49 W Leman Rd,Lovington,NM,88260-8713,575-571-9311
Three Brothers,4733 2nd St Sw,Albuquerque,NM,87105,505-991-2566
3 Colts Services LLC,7325 S Eunice Hwy,Hobbs,NM,88240-9513,575-399-4810
3 G Well Service Company Llp,500 N Main,Roswell,NM,88201,575-627-2023
3 G's Logistics LLC,50 Tres Caballos,Mesquite,NM,88048,915-345-7453
3 Hp Services LLC,56 Ken St,Dexter,NM,88230-9537,575-910-9192
3 J's Logistics LLC,2548 Sentenario St,Anthony,NM,88021,575-888-7308
3 Js Trucking LLC,121 Roble,Sunland Park,NM,88063,915-256-5188
"3 K Trucking, Inc.",2018 S Globe,Portales,NM,88130,575-760-2663
3 Kings Trucking LLC,219 N Turner St,Hobbs,NM,88240,562-221-7059
3 Lulu's Trucking LLC,1213 W Mathews St,Roswell,NM,88203,575-910-4609
3 Of A Kind Trucking LLC,10808 Cenote Rd Sw,Albuquerque,NM,87121,505-553-8188
3 Pinos Trucking LLC,1610 E Katy Ln,Hobbs,NM,88242,575-602-2690
3 Pugs Running Hotshots LLC,5420 Yarrow Trail,Farmington,NM,87401,505-787-9087
3 Reyes Trucking LLC,2515 Horizon Rd,Lovington,NM,88260,575-942-9356
3 Rios Cattle LLC,868 Cr 8,Texico,NM,88135,575-760-1278
3 Star Trucking,1513 Osage Sw,Albuquerque,NM,87105,505-315-0123
3 T Trucking LLC,2900 Smith Ave,Clovis,NM,88101,575-309-4468
3-w Cattle Co,990 Cr 47,Broadview,NM,88112,575-456-8056
330 Mobile Home Transportation,2514 Marta Way Sw,Albuquerque,NM,87121,505-715-8927
365 Carriers LLC,5 San Mateo Ave,Los Lunas,NM,87031-5862,505-610-5799
369 Transport Services LLC,2323 N Juniper Ln,Hobbs,NM,88240-2544,575-964-4418
John Ortiz Dba 380 Auto,6470 Highway380 West ,Carrizozo,NM,88301,575-973-4870
3a Transport LLC,19 Carson City Rd,Dexter,NM,88230,575-915-4037
3c Logistics LLC,8375 Us Highway 380 8375 Us Hwy 380,Capitan,NM,88316,575-937-6466
3cs Trucking LLC,1695 Fornax Rd Se,Rio Rancho,NM,87124,845-300-3432
3e Energ Services LLC,1544 Yale Ln,Eunice,NM,88231,575-390-2266
"3e Energy Services, Inc.",640 Pioneer,Aztec,NM,87410,505-334-3662
3f Oilfield Services LLC,1909 Lanette Dr,Carlsbad,NM,88220,208-553-3121
"3hree C's Services, Inc.",506 Tierra Berrenda Dr,Roswell,NM,88201,575-317-2075
3j Trucking LLC,7225 Kevil Road,Carlsbad,NM,88220,575-689-8520
3 J's Toter And Hauling Services,1220 Sagebrush Dr Sw,Los Lunas,NM,87031-6180,505-301-2664
3kids Transport LLC,10404 Cartagena,Albuquerque,NM,87121,505-449-7414
3l Trucking LLC,23 Encino Rd,Belen,NM,87002,505-864-8179
3r Trucking LLC,808 W Chisum Ave,Artesia,NM,88210,575-513-1259
3rg Trucking LLC,1906 E Dunnam St,Hobbs,NM,88240,575-318-5200
3s Top Notch Transport LLC,1357 Sahara Desert Dr,Chaparral,NM,88081,432-232-6099
3y Trucking LLC,407 E Park St,Hobbs,NM,88240-5835,575-942-0661
4 A's Transport LLC,1020 N Platinum Ave,Deming,NM,88030,575-545-1571
4 Aces Trucking LLC,2033 Heritage Ln,Hobbs,NM,88240-2523,575-263-5064
4 Brothers Oilfield Services LLC,1218 W Jefferson Ave,Lovington,NM,88260-3243,575-704-6093
"4 Corners Well Service, Inc.",407 N Auburn,Farmington,NM,87401,505-860-3366
Dc Transport,117 Wood Ln,Ruidoso Downs,NM,88346,877-541-8771
"4 Daughters Land & Cattle Co, Inc.",3164 Hwy 47,Los Lunas,NM,87031,505-345-2694
4 E's Xpress LLC,625 Nowicki Lane Sw,Albuquerque,NM,87105,505-873-5606
4 Elements Oilfield Services LLC,5212 Sierra Vista Dr,Carlsbad,NM,88220,575-706-1970
4 Ever Trucking LLC,9 Rael Rd,Los Lunas,NM,87031-7179,505-417-2975
4 J's Towing & Recovery Service LLC,900 South Mounatin Road,Tucumcari,NM,88401,575-461-1801
4 N Trucking LLC,223 N Chicago Ave,Portales,NM,88130-5472,575-714-3301
4 Sons Logistics,9021 Benavides Rd Sw,Albuquerque,NM,87121,505-559-4275
"4 States Construction & Field Service, Inc.",5885 Penny Lane,Flora Vista,NM,87415,505-327-6534
"4-j Farm & Cattle, Inc.",1200 Cr W,Clovis,NM,88101,575-799-7580
4b Services LLC,8125 N Dal Paso,Hobbs,NM,88242,575-631-1242
4c Services LLC,16 Rio Lobo Rd,Artesia,NM,88210,505-362-8697
4d Transport LLC,26 Heath St,Artesia,NM,88210,575-513-0550
4jp Transport LLC,2103 Fulkerson Dr,Roswell,NM,88203-4129,575-637-4857
4k Trucking,2203 Ponder Ln,Lovington,NM,88260,505-441-8505
4p Services LLC,96 Sagebrush Valley Rd,Hagerman,NM,88232,575-914-5581
4v Trucking LLC,2101 N Orchid Dr,Hobbs,NM,88240-3151,575-241-9380
4x4 Transport LLC,906 N Gulf St,Hobbs,NM,88240,575-942-8607
5 Eagle Trucking LLC,955 Fair Acers,Las Cruces,NM,88033,575-649-3669
5 M And N Trucking LLC,188 Perimeter Rd,Moriarty,NM,87035,505-832-6444
50-50 Backhoe Service LLC,2110 W Bullock Ave,Artesia,NM,88210,575-308-8647
503 Trucking LLC,3313 Calle Nueva Vista,Santa Fe,NM,87507,702-612-3714
505 Cwi LLC,100 Mountain Park Place Suit C,Albuquerque,NM,87114,505-342-1000
505 Transports LLC,9828 Camino San Martin Sw,Albuquerque,NM,87121,505-688-8573
521 Trucking LLC,9664 Eagle Ranch Rd Nw Ste 6,Albuquerque,NM,87114,818-626-6769
575 Caballo LLC,1308 W Walterscheid Dr,Carlsbad,NM,88220,575-887-4048
575 Hauler LLC,1920 S Ruby St,Deming,NM,88030-6716,575-404-8505
575 Transport And Materials,2908 Opitz Rd,Anthony,NM,88021,915-345-9026
5972 Express Transport LLC,13170b Central Ave Se # 243,Albuquerque,NM,87123,505-269-9666
5d Farms LLC,4395 Alvarez Rd,La Union,NM,88021,575-882-0692
613 Laws Dedication LLC,2945 Solana Rd Sw,Deming,NM,88030-7481,561-225-7373
649 Logistics LLC,1493 Gadwall Rd Ne,Rio Rancho,NM,87144,N/A
66 Logistics LLC,2562 Red Sky St Sw,Los Lunas,NM,87031,505-492-8116
"7 H Cattle Feeders, Inc.",124 Kenton Hwy,Clayton,NM,88415-0220,575-374-2591
7 Rayos LLC,1202 W Church St Apt A,Carlsbad,NM,88220,786-804-7804
7 Trucking LLC,1910 Pearl St,Carlsbad,NM,88220,915-440-1455
8a Express LLC,119 N El Cerro Loop,Los Lunas,NM,87031,505-565-2863
90-nine Trucking LLC,918 S 2nd St,Lovington,NM,88260-5372,414-534-0498
911 Water Haulers LLC,202 W Avenue L,Lovington,NM,88260,575-659-9289
Trucking Company,9109 Sunridge Rd Sw,Albuquerque,NM,87121-8854,505-489-3188
A & A Brothers Transport LLC,7819 Desert Springs Ct Sw,Albuquerque,NM,87121,505-573-6121
"A & A Construction, Inc.",12041 Central,Albuquerque,NM,87105,505-203-3331
"A & A Towing, Inc.",26 Old Rt 66,Continental Divide,NM,87312,505-862-7114
A & A Transport LLC,26597 Us Highway 70,Ruidoso Downs,NM,88346,575-973-4834
A & B Trucking LLC,9400 Harbor Rd Nw,Albuquerque,NM,87121,505-900-2572
A & D Transport LLC,1118 S Main,Tatum,NM,88267,575-390-5247
A & E And Sons LLC,500 S Garwood St,Texico,NM,88135,575-329-2977
"A & E Oilfield Service, Inc.",319 N 8th Street,Hobbs,NM,88240,505-605-1587
A & E Perez Trucking LLC,809 Goff Blvd Sw,Albuquerque,NM,87105,505-267-9099
A & F Trucking,614 East Simith,Tucumcari,NM,88401,505-461-1486
A & G Logistic LLC,2502 N Selman St,Hobbs,NM,88240-2315,432-444-1810
A & J Global Solutions LLC,5055 Kensington Way,Las Cruces,NM,88012,575-649-2674
"A & J Steel Reinforcing Services, Inc.",12 Alva Acres Road,Los Lunas,NM,87031,505-861-2807
A & J Transport,212 Camino De La Merced,Taos,NM,87571,575-770-4441
A & J Transport Services LLC,2100 E Settlers Pass Apt 1038,Hobbs,NM,88240,575-200-7396
A & J Water Hauling LLC,23 W Burgess,Hobbs,NM,88242,575-399-2309
A & L Services LLC,7 Dove Ct,Artesia,NM,88210,806-930-1816
A & L Trucking,304 Pecos Street,Las Vegas,NM,87701,505-454-3831
"A & L Trucking, Inc.",1418 Livesay St,Anthony,NM,88021,915-355-5118
"A & M Machine Works, Inc.",501 North Grimes,Hobbs,NM,88240,575-397-3288
A & M Spooling LLC,1604 W Runyan Ave,Artesia,NM,88210,575-513-9216
"A & N Labor Contracting, Inc.",31751 Ruby,Deming,NM,88030,575-647-8680
A & R Transport LLC,2 Quailrun,Los Lunas,NM,87031,505-559-4275
A & S Construction,69 Los Cordovas,Taos,NM,87571,505-758-3097
"A & S Plumbing, Inc.",5720 Industry Way Se,Albuquerque,NM,87105,505-872-2897
A & S Trucking,7788 Donna,Hagerman,NM,88232,505-752-6602
A & T Deming Transportation LLC,4790 Country Club Rd Se,Deming,NM,88030,575-494-1605
A & V Mobile Home Transportation,2506 Isleta Blvd Sp # 7,Albuquerque,NM,87105,505-877-7219
A & Y Trucking LLC,8415 Highway 478 Trl,Vado,NM,88072,575-201-8283
Ryans Water Services LLC,7880 Nm 206,Portales,NM,88130,575-276-8778
A A D Trucking LLC,1714 W El Centro,Hobbs,NM,88240,575-441-8588
A A Gonzalez Trucking,115 W Provencio,Chamberino,NM,88027,575-882-5849
A A Transport LLC,6131 Cottontail Rd Ne,Rio Rancho,NM,87144,860-815-0728
A And C Trucking,37 Road 3950,Farmington,NM,87401,505-324-2004
A And G Trucking LLC,2109 Gun Club Rd Sw,Albuquerque,NM,87105,505-712-3883
A C & Company LLC,178 Paso Monte,Alto,NM,88312,575-336-4069
"A C Trucking, Inc.",1628 Veridian Se,Rio Rancho,NM,87124,505-897-4476
A Campos Trucking LLC,211 Shirk Ln Sw,Albuquerque,NM,87105-7539,505-236-8553
A Ceja Trucking LLC,509 E Tilden St,Roswell,NM,88203-7011,806-690-8136
"A D W H Transport, Inc.",7443 Roswell Hwy,Artesia,NM,88210,575-513-0825
A De La Rosa LLC,1560 Calle Cielo Vista,Bernalillo,NM,87004-9156,505-771-1556
"A Duran Trucking, Inc.",1194 Sichler Rd,Los Lunas,NM,87031,505-203-4577
A E Express Services LLC,605 E Copper Av,Hobbs,NM,88240,575-390-9620
A Fresquez Trucking LLC,78 Tunnel Springs Rd,Placitas,NM,87043-8831,505-917-7045
A G Freighting LLC,120 Gary Lee Ln,Las Cruces,NM,88007,575-343-5913
Ag Services,1216 Beard Rd,Hobbs,NM,88240,575-631-6127
A I M High Trucking LLC,1209 Camina Vega,Farmington,NM,87401,505-947-8545
"A J Produce Food Services, Inc.",202 Burke Dr,Gallup,NM,87301-5405,505-863-3844
A J Trucking,85 Spur,Clovis,NM,88101,575-693-8679
"A J Well Service, Inc.",1035 South Bloomfield Blvd,Bloomfield,NM,87413,505-634-1500
A K A Welding LLC,117 Wagonwheel Rd,Carlsbad,NM,88220,575-200-0910
A L J Craft Enterprises LLC,1360 Mesa Ridge Dr Sw,Los Lunas,NM,87031-6165,505-975-4839
A L L Transport LLC,4300 Silver Ave Se Ste C,Albuquerque,NM,87108,505-677-3114
A L Painting Coating Co,320 W Roxanna St,Hobbs,NM,88240,575-393-1276
A L Trucking Service LLC,6301 4th Street Suite 6,Albuquerque,NM,87107,505-850-8355
A Lightning Fast Recovery LLC,4233 Cutler Ave Ne,Albuquerque,NM,87110,505-245-7376
A Luna Transport LLC,1535 Lincoln St,Anthony,NM,88021,620-428-1407
A M Hispanic Woman Creating Solution,7401 Long View Drive Nw,Albuquerque,NM,87120,505-489-1193
"A M Trailer Leasing, Inc.",8715 Volcano Rd Nw,Albuquerque,NM,87121-7615,505-836-0413
A Plus Energy LLC,1315 E Highland Dr,Hobbs,NM,88240,432-208-8510
"Six Triangle, Inc.",3090 Quay Rd Az,House,NM,88121,505-279-7164
A R Trucking LLC,7878 New Mexico 206,Portales,NM,88130,575-631-9424
A R Trucking LLC,501 N Happy Valley Rd,Carlsbad,NM,88220-2821,575-361-2577
A S Energy LLC,523 W Avenue F,Lovington,NM,88260,575-704-2254
A S Hot Shot Service LLC,169 Cr 3100,Aztec,NM,87410,505-334-3850
A Saenz Trucking LLC,2284 Henry Lynch Rd Unit 1,Santa Fe,NM,87507-3390,505-310-3199
A To Z Trucking LLC,16 Road 3956,Farmington,NM,87401,505-592-1725
"A Tow Wrecker Service, Inc.",201 S Wooldridge,Roswell,NM,88202,505-623-2256
A V D Service Ltd Co,1110 Madison Ln,Farmington,NM,87401,505-564-8950
A V E Services LLC,1411 Beard St,Hobbs,NM,88240,505-699-0389
A Warrior Transport LLC,268 W Lisa Dr,Chaparral,NM,88081,915-493-5854
Rael Excavation & Co,33 So Kiowa Rd,Questa,NM,87556,505-751-1443
A&&l Trucking LLC,522 W Broadway St,Hobbs,NM,88240-6010,602-762-8497
A&a Hauling LLC,3058 San Lorenzo Ave,Las Cruces,NM,88007-1958,575-621-2491
A&a Transportation LLC,706 E Sanger St,Hobbs,NM,88240,575-399-1906
Guillermo Noriega,1324 Bonito Cir Sw,Albuquerque,NM,87105,505-377-8615
"A&c Automotive, Inc.",1550 W Picacho Ave,Las Cruces,NM,88005-2375,575-642-7237
A&e Holdings Group LLC,309 E Banburen St,Roswell,NM,88203,575-910-1668
A&e Hotshots LLC,10471 Calle Cordoba Nw,Albuquerque,NM,87114,505-702-9951
A&e Logistics LLC,13 Chimeso Rd,Artesia,NM,88210,575-616-1824
A&e Trucking LLC,1307 N Gulf St,Hobbs,NM,88240,575-608-4883
A&g Transporting LLC,10008 Bellevue Ct Nw,Albuquerque,NM,87114,817-258-5044
A&h Transports LLC,8209 Garnet Ave Sw,Albuquerque,NM,87121,505-721-8707
A&h Trucking LLC,5 Mockingbird Lane,Artesia,NM,88210,575-703-7617
A&k Production Services LLC,1419 N Pennington Dr,Hobbs,NM,88240-3624,575-942-4096
A&m Service LLC,113 W Castle Ave,Hobbs,NM,88240-7747,575-441-1444
A&m Transport LLC,516 2nd St Sw,Rio Rancho,NM,87124,517-507-0612
A&m Trucking LLC,1267 Valley View Dr Sw,Albuquerque,NM,87121,505-313-2563
A&p Trucking Co LLC,8206 Louisiana Blvd Ne Ste A # 1209,Albuquerque,NM,87113,520-470-9103
A&r Services LLC,1405 W Madison Ave,Lovington,NM,88260-3122,575-988-2765
A&r Transporting Services LLC,1444 Peppoli Loop Se,Rio Rancho,NM,87124,505-331-0728
A&r Trucking LLC,8201 N Tomlinson,Hobbs,NM,88242,575-942-4179
"A&s Trucking Of Abq, Inc.",4900 2nd Street Nw,Albuquerque,NM,87107,505-848-8029
A&w Transport LLC,1401 E Navajo Dr Apt 2707,Hobbs,NM,88240-9461,469-954-0250
A&y LLC,7 Coleman Terr,Belen,NM,87002,505-492-8380
"A-1 Quality Redi Mix, Inc.",1141 West Hwy 60,Socorro,NM,87801,575-835-2417
A-1 Transports LLC,1733 N Bensing Rd,Hobbs,NM,88240,575-602-9078
A-1 Wrecker Service Co,19 B Coal Basin Rd,Gallup,NM,87301,505-863-5788
A-b Trucking LLC,1609 Quay St,Carlsbad,NM,88220,575-725-3747
A-n-ap Trucking Limited Liablity Company,1207 E Cimarron Rd,Hobbs,NM,88240,470-955-6635
"A-plus Well Service, Inc.",3107 Bloomfield Highway Bldg B,Farmington,NM,87401,505-325-2627
"A-tech Air Conditioning, Inc.",550-b E Navajo,Hobbs,NM,88240,505-392-5307
A-zion Enterprises LLC,418 East Copper,Hobbs,NM,88240,575-602-1371
A1 & M Transport LLC,1427 Haston Rd,Carlsbad,NM,88220-8744,832-207-1935
A1 Solutions LLC,1812 E Marland St,Hobbs,NM,88240-6853,575-602-3600
A1 Team Trucking LLC,3121 Llano Vista Ct Ne,Rio Rancho,NM,87124,505-435-2261
A1 Transport Services LLC,4479 Country Club Rd,Santa Fe,NM,87507,505-795-0461
A2b Services LLC,209 W Rojo Dr,Hobbs,NM,88240,575-263-5483
A2z Professional Remodeling LLC,255 Derby,Sunland Park,NM,88063,202-521-1493
A3 & C LLC,236 Lincoln Ave,Clovis,NM,88101-5154,575-366-1197
A7 Services LLC,4426 W San Jose St,Hobbs,NM,88242,575-441-2802
Aa Brothers Trucking LLC,1101 Callaway Dr Apt 2108,Carlsbad,NM,88220-4290,786-559-2411
Aa Espino Transport LLC,20 Saint Michaels Ln,Los Lunas,NM,87031,505-830-9255
Aa Installations,1913 Hinkle St Se,Albuquerque,NM,87102,479-647-8879
Aa Towing LLC,1209 West Hadley Ave,Las Cruces,NM,88005,575-642-5350
Aa Transportation LLC,1004 Elm Blvd,Hobbs,NM,88240-7912,575-552-6747
Aaa Allied Septic Service LLC,2926 Rufina Ct Ste A,Santa Fe,NM,87507-2918,505-982-2242
Sprinter Vans Express,1520 Redondo Ct,Los Lunas,NM,87031,505-503-5357
Aaa Gas Company,3702 Highway 528,Rio Rancho,NM,87144,505-867-6616
"Aaa Pumping Service, Inc.",2855 2nd St Sw,Albuquerque,NM,87102,505-345-3965
Aaa Transport LLC,3702 Highway 528,Bernalillo,NM,87144,505-867-6616
Aaa Trucking LLC,9 E Darby Rd,Dexter,NM,88230-9775,575-910-7788
Aac Trucking LLC,1414 S 1st St,Lovington,NM,88260-5634,575-602-4188
Aadamgo Family Logistic LLC,1410 E Central Ave,Lovington,NM,88260,702-273-4650
Aaf Trucking LLC,1401 E Navajo Dr Apt 202,Hobbs,NM,88240,786-656-1403
New Mexico Kids Transport,2200 Rancho Oro Avenue,Rio Rancho,NM,87124,505-926-0400
Aai Transport LLC,3 Road 5457,Farmington,NM,87401,505-402-4968
Aam Freight LLC,525 California St Se,Albuquerque,NM,87108-3703,505-231-4515
Rock Spring Transport,860 Cr 3000,Aztec,NM,87410,505-860-3366
Aa Transport,4205 Hermia Ct,Las Cruces,NM,88011,575-636-3076
Aaron Brothers Resources LLC,1728 C Abrazo Rd Ne,Rio Rancho,NM,87144,505-867-5594
A M & J Trucking,302 Coronado Ct Se,Rio Rancho,NM,87124,505-315-7014
Aaron J Mendoza,2908 W 23rd St,Roswell,NM,88201,575-914-5678
Blackwater Transport,4000 Jesse James Ct,Carlsbad,NM,88220,575-706-8373
Aaron Ortiz Trucking LLC,311 Grove St Ne,Albuquerque,NM,87108,505-249-4992
S & R Trucking,826 Dolly Sw,Albuquerque,NM,87105,505-873-7789
Travis Law Trucking,Us 84 House 19936,Hernandez,NM,87537,505-927-7528
Wild Horse Trucking,Cr 4907 #17,Bloomfield,NM,87413,202-521-1493
Aashpo Trucking LLC,1101 E Yucca Dr,Hobbs,NM,88240,915-490-1365
Ab Chovys Transport LLC,227 Deer Grass Ln,Chaparral,NM,88081,915-276-1035
Ab Hera's Company LLC,6966 Clarck Hills Dr Ne,Rio Rancho,NM,87144,505-307-9896
"Ab Kitchen Cabinets, Inc.",2812 N Lovington Hwy,Hobbs,NM,88240,575-964-2131
Abad Romero Excavating & Trenching,Romero's West Road 39,Ranchos De Taos,NM,87557,505-758-1230
Abbott Bros Rat Hole Service,1923 West Bender,Hobbs,NM,88240,575-393-8228
Abby Trucking,5902 Moon View Dr,Las Cruces,NM,88012-9009,915-861-4005
"Abc Septic Systems, Inc.",1004 South Lake,Farmington,NM,87401,505-325-8289
Abc Trucking LLC,3821 National Parks Hwy Apt B203,Carlsbad,NM,88220-5960,575-499-7240
Lama Junction Sawmill,Hwy 522 1975,Questa,NM,87556,505-586-1084
Moreno's Oilfield Service,1305 W Ave I,Lovington,NM,88260,575-704-7082
Aldana Installation,4249 Cottonwood Dr,Clovis,NM,88101-9698,208-970-2291
Aragon Transport,9101 Calle Miguela,Santa Fe,NM,87501,505-480-3647
Abel Aragon,209 South Elder,Tucumcari,NM,88401,505-461-0348
Abel Carreno Mejia,110 N Avenue C,Hobbs,NM,88240,832-526-3650
Aaa Trucking,204 Kennel Ln,Carlsbad,NM,88220,575-725-8802
A-ok Trucking,4285 Elks Rd,Las Cruces,NM,88007,505-525-1384
Garcia Sand & Gravel,519 Niagra Ne,Albuquerque,NM,87113,505-344-8144
Carports,2410 E Aztec Ave B26,Gallup,NM,87301,505-488-3126
Abel Trucking LLC,1515 E Scharbauer St Apt 802,Hobbs,NM,88240-5383,575-605-8902
Bma Trucking,113 W Castle St,Hobbs,NM,88241,505-393-1109
Gonzalez & Sons Trucking,9916 Sun Chaser Tr Sw,Albuquerque,NM,87121,505-270-8745
Abels Trucking,1509 N Tasker Dr,Hobbs,NM,88240,575-393-5146
Roadrunner Trucking,162 Van Camp,Los Lunas,NM,87031,505-866-4885
Transporte Rodriguez,712 Country Side,Carlsbad,NM,88220,575-706-8221
Abg Transport LLC,716 North Lucas,Columbus,NM,88029,575-649-5194
Abilene Transport LLC,1301 Highway 228,Mesquite,NM,88048,575-635-7514
Abiquiu Sand And Gravel,20963 Us 84 ,Abiquiu,NM,87510-0809,505-685-4666
Aborn Transport LLC,3800 Gun Club Rd Sw,Albuquerque,NM,87121,505-280-0838
Above All Trucking LLC,9900 Stoughton Pl Nw,Albuquerque,NM,87114,505-903-4090
"Abq Express Cartage, Inc.",2400 Alamo Se # 110,Albuquerque,NM,87106,505-851-5111
Abq Madrid Trucking LLC,7131 Balearic Ave Sw,Albuquerque,NM,87121,505-415-8788
Abq Transport LLC,119 Riley Ave,Rio Comm,NM,87002,505-339-7691
Abq Transport LLC,3008 11th St Nw,Albuquerque,NM,87107,505-588-8013
Abq Trucking LLC,1524 Golf Course Rd Se,Rio Rancho,NM,87124,505-974-5528
Abraham Delgado,929 Steve Dr,Chaparral,NM,88081,915-255-5811
Abrahams Trucking,2560 Capital St,Chaparral,NM,88081,575-619-0130
Insurance Salvage Transport,4400 Broadway Se,Albuquerque,NM,87105,505-873-0788
Cobra Apm Transport,972 Maria Elena,Bernalillo,NM,87004,505-238-6419
"Ac Disposal Services, Inc.",951 Curman Rd,Los Lunas,NM,87031,505-681-9409
Ac Trucking,207 Fentiman Place Se,Albuquerque,NM,87105,505-203-0913
Aca Transport LLC,2426 N Selman St,Hobbs,NM,88240-2319,305-240-1399
Acacia LLC,804 W Mackenzie Dr,Hobbs,NM,88240-4821,575-703-7237
Acc Health,901 Lamberton Pl Ne Ste W,Albuquerque,NM,87107,505-323-1300
"Access Point Delivery Systems, Inc.","200 W. 1st. Street, Suite 110",Roswell,NM,88203,575-317-6511
Accublock,937 Maria Elena,Bernalillo,NM,87004,505-867-4280
Acd Oilfield Services LLC,719 W Avenue J,Lovington,NM,88260,505-396-7264
"Ace Car Carriers, Inc.",# 9 Cr 5457,Farmington,NM,87401,505-598-6154
Ace Electrical & Construction,3502 1/2 Cook,T Or C,NM,87901,505-894-3205
Ace Freightline,332 Luna Azul Dr,Chaparral,NM,88081,915-226-5031
Ace J Mosimann Mfg,3 Miles E Hwy 64/87 35257,Raton,NM,87740,575-445-3981
"Ace Metal, Inc.",5515 Broadway Se,Albuquerque,NM,87190,505-877-1092
Aceues Trucking,10300 Pasofino Pl Sw,Albuquerque,NM,87121,505-839-3864
Acevedo Trucking LLC,1704 S Thorp St,Hobbs,NM,88240,620-621-1892
Acl Transport LLC,4120 Luna Rd Se,Deming,NM,88030,575-649-5013
Acme Transport,340 West Taylor Road,Las Cruces,NM,88007,575-650-9101
Acoma Business Enterprises,P.o. Box 310,Acoma,NM,87034,505-280-3184
C & C Trucking,3925 Ruffin Ave Sw,Albuquerque,NM,87105,505-249-2046
"Acosta Equipment, Inc.",Nw Frontage Rd,San Acacia,NM,87831,505-835-3961
Acosta Transport LLC,25 La Ladera Rd,Los Lunas,NM,87031,432-653-9526
Acosta Trucking,8509 Vista Chamisa Ln Sw,Albuquerque,NM,87121,505-831-2322
Acosta Trucking,9301 Volcano Rd Nw #44,Albuquerque,NM,87121,505-341-3923
Acr Mechanics LLC,1600 Marquis Ln,Hobbs,NM,88240,575-408-2453
