Company Name,Street Address,Address Locality,Address Region,Postal Code,Telephone
Osorto Trucking,1116 S Rockwell,New Castle,OK,73065,405-514-0598
The Tow Man,21 N Janette,Kiefer,OK,74041,918-322-3939
A & A Transport Services,2809 E Shantel Smith Blvd,Muldrow,OK,74948,479-696-9212
Kelly's Trucking,4684 N Pennsylvania Ave,Cresent,OK,73028,405-969-2723
Predator Hot Shot Services,705 N Country Club Terr,Mustang,OK,73064,405-640-2595
C & M Hauling,Highway 281 South,Waynoka,OK,73860,580-824-9881
Larry Forsythe Trucking,7183 N Dillard Rd,Wilson,OK,73463,580-668-3371
Barnett Trucking,2779 E 60th St N,Muskogee,OK,74403,918-869-1935
Precision Transport And Technologies,2826 E 116th Str N,Sperry,OK,74073,918-850-6030
Pinon Trucking,614 Donna Drive,Guymon,OK,73942,580-338-4244
Imperial Transport LLC,10681 Nw 107th St,Yukon,OK,73099,405-283-0698
K D L M Trucking,36814 S 690 Road,Jay,OK,74346,918-840-0064
Dunnam Transport,7021 Sw 95th Street,Oklahoma City,OK,73169,405-745-4132
Midland Carriers,2545 E Waterloo Rd,Edmond,OK,73034,405-330-4733
Kendall Brothers Express,21 Kimberlys Way,Lawton,OK,73507,580-492-5767
R Winch Trucking,444656 E 160 Rd,Bluejacket,OK,74333,918-784-2376
Bill's Hot Shot Trnsport & Trailer Repair,22720 E Britton Road,Harrah,OK,73045,405-454-2963
P S Direct Express,702 S 129th East Ave,Tulsa,OK,74108,918-938-6584
D & S Trucking,1106 E Donkey Lane,Marlow,OK,73055,580-641-0134
Morton's Rig Service,217 W Main St,Sperry,OK,74073,918-288-7736
Blue Money Express,27312 East Chestnut,Billings,OK,74630,580-725-3201
Blue Heeler Trucking,33750 S 583 Road,Jay,OK,74346,918-787-9052
J G Trucking,1724 Madison,Woodward,OK,73801,580-256-1412
Total Oilfield Services,1836 West Countyline Rd,Countyline,OK,73425,580-444-3302
Twin Transport,319 Dogwood Lane,Enid,OK,73703,580-348-0900
J R Expressions,9322 North 138th East Avenue,Owasso,OK,74055,918-274-1867
Pab Moving And Storage,1700 N Main Street,Noble,OK,73068,405-872-1220
Robert Morphew Trucking,311 Mimosa,Broken Bow,OK,74728,870-584-8428
Double R Hotshot,523 East Beech,Lexington,OK,73051,405-527-6427
Smith Mobile Home Service,1600 E Highway 3,Atoka,OK,74525,580-239-1976
Cross Country Logistics,R R 1 Box 142,Hobart,OK,73651,580-530-1529
Parker Trucking,24928 N Co Rd 3057,Foster,OK,73434,405-444-0820
Snows Trucking,Rt 1 Box 319,Garvin,OK,74736,580-286-1423
Csi,12130 Sw 3rd Street,Yukon,OK,73099,405-514-8372
Dragon Logistics,17808 E Country Drive,Inola,OK,74036,918-636-1590
Dj Transportation,415 Sw Sheridan Road,Lawton,OK,73505,580-591-1090
Pup And Kelly's Hauling,7451 S 645 Rd,Quapaw,OK,74363,918-542-2846
K-k Trucking,47409 Us Hwy 59,Hodgen,OK,74939,918-721-4222
Deer Creek Hot Shot Services,1186 County Road 1610,Marlow,OK,73055,580-658-2315
Ankney Trucking,317 East Johnson,Mangum,OK,73554,580-782-2944
Cf Trucking,3 Shad Dr,Elgin,OK,73538,580-492-4169
Hughes Specialty Services,11948 N 1960 Rd,Sayre,OK,73662,580-821-9900
Rodeo Express,Rr2 Box 948,Checotah,OK,74426,918-230-1976
Davenport Trucking,15254 S 4300 Rd,Vinita,OK,74301,918-273-5514
Agape Hot Shot,Rt 2 Box 433,Watts,OK,74964,918-422-5402
Tack Trucking,354467 E 1040 Road,Prague,OK,74864,405-567-0039
C & A Chavez Trucking,18888 E 1260 Rd,Sayre,OK,73662,580-729-1397
Reliable Trash Service,Rt 3 Box 1325,Westville,OK,74965,918-723-4518
S & S Logistics,477130 E 1085 Rd,Roland,OK,74954,918-427-6498
Lipari Trucking,31635 Hardesty Rd,Shawnee,OK,74801,405-878-0520
Vita Transport,2009 Se 5th Street,Moore,OK,73160,602-326-0092
Halls Hydraulic & Welding Service,105 E Ridgecrest Rd,Altus,OK,73521,580-482-4001
S C & J Hotshot Service,207 Spruce,Okeene,OK,73763,580-227-3128
Eze Delivery Services,2728 Nw 168th Terrace,Edmond,OK,73012,209-752-9460
Flores Trucking,1303 N Elm St,Guymon,OK,73942,158-033-8451
Meco Field Services,402 Douglas Ave,Beaver,OK,73932,580-625-4441
Ricky Chandler Trucking,20 Sw Eagletown Avenue,Eagletown,OK,74734,580-835-2291
Texoma Moving,3006 Prestonwood Circle,Durant,OK,74701,580-916-5848
Red Bud Filter Sales & Service,5455 S 99 E Ave,Tulsa,OK,74146,918-627-4106
Pendergraft Well Service,118 N College,Gould,OK,73544,580-676-3281
Cmc Transport,40164 N 3944 Road,Skiatook,OK,74070,918-693-2648
Sparlin Transportation,10922 N Memorial Dr,Owasso,OK,74055,918-951-4199
Global Artificial Lift & Globalserv,10912 State Hiway 99,Hominy,OK,74035,432-694-8500
National Hauling,36251 S 565 Road,Jay,OK,74346,918-791-1335
"Robs Auto Sales, Inc.",700 E Rogers Blvd,Skiatook,OK,74070,918-396-3113
Clark Grave Services,Route 1 Box 58,Chattanooga,OK,73528,580-597-2218
R&p Hotshot Service,10633 E 34th Pl,Tulsa,OK,74146,918-664-6633
K & M Wrecking,4920 Sw 134th St,Oklahoma City,OK,73173,405-691-5100
Stewart Trucking,Rt 2 Box 181,Hydro,OK,73048,580-774-8481
Mears Hotshot Delivery Service,11378 N 120th E Ave,Owasso,OK,74055,918-851-8021
D & S Transport,3155 East 2105 Road,Hugo,OK,74743,580-317-6433
Paloma's Trucking,1713 N James,Guymon,OK,73942,580-461-3229
Mack Ray's Trucking,318 Mustang Rd,Tuttle,OK,73089,405-424-2680
Chase Transport,5148 East 36th Street,Tulsa,OK,74135,918-779-4565
Graves Trucking,20459 State Hwy 19,Blair,OK,73526,580-563-9446
Ebi Trucking,4119 Blaylock Dr,Woodward,OK,73801,580-256-1335
Rickner Livestock Co,51250 W 91st Street S,Drumright,OK,74030,918-398-1286
Flying R Trucking,29 Cecilia Rd,Mcalester,OK,74501,918-742-5060
L B Trucking,21609 W 14th St,Sand Springs,OK,74063,918-245-0051
Seward's Hot Shot Service,349376 E 990 Rd,Sparks,OK,74869,405-258-8387
Reignbow Charter Service,2805 Kingston Rd,Ponca City,OK,74604,580-491-9625
Ms Field Services,929 N Birch,Ponca City,OK,74601,580-718-5254
Givens Wrecker Service,1212 West 5th Street,Elk City,OK,73644,580-225-7989
Floyd Equipment Service,476038 E 1130 Rd,Muldrow,OK,74948,918-427-5605
Notifygibson Trucking,32285 S 210th Road,Henryetta,OK,74437,918-650-9886
Richard Duncan Trucking,25021 Cr 1260,Gracemont,OK,73042,405-966-2229
Sturgis & Sturgis,911 East Windy Lane,Lane,OK,74555,580-889-3002
C And J Trucking,8431 Nw Wolf Rd,Lawton,OK,73507,580-512-2916
All Service Repairs,911 W Division St,Henryetta,OK,74437,918-845-3782
Robinson Salvage & Firewood Service,502 E 2nd St,Shamrock,OK,74068,918-352-9100
Winton Auto Service,227 E Hwy 70,Waurika,OK,73573,580-228-2147
Smv,Hc 68 Box 473,Checotah,OK,74426,918-360-3608
Richie Trucking,18541 S 96th St,Lexington,OK,73051,928-642-8502
Wrecker Service,4450 St Hwy 199,Ardmore,OK,73401,580-223-9000
Freds Border Ii Border Transportation Service,12414 Abbott Way,Oklahoma City,OK,73142,405-206-0816
4 L Plus Transportation,113 Central Drive,Sayre,OK,73662,580-928-0185
2r Livestock & Trucking,25770 Lariat Rd,Morrison,OK,73061,405-880-7252
S & S Trucking,207 S Osage,Dewey,OK,74029,620-640-5295
Chaffin's Pet Food,648 North Coal County Road,Lehigh,OK,74556,580-239-2578
Los Sauces Nay Express,11751 Se 157th St,Oklahoma City,OK,73165,405-243-8410
Top Of The World Trucking,4107 Coventry Lane,Norman,OK,73070,405-928-5959
Team G Cattle Company,13881 E County Road 1522,Lindsay,OK,73052,405-756-6842
K&j Farms,22006 Cedar Rd,Poteau,OK,74953,918-647-9500
Dodson Trucking,Rt 2 Box 51,Leedey,OK,73654,580-445-1485
La Sierra Trucking,606 Hillcrest Dr,Guymon,OK,73945,580-651-2109
Matano Transportation,2304 N Mckinley Ave,Oklahoma City,OK,73107,818-269-5028
Tornado Xpress Delivery,6309 Wildewood Dr,Oklahoma City,OK,73105,405-842-0931
Anderson Farms,223 Mcclure Circle,Burneyville,OK,73430,580-276-9987
Kj Trucking,8421 South Ft Road,El Reno,OK,73036,405-488-5478
Welding,2394 Wheeler Rd,Valliant,OK,74764,580-212-9019
A E Bishop Trucking,122 N Oklahoma,Guymon,OK,73942,580-338-6155
Michael Hamm Trucking,1601 E Garriott,Enid,OK,73701,580-747-5876
Rml Services,1023 County Street 2943,Tuttle,OK,73089,405-381-3675
Eagle Trucking Company,9636 N May Avenue Unit 200,Oklahoma City,OK,73120,626-722-3882
Tavares Trucking,14108 E 86th Ct N,Owasso,OK,74055,918-376-2965
H & H Dirt Service,3300 E Mountain Rd,Bartlesville,OK,74003,918-766-6051
R & R Trucking,511 N 7th Ave,Fairview,OK,73737,405-632-1081
Mcdonald Tire Service,613 Lowe,Braman,OK,74632,405-880-2315
Clark's Digging Service,310 South 7th Street,Hugo,OK,74743,580-326-2338
Stallion Transport,1902 E Locust,Enid,OK,73701,405-375-6397
Big Hotshots Haulin,2035 Country Rd 2400,Barnsdall,OK,74002,918-857-6381
R J Contracting,500 W Chickasaw,Clayton,OK,74536,918-569-4176
White's Trucking,100 S Hill,Poteau,OK,74953,918-649-5681
Oneok Field Services Co LLC,100 West 5th Street,Tusla,OK,74103,918-588-7703
2c Trucking,Ns 160 Ew13,Knowles,OK,73844,580-934-2079
Bb & C Transport,25661 S 607 Lane,Grove,OK,74344,918-786-6020
C & C Well Service,517 Cherokee Ave,Nowata,OK,74048,918-273-9995
Carla And Sons,315 W Division,Union City,OK,73090,405-213-7391
Hri Trucking,3202 South Joplin Avenue,Tulsa,OK,74135,918-902-4355
Tiger Auto Sales,1316 N Main St,Guymon,OK,73942,580-338-5400
Hinkle Trucking,396701 W 100 Road,Copan,OK,74022,918-766-4317
Kirton Trucking,Rural Route 2 Box 212,Balko,OK,73931,580-361-2291
C & A Trucking,24015 W 103rd St South,Sapulpa,OK,74067,918-527-5828
"Square P Transport, Inc.",830189 S 3540 Rd,Stroud,OK,74079,918-968-0394
Tom Payne Trucking,1407 Westwood Rd,Enid,OK,73703,N/A
A & M Cargo And Freight,9211 North Council Road #735,Oklahoma City,OK,73132,405-728-2443
R & S Underwood,3701 S Riverside Dr,Tulsa,OK,74105,918-809-7442
Mand Produce,115 North Wikoff,Watonga,OK,73772,551-697-4489
Mike Barnes Trucking,202 West Barclay,Henryetta,OK,74437,918-652-7191
David Belknap Trucking,Hc 62 Box 167,Smithville,OK,74957,580-244-3337
4j Trucking,402 S Kemp,Kingston,OK,73439,580-564-7938
Rod's Production Services,17563 Rt 66 South,Erick,OK,73645,580-526-3515
Fords Welding Service,30777 B South Hwy 2,Kinta,OK,74552,918-768-3588
Br Eggers Trucking,912 North Lelia,Guymon,OK,73942,580-338-5669
John T Marcum Trucking,219 Spring Ave,Sallisaw,OK,74955,815-319-0432
B O B Services LLC,Rt 4 Box 854,Coalgate,OK,74538,580-927-3168
Just Another Hot Shot,9921 Sw 36th St,Yukon,OK,73099,580-370-9392
Diamond W Trucking,Rt 3 Box 98 W,Okemah,OK,74859,918-623-6622
K & D Trucking,511 W Main St,Henryetta,OK,73064,918-652-2361
Four Feathers Transport And Construction,1140 Nw 63rd Street Suite 410,Okla City,OK,73118,405-848-3470
Bill's Marine & Auto,567 N Main,Ketchum,OK,74349,918-782-1401
Joe's Trucking,202 E 1st St,Owasso,OK,74055,918-938-3176
Jl Trucking,1436 N Key,Guymon,OK,73942,806-339-4229
Walker Trucking,112 W 4th,Gate,OK,73844,405-334-9348
5 Culvers Trucking,430856 E Hwy 60 Lot#3,Vinita,OK,74301,918-550-9077
Maple Trucking,3701 E 11th Pl,Tulsa,OK,74112,918-895-9096
Kw Trailer Transport,118 S Seminole,Wewoka,OK,74884,405-257-3000
Brk Services,1009 Pierce Ave Nw,Piedmont,OK,73078,405-373-9263
Hutton Trucking,224 East Main,Holdenville,OK,74848,800-359-5075
Johnson Field Service,Rt 4 Box 1305,Checotah Ok,OK,74426,918-680-2663
R & S Distributors,606 Ne 3rd,Guymon,OK,73942,580-461-0396
R & R Trucking,Rt 1 Box 37a,Geary,OK,73040,405-884-2730
Wrc Construction Services,502 S Hwy 81,Duncan,OK,73533,580-252-9282
N D N Trucking,Rt 5 Box 6228,Stilwell,OK,74960,918-696-3331
Sbs Transportation,239 Se 4439 Loop,Salina,OK,74365,918-990-0707
Double J Farms,915 N 3rd,Sayre,OK,73662,580-928-8944
E Mangold Trucking,1209 S Mockingbird Lane,Skiatook,OK,74070,918-798-5725
Bode Trucking,43751 W Highway 51,Jennings,OK,74038,918-865-3083
Maxwell Trucking,602 W Sandy Rd,Atoka,OK,74525,580-364-4361
Reliable Transport Services,2009 S Sweet Gum Ave,Broken Arrow,OK,74012,918-381-7690
Two Men And A Truck,613 Sw 112th Street,Oklahoma City,OK,73170,314-267-0737
Old Fashioned Trucking,820 N Howse St,Altus,OK,73521,580-301-2756
L H Trucking,2952 East Flynn Street,Alva,OK,73717,580-829-1412
Dearman Trucking,9488 S Hwy 48,Manford,OK,74044,940-357-9239
N1-accord Transport,400 N Hinckley,Holdenville,OK,74848,405-379-3290
Tarkington Construction,22118 Pecan Lane,Cameron,OK,74932,918-654-7237
Kabod Transport,612 Hickory Ave,Yukon,OK,73099,405-822-9173
Lierle Cattle Service,Rt 2 Box 236,Fort Cobb,OK,73038,405-206-5551
Triple R Trucking,Rr 1 Box 151,Vian,OK,74962,918-773-3033
2-t Hotshot Co,9813 Sw 140th,Wilburton,OK,74578,918-429-6500
C&j Services,First And Houser,Vici,OK,73859,580-216-2333
Bar-dew Transport,1329 Sw Jennings,Bartlesville,OK,74003,918-574-5795
Steve Campbell Welding Service,Rural Route 5 Box 16497,Eufaula,OK,74432,580-819-1075
La Auto Imports,500 Se 55th,Oklahoma City,OK,73129,405-670-6700
Cdc Trucking,16604 Ncr 3054,Lindsay,OK,73052,405-756-6515
Mike Berry Cotton Transport Co,1509 West Broadway,Altus,OK,73522,580-482-3336
Jeff's Transports,732 Fourth Ave,Cartwright,OK,74731,580-230-9647
Wright Trucking,8037 Nw 114th Street,Oklahoma City,OK,73162,405-721-7899
C D Schroeder Express,14900 W Britton Rd,Yukon,OK,73099,405-354-2171
Mid-states Trucking,19742 West Highway #33,Sapulpa,OK,74066,918-247-6007
Doug Jester Trucking,5933 Nw 5th,Okc,OK,73127,405-603-8288
Km Oil Field Services,1023 E Tyler St,Mangum,OK,73554,580-782-3596
Tramell Trucking,1746 Sims Rd,Colbert,OK,74733,903-271-0266
Hartman Livestock,444752 E 60 Rd,Welch,OK,74369,918-788-3873
Llr Transports,3820 Cobble Cir,Norman,OK,73072,405-701-8013
Bickels Hot Shot Service,19800 Se 92nd,Newalla,OK,74857,405-386-4948
Toliver Trucking,301 N Main,Sapulpa,OK,74066,918-224-3437
Morse Livestock,5828 Cr 1520,Stratford,OK,74872,580-759-3557
Bob & Son Trucking,11728 E 18th St,Tulsa,OK,74128,918-814-6103
Flying W Transportation,Rt 2 Box 275,Watts,OK,74964,918-422-0044
Longoria's Trucking,1436 N Key,Guymon,OK,73942,580-338-1924
B A S S Bass And Sons Shipping,221 South Brown Street,Vinita,OK,74301,918-256-4385
Watashe Trucking,6325 South 155th West Avenue,Sapulpa,OK,74066,918-543-8076
Conley Trucking,Highway Contract 62 Box 65,Smithville,OK,74957,580-244-3410
Dba Bowen Trucking,316 So Walnut,Fargo,OK,73840,580-216-1628
Williamson Trucking,321 E Vilas,Guthrie,OK,73044,405-820-3133
B A T Trucking,1512 Se 15th,Oklahoma City,OK,73129,405-406-0557
Charles Ray Welding,Rt 1 Box 1320,Canute,OK,73626,580-331-9645
Marty Barnett Trucking,1240 N 43rd Street East,Muskogee,OK,74403,918-869-7017
Wrecker Service Of Oklahoma,5600 Sw Blvd,Tulsa,OK,74107,918-447-1234
R & C Trucking,30665 South Lona Valley Rd,Kinta,OK,74552,918-469-3807
Twin C Livestock,4701 S 4300 Road,Big Cabin,OK,74332,918-789-3807
L & D Trailer Delivery,302 E Roberts,Bokchito,OK,74726,580-295-3697
Havlicek Hot Shot Service,1924 South Mcloud Road,Mcloud,OK,74851,405-964-7890
Jsh Transportation,511 S C Street,Calera,OK,74730,580-434-8832
Broken G Ranch,9901 S 510 Rd,Miami,OK,74354,918-244-5339
Hoover Enterprise,18358 S 551 Rd,Tahlequah,OK,74464,918-456-3117
Sheppard Trucking,215 E Delaware,Westville,OK,74965,918-723-3013
D Dyer's Trucking,509 Rolling Hills Terr,Edmond,OK,73012,405-613-9134
Dtl,2688 Cs 2857,Chickasha,OK,73018,405-224-1166
L & L Trucking,3154 Mobil Rd,Healdton,OK,73438,580-229-2327
Hard Way Trucking,14990 S 590 Rd,Fairland,OK,74343,918-542-2243
Arthur Farms,19871 East Hwy 66,Luther,OK,73054,405-406-1870
C & H Enterprises,101 Linsey Road,Warner,OK,74469,918-463-3938
Why Pay Trucking,31088 Richert Summerfield Rd,Wister,OK,74966,918-653-2226
Monday Trucking,610 1/2 Se Ave E,Idabel,OK,74745,907-357-1209
Southern Oklahoma Rural Transportation System,1502 N 1st,Durant,OK,74701,580-924-5331
Double D Transport,915 N. White Oak Ave.,Midwest City,OK,73130,405-769-8777
Fbi Trucking,1013 N 16th,Lawton,OK,73507,580-280-0360
Oklahoma Refrigerated Transport,4235 S Eastern Avenue,Oklahoma City,OK,73129,405-601-5620
Lone Wolf Transportation,1042 S Hickory St,Bartlesville,OK,74003,918-766-2519
Pierce Auto Transport,5804 Nw 72nd St,Warr Acres,OK,73132,405-773-5251
Langdon Trucking,6410 S 72nd East Ave,Tulsa,OK,74133,918-645-8101
Eagle Oilfield Services,1200 Loomis Rd,Weatherford,OK,73096,580-774-2240
Twisted T Trucking,1704 Indian Dam Road,Lahoma,OK,73754,580-796-2721
Don Dutcher Trucking,212 Creekside Dr,Enid,OK,73701,580-237-1985
Freight On The Move,7507 S Delucca St,Broken Arrow,OK,74014,918-855-2177
R D Express,Rr 5 Box 1715,Eufaula,OK,74432,918-704-0736
Whitefield Trucking,Hy#9 And Ew 126 1/4 Mile West On Southside,Tecumseh,OK,74873,405-997-3142
Terry Harnsberger Trucking,Hc 65 Box 113,Ringling,OK,73456,580-277-0625
J&s H2o Transport,1023 E Tyler St,Mangum,OK,73554,580-782-3596
Stokes Trucking,523 Oklahoma Ave,Boisecity,OK,73933,580-544-3674
Morris Wood Service,1160 E Cottonwood Rdq,Lane,OK,74555,580-889-2868
Jackson Wood Service,1131 East Windy Lane,Lane,OK,74555,580-889-5030
Quarles Farms,549 Quarles Road,Bokchito,OK,74726,580-924-4212
Pods,11300 Partnership Drive Suite B,Oklahoma City,OK,73131,405-475-9750
Ox Trucking,207 Will Rogers Pl,Kingfisher,OK,73750,405-375-6100
Baw Transport,12326 Kathy Ln,Sapulpa,OK,74066,918-605-0027
S & K Trucking,4401 Se 118,Oklahoma City,OK,73165,405-794-4904
Printers Parts Store,1708 Nw 1,Oklahoma City,OK,73106,405-272-0272
Bandit 3 Trucking,321 N 2nd St,Carmen,OK,73726,580-987-2330
Holbird Trucking,221 Holbird Ave,Stilwell,OK,74960,918-696-7195
Jonlin Trucking,Rr 2 Box 139,Vici,OK,73859,580-922-4833
D & G Transport,29800 Old Hwy 66,Bristow,OK,74010,918-367-9071
H P S Trucking,106 N 127 E Ave,Tulsa,OK,74116,918-245-7860
York Trucking,107 W Wisdom Dr,Haskell,OK,74436,918-482-5109
Cdl Trucking,307 East Broadway Street,Okehemah,OK,74859,918-284-6377
Bob's Bobcat Service,1865 S Franklin,Colbert,OK,74733,580-916-8377
Mason Trucking,29717 E 56th Street,Yale,OK,74085,918-381-3638
Sitton Trucking,911 Hoyt,Chandler,OK,74834,405-258-5329
Need-it-now Transport LLC,Rr 1 Box 279,Wann,OK,74083,918-255-3231
Agelessiron Ranch,1809 East Highway 62,Fort Gibson,OK,74434,918-478-4649
Rife's Backhoe Service,Rt 2 Box 111,Beaver,OK,73932,580-625-2250
S & A Trucking,13035 E 28th Place,Tulsa,OK,74134,918-809-4009
Fire Dog Transportation,7250 Hedge Road,Henryetta,OK,74437,918-650-9433
Miller National,215 W Dogwood,Pond Creek,OK,73766,580-532-4458
Shannon's Statewide Logistics,1520 Ne 48th Street,Oklahoma City,OK,73111,405-243-3783
M T Clayton Trucking,5410 Harreld Rd,Beggs,OK,74421,918-607-7816
Outlaw Trucking,614 1/2 S Yerby,Hugo,OK,74743,580-317-5972
Bdb Cleaning & Supply,1009 S Main,Hennessey,OK,73742,405-853-6134
Krebbs Transport,8304 Buckwood Rd,Newalla,OK,74857,405-386-4797
Fletcher Enterprise,2501 N E 23rd Suite D,Oklahoma City,OK,73111,405-627-4172
Cantweight Classics,704 6th Street,Maysville,OK,73057,405-640-8077
Cox Cattle,13275 Se Goodin Rd,Lawton,OK,73501,580-248-6708
Seay Trucking,1117 Sterret Road,Calera,OK,74730,580-434-2973
Hookin Aint Easy,19200 Chloe Layne Rd,Spiro,OK,74959,918-962-3003
Shadow Canyon Trucking,#1 Shadow Canyon Road,Boise City,OK,73933,580-426-2365
Half-fast,Route 2 Box 152,Pauls Valley,OK,73075,405-484-7211
K & K Farms,16519 W Willow,Lahoma,OK,73754,580-796-2398
Brownco Transport,8207 E Wood Rd,Waukomis,OK,73773,580-758-3406
We Haul,4265 East 106th St North,Sperry,OK,74073,918-288-6721
K & M Trucking,211 S Witte,Poteau,OK,74953,918-658-4370
D & L Trucking,621 Leaning Elm Dr,Norman,OK,73071,405-329-4963
Chapman Cattle,440205 E Hwy 10,Welch,OK,74369,918-788-3451
L&d Container Service,8857 West 600 Road,Inola,OK,74036,918-543-6849
Osborne Trucking,11444 S 193 W Ave,Sapulpa,OK,74066,918-636-4088
Mccombs Mobile Movers,21285 County Road 502,Colcord,OK,74338,918-326-8006
4-state Equipment And Truck Sales,63651 E 290 Road,Grove,OK,74344,918-786-5511
E & R Refrigerated Carrier,201 Lela,Arkoma,OK,74901,918-626-3772
Big B Trucking,1109 Illinois St,Muskogee,OK,74403,918-683-7614
Transportes Nas,1001 N Academy,Guymon,OK,73942,580-278-5076
Speedaway Trucking,601 Se 2nd,Lawton,OK,73501,580-351-2929
Big Shot Trucking,5103 S Sheridan #421,Tulsa,OK,74145,918-606-9660
Sweets Well Testing,Rt 1 Bx 8850,Vici,OK,73859,580-216-0369
Good Luck Bad Luck Trucking,Rt 3 Box 612,Broken Bow,OK,74728,580-420-3115
Rna Skid Steer Services,607 Texas,Woodward,OK,73801,580-256-9582
"Mac2 Trucking, Inc.",15051 East 120th Street North,Collinsville,OK,74021,918-607-5937
Bandy Trucking,307 Faye Ave,Pocola,OK,74902,479-806-4402
Hopalong Hotshot,8004 S Bullet Prairie Rd,Tishomingo,OK,73460,580-220-9087
Nokes Trucking LLC,17410 S Cr 205,Elmer,OK,73539,580-481-0769
Service Ag Equipment Co,West Hwy 3 And 75,Lehigh,OK,74556,580-927-3737
Herbco Express,R-3 205-14,Sallisaw,OK,74955,918-775-8460
R & S Transport,27742 Okay Rd,Macomb,OK,74852,405-598-3023
Amazon Hot Shot Services,410 S 10th,Clinton,OK,73601,580-515-0442
J K Trucking,Rt 3 Box 143,Okarche,OK,73762,405-226-9591
Barber Trucking,2738 Nw Meers Porter Hill Road,Elgin,OK,73538,580-917-5290
B & K Trucking,Hc 70 Box 280,Boswell,OK,74727,580-566-2522
Salinas Trucking,217 Se 22nd St,Oklahoma City,OK,73129,405-429-9175
Rd Transportation,507 Elder Ave,Calvin,OK,74531,580-889-0322
Turner Livestock,4002 N Chapman,Shawnee,OK,74804,405-395-4922
Cook Trucking,808 N 14th Street,Ponca City,OK,74601,620-446-2355
K & L Transportation,359 Caddo Hwy,Caddo,OK,74729,580-889-2539
Assured Quality Transport LLC,7904 E 60th St,Tulsa,OK,74145,918-636-2743
T C Transportation,Rt 4 Box 90,Madill,OK,73446,580-795-2298
Sooner Transport,11809 S Washington,Perkins,OK,74059,405-743-9495
Dieselworks Plus,1620 N Airport Road,Weatherford,OK,73096,580-772-8785
Boyce Trucking,7216 E 4th Pl,Tulsa,OK,74112,918-639-4083
"Davenport Oilfield Services, Inc.",3075 S Meridian,Ardmore,OK,73401,580-465-0314
Double S Trucking,2234 Hiway 69 N,Pryor,OK,74361,918-825-5439
Rossy Trucking,11501 Sw 15th St Apt 2012,Yukon,OK,73099,661-265-5457
Pirate Transportation,605 Orient St,Cordell,OK,73632,970-370-1597
Martins Trucking,29150 S Hwy 82,Vinita,OK,74301,918-519-5513
Finish Line Trucking,395249 W 3100 Rd Lot 60,Ochelata,OK,74051,918-440-6148
Smith Trailer Transport,3930 S 129th W,Sand Springs,OK,74063,918-245-5893
Lankford Trucking,1011 Hwy 43 E,Stringtown,OK,74569,580-927-0458
Upton & Sons,22308 Bethel Rd,Tecumseh,OK,74873,405-598-2926
Stout Container Service,1303 Sallie,Muskogee,OK,74403,918-684-2068
Bakers Moving,26815 South Indian Hill Road,Park Hill,OK,74451,918-207-9688
Pete Transport Group LLC,5714 W 7th,Stillwater,OK,74074,405-743-2380
W W Watering Service LLC,336 Cr 3022,Bartlesville,OK,74003,580-363-6533
Stephen Logue Trucking & Construction,630 S Research,Atoka,OK,74525,580-889-6255
Galaxie Distributing,7813 East Admiral Place,Tulsa,OK,74115,918-835-1166
J Terrazas Trucking,3237 S Douglas Ave,Oklahoma City,OK,73109,405-350-5859
Dw Trucking,1537 Ne 43rd,Oklahoma City,OK,73111,402-476-7125
J & S Trucking,Rr 1 Box 1682,Westville,OK,74965,918-723-3051
Lrp Transport,2001 Country Club Road Apt 504,El Reno,OK,73036,405-422-3655
Max Trucking,Rt 1 Box 151 B,Agra,OK,74824,405-234-6207
M & W Transport,625 W Dowden Dr,Mustang,OK,73064,405-388-8106
Jcil Trucking,1608 Birch St,Oklahoma City,OK,73108,405-319-0000
A & K Cadillac Trucking,1210 N 161st Street E Ave,Tulsa,OK,74116,918-438-0224
Paylor Transport,102 S 9th Street,Yukon,OK,73099,405-350-0597
C & N Trucking,8110 Glenside Ln,Tulsa,OK,74131,918-227-0688
R & T Transport LLC,1209 Skyview Dr,El Reno,OK,73036,405-262-1508
Arrow T Hauling,16862 W 877 Rd,Park Hill,OK,74451,918-457-0213
C & C Trucking,Pearl Street,Leflore,OK,74942,918-753-2426
Ss Trucking,200 Beeler St,Poteau,OK,74953,918-647-8986
Tannehill Transportation,417 N 1st,Blackwell,OK,74631,580-363-1710
Cole Transport,104 East 4th Street,Lehigh,OK,74556,405-517-6916
W & W Trash Service,108 Haskins Ln,Roland,OK,74954,918-427-6558
Hurst Hauling,31221 Mark Tra,Afton,OK,74331,918-782-9493
Michael Davis Trucking,Rr 2 Box 1790,Porum,OK,74455,918-484-2732
Diagnostic Health Services,9525 K E 51st,Tulsa,OK,74145,918-664-7500
S & S Trucking,End Of Barton Street,Fanshawe,OK,74935,918-659-2268
Fielding Transport,1027 W Oak Drive,Yukon,OK,73099,405-350-1846
Rick Curry Trucking,430755 E Hwy 10,Welch,OK,74369,918-381-2859
O'connor Auto Haul,403 Se 4th St,Pryor,OK,74361,918-825-4502
Barnes Trailer Transport,Rt 2 Box 198,Watonga,OK,73772,580-623-5695
Turner Wrecker Service,2900 N Highway 66,Catoosa,OK,74015,918-266-3844
Barbwire Trucking,112 Se 5,Boise City,OK,73933,580-544-2346
Kevin Burke Truckikng,Rt 4 Box 14 2,Broken Bow,OK,74728,580-584-7740
W R Trucking,Rt 1 Box 1035,Valliant,OK,74764,580-933-7665
Okie Auto Transport,Rr1 Box 727c,Marietta,OK,73448,580-277-9923
Noble Logistics,25245 Johnson Avenue,Purcell,OK,73080,405-527-5880
Lakeland Trucking,222 Timberline Drive,Mead,OK,73449,580-916-1944
Rick Skyberg Transport,1100 Franzini Drive,Poteau,OK,74953,918-647-9011
Cbs Trucking,519 N Main,Elmore City,OK,73433,580-788-2663
Bill Johnson Hot Shot Service,1801 Kiowa Dr,Enid,OK,73703,580-234-3881
J Bar D Transportation & Relocation Co,3602 S 130th East Ave,Tulsa,OK,74134,918-852-0365
R&r Trucking,4909 E White Ln,Milburn,OK,73450,580-836-7876
Owens Trucking,Rr2 Box 1423 Sw 27,El Reno,OK,73036,405-324-4009
State Center Express,12798 Selders,Jones,OK,73049,405-202-8384
Thomas's Trucking,3371 Buckskin Road,Ardmore,OK,73041,580-657-8615
Ross Farm Trucking LLC,2711 Hwy 69 South,Checotah,OK,74426,918-473-4004
B & B Trucking,1010 E Broadway,Spiro,OK,74959,918-962-2846
Box J Ranch,Hc 71 Box 123-2,Soper,OK,74759,580-372-1571
A Jay's Transport,409 West Center Dr,Langley,OK,74350,918-782-9094
S & S Services,904 Ne Knutson,Guymon,OK,73942,580-338-3123
O K Trucking,4315 Midway Rd,Wilson,OK,73463,580-668-2211
Brian Stovall Trucking,Hwy 144 East Stovall Lane,Bethel,OK,74724,580-241-5733
T And R Hauling,Albert Creek Rd,Kingston,OK,73439,580-564-9788
P C Trucking,106 North Gray Street,Pocola,OK,74902,479-883-2417
Butler Hot Shot,108 Countryside Lane,Roland,OK,74954,918-427-6251
Randall Snyder Trucking,1408 W Danny St,Claremore,OK,74017,918-283-1965
J & D Trucking,3133 Ne 18th St,Oklahoma City,OK,73121,405-427-2021
Omni Flour Paradise Donuts,25955 E Admiral Pl,Catoosa,OK,74015,918-379-0005
Daugherty Dozer Service,Rt 1 Box 97,Cheyenne,OK,73628,580-655-4334
2 L Trucking,Rt 1 Box 137,Weleetka,OK,74880,918-650-3882
Southern H Trucking,437794 E Hwy 60,Vinita,OK,74301,918-256-2670
K & K Trucking,405 W Lookout St,Henryetta,OK,74437,191-865-0944
Runnels Trucking,Route 2 Box 16,Weatherford,OK,73096,580-772-5464
J&j Trucking,312 S Main,Gotebo,OK,73041,580-538-5367
Dennis Harris Trucking,917 W 136th Pl,Glenpool,OK,74033,918-640-1171
La Pitorra,230 Circle Drive,Guymon,OK,73942,580-761-1171
J & S Trucking,407 A Chickasaw,Bruns Flat,OK,73624,580-799-2681
Cows Etc,890683 S 3410 Rd,Chandler,OK,74834,405-258-8885
Star J Trucking,4 Mi S 1 Mi E 1/4 Mi S On West Side,Stonewall,OK,74871,580-265-4472
Silverstar Trucking,Rt 1 Box 152 A,Pauls Valley,OK,73075,405-665-5945
Moving Solutions,2205 E 51st Street,Tulsa,OK,74105,918-712-4511
Freedom Transport Company,617 Seminole Drive,Pauls Valley,OK,73075,405-207-7894
Westway Transport,252 E 45th Pl,Tulsa,OK,74105,918-923-6040
Old Glory Transport,31360 S 617 Loop,Grove,OK,74344,918-314-0279
H & M Transport,404 E Wichita Court,Broken Arrow,OK,74012,918-286-0828
Boomer Well Service,4520 B & B Drive,Woodward,OK,73801,580-256-6860
D M Wofford Trucking,10900 S Penn Ave Apt 1626,Midwest,OK,73170,723-425-5035
Greensway Trucking,66101 E 32nd Road,Quapaw,OK,74363,918-540-1440
Hendrix Trucking,30078 Sw 7th St,Stigler,OK,74462,918-967-4081
Cox Trucking,24125 Tucker Rd,Spiro,OK,74959,918-962-3382
T-l Transportation,1701 N Lelia,Guymon,OK,73942,580-338-4348
Waynes Hobo Trucking,1205 Colorado,Elk City,OK,73644,580-225-0178
R A Bentley Trucking,Ns Road 190,Buffalo,OK,73834,580-735-2409
D&b Trucking,2100 Timber Ridge Dr,Newcastle,OK,73065,405-387-2367
Country Mile Cars And Trucks,Rr2 Box 9-d,Buffalo,OK,73834,580-735-2444
American Lenders Service Co,427 Main,Arkoma,OK,74901,918-875-3028
I D Express,37333 So 520 Rd,Eucha,OK,74342,615-500-4037
Avila Trucking,307 West Texas,Okarche,OK,73762,405-263-4743
Ross Trucking,310 No 3rd St,Stilwell,OK,74960,918-696-3481
Bobby J Gilley Trucking,Route 2 Box 200-40,Gore,OK,74435,918-489-2637
Okies Trucking,Hc 70 Box 1770,Antlers,OK,74523,580-298-7443
Trigard Of Oklahoma,906 N 4th,Sayre,OK,73662,580-928-3333
Clarks Express Delivery Service,721 Southeast 24th Street,Newcastle,OK,73065,405-387-5176
"Wolf's Warehouse, Inc.",7201 E Reading Place,Tulsa,OK,74115,918-832-7701
T L Tucker Transportation,205 S Kentucky,Panama,OK,74951,918-963-2715
Jennifers Delivery Service,2102 Union St,Seminole,OK,74868,405-382-2400
Mason's Trucking,Rt 1 Box 256f,Union City,OK,73090,405-262-1625
Peachey Transport,Rft 1 Box 119,Thomas,OK,73669,580-661-2272
Ram-page Trucking,13243 Highway 10,Tahlequah,OK,74464,918-822-3073
J Kollie Delivery Service,12407 St Andrew Dr Apt A,Oklahoma City,OK,73120,405-417-0573
"E & M Trucking, Inc.",623 Wann Circle,Bokchito,OK,74726,580-920-0269
Lennys Delivery Service,5952 Nw 41st Street,Oklahoma City,OK,73122,405-226-9643
Lisa Cundiff Trucking,8616 S Lost Creek Lane,Perkins,OK,74059,405-747-4341
Kickin Chicken Transport,17022 W Jones Rd,Tahlequah,OK,74464,918-458-1235
Yates Hotshot,5204 E 410 Road,Oologah,OK,74053,918-443-9295
Tim Mcgehee Trucking,Rt 2 Box 645,Valliant,OK,74764,580-933-7028
Jim Magar Trucking,Hc 69 Box 642,Hugo,OK,74743,580-326-9284
Stm Trucking,5519 East 61st Court,Tulsa,OK,74136,918-492-4435
Webster Dozer Service,26235 Turkey Pen Hollow Rd,Henryetta,OK,74437,918-652-9423
Premier Dirt Works,9101 S I35,Oklahoma City,OK,73160,405-235-3001
Kdl Transport,Hc 71 Box 159,Kingston,OK,73439,580-564-7954
Fadler Foodservice Distributor,6511 E 44th,Tulsa,OK,74145,918-627-0770
Slader Auto Transport,3010 Elbow Lane,Muskogee,OK,74403,918-682-7977
Baldwin Farms,36352 Kennedy Rd,Wister,OK,74966,918-655-7576
Hinsley Trucking,216 Paris Avenue,Soper,OK,74759,580-345-2021
Rice Trucking,614 W Wallace St,Shawnee,OK,74801,405-275-1561
Diamond H Trucking,29076 St Hwy 146,Fort Cobb,OK,73038,405-643-2698
T & T Trucking,Rural Route #1 Box 60,Shidler,OK,74652,918-765-2081
Ellis Freight Carriers,4866 E Elm Rd,Claremore,OK,74019,918-342-3750
R&r Hotshot Service,1008 Nw F,Stigler,OK,74462,918-967-8678
Red Hills Auto,5 Mi E On Hwy 64,Buffalo,OK,73834,580-735-2516
Ricks Welding Service,2011 West 7th Place,Elk City,OK,73644,580-225-4513
Baker Trucking,13145 S Hwy 10,Wyandotte,OK,74370,918-848-0371
Sexton Service Co,11718 W 100th,Coyle,OK,73027,405-466-2253
Alberty Trucking,526 N Smith St,Vinita,OK,74301,918-323-0573
Dennis Blalock Trucking,Hc 73 Box 204,Haworth,OK,74740,580-245-1253
Mike Folsom Trucking,115 S Jennings,Bennington,OK,74723,580-920-5607
Turner Oil Field Services,6301 Goad,Marlow,OK,73055,580-658-6141
Summer Brook Trucking,4400 W Main Lot 61,Norman,OK,73072,405-701-1387
V & E Transport,14317 S E 110,Oklahoma City,OK,73165,405-794-0901
Rush Creek Trucking,Rt 2 Box 150a,Maysville,OK,73057,405-867-5762
Honeycreek Transport,7960 Honey Creek Rd,Okmulgee,OK,74447,918-756-7173
Neale Trucking,Rt 1 Box 186,Stilwell,OK,74960,918-696-5960
4 M Bull & Cattle Company,2711 Hwy 69 South,Checotah,OK,74426,918-680-2602
Ponderosa Pine Trucking,313 Hidden Hollow Road,Kansas,OK,74347,479-549-7907
Ph Hawk Trucking,10255 Locust St,Henryetta,OK,74437,918-652-2012
J & S Custom Car Hauling,207 N Veron,Hinton,OK,73047,405-542-3272
Berry Trucking,11131 W 60 Rd,Hulbert,OK,74441,918-598-4131
Ardmore Transportation,1405 4th Ave Nw #164,Ardmore,OK,73401,580-277-9980
Choctaw Transport,28305 Monks Drive,Poteau,OK,74953,918-647-5342
Chad Hurt Trucking,801-b S Sunnylane,Moore,OK,73160,405-474-6301
Covey M H Services,700 Ne 122nd St Apt 4308,Oklahoma City,OK,73114,405-748-5424
Samuel Simpson Trucking,320 16th Street,Woodward,OK,73801,580-254-0083
Windmill Ranch,42450 Hope Road,Tecumseh,OK,74873,405-598-5067
Holy Ghost Express,507 10th Street,Warner,OK,74469,918-463-3669
Chhoker Transport,Rr4 Box 134,Sayre,OK,73662,580-928-8986
Swc Trucking,14797 Liberty Hill Rd,Cameron,OK,74932,918-647-7587
L C Company,1443 S Norfolk Avenue,Tulsa,OK,74120,918-273-2166
Rojo Phast Freight,201 S 6 Th St,Ringling,OK,73456,580-662-2556
Cajun Express,Po Box 505,Roff,OK,74865,405-756-4154
D W Transport,621 South 6th Street,Kingfisher,OK,73750,405-375-6349
Stars And Stripes Trailer Transport,7020 N Harrah Rd,Harrah,OK,73045,405-323-5279
Robert Mangum Trucking,Block 2 Lot 15,Eufaula,OK,74432,918-689-7515
Ok Housemovers,16417 Edge Water Drive,Foyil,OK,74031,918-341-8595
Matt Phillips Trucking,Rt 1 Box 86,Omega,OK,73764,405-729-4399
Renner Trucking,516 S 5th Street,Jay,OK,74346,918-253-6275
Leach Transport LLC,7612 E 132nd Rd,Holdenville,OK,74848,405-379-9007
D & S Lantroop Trucking,35580 E 140th Street South,Coweta,OK,74429,918-259-2394
Red Ryder Trucking,13907 Hwy 62 West,Tahlequah,OK,74464,918-207-5145
G P Hudd Transit,2302 Delaware Street,Muskogee,OK,74403,918-686-9939
Kellys Hotshot And Equipment,405 Russell,Hooker,OK,73945,580-854-8450
Hermann Trucking,1467 Paradise Lane,Claremore,OK,74017,918-341-5176
Bomhak Farms,5904 N Shephard,El Reno,OK,73036,405-205-6381
Tummy Truckin,Rt 3 Box 151-5,Cleveland,OK,74020,918-243-5200
Drice Transportation,3225 Sw 94th,Oklahoma City,OK,73159,405-378-8335
Summerhill Transport,3051 E Highway 66,El Reno,OK,73036,405-262-2232
Reed Dozer Service,Rt 1 Box 30,Sweetwater,OK,73666,580-515-4981
Signal Hill Container,184 B E. Brooken Road,Stigler,OK,74462,562-427-8032
Oneway Transportation,3113 S Stults Ave,Oklahoma City,OK,73119,405-601-5031
Sad Trucking,17861 Nectarine Lane,Lindsay,OK,73052,405-245-2383
J & M Trucking,100 N Kimbell Apt 40,Yukon,OK,73099,580-916-6322
R & L Transport,21899 N Old Tollgate Rd,Oaks,OK,74359,918-868-2409
Lamphere Trucking,Rt 1 Box 42aa,Hardesty,OK,73944,580-888-4415
Tucker Hay Farms,14631 Hwy 76,Lindsay,OK,73052,405-756-9723
J & D Auto Sales,202 N Highway 77,Marietta,OK,73448,580-276-2211
P & L Trucking,886 Will Rogers Drive,Oologah,OK,74053,918-443-2261
Jnj Transport,Rural Route 2 Box 151,Marlow,OK,73055,254-652-5284
Vaughan Fresh Logistics,1001 Messenger Lane,Moore,OK,73160,405-735-2029
Teresa E Benson,17919 Benson Lane,Heavener,OK,74937,918-653-3471
Draft Horse Trucking,103886 S 3580 Rd,Prague,OK,74864,405-567-0541
Fry's Trucking,1202 W Canadian,Vinita,OK,74301,918-256-5260
Baumann Transport,5260 County Road 376 N,Calvin,OK,74531,405-283-0522
Iron Horse Transports,Rt 1 Box 4025,Clinton,OK,73601,405-283-0521
All American Trucking,4810 N 54th,Enid,OK,73701,580-747-3157
C&m Trucking,511 S Section Line,Gould,OK,73544,580-301-1708
Tri-city Hotshots,365 Ne 23rd Terrace,Newcastle,OK,73065,405-387-3755
Samsa Trucking,515 S Madison,Enid,OK,73701,580-237-5894
M & P Oilfield Services,203 Nanih Waiya,Poteau,OK,74953,918-649-1011
Lmt,10 Austin Drive,Tecumseh,OK,74873,405-249-2016
Fdb Trucking,1031 S Centerpoint Road,Atoka,OK,74525,580-364-0540
Crowell Trucking,84 Saddle Street,Springer,OK,73458,580-653-2534
Moler Trucking,Rt 2 Box 188,Cheyenne,OK,73628,580-497-2897
J R's Express,307 Wisteria,Lone Grove,OK,73443,580-657-4068
4m Welding,Rt 3 Box 79,Pauls Valley,OK,73075,405-484-7293
Hewitt Trucking,32501 E 51st Street,Broken Arrow,OK,74014,918-266-2869
Blue Merle Transport,Rt3 Box 230a,Duncan,OK,73533,580-444-2674
Rios-franco Transport,2105 E Ash,Enid,OK,73701,405-375-6397
Apartment Movers,13748 N Lincoln Blvd,Edmond,OK,73013,405-842-1898
Xtreme Auto Transport,37101 Clearpond Road,Shawnee,OK,74801,405-831-1352
B & D Carrier,14806 180th St,Lindsey,OK,73052,405-344-6655
Kendrick Transportation,40273 E Cr 1230,Stigler,OK,74462,918-967-3980
Stevens Ranch,6680 164th St Sw,Okarche,OK,73762,405-229-4805
Powell Expediting,5243 E Hwy 412,Locust Grove,OK,74352,918-479-6902
Bingham Transportation,220 W Hwy 7,Atoka,OK,74525,580-889-3410
Wnt Contracting,Rt 1 Box 84 B,Gracemont,OK,73042,405-850-8266
Lynn Holman Trucking,3804 S Perkins Road,Stillwater,OK,74074,405-707-9461
Reynolds Trucking,16351 Scr 197,Olustee,OK,73560,580-318-3506
American Manifold Company,102 Oilfield Dr,Elk City,OK,73644,580-225-1116
Charley Brackett's Paladin Express,17001 Cr 582,Colcord,OK,74338,918-597-2298
Voss Trucking,Hc 73 Box 234,Haworth,OK,74740,580-212-7461
P & M Transport,9438 S 161 St West Avenue,Sapulpa,OK,74066,918-227-0356
L&w Trucking,825 Apollo St,Hartshorne,OK,74547,918-297-7040
Kelley's Backhoe Service,5220 Patricia Blvd,Guymon,OK,73942,580-338-3090
Jrdot Berry Trucking,Rt 6 Box 2845,Stilwell,OK,74960,918-797-2405
Sawyer's Feathered Nest,1805 Terryton Drive,Norman,OK,73071,405-447-8094
Ted Thompson Trucking,14015 N Sheridan,Collinsville,OK,74021,918-630-8361
Energy Transport,210 Park Avenue Suite 1800,Oklahoma City,OK,73102,405-848-3500
Jake Arnold Trucking,Dorchester Rd,Hooker,OK,73945,580-652-2190
Lloyd Huneryager Distributing,5520 Colony Ct,Bartlesville,OK,74006,918-633-4461
Boggy Creek Trucking,Rt 2 Sw Of Bessie,Bessie,OK,73622,580-337-6363
T & D Services,1100 S Merritt Rd,Elk City,OK,73644,580-225-6381
Coey's Transport,10341 Nw 15th,Oklahoma City,OK,73127,405-350-3359
Gene Burden Trucking,101 Industrial Parkwy S Hwy 66,Elk City,OK,73648,580-225-1142
Tae-transport America Express,7400 South Indian Meridian Rd,Choctaw,OK,73020,405-391-4770
West Backhoe Service,Po Box 68,Sawyer,OK,74756,580-326-3037
W E C Express,1507 Dublin Drive,Stillwater,OK,74074,405-880-2090
Armstrong Trucking,9604 S 33rd West Ave,Tulsa,OK,74132,918-497-8302
Rother Farms,404 West Missouri,Okarche,OK,73762,405-263-4719
Burcham Trucking,Hc 76 Box 532,Eagletown,OK,74734,580-835-7278
Hart And Son Trucking,200 South Frisco St,Picher,OK,74360,918-673-2651
Mhs Hotshot Service,1438 22nd Street,Woodward,OK,73801,580-254-2076
Cherry Trucking,410 S Cleveland,Cushing,OK,74023,888-285-8865
John's Trucking Service,5846 S 81st W Ave,Tulsa,OK,74107,918-232-8394
Wade Chambers Transport,1124 Sw 126th St,Oklahoma City,OK,73170,405-672-2847
T & S Trucking,6820 N Classen Blvd,Oklahoma City,OK,73116,405-843-5626
R & R Trucking,1701 North 4th,Sayre,OK,73662,580-928-9903
H L Jordan Trucking,524 South Front,Medford,OK,73759,580-554-1800
J2 Livestock Transportation,11900 Woodcrest Drive,Guthrie,OK,73044,405-396-3355
R & M Trucking,120 E Sheridan #204,Oklahoma City,OK,73104,719-456-1997
S & J Truck Leasing,16 East Third,Grove,OK,74344,918-786-4722
Autobahn Auto Sales,726 E 2nd,Edmond,OK,73034,405-844-2886
Larry D White Trucking,Rt 3 Box 80,Walters,OK,73572,580-875-3206
Prolog Gs,1315 N 108th East Ave,Tulsa,OK,74116,918-437-4036
Childers Trucking,307 S 3rd St,Wyandotte,OK,74370,918-678-3347
Fairway Transportation,217 W Steve Owens Blvd,Miami,OK,74354,417-776-1762
C W Trucking,17351 Coffee Creek Rd,Luther,OK,73054,405-823-5920
Black Hawk Transportation,29 Ray Place,Guthrie,OK,73044,405-396-2190
C&r Breeding Service,Route 1 Box 360-6,Stillwater,OK,74075,405-880-2685
Dudley Trucking,28411 205th Ave,Poteau,OK,74953,918-649-0947
L & S Greenrock Transportation,Rt 4 Box 72f,Okemah,OK,74859,918-623-4215
G & L Trucking,711 W Mcclure,Pauls Valley,OK,73075,405-238-2295
Joel Beck Trucking,125 Marrgate,Yukon,OK,73099,405-324-5017
State To State Delivery Service,3820 S Jamestown Ave,Tulsa,OK,74135,918-810-6099
River Valley Farm & Trucking,23541 West 230th Street,Bokoshe,OK,74930,918-963-4254
Nationwide Hotshot Service,2005 Exchange Ave,Oklahoma City,OK,73108,405-232-7300
Koala Express,Hc 64 Box 3765,Fort Towson,OK,74735,936-258-2274
Catch 22 Trucking,Rt 2 Box 38r,Skiatook,OK,74070,918-396-4483
J E T Trucking,223 W Ave B,Elk City,OK,73644,580-225-4826
Ftsi,57530 E Hwy 59,Fairland,OK,74343,918-787-6874
A & M Trucking,R1 Box 182,Gould,OK,73544,580-676-2837
Branchcomb Trucking,640 N C Po Box 1672,Muskogee,OK,74403,918-681-1263
Mel Sullivan & Sons Trucking,616 Timberlane,Edmond,OK,73034,N/A
Rosebud Trucking,Highway #183 North,Mountian Park,OK,73559,620-437-6083
L & M Trucking,Rt 1 Box 1468,Stilwell,OK,74960,N/A
Tiger Mountain Auto,Rt 2 Box 2103,Checotah,OK,74426,918-689-7211
Robison & Son's Dairy,101 E Main,Roff,OK,74865,580-310-2989
Jimenez Mobile Home Service,Rt 2 Box 315,Turpin,OK,73950,316-624-5789
Don Wood Trucking,716 H St Nw,Miami,OK,74354,918-540-0026
Dan Thomas Trucking,1501 S Rock Island Lot #22,El Reno,OK,73036,405-262-9368
F T S Trucking,3224 West 40th Street,Tulsa,OK,74107,918-446-6858
Ron Arter Trucking,Rt 4 Box 83c,Okarche,OK,73762,405-263-4905
Rockin J Trucking,111 S Washington,Hooker,OK,73945,316-624-5789
Western Oklahoma Auto Auction,Rt 1 Box 440,Clinton,OK,73601,580-323-1050
Able House Movers,1533 E 66th St N,Tulsa,OK,74126,918-425-3737
Juans Transport,11517 South Walker,Oklahoma City,OK,73170,405-692-9719
Csk Trucking,29505 S 4190 Road,Inola,OK,74036,918-543-7280
Bs Trucking,Route 1 Box 17,Loyal,OK,73756,405-729-4316
G &l Transports,Rt 2 Box 184b,Meeker,OK,74855,405-567-3765
Mahaffey Trucking,Prairie Village #5,Woodward,OK,73801,580-837-5274
Rocking J Trucking,1726 Key Street,Guymon,OK,73942,580-338-4441
C D Auto Transport,Hc 63,Fort Towson,OK,74735,417-861-9190
Rodney T Smith Transportation,Rr 1 Box 15600,Porum,OK,74455,918-484-5435
Hall's Trucking,4372 N Garrison Place,Tulsa,OK,74106,918-859-3358
Jonan Transportation,26 Steeplechase Dr,Norman,OK,73072,405-579-5577
John Brewer Transport,Rt 1 Box 41,Stilwell,OK,74960,918-696-6659
T & T Trucking,3577 N 371 Rd,Holdenville,OK,74848,405-379-3886
Circle M Transport,Rt 1 Box 1999,Quinton,OK,74561,918-469-3025
Swinging H Trucking,6122 S Van Buren,Enid,OK,73703,580-242-4383
M & T Cattle Express,308 W Denton,Sallisaw,OK,74955,918-775-7179
Butler Trucking,35560 E 231 Street S,Porter,OK,74454,918-483-4602
T & J Trucking,24141 Calhoun Rd,Shady Point,OK,74956,918-963-4390
Selby Brothers Trucking,202 Main,Gage,OK,73843,580-923-7494
Hartman Trucking,10858 S 4060 Road,Talala,OK,74080,918-371-0535
Liz Westbrook Trucking,Rt 2 Box 130,Valliant,OK,74764,580-746-2260
Moore Trucking,Route 1 Box 173,Woodward,OK,73801,580-334-0204
Moore Transportation,608 S W 63rd Terrace,Oklahoma City,OK,73139,405-634-4240
R L Dobbs Express,9125 Wingspread Dr,Oklahoma City,OK,73159,405-826-7239
White Buffalo Transportation,10732 E 41st Apt 810,Tulsa,OK,74146,918-232-7244
Hughart Trucking,Rt 1 Box 65-6,Gore,OK,74435,918-487-7247
Jmp Construction Services,Rt 2 Box 1140,Wister,OK,74966,918-655-7710
M S Transportation,Rt 5 Box 308,Mcalester,OK,74501,530-741-2492
Expresshot Transportation,11717 S 272nd East Ave,Coweta,OK,74429,918-486-7880
Mendoza's Trucking,1124 S W 130,Oklahoma City,OK,73170,915-527-3839
A L Scott Trucking,Rr 1 Box 268,Pauls Valley,OK,73075,405-238-2275
Eagle Transport,9168 E Latimer Ct,Tulsa,OK,74115,918-835-0041
One Hot Shot,1423 S First Ave,Stroud,OK,74079,918-968-3373
M L Skid Steer Service,5353 East Cr #60,Orlando,OK,73073,405-880-4306
Rodney Roetker Trucking,406 Elm Dr,Buffalo,OK,73834,580-735-6011
Sun Service,16 Sw A Avenue,Lawton,OK,73501,580-355-8280
Blue Fox Transport,402681 W 3500 Rd,Ramona,OK,74061,918-275-4514
Sharp Logistics,401 S E 12 Ave Apt 282,Norman,OK,73071,405-417-0629
Steve Hurt Trucking,29628 150th St,Wayne,OK,73095,405-532-0015
Gorman Trucking,803 Reynolds,Poteau,OK,74953,501-474-5291
Iron Horse Express,70051 S 341st Loop,Wagoner,OK,74467,918-462-1014
K T S Transportation,Rt 4 Box 243-3,Colcord,OK,74338,918-422-5222
Rsk Trucking,Hc 3 Box 25,Beaver,OK,73932,580-625-3571
Tk Trucking,Rt 1 Box 107,Dover,OK,73734,405-828-7251
A & M Trucking,10961 Shiloh,Perry,OK,73077,580-336-3275
C J Farms,30570 South 560 Rd,Cookson,OK,74427,479-709-9609
Mulholland & Son Trucking,6820 North Classen Blvd,Oklahoma City,OK,73116,401-782-2637
Wells Cargo Transportation,815 1/2 West 1st Street,Prague,OK,74864,405-567-4712
Thiel's Auto Transport,9521 South Shields,Oklahoma City,OK,73160,405-912-5111
D & S Transport,3051 E Highway 66,El Reno,OK,73036,405-262-2232
Americas Show Homes,Rt 1 Box 138-5,Calera,OK,74730,580-296-2570
Moad Trucking,5009 Nw 59th Street,Oklahoma City,OK,73122,405-590-3454
Rick's Backhoe & Dozer Service,1219 W Main,Hulbert,OK,74441,918-772-2582
J & K Transport,17400 S Sooner Rd,Norman,OK,73071,405-321-0069
Shadow Transport,Route 2 Box 181,Lindsay,OK,73052,405-344-6400
Left Lane Express,227 Trade Center Terrace,Mustang,OK,73064,405-376-3786
Cowan Trucking,13380 S 4250 Road,Chelsea,OK,74016,918-341-9318
Johnson Trucking,Route 2 Box 837,Broken Bow,OK,74728,580-584-3075
M L W Trucking,1704 East Pryor,Pocola,OK,74902,918-436-2339
Double Z Express,Rt 2 Box 85 A,Jay,OK,74346,918-253-8658
L & K Transportation,67301 E 300 Rd,Grove,OK,74344,918-786-8366
Mcalister Farms Trucking,Rt 2 Box 399,Madill,OK,73446,580-795-2937
L & S Trucking,23556 Mt Pleasant Rd,Howe,OK,74940,918-653-2913
G B T,7600 N Bryant Ste C,Oklahoma City,OK,73121,519-452-0689
Ferman Trucking,12909 S 126th E Ave,Broken Arrow,OK,74011,918-449-9901
Tom Willoughby Trucking,Rt Box 257-6,Garvin,OK,74736,580-746-2118
Doug's Mobile Home Service,Rr 6 18550 Lois Lane,Norman,OK,73026,405-447-2678
R H Herndon Trucking,11 Sherry,Lahoma,OK,73754,580-796-2742
Transportes Rodriguez,4502 S Hudson Pl,Tulsa,OK,74135,918-665-2765
Classic Express,15016 S W 74th,Mustang,OK,73064,405-376-3017
Cantu Truck-n,2501 Exchange Ave #138,Oklahoma City,OK,73108,940-552-8217
Gatz Transports,9613 E Hefner Rd,El Reno,OK,73036,405-262-1629
Cesare Transport,12604 St Andrews Drive,Oklahoma City,OK,73120,405-833-2679
Gravelle Trucking,307 Amos,Poteau,OK,74953,918-649-1024
Bata Transport,219 West Cleveland Avenue,Sapulpa,OK,74066,918-224-0039
Double A Transport,Rr 1 Box 2470,Rose,OK,74364,918-868-3244
Carter Transport,4478 Leavenworth Trail,Calera,OK,74730,580-434-7350
Advanced Chemical Transport,1909 South Bryant,Oklahoma City,OK,73116,405-736-0089
Mackay Trucking,200 4th Avenue,Warren,OK,74469,918-463-5573
Odom Distributing,924 Tarby Rd,Poteau,OK,74953,918-647-9001
Gilliam Express,2701-1 South Pocola Blvd,Pocola,OK,74902,918-436-1995
K&r Trucking,105 Dortha,Poteau,OK,74953,918-647-5785
Oklahoma Kansas Interstate Express,100 S 6th,Manchester,OK,73758,316-842-4128
Ankney Logistics,401 S Wichita,Roosevelt,OK,73564,580-639-2003
Marys Trucking,10 South 6 West,Lindsay,OK,73052,580-658-6828
Trails End Trucking,931 E Park,Enid,OK,73701,580-242-4741
B & J Transport,310 Ne 28th St Ste 208,Oklahoma,OK,73105,661-637-5956
Auto Transport,900580 Oak Ridge Dr,Chandler,OK,74834,405-258-4041
D & R Trucking,11604 S Grand Drive,Miami,OK,74354,918-540-2197
R & R Trucking,Rt 1 Box 992,Gore,OK,74435,918-686-3045
Frank Johnson Trucking,10004 St Helens Dr,Yukon,OK,73099,405-324-2487
Hosanna Express,Rt 4 Box 116c,Colcord,OK,74338,918-422-8968
3-d Trucking,227 Trade Center Terrace,Mustang,OK,73064,405-324-2487
Peden's Mobile Home Service & Transport,1012 E Main Street,Durant,OK,74701,580-920-0590
On A Limb Trucking,302 Sycamore Dr,Hennessey,OK,73742,319-505-0747
Carter Auto Sales,1220 N Main,Guymon,OK,73942,580-338-4074
Ramming Transport,Rt 3 Box 212a,Lindsay,OK,73052,405-756-8041
Lookout Express,4104 Kings Row,Forest Park,OK,73121,405-370-1198
"The Dream Catcher Express, Inc.",17620 E Hwy 64 St,Leonard,OK,74043,918-366-6168
L & D Trucking,Rt 4 Box 5324,Sallisaw,OK,74955,918-775-8948
Powelson Trans,3850 West South Avenue,Ponca City,OK,74601,580-765-4435
Standifer's Trucking,806 3rd Ave,Warner,OK,74469,918-463-3687
Coulter Trucking,P O Box 861,Heavener,OK,74937,918-436-1847
Cst Transportation,Route 4,Wagner,OK,74477,918-462-0154
Franklin Trucking,317 Se 12th,Pryor,OK,74361,918-825-7189
Mike's Trucking,121 Ne 52nd St #102,Oklahoma City,OK,73105,405-525-0470
Jd's Express,1012 Rockwood,Mounds,OK,74047,918-827-2705
Jack Morton Trucking,3901 Mayfair Dr,Morton,OK,73072,405-573-7711
L Collins Trucking,35729 W 87th Pl S,Mannford,OK,74044,918-629-5998
K And K Carriers,1361 Quality Ave,Norman,OK,73071,405-321-0258
Riverside Transport,6820 N Classen Blvd,Oklahoma City,OK,73116,405-843-5180
Praise Trucking,2237 Oak,Woodward,OK,73801,580-256-7645
Sooner Transportation Services,5212 S Columbia Pl,Tulsa,OK,74105,918-605-2074
H & S Trucking,402 S W A Street,Stigler,OK,74462,918-967-8854
T & A Trucking,Rt 1 Box 195,Stonewall,OK,74871,580-265-4691
Matthew Messick Transfer,25804 Eagle Pass,Freedom,OK,73842,540-533-8204
B L Key Services,8654 East 101st,Tulsa,OK,74133,918-834-2828
Bill's Transport Serv,7461 So 54 St W,Muskogee,OK,74401,918-682-9577
H & R Dozer & Welding Service,Hwy 9 West,Stigler,OK,74462,918-967-9126
Boston Trucking,103 Keese Ave,Keota,OK,74941,918-966-2125
T C Transports,Rt 2 Box 155b,Tecumseh,OK,74873,405-598-3016
Roger Mccain Trucking & Farms,Rt 1 Box 28d-1,Hinton,OK,73047,405-542-6963
Delk Trucking,Rt 1 Box 218,Henryetta,OK,74437,918-652-3229
Cimarron Acid Service,Rt 2 Box 29,Fairview,OK,73737,580-227-9876
Bradley Myers Trucking,103 Fuller Ave,Pocola,OK,74902,918-436-2036
Harbaugh's Trucking Company,305 Ne 3rd,Luther,OK,73054,405-277-3234
Roach Bros Trucking,8317 Sw 3rd St,Oklahoma City,OK,73128,405-782-0622
L & I Express,3600 S Prospect,Oklahoma City,OK,73129,405-843-7001
Move For Less,5309 Chad Road,Oklahoma City,OK,73135,405-619-7225
B V J Trucking,406 So 4th St,Ringling,OK,73456,580-662-2063
Douglas Dozer Service,Rr1 Box 382,South Coffeyville,OK,74072,918-255-6808
Quick Chicken Express,Rt 1 Box 1693,Westville,OK,74965,918-723-3476
Mark Vance Trucking,2706 Lori Circle,Stillwater,OK,74075,918-520-0685
Tlg Trucking,801 N 7th,Frederick,OK,73542,580-335-3377
"Livestock Transportation, Inc.",3411 Sunset Terr,Spencer,OK,73084,405-820-5318
Mike's Trucking,606 S Broadway,Hinton,OK,73047,405-542-3802
R & J Trucking,S Hwy 54,Gotebo,OK,73041,580-538-5361
Equity Transportation Of Oklahoma,13900 South Meridian,Oklahoma City,OK,73134,877-560-1002
Smith Trucking,Rt 2 Box 133-0,Vian,OK,74962,918-773-6343
S&s Trucking,West Lake Shore & Araphahoe,Indianola,OK,74442,918-823-4754
J & V Water Express,4156 County Street 2830,Rush Springs,OK,73082,580-476-3185
Cates Trucking,610 W Teel Rd,Sapulpa,OK,74066,918-227-4667
"D V T Transportation, Inc.",7712 N W 3 Rd Suite C & D,Oklahoma City,OK,73127,866-848-1322
Brett L Harper Trucking,Rt 1 Bx 1555,Haskell,OK,74436,918-482-5861
Davis Trucking,26006 E 121st St,Coweta,OK,74429,918-486-8122
T J Trucking,609 Author St,Muskogee,OK,74401,918-682-1561
T & D Trucking,2139 East 2070 Road,Hugo,OK,74743,580-326-5632
Bmw Trucking,102 S Industrial Rd,Chandler,OK,74834,405-258-1283
Johnstone Trucking,P O Box 628 S Plum,Newkirk,OK,74647,417-673-2159
Robisons Transportation,125 W Main St,Purcell,OK,73080,405-527-1266
A & L Dance Creek Trucking,9208 S Hillcrest Dr,Oklahoma City,OK,73159,405-735-3445
South Paw Transportation,114 S Ora,Pryor,OK,74361,918-645-0172
Trucking & Excavation,P O Box 1265,Chickasha,OK,73023,405-222-2760
Andrews Trucking,1981 East Maple Road,Purcell,OK,73080,405-288-6682
Ryan Trucking,Po Box 613,Wista,OK,74966,918-436-1847
D & D Transportation,10465 W 71st Street,Tulsa,OK,74066,918-248-5050
Imperial Transportation Services,3700 Classen Blvd Suite 250,Oklahoma City,OK,73118,909-799-7343
D Ogle Trucking,1205 E Sanford,Shattuck,OK,73858,580-938-2703
H&d Trucking,Rr 2 Box 162,Pauls Valley,OK,73075,405-484-7469
S & M Trucking,102 N 5th,Sawyer,OK,74756,580-326-3191
Couch Dozier Services,30438 Old Highway 112,Poteau,OK,74953,918-647-4799
Huntley Trucking,4330 N Classen Blvd,Oklahoma City,OK,73118,888-775-5515
C & C Auto Transport,24050 E Hwy 66,Chelsea,OK,74016,918-344-1259
Gresham Trucking,1625 Rolling Stone,Norman,OK,73071,405-364-7422
Kucera Trucking,Rr 1 Box 75,Deer Creek,OK,74636,580-267-3514
Mooney Trucking,Po Box 1061,Burns Flat,OK,73624,918-486-1202
Frailey Salvage,1313 S Chouteau Ave,Chouteau,OK,74337,918-476-5203
Hopper Trucking,11551 S Midwest Blvd,Guthrie,OK,73044,405-341-4793
Rocking P Trucking,1400 S Penn,Cherokee,OK,73728,580-596-2814
Fletcher Transportation LLC,3354 East Apache,Tulsa,OK,74115,918-838-2180
Hotco,711 W Cherry,Cushing,OK,74023,918-225-1851
M & M Transports,23 Freda Circle,Calera,OK,74730,580-296-4440
White Cap Services,8324 Sw 8th Street,Oklahoma City,OK,73127,405-745-9444
Bear Trucking,405 180th Ave Ne,Norman,OK,73026,405-205-6021
A & S Trucking,4401 Northern Hills Road,Oklahoma City,OK,73121,405-213-7361
Cannon Transport,17101 Darren Ave,El Reno,OK,73036,909-746-7756
General Freight Hauling,3303 N Walnut Ave Suite 222e,Oklahoma,OK,73105,614-299-3180
Pure Country Trucking Co,224 N 2nd St,Tryon,OK,74875,918-374-2248
Stone Kitchen Trucking,16916 Nw 23rd,El Reno,OK,73036,405-350-2116
Leap Frog Transportation,17311 E 15th Street,Tulsa,OK,74018,918-437-2139
Yak-de-yak Express Trucking,11043 East 16th St,Tulsa,OK,74128,281-272-1611
Kinky Trucking,Route 1 Box 79,Marlow,OK,73055,580-515-9550
"Ellicott Trucking, Inc.",2418 S Sycamore,Oklahoma City,OK,73149,405-688-0561
Owasso Movers,10804 E 117th St N,Collinsville,OK,74021,918-371-5215
Sandhill Transportation,515 Chloe Ln,Mustang,OK,73064,405-745-6848
Bar K Bar Trucking,Rt 1 Box 62,Canton,OK,73724,580-886-5800
William Slate Trucking,107 Knight,Pocola,OK,74902,918-626-3801
Big Red Transport,3619 S 130th E Ave,Tulsa,OK,74134,918-627-2205
Allison Backhoe Service,206 South Street,Cartwright,OK,74731,580-965-4474
R W Cowley,1381 Academy Rd,Bokchito,OK,74726,580-295-2780
Rtsi,1025 North University Blvd,Norman,OK,73069,405-360-7705
Stephens & Son Trucking,9700 Mashburn Blvd #10,Oklahoma City,OK,73162,719-722-6244
J & K Transport,414 N Hogan,Pryor,OK,74361,N/A
Tucker Trucking,26828 East Main,Cameron,OK,74932,918-654-3323
K & B Trucking,Rt 1 Box 148-10,Sallisaw,OK,75955,256-379-2062
Tnt Auto Mart,Hwy 81,Wallkomis,OK,73773,580-758-3998
Bordertown Trucking,1624 E Broadway,Hollis,OK,73550,580-688-9742
Wesbrook Trucking,400 W Hartford,Ponca City,OK,74601,405-880-3587
Box It And More Logistics Division,4849 Se 44th Street,Del City,OK,73135,405-737-1107
Fords Trucking,Rt 2 Box 395,Cameron,OK,74932,918-654-7309
Larry Stewart Dozer Service,220 South 14th St,Clinton,OK,73601,580-323-1012
S C Trans,530 S Franklin,Ponca City,OK,74601,918-812-4511
Dragon Express,3700 Classen Blvd Ste 250,Oklahoma City,OK,73118,N/A
Haggard's Wrecker Service,Rt6 Box 353,Eufaula,OK,74432,918-689-4734
Chuck Cantwell Trucking,800782 S 3390 Rd,Tryon,OK,74875,918-374-2429
Horizontal Well Drillers,2915 Sh 74 South,Purcell,OK,73080,405-527-1232
Terry Brown Trucking,823 West Elm St,Enid,OK,73701,407-491-6673
John's Food Service,1329 Sw 15th St,Oklahoma City,OK,73108,405-632-8117
Talkington Wrecker Service,I 35 & Hwy 19,Pauls Valley,OK,73075,405-238-5593
Wwjd Transportation,59569 Us Hwy 59,Kansas,OK,74347,918-868-5601
Cristal Trucking Co,Rt 1,Bokoshe,OK,74930,918-634-4379
Vallor's Trucking,1116 Sw 65th St,Oklahoma City,OK,73139,479-675-2882
Dr 3 Farm & Trucking,9205 Eisenhower St,Sapulpa,OK,74066,918-407-6914
Garcia Trucking,1622 6th Street,Woodward,OK,73801,N/A
Anywhere Transport Service,5458 S 99th E Ave,Tulsa,OK,74146,918-527-7890
Ortega Trucking,510 South 1st,Texhoma,OK,73949,580-423-3149
C & J Mobile Home Service,P O Box 141,Hitchita,OK,74438,918-466-3252
Santee Cable Service,Po Box 3031,Edmond,OK,73083,405-205-2773
J&c Brock Trucking,1534 S 694 Rd,Quapaw,OK,74363,918-919-9015
Golden House Movers & Construction LLC,5051 N 379 Rd,Calvin,OK,74531,580-892-3558
In Transport,11436 S E 44th Street,Oklahoma City,OK,73150,405-741-4500
Cox Trucking Company,Hwy 59 S,Sallisaw,OK,74955,918-775-6004
Try To Make It Trucking,1990 Cedar,Paden,OK,74860,405-932-5063
Dicksion Trucking,12202 E Pvt 1580 Dr,Lindsay,OK,73052,405-756-1455
Ctl,801 W Dewey Ave,Sapulpa,OK,74067,918-224-3070
A & M Recovery,Rr 3 Box 149,Muldrow,OK,74948,918-427-6712
Hwy 28 Auto Dismantlers,444814 W 28 Hwy,Langley,OK,74350,918-782-9790
Alloy Welding Services,7625 N Pleasant View Rd,Ponca City,OK,74601,580-362-2051
Hopkins Trucking,2107 Riverview Dr,Tahlequah,OK,74464,918-458-4749
Bob Simon Trucking,38343 W 151st St S,Bristow,OK,74010,605-685-6858
Johnson Trucking And Transport,14770 S Moccasin Place,Sapulpa,OK,74066,918-519-2139
Classic Express,901 S E 69th St,Oklahoma City,OK,73149,417-894-5055
Mark Walker Trucking,26240 West Stone Chapel Rd,Tahlequah,OK,74464,918-453-0822
Hotshot Delivery Services,524 Nw 21st Street,Oklahoma City,OK,73103,405-524-1229
Carter Trucking,6107 St Hwy 28,Eucha,OK,74342,918-435-5134
Rdw Trucking,Rt 1 Box 127,Fairview,OK,73737,580-227-0465
Maranatha Trucking,108 S Broadway,Stigler,OK,74462,918-967-8222
Mel's Transport,9304 Whitebrook,Norman,OK,73071,405-447-4310
"Angel Transport, Inc.",3201 N Mustang Rd Ste D,Yukon,OK,73099,405-354-0473
Hatter Trucking,601 Sandy Rd,Atoka,OK,74525,580-889-3507
Bettencourt Transport,1109 Green St,Sallisaw,OK,74955,918-774-0591
Bullnose Express,11848 Ns 366,Wewoka,OK,74884,405-944-1167
J & J Truck Services,409 W Center Drive,Vinita,OK,74301,918-782-1585
Double D Transport,21900 S 590 Rd,Fairland,OK,74343,918-676-5314
Triple T Express,120 N Dogwood,Luther,OK,73054,405-209-2382
Kelly Stoops Trucking,113 S Curtis St,Welch,OK,74369,918-533-7970
Garcia Brothers Transportation,105 S Bickford Ste 201,El Reno,OK,73036,800-350-7419
Freeman Trucking,Rr 2 Box 12,Turpin,OK,73950,580-259-6328
B & C Transportors,2668 County Street 2856,Chickasha,OK,73018,405-224-6918
Steves Trucking,919 W North Ave,Checotah,OK,74426,918-473-2443
Modular Transportation,212 East Highway 54,Guymon,OK,73942,580-338-6556
Long Trucking,Rt 1 Box 143,Coyle,OK,73027,405-466-2475
State Line Auto Sales,Rt 1 Box 320,Ottawa,OK,74370,918-666-1777
D & L Trucking,Rt 1 Box 78,Gage,OK,73843,580-923-7805
Dw Transport,Rt 1 Box 1408,Watts,OK,74964,479-841-8502
Four-winds Transportation,Rr 1 Box 163,Terlton,OK,74081,918-358-0062
Jrw Trucking,5609 Nw 50th Apt D,Oklahoma City,OK,73122,405-203-1420
Diblosi Transport,14311 Sw 59th,Oklahoma City,OK,73064,405-376-4029
Hdg Trucking,Route 1 Box 77a,Gage,OK,73843,405-203-4649
Circle K Trucking An Escort,1484 E Poplar,Fort Gibson,OK,74434,918-478-4721
Jackie Edmonds Trucking,Rt 2 Box 80 Ac,Hydro,OK,73048,405-643-2542
Western Delivery,19205e Earlene Ave,Inola,OK,74036,918-543-1661
Justin Watson Trucking,5 Meadows Phase Ii,Woodward,OK,73801,405-641-7437
Fleeger Farms,1150 South Haven Road,Claremore,OK,74017,918-527-8677
Haney Trucking,7535 S 4414,Locust Grove,OK,74352,918-479-6685
Russell & Russell Trucking,913 Tabor,Oklahoma City,OK,73107,405-601-9274
Chad Smith Trucking,2201 S 11 Mile Rd,Burbank,OK,74633,580-762-3643
Tdf Trucking,5809 N W 72nd St,Oklahoma City,OK,73132,405-720-7785
Jonco Trans,2618 N W 77th St,Lawton,OK,73505,580-536-9133
Steve Bearden Trucking,402 E Broadway,Okemah,OK,74859,918-623-0099
D & K Trucking,505 Sw 3rd St,Checotah,OK,74426,918-473-6385
Carson Trucking,8th Street Estate 7 Prairie Village,Woodward,OK,73801,580-256-4670
"A-bolt Transporting, Inc.",12400 Se 74,Oklahoma City,OK,73150,405-732-0483
Oklahoma Hotshot,217 Main,Woodward,OK,73801,580-256-7773
River Valley Trucking,200 Main,Fort Cobb,OK,73038,405-643-2549
Evans Trucking,Rt 1 Box 95,Tyron,OK,74875,918-375-2693
Parker Livestock Transportation,P.o. Box 988,Hinton,OK,73047,432-770-5753
Madlom Trucking,510 E Sarah,Sallisaw,OK,74955,918-776-5192
J & L Trucking,25500 Knob Hill Rd,Morrison,OK,73061,580-724-3158
C & G Auto Sales,22655 Highway 2,Vinita,OK,74301,918-323-0304
Okay Express,1801 Beacon A,Muskogee,OK,74403,918-681-2612
Mary's Transport,820 N Rozell,Chandler,OK,74834,405-258-0412
"Caricos Hotshot Service, Inc.",1103 W Pitman,Mcloud,OK,74851,405-964-2703
B Line Trucking,Rt 1 Box 19,Startford,OK,74872,580-759-2072
Stevens Trucking,302 Nw 1st,Checotah,OK,74426,918-473-3162
"Chisholm Creek Transport, Inc.",2200 Kings Rd,Moore,OK,73160,866-799-8741
Williams Mobile Bay Producer Services Lpc,One William Center Md Wrc3-9,Tulsa,OK,74172,918-573-6466
"Williams Hugoton Compressor Service, Inc.",One Williams Center Md Wrc3-9,Tulsa,OK,74172,918-573-6466
Discovery Producer Services LLC,One Williams Center Md Wrc3-9,Tulsa,OK,74172,800-945-4526
Williams Field Services Pipeline Company,One Williams Center Md Wrc3-9,Tulsa,OK,74172,800-945-4526
Williams Field Services Company Gulf Coast Lp,One Williams Center Md Wrc3-9,Tulsa,OK,74172,918-573-6466
Rm Transportation,12251 192nd St,Lexington,OK,73051,405-527-5417
Paul Strobel Field Service,15140 Adams Road,Mounds,OK,74047,918-366-4365
Mcalister Transport Service,Highway 100 & Cedar Springs Rd,Gore,OK,74435,918-489-5083
Landrace Express,Rt 1 Box 295 Aa,Caddo,OK,74729,405-367-2768
Sheffield Farms,479019 Old Us Hwy 64,Muldrow,OK,74948,918-427-7615
Pro Transit Trailer Service,310 S 4th,Henryette,OK,74437,918-650-9235
Daniels Wrecker Service,42 North Mingo Road,Tulsa,OK,74116,918-836-3642
Jerry Stafford Trucking,Route 3 Box 479,Broken Bow,OK,74728,405-420-6679
Terry Myers Trucking,Rt 1 Box 22,Woodward,OK,73801,580-256-2692
"Cherokee Xpress Delivery Service, Inc.",5891 S Garnett,Tulsa,OK,74146,918-250-2065
Heartbreak Express,2t 1 Box 34,Walters,OK,73572,405-682-3030
Burden Trucking,7209 Ne 108,Norman,OK,73071,405-793-9102
R E B Trucking,2109 East 73rd Street North,Tulsa,OK,74130,918-425-9731
Hopkins Dump Truck Service,Route 1 Box 32-2,Delaware,OK,74027,918-467-3230
Rjb Trucking,Hc 75 Box 640,Wilson,OK,73463,405-276-2525
Wild West Trucking,522 Webster,Woodward,OK,73802,405-254-5830
James Owen Trucking,Rt 1 Box 2620,Cameron,OK,74932,918-654-7337
P & K Transport,13591 108th,Lexington,OK,73051,405-527-9830
N And P Trucking,Rt 2 Box 1384,Grove,OK,74344,417-628-3974
Bit,1201 North 16th Street,Chickasha,OK,73018,405-224-1333
J A Orellana Trucking,935 E 14th St,Cushing,OK,74023,918-223-3323
Lewis Livestock Express,401 S 69th W Ave,Tulsa,OK,74127,918-245-8579
K C Trucking,1302 Alvera,Wynnewood,OK,73098,405-665-4186
Holder Trucking,Rt 1 Box 1124,Warner,OK,74469,918-463-3867
Lone Wolf Trucking,Rt 2 Box 19 K,Ninnekah,OK,73067,405-224-7321
O & A Distributors,Rt #1 Box 498,Roland,OK,74954,918-427-6074
R D B Trucking,2621 West Cherokee,Enid,OK,73703,405-234-0601
"Wilson Trucking, Inc.",315 E Columbia Ave,Enid,OK,73701,580-842-6017
Adams Trucking,Rt3 Box 312,Broken Bow,OK,74728,580-236-0191
Whitefield Trucking,Rt 2 Box 4660,Porum,OK,74455,918-484-2755
Mike Wills Trucking,Rr 2 Box 50a,Geary,OK,73040,405-359-8460
B & V Trucking,10159 East 11th Street Ste 490,Tulsa,OK,74128,N/A
Worley Trucking,Hwy 64 East,Muldrow,OK,74948,501-474-5291
Shortcut Express,1216 Commerce Ave,Mounds,OK,74047,904-357-9994
Eagle Auto Transport,512 North St,Minco,OK,73059,405-352-4039
Hoover Trucking,19769 Nw Rogers Ln,Indiahoma,OK,73552,580-429-8328
Boren Trucking,426 S Smith,Vinita,OK,74301,918-256-3704
Ace Trucking,Po Box 23,Turpin,OK,73950,403-778-3493
"Mackey Livestock, Inc.",42204 Jefferson Road,Alva,OK,73717,580-327-3064
Paul's Transportation,Po Box 703,Perkins,OK,74059,405-865-2270
Horner Distributing,9136 East 31st Street,Tulsa,OK,74145,918-664-0551
The King Trucking,Bayline Blvd #1206,Roland,OK,74954,501-474-5291
Tundrawolf Express,Rt 3 Box 327,Broken Bow,OK,74728,501-474-5291
N A T Transport,408 Nw 57th Street,Lawton,OK,73505,504-627-9454
Antique Trucking,1820 S 267th East Ave,Catoosa,OK,74015,918-266-5656
G & J Express Trucking,Rt 1 Box 50-2b,Coweta,OK,74429,918-486-6138
D & J Trucking Co,670 North Beard St Apt 3,Shawnee,OK,74801,N/A
J L Covey Trucking,1/2 Mi W Hwy 31,Panama,OK,74951,918-963-4558
L W Dennis Trucking,Rt 1 B0x 209,Marlow,OK,73055,405-658-6890
Mike Porterfield Trucking,216 E Iowa,Waurika,OK,73573,405-228-2118
Wynn Harvesting & Trucking,S 1st Street,Forgan,OK,73938,405-487-3761
"P O P Trucking, Inc.",415 S Cherokee,Catoosa,OK,74015,918-664-8258
Cockrell & Gray Trucking,P O Box 103,Butler,OK,73625,405-496-2329
K & W Trucking,3521 Pawnee,Woodward,OK,73801,405-766-3292
Good News Distributors,19801 E Pine,Catoosa,OK,74015,918-266-1576
Ty-chel Trucking,30 N Adair,Pryor,OK,74361,918-825-2716
Gart Transports,13218 E 46th Street,Tulsa,OK,74134,N/A
Butler Creek Transport,200 Main Street,Colcord,OK,74338,918-326-4652
Marathon Horse Transport,6004 N Penn Apt #6,Oklahoma City,OK,73112,405-848-8985
Clifton's Transport,Rt 3 Box 243a,Wagoner,OK,74467,918-485-5715
Jerry Uselton Trucking,1005 S Anderson Rd,Choctaw,OK,73020,405-769-2830
Beaver Creek Trucking,Rt 3 Box 179,Walters,OK,73572,580-785-2838
Triple M Expediting Service,704 South Choctaw Avenue,El Reno,OK,73036,405-422-3152
D & B Trucking,Hwy 20,Salina,OK,74365,918-434-5487
R & L Trucking,1033 N Douglas,Sand Springs,OK,74063,918-245-8680
W & W Trucking,Rt 1 Box 20,Roland,OK,74954,918-427-7919
Custom Yacht Services,14818 C Street,Keota,OK,74941,918-775-3330
"Terry Trucking, Inc.",1150 Firebird Rd,Grove,OK,74344,N/A
C & C Transportation,115 N Guthrie,Spiro,OK,74959,918-962-2593
"Frontier Transport, Inc.",Rt 1 Box 43,Seminole,OK,74868,N/A
Big D Trucking Trust,9800 W Bender Rd,Newkirk,OK,74647,N/A
Alliance Eagle Transport,635 West 41st,Tulsa,OK,74107,918-446-0002
Mcbride Trucking,Rt 1 Box 338,Idabel,OK,74745,580-286-2470
Forster Trucking Co,Rt 2 Box 81-4,Purcell,OK,73080,405-527-9898
Lightning Ridge Trucking,20631 Co Rd 3460,Roff,OK,74865,580-456-7518
Duncan Bit,516 North 7th,Duncan,OK,73533,405-235-9787
Mobile Home Service,307 South West 5th Street,Checotah,OK,74426,N/A
T & B Trucking,207 N Main,Nash,OK,73761,405-839-2341
Bailey Transportation,263 No Trolls Rd,Bokchito,OK,74726,580-295-2058
Lindsey Trucking,Rt 2 8 Mile N Of Wewoka,Wewoka,OK,74884,405-257-6159
H & H Equipment Service,Rt 1 Box 2460,Cameron,OK,74932,918-654-7334
E & S Hot Shots,211 North Chambers Trail,Claremore,OK,74017,918-342-0571
B & C Transportation,408 East Okmulgee,Muskogee,OK,74402,918-683-2435
Gamble Trucking,303 Phoenix Village Road,Muskogee,OK,74426,918-682-7625
Platnum Plus Express,16416 E Marshall St,Tulsa,OK,74116,N/A
Ivy's Transport Leasing,Hc 61 Box 502,Sallisaw,OK,74955,918-775-3539
L - W Trucking,Rt 1 Box 416,Sulphur,OK,73086,405-993-2534
Fields Transportation,401 Nw Dixie,Idabel,OK,74745,N/A
Hot Shot Delivery,1365 N 108th E Ave,Tulsa,OK,74116,918-838-6202
Shelley's Automotive,Corner Of Butler And Stovall,Springer,OK,73458,405-653-2298
R J's Hot Shot Service,Rr 1 Box 373,Jennings,OK,74038,918-757-4127
A & S Dispatch Service,9743 E 54th Street,Tulsa,OK,74146,918-665-8520
R & B Trucking,Rt 3 Box 419-2,Vinita,OK,74301,918-783-5669
C & C Express Delivery,1557 W Latimer Court,Tulsa,OK,74126,918-585-9532
Weaver Trucking,Rt 4 Box 130-5,Tahlequah,OK,74464,918-458-1947
Her Delivery Network,P O Box 691024,Tulsa,OK,74169,N/A
J W Parsons Trucking,2805 Angela Frances Pl,Moore,OK,73160,N/A
Cook's Trucking,320 E Dotson,Roff,OK,74865,580-456-7372
Lg's Trucking,4700 Sw 159,Oklahoma City,OK,73173,405-691-6680
Plowboy Backhoe Service,R 1 Box 273 - B,Inola,OK,74036,918-543-3540
Reece's Auto Transport,2 Miles S Of Wagoner On Hwy 69,Wagoner,OK,74477,918-485-9568
Briegge Trucking,Po Box 308,Perry,OK,73077,405-336-2124
Ray Brown Trucking,Rt 4 Box 824,Lindsay,OK,73052,405-756-2854
Kenny Joiner Trucking,Hc 76 Box 592,Eagletown,OK,74734,405-835-2317
Team Express,2735 Highway 117,Sapulpa,OK,74067,N/A
De'nard Transportation,16133 E Oklahoma St,Tulsa,OK,74116,918-437-8515
Bandy Trucking Co,501 Faye Ave,Pocola,OK,74902,918-436-2478
Joes Dump Truck & Backhoe Service,Rt 5 Box 88-4a,Muldrow,OK,74948,N/A
Cold Iron Express,Route 1 Box 79,Oologah,OK,74053,918-443-2793
"C Harris Transport, Inc.",4801 Sunset Terrace,Spencer,OK,73084,405-771-4981
Lonely Wolf Transportation,3224 Sw 47th,Oklahoma,OK,73119,405-682-0129
R & S Transportation,4626 N Osage Dr,Tulsa,OK,74126,918-838-2180
Wakefield Trucking Co,Rt 4 Box 1024,Miami,OK,74354,918-542-4114
"Dph Trucking, Inc.",1025 Pleasant Hill Rd,Wilburton,OK,74578,918-465-2319
L & H Hauling,7901 S 620 Rd,Miami,OK,74354,918-533-1517
Scott Ross Trucking,Rt 2 Box 924,Broken Bow,OK,74728,405-584-2162
Johnson Trucking,P O Box 1003,Seminole,OK,74868,N/A
Sunrise Transport,19731 E Pine St,Catoosa,OK,74015,918-234-1300
Halsey & Son Trucking,Rt 2 Box 1799,Jennings,OK,74038,918-865-4926
Steve Smith Trucking,Po Box 3903,Lawton,OK,73502,580-248-6485
Horns & Hoofs Trucking,Po Box 171,Tupelo,OK,74572,405-845-2352
Deerhunter Trucking,505 E Clayton St,Hugo,OK,74743,405-326-3994
Ditch Witch Of Oklahoma,4501e 2nd Street,Edmond,OK,73034,540-966-2174
Chisolm Transport,Rt 2 Box 64 C,Fairview,OK,73737,405-227-2514
K & G Express,802 Maple,Muldrow,OK,74948,501-474-5291
Arnall Plumbing & Backhoe Service,1026 Red Bud Dr,Grove,OK,74344,918-786-4342
Jim Perkins Trucking,2 Mi W On Cowlington Rd,Cowlington,OK,74941,918-966-3299
J L Transportation,825 S Kerr Blvd #56,Sallisaw,OK,74955,918-775-7604
Mesa Dawn Trucking,Rt 4 Box 455-8,Mcalester,OK,74501,918-423-0334
Sooner Moving & Storage,5900 Mosteller Dr #1500,Oklahoma City,OK,73112,405-841-4002
Freejack Trucking Co,302 N W 6th,Wilburton,OK,74578,918-465-3424
Glen Webb Trucking,Rt 1 Box 91,Broken Bow,OK,74728,405-584-6614
J & S Trucking,200 Virginia,Poteau,OK,74953,918-647-2078
D & C Trucking,9001 S Cimarron Road,Mustang,OK,73064,405-376-2195
Needham's Trucking,Rt 1 Box 272-2,Muldrow,OK,74948,918-427-5220
J & K Trucking,300 W Pawnee,Cleveland,OK,74020,918-625-9315
Waide Trucking,Rt 1 Box 486,Fort Cobb,OK,73038,405-643-2422
Larson Transport,9717 Nw 10th #173,Oklahoma City,OK,73127,405-789-0155
Wishing Well Trucking,9022 E 35th Street,Tulsa,OK,74145,918-622-7638
Trw Transportation Co,204 Liley Ave,Carney,OK,74832,405-865-2522
Martin Trucking,23651 S 550 Road,Grove,OK,74344,918-257-4307
"O F Service And Supply, Inc.",1500 N Harvey Road,Seminole,OK,74868,405-382-4623
Circle C Enterprises,909 County Street 2930,Tuttle,OK,73089,405-401-2756
L & L Construction,22854 Hwy 51,Tahlequah,OK,74464,918-456-1527
Shade Tree Trucking,Rt 1 Box 60-a,Marlow,OK,73055,405-658-5645
Unruh Trucking,Rr 2 Box 141,Maysville,OK,73057,N/A
Cotten Brothers Trucking,612 Highview,Frederick,OK,73542,405-335-3449
Bowen Trucking,Rt 2,Lindsay,OK,73052,405-528-4490
F & R Hauling,11401 John Ryan Dr,Oklahoma City,OK,73165,405-793-2799
G A M Trucking Co,Rrt 2 Box 24,Randlett,OK,73562,405-281-3287
Anderson's Mobile Service,2201 Leaf Dr,Moore,OK,73160,405-794-7681
Daniel Trucking,Rt 1 Box 288,Eufaula,OK,74432,918-452-2125
Walker Trucking,801 Birch,Tecumseh,OK,74873,405-598-2463
J & M Services,826 Tyler,Piedmont,OK,73038,405-373-3747
Test Express,P O Box 6630,Grove,OK,74344,918-786-7669
Tulsa Wrecker Service,2121 N Birmingham Pl,Tulsa,OK,74110,918-835-5428
Tdc Roustabout Service,1164 Mobil Rd,Healdton,OK,73438,580-229-1717
Gower Transportation Co,323 Warren Rd,Henryetta,OK,74437,918-652-3770
Jones Transportation,308 Creekwood Drive,Durant,OK,74701,405-924-2051
Crown Distributing,1425 Sw 29th Street,Oklahoma City,OK,73119,405-632-0173
K & P Enterprize,14444 S 177th W Ave,Kellyville,OK,74039,918-247-7154
Jsi Trucking,928 W 18th St,Sulphur,OK,73086,580-618-2889
B & B Express,3033 N Walnut Ste 219w,Oklahoma City,OK,73105,405-521-1136
Road Dog Express,2708 Sw 31st,Oklahoma City,OK,73119,405-686-1377
Jim Carpenter Trk,Rr1,Adair,OK,74330,918-785-2470
F&s Trucking,2713 Glenn Avenue,Del City,OK,73115,405-670-9672
Ajay Transport,3033 North Walnut Ste 219w,Oklahoma City,OK,73105,405-528-4490
H C Transportation,1349 N W 5th St,Oklahoma City,OK,73106,209-591-1202
Silverado Transportation,3.8 Mi W Elmore City,Elmore City,OK,73434,580-788-2200
Heath Lowe Trucking,Hc 15 Box 20310,Watson,OK,74963,580-244-7546
M & R Transport,Hc 67 Box 1450,Antlers,OK,74523,580-587-2856
T C Trucking,#5 N Main Street,Watts,OK,74964,918-629-8421
Double W Transportation,22025 W 888 Rd,Cookson,OK,74427,918-457-5700
Gary Owens Express,12012 Sw 25th,Yukon,OK,73099,405-590-5635
Earl Wilson Trucking,616 N French,Boise City,OK,73933,405-544-2984
Wood's Transport,18571 Ne 23rd,Harrah,OK,73045,405-454-2660
Pat's Truckin',211 S Florence,Pauls Valley,OK,73075,405-238-2507
Chisholm Trail Transport,61501 E 210 Road,Fairland,OK,74343,418-676-3860
Webb's Trucking,1 1/2 Miles South On 75-a,Colbert,OK,74733,580-296-2643
Amazing Movers,13748 N Lincoln,Edmond,OK,73013,405-842-6683
Haney's Truck Service,Rt 4 Box 2560,Stigler,OK,74462,405-759-3860
Jimmy Belt Trucking,Rt 2 Box 55 A,Sallisaw,OK,74955,918-773-8796
Candy's Hot Shot Delivery Service,Po Box 786,Muldrow,OK,74948,918-427-6941
Tee-pee Express,1100 E Aberdeen,Muskogee,OK,74403,918-681-4410
A & A Equipment Service,P O Box 113,Claremore,OK,74018,918-341-0352
H G Trucking,Rt 1 Box 20 B,Hinton,OK,73047,405-542-3652
J D Dudley Trucking,P O Box 870,Muldrow,OK,74948,N/A
5-h Trucking,Rt 1,Carnegie,OK,73015,405-637-2364
Capps Trucking Co,3939 Nw 10th,Oklahoma City,OK,73107,405-947-7633
Jmj Trucking,861 S W 8th,Moore,OK,73160,405-794-7617
J D Trucking,801 W 7th St,Elk City,OK,73644,405-225-1063
"Dan Allison Trucking, Inc.",Rr #2 Box 82-c,Seminole,OK,74868,405-382-6116
Dennys Moving Service,321 N Mcbee,Commerce,OK,74339,918-542-4005
Stuard Trucking LLC,15535 South Cr 207,Blair,OK,73526,580-563-2383
R & R Trucking,108829 S 4760 Rd,Muldrow,OK,74948,918-427-3119
J R Philpott,Rt 3 Box 648,Tahlequah,OK,74464,918-458-5269
Dbr Trucking,Rt 1 Box 160,Hobart,OK,73651,405-726-5421
Peterson Trucking,306 10th Street,Woodward,OK,73802,405-254-2344
Transa Kool,3890 W Skellyar,Tulsa,OK,74107,918-446-3596
Arbuckle Trucking And Hot Shot,417 Sw 8th,Healdton,OK,73438,405-229-2660
Prostim,5010 Western,Woodward,OK,73801,405-256-7000
R & T Delivery,5340 N W 42nd St #25,Oklahoma,OK,73122,405-782-0232
M & A Trucking,Rt 3 Box 755,Keota,OK,74941,918-966-3701
Six M Trucking,Bet Rd 38 & Rd 39 On Rd 410,Oologah,OK,74053,918-343-2283
Stagecoach Express,Route 2 Box 276,Porter,OK,74454,918-483-9801
A 1 Express Delivery,8724 E 41st Street,Tulsa,OK,74145,918-496-0376
Executive Transport,2535 N Cherry St,Weatherford,OK,73096,580-772-3055
Jason Flowers Trucking,Hc 75 Box 106,Broken Bow,OK,74728,405-494-6136
Danny Justman Trucking,177 E Comet Avenue,Velma,OK,73491,580-656-2215
Barnett Trucking,Rt 1 Box 83a,Poteau,OK,74953,918-649-4176
Brooks Ranch,7228 Ew 148,Allen,OK,74825,580-857-2182
Betty Lee Transportation,3701 W Arkansas St,Durant,OK,74701,405-924-5228
Adams Trucking,Rr 3 Box 7a,Hooker,OK,73945,405-652-3307
William T Wadley Trucking,447254 E 240 Rd,Vinita,OK,74301,918-256-1904
J & J Transport,1 Mile South On New Port Rd,Lone Grove,OK,73443,405-657-3036
Ngf Trucking,1829 W Laura Drive,Mustang,OK,73064,405-376-3033
Knutsons Trucking,Rte 4 Box 72 B,Okemah,OK,74859,918-623-1902
All American Boat Hauling And Sales,2301 N Meridian,Oklahoma City,OK,73107,405-946-4456
R L R Trucking,608 South Cedar,Sapulta,OK,74066,918-227-3662
M And J Trucking,29154 South Hwy 82,Vinita,OK,74301,918-323-2152
Hudson Logging,37332 Petetree Rd,Wister,OK,74966,918-655-7991
Nunn Transportation,505 Se 10th St,Muldrow,OK,74948,918-427-6563
T & T Transportation,821 W Oak,Collinsville,OK,74021,918-838-2180
Truck Transport,507 South Dewey,Wagoner,OK,74467,918-629-4321
Upchurch & Son's Trucking Co,618 Collins,Colbert,OK,74733,405-296-2314
J & Z Trucking,607 E Walnut,Drumright,OK,74030,918-367-2538
L & L Transport,6950 Winchester D,El Reno,OK,73036,405-262-3856
Sweetin Trucking,Route 1 Box 133,Stuart,OK,74570,918-867-2783
"Tlt, Inc.",Rt 1 Box 75b,Ryan,OK,73565,580-757-2610
C M C Transport,702 N 13th Street,Durant,OK,74701,N/A
Rlw Transportation,10159 E 11th St Suite 490,Tulsa,OK,74218,000-007-4218
Wanette Trucking,Rt 2 Box 121a,Wanette,OK,74878,405-383-2665
Longs Trucking,Po Box 33,Lenapah,OK,74042,918-468-2480
Tulsa Movers,3723 S 73rd E Ave,Tulsa,OK,74145,918-834-6683
Land Guard Transportation Services,16931 South Hickory,Sapulpa,OK,74066,888-321-3218
Circle H Auto Haulers,Birch Road,Chouteau,OK,74337,918-476-6037
R & D Transport,122 West 1st Street,Castle,OK,74833,918-668-3444
T & L Trucking,320 W Aspen,Pond Creek,OK,73766,580-532-6396
Farmers Express,Route 1 Box 60,Putnam,OK,73659,405-582-6234
Castor Trucking,6620 N W 135th,Oklahoma City,OK,73142,405-728-2372
Vargas Trucking,20460 W Hwy 33,Sapulpa,OK,74066,918-247-7900
David Bruce Trucking,Highway #4 West,Watson,OK,74963,405-244-7295
Simpson Transportation,4502 Ne Michigan,Bartlesville,OK,74006,918-335-2381
Lon Brancecum Trucking,Rt Box 233-a,Wagoner,OK,74467,918-462-0724
Gene A Ericsson Trucking,Rt 1 Box 135,Byars,OK,74831,405-759-3797
Dba Emerson Transload,600 So Main St,Spiro,OK,74959,918-962-5761
Rons Trucking,8724 E 86th Street N,Owasso,OK,74055,918-274-0623
Coy Trucking L L C,304 Ne Division,Red Oak,OK,74563,918-754-2853
Barber's Dump Truck Service,Po Box 225,Glenpool,OK,74033,918-321-3398
Randy Whitney Trucking,Route 4 Box 453,Grove,OK,74344,918-786-4336
C&s Trucking,1145 Sw 66th St,Oklahoma City,OK,73139,405-631-6376
Jerry Holder Trucking,2305 Hwy 76 S,Healdton,OK,73438,580-229-5028
Flying Cow Trucking,57725 E 230th Rd,Afton,OK,74331,918-676-1030
Drywater Pole Barns,Rr 4 Box 200 A,Stilwell,OK,74960,918-696-6577
Jako Transports,1412 South 10th Street,Duncan,OK,73533,580-255-1018
Jim Bates Trucking,Hwy 70 11/2 Blocks W Of Hwy76,Wilson,OK,73463,405-668-2699
Marshall Trucking,Route 1 Box 252,Haworth,OK,74740,870-845-4244
T W Transport,1300 W Benedict,Shawnee,OK,74802,405-275-6525
Taylor's Transport,245 E 46th St North,Tulsa,OK,74126,918-425-4632
Saa,4616 Oil Patch Drive,Woodward,OK,73801,580-256-1177
Wayne Pate Trucking,739 Pate Road,Calera,OK,74730,580-434-5069
Harkey Trucking,Route 4 Box 32 2,Broken Bow,OK,74728,405-494-6017
Proctor Trucking,3033 N Walnut,Oklahoma City,OK,73105,580-920-0053
Parts Department,1201 S Boston,Tulsa,OK,74119,918-280-6500
Jewel Transport,Rt 1 Box 1745,Checotah,OK,74426,918-348-6629
Knott Trucking,315 E Broad,Buffalo,OK,73834,580-735-2039
Blackledge Trucking,R R 2 Box 154,Wilburton,OK,74578,918-465-0355
Stockham Trucking,P O Box 641,Skiatook,OK,74070,918-396-3140
Gurkaran Trucking Company,2001 S Country Club Rd #2003,El Reno,OK,73036,405-262-0400
Twisted B Industries,15301 Se 33rd,Choctaw,OK,73020,405-833-4052
Boyd & Sons,Rt 1 Box 1676,Checotah,OK,74426,918-463-3776
Legg Transportation,Rt 1 Box 6,Tonkawa,OK,74653,580-628-4040
County Express,Rt 4 Box 1365,Checotah,OK,74426,918-473-5647
Mni Transport,Rt 1 Box 99 B,Jones,OK,73049,405-399-3847
Joe Walker Trucking,226 South 6th,Cyril,OK,73029,580-464-3375
Jack Wilson Trucking,19008 Rangeline,Shawnee,OK,74801,916-624-8775
L & S Trucking,1413 Lessley Lane,Sallisaw,OK,74955,918-776-3042
Jcq Trucking,Rt 2 Box 232a3,Prague,OK,74864,405-567-3662
J T B Transportation,1000 Hardin Lane,Pocola,OK,74902,918-654-3923
O'daniel Dozer Service,Rt 1,Maud,OK,74854,405-374-1747
Buckhead Transport,4401 N Classen Ste #200,Oklahoma City,OK,73118,040-552-5333
T F J Express,307 North Gray,Pocola,OK,74902,501-471-0935
Sammy Hawthorne Trucking,1313 Cr 1390,Chickasha,OK,73018,405-224-8368
Matthew Carter Trucking,920 N W 24th,Moore,OK,73160,405-793-8165
Usa Trucking,3033 N Walnut,Oklahoma City,OK,73105,405-528-4316
Dunn Trucking,325 S Ellis,Boise City,OK,73933,580-544-3347
Wyrick Trucking,Rt 1 Box 96,Miami,OK,74354,918-540-2843
Ken-kan Trucking,7452 E 142 Rd,Atwood,OK,74827,580-986-2405
Jim Wagner Trucking,5509 Arrowhead,Enid,OK,73703,580-233-4724
Triple C Transportation Of Ok,6725 Nw 30th,Bethany,OK,73008,405-495-5890
Couch Dump Truck Service,903 Reynold,Poteau,OK,74953,918-647-4799
Harris Trucking,Rr 2 Box 144,Hollis,OK,73550,580-688-2237
B & W Trucking,212-1/2 Trent Street,Muldrow,OK,74948,918-427-1784
Nationwide Auto Cargo Transport,3903 Se 29th,Del City,OK,73115,405-672-6123
S & D Trucking,43793 Earls Rd,Howe,OK,74940,918-653-7595
S & D Trucking,709 W Main,Marlow,OK,73055,580-658-5749
Kelli Express,309 S Canadian,Wetumka,OK,74883,405-452-3117
Kelly Routh Trucking,1 M S & 1 M W Of Golden Store,Golden,OK,74737,580-420-6020
D & D Mobile Home Service,7 Mi E Of Durant On 70,Durant,OK,74701,580-920-0972
K G M Trucking,4630 Tamoura Lane,Beggs,OK,74221,918-267-7028
Barrington Farms,610 S Sooner Rd,Ninnekah,OK,73067,405-224-8766
5c Transport LLC,1603 Se Indiana,Lawton,OK,73501,580-248-6624
R & D Express,P O Box 327,Hugo,OK,74743,580-326-6825
Jaco Trucking,224 S 3rd,Fairview,OK,73737,580-227-4706
Cheshier Trucking,126 Beships Rd,Hendrix,OK,74741,580-285-2369
Steve Elliott Trucking,5810 N Penn #106,Oklahoma City,OK,73112,405-879-9694
J T Logistics,2121 Sw 76th,Oklahoma City,OK,73149,870-673-1263
Adams Delivery Systems,409 N Ann Arbor,Oklahoma City,OK,73127,405-943-9112
P-k Trucking,415 E Willow,Enid,OK,73702,405-249-5380
E L W Trucking,P O Box 18109,Oklahoma City,OK,73154,N/A
M & J Trucking,Box 252,Hennessey,OK,73742,405-853-2124
Johnson Trucking,433556 E 150 Rd,Vinita,OK,74301,918-256-3097
Hooty's Backhoe Service,6th & School,Hoffman,OK,74437,918-652-3946
Porta Transport,7577 Ne 23rd St,Oklahoma City,OK,73141,405-424-8400
Millirons Trucking,3801 W Liberty,Oklahoma,OK,73107,405-850-8936
B & S Distributing,Route 1 Box 345,Broken Bow,OK,74728,580-584-7319
Dose Okies Hot Shot,Rr 4 Box 364 S,Mcalester,OK,74501,918-297-3385
Papaw's Hot Shot,12125 E Wilshire Blvd,Jones,OK,73049,405-399-5736
B & O Trucking,1927 E Street Nw,Miami,OK,74354,918-542-6535
Johnson Field Service,Rt 4 Box 1305,Checotah,OK,74426,918-621-6276
Tv & C Transporty,1003 N Sara Rd,Tuttle,OK,73089,405-381-3940
Provence Trucking,Hc 64 Box 3810,Fort Towson,OK,74735,580-876-3700
T & G Trucking,27675 E Hwy 51,Coweta,OK,74429,417-652-3350
Metro Movers,4635 South 100th East Avenue,Tulsa,OK,74146,918-664-2700
Richard Crow Trucking,6300 N Liberty,Newkirk,OK,74647,580-362-2056
Jim Akins Trucken,27637 Hwy 270,Wister,OK,74966,918-655-7607
4-s Sales And Service LLC,Rr1box 40,Nowata,OK,74048,918-273-1938
T L Weller Trucking,2609 S W 92nd,Oklahoma City,OK,73159,405-692-2905
Tyline Transport Service,721 80th Ave Se,Norman,OK,73071,405-360-9150
P & D Trucking,Rt 5 Box 88 4a,Muldrow,OK,74948,501-474-5291
Southwest Carriers,4401 N Classen Blvd Ste #200,Oklahoma City,OK,73118,405-525-3333
Brethren Transport,1941 E 61st Ct Nt,Tulsa,OK,74130,918-430-0118
Van Coffman Trucking,12664 South 276 East Avenue,Coweta,OK,74429,918-486-0098
G & B Tank Trucks,Rt 1,Gracemont,OK,73042,405-656-9092
T & T Trucking,206 St & Hwy 75 South,Mound,OK,74047,918-827-5025
Goodyear Transport,107 Myra Ln,Poteau,OK,74953,501-474-5291
L J Transportation,27501 Cascara Road,Blanchard,OK,73010,405-485-8801
Merchant Trucking,Rt 1 Box 135,Snyder,OK,73566,580-569-4337
Rsr Trucking,1326 So Main,Muldrow,OK,74948,801-474-5291
Hands On Transport,4020 S Douglas Ave #261,Oklahoma City,OK,73109,405-350-0809
Triple H Trucking,Rt 2 Box 107,Talala,OK,74080,918-275-4314
Hamilton Express,5425 N Dewey Ave,Oklahoma City,OK,73118,501-474-5291
J And G Trucking,Hc 76 Box 170,Daisy,OK,74540,580-346-7714
D A D Russell Trucking,406 N Temple,Cordell,OK,73632,580-832-5074
R & T Mobile Home Service,Rt 1 Box 120,Morrison,OK,73061,580-724-3370
Verhoeff Trucking,523 East Roh Street,Thomas,OK,73669,580-661-2903
Jim's Truck Center,601 N Steele Ave,Cushing,OK,74023,918-225-1013
Roach Hauling,3751 E 85th St S,Tulsa,OK,74137,918-496-1007
H & C Services & Supply,400 S E Access Rd,Weatherford,OK,73096,580-772-2521
Jay Trucking,11109 County Rd,Stratford,OK,74872,580-759-2947
John Davis Trucking,Rt 2 Box 1830,Porum,OK,74455,918-484-5724
Reavis Trucking,1702 W Archer Drive,Claremore,OK,74017,918-630-3524
D D D Trucking,519 North Illinois,Texhoma,OK,73949,580-423-2497
Sales Dozer Service,14961 Cr 3584,Ada,OK,74820,580-332-1736
Al's Backhoe Service,5 Mi N Of Healdton,Healdton,OK,73438,580-673-2938
Trent Trucking,Rr 1 Box 408-a Pettijohn Rd,Madill,OK,73446,580-795-2118
Lane Trucking,28455 S Hwy 85,Afton,OK,74331,918-256-2300
D & C Trucking,321 S Mckinley,Shawnee,OK,74801,405-214-5630
James Nance Trucking,801 Raymond,Hartshorne,OK,74547,918-297-2217
Annesley Trucking,11304 North Timberline Drive,Norman,OK,73026,405-447-0936
O F U Transportation,3901 W Peake Blvd,Muskogee,OK,74401,918-687-1702
Clayton Swan Trucking,2751 Cr 2625,Pawhuska,OK,74056,918-625-4230
Beller Trucking,20318 Ecr 1130,Stigler,OK,74462,918-967-9464
Randy Cain Trucking,Rt 3 Box 136,Comanche,OK,73529,580-439-5685
Bucks Trucking Co,13374 South Douglas,Guthrie,OK,73044,405-341-5004
"Marlex Transport, Inc.",3700 Classen Blvd Suite 250,Oklahoma City,OK,73118,718-225-4328
B T I,3701-a South Harvard,Tulsa,OK,74135,918-272-8173
American Trucking,18559 E 3rd St,Tulsa,OK,74108,918-266-6114
Four H Farms,2 North 2 West,Carter,OK,73627,580-486-3656
Aasap Mobile Home Transport,7261 Friendship Drive,Lexington,OK,73051,405-527-6936
Triple T Trucking,Hcr 1 Box 15,Boise City,OK,73933,580-426-2452
Kern Trucking,628 Nw 22nd,Moore,OK,73160,405-793-8057
Woolery Trucking,206 Chicksaw,Wister,OK,74966,417-759-9041
Macadoo Trucking,6422 S 107th Ave Apt 3,Tulsa,OK,74133,918-250-5225
Case Trucking,201 E 41st #ap12,Tulsa,OK,74102,918-749-6023
Total M-h Service,1470 N Hwy 69-75,Caddo,OK,74729,580-889-7488
Whirlwind Trucking,Rt 5 Box 182,Eufaula,OK,74432,501-474-5291
T & S Trucking,112 S Orphan,Pryor,OK,74361,918-825-0872
Hicks Trucking,530 E Kestrel,Bokchito,OK,74726,580-920-2806
Kevin Wilson Trucking,P O Box 14771,Oklahoma City7,OK,73113,214-878-7143
J & Y Trucking,3700 Classen Blvd,Oklahoma City,OK,73118,405-524-9900
Zornes Movers Delivery,11351 South 588 Rd,Miami,OK,74354,918-542-0080
Kinslow Trucking,3 Miles East Of City On Hwy 62,Chickasha,OK,73018,405-222-4131
Star Trucking Company,55 N Ranchwood Blvd Apt 109,Yukon,OK,73099,405-350-2557
"M & K Trucking, Inc.",Rural Route 1 Box 230 W,Stonewall,OK,74871,580-265-4885
R L P Trucking,2000 Delancey Drive,Norman,OK,73071,405-360-5196
Fritts Trucking,Po Box 1651,Lonegrove,OK,73443,501-474-5291
Paladin Transport Co,Hcr 68 Box 1275,Vian,OK,74962,918-773-8117
Robinson Dozer Service,307 Third Street,Morrison,OK,73061,580-724-3777
Solo Express,29741 S 552 Rd,Monkey Island,OK,74331,918-839-2007
Southern Star Transport,Rt 3 Box 128,Durant,OK,74701,580-924-6385
Davis Trucking LLC,10681 Nw 107th St,Yukon,OK,73099,405-283-0698
Woolery Trucking,Rt 2 Box 163,Wister,OK,74966,918-655-6858
Captain Kidd Call-n-haul,968 Palmer Drie,Grove,OK,74345,918-786-8458
American Cargo Carriers,11911 E 39th St,Tulsa,OK,74146,918-664-5499
Beeline Transport,32142 S Highway 48,Bristow,OK,74010,918-367-2656
Greg's Trucking,3940 E 31st Place,Tulsa,OK,74135,918-748-8206
C Arnold Trucking,705 N 4th St,Morris,OK,74445,918-733-4273
Clements Carrier,4401 N Classen Blvd St 200,Oklahoma City,OK,73118,800-687-5684
Honest Trucking,10004 St Helens Dr,Yukon,OK,73099,405-324-7662
Mclee Trucking,1113 Sw 40th Street,Oklahoma City,OK,73109,405-631-3908
White Lines Express,2400 S Cherokee Lot 83,Muskogee,OK,74403,918-687-9810
W H I Transport,4703 Se Brown,Lawton,OK,73502,580-248-8457
D & D Transfer & Storage Co,530 E 54th St N,Tulsa,OK,74126,918-430-0764
Griffith Trucking,Hc 63 Box 70,Fort Towson,OK,74735,580-873-2874
Bradley Hauling Service,Rt 4,Jay,OK,74346,918-253-8190
Parish Trucking,906 W Sterrett,Hugo,OK,74743,580-326-6259
Stevens Trucking,3700 Classen Blvd Suite 250,Oklahoma City,OK,73118,619-258-9746
Dry Creek Trucking,Rt 1 Box 47a,Hardesty,OK,73944,580-888-4587
H C S,2601 E Hwy 37,Tuttle,OK,73089,405-381-9478
Flores Trucking,216 S 11th St,Frederick,OK,73542,580-335-3489
B & O Rapid Transport,9304 Southlake Drive,Oklahoma City,OK,73159,405-692-9207
Kms Trucking,6515 Central Rd,Guthrie,OK,73044,405-282-7730
M & R Trucking,Rt 5 Box 1467,Muldrow,OK,74948,918-427-6563
Bancroft Trucking,522 S Olive,Shattuck,OK,73858,580-938-5466
N & S Movers,Hc 61 Boy 128,Lenapah,OK,74072,620-252-9535
Wolf Clan Express,1412 North Urbana,Tulsa,OK,74115,918-838-7714
Blk Trucking,24607 S Wells Ranch Road North,Claremore,OK,74017,918-342-1851
S K Transport,3731 North Tacoma,Oklahoma City,OK,73118,405-530-9355
Shelter Mobile Home Transport,1403 N Oklahoma,Guymon,OK,73942,580-338-0608
C & J Transportation,1540 S Keller 10 Mile Road,Ponca City,OK,74604,580-762-9172
Danielson Fuel Services,18700 County Rd 3590,Ada,OK,74820,580-332-8008
R & R Trucking,Rt 2 Box 162,Mcalester,OK,74501,702-596-7203
American Transportation,771 A East 126 N St,Collinsville,OK,74021,918-596-2840
J & T Trucking,3311 22nd St Apt 224,Woodward,OK,73801,580-256-6480
Dozier Trucking,Rt 1 Box 136,Calera,OK,74703,888-242-5581
Leslie E Myers Trucking,Rt 2 Box 429,Catoosa,OK,74015,918-266-7209
Vista Service And Supply,6100 Nw 2nd St Ste 800,Oklahoma City,OK,73127,806-250-2791
M & J Trucking,210 E Dorothy,Hollis,OK,73550,580-688-2458
John Strong Trucking LLC,4401 N Classen Ste # 200,Oklahoma City,OK,73118,970-243-2637
Poorboy Trucking,21620 Butler Lane,Cameron,OK,74932,918-963-4267
Ted Barlow Trucking,105 West Tyler,Mcalester,OK,74501,918-423-6543
D & J Trucking,1505 Fruitfarm Road,Wister,OK,74966,918-655-7728
Black Dahlia Enterprises,3207 N 7th,Enid,OK,73701,580-234-7447
Chandler Trucking,Rt 1 Box 186,Roff,OK,74865,580-456-7253
C W Trucking,Hc69 Box 5830,Kingston,OK,73439,580-564-3543
B & W Delivery Service,4833 Jay Matt Drive,Yukon,OK,73099,405-912-2398
Criner Hills Trucking,6025 Burns Road,Ardmore,OK,73401,580-657-8290
Ok Auto Remarketing,1306 24th Ave Sw,Norman,OK,73072,405-366-7799
Ochoas Trucking,Route 4 Box 163a,Sayre,OK,73662,580-225-0607
Rawson Trucking,701 S Highway 77,Newkirk,OK,74647,580-362-2886
Miller Trucking,5477 E Hubbard Road,Ponca City,OK,74604,580-762-5003
John's Custom Hauling,1309 S Fern,Broken Arrow,OK,74012,918-258-3641
Bob's Bobcat Dump Truck Service,106 Spruce Dr,Yukon,OK,73099,405-354-0469
H & H Mobile Home Service,2907 N 1st,Durant,OK,74701,580-931-9854
Terry Campbell Trucking LLC,550 Meadow Ln,Gore,OK,74435,918-489-2410
Herndon Auto Transport,9107 E 58th St,Tulsa,OK,74145,918-633-7105
Clark Transportation,4815 E Willow,Enid,OK,73703,580-237-5292
Cellaco Transportation,26280 E 15th,Catoosa,OK,74015,918-266-7465
John King Trucking,Route 1 Box 798,Eucha,OK,74342,918-435-8479
Hub Trucki,1904 W Easton Ct,Tulsa,OK,74107,918-445-3298
Wood Transport,10004 St Helens Dr,Yukon,OK,73099,405-376-3786
Bell Trucking,20657 S 4400 Rd,Vinita,OK,74301,918-256-3541
Sally Transportation,56223 Cr 660,Colcord,OK,74338,918-597-2559
Lay Trucking,311 West Delaware,Mcalester,OK,74501,918-426-1856
K A T,2818 West 61 Pl,Tulsa,OK,74132,918-445-3252
Gifford Hauling,35651 S 620 Rd,Grove,OK,74345,918-786-6812
J & B Trucking,9837 E 12th St,Tulsa,OK,74128,918-630-3302
Wo-jo Express,5128 W Broadway,Muskogee,OK,74401,918-682-8798
Shumway Transportation,206 N W 1st,Tuttle,OK,73089,405-381-3076
Walter Stokes Trucking,310 Ne 28th Suite 210,Okalahoma City,OK,73105,415-585-5962
James Trucking,Highway 113 Rt 1,Canadian,OK,74425,505-267-3132
Hall Trucking,Rr #1 Box 125,Stuart,OK,74570,918-867-2557
Christian Transport,1124 Southwest 130th Street,Oklahoma City,OK,73170,925-778-2480
Hawk Drive,6712 South Hiwassee Rd,Oklahoma City,OK,73150,405-343-4143
Newell Trucking,428 N Iowa,Marshall,OK,73056,580-935-6787
Adams Mobile Home Movers,16001 B 108 St,Lexington,OK,73051,405-527-1657
Telstar Trucking,74393 Buckeye Rd,Wagoner,OK,74467,918-431-5287
Talley Trucking,Route 3 Box 594,Broken Bow,OK,74728,580-420-7041
Fine Things Auto Carrier,100 Space 62 Pioneer Road,Elk City,OK,73644,530-945-9633
Shawn Baker Trucking,Rt 5 Box 505,Broken Bow,OK,74728,580-420-6635
Godwin Trucking,9806 South Czech Hall Road,Mustang,OK,73064,405-376-4901
Double J Livestock Enterprises,15231 So 528 Rd,Miami,OK,74354,918-542-7348
R&r Trucking Service,Po Box 49,Mangum,OK,73554,N/A
Berry Trucking,524 S 3rd,Medford,OK,73759,580-395-2790
Stevens Trucking,501 N 13th St,Frederick,OK,73542,N/A
Sullivan's,2701 South Ranch Drive,Ponca City,OK,74601,580-762-6373
C & F Trucking,P O Box 489,Broken Bow,OK,74728,N/A
Burggraf Tire Or Burggraf Tire Service,328 Main,Quapaw,OK,74363,918-674-2281
Consolidated Motor Express,2237 S E 15,Oklahoma City,OK,73125,304-327-3591
T & H Trucking,Star Route,Durant,OK,74701,N/A
Jack Davis Trucks & Equipment,5110 E Garriott,Enid,OK,73701,405-234-3088
R L Knapp Trucking,Rt 1,Watonga,OK,73772,405-623-7769
Traywick Service Center,Rt 1 Box 290a,Anadarko,OK,73005,405-247-5536
Kittrell Trucking,408 Ne 2nd,Tipton,OK,73570,580-667-4294
Garrett Trucking,304 West Main,Tuttle,OK,73089,405-381-2211
Perfection Truck Parts And Equipment,5100 W Reno Ave,Oklahoma City,OK,73127,405-947-6603
Gilbert Trucking Company,310 S First Avenue,Stroud,OK,74079,918-968-2652
Wilkett Trucking Co,1105 E Central,Stigler,OK,74462,918-967-4689
Hansen Trucking,702 Us Hwy 183 North,Mountain Park,OK,73559,580-569-4963
Rodman Truck Service,1923 S W 15th St,Oklahoma City,OK,73148,405-232-7410
Wilson Trucking,1013 Hampton Dr,Del City,OK,73115,N/A
P D Q Trucking,1 Se 32nd St,Oklahoma City,OK,73129,N/A
Hodges Truck Line,P O Box 1528,Claremore,OK,74017,N/A
Delbert Raley Trucking,1303 Sw 7th,Stigler,OK,74462,918-967-8991
Kansas Gas Service Oklahoma Natural Gas And Texas Gas Service,100 West Fifth Street,Tulsa,OK,74103,918-588-7250
Henry S Trucking,P O Box 482,Tishomingo,OK,73460,N/A
Terex Roadbuilding,1-40 And Morgan Rd Box 1985,Oklahoma City,OK,73128,405-787-6020
Mac Pac,Rr 1 Box 1598,Checotah,OK,74426,918-463-2851
Henderson Trucking Co,1814 Se 22nd,Oklahoma City,OK,73143,405-672-1219
Beeline Trucking Co,Route 2,Mounds,OK,74047,N/A
Lance Hotshot,Rr 5 Box 462,Mcalester,OK,74501,N/A
Mantz Trucking,Rural Rte Po 7,Newkirk,OK,74647,N/A
Mid Central Hot Shot,821 Inlia,Yukon,OK,73099,405-354-0783
B & L Trucking,P O Box 5211,Enid,OK,73701,N/A
Ricky Nelson,Hwy 48 North,Clarita,OK,74535,580-428-3066
Sapulpa-tilsa Express,P O Box 316,Sapulpa,OK,74067,918-321-5333
Smith & Son Trucking,Po Box 224,Wagoner,OK,74467,N/A
Mccollaugh Trucking,P O Box 715,Pryor,OK,74362,N/A
Frontier Idealease,1023 N Garnett Road,Tulsa,OK,74121,918-438-2000
Gowdy Hotshot,P O Box 1445,Woodward,OK,73802,N/A
John Cox Trucking,Rr 2 Box 59,Mangum,OK,73554,N/A
Frith Trucking,15475 S Cr 206,Altus,OK,73526,580-481-8161
Bluebonnet Feeds,100 Mill St Se,Ardmore,OK,73401,580-223-3010
Van Zee Trucking,Po Box 734,Mooreland,OK,73852,N/A
Briscoe Transportation,125 N 3rd,Durant,OK,74702,405-924-0034
Johnny Ware Trucking,Po Box 220,Moffett,OK,74946,N/A
Coleman Trucking,P O Box 276,Clayton,OK,74536,918-569-4500
Oklahoma Trucking Systems,Rt 7 Box 182 M,Sapulpa,OK,74066,918-224-2918
Cantrell Trucking,Hc 68 P O 125,Valliant,OK,74764,N/A
Thompson Trucking,2337 A St Ne,Miami,OK,74354,918-540-3156
B J Wingate Trucking Company,Hc 68 Box 640,Checotah,OK,74426,405-732-1572
James Carlson Trucking,Highway 64 East Box 310,Muldrow,OK,74948,N/A
B & E Transport,West St Street,Sapulpa,OK,74066,N/A
H & M Transportation,Hwy 833 & Hwy 18 Intersection,Cushing,OK,74023,N/A
Mar Bake Transportation,Hc 68 Box 734,Kingston,OK,73439,N/A
Cal-tex Transportation Co,1039 Circle Drive,Stroud,OK,74079,N/A
Davis Trucking & Moving,P O Box 1231,Grove,OK,74344,N/A
S-t-o Freight System,1201 S Grand,Oklahoma City,OK,73129,N/A
J & M Trucking,35040 Newcastle Hills Ln,Blanchard,OK,73010,405-593-0219
Rusty Hamar Trucking,901 North 2nd,Thomas,OK,73669,405-661-2820
J & J Truck Service,206 W Tahlequah St,Sulphur,OK,73086,N/A
Woodard Hot Shot Service,1415 South Downs No 50,Woodward,OK,73802,N/A
Mckindras Tough Trucking,1013 N 16th,Lawton,OK,73507,N/A
D & M Transportation,325 Frontier Drive,Oklahoma City,OK,73128,405-787-3797
Cales Trucking,53 N 9 Mile Rd,Ponca City,OK,74604,580-765-7887
Cox Trucking,Rt 4 Box 48b,Marlow,OK,73055,N/A
Oklahoma Truck Tire Recyclers,330 N Bell,Vinita,OK,74301,918-256-3709
Beason Trucking,1 Mi S Of Us70,Sawyer,OK,74756,580-326-0625
Burwick Transportation,910 N Hwy 77,Marietta,OK,73448,N/A
"Hot Shot Transportation, Inc.",114 St Louis,Welch,OK,74369,N/A
F M Shirey,705 Fourth Nw,Miami,OK,74354,918-542-7651
Elmer's Delivery Service,1009 West Fay,Kingfisher,OK,73750,N/A
Beavers Express,518 Stoneridge Dr,Oklahoma City,OK,73160,N/A
David Wayne Listen,6401 N Broadway,Edmond,OK,73083,405-341-1749
Sanders Hot Shot Services,1305 N 143 E Avenue,Tulsa,OK,74116,918-234-9124
C B T Trucking,Route 3 Box 413a,Vinita,OK,74301,918-256-6081
S & J Trucking,12012 Sw 26th Street,Yukon,OK,73099,N/A
Midas Auto Systems Experts,2206 W Lindsey St,Norman,OK,73069,N/A
Trans Us,37878 State Rd 78,Durant,OK,74701,580-513-1584
Thompson Trucking,601 W Pearl Ave,Texhoma,OK,73949,806-827-7345
Bart Forbes Trucking,397150 W 4000 Rd,Skiatook,OK,74070,918-396-2792
Suzett`s Trucking,P O Box 793,Carnegie,OK,73015,N/A
Heads Tire & Trucking,8695 North Hwy 177,Braman,OK,74632,800-707-7120
Carl Davis Trucking LLC,20752 E 141 Street S,Broken Arrow,OK,74014,918-486-5189
Slater Harvesting & Trucking,2 Mi N & 1 Mi W Of Hwy 60&8,Fairview,OK,73737,580-227-3629
Fully Loaded Trucking,28404 E 140th St,Coweta,OK,74429,N/A
Ks&d,1120 48th St,Woodward,OK,73801,580-254-5975
Tlmc Transportation,Rt 3 Box 725,Collinsville,OK,74021,918-272-1176
Tom Lisk Trucking,Route 3 Box 137a,Medford,OK,73759,405-594-2559
Timmons Trucking,Po Box 541,Keota,OK,74941,918-966-2132
K&r Trucking,Po Box 4805,Foster,OK,73039,N/A
A & E Trucking,5723 S 35th West Ave,Tulsa,OK,74107,918-446-0035
Seifried Trucking,2 Mi E Of Canton On Hwy 51,Canton,OK,73724,580-886-3581
Jackie Green LLC,Rr 1 Box 34,Carmen,OK,73726,580-987-2344
"Forrest Trails Trucking, Inc.",Se Corner Jct 62 & 82 Hwy,Park Hill,OK,74451,N/A
Sandy Creek Trucking,101 Country Side Drive,Velma,OK,73091,405-444-2148
Black Diamond Trucking,1218 Sweet Briar Dr,Tecumseh,OK,74873,405-598-5728
"Royal Automotive Parts Co, Inc.",400 North Ann Arbor,Oklahoma City,OK,73127,405-949-0101
Summerfield Farms,8601 Nw 206th,Edmond,OK,73012,405-341-6660
H & R Trucking,Rt 4 Box 68,Okmulgee,OK,74447,918-756-0892
Sweeney Trucking,16301 192 Nd Street,Lexington,OK,73051,405-527-4796
Bruce Cook Trucking,102 North Lincoln,Hobart,OK,73651,580-726-2752
Arrow Concrete Company,1601 East Houston,Broken Arrow,OK,74012,918-258-1549
Cold Cash Express,210 N Logan Box 7,Mangum,OK,73554,405-782-2900
Reasnor Trucking,Rt 1 Box 1115-b,Kinta,OK,74552,918-469-2987
Adams Delivery Systems,409 N Ann Arbor,Oklahoma City,OK,73127,405-943-9112
Robert W Crawford Trucking,140 S Ross,Vinita,OK,74301,918-256-7731
C & D Trucking,Po Box 149,Moffett,OK,74946,501-474-5291
Taylor Transportation Co,101 Lakeview Dr,Tecumseh,OK,74873,N/A
Ed Kelley Trucking,707 E 7th St,Olustee,OK,73560,580-648-2222
C & C Trucking,Po Box 855,Jay,OK,74346,N/A
Tunnell Trucking,1 Mv S Smithvillle,Smithville,OK,74957,405-244-3312
Eugene Willis 4w Trucking,Po Box 1048,Broken Bow,OK,74728,580-420-3202
W & W Auto,Rr 2 Box 345-2,Tahlequah,OK,74464,502-241-9552
Jeeps Trucking,5110 Nw Meadowbrook,Lawton,OK,73505,580-353-0157
Aa Trucking,20204 E Pine St,Catoosa,OK,74015,918-266-5462
Randy Jolly Trucking Company,21192 Drummond Rd,Tecumseh,OK,74873,405-598-3872
Hoffman Trucking,Rt 2 Box 289-7,Chelsea,OK,74016,918-785-2322
Clyde C Vaughn And Family Trucking,Route 3 Box 404,Vinita,OK,74301,918-256-7270
Lewis Prewitt Trucking,Route 3 Box 322,Broken Bow,OK,74728,580-420-3501
Diamond B,6 & 1/2 Mi East On Sh51,Okeene,OK,73763,580-822-3400
"Oklahoma Overland Express, Inc.",Rt 2 Box 184c2,Seminole,OK,74868,405-382-7129
Automatic Equipment Sales Of Oklahoma,4601 N W Third,Oklahoma City,OK,73127,405-947-8700
F H Smith Transport Co,10650 South 640th Rd,Miami,OK,74354,775-397-0648
B & K Trucking,P O Box 1341,Muskogee,OK,74402,918-682-8813
Hickman Truckins,Po Box 355,Lindsay,OK,73052,405-222-0087
Norvan And Creed Baldwin,Rr 1 Box 293,Logan,OK,73848,580-837-5472
A Paper Group Holding Co,20 North Mccormick,Oklahoma City,OK,73127,405-942-8871
Jerry Tilley Trucking,Rt 2 Box 149,Mc Loud,OK,74851,405-964-3321
"Central Paraffin Service, Inc.",P O Box 1778,Edmond,OK,73083,405-348-4700
Harrison Trucking,700 East Main,Wapanucka,OK,73461,580-937-4324
Coinmach Corp,3168 S 108th East Ave,Tulsa,OK,74146,405-949-2400
Claude Myers Transportation,Po Box 373,Yale,OK,74085,N/A
Townsend Mobile Homes Transport,1502 Jefferson,Lawton,OK,73501,405-248-0407
Russell Trucking,Rt 3 Box 29,Hooker,OK,73945,N/A
Bryant Jones Truckig,Po Box 165,Caddo,OK,74729,N/A
"Roland Tucker Transport, Inc.",Route 2 Box 205,Wyandotte,OK,74370,918-666-3615
Pritchard Trucking,Po Box 773,Erick,OK,73645,N/A
Butch Green Trucking LLC,Rt 1 Box 57,Haworth,OK,74740,580-245-1507
"Neighbors Coffee, Inc.",11 Ne 11th,Oklahoma City,OK,73154,405-236-3932
Taylor Trucking,Rt 4 Box 125a,Lindsay,OK,73052,405-756-8565
Mjg Trucking,Rt 4 Box 71,Muldrow,OK,74948,918-427-1083
Ironman Services,Po Box 98,Lindsay,OK,73052,N/A
J & B Express,590 W 148th Pl,Glenpool,OK,74033,N/A
North Trucking,Po Box 808,Hooker,OK,73945,580-522-1940
Deluca Trucking,170 Nw Deluca Drive,Elgin,OK,73538,580-492-4944
Sauerberg & Son Trucking,Po Box 86,Marietta,OK,73448,N/A
Cross Fire Express,10813 Ne 17th St,Oklahoma City,OK,73141,800-952-3271
Panter Bros Trucking,805 Henley,Miami,OK,74354,918-542-2926
T & S Delivery Service,901 West Wakeco,Broken Arrow,OK,74011,N/A
"Tire Service, Inc.",23 North Detroit,Tulsa,OK,74120,918-585-5083
Logan Trucking,Rt 2 Box 361,Vinita,OK,74301,918-782-2332
N B C Hotshot,4221 1/2 Oklahoma Ave,Woodward,OK,73801,405-256-5193
Horizon Transportation,3033 N Walnut Suite 219w,Oklahoma City,OK,73105,800-344-5480
Riggs Trucking,Rt 1 Box 257,Wynnewood,OK,73098,405-238-5446
C & D Delivery,813 N 10th,Sapulpa,OK,74066,N/A
M R I Transport,100 West 5th St #400,Tulsa,OK,74103,N/A
Freedom Express,P O Box 35099,Tulsa,OK,74153,N/A
Mcreynolds Trucking,717 West Ash,Westville,OK,74965,918-723-4436
Wayne Weeks Trucking,Rr 2 Box 48,Broken Bow,OK,74728,405-584-9249
Davis Bros Trucking,5127 East Cameron,Tulsa,OK,74115,N/A
Cowan Trucking,Hwy 64 East Box 310,Muldrow,OK,74948,501-474-5291
"Kenco, Inc.",1004 South Echo Street,Holdenville,OK,74848,N/A
Roy Young Trucking,69101 237th Ave,Smithville,OK,74957,405-244-3468
River W Trucking,15306 Drummond Rd,Shawnee,OK,74801,405-273-4094
K & D Transport,1/2 Mile West Jet Hwy 64,Jet,OK,73749,405-626-4712
Grothe Trucking,1201 S Jefferson,Enid,OK,73701,580-916-1734
Maher Trucking,Ste 298 1 Plaza South,Tahlequah,OK,74464,N/A
Town Produce & Trailer Sales Services,1223 West Broadway,Sulphur,OK,73086,405-622-3010
Blackmon Trucking,1224 N Lee,Cordell,OK,73632,580-832-3902
Savage Trading Company Services,10840 N W 10th St,Yukon,OK,73099,405-324-8300
Jims Mobile Home & Service,Rt 2 Box 339,Grove,OK,74344,918-786-2110
King Trucking,23926 E 135 St S,Coweta,OK,74429,918-279-0655
Duncan Transportation,Po Box 8,Duncan,OK,73534,405-439-6661
Bavido Trucking,3110 Edgewater Drive,Woodward,OK,73802,580-256-0955
B&t Truck & Tractor,1527 South 3rd St,Chickasha,OK,73018,405-224-5522
Bernrods Truck & Trailer Service,8003 N 117th E Ave,Owasso,OK,74055,918-272-4170
Newman Cable Const Co,100 North Broadway,Konawa,OK,74849,405-925-2506
Rocking J Trucking,35776 S 4220 Road,Inola,OK,74036,918-543-8320
R G B Trucking Burdick Moving & Storage,4089 N W 3rd,Oklahoma City,OK,73107,405-943-7184
Glenn Mcconnell Trucking,327 South 4th,Chickasha,OK,73018,N/A
Harrison Trucking,Hc 73 Box 560,Haworth,OK,74740,405-245-1598
Duncan Trucking,840 N Santa Fe,Moore,OK,73160,405-799-9822
Richard Cox Trucking,240 S Brady,Claremore,OK,74017,501-474-5291
Miller Trucking,606 King,Lone Grove,OK,73443,405-657-3225
Pony Express,Rt 2 Box 79,Meeker,OK,74855,N/A
C & L Trucking,Grand Avenue,Moffett,OK,74946,N/A
H D Trucking,1611 Sheffield Drive,Norman,OK,73071,405-329-4608
J B F Trucking,Hc 60 Box 580,Checotah,OK,74426,918-473-4025
5-h Trucking,13336 Nw Expressway,Piedmont,OK,73078,405-772-2325
Tds,1500 N Main,Tonkawa,OK,74653,580-628-5371
W R Lyons Trucking,Rt 1 Box 9300,Warner,OK,74469,918-360-1332
Ja Rae Trucking Co,714 W Knisley,Checotah,OK,74426,N/A
Doyle's Trucking,312 N Main,Thomas,OK,73669,580-661-2688
H & B Trucking,600 W Commercial,Gotebo,OK,73041,580-538-4246
Smith & Sons Trucking,921 County St 2910,Tuttle,OK,73089,405-381-4883
A D & A Trucking,Route 4 Box 455,Guthrie,OK,73044,N/A
D & E Truck Lines,202 E Church St,Paoli,OK,73074,405-238-6637
Mobley Agri Services,7 Parkway Drive,Chickasha,OK,73018,405-224-7073
Robinson Transportation Service,209 N W 81st,Oklahoma City,OK,73114,405-842-4752
Ben Staples Trucking,Hcr 75 Box 112,Haywood,OK,74548,918-389-4579
Maib Trucking,105 N Aurora,Geary,OK,73040,405-884-2065
T & R Delivery Service,4415 Cache Road,Lawton,OK,73505,405-353-8654
Bailey's Express,3150 N Aspen,Broken Arrow,OK,74012,N/A
Gunsmoke Express,Rt 2 Box 183c,Wyandotte,OK,74370,417-623-5883
Lost Creek Cattle Express,Rt 4 Box 545-1,Grove,OK,74344,918-786-6225
Jabbok Trucking,310 N Country Club,Newcastle,OK,73065,405-387-3356
Chino Trucking,601 Town View Dr,Oklahoma City,OK,73149,405-632-7908
Midwest Trucking,3117 E Xyler,Tulsa,OK,74110,N/A
Ambler Buildings,Hwy 66 & Industrial Rd,Chandler,OK,74834,405-258-0021
White Trucking,Rt 3 Box 113,Walters,OK,73572,N/A
B & M Transport,4505 West 43rd Street,Tulsa,OK,74107,918-445-2468
Phipps,1291 S 104th W,Muskogee,OK,74401,918-681-0388
Fran M Walsh Trucking,801 N Oak St,Pauls Valley,OK,73075,405-238-5987
Randy Jones Trucking,Rt 3 Box 43,Cordell,OK,73632,580-832-5623
Jbh Trucking,943 Johnatan Way,Mustang,OK,73064,405-376-9620
Peoples Trucking,5646 S 30th W Ave,Tulsa,OK,74107,N/A
Resendiz Transportation,2920 Sw 25th Street,Oklahoma City,OK,73108,405-682-0842
B & L Trucking,P O Box 2111,Guymon,OK,73942,N/A
C-b Trucking,Rt 6 Crest Drive,Guthrie,OK,73044,405-282-0019
Knight Trucking,114 East 6th,Claremore,OK,74017,N/A
Specialized Delivery Services,5800 Industrial Blvd Ste E,Edmond,OK,73034,405-359-9886
Davis Trucking,950 Kay Lane,Tahlequah,OK,74464,918-456-6722
G B G Trucking,Rt 2 Box 113,Mooreland,OK,73852,405-697-3229
Sandau Trucking,11162 W 9 Hwy,Whitefield,OK,74472,918-967-4769
Barry Smith Custom Dozer Service,East Hwy 51 Box 802,Hennessey,OK,73742,405-853-2266
Aj Trucking,607 W Elm,Altus,OK,73521,580-318-2133
"Liberty Logistics, Inc.",5841 E 186th St S,Bixby,OK,74008,918-366-4037
Mussman Trucking,Rt 3 Box 147,Guymon,OK,73942,405-481-7760
Diamondhawk Transportation,309 North Walnut,Broken Arrow,OK,74012,918-921-9983
Reed Trucking,722 E 138th Pl,Glenpool,OK,74033,918-297-5656
Mc Farms LLC,Po Box 463,Blackwell,OK,74631,405-880-3800
Vineyard Trucking LLC,P O Box 474,Stonewall,OK,74871,580-265-9215
Twins Truck Line LLC,10681 Nw 107th St,Yukon,OK,73099,405-283-0698
"H & J Trucking, Inc.",Ruralroute 1 Box 265,Cashion,OK,73016,405-433-9199
Britton Hotshot Service LLC,3329 Cox Cir,Choctaw,OK,73020,405-203-9743
Charles H Rushing,10681 Nw 107th St,Yukon,OK,73099,405-283-0698
"Auto Transport Express Az, Inc.",10681 Nw 107th St,Yukon,OK,73099,405-283-0698
Bob Richardson Trucking,10681 Nw 107th St,Yukon,OK,73099,405-283-0698
"Ta Transport, Inc.",7413 S Hickory Ave,Broken Arrow,OK,74011,918-406-9729
D & R Trucking,43291 210th Avenue,Howe,OK,74940,918-653-4952
"Refrigerated Freight Solutions, Inc.",8205 S Beech Ave,Broken Arrow,OK,74011,918-638-7585
Jwilly's Trucking LLC,1740 North Tacoma Ave,Tulsa,OK,74127,918-693-8396
Kerose Trucking,10681 Nw 107th St,Yukon,OK,73099,405-283-0698
Map Motor Freight LLC,8124 E 74th Court,Tulsa,OK,74133,918-633-8478
D Clark Transport LLC,P O Box 702645,Tulsa,OK,74170,918-855-7527
Kingsize Truckin,4004 Smith Dr,Spencer,OK,73084,405-417-1470
Cloud Mechanical,10681 Nw 107th St,Yukon,OK,73099,405-283-0698
Copeland Trucking And Ag Services,1405 S Highway 28,Chelsea,OK,74016,918-789-3511
Circle E Farms & Construction LLC,Rr 3 Box 76,Hennessey,OK,73742,580-822-5934
Rs Transport,10681 Nw 107th St,Yukon,OK,73099,405-283-0698
Krazy Creek Ranch,103 E Central Ste 150,Miami,OK,74354,417-559-8726
Boomertown Usa,8121 S 68th E Ave,Tulsa,OK,74133,918-289-3405
Beebest Country Enterprises,Rt 3 Box 1700,Wilburton,OK,74578,979-220-4056
Joes Welding Service,200 Capital Street,Fort Gibson,OK,74434,918-478-4287
Triple A Trucking,505 Ne 29th,Guymon,OK,73942,580-338-4244
Ramcco Trucking,6965 S 309th E Ave,Broken Arrow,OK,74014,918-402-1989
High Desert Transport,8377 Meadowlark Drive,Wynnewood,OK,73098,405-306-3844
Sunrise Services,4599 South Bethel Road,Madill,OK,73446,580-677-0001
Ramos Express,106 First Street,Clarita,OK,74535,580-258-8156
Othel Gamble Jr Farms,15510 Rhino Rd,Spiro,OK,74959,918-962-2223
GenecoLLC,1718noxfordave,Tulsa,OK,74115,918-691-4993
Porras Trucking,402 Hwy 95 N #7,Texhoma,OK,73949,580-423-3142
Pinnacle Auto Center LLC,401 Se 2nd,Guymon,OK,73942,580-338-2284
James Fred & Donna Gay Ottinger Revocable Trust,Hc 1 Box 96,Boise City,OK,73933,580-544-2803
Twenty-nine Transport,716 Anaheim Court,Oklahoma City,OK,73139,405-632-8476
R & S Farm,359110 E 1050 Rd,Paden,OK,74860,405-932-5330
Oaks & Sons,30079 Sw 7 St,Stigler,OK,74462,918-490-1279
Landers Transportation LLC,1110 White Street,Sallisaw,OK,74955,918-776-9306
Majestic Farms,8686 Hwy 91,Colbert,OK,74733,469-628-4408
Martin Trucking,903 Oak Hollow Road,Madill,OK,73446,580-795-7201
Balmain Logging,Hc83 Box645,Antlers,OK,74523,580-298-5375
Lark,Hc 62 Box 4020,Blanco,OK,74528,918-360-0586
Kerr Transportation,20278 E Cr 153,Blair,OK,73526,580-563-2815
Cross Country Freight Specialist,801 Rainbow Ln,Madill,OK,73446,919-648-2760
Deluxe Transport,1986 County Road 1390,Blanchard,OK,73010,405-413-8699
Workzone Trucking,739 N Atlanta Ave,Tulsa,OK,74110,918-402-6682
Vroom Expedite Of Charlotte And Or Vroom Expedite Of Detroit,1212 South Delaware Pl,Tulsa,OK,74104,918-582-8500
Fains Trucking Company,6401 Lovers Lane,Henryetta,OK,74437,918-759-0162
Raften F Trucking Llp,17154 Williams Rd,Cameron,OK,74932,918-635-5125
Double C Trucking,23125 Old Hwy 112,Cameron,OK,74932,918-413-1453
H M Hotshots,701 Se 3rd,Marietta,OK,73448,580-276-7794
Muse Racing Stable,460571 E 1040 Rd,Sallisaw,OK,74955,918-776-0648
Atl Drum Services,512 West Dewey Street,Sapulpa,OK,74066,573-819-5498
3 T Trucking,105 Wyandotte Ave,Ramona,OK,74061,918-536-2271
Francis Hotshot Service,200 S Maple,Erick,OK,73645,580-309-7467
Mid America Associates 1,361097 E 1090 Rd,Paden,OK,74860,405-932-4348
Manny's Portable Welding,1807 S Colorado St,Idable,OK,74745,580-286-2184
Sorrell Trucking,Rt1 Box 14,Checotah,OK,74426,918-473-1431
Pace Enterprises,59004 E 147 Rd,Fairland,OK,74343,918-541-7313
L And L Trucking,Rt 2 Box 270,Watts,OK,74964,918-803-2591
Tms Deliveries,315 Fry Ct,Claremore,OK,74017,918-283-2598
Mike Hill's Welding,413 N 3rd,Sharon,OK,73857,580-866-3352
Pope Livestock,6111 Hwy 270,Wilburton,OK,74578,918-649-7002
Cowles Trucking,431753 E 330 Rd,Big Cabin,OK,74332,918-915-0234
Star Limousine,1406 Maple,Guymon,OK,73942,580-338-0286
Dalton Trucking,10407 E Indian Hills Road,Norman,OK,73026,405-625-3179
B & B Transport,14981 Edwards Loop,Cameron,OK,74932,918-385-1940
Owner,301 W Blakley,Rush Springs,OK,73082,580-476-3432
Mls Trucking,601 Cedar Circle,Mangum,OK,73554,580-782-2925
Loch Ness Pools,8701 Acre View Dr,Oklahoma City,OK,73151,405-771-5214
"A1 Equine Performance Horses, Inc.",Hc 65 Box 17j,Ringling,OK,73456,580-662-2513
Adsit Farm,Rr 1 Box 130,Ryan,OK,73565,580-757-2570
Stewart Enterprises,1602 Avondale,Muskogee,OK,74403,918-391-2066
Larry Hayes Farms,1177 Cr 1560,Rush Springs,OK,73082,580-476-2346
Motor Carrier,1204 E Carey,Shattuck,OK,73858,580-216-6153
Circle H Farms,557 Mississippi St,Fairfax,OK,74637,580-352-1722
Barnhart Transportation,17147 Us Highway 64,Haskell,OK,74436,814-898-2668
Rockin S Welding LLC,433456 E 200rd,Vinita,OK,74301,918-244-0209
Derrick Gray,Corner Of Burney And Caldwell Street,Burneyville,OK,73430,580-465-1903
Eagle Recycling,Rt 3 Box 137,Guymon,OK,73942,580-461-0422
Gifford Motorsports,1712 Hudson Drive,Ponca City,OK,74601,580-716-3025
Three Rivers Farm,2428 Irving St,Muskogee,OK,74403,918-691-7582
Double P Hay Hauling,Route 2 Box 498,Westville,OK,74965,918-316-0778
Rodriguez Trucking,3389 Sw 17th St Apt A,Oklahoma City,OK,73108,405-630-0326
F Martinez Roofing,640 Se 32nd Street,Oklahoma City,OK,73129,405-740-1715
Flawless Roofing,2405 East 5th St,Edmond,OK,73034,405-850-8515
C & N Contracting,Route 1 Box 213-34,Cleveland,OK,74020,918-243-5134
Rpb Trucking,27280 County Line Ave,Blanchard,OK,73010,405-485-2183
J R Trucking,302 E Maury,Woodward,OK,73801,580-334-5535
Wilkison Enterprises,62550 E 269 Court,Grove,OK,74344,918-801-3007
Rg2 Trucking,400 N Main St,Butler,OK,73625,580-664-5672
Mefford Excavation,211 N Hwy 10,Kansas,OK,74347,918-822-3423
Davis Transport,6 Miles N Of Apache On Hwy 281,Apache,OK,73006,580-695-1537
Perfect Day Enterprise,5805 Se 82nd Street,Oklahoma City,OK,73135,405-694-5252
Viescas Roofing,1217 Sw 46th St,Oklahoma City,OK,73119,405-922-5511
Importadora Atlantida,1918 Nw 14th St,Oklahoma City,OK,73106,317-420-9468
"Firex, Inc.",398070 W 900 Rd,Copan,OK,74022,877-703-4739
Hauling Hay And Livestock,211 Main Street,Boswell,OK,74727,580-566-2698
Brothers Towing And Recovery Service,320 South Main,Miami,OK,74354,918-675-5869
B&b Rolloffs,Rt 1 Box 264,Anadarko,OK,73005,405-320-4762
O W T Trucking,302 Market St,Westville,OK,74965,479-225-4610
Sb Transport,5302 W University,Durant,OK,74701,580-775-5068
R & A Auto Transport,315 N 6th,Arapaho,OK,73620,580-323-1076
Foreign Aide Automotive,64400 E 290 Rd,Grove,OK,74344,918-787-6000
Double M Construction,117 N 4th,Chouteau,OK,74337,620-960-0912
Tri W Construction,13096 Hwy 177,Stratford,OK,74872,580-759-3892
Clint Ogle,Hc 1 Box 10,Felt,OK,73937,580-426-2255
Jabez Specialized Transportation,115 South 1st Street,Guthrie,OK,73044,405-448-9514
Doug Stutzman,73 S 4417,Salina,OK,74365,918-434-2255
Cpr Services,810112 S Main St,Agra,OK,74824,918-368-2492
Cullum Farms,Hc R1 Box 28,Keyes,OK,73947,580-651-3542
Coyote Creek Trucking,518 Spruce St,Custer City,OK,73639,580-309-0426
Bar B Hotshot Services LLC,101 East Columbia,Cheyenne,OK,73628,580-497-2801
C L S Services LLC,712 S Forrest Avenue,Stratford,OK,74872,580-759-3886
Cowboy Cow Trucking LLC,5004 S Eastern Eve Lot 427,Oklahoma City,OK,73129,580-478-8540
Oz Transport,9501 S I-35 Service Rd,Moore,OK,73160,405-413-1639
Menjivar Construction,746 Se 28 St,Oklahoma,OK,73129,240-750-9151
Troyer Trucking,8750 W 640 Rd,Chouteau,OK,74337,918-978-0939
Pwm Transportation,219 S Van Buren,Blanchard,OK,73010,405-432-0052
Sfr Trucking,1414,Stillwater,OK,74074,405-707-0772
R&r,35917 W 36thst S,Mannford,OK,74044,918-729-4445
Standard Freight,913 Sw 69th St,Oklahoma City,OK,73139,405-650-9651
Blue Valley Water Co,825 Apollo,Hartshorne,OK,74547,918-297-7888
"City Tent & Awning Co, Inc.",419 E 5th,Tulsa,OK,74120,918-583-5003
Clay Creek Corral Angus Farm,1720 S Grand,Cherokee,OK,73728,580-761-0260
Pony Express Hotshot,1750 Gregory Road,Tuttle,OK,73089,405-381-2171
Drsb Trucking,2729 Sw 34 Dr,Locust Grove,OK,74352,918-373-2894
Cedar Lane Farms,6606 E Cedar Ln,Norman,OK,73026,405-255-0124
Zc Cattle LLC,11041sunset Shores,Mcalester,OK,74501,918-448-2169
Martin Equipment Repair,24862 South 366 Road,Fort Gibson,OK,74434,918-348-1202
"J Miller Trucking, Inc.",127 Sooner Rd,Shawnee,OK,74804,281-838-5641
James Zee Trucking,5150 S 4470 Rd,Welch,OK,74369,918-520-9795
Double D Welding,Box 236,Sentinel,OK,73664,405-990-7059
Ike Brueggen,R R 4 Box 165,Okarche,OK,73762,405-263-4489
Pyramid Hotshot Services,3604 Maloney Dr,Oklahoma City,OK,73121,405-702-0001
Padgett Farms,9270 Hickory Road,Henryetta,OK,74437,918-652-3020
Willoughby Farms,4250 Cr 3478,Ada,OK,74820,580-332-3354
M&m Transports,12248 N 1790 Rd,Erick,OK,73645,580-526-3657
Rush Creek Welding And Manufacturing,19156 Highway 76,Lindsay,OK,73052,405-756-8483
Rdg Transport,6827 W 35th Pl,Tulsa,OK,74107,918-445-6462
Tulsa Trucking,7317 S Mingo Rd # 1117,Tulsa,OK,74133,918-289-9921
L A W Farms,13420 Crusher Rd,Coleman,OK,73432,580-916-1547
John Whitten Welding,1454 East Hereford Lane,Mcalester,OK,74501,918-421-0408
Wartick Contracting,903 W Enid,Wilburton,OK,74578,918-557-3018
Ws Transport,410 W 1st,Vici,OK,73859,580-995-3152
Wcs,2660 E 75th Street,Tulsa,OK,74136,918-645-3433
Nipp Farms,9387 Buckskin Rd,Wilson,OK,73463,580-504-1003
Two Men And A Truck,550 East Memorial Rd,Oklahoma City,OK,73114,405-708-7707
Bess Farm,1059 N 4410,Swink,OK,74761,580-212-5092
Two Brothers Farms,212 West F,Alex,OK,73002,405-779-4585
Ct Equine Transportation,9305 Mahler Place,Oklahoma City,OK,73120,405-206-2383
Raisin' Cain,11789 Hwy 199,Madill,OK,73446,580-677-0410
Schroeder Ranch,30261 Cr120,Freedom,OK,73842,580-334-7437
Alford Rope Horses,2004 East Cedar Ridge Rd,Tishomingo,OK,73460,580-371-6105
Smith Trucking,1220 Louanna Lane,Altus,OK,73521,580-301-4806
Nitro Trucking,11285 N 1975 Road,Elk City,OK,73644,580-374-1532
Triple Creek Ranch,Rr 1 Box 775,Coalgate,OK,74538,580-927-2742
Graham Productions,231 N 17th St,Muskogee,OK,74401,918-360-8406
Whip And Spur Hotshot Service,715 South Van Buren,Elk City,OK,73644,580-339-0909
S A Lyons,Rt 1 Box 9300,Warner,OK,74469,918-463-2387
4 F Farms,7335 Meadow Road,Davis,OK,73030,405-665-2722
Expert Hot Shot,909 S Butternut Place,Broken Arrow,OK,74012,918-855-6783
Tlb Transportation Co LLC,1270 S Chisolm Rd,Caddo,OK,74729,580-889-3077
Onsite Scrap Recycling LLC,5756 S 100th W Ave,Sand Springs,OK,74063,918-514-4300
Tkb Trucking,203 Lee Ornder Ave,Panama,OK,74951,918-208-2306
Dollins Trucking,400 Mockingbird Dr N,Altus,OK,73521,580-471-5904
Farm And Ranch,Rt1 Box 53,Balko,OK,73931,580-646-3357
Case Trucking,1790 Hunt Rd,Ponca City,OK,74604,405-283-0698
Newman Hotshots,25577 Murphy Ct,Claremore,OK,74019,918-688-9986
Thomas R Trucking,3171 S 129th #305,Tulsa,OK,74134,918-409-4320
Taylor Trucking,24078 Brazil Creek Loop,Shady Point,OK,74956,918-721-9956
Main Enterprises,9777 N Council Rd,Oklahoma City,OK,73120,865-274-6313
Stierwalt Ranch LLC,301 Graham Road,Burbank,OK,74633,918-688-5774
Terrys Trailers,2717 S I-35 Service Road,Oklahoma City,OK,73129,405-733-8883
Purelimo,211 E Gray St,Norman,OK,73069,405-708-9300
