Company Name,Street Address,Address Locality,Address Region,Postal Code,Telephone
S & K Transportation,1030 Sw 11th St #74,Hermiston,OR,97838,541-720-8990
Kemojo Trucking,2109 3rd Street,La Grande,OR,97850,541-910-7398
Double F & F Delivery Services,13440 Sw Rita Drive,Beaverton,OR,97005,503-626-2337
Christman Trucking,15890 Wingville Ln,Baker City,OR,97814,541-523-5615
Brent Herren,335 Se 14th Pl,Canby,OR,97013,503-891-3170
Affordable Vehicle Transportation,4 Beach Avenue,Ashland,OR,97520,760-567-5348
Liberia Sekou Transport,2662 Se 160th #62,Portland,OR,97236,503-447-5808
Tortorici Transport,4105 Upper Dr,Lake Oswego,OR,97035,503-936-8091
Joe Trucking,7833 N Syracuse St,Portland,OR,97203,503-310-6511
J & A Trucking,7949 Teal Dr,Bonanza,OR,97623,541-545-1224
Westar Hauling,351 Ne 191st Ave,Portland,OR,97015,503-969-1688
Alpha Express,13062 Se Powell Blvd Apt 1,Portland,OR,97236,503-760-5376
Jett Transport,88569 Collard Lake Road,Florence,OR,97439,541-902-2288
Bas Trucking,222 Section St,Molalla,OR,97038,503-757-6685
Tri-star Modular Express Countertops Commercial Cabinet Innovations,336 Se 9th St,Bend,OR,97702,541-388-3238
Jesse Reese Trucking,2511 Looksh St,Warm Springs,OR,97761,541-325-2026
Mts Trucking,2509 Highway 201,Nyssa,OR,97913,541-212-6011
Iron Horse Express,17289 Westside Rd,Lakeview,OR,97630,701-690-7961
Westward Carriers,30640 S Arrow Ct,Canby,OR,97013,503-651-2977
Jeffrey C Hoyle Trucking,1980 Sherman Avenue,North Bend,OR,97459,541-217-8337
Jit's Trucking,801 Sw 257th Ave Apt#228,Troutdale,OR,97060,503-756-1016
Pedro Mena Trucking,236 Talent Ave #23,Talent,OR,97540,541-292-7374
Riverview Transport,8400 Grand Ronde,Grand Ronde,OR,97396,541-290-3500
Valei Freight System,4752 Se 104th Ave,Portland,OR,97266,503-760-3006
Magar Trucking,3686 Joseph,Roseburg,OR,97470,541-817-2150
Butler Ford,1977 Hwy 99 North,Ashland,OR,97520,541-482-2521
A Car Specialty Transport,420 S Park St,Carlton,OR,97111,503-539-3578
Daniel Nickel Trucking,790 Speedway Rd,Roseburg,OR,97470,541-784-9389
Whispering Winds Ranch Transport,1979 Graham Blvd,Vale,OR,97918,541-216-1721
Jet Fly Express,8640 Se Causey Ave # D104,Happy Valley,OR,97086,503-580-2268
West Pacific Trucking,17396 Sw Roosevelt St,Sherwood,OR,97140,503-610-1707
Elita Express,142 Ne 192nd Ave,Portland,OR,97236,503-715-7651
Sams Cheapest Towing LLC,16965 Se Laugardia Way,Milwaukie,OR,97267,503-891-0728
J-mar Kustom Transport,4120 E 19th Ave,Eugene,OR,97403,541-968-4599
Garfield Express,2572 Fisher Rd Ne,Salem,OR,97305,503-510-0828
Reiper Transport,12610 Se Taggart Street,Portland,OR,97238,503-262-7770
Hauling 4 U,1070 Monmouth St,Independence,OR,97351,503-510-9912
Pro Enterprises Equine Transportation,1743 Lee's Creek Rd,Myrtle Creek,OR,97457,818-929-5521
Cb Transport 1,8736 Sw Shad Rd,Terrebonne,OR,97760,541-923-4749
David Marin Trucking,11451 Se Lincoln Ct,Portland,OR,97216,503-764-9355
En Trucking,2335 Sw Border Way,Gresham,OR,97080,503-912-1324
D&h Auto Transport,4025 Se 101 Ave,Portland,OR,97266,503-761-0970
Tow & Auto Recovery,12560 Se Kelly St,Portland,OR,97236,971-255-6176
Rlz Trucking,2817 22nd Ave,Forest Grove,OR,97118,503-740-3783
L & M Trucking,3480 Reston Rd,Roseburg,OR,97471,541-537-0977
Kaleb Trucking,3255 Starr Ct Ne,Salem,OR,97301,503-507-1187
Pacific Transportation,1064 Venus Ct Se,Salem,OR,97317,503-576-9288
Jerry's Truck,129 W Front St,Merrill,OR,97633,530-200-1650
Veteran Memorial Transportation,2701 Greentree Rd,Lake Oswego,OR,97034,360-326-8016
Express Trucking,7270 Sw Cushman Ct,Portland,OR,97223,503-849-1788
Tallman Logistics,88805 Pine Street,Elmira,OR,97437,541-510-0393
Broadway Toyota-scion,55 Ne Broadway Street,Portland,OR,97232,503-284-1105
D Roy Burris Trucking,10060 Monument Drive,Grants Pass,OR,97526,541-659-4033
Western States Transpoort And Recovery,53209 Big Timber Dr,Lapine,OR,97739,541-419-9113
Ruelas Trucking,470 Sw Marshall St,Madras,OR,97741,541-420-3908
Harrah Distributing,770 2nd St,Dufur,OR,97021,541-300-0906
Smada L Aslan T Trucking,13520 Sw Electric St Apt 9,Beaverton,OR,97005,503-803-5084
Choice Transport,4792 Lancaster Dr Ne Apt 135,Salem,OR,97305,503-622-8848
Rf Hotshots,4220 Macleay Rd Se,Salem,OR,97317,503-362-5331
Gmr Trucking,14256 Sw Peninsula Dr,Terrebonne,OR,97760,541-410-1853
Od Transportation,8433 Se Insley Street,Portland,OR,97266,503-477-4775
Ely Express,52958 Sunquist Rd,Milton Freewater,OR,97862,509-540-8568
Jack Pot Transport,245 Ackerman Road,Coos Bay,OR,97420,541-252-6903
Auto Transport,3760 Market St Ne #488,Salem,OR,97301,503-991-5176
Evergreen Express,5838 Ne Columbia Blvd,Portland,OR,97218,503-516-7431
Wilbur Trucking,21580 Sw Imperial Ct,Aloha,OR,97006,503-888-7743
Blake Express,283 Ne 34th Place,Hillsboro,OR,97124,503-488-0089
Mdc Transport,876 Overstreet Road,Nyssa,OR,97913,208-941-4852
Dianis World Transportation,47885 Nw Chrysler Dr,Banks,OR,97106,503-327-1719
John Cammarata Trucking,224 Allan Street,Myrtle Creek,OR,97457,541-863-4574
Amboy Lift Service,4202 Se Hill Rd,Milwaukie,OR,97267,503-353-2597
Here To There Delivery,2833 W Jay Ave,Roseburg,OR,97471,541-643-3394
Michael Craycraft Trucking,1096 Ne Newport Hts Dr,Newport,OR,97365,541-265-9161
R Future Trucking,134 Cedar Street,Shady Cove,OR,97539,909-919-0386
Ipe,1055 Se 33rd St,Troutdale,OR,97060,503-679-9362
Fbr Transport,1333033 Hwy 97 N,Crescent,OR,97733,541-433-5288
Mountain Road Trucking LLC,1461 North Myrtle Road,Myrtle Creek,OR,97457,541-643-7008
Ken Marks Trucking,61370 Rock Bluff Ln,Bend,OR,97702,541-350-6925
Gator Movers,4605 Se Honors Place,Gresham,OR,97080,971-252-2142
D & J Trucking,8152 Sw Hall Blvd #403,Beaverton,OR,97008,503-887-6777
Jcc Transport,51800 Pine Loop Dr,La Pine,OR,97739,541-536-2854
Cobb Family Properties LLC,3103 Kwonesum Court South,Salem,OR,97306,503-364-3524
T A Simmons,2810 Se Boyd St,Milwaukie,OR,97222,503-519-5139
Todd L Ziebarth Trucking,1009 S Island,Rockaway Beach,OR,97136,503-355-8731
North West Auto And Sales,711 North Cloumbia,St Helens,OR,97051,503-396-1706
Heitzman Farms,26962 Cantrell Rd,Eugene,OR,97402,541-935-9526
Game Truck Party Oregon,13045 Sw Heather Court,Beaverton,OR,97008,503-998-4362
Game Truck Portland,6026 North Michigan Ave,Portland,OR,97217,503-247-2908
Bob Pope Trucking,1029 A Street,Springfield,OR,97477,541-914-6789
Coe Distributing,2623 N E 138th Pl,Portland,OR,97230,503-505-3687
M&m Transportation Services,16101 S Forsythe Rd,Oregon City,OR,97045,503-810-5596
J V Transport LLC,11617 Clovis Dr,Klamath Falls,OR,97603,541-884-5728
E & E Express LLC,1030 Sw 11th Street Unit 34,Hermiston,OR,97838,N/A
Robert S Becker,41260 Sw Pumpkinseed Rd,Willamina,OR,97396,503-876-7768
Torpedo Transport,3030 Elmira Rd,Eugene,OR,97402,541-232-3716
Alebriated Distribution,6834 Sw 2nd Avenue,Portland,OR,97219,503-756-3617
J J's Trucking & Shuttle Service,624 Ontario Hgts Rd,Ontario,OR,97914,541-848-5949
Duke Auto Sales,47393 Airport Rd,Oakridge,OR,97463,541-782-4854
Hemenway Distributing,6179 Cherry Heights Rd,The Dalles,OR,97058,541-296-2940
Us Fugitive Recovery Special Response Dept Sas-specialm Amphibious Services,139 Friendship Ave Se,Salem,OR,97302,805-750-9802
Salim Star,4511 Sw Luradel St Apt A,Portland,OR,97219,971-340-7859
Rontra Freight Rfs,12245 Ne Whitaker Way,Portland,OR,97230,503-504-3508
Clemens Constrction,34740 S Kropf Rd,Molalla,OR,97381,925-260-1892
Jerez Transport,6045 Sw Cherry Hill Dr,Beaverton,OR,97007,503-747-9961
Glm Transportation,819 Ne 181st,Portland,OR,97230,503-901-2755
Connolly Trucking,3628 Bellinger Ln,Medford,OR,97501,541-324-3572
Alicia Pj Truck Line,3647 Se 132nd Ave,Portland,OR,97236,503-607-1088
V & G Transportation,1021 Se 9th Ave Unit 1,Ontario,OR,97914,541-709-9060
Hard - Lee Trucking,25252 Sw Mcconnell Rd,Sherwood,OR,97140,503-625-1715
Miscellaneous Wholesale Products,8014 Se Boise St,Portland,OR,97206,503-830-8429
3 K Trucking,429 Harlen Ave,Drain,OR,97435,541-430-9333
Gary Crisp Trucking,4001 Quartz Creek Rd,Merlin,OR,97532,503-678-1060
J K Transportation,1407 Florence Ln,Grants Pass,OR,97527,541-956-2153
B And T Trucking,667 Sw 3rd Ave,Ontario,OR,97914,541-212-7006
Wes L Justa Kb Professional Connections Express,14810 Airlie Rd,Monmouth,OR,97361,503-838-0710
Ns3,267 White Oak St,Medford,OR,97504,541-690-6944
Gorge Rock,2880 Five Mile Rd,The Dalles,OR,97058,503-798-6966
"Lucky Man, Inc.orporated",1973 Sw 35th St,Gresham,OR,97080,971-212-0067
Stallion Express LLC,640 Ne North Street,Hermiston,OR,97838,503-664-6783
Rocky Mountain Trucking,34800 S Wilhoit Rd,Molalla,OR,97038,503-849-4620
Doug Steiner Trucking,91431 Donna Road,Springfield,OR,97478,503-747-0471
Rw Trucking,2281 Delaney Road Se,Salem,OR,97306,503-871-5593
Tory J Orella Trucking,3249 E Langell Valley Rd,Bonanza,OR,97623,503-457-6080
Son Seeker Express,Po Box 2657,Albany,OR,97322,541-411-858
A & S Auto Transport,13577 South Molalla Forest Road,Molalla,OR,97038,503-829-4031
Pogar Trucking,10808 Se 103rd Ave,Happy Valley,OR,97086,503-380-5783
Rush International Truck Center Ontario,588 Se 1st Ave,Ontario,OR,97914,830-626-5232
C And T Trucking,33820 E Progress Rd,Hermiston,OR,97838,541-289-5512
Blue Diamond,14815 Se Lincoln St,Portland,OR,97233,503-935-2438
Western Trans Freight,1200 Ironwood Drive,Eagle Point,OR,97524,541-613-6360
Slavnik Express,2828 Se 92nd Ave,Portland,OR,97266,503-488-0792
James Walden Trucking,5242 Dobrot Way,Central Point,OR,97502,702-526-3982
Red Zone Trucking,542 Murin St,Eugene,OR,97402,503-607-1088
Rv Transport & Delivery,3403 Lake Vanessa Circle Nw,Salem,OR,97304,503-371-7716
United World Transportation,3439 Ne Sandy Blvd #264,Portland,OR,97232,604-986-7435
J And T Hauling,787 Nw 6th,Prineville,OR,97754,541-233-8239
Ca & Ja Woodring Trucking,49995 Santiam Hwy,Idanha,OR,97350,503-854-3153
Rod Stevens Equipment Sales & Service,2731 Sw High Desert Dr,Prineville,OR,97754,877-543-8769
Bly Transport,6755 Nw Concord Dr,Corvallis,OR,97330,541-224-3054
Island Auto Imports,707 N Hayden Island Dr Suite 222,Portland,OR,97217,503-926-2524
Siquem Trucking,130 E Beech Ave,Hermiston,OR,97838,509-346-5344
Rex Ii Trucking LLC,5307 Holly Lp Se,Turner,OR,97392,971-240-6471
David Robles Distributor,1840 Gary St,Klamath Falls,OR,97603,916-716-2171
Border To Border Auto Transport,4760 Linfield Ct Ne,Salem,OR,97305,503-798-8226
James Trucking,1140 Jackson Road,Ashland,OR,97520,541-944-9103
Mohamed Ali Trucking,11159 Sw Hall Blvd Apt 23,Tigard,OR,97223,651-239-0416
Rapido Express,1702 Softwood Way,Grantpass,OR,97526,541-270-5094
Lakhanpal Trucking,14820 Sw Bonnie Brae St,Beaverton,OR,97007,971-570-7979
Piggy Back Transport,9687 Sw Mountainview Lane,Portland,OR,97224,509-261-9175
Machensel Enterprise,880 Nw 87th Ave,Portland,OR,97229,503-572-3563
Fais Trucking,1684 Sw Culver Hwy,Madras,OR,97741,541-777-0746
Roy L Hudson Trucking,5815 N Denver,Portland,OR,97217,503-309-1421
Tobin Trucking,558 Meadow Lane,Eagle Point,OR,97524,303-547-5220
Mtn Trail Transport,1891 Powell Creek Rd,Williams,OR,97544,541-846-7706
Jt's Bobcat Service,25446 E Bolton Rd,Veneta,OR,97487,541-935-4948
Lynn C Patterson Transport Services,1483 Ne Vine St,Roseburg,OR,97470,541-673-4540
Jayden Express,3400 Old Sam's Valley Rd,Central Point,OR,97502,541-855-1136
Tc Moss Transport,4541 Happy Valley Rd,Roseburg,OR,97470,541-679-1169
Alberto Ramirez Trucking,110 Court Dr,Merrill,OR,97633,541-798-5172
Marse Trucking,3876 Sunnyview Rd Apt #107,Salem,OR,97305,503-588-8232
Dayton Transportation,118 5th Street,Dayton,OR,97114,503-864-8313
West Coast Transport,3023hollyridge Loop Ne,Salem,OR,97305,503-930-5794
Shield Transport,20935 Vail Run Ct,Bend,OR,97702,541-419-2557
Ray-lynn Trucking,725 Royal Ave Apt 56,Meford,OR,97504,307-674-6552
L Batres Trucking,2801 Oxford Street,Woodburn,OR,97071,503-589-1817
Sweed Trucking,6850 Downing Rd Unit 7,Central Point,OR,97502,520-237-7199
David Gibbs Trucking,185 Nw Harwood Ave Unit 86,Prineville,OR,97754,541-416-8910
M&j Express Line,2711 W Pwell Blvd Apt # 1-367 ,Clackamas,OR,97015,503-998-5394
R & R Express,3335 Se 143rd,Portland,OR,97236,503-607-1088
J & L Trucking,2728 Elizabeth St,Eugene,OR,97402,541-688-1207
Duran Trucking,1230 Dahlia Street,Woodburn,OR,97071,503-982-8118
Coburg Enterprises,31910 Coburg Bottom Loop Road,Coburg,OR,97408,541-375-7285
"R Reyes Tranportation, Inc.",2000 N E Liberty Ave,Gresham,OR,97030,503-674-3590
Fito Transport,32161 Myrtlwood Ln,Hermiston,OR,97838,N/A
Marcie's Trucking,54000 West Lane Rd,Scappoose,OR,97056,503-543-8324
Bob Wilson Trucking,990 E Dutton Rd,Eagle Point,OR,97524,541-830-0562
Lionspride Sustainable Shipping,9331 Ne Colfox St. Ste 201,Portland,OR,97220,503-980-4489
Mena Trucking,6015 Se Harney St,Portland,OR,97206,503-888-5602
American Transport,1737 Se Water Lily St,Hillsboro,OR,97123,503-844-3869
M&m Log Trucking LLC,6030 Teal Creek Rd,Dallas,OR,97338,503-787-1909
Paisa Transportation,14265 Sw Domino Street,Beaverton,OR,97005,503-758-5985
All Seasons Transport,8451 Sw Umatilla St,Tualatin,OR,97062,503-692-1312
Pacific West Auto Sales,24450 Nw Pumpkin Ridge Rd,North Plain,OR,97133,503-647-7561
Wc Trucking,1737 Pleasant Valley Rd,Merlin,OR,97532,541-659-9485
Cap-nayt Trans,3395 Neef Ave Se,Salem,OR,97302,520-891-4113
J&t Trucking,1735 Pioneer St,Philomath,OR,97370,541-609-0831
Rick Peters Trucking,10230 Sw Evergreen Ct,Wilsonville,OR,97070,503-685-9066
Deluxe Auto Transport,1865 Se Ironwood Way,Gresham,OR,97080,503-720-9239
Jack E Milner,3849 Bisbee Street,Klamath Falls,OR,97603,541-882-9714
Double N Cattle Company,19016 Butteville Rd,Aurora,OR,97002,503-539-4886
Casey Tharp,41837 Larwood Dr,Scio,OR,97374,503-394-3936
Maz Toy Auto Recycling,3611 Nw Marine Dr,Troutdale,OR,97024,503-667-6818
Power Punch Distributor Oregon,6661 Sw 229th Ave,Beaverton,OR,97007,503-649-3688
Gd Express,1520 Necoho Ct,Wood Village,OR,97060,503-735-0540
Freddy Thwreatt Trucking,73078 Gordon Creek Road,Elgin,OR,97827,541-975-3510
V I P Express,570 Sw Halsey Loop,Troutdale,OR,97060,503-490-0511
Avila's Trucking,514 Ward Street,Milton-freewater,OR,97862,509-540-5970
Craig N Foster Trucking,374 Nw Treglown Crt,Hillsboro,OR,97124,503-640-9836
Melgioval Trucking,20121 Se Stark St Apt 229,Portland,OR,97233,503-593-4832
Pj's Express,9675 Wells Landing Rd,Independence,OR,97351,503-606-0370
Kelly's Heavy Haul Service,773 Arleta Place,Keizer,OR,97303,503-689-1629
Yy Trucking,2712 Se 77th Avenue,Portland,OR,97206,503-998-1102
Chain Transportation,275 Sw Riverview Ave,Gresham,OR,97080,503-816-9947
Arizona,4423 Se 102nd Ave,Portland,OR,97266,503-761-7213
Jc Transport,2665 Lansing Ave Ne,Salem,OR,97301,503-364-9260
Jmb Transport,799 Bridge Street,Lafayette,OR,97127,971-241-3390
Lobo Transport,2216 Hardscrabble Rd,Drain,OR,97435,541-836-7826
Joel Hicks Trucking,58173 Saxton Rd,St Helens,OR,97051,503-396-7001
G Willing Transport,9106 N Seward Ave,Portland,OR,97217,503-286-4538
White Fang Express,3241 Se 165th Ave,Portland,OR,97236,503-756-7083
Western Transportation,2900 Ne Evans St Apt 4,Mcminnville,OR,97128,503-735-0540
Wayne R Boedigheimer Trucking,885 N 7th Street,Aumsville,OR,97325,503-749-2364
E Medelez N Sons,2021 Locust Street,Umatilla,OR,97882,503-868-9507
P T Trucking,4377 Highland Ave,Grants Pass,OR,97526,541-479-5101
A L V Y Trucking,4746 Oakleaf Ct Ne,Salem,OR,97305,503-779-9633
Ramos Express,1044 Enterprise Ave,Nyssa,OR,97913,541-212-9259
Logan's Market,250 10th St,Vale,OR,97918,541-473-3793
John Hart Trucking,33632 Stage Gulch Rd,Stanfield,OR,97875,541-449-3879
Kura Transport,3601 Ne 162 Ave # 68,Portland,OR,97230,503-936-0876
Mota Trucking,2481 Hwy 101 N 33,Seaside,OR,97138,503-440-9158
Stinnett Trucking LLC,20577 Dylan Lp,Bend,OR,97702,503-871-2322
Streetlife Motor Sports & Accessors Roz Auto Parts,5021 Se 111th Ave,Portland,OR,97266,503-760-1158
Rich Hunt Trucking,92 Ne Harrison Street,Dufur,OR,97021,541-993-4036
Urjii Trucking,606 Ne Sacramento St # 8,Portland,OR,97212,503-432-9916
Bilas Delivery Services LLC,4636 Ne Mallory Ave,Portland,OR,97211,503-281-7228
High Winds Trucking,95903 E Goldmohr Ln,Lakeview,OR,97630,541-947-5706
Tecos Express,7795 Sw Hill Crest Place,Beaverton,OR,97008,503-268-1898
Donaca's Trucking,5251 Sw 153rd Ave,Beaverton,OR,97007,503-535-9090
Lake's Transportation,470 Scotts Ave,Scotts Mills,OR,97375,503-307-5280
Larry Mills Trucking,23491 Se Shady View Ln,Eagle Creek,OR,97022,503-593-1998
Jeremy Mills Trucking,23975 Se Boahna Park Rd,Boring,OR,97089,971-409-4720
Kevin Mills Trucking,30575 Se Risburg Ln Apt C,Eagle Creek,OR,97022,503-637-3170
Russell Boat Trucking,1101 Pleasant Creek Rd,Rogue River,OR,97537,541-582-2355
H & O Transport,4439 Long Acres Ave Ne,Salem,OR,97305,503-581-8433
Pedro Figueroa Trucking,470 Se 10th St,Madras,OR,97741,818-429-7036
Tallinn,1637 Ptarmigan St Nw,Salem,OR,97304,503-362-5360
Ryan Coles,32345 Shoop Ln,Hermiston,OR,97838,541-377-2443
Tt Transportation,6737 Ne Portland Hwy,Portland,OR,97218,360-828-5786
J D & James Transport,3825 Sw 178th Ave Apt #15,Aloha,OR,97007,971-732-6669
Alex Express Services,866 Se 138 Th Ave,Portland,OR,97233,503-775-4741
Glen J Van Belle,64896 Dobbin Road,Joseph,OR,97846,541-426-3478
568 Trucking,26882 S Bolland Rd,Canby,OR,97013,503-651-1630
City Sanitary Service,2303 11th,Tillamook,OR,97141,503-842-6262
S & B Trucking,15471 S Buckner Creek Rd,Mulino,OR,97042,503-752-6823
Nellie Fernandes Trucking,355 Hwy 234,Eagle Point,OR,97524,541-778-0518
Jose Gallardo Trucking,365 Ne 4th St,Ontario,OR,97914,541-212-3203
Stephanie L Preble Trucking,7730 Sw 88th Ave,Portland,OR,97223,330-360-1634
Carl L Osborne Helicopter Transport,651 Ipson Dr,Medford,OR,97501,602-300-2093
Ip Trucking,1055 Risley Ave Apt 27,Gladstone,OR,97027,503-750-1462
Kd Trucking,542 Sw Sunrise Circle,Metolius,OR,97741,541-546-7016
Nash Trucking,15311 Se East Ave,Oakgrove,OR,97267,503-869-8420
Nahom Trucking,510 Ne 150th Pl,Portland,OR,97230,408-612-5855
Ace Sales & Leasing,7100 Ne Columbia Blvd,Portland,OR,97218,503-467-4846
Hansen & Sons Trucking,1549 Valley View Dr,Medford,OR,97504,541-779-3149
Rays Transport,820 Ne Clyde Pl,Grants Pass,OR,97526,541-955-1561
U S Car Transporters,1321 Ne 160th Ave,Portland,OR,97230,503-493-8797
R&k Carriers,126 Nw B St Spc# 26,Madras,OR,97741,971-322-4261
Dans Service,198 W Wyoming Ave,Irrigon,OR,97844,541-922-3530
Bts Trucking LLC,815 Deer Creek Road,Selma,OR,97538,541-415-0299
Polachek Transport,19843 River Rd Apt C,Gladstone,OR,97027,503-723-6707
C S Y Trucking,502 Yakima St S,Vale,OR,97918,541-212-2485
Aaa Transit Transportation,4340 Ne 92nd Ave,Portland,OR,97220,971-322-5928
Franek Trucking,492 Morton St E,Vale,OR,97918,541-881-6810
Godspeed Auto Transport,11712 Sw 129th Pl,Tigard,OR,97223,503-867-6020
Jeffery L Bernard Trucking,1260 Se Airport Road,Hermiston,OR,97838,541-567-1610
Ats LLC,12031 Se Kelly St,Portland,OR,97266,201-618-5047
E E Williams Transport,721-1 North Myrtle Road,Myrtle Creek,OR,97457,541-784-5697
Gjf Trucking,2750 Se 170th Ave,Portland,OR,97236,503-762-6887
Bills Dump Truck Service,820 Williamson Loop,Grants Pass,OR,97526,541-955-5384
Chavarria's Trucking,9755 N Adriatic Ave,Portland,OR,97203,503-481-5181
7 Trails Trucking,3352 Malheur Dr,Ontario,OR,97914,541-889-3679
Trailer Service & Repair,675 Se 151,Portland,OR,97233,503-888-8724
Double B Trucking,1482 Netcher Ln,Vale,OR,97918,541-212-3643
Chambers Transport,707 Oak Street,Brownsville,OR,97327,541-570-9288
Jay's Farm Service,39933 Fish Hatchery Dr,Scio,OR,97374,541-981-3376
Fesshazion Trucking,10208 Ne Knott St,Portland,OR,97220,503-257-0983
President Transport,14114 Se Bush St,Portland,OR,97236,503-706-7837
Getty Up Go Ent,1321 Summers Ln,Klamath Falls,OR,97603,541-331-4541
Metal Movers,823 Sw 14th Street,Pendleton,OR,97801,541-278-2717
Extreme Express,8366 Se Causey Ave #213,Happy Valley,OR,97086,503-250-3260
Ya'll Comeback Truckin',24225 Sprague River Rd,Sprague River,OR,97639,541-533-3141
C Bar T Enterprises,2325 Whitney Rd,Vale,OR,97918,541-881-6101
G F Trucking,23905 Holl Rd,Malin,OR,97632,541-723-0001
Tit Transportation,1868 Ne 114th Place,Portland,OR,97220,503-253-0780
Going Broke,1745 Hale Road,Vale,OR,97918,541-473-4189
A&a Transport,6120 North Montana Ave,Portland,OR,97217,503-913-9437
Alex Express,17010 Se Stark St Apt C309,Portland,OR,97233,503-255-3577
Patrick Kauwell,627 N Skidmore St,Portland,OR,97217,503-866-1913
Tnr Rv Trailer Transport,23642 Hwy 20,Philomath,OR,97370,541-929-3898
M & H Transport,18721 Central Point Rd Apt 14,Oregon City,OR,97015,503-607-1088
Aleckson Trucking,545 Se Craven Road,Bend,OR,97702,541-350-3725
Norgard-kirkpatrick Boat Hauling,26915 Hammond Rd,Rainier,OR,97048,360-425-5230
Ois Distribution,7315 Nw Evergreen Parkway Suite 300,Hillsboro,OR,97124,503-924-1986
Jay Berg Trucking,293 Eola Dr Nw,Salem,OR,97304,503-371-3554
Herzog Transportation,265 Savage Creek Rd,Grants Pass,OR,97527,541-582-4311
West Coast Express Freight,915 Nw 4th Street,Gresham,OR,97030,503-512-7261
Pg Express,13285 Se Jordan Ct,Happy Valley,OR,97086,503-888-7276
My Car Auto Transport,910a Young St,Woodburn,OR,97071,503-951-3555
Wallace Creek Farrier And Transportation,25745 Jeans Rd,Veneta,OR,97457,541-521-4289
Mcfarland Trucking,1315 Swedetown Rd Unit 35,Clatskanie,OR,97016,503-728-3946
Juan Jose De Leon Distribution,137 W Broadway Ave,Milton Freewater,OR,97862,509-524-8277
Billy Bob Services,935 Owhyee Ave,Nyssa,OR,97913,208-781-0713
Aarons Transport Service,1185 Crowley Ave Se,Salem,OR,97302,503-383-2371
Gcp Trucking Company,953 23rd Ave Apt 4,Sweet Home,OR,97386,408-607-4295
Nedex,20804 Butteville Rd Ne,Aurora,OR,97002,408-431-9087
Flylow Transport,12524 Brick Road,Turner,OR,97392,N/A
Heavens Gift Transportation,4747 San Carlos Court Ne,Salem,OR,97305,503-566-8992
Ed Benzel Trucking,2893 S 7th Place,Lebanon,OR,97355,541-954-5116
R 2 Trucking,19300 Nw St Helens Rd,Portland,OR,97231,503-621-0460
Ridgeway Trucking,3760 Market Street Ne 333,Salem,OR,97301,503-710-0076
Leonard Clemens Trucking,731 E Railroad,Reedsport,OR,97467,541-543-6093
Esley Truck Accessories,8983 Truckman Way,Salem,OR,97303,800-547-3667
Da Feakin Trucking,15707 Nw Gillihan Rd,Portland,OR,97321,503-621-3688
Gladtidings Lumber,34750 S Hwy 213,Molalla,OR,97038,503-829-2754
Eric Dodge Trucking,29592 Se Church Rd,Boring,OR,97009,503-663-3240
Affordable Boat Transport,23586 Nw St Helens Rd,Portland,OR,97231,503-543-2828
Griffith Transportation,644 5th Street,Lyons,OR,97358,503-859-2946
Mickey Transport,4660 Nw Sewell Rd,Hillsboro,OR,97124,503-844-4168
"Nadya Transport, Inc. ",1621 Se 148th ,Portland,OR,97233,503-408-7846
Tiger Transport,522 S 6th St,Klamath Falls,OR,97601,541-892-1232
Mokim Transportation,9218 Stayton Road Se,Aumsville,OR,97325,503-851-3581
Rojas Trucking,6755 Sw Whitling Court ,Beaverton,OR,97075,503-372-5011
Bev & Ron Transportation,8539 N St Louis Ave,Portland,OR,97203,503-286-3482
Imperial Distribution,840 Se Washington Street,Portland,OR,97224,503-888-0302
Gw Wilson Trucking,2907 Surrey Dr,Medford,OR,97501,541-772-8971
Bryan Bentley Trucking,7680 Bewley Creek Road,Tillamook,OR,97141,503-842-6167
Lines Brothers Trucking Company,24051 Territorial Rd,Monroe,OR,97456,541-847-5848
Brooks Transport Systems,13000 Ne Stag Hollow Rd,Carlton,OR,97111,503-852-6056
M & S Trucking,9802 Se Yukon,Portland,OR,97266,503-788-3873
"J & J Express Trucking, Inc.",1187 Netzel St,Oregon City,OR,97045,503-722-3269
Kcp Trucking,6955 Alderbrook Road,Tillamook,OR,97141,503-801-1010
N S F,3535 Fisher Rd Ne,Salem,OR,97305,503-510-5262
Mal Trucking,1918 Se 147th Ave,Portland,OR,97233,503-752-2488
Stanley Baller,497 W Ackerman St,Monmouth,OR,97361,503-606-3188
Loza Trucking,2180 Ne 10th Street,Hermiston,OR,97838,541-567-2180
Murphy Trucking,351 W 5th Street,Coquille,OR,97423,541-396-6454
Sheridan Carriers,206 South West Morgan Street,Sheridan,OR,97378,503-435-8505
Leon Truck Line,10413 Se Cook Court 320,Portland,OR,97222,503-381-6607
North Bukovina Transport,16055 Se Flavel Dr,Portland,OR,97236,503-761-3132
H & K Trucking,14198 Conway Drive,Oregon City,OR,97045,503-360-6367
L V M Brothers,780 Se 2nd Street,Ontario,OR,97914,541-889-3757
Bill's Refrigerated Transfer,5038 Shasta Way,Klamath Falls,OR,97603,541-331-1558
Cole Star Transport,162 Silver Butte Rd,Riddle,OR,97469,541-874-2580
Dan Conway Trucking,3237 Forest Avenue,Medford,OR,97501,541-840-7291
R & D Transfer,8852 W Evans Creek Road,Rogue River,OR,97537,541-582-2589
Whites Trucking Etc,8301 14th Street,White City,OR,97503,541-941-1300
Correa Trucking,30685 Sturgis Street,Hermiston,OR,97838,541-314-0053
A&a Trucking,16890 Se Webster Rd,Gladstone,OR,97027,503-722-4268
Alex Express,11644 Se 172nd Ave,Boring,OR,97009,503-558-8280
Eternity Trucking,13947 Se 131 St Ave,Clackamas,OR,97015,503-784-4370
C T Brownlow Trucking,34810 Achilles Road,Warren,OR,97053,503-366-9500
Greenfishaquafarms Co,15020 S Beaton Rd,Oregon City,OR,97045,503-305-6670
Warren Trucking,563 West River Street,Cave Junction,OR,97523,541-592-3698
Ms Express Out Of Portland,628 Ne 155 Ave,Portland,OR,97230,503-255-7073
Aaron Troost Trucking,17100 Lewis Cemetary Rd Se,Silverton,OR,97381,503-873-8014
Botello Trucking,2323 Nw 188th Ave Apt 2512,Hillsboro,OR,97124,503-576-0899
M K Mahoney Trucking,21929 Ne Halsey,Fairview,OR,97024,503-661-4231
Pcs And Affiliates,12434 Se Capps Rd,Clackamas,OR,97015,503-553-0030
Parnell Trucking LLC,61569 Parnell Lane,Saint Helens,OR,97051,503-397-2087
Mcminnville Auto Wreckers,13341 Se Old Station Rd,Mcminnville,OR,97128,503-835-2661
Phelps Delivery,815 Garden Ct,Thedalles,OR,97058,541-993-0247
Gale's Mobile Service,27977 Dike Road,Rainier,OR,97048,503-803-1996
Howard T Koch Trucking,11625 Ernst Ct,Nehalem,OR,97131,503-368-4560
Blackwater Trucking,4400 75th Ave Se,Salem,OR,97301,503-390-0318
Malaby Transport System,2628 New Hope Road,Grants Pass,OR,97527,541-479-3191
L George Trucking LLC,6080 Uhrman Rd,Klamath Falls,OR,97601,541-882-9774
Ridgeline Trucking,28613 Ridgeway,Sweet Home,OR,97386,541-367-6216
C&a Trucking,7925 Sw Vlahos Drive #541,Wilsonville,OR,97070,503-582-9066
American Lenders Service Co Of Portland Salem & Vancouver,6849 Ne 47th Ave,Portland,OR,97218,503-978-0356
Ukrtrans,15130 Se Aston Loop,Portland,OR,97236,503-761-5071
Scott Hooper Trucking,825 Sheridan Ct,Hood River,OR,97031,541-490-8230
Vern's Enterprises,80591 Craig Rd,Hermiston,OR,97838,541-720-2070
Wightman Transport,4945 Old Upton Rd,Central Point,OR,97502,541-664-5410
Aldrich Trucking,235 E Carolina St,Lebanon,OR,97355,541-990-4091
Twiford Trucking,1631 Lonnon Rd,Grants Pass,OR,97527,530-526-8048
Viola Express,5420 Se Malden Dr,Portland,OR,97206,503-774-2826
Vp Transport,3627 Sw 22nd Ct,Gresham,OR,97080,503-789-3448
Zt Express,12511 Se Schiller Street,Portland,OR,97236,503-754-6468
Johnson Trucking,3035 Gehlar Rd Nw Apt 2042,Salem,OR,97304,503-510-9150
P & D Trucking,202 Pearl St #6,Oregon City,OR,97045,208-553-6535
Lmn Trans,4302 Se Pine Way,Hillsboro,OR,97123,503-693-2985
James Reynolds Trucking,307 Ne Park,Enterprise,OR,97828,541-426-5952
Clinton Ledbetter Trucking,8 Pecan Lane,Roseburg,OR,97470,541-680-4140
Denny Peterson Trucking,3021 Colonial Avenue,Medoford,OR,97504,541-857-9565
Rivas Trucking,1000 Deer Run Ln,Woodburn,OR,97071,503-710-0707
Rex Delawyer Trucking,1517 Derby St,Klamath Falls,OR,97603,541-892-1665
Viktory Transport,14092 Se Sunshadow St,Happy Valley,OR,97236,503-327-8137
Jairos Trucking,17504 Ne Glisan St,Portland,OR,97230,503-849-0611
C A M Trucking,1207 Filbert St,Forest Grove,OR,97116,435-257-4844
"Northwest Hydraulic Services, Inc.",6115 Peterson Ln Ne,Albany,OR,97322,541-791-9352
Mc Trucking,2005 2nd St Apt 10,La Grand,OR,97850,509-845-9333
G Sanchez Trucking,1131 Foxglove Street,Woodburn,OR,97071,503-981-3763
Sky Truck Line,11236 Se Malden St,Portland,OR,97266,503-975-3322
Tom Mcguire Trucking,615 N Franklin,Seaside,OR,97138,503-739-1342
S A Trucking,10461 Se Cook Ct Apt 258,Portland,OR,97222,307-772-1679
Nick Scharer,24272 S Upper Highland Road,Colton,OR,97017,503-630-5323
Pitt Bull Brothers Trucking,11770 Se Wood Ave,Milwaukie,OR,97222,503-998-3483
Rafter Am Cattle Company,11996 Nw Madras Hwy,Prineville,OR,97754,541-416-1907
Ron Cearley Trucking,35920 Hwy 58,Pleasant Hill,OR,97455,541-736-1306
Scott Johnston Logging,7805 Doughty Rd,Tillamook,OR,97141,503-842-6265
Sharay Trucking,37055 Rollingwood Drive,Chiloquin,OR,97624,541-783-3322
Rob - Hawk Enterprises,535 Pleasant Valley Rd,Merlin,OR,97532,541-659-7151
Rainier Trucking,26915 Hammond Road,Rainier,OR,97048,503-556-9461
Nell Trucking,1403 E Main Street,Medford,OR,97504,541-773-3685
Duckland Express,2583 Parkview Drive,Eugene,OR,97408,541-343-3309
Gonzalez Trucking,1010 Locust Ave,Nyssa,OR,97913,541-212-6676
Desi Trucking,1395 Cooley Rd,Woodburn,OR,97071,503-982-1472
Big Dawg Express,33824 Orchard Ave,Creswell,OR,97426,541-895-3676
Strain Transport,1164 Se 11th Ave,Ontario,OR,97914,541-889-2239
Raz Transportation,11655 S W Pacific Highway,Portland,OR,97223,503-684-3322
"Hall Trucking, Inc.",373 Marr Ct N,Monmouth,OR,97361,503-871-1863
Bandit Trucking,1632 N Birch,Canby,OR,97013,503-266-6377
F & Son's Trucking,17302 Sw Alexander St,Beaverton,OR,97006,760-956-5549
Dlg Transport,80023 Tottie Lane,Hermiston,OR,97838,541-289-0570
K G C Trucking,8870 Coral Street,Tigard,OR,97223,503-246-2753
Black Diamond Courier Service,13733 Ne Beech Ct,Portland,OR,97230,503-408-4911
Loren W Oden Trucking,3185 Avenue G,White City,OR,97503,541-831-0016
Marble Transport,8100 Se Buford Lane,Portland,OR,97236,503-762-0104
Denis Toney Transport,3650 Alley Lane,Medford,OR,97501,541-601-3808
Boiler Ridge Trucking LLC,1475 N Roosevelt Dr,Seaside,OR,97138,503-738-3968
Charles Murray Trucking,5147 Sw Vermont St,Portland,OR,97219,503-245-7678
Rojo Trucking,1745 Wall Street,Midland,OR,97634,541-205-1017
Triple M Trucking,3219 Sw Brixton Avenue,Gresham,OR,97080,503-572-1664
Sharper Video & Audio Service,2645 Se 50th Ave,Portland,OR,97206,503-233-5971
U S Haulers Express,255 Plant Lane Se,Salem,OR,97317,503-622-8848
P C Nationwide Transport,5281 Ne Cully St,Portland,OR,97218,503-381-5209
Sg Trucking Co,1340 Ne 108 St #20,Portland,OR,97220,971-246-0965
Bill Rex Vandusen Trucking,10810 Yonna Drive,Bonanza,OR,97623,541-545-1507
Ryan Turner Trucking,609 Spring Valley Drive,Medford,OR,97501,541-608-8609
At Trucking,979 W Main Street Space 2,Sheridan,OR,97378,971-241-2930
Asta Trucking,14725 Sw Carolwood Dr,Beaverton,OR,97007,503-520-5002
Omega Express,18335 Ne Couch St,Portland,OR,97230,503-669-9402
Daniel's Trucking,5711 Ne Killingsworth,Portland,OR,97218,909-904-1489
Baston Trucking,12959 Bethlehem Dr,Gervais,OR,97026,503-607-1088
Double A Trucking,6248 Sw Mesa Way,Redmond,OR,97756,541-548-3083
Gary Bryant Trucking,10700 Sw 63rd Place,Portland,OR,97219,503-977-9707
Richard Peacher Grading,10727 Washburn Way,Klamath Falls,OR,97603,541-850-2071
Tantzen Trucking,12871 Golden Eagle Dr.,Bonanza,OR,97623,530-355-2786
Ac Transport Services,1825 Rainier Dr,Monmouth,OR,97361,503-302-9680
Jema Trucking,389 Benrown Ln,Woodburn,OR,97071,503-710-0509
Sudden Strike Enterprises,7059 Rogue River Hwy,Grants Pass,OR,97527,541-582-0187
5 J's Insulation,1018 Elm St,Forest Grove,OR,97116,503-359-1303
Gehring Transport,6811 Glen Echo Ave,Gladstone,OR,97027,503-757-2071
Gary Wells Enterprises,12744 Shamrock Lane,Klamath Falls,OR,97603,541-273-5255
Vn Transportation,3922 Ne 108th Pl,Portland,OR,97220,503-254-5130
Blankenship Business Equipment Movers,770 Page Road,Winchester,OR,97495,541-647-9809
Portland Import Auto Parts,13126 Ne Whitaker Way,Portland,OR,97230,503-255-8735
Purcell Transport,3038 Sw 28th St,Redmond,OR,97756,541-504-8313
D B W M Trucking,90418 Trans Pacific Lane,North Bend,OR,97459,541-756-0533
Leo M Trucking,229 S Cherry Dr,Cornelius,OR,97113,503-887-8930
Red Baron Trucking,10 E South Stage Rd #608,Medford,OR,97501,541-335-1132
A J Petersen Trucking,87859 Two Mile Lane,Bandon,OR,97411,541-347-2212
Richard Hoffman Trucking,33744 Diagonal Rd,Hermiston,OR,97838,541-720-0524
Rn Trucking,155 Se 10th Street Se,Madras,OR,97741,541-475-4852
Hood River Distributors,1110 1/2 Pine Street,Hood River,OR,97031,541-386-2677
Karpaty Express,15710 Se Pine St,Portland,OR,97233,503-761-5699
Mig Auto Transport,920 Ne 92nd Ave,Portland,OR,97220,503-997-3380
Jr Tamariz Trucking,312 Buffalo St,Portland,OR,97211,541-905-2993
Lloyd Chandler Trucking,424 Sw 16th,Pendleton,OR,97801,541-276-7304
V M Transport,516 36th Street Se,Albany,OR,97321,541-936-2448
J&s Williams Trucking,14655 Se Wyeast Ave,Damascus,OR,97089,503-969-9040
Holey Toledo Trucking,1270 Nw Locust St,Prineville,OR,97754,541-447-7056
G&i Trucking,6342 Se 62nd Ave,Portland,OR,97206,503-774-3571
Fedot Transportation,10350 N Vancouver Way Box 211,Portland,OR,97217,503-788-7986
Silver Spur Trucking,2283 Rural St Ne,Salem,OR,97302,503-364-4982
Ac Hamilton Trucking,8080 Hughey Ln,Tillamook,OR,97141,503-842-8866
John Hickey Trucking,485 Coos Bay Wagon Rd,Roseburg,OR,97470,541-679-5824
Abby Transport,6795 Fairway Av S,Salem,OR,97306,503-990-7511
Arts Flat Bed Service,18511 Pataha Creek,Walton,OR,97490,541-935-3038
D Torvend Trucking,27877 S Ringo Rd,Mulino,OR,97042,503-829-5105
Gary Ball Trucking,240 Summit Dr,Heppner,OR,97836,541-676-9927
Gf Transport,14011 Se Ellis St,Portland,OR,97236,503-756-6704
Freedom Express,12550 Sw 1st Street,Beaverton,OR,97005,503-735-0540
W Nussbaum Trucking,5597 South Fork Little Butte Creek Road,Eagle Point,OR,97524,541-826-2933
Mellos Trucking,69627 Sanderson Rd,Summerville,OR,97876,541-534-2034
Stan Graves,240 E Jefferson,Huntington,OR,97907,909-215-2912
Jim Castle Trucking,77322 Palm Hill Rd,Clatskanie,OR,97016,N/A
Vincent Aleksa Trucking,11715 S Makin Lane,Canby,OR,97013,503-263-6224
Chili's Trucking,92394 F Road,Astoria,OR,97103,503-298-0928
Clausen Trucking,1405 Kathy Street S,Salem,OR,97306,503-364-3931
Save On Transport,4410 Sweet Lane South,Salem,OR,97302,818-331-0866
Gold Star Express,180 Nw Birdsdale Ave,Gresham,OR,97030,503-661-7136
Runn A Mucc Transport,44752 Mission Road,Pendleton,OR,97801,541-610-7657
Dale R Mueller Trucking,77714 Rutter Rd,Clatskanie,OR,97016,503-728-4679
Dave Welby Trucking,30060 Berlin Road,Lebanon,OR,97355,541-409-3977
North Bank Trucking,20625 N Bank Chetco River Rd,Brookings,OR,97415,N/A
The One Carrier,366 Sw M St Apt B5,Madras,OR,97741,541-475-1646
Dealin W Cows,33485 W Progress,Hermiston,OR,97838,541-667-8294
Marine Interiors,3457 Guignard Drive,Hood River,OR,97031,541-386-1010
Tim Frost Trucking,2642 Eagle Circle,White City,OR,97503,541-301-7224
"Tharp Milk Hauling, Inc.",14350 Fishback Rd,Monmouth,OR,97361,503-623-4915
Transporte Latino,12441 Se Powell Blvd,Portland,OR,97236,503-761-0477
"Joseph Transportation, Inc.orporated",249 Stoneway Dr Nw,Salem,OR,97304,503-587-9509
D Clark Trucking,4458 Innsbruck Ridge,Medford,OR,97504,541-776-3985
Three Boys Express,423 Illinois Ave Ne,Salem,OR,97301,503-581-5229
Daniel Transport,1515 Filbert St,Forest Grove,OR,97116,503-607-1088
Maya Transports,4647 Se 20th Terrace,Gresham,OR,97080,503-849-0040
Northwest Express,75223 Valley Lane,Clatskanie,OR,97016,503-728-3923
Jtd Transport,6950 Michael Rd,La Pine,OR,97739,541-536-7810
Castrejon Trucking,1953 Nw 7th Ave,Ontario,OR,97914,541-212-3513
Eugene Express,3074 Sundown Court Ne,Salem,OR,97305,503-363-4703
Hotwire Xpress,940 Leafwood Drive,Eagle Point,OR,97524,541-826-4179
American Produce Trucking,17922 Nw Andria Ave,Portland,OR,97229,503-531-5342
Jay-berg Trucking,19680 Buck Canyon Road,Bend,OR,97702,541-389-6877
Marin Bros Transport,2407 7th St,Tillamook,OR,97141,503-364-3668
Nobody's Trucking,1359 Juniper St,Keizer,OR,97303,503-999-6067
Dl Posada Trucking LLC,80576 Sagebrush Rd,Hermiston,OR,97838,541-564-8176
Luijis Trucking,117 E 2nd St,Nyssa,OR,97913,541-372-8065
Dgd Ruiz Trucking,10940 Sw Walnut St,Tigard,OR,97223,503-670-4855
J Lawrence Transportation,6808 Se Ariel St,Hillsboro,OR,97123,503-642-0886
Transportes Queretanos,3534 Se 73rd Ave,Portland,OR,97206,805-933-3668
Naa Transport,1075 Woodland Ave,Woodburn,OR,97071,503-989-2500
Lm Transportation,2202 Se 170th Ave,Portland,OR,97233,503-735-0540
Mvs Farms Equine Transport,65615 Old Bend Redmond Hwy,Bend,OR,97701,541-330-5652
Ltg,843 E Powell Blvd,Gresham,OR,97030,503-669-4119
Progress Trucking,623 Ne 160th Ave ,Portland,OR,97230,503-674-0078
Gary And Susan King Trucking,230 East Frannklin St,Dayville,OR,97825,541-987-2367
Next Transport,12536 Se Lincoln Ct,Portland,OR,97233,503-415-9745
Walter J Layton Trucking,50500 Se Camp Creek,Prineville,OR,97754,541-477-3353
Balzano Trucking,810 N Fremont,Portland,OR,97227,503-287-9650
Jim Burton Trucking,629 Banover,Eugene,OR,97404,541-461-4401
Chet Jobe Trucking,1411 Quincy St,Cottage Grove,OR,97424,541-607-9331
Anthony J Vargas Trucking,414 Westminster Dr,Eagle Point,OR,97524,541-826-9509
Metcalf Trucking,510 Cedartree Drive,Roseburg,OR,97471,541-679-4238
Wallace Trucking,1073 W Filmore,Burns,OR,97720,541-589-1888
Thrifty Auto Supply,620 Ne Kelly Ave,Gresham,OR,97030,503-661-1552
Dr Line Mobile Service,138 Walnut St,Independence,OR,97351,503-269-6475
T N T Trucking,5146 Se Jerry Drive,Prineville,OR,97754,541-416-0123
Haulacar,17256 Northeast,Portland,OR,97230,503-254-7754
State Recovery Transport,6020 Ne Columbia Blvd,Portland,OR,97030,503-331-0107
A 1 Express Moving,1038 Winchuck River Road,Brookings,OR,97415,888-626-0519
William R Tuning,60665 Nw Agaard Rd,Gales Creek,OR,97117,503-359-1864
David R Updegrave Trucking,4338 State St Se,Salem,OR,97301,503-362-2134
Triple S Trucking,16149 Algoma Rd,Klamath Falls,OR,97601,209-613-0007
Scotty Freitas Trucking,586 Forest Hills Drive,Rogue River,OR,97537,541-582-4597
Dancer Transportation,1721 Johnson St,Medford,OR,97504,541-944-5962
Doug Yost Trucking,9160 Trask River Rd,Tillamook,OR,97141,503-815-3663
El Super Mexican Products,11755 Ne Mark St,Portland,OR,97220,503-262-7030
R L Adams Trucking,753 N 10th,Cornelius,OR,97113,503-357-3059
Sor Trucking,5040 South Santiam Hwy,Lebanon,OR,97355,503-409-2812
Mendez Trucking,915 Idaho St,Nyssa,OR,97913,208-880-4974
"Cat Trucking, Inc.",289 Sw 59th St,Redmond,OR,97756,541-923-3143
Kelly's Trucking,300 S Everest Sp 40,Newberg,OR,97132,503-554-9393
Don Holsclaw Trucking,2880 Salmon River Hwy,Grand Ronde,OR,97346,503-879-5906
Lorang Trucking,409 Nw Dimmick,Grants Pass,OR,97526,541-956-9551
C & P Trucking,2518 Se 49th Ave,Portland,OR,97206,503-233-9104
Sunset West Express,11567 Sw 135th Ave Apt 74,Tigard,OR,97223,503-705-9483
Metro Rooter Pumping Service,3333 Nw 35th St Ste C,Portland,OR,97210,503-652-2626
T C T Services,4030 Sw Borland Rd,Tualatin,OR,97062,503-638-3449
Huffman Trucking,47704 Bain St,Oakridge,OR,97463,541-782-1040
Chipawa Trucking,34818 Edna Barr Lane,St Helens,OR,97051,503-366-5951
J & L Webber Trucking,10182 S Township Rd,Canby,OR,97013,503-678-1060
D & R Trucking,2998 Paasch Dr,Hood River,OR,97031,541-386-4954
Joe Weddle Trucking,78581 Lloyd Rd,Hermiston,OR,97838,360-481-5404
Tim J Martin Trucking,80025 Canal Road,Hemiston,OR,97838,541-567-7386
Tee Time Transportation,19330 S Towercrest Dr,Oregon City,OR,97045,503-650-6591
R&k Livestock Transport,320 Cole Rd,Mitchell,OR,97750,541-462-3023
Big Toe Transpo,655 Nw Angieline,Gresham,OR,97030,503-685-1065
Bgr Transport,5404 Ne 41st Ave,Portland,OR,97211,503-680-9181
Cheyenne Express,51862 Pine Loop Dr,La Pine,OR,97739,541-536-8945
M & K Transport,17840 Se Alder Street,Portland,OR,97233,503-667-9098
Semper Fi Trucking,4545 Hilton Dr,Eugene,OR,97402,541-688-4403
The Pony Express 'mm',11575 Sw Pacific Hwy #122,Tigard,OR,97223,503-441-6723
T L Smith Transport,14374 Hwy 62,Eagle Point,OR,97524,541-830-1982
Nart Trucking,1111 Savage Creek Rd,Grants Pass,OR,97522,503-393-2343
R P Johnson Express,720 Fawn Drive,Roseburg,OR,97470,541-672-7767
Mallery Trucking,1047 Dearborn Ave Ne,Keizer,OR,97303,503-269-5146
Mark Westfall Trucking,56570 Nw Strassle Rd,Forest Grove,OR,97116,503-324-6914
Charles E Stadeli Trucking,12513 Mascher Rd Ne,Silverton,OR,97381,503-873-4576
Krueger Trucking,8749 Spring Lake Rd,Klamath Falls,OR,97603,541-798-5877
Michael Smith Trucking,7883 Atlantic Ave,White City,OR,97503,541-826-1906
Lee Remington Trucking,34230 E Lacomb Road,Leanon,OR,97355,541-259-4922
Daniels Trucking,16340 Lower Harbor Road #136,Brookings,OR,97415,530-515-8833
Loops Auto Wrecking,30811 Ehlen Dr,Albany,OR,97321,541-928-5111
J G Martinez Trucking,799 Bridge Street,Lafayette,OR,97127,503-864-4237
Wilding Transportation,20187 Sw 69th St,Tualatin,OR,97062,503-701-9551
High Desert Transport,350 W Nevada St,Irrigon,OR,97844,541-922-4910
S & J Trucking,211 College Dr,Grants Pass,OR,97527,541-471-1493
Sure Thing Trucking,2219 Ne Fleser,Roseburg,OR,97470,541-733-1669
Anderson Truck Transport,27450 E Welches Rd,Welches,OR,97067,503-622-6315
Steve Morningstar Trucking,18645 Hermo Rd,Clatskanie,OR,97016,503-728-3796
Big Dog Trucking,2114 Columbia Blvd,St Helens,OR,97051,503-556-0030
D A M Trucking,3112 Se 145 Ave,Portland,OR,97236,503-754-5196
Wayne Trucking Co,P O Box 1001,Ontario,OR,97914,505-832-6783
Ken's Ice,62920 Boyd Acres Rd,Bend,OR,97701,541-382-8849
D A M Transportation,3112 Se 145 Ave,Portland,OR,97236,503-287-8267
Double R Transport,17972 S Canter Lane,Oregon City,OR,97045,971-235-2643
Marv Dahl Trucking,1010 Pinecrest Dr,Grants Pass,OR,97526,541-944-7906
F J R Trucking,1177 Klamath Ave,Nyssa,OR,97913,541-372-3753
Advantage Moving & Storage LLC,6428 Ne 59th Place,Portland,OR,97218,503-331-0300
Treglown Trucking,1830 Sw Fairview Ave,Dallas,OR,97338,503-623-2442
Orbit Transport,241 Youngs Lane,Roseburg,OR,97470,541-863-7994
William Mcbride Trucking,308 Nw Larch,Redmond,OR,97756,541-504-4463
Stacey L Plummer Trucking,96 S 15th,Elgin,OR,97827,541-437-3408
Ryan Denton Trucking,96883 Gowman Lane,Brookings,OR,97415,541-412-3307
Jeff & Lynn Horn Trucking,73483 Hwy 82,Elgin,OR,97827,541-437-0523
Mervin Hanover Trucking,4821 Lorrayne Pl,Klamath Falls,OR,97603,541-882-5028
Mgm Transport,653 Rees Hill Rd Se,Salem,OR,97306,503-540-7972
John G Thompson Trucking,460 Pioneer Road,Dallas,OR,97338,503-623-6403
Triple Rrr Transport,2300 Yale St,Klamath Falls,OR,97601,541-850-6993
Midway Boat Hauling&repair,14195 Sw Hillsboro Hwy,Hillsobor,OR,97123,503-628-5607
Material Transport,4770 Monument Drive,Grants Pass,OR,97526,888-881-5821
Trnd Trucking,65045 E Lupine Drive,Rhododendron,OR,97049,503-622-6930
John W Stryffeler,2300 Nw Country Lane #29,Gaston,OR,97119,503-985-7451
The Black Sheep Co,197 Clarissa Drive,Glendale,OR,97442,541-832-3207
Max Freight,10696 Buckhorn Road,Glide,OR,97443,541-496-3977
Let It Ride Trucking,4568 Glenbrook Loop Rd,Riddle,OR,97469,541-915-6547
Apollo Transport,9706 N Clarendon Ave,Portland,OR,97203,503-978-9474
Two B's Delivery Service,1752 Nw Burnisde Rd,Gresham,OR,97030,503-661-6150
Thomas Paullin Trucking,15281 S Beaton Road,Oregon City,OR,97045,503-657-3974
John Manthe Trucking,548 50th Ave,Sweet Home,OR,97386,541-367-1137
Dan Froemmling Trucking,19142 Bedford Dr,Oregon City,OR,97045,503-517-0012
J & K Trucking,889 Sw Cedar,Pilot Rock,OR,97868,N/A
Hmb Trucking,52895 Nw 7th St,Scappoose,OR,97056,503-543-4835
Blake Transport,280 Moss Ln,Grants Pass,OR,97527,N/A
R S Logistics,5458 Dumore Dr,Aumsville,OR,97325,503-559-1138
H & H Hauling,2865 Se River Rd #59,Hillsboro,OR,97123,503-730-0495
Alex Express,41410 Stayton-scio Road,Stayton,OR,97383,503-798-5607
Bob Buoy Trucking,91159 A Hungry Hollow Loop,West Port,OR,97016,503-455-2393
Douglas Mang Trucking,1382 Clover Ridge Rd Ne,Albany,OR,97322,541-928-6729
Rocky Thompson Trucking,158 Bowden Street,Myrtle Creek,OR,97457,541-680-2070
Kurtis Herman Transportation,1873 21 Ave Se #13,Albany,OR,97321,541-926-6222
Pat's Septic Service,32119 Brooks Rd,St Helens,OR,97051,503-397-4632
B A S Transportation,17520 Sw Wright,Aloha,OR,97007,503-649-5124
Mike Town Trucking,78544 Hilltop Dr,Boardman,OR,97818,775-359-5886
Fmp Trucking,7340 Sw 188th Place,Aloha,OR,97007,909-236-3365
Alina K Transportation,1223 Nw Wonderview Dr,Gresham,OR,97030,503-752-0490
Richard Souza Trucking,64754 Saros Lane,Bend,OR,97701,541-460-0123
E & S Enterprises,11062 Arndt Road Ne,Aurora,OR,97002,503-678-5229
Bujac Transportation,6204 Se 136th,Portland,OR,97236,503-762-9183
H2o To Go Water Service,3626 Helms's Road,Grants Pass,OR,97527,541-476-1756
Vlad Transport,13299 Se Lucille St,Portland,OR,97236,503-762-5040
Vas-transportatiions,11323 Se Stevens Rd,Portland,OR,97266,503-786-7932
L & J Christenson Hauling,930 Crescent Rd,Imbler,OR,97841,541-534-6305
North Trucking,11380 Buckhorn Road,Glide,OR,97443,541-496-3977
Sure Shot Sam's Slaughtering Service,26623 Cannon Rd,Rainier,OR,97048,503-556-2241
Leroy Hudson Trucking,706 2nd St,Cove,OR,97824,541-786-0930
"J & T Trucking Of Oregon, Inc.",431 S Front Street #1,Central Point,OR,97502,541-664-2658
Christopher A Gulden Trucking,100 Wade Street,Ukiah,OR,97880,541-427-3064
Mike Petersen Trucking,4413 Lombard Dr,Klamath Falls,OR,97603,541-884-6211
Maranatha Transport,8522 Se 141st Ave,Portland,OR,97236,503-753-0072
S F G Transport,531 Clay St,Ashland,OR,97520,541-482-5750
Western Express,78227 Hwy 207,Hermiston,OR,97838,541-567-6084
Bob Soule Trucking,25580 S Holman Rd,Estacada,OR,97023,503-630-3353
Salazar Trucking,70675 Kunze Ln,Boardman,OR,97818,541-481-3298
Sifuentes Trucking Co,2921 Hwy 201,Nyssa,OR,97913,541-372-5118
V I A Transport,15437 Se Daffodil Pl,Clackamas,OR,97015,503-658-4675
"Hoover Trucking, Inc.",202 Chestnut,Nyssa,OR,97913,541-372-5764
Barrera Trucking,405 Ne Boardman Ave,Boardman,OR,97818,509-205-0271
T C Trucking,249 E Elm St,Pilot Rock,OR,97868,541-576-2167
Frank Machado Trucking,507 Evergreen,Tillamook,OR,97141,503-815-1761
White Bird Trucking,14725 Se Rhone,Portland,OR,97236,503-760-1966
Columbia River Transport,2964 Grand,Astoria,OR,97103,503-338-6266
J And T Hatcher Trucking,2911 Ne Riverside #17,Pendleton,OR,97801,541-276-3409
Faith Trucking,640 Del Mar Dr,Aumsville,OR,97325,503-749-1897
Hansen Transport,2721 Ne 105th Avenue,Portland,OR,97220,503-522-2674
Boja Trucking LLC,78671 Miller Rd,Boardman,OR,97818,541-481-3735
Guerin Td Trucking,560 14th St Ne,Salem,OR,97301,209-763-5800
David's Trucking,1215 2nd Street Nw,Salem,OR,97309,503-371-0783
Souza Trucking,331 Rustic Canyon Drive,Grants Pass,OR,97526,541-474-2448
Jc & B Transport,5990 Sw Mesa Way,Redmond,OR,97756,541-548-1816
Christine Transportation,633 Wedgewood Dr,Eagle Point,OR,97524,209-887-3963
J D Compilli Transportation,14904 Hwy 395,Lakeview,OR,97630,530-640-2084
Atilano Trucking,2442 N Oh Road,Hermiston,OR,97838,541-567-3588
Kent & Sons Log Hauling,784 Spencer Ave,Veronia,OR,97064,503-803-4129
Fullbore Transport,6435 Ne Colwood Way,Portland,OR,97218,503-261-1418
Green Knight Transportation,1455 Wetherbee Drive,Grants Pass,OR,97527,541-474-3058
Robert R Brown Trucking,295 Knapp Lane,Eugene,OR,97404,503-678-1060
Steve Miller Trucking,60216 Pawnee Lane,Bend,OR,97702,541-312-4546
Midway Transportation,4519 Cannon Ave # 23,Klamath Falls,OR,97603,541-884-5517
Fsihaye Trucking,3269 Ne Bekum St,Portland,OR,97211,503-475-7886
Roberson Transport,3253 Quarry St,Klamath Falls,OR,97601,541-273-6948
Florian Chilom Transport,145 50th Ave Nw,Salem,OR,97304,503-871-6207
Big Eds Transport LLC,4331 Ne 53rd Ct,Portland,OR,97218,503-331-7374
Farris Bros Transport,35458 S Ellis Rd,Molalla,OR,97038,503-678-1060
Jerry Mcbee Trucking,Eagle Creek Rd,Eagle Creek,OR,97022,N/A
Roy W Renfro Trucking,25800 Se Eagle Creek Rd #7,Eagle Creek,OR,97022,503-637-5292
David L Davenport Trucking,157 A St,Creswell,OR,97426,541-990-3047
Grey Trucking,5589 Waln Creek Ct S,Salem,OR,97306,916-752-4027
Rockin D Trucking,61305 Blakely Rd #9,Bend,OR,97702,541-383-3542
Paul B Mcmillan Trucking,5715 N Haughton,Portland,OR,97202,503-720-6034
O K Transport,2177 Sw Phyllis Dr,Mcminnville,OR,97128,503-474-1710
Fandango Trucking,7114 N Jersey,Portland,OR,97203,503-678-1060
Bm Trucking,896 N Oregon,Ontario,OR,97914,541-889-0803
Jim T Simonis Trucking,39820 Fish Hatchery Rd,Scio,OR,97374,541-259-6868
Dial Trucking,33841 Hampton Rd,Eugene,OR,97405,541-744-2505
B & R Hauling,216 E 14th St,The Dalles,OR,97058,541-298-5377
Westlake Brothers Trucking,963 Missouri Ave,Vernonia,OR,97064,503-429-1402
Western Delivery,2485 Sw Giese Loop,Gresham,OR,97080,503-975-9440
Taylor Transfer,325 Yates Ln,Boardman,OR,97818,541-481-2736
Universal Express,14122 Se Harney St,Portland,OR,97236,503-522-0895
Jimmy Fanelli Trucking,2207 Sw 29th St,Redmond,OR,97756,541-923-5318
Michael's Trucking Co,13141 Se Powell #21,Portland,OR,97236,503-740-1892
Cross M Express,4620 Nw Helmholtz Wy,Redmond,OR,97756,530-200-3602
"Jd Delivery, Inc.",965 Monmounth Cutoff,Dallas,OR,97338,503-623-6242
William Pitts Trucking,32369 Baxter Rd,Hermiston,OR,97838,541-567-3333
Bill Pinz Trucking,93924 Pitney Lane,Junction City,OR,97448,541-998-6284
Ironman Trucking,1850 C Ave,Terrebone,OR,97760,541-504-5232
C N Express,18780 Nw Rock Creek Cir,Portland,OR,97227,N/A
Semple Trucking,499 Phelps St,Ashland,OR,97520,541-488-8052
Diel Trucking,11441 Se Hidalgo Court,Clackamas,OR,97015,503-698-2325
A Sandoval,505 Ellis Ct,Milton Freewater,OR,97862,541-861-9431
Great Basin Transportation,3091 Mt Keubler Dr,Salem,OR,97302,503-585-1684
J & D Transport,80542 Paterson Ferry Road,Irrigon,OR,97844,N/A
Macdougall Truck Lines,6503 Se 45th Ave,Portland,OR,97206,503-788-7199
Gene Hayles Trucking,26266 Cory Rd,Junction City,OR,97448,541-998-6582
I M Trucking Co,1802 Se 176th Avenue,Portland,OR,97233,503-678-1060
E And J Logistics,506 W Centennial Blvd Apt 79,Springfield,OR,97477,541-741-3798
Double H Trucking,Hc 60 Box 480,Lakeview,OR,97630,541-947-5663
Elegant Transport,2220 Se 96th Dr #7,Portland,OR,97216,503-762-6772
Bradley E Fritsen,543 Oxyoke Rd,Grants Pass,OR,97526,541-659-7889
Robin Tyson Cattle & Truck,5608 Brant Drive,Bonanza,OR,97623,541-545-6008
"Pacific Service Center, Inc.",5317 Ne Portland Hwy,Portland,OR,97218,N/A
Blue Stone Trucking,31500 Oakville Rd,Shedd,OR,97377,541-729-4409
Oregon's Best Transportation,4069 S Pacific Hwy #110,Medford,OR,97501,530-558-5279
Cazarez Trucking,4175 Sunnyview Rd Ne,Salem,OR,97305,503-738-2514
Odyssey Lane,10460 Sw Day Street,Sherwood,OR,97140,503-678-1060
Ziegler Transport,Po Box 87,The Dalles,OR,97058,541-980-8052
Dlmd Trucking,149 Ne Kingwood Dr,Mcminnville,OR,97128,503-607-1088
Aracelis Garcia,47465 Hwy 58 Apt 11,Oakridge,OR,97463,702-581-7552
Moving In Usa,17024 Webb Ln,Brookings,OR,97415,541-469-5468
A K Transport,13241 Se Rose Meadow Drive,Clackamas,OR,97015,503-607-1088
Alex Rus Express,2106 Ne 132 Ave,Portland,OR,97230,503-254-4598
Rivera Transport,4382 Church Street,St Paul,OR,97137,503-602-2037
Spark Trucking,264 Walker Road,Grants Pass,OR,97527,541-955-8903
Jc Trucking,818 E 14th Street,Mcminnville,OR,97128,503-434-9184
Bill Montgomery Services,8335 Sw Old Hwy 47,Gaston,OR,97119,503-939-2734
Berry Trucking,10 E South Stage Rd#604,Medord,OR,97501,541-535-2704
Skip Miller Trucking,2929 East Antelope Rd,Eagle Point,OR,97524,541-830-4756
Renegade Trucking,843 Sleepy Hollow Loop,Granats Pass,OR,97527,541-846-0540
R L T Transport,3843 Souza St,Eugene,OR,97402,541-607-0291
John Tennimon Trucking,105 Breitenbush Rd,Detroit,OR,97342,503-854-3967
J Transport,17718 Se Cook Street,Milwaukie,OR,97267,503-678-1060
Blm Transport,23175 Sweet Town Road,Clatskanie,OR,97016,503-678-1060
Integrity Transportation,53921 Gabriel Ct,Milton Freewater,OR,97862,541-938-2280
Alfaro's Trucking,4817 49th Ave Ne,Salem,OR,97305,503-463-5881
R & L Trucking,19400 E Clubhouse Ct,Sandy,OR,97055,503-622-5466
J A V Trucking,17376 Ne Couch #d117,Portland,OR,97230,503-675-2341
Action Sports Cable Network,910 N E Mlk Jr Blvd,Portland,OR,97232,503-963-3801
A Bar B Trucking,34230 E La Comn Road,Lebanon,OR,97355,503-678-1060
Bs Trucking,845 Shelly Street,Springfield,OR,97477,541-746-6434
F A T C Keen Trucking,7920 Green Tree Ridge Rd,Tillamook,OR,97141,503-842-2296
Susan Jackson Trucking,1296 Sw Cedar Dr,Warrenton,OR,97146,503-861-9723
Juniper Trucking,411 E Cascade Ave,Sisters,OR,97759,541-410-9244
John R Shonk Trucking,1416 Queensbranch Rd,Rogue River,OR,97537,541-601-0520
Dsi Transportation Services,131 Nw 4th Street,Corvallis,OR,97339,541-619-4502
Cross Country Cargo,809 Marie Ave,Newberg,OR,97132,503-538-7980
Mt Hood Movers,14178 Caufield Road,Oregon City,OR,97045,503-723-6445
Blue Nile Enclosed Auto Transport,120 Nw 21st Avenue #207,Portland,OR,97209,503-351-7170
Clt Nationwide Transporting,8309 Se Lambert St Unit 109,Portland,OR,97266,503-771-0086
M J Briar Trucking,2050 Antelope Road,White City,OR,97503,541-830-5020
Wolfee's LLC,1385 Roseburg Rd,Myrtle Point,OR,97458,775-742-4223
Angel Wing Transport,1207 M Ave,La Grande,OR,97850,541-963-8049
A-one Septic & Rooter Service,2504 Hawkins St,Klamath Falls,OR,97601,541-882-1685
Prairie Schooner Transport,289 Cottage St N,Vale,OR,97918,541-473-4175
Our Trucking Co,2011 Robertson Bridge Rd,Grants Pass,OR,97526,541-476-1782
Oregon Floral Distributors,1130 Anderson Lane,Springfield,OR,97477,541-746-8497
Rose Trucking,2845 Merry Lane,White City,OR,97504,541-830-0466
Mariah Farms Trucking,52012 Sturtevant Lane,Bandon,OR,97411,541-347-1418
Wildwind Trucking,69844 Apiary Cemetary Road,Rainier,OR,97048,503-556-2105
Bryan Williams Trucking,20843 South Poe Valley Rd,Klamath Falls,OR,97603,541-545-1043
Wade Phillips Trucking,Hc 84 Box 102,Silver Lake,OR,97638,541-576-2539
Aaa Truck And Trailer LLC,839 Ne 2nd St,Bend,OR,97701,541-318-7499
P M Express,7213 Se Terrace Trails Dr,Portland,OR,97266,503-957-0170
Black Truck Line Express,369 Ne 162nd Ave,Portland,OR,97230,503-252-6648
A1 Luxery Transport,7025 Sw 102nd Ave,Beaverton,OR,97008,503-317-5203
Botello Transportation,9115 River Road Ne,Salem,OR,97303,503-393-3574
Best Way Express,1574 Coburg Rd#1124,Eugene,OR,97401,407-348-9051
Black Elk Trucking,11712 Se Powell Blvd Apt 26,Portland,OR,97266,503-761-4927
Sunrise Trucking,157 Kingwood Dr,Mcminnville,OR,97128,503-871-5074
Rw Trucking,541 E Punkin Center Road,Hermiston,OR,97838,541-567-4890
Mkb Vehicle Transport,350 Spaulding Way,Brownsville,OR,97327,541-466-0909
Jireh Trucking,8375 Se Roots Rd,Milwaukie,OR,97267,503-656-0080
Wright Bros Trucking,3222 Marrietta Se,Salem,OR,97301,503-581-6487
Tom Jacobs Trucking,5639 Sw Texas Street,Portland,OR,97219,503-245-1345
G V G Transport,5797 Se Willow Lane,Milwaukie,OR,97267,503-794-8194
Thurlow Transport,4272 Macleay Road Se,Salem,OR,97301,503-871-3882
Harry's Logistics Transport,5422 Portland Road Ne Space 71,Salem,OR,97305,541-279-1091
Familia Ibarra Truck Line,1895 Lancaster Dr Se,Salem,OR,97301,503-851-1831
T & K Transport,69611 Old Wagon Road,Sisters,OR,97759,541-678-3332
Econo Auto Transport,3550 Sw Victoria Place,Gresham,OR,97080,503-492-1984
A R Transportation,2826 Ne Junior Street,Portland,OR,97211,360-737-8679
Kt Carriers,609 Baird Drive,Yoncalla,OR,97499,541-228-0688
Cyranos Wildfire Services,500 Waters Creek Rd,Wilderville,OR,97543,541-479-2501
Bear Necessity Trucking,507 Pacific Street,Columbia,OR,97018,800-397-6597
Hyland Ranch & Trucking,10730 Ne Hyland Ln,Newberg,OR,97132,503-936-1377
Jerry Henriksen,1408 Quincy,Cottage Grove,OR,97424,541-942-7188
Gates Transportation,674 N Holley,Canby,OR,97013,N/A
K2 Transport,3197 Bristol Ave,Klamath Falls,OR,97603,541-882-1554
Eben-ezer Express,2633 Duke Street,Woodburn,OR,97071,503-710-2804
V & S Express,16015 S E Chelsea Morning Drive,Clackamus,OR,97015,503-658-6439
R W Morgan Transport,Rt 5 Box 5700,Hermiston,OR,97838,503-567-6863
Yielding Trucking,1063 South 4th Apt 1,Coos Bay,OR,97420,503-269-5801
Double D Trucking,189 Glenhart #26,Winston,OR,97496,003-679-5714
Carl Winters Trucking,Po Box Jc,Klamath Falls,OR,97602,503-883-8362
Duane Simonds Trucking,17216 Tholstrup Dr,Sunriver,OR,97707,541-593-6941
B G Transport Service,2400 Ne Red Sunset Dr # 105,Portland,OR,97030,503-661-3590
Tri-state Auto Transport,48333 7th St,Oakridge,OR,97463,503-782-4715
"Dpl, Inc.",724 High St Ne,Salem,OR,97301,N/A
Oregon Trucking,6142 Ne Sacramento St,Portland,OR,97213,N/A
E L Hays Transport,10201 Nw Groveland Rd,Hillsboro,OR,97123,503-647-0180
L D Corcoran Trucking,933 Place,Baker City,OR,97814,541-523-2173
G & G Trucking,67964 N Bay Rd,North Bend,OR,97459,503-519-8468
Thor Express,47827 W Commercial,Oakridge,OR,97463,503-782-4531
Robert & Son Trucking Co,3400 Ave C,White City,OR,97503,503-826-1649
Walker Transport,14475 Sw Downing St,Beaverton,OR,97006,503-644-4130
Burt Trucking Co,373 Connecticut Ave Se,Salem,OR,97301,503-399-9643
Rocha Trucking,2021 Locust St,Umatilla,OR,97882,503-839-7358
Blair Mobil Home Transporting,Rt 1 Box 41c,Umatilla,OR,97882,503-922-3850
V R & C E Melzer Transportaton,1300 2nd Ave Space 13,Seaside,OR,97138,503-738-7606
"High Desert Trucking, Inc.",63103 Nels Anderson Road,Bend,OR,97708,503-388-2020
Applegate Transport,10065 Hwy 238,Jacksonville,OR,97530,503-899-8271
M & A Trucking,19850 S Castleberry-lp,Oregon City,OR,97045,503-348-8790
Flying Eagle Express,10308 N Vancouver Way Ste 203,Portland,OR,97217,N/A
Wahoo Trucking,12625 Sw Hall Blvd 24,Tigard,OR,97223,503-968-2102
Anderson Trucking,878 Jess Way,Grants Pass,OR,97526,503-476-8286
Thomas Hazen Trucking,6848 North Missouri,Portland,OR,97217,503-283-3059
Kenneth Crissup Trucking,339 Oxyoke Rd,Grants Pass,OR,97526,N/A
C & S Transport,#10 Skelton Add Box 1016,Burns,OR,97720,503-573-7940
Ensch Trucking,19631 S Central Point Rd,Oregon City,OR,97045,503-678-1060
Pjj Trucking,408 Locust,Nyssa,OR,97913,503-372-5227
Tim Prauss Trucking,2578 Table Rock Rd # 1,Medford,OR,97501,541-773-6591
Wen-chris Express,62178 Mount Glen Road,La Grande,OR,97850,208-888-2251
James Mann Trucking,1928 S E 72nd Ct,Hillsboro,OR,97123,503-649-9564
George Fuller Jr Trucking,21564 Santiam Hwy,Mehama,OR,97384,503-859-3415
Jo-don Trucking,Po Box 1719,Winchester Bay,OR,97467,503-526-6499
Trailblazer Transport,1102 Washington,La Grande,OR,97850,503-963-4169
Fms Trucking,3412 N E 17th #c10,Gresham,OR,97030,503-667-1331
Paul Elwess Material Hauling,39909 Se Kitzmiller Road,Eagle Creek,OR,97022,503-637-3141
Classic Truckin',Po Box 1864,Winston,OR,97496,503-459-2125
R L Earley Trucking,4558 S E 111th,Portland,OR,97266,503-760-8729
D Mcglothen Trucking,73731 Cedar Grove Drive,Clatskanie,OR,97016,503-728-4186
Orlin Bartsch Trucking,5333 Cody Ave,Eugene,OR,97487,503-689-3182
C W S Transportation,18837 Couch Market Rd,Bend,OR,97701,503-388-2510
Beard Trucking,66805 Hwy 20 West,Bend,OR,97701,541-383-0924
Sears Transport,400 East Hwy 140,Adel,OR,97620,N/A
High Desert Dirt Freight,545 North H Street,Lakeview,OR,97630,503-784-0460
R A Schaefer Trucking,17951 S E Hemrick Rd,Boring,OR,97009,503-658-6907
Jack Perkins,1807 Sw 42nd,Pendleton,OR,97801,541-276-6389
Vanbelle Trucking,Po Box 948,Joseph,OR,97846,503-426-3478
Garry E Hulse Trucking,820 M St,Springfield,OR,97477,503-747-9305
K R Luttrell Trucking,20502 Nw Murphy Rd,Cornelius,OR,97113,503-647-5991
Express Transportation LLC,201 N Washington,Weston,OR,97886,503-566-9250
Coleman Transport,157 Draper St Ne,Salem,OR,97301,503-399-1403
Richard Heater Trucking LLC,1750 E Pine St,Stayton,OR,97383,503-769-6694
T & G Transport,6204 Se Hazel,Portland,OR,97206,503-771-9021
Joe White Trucking,Rt #4 Box 127,Astoria,OR,97103,503-458-6918
W D Perry Transporter,826 Sunny Glen Way,Sunny Valley,OR,97497,503-476-1653
"Wicklander Trucking, Inc.",3870 Se 25th St,Gresham,OR,97030,503-669-4105
Lee Mcdaniel Trucking,76858 Delena Mayger Rd,Rainier,OR,97048,503-728-3449
Web's Transport,21401 Ne Sandy Blvd,Troutdale,OR,97060,503-618-1954
Hendrix Trucking,675 Fairhaven,Roseburg,OR,97478,503-744-1912
Hampton Distribution Center,4950 Nw Front Ave,Portland,OR,97210,503-220-0600
S & L Trucking,3720 Antelope Road,White City,OR,97503,503-826-8789
Cmd Trucking,Cherry Blossom Trailer Court11,Rufus,OR,97050,503-739-2275
Chuck Jones Trucking,255 W Colllege Apt 8,Mt Angel,OR,97362,503-845-2831
Crown Trucking,4817 Se Akeny,Portland,OR,97215,N/A
Earl Richards Trucking,345 East Main,Mount Vernon,OR,97865,541-932-4622
Saleen Trucking,18175 Sw Pacific Hwy,Tualatin,OR,97062,503-691-9532
Tim Shaw Trucking,11674 Se Verns Way,Happy Valley,OR,97086,503-698-9331
United Northwest Transport Of Oregon,8th St Cain Dr,Irrigon,OR,97844,541-922-4506
Jim Bruce Trucking,18479 Mt Angel/scotts Mill Hwy,Scotts Mills,OR,97375,503-873-3851
Sierra Truckin,260 N W 5th Ave,Ontario,OR,97914,503-881-1315
M A Sheffield Transportation,31082 Gowdyville Road,Cottage Grove,OR,97424,541-942-7578
J & M Trucking,1013 Oak Street,The Dalles,OR,97058,503-298-2054
Hom-les Trucking,4526 Douglas Ave,Klamath Falls,OR,97601,503-882-8473
Lanny Mcdonald Trucking,60516 Flack Road,Vernonia,OR,97064,503-429-5941
Brent Beckgren Trucking,Po Box 1915,Clackamas,OR,97015,541-963-4839
J J Mitchell Trucking,730 Shakemill Rd,Roseburg,OR,97470,541-672-5866
Wil Sexton Trucking,813 Franklin,Astoria,OR,97103,503-325-9695
Buckaroo Trucking,2301 Upper Imnaha River Rd,Imnaha,OR,97842,503-562-5272
Red Line Trucking,218 E Center,Union,OR,97883,541-562-5272
Dave Swingle Trucking,11835 Lower Klamath Lake Rd,Merrill,OR,97633,541-798-0172
Jjj Transport,64468 2nd Street,Deer Island,OR,97054,503-397-5987
Diversified Transportation Services Ltd,2500 Boehm Acres Road,Seaside,OR,97138,519-599-7555
Alora Transport,4305 Hwy 39,Klamath Falls,OR,97603,541-885-8017
Charles Patterson Trucking,1430 Whitley Lane,Vale,OR,97918,503-473-3393
Cezar Romanet Trucking,6116 Se 93rd,Portland,OR,97266,503-777-3804
P T I Trucking,25 82nd Dr,Gladstone,OR,97027,503-557-9009
Ed Stubblefield Trucking,705 Jefferson St,Summerville,OR,97876,503-534-6602
John T Nix Jr Trucking,335 Queen Ave Sw,Albany,OR,97321,541-926-7796
Elkhorn Trucking,860 3rd St,North Powder,OR,97867,503-898-2429
William Acevedo Trucking,62371 Starr Ln,Lagrande,OR,97850,541-963-2775
Moonlight Express,689 Se Glenwood #d,Bend,OR,97702,503-385-5930
Mika Trucking,1148 Division,Myrtle Creek,OR,97457,541-863-4801
Art Isakson Trucking,950 Sw Fellows St,Mcminnville,OR,97128,503-472-5294
Tiben Enterprize,6400 Se 101st Avenue,Portland,OR,97266,503-793-0359
Northrop Transportation,3113 Bristol Av Sp 26,Klamath Falls,OR,97603,503-882-9865
Peters Trucking LLC,424 S E Austin Street,Sumpter,OR,97877,541-894-2350
Paul Sarkie Trucking,1190 Alameda,Astoria,OR,97103,503-325-8360
Larry Hensley Trucking,191 Ford Road,John Day,OR,97845,503-575-2612
Michael Chism Trucking,1798 Austin Road,Roseburg,OR,97470,503-679-8024
Hiway Star Trucking,P O Box 682,Gilchrist,OR,97737,N/A
Cascade Express,5801 Old Salem Road,Albany,OR,97321,541-928-4091
Greg Kier Trucking,126 Nw Ione St,Dundee,OR,97115,503-769-6879
Free Style Trucking,886 Florence,Astoria,OR,97103,503-861-3583
Kampco Transportation,39354 Eagles Rest Rd,Dexter,OR,97431,541-937-3256
Boulder Transport,12164 Ehler Road,Aurora,OR,97002,503-678-1060
Scott Anderson Trucking,29602 Bluebill Lane,Bonanza,OR,97623,503-545-1217
Peter Brachmann Trucking,Rt 4 Box 332,Astoria,OR,97103,503-458-5181
Over Under Trucking,Po Box 3043,Central Point,OR,97502,503-664-1210
Dick Schimpf Trucking,2701 Corey Road,Central Point,OR,97502,541-826-6116
Michael Wilcox Trucking,6455 Sw Nyberg Lane #g104,Tualatin,OR,97062,503-702-2778
Lane Trucking,78188 Pitcher Ln,Cottage Grove,OR,97424,503-942-7054
Mark Maasdam Trucking,308 Residence St,Enterprise,OR,97828,541-426-3015
Alderman Trucking,1630 Market Street,Springfield,OR,97477,503-744-2843
Sause Transport Systems,678 Filbert Ave,Coos Bay,OR,97420,503-267-3949
Zig Zag Express,1544 Woodland Ave,Woodburn,OR,97071,503-982-2692
Mike Diaz Trucking,303 Kenwood St,Grants Pass,OR,97527,541-862-2079
B & B Mobile Home Transport,13771 Wilco Hwy,Woodburn,OR,97071,N/A
J P Link,9209 N Calvert,Portland,OR,97217,N/A
Miranda Trucking,P O Box 388,Yoncalla,OR,97499,N/A
Sw Transport,431 Boyer Rd,Riddle,OR,97469,541-510-5321
Cortez Trucking,10751 Se Fuller Rd,Milwaukie,OR,97222,503-788-9269
G T G Trucking,63534 Kingfisher Road,Charleston,OR,97420,541-347-4079
Gillespie Trucking,77812 Quaglia Rd,Cottage Grove,OR,97424,503-942-7807
L A Porter Trucking,4660 Hwy 52,Ontario,OR,97914,503-262-3619
Taz Trucking,27341 Rocky Pt Rd,Klamath Falls,OR,97601,503-356-2238
O'connell Trucking,17050 Pacific View Dr,Brookings,OR,97415,530-249-0900
David Greer Trucking,1244 Taft St,Eugene,OR,97404,503-689-3719
Parkhurst Trucking,1436 Se Rogue Dr,Grants Pass,OR,97526,503-476-9875
Sochi Transfer,15850 Ne Glisan Apt #2,Portland,OR,97230,N/A
Cmj Transportation,203 Cottonwood,Gaston,OR,97119,503-985-0806
Wes Wood & Sons Trucking,25051 Peorla Rd,Harrisburg,OR,97446,503-995-8129
Intec-permaglas,5210 Ne Elliott Circle,Corvallis,OR,97330,503-754-7534
K B K Trucking,592 Se 6th Pl,Canby,OR,97013,503-266-7533
B W Perry Trucking,310 Main St,Unity,OR,97884,541-446-3526
Richard J Werner Trucking,1730 Tillamook River Road,Tillamook,OR,97141,503-842-5335
Lone Eagle Transportation,4657 Turner Road Se,Salem,OR,97301,800-441-6713
Doug Lyman Trucking,2906 N Lombard St,Portland,OR,97217,N/A
Analog Express,6519 N Montana,Portland,OR,97217,N/A
Jerry Hatton Trucking,423 N 55th St,Springfield,OR,97478,541-747-2056
Hammerly & Varney Trucking,6303 Chapperal,Central Point,OR,97502,503-826-8144
G & J Transport,23 Se 81st Ave,Portland,OR,97215,503-251-3938
Muno Enterprises,2225 3 Mil Ln,Mcminnville,OR,97128,503-434-6446
Vernon N Maxwell Trucking,1071 Fairfield #86,Eugene,OR,97402,503-688-6419
Warren Eastep Trucking,226 Estella St,Glide,OR,97443,541-496-4518
Austin Trucking,114 Sherman Pl,Saint Helens,OR,97051,505-366-0338
Henry Cadonau Trucking,92243 Ironhorse Road,Astoria,OR,97103,503-458-7171
Tom Parry Trucking Co,1584 N W Almond,Roseburg,OR,97470,541-440-9416
R & L Trucking,25160 Mcclun Rd,Sweet Home,OR,97386,503-367-4593
R W Irby Trucking,448 Sw Cedar,Pilot Rock,OR,97868,503-443-2934
D And V Holman Trucking,9877 S Macksburg Rd,Canby,OR,97013,N/A
Economy Hauling,39161 Se Squaw Mt Rd,Estacada,OR,97023,503-630-7158
"Utter Trucking, Inc.",6832 Scism Rd Ne,Silverton,OR,97381,503-873-7003
Coburn Trucking,91590 Prairie Rd,Junction City,OR,97448,N/A
Mike Tone Trucking,7060 Munson Cr Rd,Tillamook,OR,97141,503-842-7645
Moya Trucking,Rt 2 Box 2306,Hermiston,OR,97838,503-564-9836
Paul Tenbusch Trucking,40500 Piper Ln,Sweet Home,OR,97386,541-367-2790
Guardian Vaults & Services,33065 Tennessee Rd,Lebanon,OR,97355,541-259-1199
Eyer & Eyer Trucking,65700 W Hwy 20,Bend,OR,97701,541-389-8642
Diamond K Trucking,830 E 4th St,Molalla,OR,97038,503-829-9525
Blue Mt Freight,Hcr 1 Box 229,Mt Vernon,OR,97865,541-281-1919
Bill Overstreet Trucking,35745 Hankey Rd,St Helens,OR,97051,503-397-9747
Dennis Buoy Trucking,6607 Old Stage Rd,Central Point,OR,97502,503-664-4380
Rhon-da-voux Trucking,12164 Ehlen Rd Ne,Aurora,OR,97002,503-458-6156
Defiant Trucking,Box 10308 N Vancouver Way #290,Portland,OR,97217,503-526-6499
S & S Trucking,660 East Wilshire,Hermiston,OR,97838,541-567-6803
Julia Transport,34834 Shoreview Dr #12,Cottage Grove,OR,97424,N/A
V I P Specialized Carriers,5228 S E 52nd Avenue,Portland,OR,97206,503-788-4291
G & D's Hobby Trucking,343 Walker Road,Lebanon,OR,97355,503-259-1759
Arnold & Levi Mckinnis Trucking,30570 Nw Genzer Rd,Buxton,OR,97109,503-324-7013
J B Rogers,2896 Fiesta Dr,Springfield,OR,97477,541-337-1122
Griffin Trucking,2536 Howard Ave,Medford,OR,97501,541-734-7191
Jeff Brown Trucking,1381 Nw Cherry Dr,Roseburg,OR,97470,541-672-4596
Deyong Trucking,525 Ne 198th St,Portland,OR,97230,503-667-8222
D & R Transport,40457 Sw Lasalle Rd,Gaston,OR,97119,503-985-0211
G Bice Trucking,103 1st Barlow,Canby,OR,97013,503-266-8805
Tim Reeder & Sons Trucking,15835 Jones Rd,White City,OR,97503,541-826-5179
Winter Hawk Trucking,810 Northwood Ne,Salem,OR,97301,503-364-4577
Irishman Trucking,1150 S Hwy 395 Apt B12,Hermiston,OR,97838,541-567-2280
West Coast Cattle Carriers,2067 Sw 30th Street,Redmond,OR,97756,541-548-5918
Specialties Shuttle & Transport,213 Soldier Cr Rd,Grants Pass,OR,97526,541-476-5849
Ken Baldwin Trucking,27510 Hwy 36,Junction City,OR,97448,541-998-2434
Kent Holmes Trucking,63356 Nels Anderson Rd #8,Bend,OR,97701,541-318-5573
North Valley Transport,208 Patton St,Summerville,OR,97876,541-962-9132
Sallee Trucking,5234 Se Sioux Loop,Prineville,OR,97754,541-447-1332
Poor Boyz,Rt 2 Box 2946,Hermiston,OR,97838,541-567-0918
Wm Mcginnis Navigation,2690 Sorrel Way,Eugene,OR,97401,541-343-7670
Bob & Steve Tucker Trucking,643 Tower St,North Bend,OR,97459,541-756-6331
Michael B Morris Transportation,629 Ne Christian,Myrtle Creek,OR,97457,541-863-4428
Wesley L Burks Trucking,#d 1050 W Hist Columbia Riv Hy,Troutdale,OR,97060,503-666-3268
Winch Trucking,67551 N Nehalem Hwy,Vernonia,OR,97064,503-429-4510
Kenny Lund Trucking,Unknown,Mcminnville,OR,97128,N/A
Whittle Moving Systems,3755 Ne 8th St,Gresham,OR,97030,503-492-6403
Bradley Leedham Trucking,12545 S Wildcat Rd,Molalla,OR,97038,503-829-7615
Rosales Trucking,Rt 1 Box 1496,Hermiston,OR,97838,541-567-8413
Paul Clayton Trucking,283 Vintage Lane,Myrtle Creek,OR,97457,541-860-5746
Dave's Free Style Trucking,333 W Marine Dr,Astoria,OR,97103,503-325-7729
J Dukes Trucking,12164 Ehlen Road Ne,Aurora,OR,97002,N/A
Wilson Interstate Carriers - Wic,1699 S W Blaine Dr,Aloha,OR,97006,503-642-1607
Coyote Express,248 Sw 28th Dr #l5,Pendleton,OR,97801,541-276-4057
Wright Trucking,2174 Wester St,Eugene,OR,97408,503-485-0258
Redshoe Trucking,5060 1/2 Booth Hill Rd,Hood River,OR,97031,541-354-2055
J-met Express,524 17th,Port Orford,OR,97465,541-332-9038
Alan Bork Trucking,67898 Meissner Rd,Deer Island,OR,97054,503-397-2447
Rangel Trucking,1916 N Argyle St #2,Portland,OR,97117,503-678-1449
Bounds Trucking,3583 Davis Dr,Hood River,OR,97031,541-354-2824
Dit Trucking,104 Ne Beech St,Portland,OR,97212,503-331-1567
Ralph Bunney Trucking,Rt W Box 616,Astorial,OR,97103,503-458-6287
A & B Trucking,18850 Sw Farmington #43,Aloha,OR,97007,503-848-0891
Victor Abbott Trucking,801 Courtney Ln,Summerville,OR,97876,541-534-6775
John Sturman Trucking Co,3947 Andover St,Eugene,OR,97404,541-689-8200
Milton D Miller Trucking,359 Red Blanket Rd,Prospect,OR,97536,541-560-3760
Coast To Coast Auto Transport,5303 Ne Cully Blvd,Portland,OR,97218,503-493-8797
Donald Henson Trucking,78361 Swanson Lane,Cottage Grove,OR,97424,503-942-1981
Dancer Trucking,245 Sw 5th #3,Pendleton,OR,97801,541-278-2772
Leo Jones Trucking,9335 Sw 310th Ave,Cornelius,OR,97113,503-628-3322
Sovereign Trucking,11719 Se Boise,Portland,OR,97266,503-760-3610
Southern Oregon Distribution & Cold Storage,633 Market St,Medford,OR,97504,541-772-6205
P E P Trucking,314 South Quincy,Hines,OR,97738,541-573-3803
H R Bailey,1145 Rector Dr,Lapine,OR,97739,503-991-1611
Dave G Fleming Trucking,88259 Miller Ave,Springfield,OR,97478,541-747-0963
Winkles Transportation,16661 Fern Ridge Rd,Stayton,OR,97383,503-769-9440
Glenn T Goodwin Trucking,89311 Shefflen Rd,Elmira,OR,97437,541-935-6339
Kmk Trucking,3881 Souza Ave,Eugene,OR,97402,541-689-6863
Mando Trucking,251 W Beech Ave,Hermiston,OR,97838,541-720-9342
Roger Meyer Trucking,67836 N Nehalem Hwy,Vernonia,OR,97064,503-429-3012
Coome Trucking,54 Sw Eastern,Grants Pass,OR,97526,541-476-0420
Kent Grossman Transportation,14221 Hwy 66,Klamath Falls,OR,97601,541-884-1664
David Stahl Trucking,3110 Pine St Se,Albany,OR,97322,541-619-2887
Zane Gibbs Trucking,33591 Collins Ln,Stanfield,OR,97875,541-449-1277
Two Hearts Trucking,8560 Sw Salish Ln,Wilsonville,OR,97070,503-873-5736
Lns Trucking,388 Laurel Dr,Roseburg,OR,97470,541-673-0064
John Rickard Trucking,23826 Price Creek Road,Philomath,OR,97370,541-929-2811
H L Ross Co,2006 Wildwood Ave,Salem,OR,97301,541-536-7450
Kenneth E Way Trucking,813 N W Second Street,Enterprise,OR,97828,541-426-4777
Stanley's Express,3149 S E 157th,Portland,OR,97236,503-762-4856
Wayne Peterson Trucking,1083 Cook St,Myrtle Creek,OR,97457,541-863-3466
V - N Trucking,Rt 2 Box 2720,Hermiston,OR,97838,541-922-5453
Bruce Attwater Auto Parts,619 Se Cass Ave #a,Roseburg,OR,97470,541-957-1988
V E Trucking,502 E Lincoln St,Woodburn,OR,97071,503-981-8411
Massey Auto Transport,5841 Crater Lake Hwy,Central Point,OR,97502,541-826-7500
Tom Machugh Trucking,208 East Main St,Ukiah,OR,97880,541-427-3072
Mountain Pines Trucking,19575 River Rd #44,Gladstone,OR,97027,503-650-2278
Richard Mcallister Trucking Co,2343 Wilbur Ave,Eugene,OR,97402,541-461-2296
Don R Hovell Trucking,1070 Nw Murray Rd,Portland,OR,97229,800-506-1123
Charles Powell Trucking,76574 W 2nd St,Oakridge,OR,97463,541-782-3911
Donald Lorentz Trucking,84137 Alpine Lane,Joseph,OR,97846,541-432-3109
Hugh Reed Hauling,16091 Thompson Cr Ln,Mitchell,OR,97750,541-462-3897
Colin Transportation,70036 Ridgecrest Lane,Boardman,OR,97818,541-481-5155
Norris Truckin & Fab,1626 N 2nd St,Silverton,OR,97381,503-873-7380
Wallace Oil,1100 Hwy 206,Wasco,OR,97065,541-442-5277
Rich Birky Trucking,27040 Fern Ridge Rd,Sweet Home,OR,97386,541-367-8324
Lyons Transport,76011 Delena Mayger Rd Suite A,Rainier,OR,97048,503-728-2344
Dennis Burkhert Trucking,7695 N Umpqua Hwy,Roseburg,OR,97470,541-440-1458
William L Clark Trucking,41469 Baptist Church Dr,Lebanon,OR,97355,541-451-2531
C & R Trucking Company,7033 Se 67th,Portland,OR,97206,503-725-5684
Harper Transportation,23023 Drazal Rd,Malin,OR,97632,541-723-2850
Kendrick Trucking,125 Sw Cedar,Warrenton,OR,97146,503-861-1322
Calvin L Litzsinger Trucking,228 Sw 29th Dr #76,Pendleton,OR,97801,541-278-1325
T L Lowry Trucking,23704 S Engstrom Rd,Colton,OR,97017,503-632-8171
Roger A Lawhead Trucking,675 Jefferson Ave,Vernonia,OR,97064,503-201-9648
Bob Hoy Trucking,22842 S Hwy 99 E,Canby,OR,97013,503-266-2041
C L Saben Trucking,7070 Sw 83rd Ave,Portland,OR,97223,503-244-0085
William Davidson Trucking,24097 S New Kirchner,Oregon City,OR,97045,503-632-6896
Gordon Fowler Trucking,200 Emails Way Unit 5,Roseburg,OR,97470,541-679-4807
Ritt's Transportation,24800 S Howell Rd,Estacada,OR,97023,503-630-7002
Scott Bly Trucking,4389 Depriest St,Roseburg,OR,97470,541-679-8513
T D Bachman Trucking,810 Se Goodwin,Pendleton,OR,97801,541-276-9327
Ray Raimer Transportation,15200 Hwy 238,Grants Pass,OR,97527,541-846-7549
Mike Petersen Trucking,4413 Lombard Dr,Klamath Falls,OR,97603,541-884-6211
Doyle Madden Trucking,16151 Highway 66,Ashland,OR,97520,541-482-1839
Lookie Loos Transport,3164 Madrona Ln,Medford,OR,97501,541-779-6733
Earl Keeling Trucking,2796 S Main Rd Spc 51,Lebanon,OR,97355,541-259-2366
Butler Transport,33736 Se Oak,Scappoose,OR,97056,503-543-2693
Lawrence's High Desert Transit,12106 S W Houston Lake Road,Powell Butte,OR,97753,054-144-7444
Don Rardin Trucking,905 Nw Rollo Ln,Prineville,OR,97754,541-447-1381
B G Van Dusen Trucking,5655 Haskins Rd,Bonanza,OR,97623,541-545-6846
Cross Creek Trading Company,7111 Blackwell Rd,Central Point,OR,97502,541-773-3700
Timothy Thompson Trucking,1335 Columbia St,Hood River,OR,97031,541-386-1593
Putney Trucking,1618 Crittenden Loop Nw,Albany,OR,97321,541-967-1025
Myron Sparks Trucking,1296 Rolling Hills,Roseburg,OR,97470,541-679-0449
Austrak International Transportation,10281 Se Mather Road,Clackamas,OR,97015,503-650-7475
P J Burkley Trucking,3415 Sw 26th,Redmond,OR,97756,541-923-5917
Jeff Fredenberg Trucking,64077 Nehalem Hwy N,Vernonia,OR,97064,503-429-2420
Laser Trucking,4452 Se 22 Nd Drive,Gresham,OR,97080,503-663-7166
Roy A Shearer Trucking,29900 Santiam Hwy,Lebanon,OR,97355,541-259-4569
Shadow Trucking,4228 N Willis Blvd,Portland,OR,97203,503-283-4965
Sramek Trucking,5305 Auburn Rd Ne,Salem,OR,97301,503-370-9537
Sherman Transfer Co,32921 Diamond Hill Drive,Harrisburg,OR,97446,541-995-7751
Leonard R Watkins Trucking,980 Ball Blvd,Waldport,OR,97394,541-563-6423
Semi-retired Trucking Co,27150 Elk Trail Dr,Nehalem,OR,97131,503-322-2762
G W Holland Trucking,1433 Nw Fairmount,Roseburg,OR,97470,541-672-1163
First Light Transport,852 Red Top Road,Adrian,OR,97900,541-724-5079
Noe Valdez Trucking,1590 Magpie Lane,Hermiston,OR,97838,541-567-9434
Shiloh Basin Trucking,67042 Anliker Rd,Deer Island,OR,97054,503-556-0522
Joe Tankersley Trucking Co,16120 Nw Old Pumpkin Ridge Rd,Cornelius,OR,97113,503-647-2656
K T Collier Trucking,Hc 83 Box 1085,Coquille,OR,97423,541-396-5698
R & M Transport,59980 Eldridge Lane,St Helens,OR,97051,503-366-6261
Turtle Express,224 Mace Rd,Medford,OR,97501,541-840-3810
Cmt Unlimited,3555 Sw Eastwood Pl,Gresham,OR,97080,503-618-0629
Hassing & Son Trucking,9000 Ne Martin Luther King#249,Portland,OR,97217,503-667-1836
Eberly Trucking,1730 Se Oakshore Ct,Milwaukie,OR,97267,503-659-3805
Stelth Trucking,5932 Sw Springhill Rd,Gaston,OR,97119,503-359-4900
W D Transport,2740 Coburg Road,Eugene,OR,97408,925-586-6117
Olvera Trucking,53 Buena Ct,Umatilla,OR,97882,541-922-8905
J & O Trucking,1800 Ne 10th Sp 47,Hermiston,OR,97838,509-854-2149
Allan R Godell Transportation,33408 Bellinger Scale Rd,Lebanon,OR,97355,541-451-5686
Dane's Trucking,8838 Hwy 140 E,Klamath Falls,OR,97603,541-882-3382
J D Trucking,18124 Hwy 42,Camas Valley,OR,97416,541-445-2190
Rick Johnson Trucking,905 Van Street,Clatskanie,OR,97016,503-308-2281
Eddy Trucking,22630 Hwy 18b,Willamina,OR,97396,503-876-8300
Sorensen Trucking,15711 Deedon Rd,Lapine,OR,97739,541-536-5655
Vlk Express,10257 Se Champagne Ln,Portland,OR,97266,503-816-7728
Yager's Trucking,51160 Hwy 97,Lapine,OR,97739,541-536-1988
"Witherspoon Trucking, Inc.",42104 Clark Smith Drive,Lebanon,OR,97355,541-258-3016
Songdog Transport,13140 Upper Ridge Road,Crooked River Ranch,OR,97760,541-504-7902
Dsr Ranches Transportation,Hc 71 Lone Pine Road,Burns,OR,97720,541-573-5707
Jeffrey Rose Trucking,15284 S Kirk Road,Oregon City,OR,97045,503-632-5234
Ralph Breeden Trucking,38051 Golden Valley Dr,Lebanon,OR,97355,541-258-7506
J & J Transportation,650 S Hwy 395 Suite 312,Hermiston,OR,97838,541-278-8615
Cedillo Transport,1325 Picture St,Independence,OR,97351,503-999-8581
J T Trucking,987 Jessica Court,Eagle Point,OR,97524,541-826-3413
Dan's Trucking,108 Red Hill Road,Glendale,OR,97122,541-832-3163
Sheldon Stewart Trucking,14670 Sw Mccabe Chapel Rd,Mcminnville,OR,97128,503-843-2243
Castro Trucking,455 N Sherman St #4,Stanfield,OR,97875,541-449-3386
Cartwright Trucking,2885 Bailey Ln,Eugene,OR,97401,541-343-2997
Onis Tanner Trucking,7370 Sw 172nd,Aloha,OR,97007,503-591-8066
G W Trucking,23349 S Molalla Ave,Oregon City,OR,97045,503-632-6862
Dale Littlepage Trucking,33242 Se Kelso Rd,Boring,OR,97009,503-668-5028
G S Trucking,17700 Sw Wakem St,Aloha,OR,97006,503-259-2584
Hc Transport,P O Box 24,Cave Junction,OR,97523,541-592-3701
Ruvalcaba Trucking,502 Thompson Ave,Nyssa,OR,97913,541-372-3098
Steve Badell Trucking,9705 Sw Frewing St,Tigard,OR,97223,503-684-8211
Bigtime Trucking,1801 Arlington Drive,Medford,OR,97501,541-773-5760
Ferero Trucking,32914 Richard St,Scappoose,OR,97056,503-543-6444
Dave Jones Trucking,1581 Arlington Dr,Medford,OR,97501,541-770-3214
Robert Batson Trucking,445 N 6th,St Helens,OR,97051,503-397-3766
Mike Carignan Trucking,4025 Spruce St,Florence,OR,97439,541-997-3260
Budget Williamette Express,22580 Se Donna Cir,Boring,OR,97009,503-658-4986
Jose G Monreal Trucking,3352 Malheur Drive,Ontario,OR,97914,541-889-6542
Boes Trucking,2265 East Hard Castle,Woodburne,OR,97071,N/A
Hodg Skiss Trucking,69246 Easy St,Sisters,OR,97759,541-549-3557
Jim Farmer Trucking,655 Tiarra Street,Lakeside,OR,97449,541-759-2089
Pena's Trucking,6015 Sw 187th Dr,Aloha,OR,97007,503-544-4623
R & G Transport,14907 Se Cedar Ave,Milwaukie,OR,97267,503-653-5001
Knutson Transportation,400 North Front Street,Coos Bay,OR,97420,541-267-3195
C J Transportation,891 Three Pines Road,Grants Pass,OR,97526,541-955-9266
G & L Transport,1800 Ne 10th #17,Hermiston,OR,97838,541-720-0162
Alsea Valley Transport,177n 3rd,Alsea,OR,97324,541-487-4299
Charles Frizzell Trucking,61828 Behrens Lane,Summerville,OR,97876,541-534-5212
D & K Transp,8430 Sw 77th Ave,Redmond,OR,97756,541-330-1167
Jose Manzo Trucking,75 Nw 6th St,Ontario,OR,97914,541-881-1613
Hk Transporting,23 Scholarship Way,Medford,OR,97501,541-245-9525
The Wylie Ranch,33800 E Progress Rd,Hermiston,OR,97838,541-564-0958
Eugene C Scharbrough Trucking,3341 Glenbrook Loop,Riddle,OR,97469,541-874-2829
Carpenter Trucking Service,6768 Se Blossom Ave,Milwaukie,OR,97267,503-656-6323
Adels Trucking,5190 Delaney Rd,Turner,OR,97392,503-743-2886
Hauth Trucking,6542 Se 66th Avenue,Portland,OR,97206,503-774-6824
Bullwinkle Trucking,717 Ne Hickory,Pilot Rock,OR,97868,541-443-3279
Gene L Koepl Trucking,39104 Ridge Dr,Scio,OR,97374,503-394-2347
Two T Trucking,6671 Nw 10th St,Terrebonne,OR,97760,541-923-6458
Cline Trucking,3740 Mallard Lane,Medford,OR,97504,541-773-5890
Trumbly Transportation Co,777 Wildflower Rd,Merlin,OR,97532,541-956-1850
T O'sullivan Trucking,315 North K St,Lakeview,OR,97630,541-947-3830
D V C Transport,1116 Mt Pitt,Medford,OR,97501,541-858-9518
Thomas L Lehman Trucking,613 Glenn Way,Central Point,OR,97502,541-664-4808
P K Trucking,33775 S Adams Rd,Molalla,OR,97038,503-759-4206
Clark Moore Trucking,54530 Sw Patton Valley Rd,Gaston,OR,97119,503-985-0164
James Green Trucking,327 Cemetery Rd,Wilbur,OR,97494,541-440-0668
Hank's Tanks & Trucking,35119 Cortez Way Se,Albany,OR,97321,541-926-7114
Northwest Freight Systems,3477 Fairview Way,West Linn,OR,97068,503-675-9139
George Fuller Trucking,655 Sw Hubert,Corvallis,OR,97333,541-757-3357
Monte's Trucking,904 North Baldwin,Portland,OR,97213,303-289-8447
Dennis Burtch Trucking,4090 Nw Lincoln,Yamhill,OR,97148,503-662-3382
Bonny Trucking,1410 Ne 106th Ave,Portland,OR,97220,503-252-6378
Powell & Spouse Trucking,203 S 'r' St,Cottage Grove,OR,97424,541-942-0551
White Hawk Trucking,60385 Nehalem Highway North,Vernonia,OR,97064,503-429-0423
Fantasy Freight Transport,526 Hartsfield Lane,Merlin,OR,97532,541-956-9333
Cm Trucking,3253 Arcadia Blvd,Nyssa,OR,97913,541-372-3810
Jim's Mobile Home Service & Dba Hidden Valley Homes,725 B Union Ave,Grants Pass,OR,97527,541-479-7877
J X L Ranch,18020 Hwy 395,Lake View,OR,97630,530-946-4131
Earl Dodge Transport,13275 Ayres Lane,Powell Butte,OR,97753,541-923-1490
Happy Trails Hauling,241 Fair Oaks Rd,Oakland,OR,97462,541-459-1681
Jerry Swindell Trucking,10076 Se 32nd Ave,Milwaukie,OR,97222,503-659-2415
L & M Trucking,21435 Keyte Ln,Bend,OR,97701,541-389-8134
Godwin Trucking,318 Olney,Astoria,OR,97103,503-325-8636
Dakota Trucking,8906 N Hancock,Portland,OR,97220,503-252-9505
D&d Trucking,81575 West 7th,Irrigon,OR,97844,541-922-2484
Silver Eagle Express,9089 Hubbard Creek Road,Umpqua,OR,97486,541-459-8360
Poujade,7728 Se Lake Road,Milwaukie,OR,97267,719-440-6593
Dean Creswell Trucking,25620 River Rd,Willamina,OR,97396,503-876-4236
Robert Cate Trucking,39605 Coast Creek Rd,Willamina,OR,97396,503-876-3006
J F Macdonald Trucking,Po Box 1285,Philomath,OR,97370,541-867-3936
Triple J Trucking,37736 S Nowlens Bridge Rd,Molalla,OR,97038,503-829-9612
Gary Cochran Trucking,316 Se 14th Street,Troutdale,OR,97060,503-665-7448
Sun Shine Cattle Co,Cougar Mt Rd,Fort Rock,OR,97735,541-576-2673
Steven Stanger Trucking,897 North Way,North Bend,OR,97459,541-756-1148
Fat Boyz Express,851 Chemawa Rd,Keizer,OR,97303,503-393-0785
Haynes Trucking,9618 Se Foster,Portland,OR,97266,503-771-5216
Valley View Trucking,2676 Copeland Rd,Harper,OR,97906,541-358-2175
George Morin Trucking,1178 Se Pershing Apt B,Portland,OR,97202,503-232-3042
Miguel Leyva Trucking,728 W Jackson St,Medford,OR,97501,541-772-1553
Trimble Trucking,9112 Tenino Rd,Warm Springs,OR,97761,541-553-5211
Lloyd Leeth Trucking,2119 Echo Valley Rd,North Bend,OR,97459,541-267-3842
Gary Engle Trucking,Hcr 79 Box 122,Monument,OR,97864,541-934-2778
City Moving & Storage,62930 Boyd Acres Road,Bend,OR,97701,541-382-9078
G & N Trucking,2401 N E Sandy Blvd,Fairview,OR,97024,503-661-3604
Teton Trucking,20886 Sw Teton Ave,Tualatin,OR,97062,503-692-7936
Robert Silvis Trucking,21455 Sw Lois St,Beaverton,OR,97006,503-649-1069
Klamath River Trucking,11010 Springlake Road,Klamath Falls,OR,97603,541-884-3280
Luttrell's Trucking,14820 Nw Meadowlake Rd,Carlton,OR,97111,503-852-7954
Vern Garrett Trucking,32515 W Spearman Rd,Hermiston,OR,97838,541-564-1961
Dayton Transport,521 Ferry St,Dayton,OR,97114,503-864-2142
Jack L Dulley Trucking,26379 Pellham Hill Rd,Rainier,OR,97048,503-556-2206
Cascade Septic Tank Service,Po Box 305,Estacada,OR,97023,503-630-6659
Golden Road Express,2410 5th Avenue,West Linn,OR,97068,503-656-5876
Hurricane Trucking,18485 Se Pacific Drive #23,Tualatin,OR,97062,503-625-3828
Dump Truck Services,3402 Rawlins Ave Ne,Salem,OR,97303,503-510-8992
Tom Williams Trucking,7645 4th Street,White City,OR,97503,559-331-6930
Jr Construction & Trucking Company,15450 S Paradise Ln,Mulino,OR,97042,503-829-9525
Environmental Maintenance Service,4046 Andrew's Rd,Medford,OR,97501,541-773-5697
Steve Vick Trucking,38969 Stoller Rd,Scio,OR,97374,503-394-3701
Industrial Trucking,90939 Prairie Road,Eugene,OR,97402,541-344-0278
Dusty's Transportation,131 Napa St,Eagle Point,OR,97524,541-941-8646
Double Gg Transport,832 Fremont Ave,Eugene,OR,97404,541-689-2029
Bill Houghton Trucking,2622 Falcon #22,White City,OR,97503,541-826-7214
James L Crain Trucking,951 Nw 12th Street,Prineville,OR,97754,541-408-1481
R&k Bewley Trucking,11290 Sw Tonquin Lp Rd,Sherwood,OR,97140,503-692-6982
Rocky L Ius Trucking,17040 South East Bartell Rd,Boring,OR,97009,503-855-3370
Moon Creek,21015 Moon Creek Rd,Beaver,OR,97108,503-398-5445
Frank Brown Transport,15075 Nw Maller,Banks,OR,97106,503-324-1076
Hefty Trucking Co,3370 Bell Ave,Eugene,OR,97420,541-689-1790
North Valley Transport,334 Ne Josephine St,Grants Pass,OR,97526,541-474-2212
Robert E Lukens Trucking,230 Sunrise St,Midland,OR,97634,541-884-7133
Dawson Trucking,6619 Se 58th St,Portland,OR,97206,503-788-1257
Kindle Auto Transport,6154 Shaw Hwy,Aumsville,OR,97325,503-749-2318
Huck's Trucking,35477 S Firwood Ln,Molalla,OR,97038,503-829-6332
Cecil Payne & Barbara Payne Trucking,23166 Nw Kutch Rd,Yamhill,OR,97148,503-852-0172
C & L Transportation,8510 Monument Dr,Grants Pass,OR,97526,541-474-2133
M&l Trucking,5351 Se 89th Avenue,Portland,OR,97266,503-777-8449
E W Dunsworth Trucking,24095 Yamhill River Rd,Willamina,OR,97396,503-876-2066
L & H Express Brokerage,8000 Se Stark St,Portland,OR,97215,503-254-2681
White Horse Trucking,2519 Ne 205th Sp 19,Fairview,OR,97024,503-674-2339
Felkins Trucking,3362 Marrietta St Se,Salem,OR,97317,503-849-2617
Twin Trucking,24645 W Demming Rd,Elmira,OR,97437,541-935-6016
Joe Hiteshew Trucking,39841 Stayton Scio Rd,Scio,OR,97374,503-394-3564
Mitchell Auto Transport,190 Appaloosa Ln,Grants Pass,OR,97526,541-601-2780
Bill Gotchy Trucking,23295 Wood Village Court,Troutdale,OR,97060,503-665-4865
Terzo Transportation,18550 S Lyons Rd,Oregon City,OR,97045,503-631-8168
James Godfrey Trucking,56572 Baker Rd,Coquille,OR,97423,541-396-4624
Key Transportation,588 Parsons Drive,Medford,OR,97501,541-779-6769
Bob Macdonald Trucking,2619 Swyers Drive,Hood River,OR,97031,509-952-6629
Mark Beaslin Trucking,8052 Squirrel Hill Road,Salem,OR,97306,503-375-6160
Far East Transport,1212 Se Division St,Portland,OR,97214,503-234-7830
Wheels Go Trucking,7948 E Antelopoe Rd,Eagle Point,OR,97524,541-826-1084
Gainer Trucking,17379 Blue Heron Rd,Lake Oswego,OR,97034,503-682-0779
Lookout Trucking,325 S Seventh,Hammond,OR,97121,410-652-2321
Larame & Co Trucking,2540 Ne 122nd,Portland,OR,97230,503-252-9787
Christian Express,Dessert Spring #15,Boardman,OR,97818,541-481-3416
Kevin Hogan Trucking,Po Box 625,Silverton,OR,97381,503-932-2845
Michael Mobley Trucking,141 South 17th # 124,Independence,OR,97351,503-606-9319
Jon Laws Trucking,2318 Rabun Way,Central Point,OR,97502,541-840-1386
Portland East Trucking Company,11835 Sw Robbins Dr,Beaverton,OR,97008,503-524-9602
Lazy Y Salvage & Hulk Hauling,3217 Old Dufur Rd,The Dalles,OR,97058,541-980-2235
Graves Trucking,1150 Chocktoot St,Chiloquin,OR,97624,541-783-3850
J J Coronado Trucking,2669 Ne Jones Road,Bend,OR,97701,N/A
Cmh Construction Material & Hauling,19078 Caravatta Ct,Oregon City,OR,97045,503-650-6013
Ed Calkins Trucking,2114 Hollywood Drive,Salem,OR,97305,503-580-3995
Highway Transport,4150 Deer Creek Rd,Selma,OR,97538,800-693-4081
Rick's Transportation,1849 Medart Ln,Grants Pass,OR,97527,541-472-0135
J L Boyd Trucking,305 Old Wagon Rd,Coos Bay,OR,97420,541-269-7622
Anderson Trucking,89978 Hill Rd,Springfield,OR,97478,541-726-5929
Double S Trucking,2015 Huron St,Klamath Falls,OR,97601,541-882-0724
Hardly Able Trucking,612 East 8th St,The Dalles,OR,97058,541-506-1714
Paul Grimm Trucking,18333 Se Clinton,Gresham,OR,97030,503-674-5898
Pacific Parcel Express,281 Se Sue Ellen,Roseburg,OR,97470,800-900-9125
Diamond Transport,5552 Portland Rd Ne #6,Salem,OR,97305,503-393-2147
Golden Road Truckin',874 Mill Aly Apt 4,Eugene,OR,97401,541-933-2246
M T Wells Trucking,15758 Se Hwy 224 #115,Clackamas,OR,97015,503-658-5136
Advantage Lift Service,8747 Bly Mtn Cutoff,Bonanza,OR,97623,541-545-3200
Ace Earthmoving LLC,1100 N Schoolhouse Rd,Grants Pass,OR,97526,541-472-0628
George Gallino Trucking,8060 Rocky Rd,Tillamook,OR,97141,503-842-7762
Kenneth C Lindsay Trucking,410 E Aiken,Heppner,OR,97836,541-676-5475
H & H Specialty,10031 Se 70th Ave,Milwaukie,OR,97222,503-777-9163
Brad Bates Trucking,7075 Rickreall Rd,Independence,OR,97351,503-623-0151
Oregon Coast Distributing,1168 Se Marlin Ave,Warrenton,OR,97146,503-861-0796
Steve Hercher Trucking,16120 Hwy 101 S,Tillamook,OR,97141,503-872-6751
Ben Aberle Trucking,435 S 11th St,St Helens,OR,97051,503-397-0180
Mccracken Transportation,408 Se 11th,Pendleton,OR,97801,541-276-7772
Larry C Haworth Trucking,30849 Pisgah Home Rd,Scappoose,OR,97056,503-543-3478
Terry L Cramer Trucking,1102 Main Street,Paisley,OR,97636,541-943-3311
Edward Perry Trucking,3571 Arbor Ave,Eugene,OR,97402,541-302-9132
Dave Gibson Trucking,36391 Leslie Ln,Scio,OR,97374,541-928-9573
Chuck Litson Earthmoving,400 Moreland St,Drain,OR,97435,541-836-2740
Daniel Nulf Trucking,26260 Ferguson Rd,Junction City,OR,97448,541-998-8662
Lloyd Humbert's Septic Service,1560a S Main,Milton-freewater,OR,97862,541-938-3689
D & E Trucking,62961 Buchanan Ln,La Grande,OR,97850,541-963-0517
Bill Gulick Trucking Co,10380 Sw Homestead Lane,Beaverton,OR,97008,503-283-6421
Richard Burgett Sr Trucking,26335 Se 452nd,Sandy,OR,97055,503-668-5318
Brian Azich Trucking,2050 Ne Camas Ln,Madras,OR,97741,541-475-3669
Tri-pod Trucking,2302 Sw Bear Drive,Madras,OR,97741,541-546-2061
Alpine Construction,10075 S Prairie Rd,Tillamook,OR,97141,503-842-6980
J & K Trucking,889 Sw Cedar,Pilot Rock,OR,97868,541-443-6000
Bill Mullins Trucking,34322 Meyer Rd,Cottage Grove,OR,97424,541-942-7447
Roger Pearling Enterprises LLC,14455 Woodburn Monitor Rd. Ne.,Woodburn,OR,97071,503-980-3334
Dave Dodge Service,77799 Sunset Dr,Cottage Grove,OR,97424,541-942-4338
Ames Trucking,32274 Scappoose Veronia Hwy,Scappoose,OR,97056,503-543-7323
Antonio Carmona's Transportation Services,1454 Grizzle Ct Ne,Keizer,OR,97303,503-390-6987
Doug Mclain Trucking,245 N K Street,Lakeview,OR,97630,541-947-4474
Greg Lorenzo Trucking,1141 N Obenchain,Eagle Point,OR,97524,541-865-4300
Barry Schneider Asphalt Service,74626 Usage Ln,Irrigon,OR,97844,541-922-5419
Bci Transport,328 S Central,Medford,OR,97501,541-773-2260
Rick Turley Trucking,7127 Se Eola Hills Rd,Amity,OR,97101,503-835-7061
Ve Tire & Auto Center,2797 Roosevelt Blvd,Eugene,OR,97402,541-688-7037
Denny Edwards Trucking,4070 N W Hill Rd,Mcminnville,OR,97128,503-434-6329
R & J Trucking,2939 Orindale Rd,Klamath Falls,OR,97601,541-882-2730
Black Ram Transport,40155 S E Hwy 26,Sandy,OR,97055,503-668-0217
R & T Transportation,4954 D Street,Springfield,OR,97478,541-954-3363
Sean Alls Trucking,1610 S 8th Street,Cottage Grove,OR,97424,541-942-1548
L & J Hoefer Trucking,32104 Dever Conner Road,Albany,OR,97321,541-928-1771
Orca Delivery Service,579 Lit Way,Ashland,OR,97520,541-552-1435
D & B Mathis Trucking,105 Nw Lancer St,Lincoln City,OR,97367,541-764-3917
Bob Evans Trucking,275 - 3rd St,Gold Hill,OR,97525,541-944-2506
Gary Jones Trucking Dozer Service,15750 Lava Dr,La Pine,OR,97739,541-536-5975
John Barry Trucking,12 Newtown,Medford,OR,97501,541-772-6215
Wahl 3,95101 Langlois Mtn Rd,Langlois,OR,97450,541-348-2821
Country Auto & Recreation Sales,80828 N Beach Rd,Creswell,OR,97426,541-942-5354
M & S Trucking,77 Woods Rd,Central Point,OR,97502,541-664-8205
George D Heppner Backhoe Service,2200 Riley Road,Eagle Point,OR,97524,541-826-4369
John F Doherty Trucking,709 Sw 28th,Pendleton,OR,97801,541-276-6033
Darold T Alexander Truck Line,1567 Distinctive Ct,Salem,OR,97306,503-371-1147
Bender Trucking,4844 Lancaster Drive Ne # 135,Salem,OR,97305,503-390-7986
Fulk Trucking,308 Wallace,Rufus,OR,97050,541-739-2013
Michael T's Trucking,524 East E St,Rainier,OR,97048,503-556-1093
D Ide Trucking,5454 Upton Rd,Central Point,OR,97502,541-664-4989
Klamath Big Boy'z Trucking,4703 Cleveland Ave,Klamath Falls,OR,97601,541-884-6556
Glazebrook Trucking,970 N Harwood,Prineville,OR,97754,541-416-0759
Mckinley Trucking,3564 E 2nd Sp22,The Dalles,OR,97058,541-296-3476
G & T Transport,105 Woodbury Court,Central Point,OR,97502,541-664-0342
Treadway Trucking,5488 Sw Gem Lane,Culver,OR,97734,541-546-7149
Almost Angels Const - Johnson Trucking & Cascade Rock,26785 Fern Ridge Rd,Sweet Home,OR,97386,541-367-5547
Mark Ludwick Transportation,410 Naches Court,Umatilla,OR,97882,541-922-3023
Skellenger Transfer,7563 Ne 33rd Dr,Portland,OR,97211,503-656-4840
N D Trucking,Route 2 Box 137b,Irrigon,OR,97844,509-586-2194
L L Eppley Trucking,816 Nw Frontage Rd Ste D,Troutdale,OR,97060,503-674-8650
Pete's Backhoe Service,56157 Hathorn Rd,Coquille,OR,97423,541-396-3979
Gary Robinson Trucking,490 Galaxy Dr,Winston,OR,97496,541-679-6132
Ken England Jr Trucking,555 W Agee Apt 21,Roseburg,OR,97470,541-440-0895
Vehicle Transport Service,2021 E 12th #105,Florence,OR,97439,541-991-0174
De Boer Farms,611 Alberta Ave,Nyssa,OR,97913,541-372-5181
X Press Partial Services,227 S Main Street,Myrtle Creek,OR,97457,541-863-7598
Sam Bursell Trucking,Rt #1 Box 1944,Umatilla,OR,97882,541-922-5460
D N Trucking,2030 Ne 159th St,Portland,OR,97230,503-522-5546
Davo Trucking,454 E Gregory Rd,Central Point,OR,97502,541-535-8998
Gz Trucking,41410 Hwy 97,Chiloquin,OR,97624,N/A
B D A Transport,357 Orr Dr,Central Point,OR,97502,541-830-5510
Kng,901 Rebecca Dr,Phoenix,OR,97535,619-461-1018
Kevin Holt Trucking,2295 Cedar Street,Sweethome,OR,97386,N/A
Double Shot Auto Transport,1474 Juniper Ave,Coos Bay,OR,97420,541-267-2544
Randall C Rettke Trucking,415 Rail Road Ave,Brookings,OR,97415,541-469-5206
Quinn A Canavan Trucking,872 W Bellwood,Union,OR,97883,541-562-6099
Bolette Transportation,4567 S E Pennywood Drive,Milwaukie,OR,97222,503-654-7170
Beeson Distributing,2795 Anderson Ave #7,Klamath Falls,OR,97603,541-884-2531
Dean Oliver Trucking,42178 Cutoff Drive,Lebanon,OR,97355,541-258-6836
One To Win Horse Transportation,17237 S Bradley Road,Oregon City,OR,97045,503-631-3804
D & S Trucking,52606 Sunrise Blvd,Lapine,OR,97739,541-536-5680
Steven Wendt Trucking,780 S Shasta Ave,Eagle Point,OR,97524,541-826-5554
Jeff Reeves Trucking,688 N Way,North Bend,OR,97459,541-756-3212
Go Pher Trucking Express,12717 Ne Multnomah,Portland,OR,97230,503-358-7696
Terry Douglas Trucking,52914 Nw 5th Street,Scappoose,OR,97056,503-702-7162
Dale Haubach Auto Transport,61520 Admiral Way,Bend,OR,97702,541-318-3875
Lopez Transport,605 North 7th Street,Nyssa,OR,97913,541-372-5134
Shawn Harwood Trucking,2365 May Lane,Lebanon,OR,97355,541-451-3940
B & B Trucking,11124 Ne Halsey #456,Portland,OR,97220,503-803-8240
Dean J Varni Backhoe Service,1336 Hwy 227,Trail,OR,97541,541-878-4205
Mirage Transport,535 Tichenor,Clatskanie,OR,97016,503-728-2923
Galli Transport,18890 Sw Honeywood,Aloha,OR,97006,503-259-2188
Kalina Hauling,Rt 1 Box 585,Bandon,OR,97411,541-347-4267
Jr Madrigal Trucking,81650 Buell Lane,Umatilla,OR,97882,541-922-9548
Vern Konrad Trucking,81970 Chickaree Rd,Lowell,OR,97452,541-937-1053
K C Transportation,6624 S Cedar Dr,Prineville,OR,97754,541-447-3245
Bear Claw Express,146 North 14th,Elgin,OR,97827,541-437-0200
Eugene Fussell Trucking,16667 Ne Wasco St,Portland,OR,97230,503-252-6851
Bb & K Trucking,64326 Welch Road,Coos Bay,OR,97420,541-888-1718
Balen International Transport & Logistics,754 Nw Highland Dr,Waldport,OR,97394,541-563-6476
Mini Van Shuttle Services,17112 Se Powell Blvd #2-323,Portland,OR,97236,503-674-7838
Pattison Dump Trucks,4115 Se Jackson,Milwaukie,OR,97222,503-659-0010
Don Morris Trucking,67898 Meissner Road,Deer Island,OR,97054,503-397-2447
Dave Stone Trucking,722 N Columbia Blvd,Portland,OR,97217,503-735-0540
Mark Jensen Trucking,1749 Sw 15th,Redmond,OR,97756,541-546-6492
Charles R Delsman Trucking,15625 Guthrie Rd,Dallas,OR,97338,503-623-9363
Marron Livestock Transportation,10560 Williamson Rd,Chiloquin,OR,97624,N/A
Y Question Jannuzzi Trucking,32472 S Mathias Rd,Molalla,OR,97038,503-829-4759
Hainz Trucking,29545 Speasl Rd,Lebanon,OR,97355,541-259-3514
Hti,325 Lincoln St,Columbia City,OR,97018,503-397-1088
Get Trucking,24250 Sw Yewwood Ln,Hillsboro,OR,97123,503-349-8346
Orejuela & Sons Transportation,124 Rolling Hills Rd,Roseburg,OR,97470,541-679-3815
J B Transport,9654 Parakeet Dr,Bonanza,OR,97623,541-941-0354
I H S Becker Trucking,212-2 2nd East,Rainier,OR,97048,303-209-4106
Harold's Backhoe Service,3984 Foothills Road,Medford,OR,97504,541-773-4810
Sed Trucking,923 Se Bay Boulevard #204,Newport,OR,97365,541-574-9235
Greg Van Loo Trucking,352 Louisiana Ave,Vernonia,OR,97064,503-429-4531
Tarala Transfer & Co,38954 Proctor Blvd #345,Sandy,OR,97055,503-668-1982
Dale Alton Trucking,316 E Dearborn St,Union,OR,97883,541-562-1113
Jereme & Sharon Langerman Trucking,303 Rosewell St,Lostine,OR,97857,541-869-5187
Jerrys Farm & Ranch Service,39412 Santiam Bluff Rd Ne,Albany,OR,97321,541-967-0161
Gilmore Trucking,18570 Sw Brookman,Sherwood,OR,97140,503-925-1914
Glenwood Foreign Auto Parts,4530 Franklin Blvd,Eugene,OR,97403,541-747-7492
Rosa Garza Trucking,1499 Arata Way,Ontario,OR,97914,541-881-1694
Black Top Trucking,2232 Se 179th,Portland,OR,97233,503-735-0540
Streeter Dairy Farm,21495 Sandlake Road,Cloverdale,OR,97112,503-965-6529
Hoffman Trucking Co,22435 S Saling Rd,Estacada,OR,97023,503-630-3672
Perez Trucking,674 Nw 4th St,Ontario,OR,97914,541-889-4233
S & J Trucking,10649 Ne 13 Ave-s-65,Portland,OR,97211,503-247-7192
Hughes Transportation,2001 Table Rock Rd #58,Medford,OR,97501,541-608-9869
Express Transport,215 Ne 184th Pl,Gresham,OR,97230,503-667-4513
D B Rose Trucking,200 Straughn #16,Gold Beach,OR,97444,542-247-4055
C 2 C Transport,80486 Sagebrush Road,Hermiston,OR,97838,541-567-8903
Armac Trucking,450 Jefferson Ave #1,Vernonia,OR,97064,503-429-0520
C & W Transportation,45 Se 73rd Ave #e,Portland,OR,97132,503-252-9868
Ted's Trucking,6479 Hwy 238,Jacksonville,OR,97530,541-899-1558
Z E Transco,16031 Se Stark #38,Portland,OR,97233,503-317-3095
Fat Alice Transport,3664 31 St Ave Ne,Salem,OR,97301,503-507-6906
R C Easly Transportation Services,819 Charman St,Oregon City,OR,97045,503-650-0743
D & G Express,5355 Harlan Dr,Klamath,OR,97603,530-397-5192
D An R Trucking,18865 Lafayette,Oregon City,OR,97045,503-656-2597
R N Stewart Trucking,1261 L St,Springfield,OR,97477,541-741-8774
Itl Transport,2370 Meadow Ln,Woodburn,OR,97071,503-949-9441
Robin V Hansen Trucking,52190 Se 6th St,Scappoose,OR,97056,503-286-5246
Erickson Transport,2121 Ostman Road,West Linn,OR,97068,503-655-7796
Shameless Transportation,48475 E 1st Street ,Oakridge,OR,97463,541-782-2521
Dick Kriege Trucking,69836 Camp Polk Rd,Sisters,OR,97759,541-549-5303
Longhorn Trucking,25843 Foster Rd,Monroe,OR,97456,541-424-2290
Odell Trucking,441 Box 2770,Coquille,OR,97423,541-347-5004
Blue Rivers Transportation,304 Adams #1,La Grande,OR,97850,541-975-2080
K D E Transporation,235 Myers St S,Salem,OR,97302,503-371-3033
Steve Macpherson Trucking,84993 Hwy 339,Milton-freewater,OR,97862,541-938-6210
Dennis R Laird Trucking,9633 N Berkley,Portland,OR,97203,503-784-4604
R & J Hauling & R & J Bark,925 Barnes Ave Se,Salem,OR,97302,503-871-2659
C J Babb & Sons Trucking,7582 Sw Hunziker St #21,Tigard,OR,97223,503-443-2394
Jack Nielsen's Commercial & Fleet Repair,447 Gordon,Klamath Falls,OR,97603,541-885-9680
Cullett Too Construction & John Cullett Trucking,354 W 6th,Riddle,OR,97469,541-874-2747
West Wind Trucking,5153 Peterson St Se,Salem,OR,97306,N/A
T C Transport,854 Nw 2nd St,Sutherlin,OR,97479,541-210-3661
Goodnight Transport Services,56666 Old Portland Rd,Warren,OR,97053,520-466-5278
Double C Transport,8301 14th St,White City,OR,97503,541-944-1768
Cml Transportation,79511 Walker Rd,Hermiston,OR,97838,208-250-4125
Tc Logistics,3600 Commercial St,Springfield,OR,97478,541-726-1105
Voight Trucking,3514 S Coast Hwy,South Beach,OR,97391,541-867-6405
High Desert Trucking,719 W Wharton St,Roseburg,OR,97470,541-621-1744
M Bar W Trucking,27150 S Pelican Ct,Canby,OR,97013,503-263-3990
Cascade Mountain Distributors,3935 Crowflat Rd,Hines,OR,97738,503-819-2609
Extreme Transport,4614 Sw Kelly St,Portland,OR,97202,503-222-9299
William Dougherty Logging,Po Box 545,Wallowa,OR,97885,541-886-3845
Pihl Farms,15648 Sw Hwy 126,Powell Butte,OR,97753,541-480-2200
Warner Trucking,81786 Linville Lane,Umatilla,OR,97882,541-922-6227
R L C Transport,22450 Lindberg,Clatskanie,OR,97016,503-728-1413
Uniservice Corp,6524 N Albina St,Portland,OR,97217,503-283-1980
S B Taylor Trucking,1578 Ne 19th,Gresham,OR,97030,N/A
Ira's Sales & Service,181 Sw Merritt,Madras,OR,97741,541-475-3861
Tri-west Transportation Co,33693 Mcfarland,Tangent,OR,97389,541-967-9747
Stephen D Gift Trucking,54439 Dalgren Rd,Scappoose,OR,97056,503-543-7830
George Findley Trucking,101801 Hwy 97n,Chemult,OR,97731,541-365-2402
"Luisi Truck Lines, Inc.",New Walla Walla Hwy 11,Milton Freewater,OR,97862,541-938-6606
Ampac Trans,6133 S Fork Little Butlecek Rd,Eagle Point,OR,97524,541-830-3334
Frampton Trucking,183 Azalea Dr Cutoff,Grants Pass,OR,97526,541-291-0582
Gra-wal Trucking Co,725 Lebanite Dr,Lebanon,OR,97355,503-258-8687
Mcgee Trucking,28979 Se Dale Ln,Eagle Creek,OR,97022,503-637-3475
Ankeny Trucking Co,6410 Se Pine Street,Portland,OR,97215,503-232-5859
Jerome Gehring Trucking,12165 Kaufman Rd Ne,Silverton,OR,97381,503-873-5287
Jim Dodge Trucking,490 S 3rd,St Helens,OR,97051,503-397-0523
George Barbee Trucking,3121 Crosby,Klamath Falls,OR,97603,503-884-7332
Wesco Trucking,Rr 2 Box 423f,Irrigon,OR,97844,503-567-9316
Willamette Egg Farms,31348 S Highway 170,Canby,OR,97013,503-651-0000
Karl Meier Trucking,7970 River Road N,Salem,OR,97303,503-390-4073
Canyon Country Wholesale,2318 Leonard Rd,Grants Pass,OR,97527,541-476-1369
Richard Loghry Trucking,6337 Donaldson Road,Grants Pass,OR,97526,541-474-6087
"Kobow Trucking, Inc.",335 Highway 97 Sp W-4,The Dalles,OR,97058,503-296-4727
Gary & Rustin Johnson Trucking,5325 Sw Badger Crr,Terrebonne,OR,97760,541-548-0799
M & W Auto Hauling,29770 Se Hwy 212,Boring,OR,97009,503-816-8323
William Z Davis Trucking,14701 Ne Yamhill Rd Pob 505,Yamhill,OR,97148,503-662-3949
Courtesy Trucking,3641 N W St Helens Rd,Portland,OR,97208,503-223-7514
David J Hermans Trucking,520 Crowfoot Rd,Lebanon,OR,97355,541-451-4153
Kenneth Mann Trucking,15107 Nw Parson Rd,Forest Grove,OR,97116,503-357-0365
Kate Boyer Trucking,24600 Se Keegan Rd,Eagle Creek,OR,97022,503-637-3660
Gotta-go Trucking,1375 Crestview Rd,Prineville,OR,97754,503-447-8611
Poole Oil,87 Se 7th Ave,Ontario,OR,97914,541-889-3128
Jim Mckenzie Trucking,5752 Table Rock Rd,Central Point,OR,97502,541-665-8348
E Sitton Trucking,2211 Whistlers Park Road,Roseburg,OR,97470,503-673-0510
Hanks Livestock Transportation,115 Ne 1st Street,Ontario,OR,97914,208-867-8656
Line Haul Trucking Co,1365 N Front St,Woodburn,OR,97071,503-281-7792
Cascade Intermountain Express,30272 Victory Dr,Junction City,OR,97448,541-688-2522
Wiemeyer Transportation,4249 Ne Shaver,Portland,OR,97213,N/A
H & D Blomquist Trucking,950 N Bay Drive,North Bend,OR,97459,N/A
R & M Trucking,1574 Coburg Rd #140,Eugene,OR,97401,503-342-8187
Double A Trucking,25200 Sw Parkway 200,Wilsonville,OR,97070,503-655-3833
J & J Clark Trucking,20575 New Bedford Circle,Bend,OR,97702,503-382-4236
B Montgomery & Sons Trucking,16747 Ponderosa Lane,Keno,OR,97627,541-884-8695
Mckinley Service Company,655 Gaither St,Siletz,OR,97380,541-444-2767
M G Main Trucking,82970 N Dale Kuni Rd,Creswell,OR,97426,541-895-5199
Gary Wismer,9755 Chance Road,Tillamook,OR,97141,503-842-6878
Jack L Bennett Trucking,16201 Se Fairview,Dayton,OR,97114,503-868-7343
Nickel Plate Express,460 North Danebo Avenue Suite 200,Eugene,OR,97402,541-284-7653
J Wetzel Transport,13264 Se Oatfield Rd,Milwaukie,OR,97222,503-653-2329
Mike Kopp Trucking,8330 Wheatland Rd N,Keizer,OR,97303,503-390-2515
Gary Uhl Trucking,67794 Hunter Road,Summerville,OR,97876,541-534-9026
Pioneer Oil,9270 Ne Glisan St,Portland,OR,97220,503-281-2828
C P H Transport,Po Box 1295,Springfield,OR,97477,541-747-1758
R C Terry Trucking,877 Ne Barnes Road,Prineville,OR,97754,541-447-7056
Donald F Packer Trucking,3280 Bone Dr,Hood River,OR,97031,541-354-1494
Crystal Ship,6804 Agate Rd,White City,OR,97503,541-830-4131
Camco Trucking,Cabin Lake Rd,Fort Rock,OR,97735,N/A
James E Jensen Trucking,613 Sw 9th St #3,Redmond,OR,97756,503-548-3672
H & P Trucking Co,6525 S E Hemlock,Milwaukie,OR,97222,503-659-6383
R & S Transportation,111 Leach Dr,Midland,OR,97634,541-891-9388
James R Johnson Trucking,141 Rolling Hills Dr,Roseburg,OR,97470,541-679-4185
Coastal Container Services,9414 Ne Vancouver Way,Portland,OR,97211,503-283-5381
R J Behrendt Trucking,16005 S Holcomb,Oregon City,OR,97045,503-653-2789
Dohner Trucking,3715 Se 40th,Portland,OR,97202,N/A
Evins Trucking,Hcr 77 Box 251,John Day,OR,97845,541-820-3758
L&i Bain Trucking,3983 Hwy 234,White City,OR,97503,503-826-7266
Abc Trucking,11305 Marx Place,Portland,OR,97230,503-252-0397
Rod Schooler Trucking,15414 Keno Worden Rd,Klamath Falls,OR,97603,541-882-0587
Renegade Trucking,405 Se 154th,Portland,OR,97236,N/A
John Hammell Trucking,Rt 1 Box 1318,Hermiston,OR,97838,541-567-0910
R & Me Trucking,38147 Gilkey Rd,Scio,OR,97374,N/A
J & C Trucking,2434 Crooked Finger Rd,Scotts Mills,OR,97375,503-873-8920
J M Trucking,4557 Pheasant Cr Rd,Rogue River,OR,97537,503-582-2221
Gus Line Trucking Co,20291 S E Tillstrom Rd,Boring,OR,97009,N/A
Tagg Motor Freight,8805 Big Pine Way,Klamath Falls,OR,97601,503-882-9172
Bruce Butler Trucking,Po Box 177,Powers,OR,97466,N/A
Sierra Farms Trucking,Rte 4 Po Box 326,Cornelius,OR,97113,N/A
H & H Transport,511 Woodruff,Coos Bay,OR,97420,N/A
David Dechenne Trucking,880 Evanston,Elgin,OR,97827,541-437-4582
Bob Rooke Trucking,Hc 52 Box 298,Coos Bay,OR,97420,N/A
D & S Trucking,330 N Grant,Merrill,OR,97633,541-798-5487
L & C Trucking,705 S Columbia,Newberg,OR,97132,N/A
"R K Storage & Warehousing, Inc.",10937 Nw Front Avenue,Portland,OR,97231,503-283-6042
Mitre Trucking,15210 Southview Glen,Oregon City,OR,97045,503-650-1939
Rexius Trucking,2295 N Pacific Hwy,Medford,OR,97501,541-773-4240
Earl Miller Trucking,29219 Speasl Rd,Lebanon,OR,97355,503-258-6892
Peterson Trucking,30200 S Oswalt,Colton,OR,97017,N/A
Eskelsen Trucking,3055 Oak,Hubbard,OR,97032,N/A
Showcase Rental,1404 Nw Overton,Portland,OR,97209,503-227-6046
Overland Equine Express,19449 Tumalo Reservoir Rd,Bend,OR,97701,N/A
L & M Trucking,Rt 2 Box 2553,Hermiston,OR,97838,503-567-1101
Jerry Mitchell Trucking,50765 Fremont Hwy,Lapine,OR,97739,N/A
Griggs Trucking,713 Linn Road,Eagle Point,OR,97524,N/A
George C Marshall Trucking,1251 Richardson Rd,Myrtle Creek,OR,97457,541-863-7977
Charles R Stewart Trucking,14205 Sw Jenkin Road Sp 12,Beaverton,OR,97005,N/A
Marvin Lane Trucking,1950 Turner Road Se,Salem,OR,97303,N/A
Manary Trucking,5805 Se Lambert,Portland,OR,97206,N/A
Trinity Transport,Po Box 574,Cottage Grove,OR,97424,N/A
Jim Larson Trucking,8205 N Congress Ave,Portland,OR,97217,N/A
Dave Segall Trucking,8367 S Hwy 97,Redmond,OR,97756,503-548-6155
Gerald Puett Trucking,301 Se Fir Villa Rd,Dallas,OR,97338,636-462-4524
J W Trucking,Po 508,Brownsville,OR,97327,N/A
Top Dog Transport,1617 N Jessup St,Portland,OR,97217,503-285-2165
Polar Equipment & Transportation,Rt 3 P O 3651,Hermiston,OR,97838,N/A
Nick's Crane Service,20545 Builders St,Bend,OR,97701,541-382-1840
John E Adams Trucking,44041 1/2 Se Coalman Rd,Sandy,OR,97055,503-668-3672
Blankenship Transport,1555 E 27th,Mcminnville,OR,97128,503-472-1739
Country Comfort Wholesale Trucking,1004 Pleasant Valley Rd,Merlin,OR,97532,541-479-0446
Danco Express,1002 Sweetbriar Lane,Troutdale,OR,97060,503-666-0823
Emerald Transport,32503 S West Rd,Cottage Grove,OR,97424,N/A
Woodburn Trucking,1365 N Front Street,Woodburn,OR,97071,503-981-5661
L Harwood Trucking,30143 Montmorence,Junction City,OR,97448,541-688-5336
C L K Trucking,3025 Nw Hemlock,Redmond,OR,97756,503-548-2558
Gene C Copher Trucking,42705 Oral Hull Rd,Sandy,OR,97055,503-668-4798
Vic & Elaine Trucking,3425 Oak Knoll Rd,Salem,OR,97304,N/A
West Coast Transport,3491 Earl Avenue,Albany,OR,97321,541-928-9146
J C Aird Trucking,55625 Sw Scoggins Valley Rd,Gaston,OR,97119,503-985-3315
Zane Kelly Trucking,5595 Witzel Rd Se,Salem,OR,97301,N/A
Hastings Transport,415 N Frontage Rd,Wolf Creek,OR,97526,503-866-2507
Lengele Trucking,1051 Ne 11th St,Redmond,OR,97756,541-923-8321
Shannon Contract Carrier,340 Trollview Road,Grants Pass,OR,97527,N/A
Oregon Paper Fiber,12820 Ne Marx,Portland,OR,97230,503-257-1331
J Linder Trucking,P O Box 41,Ontario,OR,97914,503-372-2813
Wayne Chappell Trucking,34136 Bachelor Flat Rd,Warren,OR,97053,503-397-6415
L P Trucking,General Delivery,Cottage Grove,OR,97424,N/A
Prairie Pacifictrans,12164 Ehlen Rd Ave,Beaverton,OR,97005,N/A
T & Z Trucking,25811 Old Holley Rd,Sweet Home,OR,97386,N/A
Lunsford Wholesale & Supply,2655 E Evans Creek Rd,Rogue River,OR,97537,541-582-2770
M & R Trucking,16016 Se Division #25,Portland,OR,97236,N/A
Ronald Transport,405 Ross St,Medford,OR,97501,N/A
Kingston Transport,41630 Kingston,Stayton,OR,97383,N/A
M C Blair Trucking,615 John Street,Mount Angel,OR,97362,N/A
Central Truck Service,16364 Twin Dr,La Pine,OR,97739,503-536-5029
C W Roberts Trucking,5430 Val View Dr,Turner,OR,97392,503-743-2313
Ponderoza Transport Company,31330 S Grim Rd,Molalla,OR,97038,N/A
Jim L Scharbrough Trucking,2862 Shoestring Rd,Riddle,OR,97469,541-874-2794
Bartron Trucking,1220 Park Ave,Nyssa,OR,97913,503-372-3045
Shw Transportation,2010 Stringer Gap Rd,Grants Pass,OR,97527,N/A
American Veterans Express,18176 Pacific Court Ne,Portland,OR,97201,N/A
L D Kelley Contract Hauling,65473 Olson Rd,Deer Island,OR,97054,N/A
Crest Interstate Trucking Co,965 Wards Ck Rd,Rogue River,OR,97537,541-582-4131
D & D Jenson Trucking,311 N W Warrenton Dr,Warrenton,OR,97146,N/A
D Carters Trucking,421 Hermanson St,Woodburn,OR,97071,N/A
Rb's Distributing,10203 S D St,Island City,OR,97850,503-963-5890
Terry Bauer Trucking,548 No 53rd Place,Springfield,OR,97478,503-747-5929
Goulet Wholesale Auto Center,Hwy 11 1323 N Main,Milton Freewater,OR,97862,N/A
Wendel L Cooper Trucking,2700 C Street,Springfield,OR,97477,N/A
David L Cooper Trucking,234 S 35th St,Springfield,OR,97478,541-726-4225
Eagle Transport,10308 N Vancouver Way #264,Portland,OR,97217,N/A
Stage West Trucking,Rt 1 Box 1 Elkins Road,Terrebonne,OR,97660,N/A
Ed Rich Trucking,2640 Se 190th,Gresham,OR,97030,503-665-2882
"C B & Company Transportation, Inc.",41612 W Boundry Rd,Lowell,OR,97452,N/A
S & S Trucking,3512 2nd Ave,Coos Bay,OR,97420,503-269-7032
Tom Wood Trucking,4952 Parson Ave,Eugene,OR,97402,503-689-3132
Jackson & Jackson Trucking,6155 Lutzinger Creek Rd,Scottsburg,OR,97473,N/A
Little Beaver Transportation,Po Box 935,Wilsonville,OR,97070,503-682-4003
D Helzer Trucking,240 N E 10th St,Hermiston,OR,97838,541-567-7475
D & L Trucking,2171 1/2 Edna St,Klamath Falls,OR,97603,503-882-5258
Bob Scholz Trucking,7485 5th Street,Turner,OR,97392,N/A
Warren Crane Trking,3710 17th Street,Baker City,OR,97814,541-523-2116
Links Logistics,650 Hope St,Vale,OR,97918,970-255-8100
Metallion Trucking,29091 Se Hwy 212,Boring,OR,97009,503-663-2501
Wicked Way Trucking,5990 New Hope Rd,Grants Pass,OR,97527,503-474-2473
Floyd L Crisenberry Trucking,10308 N Vancouver Way #254,Portland,OR,97217,N/A
Ron Wilkinson Trucking,77080 Circling Hawk Ln,Cottage Grove,OR,97424,541-942-4632
Production Services Nw,P O Box 4042,Portland,OR,97208,503-223-7428
Halvin Larson Trucking,Po Box 153,Seaside,OR,97138,N/A
Hart To Hart Trucking,Rt 2 Box 2298,Bandon,OR,97411,N/A
Pilot Air Freight,13110 Ne Airport Way #1,Portland,OR,97230,503-257-3103
King Air Transportation,820 S Front St,Central Point,OR,97502,503-779-8058
Bud Gibson Trucking,1232 E Elm St,Vernonia,OR,97064,503-429-0942
W B Trucking,57738 Bates Rd,Condon,OR,97823,541-384-6588
Jim D Cummings Sr Trucking,22405 Bents Rd Ne,Aurora,OR,97002,503-320-8515
C Pederson Enterprises,76436 River Rd,Oakridge,OR,97463,541-782-2210
R & J Trucking,1017 First Ave,Vernonia,OR,97604,503-429-2007
His Trucking,9450 Sw Commerce Cir Ste 170,Lake Oswego,OR,97070,503-635-6356
Bill Hodo Trucking,8590 Se Hillcrest Dr,Amity,OR,97101,N/A
Hankins Trucking,10308 N Vancouver Way No 224,Portland,OR,97217,N/A
Lemons Trucking,Rt 1 Box 1584,Hermiston,OR,97838,541-567-1074
T & L Trucking,10150 Nw Oak Lane,Redmond,OR,97756,541-548-1058
Dale Frederick Trucking,213 2nd Ave,Madras,OR,97741,N/A
Brad Jones Trucking,Hc 84 Box 10110,Broadbent,OR,97414,541-572-8802
Ken Lee Trucking,1123 S 12th,Cornelius,OR,97113,503-648-7585
Robert F Miller Trucking,1475 W 26th St,Eugene,OR,97405,N/A
James Gedenberg Log Trucking,784 Niagara,Astoria,OR,97103,503-325-3690
B Smither Trucking,8964 N Portsmouth Ave,Portland,OR,97203,N/A
Indian Hill Construction,200 Corporate Way,Grants Pass,OR,97526,541-476-7525
Glenn Bradley Truckiing,310 Malheur Ct,Boardman,OR,97818,541-481-1222
Dennis Krieger Trucking,64963 Green Rd,Deer Island,OR,97054,503-397-0168
Andrej Raichl Trucking,Elsie Rt Box 748,Seaside,OR,97138,503-755-2470
Dan-l Trucking,2470 Myrtle Rd,Myrtle Creek,OR,97457,N/A
Tim Morgan Car Hauling,1855 South A St,Springfield,OR,97477,N/A
Robin M Turner Trucking,2894 Brookdale Avenue,Central Point,OR,97502,541-601-7401
Aaron Masters Trucking,22400 Willamina Creek Rd,Willamina,OR,97396,N/A
Stephen Heuberger Trucking,21295 Ferry Rd Se,Stayton,OR,97383,503-859-3138
Honey Do Trucking,2145 N 31st Street Space #67,Springfield,OR,97477,503-741-5942
Columbia Cross Farm & Trucking,Rt 1 Box 412,Astoria,OR,97103,503-325-8470
Anderson Trucking,Rt 5 Box 161,Mt Vernon,OR,97965,541-519-7161
Red Line Express,35292 Spicer Dr,Lebanon,OR,97355,541-926-8755
Tony Shafer Trucking,1346 Beech St,Cornelius,OR,97113,503-357-0453
G K Bowers Trucking,1533 Larkspur Ave,Eugene,OR,97401,N/A
Pops & Son's Trucking,4 Cherrywood Lane,Sunriver,OR,97707,N/A
Simmons Trucking,2035 Hillaire Dr,Hillsboro,OR,97124,503-693-9684
Big Burro Transport,100050 Ne Wygant,Portland,OR,97220,N/A
Al Leischner Trucking,29440 Sw Teton Way,Wilsonville,OR,97070,503-682-3360
Bunnell Transport,37601 Hwy 58,Dexter,OR,97431,541-744-9206
C D Stewart Trucking,2420 Benson Lane,Eugene,OR,97401,503-485-4349
Troy Basel Trucking,Rt 1 Box 615,Astoria,OR,97103,503-325-4433
Leon Mccord Trucking,843 W Rainbow St,Roseburg,OR,97471,541-912-7087
M & J Nyman Transport,31743 Mcloughlin Dr,Philomath,OR,97370,541-929-6857
Rey Reece Truck & Equipment,P O Box 16100,Portland,OR,97216,503-256-3700
Nick Cardoza Trucking,1800 N 4th St #40,Lakeview,OR,97630,541-947-3196
Big Dipper Transport,18170 N Hwy 99 W,Dayton,OR,97114,503-864-3509
G F Trucking,616117 Oneil Hwy,Prineville,OR,97756,N/A
Pringle Trucking,9233 N Calvert Ave,Portland,OR,97217,503-283-4409
C & M Auto Transport,37760 Se Ponder Lane,Sandy,OR,97055,503-665-2314
R L A Transportation,520 Pawnee,Prineville,OR,97754,N/A
D L White Trucking,3267 Logsden Rd,Logsden,OR,97357,503-678-1449
Jim Nielsen Trucking,3225 & 1/2 Butte Street,Klamath Falls,OR,97601,541-882-4877
Dj Express,4212 State St,Salem,OR,97301,N/A
Mjp Trucking Company,4973 Cone Ave,Eugene,OR,97402,503-689-7143
Garry Allen Logging,60549 West Hwy 26,John Day,OR,97845,541-575-0147
Mickey Spillane Trucking,8080 Matney Way,Klamath Falls,OR,97603,541-798-1634
Mel-mak Trucking,1166 Wabash Ave,Medford,OR,97504,541-734-5846
T & R Trucking,2389 Delta Waters Rd,Medford,OR,97504,503-770-1140
R A K Trucking,3612 Se 118th Ave,Portland,OR,97266,503-760-1662
Cynthia Sovereign Trucking,2571 Southport Way,Medford,OR,97504,503-772-7156
Robertson Trucking,2571 Southport Way,Medford,OR,97504,503-779-6137
A & G Haigh Transportation,4946 Tingley Lane,Klamath Falls,OR,97603,541-882-3391
James Transport,2280 Hull Road,Medford,OR,97501,541-858-2849
J L Wise Trucking,3726 Falcon St,White City,OR,97503,503-826-2187
H & L Trucking,29510 Sw Valley St #77,Wilsonville,OR,97070,503-682-6970
Frank & Shirley's Trucking,2138 Crystal Dr,Mcminnville,OR,97128,N/A
Jack A Jacobs Trucking,61132 Protsman St,Bly,OR,97622,541-353-2362
B & B Transport,229 Chaparral Drive,Grants Pass,OR,97526,541-479-4331
Roger D Elliott Trucking,687 Branson,Willamina,OR,97396,N/A
Kelder Trucking,3815 Nw 1st St,Gresham,OR,97030,503-665-7686
A M Express,511 North 1st,Silverton,OR,97530,N/A
C & C Trucking,3330 Old Hwy 99 So,Ashland,OR,97520,503-482-2614
Pond's Trucking,9000 Ne Mlk Blvd Sp #4,Portland,OR,97211,503-289-6337
Lenny Frost Transport,2288 Se Hale Dr,Gresham,OR,97080,503-667-1952
J J & L Trucking,1555 5th St Ne,Salem,OR,97303,N/A
K & R Rv Transport,820 Est Vilas Rd,Central Point,OR,97502,541-857-1160
K & D Trucking,251 Monterico Rd,Grants Pass,OR,97526,N/A
Columbia Truck Express Corp,9545 Se 76th Ave,Milwaukie,OR,97222,503-771-7518
Sandy Mclaughlin Trucking,5885 Beagle Rd,White City,OR,97503,503-826-5689
Ken Johnson Log Trucking,81260 Lower Nehalem Rd,Seaside,OR,97138,503-755-2563
"Cxc Trucking, Inc.",3615 Sw Pacific Blvd,Albany,OR,97321,503-928-0384
G & S Trucking,61316 S Hwy 97,Bend,OR,97702,503-382-7100
C & J Auto Transport,423 North 55th,Springfield,OR,97478,541-744-1912
Broad Power Trucking,770 Sunny Valley Loop,Sunny Valley,OR,97497,N/A
Coast Fork Transport,73000 London Rd,Cottage Grove,OR,97424,541-942-1295
J & N Trucking,201 Ne Garfield,Enterprise,OR,97828,N/A
Kens High Desert Transit,16565 Reed Rd,La Pine,OR,97739,541-385-5930
Robert Chard Trucking,14720 Sw Bonnie Brae St,Beaverton,OR,97007,503-526-0487
K L Peck Trucking,4130 Ne 79th,Portland,OR,97218,503-282-5843
Pacific Trucking,1820 W Harbeck Rd # P,Grants Pass,OR,97527,N/A
"Fast Track Freight Co, Inc.",15345 Se 82nd Dr,Clackamas,OR,97015,N/A
Noble Trucking,11579 South Eby Rd,Canby,OR,97013,N/A
Drollinger Trucking,61550 Alstrup Rd,Bend,OR,97702,N/A
Double M Trucking,4200 Highland Ave,Grants Pass,OR,97526,N/A
Sunset West Enterprises Trucking,25920 Alfalfa Market Rd,Bend,OR,97701,503-389-5573
E C Brouillette Trucking,45051 Mckenzie Hwy,Vida,OR,97488,N/A
West Coast Trailer Toteing,12100 Winston Rd,Boring,OR,97009,503-658-7829
Harman Transportation,583 N Cedar St,Canby,OR,97013,N/A
Ken Gilder Trucking,61502 Admiral,Bend,OR,97702,N/A
Dave Long Trucking,4644 S Rd F,Vale,OR,97918,541-473-2195
K G Trucking,9249 Old Hwy 995,Dillard,OR,97496,503-679-3454
Odin Corporation,1686 N Coast Hwy,Newport,OR,97365,503-265-8951
B G Freight Servic E,4555 Wildwood Street,Lake Oswego,OR,97035,503-636-5252
Mike Newman Trucking,647 Vineyard Lane,Roseburg,OR,97470,541-673-1383
Elkhorn Express,21104 Ferry Rd Se,Mehama,OR,97384,N/A
Buz Howard Trucking,450 Ayers St,Eagle Point,OR,97524,541-826-9064
"Bridge Transfer, Inc.",2025 Sw Sunset Blvd,Portland,OR,97201,N/A
Eden Springwater Cooper Trucking Co,10 Crater Lake Ave #8,Medford,OR,97504,N/A
Thom Reimer Trucking,3724 Mahrt St Se,Salem,OR,97301,N/A
Pacific Heavy Haul,2041 Dawn Drive,Grants Pass,OR,97527,503-471-6138
G & G Transport,196 White Fir Dr,Grants Pass,OR,97526,N/A
Perkel Auto Transport,2228 Sw Brink Ave,Troutdale,OR,97060,503-666-4620
Moen Trucking,450 East 1st St,Canyonville,OR,97417,N/A
Five Bar Transportation,238 Kaehn Rd,Crescent,OR,97733,541-433-2155
Luisi Transportation Service,11103 Ne Marx St,Portland,OR,97220,503-252-0348
R & P Trucking,406 South 5th St,Nyssa,OR,97913,N/A
Joe Cotton Trucking,237 Stadden St,Coos Bay,OR,97420,541-267-2777
C & C Transport,97 Oak,La Grande,OR,97850,N/A
Bob Smith Trucking,315 Mark Place,Coquille,OR,97423,N/A
Ontario Auto Brokers,1723 Sw 4th Ave,Ontorio,OR,97914,503-881-1617
Fuhr Piano Restoration & Trucking,558 Baxter Rd,Eugene,OR,97402,N/A
Don Pallin Trucking,82415 Butte Rd,Creswell,OR,97426,541-895-5034
Sierra Coast Trucking,5555 N Channel Ave Bldg 2,Portland,OR,97217,503-240-3417
Pecos Craig Trucking,2310 E L Ave,La Grande,OR,97850,541-663-0106
Scott Mcdonald Trucking,2533 Neawanna,Seaside,OR,97138,503-738-5142
"Rsz, Inc.",316 Nw 12th,Portland,OR,97209,503-227-6605
B & S Truck,482 4th Sw,Canyonville,OR,97417,541-839-6435
Szarkowski Trucking,351 West 5th St,Coquille,OR,97423,503-396-4963
Bob Kelly Trucking,606 Applegate St,Yoncalla,OR,97499,541-849-2850
Don V Smith Trucking,4166 Kurth St South,Salem,OR,97302,503-399-0144
Castle Movers,12660 Sw Wheatgrass Loop,Crooked River Ranch,OR,97760,541-504-1052
Yamada Trucking,12100 Sw Herman Rd,Tualatin,OR,97062,N/A
R E Summers Trucking,7737 Hwy 66,Klamath Falls,OR,97601,541-883-2505
John Strand Trucking,617931 0'neal Hwy,Prineville,OR,97754,N/A
L J Sherman Trucking,2980 Leaf Terrace,Coos Bay,OR,97420,503-269-1031
R & D Transport,10308 North Vancouver Way 206,Portland,OR,97217,N/A
Nels Jorgensen Livestock Transportation,52281 Hwy 62,Fort Klamath,OR,97626,503-381-2252
Douglas Freight,10308 N Vancouver Way #186,Portland,OR,97217,503-283-4546
C J M Trucking,4109 Chenoweth Rd Trlr D7,The Dalles,OR,97058,503-296-1053
K-two Express,11535 Sw Durham Rd,Tigard,OR,97224,N/A
Bob Red Trucking,1700 Bailey Hill Rd #2,Eugene,OR,97402,503-466-5861
Kng Transporttion,15700 Antioch Rd,White City,OR,97503,559-707-4351
Indigo Industries,25770 Butler Rd,Junction City,OR,97448,541-998-8046
North Star Transport,122 Ne Conifer #7,Corvallis,OR,97330,N/A
Thomas H Ireland Iii,238 Stanford Rd,Dillard,OR,97432,541-679-2282
R & H Trucking,4659 Cannon,Klamath Falls,OR,97603,503-882-7045
Virgil T Schmoe Trucking,4644 Denver,Klamath Falls,OR,97603,503-273-7260
White Knight Transport Service,10800 Monmouth Hwy,Monmouth,OR,97361,503-838-4216
E J Lavoie Trucking,6859 Hwy 202,Clatskanie,OR,97016,503-755-2215
Wayne Barr Trucking,2850 Butte Falls Hwy,Eagle Point,OR,97254,530-357-3391
Leblanc Trucking,120 Crystal Drive,Grants Pass,OR,97527,541-862-2277
Tag Transport,#2 Sagebrush Lane,Adel,OR,97620,775-578-3065
Edwin E Carpenter Trucking,27575 Pine Creek Road,John Day,OR,97845,541-820-4760
Erevia Transportation Co,244 Madison,Umatilla,OR,97882,503-526-6499
Lawson Trucking,1988 Allencreek Rd,Grants Pass,OR,97527,N/A
J & B Trucking,19093 S Beavercreek Rd #121,Oregon City,OR,97045,541-632-6264
T & T Transport,219 Mercy Hills Dr,Roseburg,OR,97470,541-672-1382
T H Trucking,Rt 1 Box 366,Powell Butte,OR,97753,503-923-6933
T W D Trucking,317565 Klamath St,Bonanza,OR,97623,503-545-6722
Golden Hawk Express,7441 Williams Highway,Grants Pass,OR,97527,541-660-9952
Shadow Ranch Transportation,255 General Ave,Roseburg,OR,97470,541-672-4644
Stansberry Trucking,31384 Canaan Rd,Deer Island,OR,97054,N/A
Corbin Trucking,27509 Mac Lane,Junction City,OR,97448,503-998-5781
Art Frank Trucking,24704 Alpine Rd,Monroe,OR,97456,503-424-2282
Ray Eveland Trucking,Po Box 1173,St Helens,OR,97051,N/A
Steve Chitwood Trucking,11 Santa Rosa Ct,Roseburg,OR,97470,541-679-0988
Larry Angell Transport,5990 Silverton Rd Ne,Salem,OR,97305,503-588-8056
