Company Name,Street Address,Address Locality,Address Region,Postal Code,Telephone
Ath Transport,232 Maugers Mill Rd,Pottstown,PA,19464,484-880-7606
Brians Pallets,860 Penn Green Rd,Landenberg,PA,19350,267-446-4907
S & A Transportation,3502 Beech Run Ln,Mechanicsburg,PA,17050,717-695-0939
A C L Transport,1176 Craig Rd,Parker,PA,16049,814-221-8152
Demo Dans Trucking & Excavating,2110 State Route 29 South,Tunkhannock,PA,18657,570-639-3207
Myers Trucking,236 Main Street,Beech Creek,PA,16822,570-660-7502
Triple Nickel Auto Parts,2956 Lincoln Way West,Chambersburg,PA,17201,717-267-2500
Skelly Trucking,2001 Ondik Dr,Scottdale,PA,15683,724-972-2750
Bannister Trucking,909 Oak Creeks,Total Creek,PA,15145,412-245-6508
Na'um-ez Transportation,1129 Sheffield Street,Pittsburgh,PA,15233,412-231-3946
A C Home Services,406 Jenny Lane,New Castle,PA,16101,724-730-2351
E Brunsgaard Trucking,123 N Euclid Ave,Parker,PA,16049,724-399-2621
Cardiff Auto Repair,8712 Woodbine Rd,Airville,PA,17302,410-452-8952
John Jury Trucking,265 Kunkle Rd,Irwin,PA,15642,724-640-6163
Dave Hess Transportation,3384 Shermans Valley Road,Loysville,PA,17047,717-789-3929
Samoco Transportation,8807 Fairfield St,Philadelphia,PA,19152,215-906-7118
Roadrunner Transportation,3502 Beech Run Lane,Mechanicsburg,PA,17050,717-695-0939
S & E Salvage And Hauling,458 E River Road,Edinburg,PA,16116,724-656-3747
Surrena Trucking,1276 Barkleyville Road,Grove City,PA,16127,724-992-0337
Gutshall Trucking,12 Burd Street,Middletown,PA,17057,717-944-2338
Rt Services,1378 Cobbler Road,Quakertown,PA,18951,267-241-0990
R&t Drilling Services,1 Gordan Ave,Carbondale,PA,18407,570-241-2759
Appalachian Well Services-titan Wireline Services,10962 Us Route 422,Shelocta,PA,15774,724-354-4400
Kore Storage Solutions Dba Rost Installations Services,1361 Aster Dr,York,PA,17408,717-818-8689
Chapin Transport,708 Lakeside Ave,Havertown,PA,19083,610-642-1667
Red-x Logistics,2 Hunters Run Dr,Landenberg,PA,19350,484-508-8320
Triple G Trucking Co,164 Penn Avenue,Telford,PA,18969,215-603-4378
Stauffer Trucking,15205 Dunnings Highway,East Freedom,PA,16637,814-696-3636
Rta Trucking,2140 S 15th Street,Philadelphia,PA,19145,267-205-9001
Victor's Delivery Service,818 W Chew Street,Allentown,PA,18102,610-657-6840
"Smart Truck Booking, Inc.",20 6 Cranberry Ridge,Reading,PA,19606,610-413-4203
Medina Trucking,816 S Jefferson St,Allentown,PA,18103,484-553-6083
Smith And Martin Hauling,29 W Fulton,New Castle,PA,16102,724-730-5633
Andrew J Wargo Trucking,23 Moss Hollow Ln,Hamlin,PA,18427,570-689-4920
Prologica,3048 Emrick Boulevard,Bethlehem,PA,18020,610-625-1524
R A Spickler Trucking,12 S Market St,Mcveytown,PA,17051,717-899-6042
Santanna Logistics,3374 Frankford Ave,Philadelphia,PA,19134,267-202-1075
Gs Transport,209 Chickory Ln,Warfordsburg,PA,17267,717-294-3511
B B Express Welding,3771 Pleasant Grove,Warfordsburg,PA,17267,717-573-2686
Tony's Auto Express,Lot 5 Route 209,Gilbert,PA,18331,610-681-6530
Bosco Logistics,135 Railroad Street,Catasauqua,PA,18032,484-554-4301
Hunter Service And Parts,1825 Bridgetown Pike Unit 610,Feasterville,PA,19053,267-266-3373
J And N Transport,1323 Deer Path Drive,Walnutport,PA,18088,484-623-4221
Midway,211 South Route 100,Allentown,PA,18106,610-395-5273
David L Cook's Auto Service,1939 Frederick Pike,Littlestown,PA,17340,717-359-9586
Lexington Moving And Storage,2800 Concord Road,York,PA,17402,410-336-6751
Solution Services,974 Vine St,Macungie,PA,18062,601-966-5435
Day Delivery Service,1196 Wilmore Rd,Ebensburg,PA,15931,814-472-7033
Tri Trucking,S&s Drive,Henryville,PA,18332,570-620-9121
Liberty Logistics,2052 Finch Dr,Bensalem,PA,19020,267-226-3840
L Rodriguez Services,1522 W Congress St,Allentown,PA,18102,551-482-2945
Cousins Trucking,433 Dartmouth La,West Grove,PA,19390,610-345-0496
Kaufmann Super Shuttle Express,218 Robina Street,Philadelphia,PA,19116,888-464-4065
Carnel Trucking,6410 Old Carversville Rd,Carversville,PA,18913,908-628-8008
Hi-lo Auto Service,720 W Elm Avenue,Hanover,PA,17331,717-632-2320
Stauffer Trucking,130 Cardinal Drive,Quarryville,PA,17566,717-548-2017
Rslloyd Trucking LLC,2225 Rt 403 North,Northern Cambria,PA,15714,814-749-7643
Widel's Service Center Mobile Unit,1091 Centre Turnpike,Orwigsburg,PA,17961,570-366-4951
Summers Hauling,924 Lancaster Pike,Quarryville,PA,17566,717-330-5765
M And D Trucking,29 Evert Road,Bloomsburg,PA,17815,570-458-5495
Rice Express,110 Sawmill Road,Pine Grove,PA,17963,570-691-6797
H J Shultz Trucking,250 Worman Street,Bloomsburg,PA,17815,570-951-9284
"White Stone Transport, Inc.",220 Geiger Road 206 2nd Floor,Philadelphia,PA,19115,215-677-4447
Jmk Transport,248 Marcy St,Duryea,PA,18642,570-457-3942
Full Throttle Recovery Services,525 East Scott Street,Olyphant,PA,18447,570-489-0598
R T Grant Transport,1315 Franklin Road,Jackson Center,PA,16133,724-269-7101
H&a Hauling LLC,367 Jackson Sq Rd,Thomasville,PA,17364,717-225-5646
Jar Restaurant Equipment Installation & Delivery,8704 Verree Road,Philadelphia,PA,19115,215-667-4884
Bw Transport,648 Pine Street,Easton,PA,18042,610-990-6491
Servicemaster By Mistick,9189 Marshall Road,Cranberry,PA,16066,724-453-1010
Markus Trucking,163 Patriot Circle,Mountain Top,PA,18707,570-954-3266
Matt's Altoona Emergency Wrecker Service,3200 South 10th Ave,Altoona,PA,16601,814-502-5798
Mk Auto Hauling,116 Walnut Valley Court,Wrightsville,PA,17368,717-659-0404
Classy Auto Transport,1141 Snyder Rd Apt A-22,Lansdale,PA,19446,610-329-6603
Eric Bullock,727 1/2 Menoher Blvd,Johnstown,PA,15901,188-856-4539
Toledo Trucking,2544 North 3rd St,Philadelphia,PA,19133,215-425-7183
Speedy Auto,20 Windrose Dr,Richboro,PA,18954,215-852-9738
Jetway Limousine,908 Dekalb Pike,Bridgeport,PA,19405,610-272-5544
L & S Geer Trucking,2932 Greeley Road,Brookville,PA,15825,814-849-9890
Suarez Trucking,5484 Grace Avenue,Bethlehem,PA,18017,610-849-2571
Sierra Lane Transport,323 Sierra Lane,Mifflinburg,PA,17844,570-922-1811
Old School Motorcyle Transport,1119 Ridge Road,Stillwater,PA,17878,570-864-0901
Shenanagans,6 Rose Lane,Wilkes Barre,PA,18702,570-829-4101
Russic Trucking,244 Old Forbes Rd,Stoystown,PA,15563,814-893-5252
Earthcare Property Services,377 Greensprings Rd,Hanover,PA,17331,717-632-7846
J & N Trucking,5019 Main Road,Hunlock Creek,PA,18621,570-726-4466
Ted's Transfer,187 Lover-jonestown Rd,Charleroi,PA,15022,724-565-5578
Ro-no Removal Service,352 Hemlock Rd,Waymart,PA,18472,570-937-4978
G&e Autocat Recycling,6429 Brandywine Ct,Bensalem,PA,19020,267-334-4404
Alonso's Trucking,1709 Valette Drive,Lancaster,PA,17602,717-517-7672
Benton's Moving & Hauling,5017 Duffield Street,Philadelphia,PA,19124,267-244-3721
M & E Trucking,2429 Allenbrook Dr #4,Allentown,PA,18103,484-661-0352
Transportation,5052 N Fairhill St,Philadelphia,PA,19120,267-318-4602
Lois Trucking,88 Mitchell Rd Lot 187,W Middle Sox,PA,16159,724-528-1066
Transconcessions,127 Carlye Dr,Cranberry Twp,PA,16066,412-512-9640
Uztrans,1300 Industrial Blvd B3,Southampton,PA,18966,267-266-6956
Lar's Haulin It,Rr2 Box 253a,Rome,PA,18837,570-395-9384
Lucas Transportation,1239 Fuller St,Philadelphia,PA,19111,561-876-5548
Tom Cotter Construction,Rr 1 Box 32b Sheshequin Rd,Ulster,PA,18850,570-358-3622
Crown Transportation,28 West Glebe Avenue,Newville,PA,17241,717-288-5299
Hlk Transit Group,3754 Wilawana Rd,Sayre,PA,18840,607-425-1936
J Z Transportation,4485 Memphis Rd,Whitehall,PA,18052,717-354-6777
Antonio's Trucking,35 Dietz Estates Dr,York,PA,17404,717-881-3059
Nyc Trucking,1822 Blush Drive,Easton,PA,18045,610-419-1747
Dasilva Trucking LLC,1143 Weimer Street,Reading,PA,19602,610-743-4737
Linton Carrier Service LLC,5637 Stewart Street,Philadelphia,PA,19131,215-452-5134
Mbt Express,1006 Bullock Ave,Philadelphia,PA,19050,215-436-2053
Empire Logistics,1002 Lititz Pike,Lititz,PA,17543,516-721-8114
Dasher Delivery,1660 S Cameron Street,Harrisburg,PA,17104,717-234-3274
"I&d Trucking, Inc.",280 Taft St,Wind Gap,PA,18091,484-898-0048
Sorg Trucking,312 Willow Street,Johnsonburg,PA,15845,814-389-4937
Cmc Trucking,10980 W Greene Road,Water Ford,PA,16441,814-769-6185
R&jcarriersLLC,2940 Meadow Lane Drive,Easton,PA,18040,610-252-2328
S A Adam Trucking,660 N Price Street,Pottstown,PA,19464,610-970-9219
Corey Anderson Trucking,3109 Union Deposit Road,Harrison,PA,17109,717-554-5866
Brown's Modular Services LLC,169 Sinclair Road,Newmanstown,PA,17073,717-949-2036
John Wayne Hotshot Hauling,501 Birch Lane,White Haven,PA,18661,570-279-7092
Kaba Transportation LLC,12 N 50 St,Philadelphia,PA,19139,215-910-3579
Kulps Trucking,103 Toby Road,Coatesville,PA,19320,610-273-9236
Blueline Automotive Center,2638 W Emaus Ave,Allentown,PA,18103,610-351-2638
E N E Specialty Transporting,253 Filmore Street,Uniontown,PA,15401,724-415-6610
Rt 534 Auto,Rt 534 W 903,Albrightsville,PA,18210,570-722-8088
Chris Seeley Trucking,893 Pumpkin Hill Rd,Mansfield,PA,16933,570-549-2631
Virgils Hauling,433 Hilldale Road,Holtwood,PA,17532,717-284-2502
Long's Van Service,2172 Lower Road,Shamokin,PA,17872,570-797-2106
Kendall Transport & Hauling LLC,427 Carey Ave,Wilkes Barre,PA,18702,321-297-1120
Zone Gas Field Services,132 Nemacolin Rd,Carmichaels,PA,15320,724-833-5311
Alan Smithbower Trucking,307 Spruce St,Cresson,PA,16630,814-414-9047
K-n-e Trucking,4417 Pine Hollow Rd,Trafford,PA,15085,724-864-0113
Jkw Trucking,6 Oxford Place,Aston,PA,19014,610-636-2877
Carmart Logistic,5541 Four Point Rd,Bethel,PA,19507,717-889-3400
Douglas Good Trucking,3 Pheasant Lane,Lititz,PA,17543,717-538-9252
Lamborn Trucking,116 Hayes Lane,Claysburg,PA,16625,814-239-0030
A J Trucking,6451 Oxford Avenue Apt D10,Philadelphia,PA,19111,215-971-7086
Echevarria Transport,615 N Jordan St,Allentown,PA,18102,484-550-9231
Back Haul Trucking,14062 Orchard Drive,Clarks Summit,PA,18411,570-586-3987
Mccain Digging Dumping & Hauling,300 Mountain View Estates,Montrose,PA,18801,570-278-3642
"Ana Trucking, Inc.",1455 East 10th St,Erie,PA,16503,716-810-2401
Afs,4897 Blockhouse Road,Liberty,PA,16930,570-324-2370
Dixon Transportation,2326 N 5th Street,Harrisburg,PA,17110,717-773-7984
Golden Boy Trucking,9 W Main St,Quakake,PA,18245,570-467-2314
Quick Freight Transportation,6607 Rising Sun Avenue,Philadelphia,PA,19111,215-596-9534
Coe Distributing,1020 Franklin Drive Suite 5,Smock,PA,15480,724-437-8202
Adams Transportaion LLC,9115 Academy Rd Apt A6,Philadelphia,PA,19136,267-971-4887
Fegely Services,4730 Main Street,Whitehall,PA,18052,484-892-9092
Trt Freightways,10 Plum St,Verona,PA,15147,412-828-3660
Off-ramp Express,155 W Green St,Reading,PA,19601,484-529-6606
Mach 1 Transport,131 Pick Road,Millmont,PA,17845,570-922-0441
Mj Deliveries,46 Needlepine Ln,Levittown,PA,19054,267-251-6241
Craig Terrell Trucking,29582 State Route 92,Susquehanna,PA,18847,607-222-5470
Burnsworth Contracting,396 Burnworth Rd,Mill Run,PA,15464,724-984-4164
Hite Trucking,19 Glory Barn Road,Canton,PA,17724,570-971-0683
Sisler Trucking,652 Flatrock Road Apt 2,Markelysburg,PA,15459,724-880-8310
A Brenner Transportation,143 East Washington Street,Elizabethtown,PA,17022,717-725-8927
Adam Cain Enterprises,3940 Main Road West,Emmaus,PA,18049,484-515-9300
Bmg Trucking,212 Jackson Circle,Pittsburgh,PA,15229,877-312-3534
"Multani Brothers Transport, Inc.",7000 Route 13,Levittown,PA,19057,609-969-9487
Ken's Trucking,2260 Minnequa Main Road,Canton,PA,17724,570-673-5611
Free Spirit Transportation LLC,333 Prospect Ave,Duncannon,PA,17020,717-834-3147
D Gibson Transport,748 Church Road,Quarryville,PA,17566,717-288-5065
Mike V's Delivery Service,1425 East 6th Street,Bethlehem,PA,18015,610-865-2415
Zbigniew Michiewicz,138 Rocky Mountain Drive South,Effort,PA,18330,570-620-2837
Crt Services,2130 S Lumber Street,Allentown,PA,18103,917-497-2456
Mariano Transport,509 Avenue B,Reading,PA,19601,484-651-3418
"Amatos Automotive, Inc.",233 Philmont Ave,Feasterville,PA,19053,215-364-8122
Mountain Insulation,4308 High Road,Cresco,PA,18326,202-521-1493
R & C Transportation,570 Johnsonburg Road,Rossiter,PA,15772,814-938-3143
First Class Transport Company,2144 West Spencer Street,Philadelphia,PA,19138,267-237-2010
Tiffany Jos Hotshot,16 Broad St,Tioga,PA,16946,607-368-8920
Black Wolf Transportation,206 Van Ness St,Du Bois,PA,15865,181-459-0136
Jmj Trucking,3337 Township Line Rd,Chester,PA,19013,610-364-0325
Ml Marsh,208 Academy Street,Stillwater,PA,17878,570-245-6257
Torres Distributor,4238 L St,Philadelphia,PA,19124,267-972-5919
Beard Transport,204 15th Street,New Florence,PA,15944,N/A
Beitzel Trucking,518 Georgetown Rd,Ronks,PA,17572,717-354-6777
Most Reliable Transportation,701 W Diamond Ave,Hazelton,PA,18201,570-445-4555
Volvo Rents Of Central Pennsylvania,730 Neu Road,York,PA,17404,717-718-7400
Ab Logistics,215 Gray St 1st Fl,Chester,PA,19013,610-809-1490
Arthur Trucking,302 Mckrell Rd,Tarentum,PA,15084,724-265-1825
Gary's Travel Serivce,300 Vincent Avenue,Watsontown,PA,17777,570-538-2642
Red Alert Recovery,235 Delaware St,Lester,PA,19029,484-832-2153
B Clark Trucking,113 Greendale Ave,Indiana,PA,15701,724-465-1028
Fd Moven Trucking,3518 Kutztown,Laureldale,PA,19605,484-818-0479
K B M Trucking,2002 E Center St,Tremont,PA,17981,570-294-9177
Kwis Trucking,963 E 10th St,Erie,PA,16503,814-392-1140
Jim Hopkin,102 Haystack Rd,Tannersville,PA,18372,850-509-3648
Stimpy Transport Company,121 Urban Ct,Hawley,PA,18428,570-685-4999
Salvador Trucking,2451 Garfield Ave,West Lawn,PA,19609,484-769-3761
High Adventure Industries,2100 Fairview Ave,Reading,PA,19606,610-967-8021
Luis Trucking LLC,5882 Mohawk Trail,Tobyhanna,PA,18466,570-606-3587
"Tal Services Co, Inc.",235 Holtzapple Rd,Red Lion,PA,17356,717-244-7209
Dba Nagy Trucking,128 State Rd,Middlebury,PA,16935,570-376-3841
Mercack Trucking,2413 Tulip St,Philadelphia,PA,19125,215-425-5546
Pennywise Sedan Service,5 Williams Way,Sellersville,PA,18960,215-885-2800
Dba Jgm Trucking,10 Cherry Street,Wellsboro,PA,16901,570-724-6397
Midnight Cowboy Xpress,703 Messenger Street,Johnstown,PA,15902,814-241-8392
Ryk Freight Express,31 Industrial Rd,Loysville,PA,17047,717-789-9705
Ross Paving Services,1097 Kratz Rd,Glen Rock,PA,17327,717-235-5358
Classic Bulk Transport,8545 Lincoln Green Dr,Kunkletown,PA,18058,862-324-5885
Ems,313 Jasper Court,Warrington,PA,18976,267-243-4079
Bob's Transport,123 Bruno Avenue,Central City,PA,15926,814-754-8394
Msi Plus,1910 North Old Trail,Selinsgrove,PA,17870,570-743-2012
J Sukanya Trucking And Sons Of Man,533 Wylie Avenue,Clairton,PA,15025,412-233-0504
Helman's Coal Service,5933 Stamey Hill Rd,Waynesboro,PA,17268,717-749-3661
J Valdez Services,243 Mulberry Street,Reading,PA,19604,484-818-2473
Affordable Shipping Service,53 Millrace Lane,Beaver Springs,PA,17812,570-541-5859
Aristique Solutions Co,7276 Radbourne Road Suite D,Upper Darby,PA,19082,215-667-3472
Mike Eaton,4226 Leah Ave,Dover,PA,17315,717-887-2878
Jeanlouis Transportation,116 Boncouer Rd,Cheltenham,PA,19012,215-782-3685
Jim Potter Trucking,51 Bryant Road,Wellsboro,PA,16901,570-724-9123
Dave's Diesel Service,2285 Meeting House Road,Spring Grove,PA,17362,717-225-5716
Jld Express,318 Cedar St,Reading,PA,19601,484-529-9395
"Mulch And Tree Transport, Inc.",3242 Knorr St,Philadelphia,PA,19149,973-573-3840
Galaxy Transport,262 W Foothills Dr,Drums,PA,18222,717-441-4936
I And R Trucking,688 Sweet Bay Way,Hershey,PA,17033,717-612-8828
Burford Trucking,324 Mutton Hollow Road,Ruralvalley,PA,16249,724-681-5192
Joshua M Thoman Trucking,Rr1 Box 99b,Leraysville,PA,18829,540-966-2174
J R Transportation,5359 Main Road,Sweet Valley,PA,18656,570-814-9721
Stone Concrete Pumping Service,247 N Main St,Clarendon,PA,16313,814-723-8773
K-c Hauling,828 Sr 2003,Rural Alley,PA,16249,724-354-4092
Teagarden Trucking,826 Old National Pike,Claysville,PA,15323,724-663-9074
Brown's Auto,303 Main St,Greenville,PA,16125,724-885-1055
Hartle Hot Shot,1317 Big Shanty Road,Lewis Run,PA,16738,814-368-3977
J D B Trucking,4412 10th Avenue,Temple,PA,19560,610-939-9363
Twin Valley Movers,73 Weaver Road,Morgantown,PA,19543,610-763-9475
R&j Transport,5605 Cedar Street,Saint Thomas,PA,17252,717-764-0423
Horse Transportation,604 5th St,Oxford,PA,19363,484-702-7346
Custom Pool Services,537 E County Line Rd,Hatboro,PA,19040,215-675-7131
J Cole Trucking,Rr2 Box 415,Athens,PA,18810,570-247-5497
J2j Delivery Group,5118 N 3rd Street,Philadelphia,PA,19120,856-313-9454
Buddys Automotive,1226 Milford Rd,Dingmans Ferry,PA,18328,570-828-6487
Howlin Transfer,1158 South Main Road,Mountaintop,PA,18707,570-817-1814
Michael L Sabo Hauling,183 Evans Rd,Perkiomenville,PA,18074,610-754-7978
Liciaga's Transportation,1136 E Livingston St,Allentown,PA,18109,610-570-7015
Noel Transport,615 Mc Clellan St,Reading,PA,19611,215-892-6701
Brian Quigel Trucking,94 Ridge Road,Cogan Station,PA,17728,570-279-6591
Roadhouse Auto Sales,Rte 106 14 Fallback Rd,Carbondale,PA,18407,201-317-4698
"Lazyhorse Trucking, Inc.",916 Manor Lane #5,Feasterville-trevose,PA,19053,215-322-2135
Ag Trucking,22 Sandstone Ct,Lititz,PA,17543,717-556-6850
Ken-lee Truck Lines,952 Gross Beak Court,Bushkill,PA,18324,908-316-4960
Holtin Haulin',162b Mainesburg Road,Mainesburg,PA,16932,570-447-1125
Am Moving,610 Fulmer Avenue,Stroudsburg,PA,18360,201-456-6871
Garys Express Delivery,4748 Meridian Street,Philadelphia,PA,19136,267-986-7014
Na,194 Palmer Road,Bangor,PA,18013,610-462-3201
Limerick Furniture,3208 West Ridge Pike,Pottstown,PA,19464,610-495-2233
Kellys Transport,85 Third Mill,Sheffield,PA,16347,814-727-7029
T & L Trucking,4291 Us Route 6 West,Ulysses,PA,16922,814-435-7710
Hoover Trucking,644 E 28th Division Hwy,Lititz,PA,17543,717-733-2685
Regavil Home Services LLC,1430 W Turner St,Allentown,PA,18102,610-437-6923
Sprague's Transport,134 Carey Hill Rd,Tunkhannock,PA,18657,570-942-4294
Farley's Bits And Bites Equine Services,229 Lake View Dr,Springville,PA,18844,570-240-1536
J&n Robbins Trucking,Rr1 Box200a,Rome,PA,18837,570-744-2175
J & N Auto Transport,250 Beacon Light Road,Coatsville,PA,19320,410-639-7224
Thg Trucking,1700 Fox Hill Rd,Russell,PA,16345,814-757-8149
S&b Houseman Trucking,504 Dumm Road,Elliottsburg,PA,17024,717-582-8488
The Auto Group,906 Bustleton Pike,Feasterville,PA,19053,215-364-2886
Chestnut Hill Trucking,718 Chestnut Hill Rd,Denver,PA,17517,717-354-6777
Hilliard's Transport,415 Peach Street,Butler,PA,16001,724-285-2964
Luce Trucking,122 Valley Stream Park,Mountain Top,PA,18707,570-899-6781
Hotshot Huey,23 Campbell Lane,Indiana,PA,15701,405-701-4173
Jasexport,6045 North 11th,Philadelphia,PA,19141,215-924-5146
Transmission Remanufacturing Facility,201 Gibraltar Rd,Horsham,PA,19044,610-668-2900
Pena Transport,745 N 6th Street,Allentown,PA,18102,646-476-1930
Land Services,3606 Harlansburg Rd,New Castle,PA,16101,724-674-7082
"A.l Griffin Trucking, Inc..",400 East Locust Street,Dallastown,PA,17313,717-840-3830
J & A Transport,8733 Glenloch Street,Philadelphia,PA,19136,215-768-8266
Private Limousine And Sedan Service,527 Blue Mountain Rd.,Schuylkill Haven,PA,17972,570-573-1061
I B Hauling,479 Picnic Road,Lykens,PA,17048,717-365-3903
Coshun Transportation,3728 Kimberly Lane,Dover,PA,17315,301-748-7847
Mike Baumunk Trucking,526 Granger Hill Rd,Towanda,PA,18848,570-265-2699
S Staton Transport,123 West Manheim Street,Philadelphia,PA,19144,267-676-7096
John Leo Transport,25 Brader Street,Plains,PA,18705,570-760-2347
3 Lucky Sevens Trucking,1074 Rock Road,Schuykill Haven,PA,17972,570-861-4285
J & J Trucking & Excavating,407 Main St,Madison,PA,15663,724-237-1044
Wayne Debach Trucking,1 5th Avenue,Elysburg,PA,17824,570-672-1117
Hyde Trucking,2048 Kinney Road,Genesee,PA,16923,814-228-3685
Alwaly Auto Transport,5828 N Hope St,Philadelphia,PA,19120,215-390-0058
Ferrari's Hauling,1026 Maryland Ave,New Castle,PA,16101,724-654-8488
Westbrook Transport,561 Creek Rd,Christiana,PA,17509,717-354-6777
Brazbox Moving,6940 State Road Unit D,Philadelphia,PA,19135,215-437-7605
Smith Trucking,Rr 2 Box 66,Columbia Cross Roads,PA,16914,570-297-0689
Edgar James Trucking,205 N Fraley Street,Kane,PA,16735,814-837-7186
Cossell's Auto & Truck Sales,600 Pittsburgh Rd,Uniontown,PA,15401,724-628-7722
Andujar Transport,2411 N 11 Street,Philadelphia,PA,19133,201-241-6300
Vpr Distribution LLC,3000 Ford Road Apt K5,Bristol,PA,19007,267-259-9923
Muller 2,1551 Industry Rd,Hatfield,PA,19440,215-855-6555
Gerard Express,1101 W Hamilton St Ste 1002,Allentown,PA,18101,347-636-3040
Trucking,2027 Linwood Ave,Erie,PA,16510,814-899-3569
Freiwald Trucking,505 Hornet Ave,Johnstown,PA,15902,814-539-2928
Dutch Valley Auto Works,3331 Columbia Avenue,Lancaster,PA,17603,717-394-6278
Snyder Trucking,1936 Back Maitland Road,Lewistown,PA,17044,717-248-8755
J & L Transport,11777 Melrose Avenue,Greencastle,PA,17225,717-597-3614
B & G Trucking,354 Georges Rd,Uniontown,PA,15401,724-246-2889
Eric Kidd Trucking,404 Bridge Street,Selinsgrove,PA,17870,570-374-0618
Master Trucking,1097 Ridge Road,Mcalisterville,PA,17049,717-463-9846
Hans On Transport,923 State Route 307,Spring Brook Township,PA,18444,570-842-5000
Sh Trucking,414 State Route 437,White Haven,PA,18661,570-579-8445
Steve Smith Trucking,171 Jenair Road,Bernville,PA,19506,610-488-9377
Mg Dehn,64 Quimby Rd,Coudersport,PA,16915,814-558-9734
Gromnik,370 Goshen Ave,Hazle Township,PA,18202,570-455-2892
C & H Trucking,33 Old Ebenezer Road,Lebanon,PA,17046,717-354-6777
Teddy Essien,3154 N 7th Street,Philadelphia,PA,19133,215-223-6821
Fox Trucking,347 Ridge Rd,Williamsburg,PA,16693,814-832-0052
Batista Brothers Transportation,1110 N 9th St,Reading,PA,19604,610-823-2911
Carrier,2045 S 22nd St,Philadelphia,PA,19145,215-463-1392
Eastern Connection Movers,7265 Calvin Road,Upper Darby,PA,19082,877-480-6683
Almanzo Erb Trucking,149 Grange Hall Road,Milton,PA,17847,570-742-1328
K-9 Trucking,44 Weil Rd,Bechtelsville,PA,19505,484-764-8909
Reinford Trucking LLC,Rr 4 Box 4756,Mifflintown,PA,17059,717-436-5092
C&e Transporting LLC,283 Reath Road,Kirkwood,PA,17536,717-529-5552
Rehrig Unlimited,1316 Washington Avenue,Northampton,PA,18067,405-283-0698
Tazam Express,35 Gentleness Drive,Ephrata,PA,17522,717-738-4672
Bkd Hauling LLC,9022 Hickory Rd,Felton,PA,17322,717-993-0658
James Hoover Trucking,46 Mcgonigal Lane,Karthaus,PA,16845,814-263-4144
Enders Transport,201 Joshua Lane,Ephrata,PA,17522,717-738-3771
Airbender Transport LLC,668 South Main Street Ext,Punxsutawney,PA,15767,814-553-6484
Dale E Ruppert Trucking,3730 East Berlin Rd,East Berlin,PA,17316,717-259-8243
Michael S Beam Trucking,630 Fairview Rd,Berlin,PA,15530,814-267-6870
Phoenix Enterprises Two,276 Morgan Dr,Leola,PA,17540,717-286-7137
E & J Distribution,1502 Madison Court,Bristol,PA,19007,215-781-2359
David W Vought Sr Trucking,184 Main St,Beach Haven,PA,18601,570-752-0705
Geib Transport,1255 Manheim Pike,Lancaster,PA,17601,717-587-7815
Bonebrakes Dairy Service,3038 Buck Rd,Harrisonville,PA,17228,717-485-5572
R & R Trucking Co,1334 Deer Path Dr,Walnutport,PA,18088,484-695-4547
Shafron Auto Parts,1389 Rt 837,Elrama,PA,15038,412-384-6616
Dunn's Trucking,187 Young Avenue,Woodlyn,PA,19094,610-986-2638
S A Knappenberger,700 Washington And Canal Streets,Walnutport,PA,18088,610-767-2299
Lead Dog Pilot Car Services,11050 Ft Loudon Rd,Mercersburg,PA,17236,717-328-9474
Albatros Trucking,351 Shirktown Road,Narvon,PA,17555,717-629-5199
Holtzhafer Trucking,2975 Jordan Road,Orefield,PA,18069,570-778-0654
J Hervatin Trucking,115 Taintor Drive,Lewis Run,PA,16738,814-362-3020
Barrie Trucking,1771 S Avondale Street,Philadelphia,PA,19142,215-724-4635
Mosa Transportation,2324 N Marshall St,Philadelphia,PA,19133,717-989-3911
C S Transport,10705 State Route 44,Watsontown,PA,17777,570-649-6383
Mack Trucking,54 Old Homestead Rd,Selinsgrove,PA,17870,570-743-7015
Speed Link Logistics,3717 Lankenau Avenue,Philadelphia,PA,19131,215-878-6474
Prevent Distributors,598 Rosstown Rd,Lewisberry,PA,17339,717-938-6884
Douglas Craig Trucking,164 Windy Flats Road,Shelocta,PA,15774,724-354-4645
White's Trucking,2691a Fieldsbrook Road,Nicholson,PA,18446,570-942-0236
Unterberg Distributors,1614 Harding Circle,Whitehall,PA,18052,610-349-6503
Cr Trucking,4000 Chipperfield Dr,Stroudsburg,PA,18360,570-369-4509
Lance Goellner,8655 Parson Rd,Erie,PA,16509,814-866-1759
4 J's Auto,124 E Hamilton St,Allentown,PA,18109,610-820-0331
Forry Trucking,1327 N Strickler Road,Manheim,PA,17545,717-653-8641
Yoder Transport,952 Narvon Road,Narvon,PA,17555,717-330-5374
Anfernee Trucking,724 Schuylkill Avenue,Reading,PA,19601,717-279-1310
Henry J Butko Trucking,367 Hunter Forge Road,Macungie,PA,18062,610-845-3858
Jaba Express,3515 N Joyce Street,Philadelphia,PA,19134,215-399-8705
J B Lichty Trucking,405 Springville Rd,Quarryville,PA,17566,717-286-4520
Roomfulexpress Hse,2250 Roswell Dr,Pittsburgh,PA,15205,412-444-2300
Integrity Limousine,507 W Duttons Mill Rd,Aston,PA,19014,610-494-5211
T & A Trucking,4125 Wood Drive,Walnutport,PA,18088,610-767-5731
Kg Trucking,18 South 2nd Street,Perkasie,PA,18944,267-371-9105
Brent Harkness Trucking,2910 Thompson Hill Road,Gillett,PA,16925,570-596-2457
Valley Live Hauling,680 Aristes Rd,Ringtown,PA,17967,570-889-3382
Ralph Hess Transport,595 East Jackson Street,New Holland,PA,17557,717-355-9134
Geroni Trucking,111 Kutz Road,Temple,PA,19560,610-929-8995
Shipley's Trucking,503 Rutherford Road,Harrisburg,PA,17109,717-354-6777
Tri State Mattress,341 Washington Ave,Bridgeville,PA,15017,412-257-2808
Griffith Trucking,14107 Brown Hill Rd,Meadville,PA,16335,814-573-0760
"Delivery Solutions, Inc.",7 Spruce Lane,New Oxford,PA,17350,717-624-4581
Ronald H Croner Trucking,727 St Paul St,Lewisburg,PA,17837,570-412-9030
Jeff Goodwin Trucking,858 Old Bethlehem Pk,Colmar,PA,18915,215-822-1347
L Horst Livestock Hauling,1702 Murray Rd,Chambersburg,PA,17236,717-375-2379
Allen B Scott Hauling,8706 Stottlemyer Road,Waynesboro,PA,17268,717-762-4234
Bob's Irresistible Auto Sales,2603 Perry St,Erie,PA,16504,814-454-1114
Bayer Transport,4662 New Castle Road,New Willmington,PA,16142,724-946-9694
Dsncs Services,16063 Stewart Rd,Centerville,PA,16404,814-827-8935
Rush Transportation,145 W Christine Rd,Nottingham,PA,19362,484-886-6601
Thunder K Trucking,311 Middle Ridge Rd,Ohiopyle,PA,15470,724-329-0302
Rlg Transport,242 Lumber Street,Highspire,PA,17034,717-985-0968
Montrose Truck & Trailer Lease,Rr 5 Box 77 B,Montrose,PA,18801,570-934-2590
Himes Trucking Company,4438 Greenville Pike,Grampian,PA,16838,814-583-5179
Y And P Auto Transport,907 Township Line Road,Elkins Park,PA,19027,267-467-0440
D J Miller Transport,644 Long Rd,Mifflinburg,PA,17844,570-966-5815
Sweda's Trucking,1156 Silver Spring Rd,Holtwood,PA,17532,717-284-2290
Big E Trucking,785 West Providence Rd #d201,Lansdowne,PA,19050,N/A
Peters Trucking,346 Rose Road,New Milford,PA,18834,570-465-7591
"Atlas Distributors, Inc.",705 West Market Street,Scranton,PA,18508,570-983-0013
Sankofa Trucking And Shipping Co,9982 Wistaria Street,Philadelphia,PA,19115,215-330-1428
Erwin Express Transportation,1101 Hamilton Suite,Allentown,PA,18102,610-967-5553
Brymar Transport,145 Parkview Heights Road,Ephrata,PA,17522,717-587-4970
Martin Apraisal & Consulting Co,14 Superior Drive,Birdsboro,PA,19508,484-336-3874
G & H Automotive,351 Quarry Street,Mount Pleasant,PA,15666,724-547-1808
R&r Environmental Services LLC,124 West Street,Pleasant Gap,PA,16823,814-280-2539
Riser Trucking,91 Whisler,Gettysburg,PA,17325,717-334-6919
Dam Trucking,199 Mouser Lane,Marion Center,PA,15759,724-397-8628
Diamond Head Trucking,2930 Duss Avenue,Ambridge,PA,15003,724-266-5266
Cother Farms,Rr1 Box 1071a,Dushore,PA,18614,570-928-7583
Just Stop Talking,20 E Jackson St,York,PA,17401,717-848-8801
Am Carter Lawn Care,419 Dad Burnhams Rd,Schuylkill Haven,PA,17972,570-292-3278
W S Horst,3631 Pine Swamp Road,Mt Pleasent Mills,PA,17853,570-539-8619
Shiffer Trucking,7829 State Route 25,Spring Glen,PA,17978,717-576-4156
Farnen's Lanscape And Design,338 West Monument Ave,Hatboro,PA,19040,215-675-9658
Be Trucking,2709 Woods View Drive,Bensalem,PA,19020,215-757-3794
2-yordor,7001 Lincoln Drive,Philadelphia,PA,19119,215-843-5961
Robert Sell Jr Trucking,93 Stedman Ave,Lehighton,PA,18235,484-358-1055
"Strictly Business Trucking, Inc.",6128 Lensen St,Philadelphia,PA,19144,215-848-6428
S & D Moving,45 Brown St,Honesdale,PA,18431,570-253-8933
Mb Transport,1432 Union Grove Road,East Earl,PA,17519,717-445-0996
Crosswhite Trucking,188 Sunnyside Road,West Grove,PA,19390,484-319-7459
A J B Trucking,108 Walnut St,White Haven,PA,18661,570-582-7409
Oasis Auto Center & Transport,5208 Susquehanna Trail,York,PA,17402,732-713-0400
Davenport Trucking,59 Jones Road,Emlenton,PA,16373,814-797-1176
Terry L Knauff Trucking,230 Lynn Tyro Rd,Greenville,PA,16125,724-588-0109
El Maniel Grocery Store & Delivery,41 E Broad Street,Hazelton,PA,18201,570-455-7534
Gerald Chandler Trucking,Rr3 Box 3089a,Rome,PA,18837,570-247-5445
N & N Trucking,40 Nelson Avenue,Gifford,PA,16732,814-465-3350
Www.jactransport.net,303 Ross Rd,Tobyhanna,PA,18466,570-894-1993
J K Express,12 Georgianna Drive,E Stroudsburg,PA,18301,570-982-1320
Emwas Trucking LLC,1456 Hennaberry Lane,Easton,PA,18040,610-330-2939
Top Dog Movers Co,2216 St Vincent,Philadelphia,PA,19149,267-463-7715
R L Purcell Transport,2306 Watrous Ave,Scranton,PA,18510,570-343-3234
Azf Trucking,224 Burket Dr,Roaring Spring,PA,16673,814-329-3539
Bulk Freight Delivery,1404 Broad Street,Montoursville,PA,17754,570-971-6776
Jones Hauling,4672 Cedar Spring Rd,Mifflintown,PA,17059,717-463-3277
"White Horse Transport, Inc.",134 Springhead Road,Gap,PA,17527,717-629-4117
Ten Year Plan,5095 Rolling Road,Chambersburg,PA,17201,717-496-5532
Lloyd's Transport,469 Riverview Drive,Wrightsville,PA,17368,717-435-4443
R & C Mcintyre Trucking,107 Cedar Drive,Dover,PA,17315,717-951-8822
Jb Trucking,533 Flick Road,Hadley,PA,16130,724-456-9339
Bmcharles Trucking,207 Amelia Street,Mckees Rocks,PA,15136,412-875-5381
Eagle Oil,421 Raymondskill Rd,Milford,PA,18337,570-409-6291
Cabover Express,40 E 2nd St,Turbotville,PA,17772,570-649-5882
Kurt Rasmussen Trucking,Rr4 Box 4210,Saylorsburg,PA,18353,570-620-7132
Dw Low Trucking,14800 Brindle Lane,James Creek,PA,16657,814-658-2312
Graybill Transport,530 2nd St,Highspire,PA,17034,717-433-1510
Bergenstock Trucking,96 Zechman Ln,Lewisburg,PA,17837,570-524-5620
Sal's Trucking Services,516 South 19th St,Reading,PA,19606,917-826-7090
Dh Trucking,16 Dahl Road,Bloomsburg,PA,17815,570-784-8026
Jeffrey Powell,9071 Mill Creek Road Apt 1912,Levittown,PA,19054,609-516-8155
Blocher Farm Service,9818 Mason Dixon Hwy,Salisbury,PA,15558,814-662-4125
Evans Trucking,543 Kilgore Rd,Delta,PA,17314,717-456-5020
Johnny's Auto And Truck Repair,111 Reed Street,Philadelphia,PA,19147,215-389-5538
W M Hazzard Cartage,577 A Street,King Of Prussia,PA,19406,610-322-8309
Potter Trucking,1298 Pinewoods Road,Jersey Shore,PA,17740,570-745-3882
Assets And Technologies Group,113 Sand Hill Rd,Greensburg,PA,15601,724-834-0857
Asphalt Repair Maintenance Services,726 Forrest Grove Rd,Wycombe,PA,18980,215-598-9922
Tool City Tractor Sales & Service,9058 Williamson Road,Meadville,PA,16335,814-333-2448
Rhodes Trucking,46777 Buells Corners Rd,Spartansburg,PA,16434,814-654-7199
Dispatch Ryders,116 Grey Fox Rd Apt C 10,East Stroudsburg,PA,18302,570-606-4814
Rodney Good Trucking,1059 Swede Hill Rd,Wellsboro,PA,16901,570-724-6086
First Reaction Trucking,1723 Ripley Street,Philadelphia,PA,19111,215-457-3180
Ken's Auto Transport,7272 Chestnut Ave,Melrose Park,PA,19027,267-688-4888
R A Transport,1004 Ulster Street,Allentown,PA,18109,610-751-1750
Fitzsimmons Construction,378 Valley Cross Road,Smethport,PA,16749,814-887-5476
Destiny Moving Company LLC,1844 Rockville Rd,Spring Grove,PA,17362,717-676-9954
"Petroleum Maintenance Services, Inc.",1464 Briar Valley Road,Bedford,PA,15522,814-623-9226
C & D Express,1652 East Washington Lane,Philadelphia,PA,19138,215-927-2219
Envoy Transportation,398 Huntington Drive,Wayne,PA,19087,516-734-1511
Squid Trucking,62 Plank Rd,New Milford,PA,18834,570-878-8180
Pma Hauling,467 Cedar Avenue,Feasterville,PA,19053,215-322-9893
Vrg Express,48 Redwood Dr,Richboro,PA,18954,215-579-5662
Doman Trucking,4 Campside Circle,Conestoga,PA,17516,717-629-1021
Host Limousine & Transportation,36 South 3rd Street,Fernwood,PA,19050,610-494-4900
Qps Marketing,315 Orchard Way,St Davids,PA,19087,610-687-5075
Dependable Auto Transport,1913 Tustin Avenue,Philadelphia,PA,19152,267-262-3568
Pap Distribution,319 K Westtown Road,Westchester,PA,19382,610-656-5805
Gt Logistics,306 Main Street,Carnegie,PA,15106,412-920-1336
Jean Louis Transport,6721 Harbison Avenue 2nd Fl,Philadelphia,PA,19149,215-868-6032
Dipperys Trucking,53 Pine Tree Lane,Reedsville,PA,17084,717-363-0949
M & S Equipment And Truck Repair,3120 Lewis Circle,Hatboro,PA,19040,215-796-2527
Empire Distributor,4433 Whitaker Avenue,Philadelphia,PA,19120,215-329-3434
Mooren Transportation Services,813 West Gordon Street,Allentown,PA,18102,610-351-6745
Jim Babish Auto Sales,75 Central Ave,Johnstown,PA,15902,814-539-8282
Haulin All Cars,295 Thompson Hill Rd,Gillett,PA,16925,570-596-4644
Robert H Zeisloft Trucking,87 W Pebble Lane,Orangeville,PA,17859,570-387-6429
Cotherman Trucking,1852 Route 208,Emlenton,PA,16373,814-797-2381
E Watson,184 Susquehanna Trail,Allentown,PA,18104,610-391-1764
Dh Produce Hauler,1415 Memorial Blvd,Connellsville,PA,15425,724-984-3530
Mountain High Express,42 Cobblewood Drive,Mount Pocono,PA,18344,570-839-0629
Kramer's Auto Service,301 W Walnut Street,Perkasie,PA,18944,215-257-9700
Lady & Tramp Trucking,Rural Route 1 Box 119,Sugar Run,PA,18846,607-972-1031
Eric Brigham Trucking,Rr1 Bow 167,Wyalusing,PA,18853,570-746-3925
Jason Kramer Transport,2088 Salem Road,Coopersburg,PA,18036,267-218-5351
Gts-welco,5275 Tilghman Street,Allentown,PA,18104,610-398-2211
B W Borger's Gulf Service,Route 209,Kresgeville,PA,18333,610-681-4735
D T Automotive,378 Browns Road,Waynesburg,PA,15370,724-883-2111
Gm Trans,1653 Angela Dr,Bethlehem,PA,18017,484-358-8474
Cm Trucking,726 Hanover Ave,Allentown,PA,18109,610-216-9791
K T I Refrigeration Service And Installation LLC,3346 Waynecastle Rd,Greencastle,PA,17225,717-762-2210
Agx Intermodal,901 Mosside Boulevard,Wall,PA,15148,412-825-3324
J & A Transport,121 Main Street Apt D,Smithfield,PA,15478,724-322-9644
Duran Services,246 E Federal St,Allentown,PA,18103,610-969-6948
Bk Trucking,11889 Rinehart Dr,Waynesboro,PA,17268,717-749-3711
Prendys Pretzels,2548 Chestnut Ave,Norristown,PA,19403,610-631-0811
Keystone Cattle Services,1486 Mount Wilson Rd,Lebanon,PA,17042,717-964-2243
J&p Auto Transport,421 Blythe Ave,Drexel Hill,PA,19026,215-917-2421
W S Construction,71b Fallsdale Rd,Milanville,PA,18443,570-729-0103
Salada Transportation,Rd 2 Box 50,Shinglehouse,PA,16748,440-563-6642
T & T Trucking,12063 Dunnings Hwy,Imler,PA,16655,814-239-2678
Jhw Transport,180 S Washington St Apt 201n,Wilkes Barre,PA,18701,570-417-2377
B A Nicholson Transport,1520 Hillcroft Lane,York,PA,17403,717-515-1647
"Bc Transportation, Inc.",4 River Street,Towanda,PA,18848,570-265-5484
Ondo Farms,379 Kinsman Rd,Greenville,PA,16125,724-456-8815
Tom Pirollo,435 Rodi Road,Pittsburgh,PA,15235,412-607-5569
Jason Taney,353 E Washington St,Nanticoke,PA,18634,570-735-4101
Clayton Milk Hauling,5933 Sandy Lake Polk Rd Lot 9,Sandy Lake,PA,16145,724-376-2332
Piper Auto Repair,1706 Bethel Church Road,Latrobe,PA,15650,724-537-0716
High Country Express,319 Shawnee Trail,Mercer,PA,16137,724-300-5581
Stull Trucking,212 North St,Wood,PA,16694,814-285-8750
Edge,5301 Tacony,Philadelphia,PA,19137,215-288-4797
L&s Transport,1249 Pachen Hwy,Cherry Tree,PA,15724,724-910-9522
J & B Leasing Company,34 Hill Street,West Chester,PA,19382,484-459-2410
Rebound Trucking,53 West Main Street,Adamstown,PA,19501,717-286-3877
Wiser Trucking,1838 Ritner Hwy,Shippensburg,PA,17257,717-385-7537
L & A Quiroz Trucking,543 W Emaus Ave,Allentown,PA,18103,610-797-2067
All In The Family Transport,3079 Lincoln Hwy East,Paradise,PA,17562,717-354-6777
Virgil Pepper,10 Somerset Dr,Eighty Four,PA,15330,724-288-1787
Ludwig Trucking,3148 Oak Avenue,Altoona,PA,16601,814-943-5963
Rji Transport,131 Kintner Rd,Kintnersville,PA,18930,610-804-7684
Hockenberry Trucking,174 S Ridge Rd,Mifflintown,PA,17059,717-436-2829
New Vision Auto Care,2109 N 10th St,Philadelphia,PA,19122,215-787-0711
Barthel Trucking,1305 York Road,Gettysburg,PA,17325,717-337-2259
D & L Trucking,212 Groff Rd,Quarryville,PA,17566,717-715-4043
Rs Rader Transport,1937 Bowmansville Rd,Mohnton,PA,19540,717-484-1011
Bill's Emergency Road Service,1408 Calcon Hook,Sharon Hill,PA,19079,267-228-2846
Adamson Transport,436 Swamp Rd,Sandy Lake,PA,16145,724-992-1666
"Acadia Transport, Inc.",585 Payne Road,Kingsley,PA,18826,570-434-2315
D N Zimmerman Transport,543 Blue Lane,Columbia,PA,17512,717-449-3629
Trucking Company & Disposal,2135 Chestnut Tree Rd,Honeybrook,PA,19344,610-942-3806
Kurt Lentz Trucking,Rr1 Box 550 German Valley Rd,Canadensis,PA,18325,908-963-3644
Your Rhino Home Pros,1777 Mcclellandtown Rd,Mcclellandtown,PA,15458,724-737-6321
R&a Transport,Rr 4 Box 191a,Montrose,PA,18801,570-278-1669
Maxs Transmissions,621 Hook Rd,Folcroft,PA,19032,610-532-8769
Rta Transport,615 Lackawanna Street,Reading,PA,19601,610-334-8289
Cam Trucking,626 Hunt Road,New Castle,PA,16101,724-944-8962
Kirkland Transportation Services,1865 Kirkland Road,Clymer,PA,15728,724-599-6999
Hopkins Trucking,483 State Route 168,Darlington,PA,16115,724-847-7459
P & P Motors And Transportation LLC,785 Cypress Rd,Warminster,PA,18974,215-394-5415
Walker Trucking,60 Harvey Road,Shickshinny,PA,18655,570-301-3190
Less Stress Express,862 Churchville Rd,Southampton,PA,18966,941-266-0543
Professional Movers & Transportation Service,1008 South Gilmore Street,Allentown,PA,18103,484-347-2317
J D Pass Trucking,214 West Miller Avenue,Munhall,PA,15120,412-721-8088
Brackam Company,6119 Spires Dr,Erie,PA,16509,814-866-3676
Johnson Trucking,6104 Us Hwy 322 W,Milroy,PA,17063,717-667-9248
R&b Transportation,125 Station Street Apt 1,Yukon,PA,15698,412-475-2698
"Chester Distributor, Inc.",739 Heritage Drive,West Chester,PA,19382,610-793-7795
Baker Express,4173 State Route 225,Elizabethville,PA,17023,717-362-1042
C Wright Transport,45 Circle Avenue,Lancaster,PA,17602,717-394-3626
L & A Express,409 River Road,Croydon,PA,19021,267-784-5422
Modern Expressions,2901 Grant Ave,Philadelphia,PA,19114,215-677-0483
Liang's Delivery Service,1025 Morse Drive,Maple Glen,PA,19002,215-540-1868
Shipley Trucking,1997 Raystown Rd,Everett,PA,15537,814-652-0222
L A Trucking,67 Town Circle,Abbottstown,PA,17301,717-259-4361
Adoma Freightline,1516 E Washington Lane,Philadelphia,PA,19138,215-927-8636
Mar Trucking,143 Faith Street,Coudersport,PA,16915,814-274-3202
Lev Alter,766 Susquehanna Rd,Philadelphia,PA,19111,215-725-0241
Parsons Trucking,Rr1 Box 138,New Albany,PA,18833,570-928-9039
B F Foxx Trucking,2658 Columbia Avenue,Willow Grove,PA,19090,215-740-0761
Steve May Trucking,5670 Hyndman Road,Buffalo Mills,PA,15534,814-842-6470
A B Cargo Carrier,113 Mountain Ct,Greeley,PA,18425,484-347-2588
Classic Auto Express,753 Franklin Mill Rd,Warfordsburg,PA,17267,240-520-5024
Cds Transport,5123 Folsom St,Philadelphia,PA,19139,267-979-7526
J S Williams Trucking,917 Village Road Po Box 31,Lampeter,PA,17537,717-435-9218
Croyle Trucking,679 Harrison Rd,Schellsburg,PA,15559,814-733-4278
Wenger's Hauling,44 Foxanna Drive,Carlisle,PA,17015,717-697-8136
"Bullit Transport, Inc.",748 Bullit Run Rd,Howard,PA,16841,814-353-0468
Poor Boys Used Auto Parts,532 W Annsbury Street,Philadelphia,PA,19140,215-329-1200
Nix,857 South St,Pottstown,PA,19464,484-883-4017
Ray Gehr Trucking,251 Boomerang Drive,Ephrata,PA,17522,717-733-7359
Davis Charter Services,1757 Windrim Avenue,Philadelphia,PA,19141,215-455-1560
Rileys Used Auto Parts,92 Riley Road,Gettysburg,PA,17325,717-334-6177
Parsons Transportation,Rr 2 Box 188c,New Albany,PA,18833,570-363-2683
Jma Enterprises,431 Calyn Drive,Shillington,PA,19607,610-796-9960
Pursell's Septic Service,1219 River Rd,Upper Black Eddy,PA,18972,610-982-5019
Classic Auto Experts,1458 A County Line Road,Huntingdon Valley,PA,19006,215-364-5700
P T S,1139 Lehigh Ave Ste 650,Whitehall,PA,18052,610-866-7565
The Williams Group,146 Springdale Road,York,PA,17403,717-854-6221
Maier's Relocation Service Co,7250 Calvin Road,Upper Darby,PA,19082,610-352-2481
Lenora's Moving Company,2768 N 22nd St.,Philadelphia,PA,19132,215-225-5150
Docs Auto Sales,1412 Mcclellandtown Road,Mcclellandtown,PA,15458,724-737-2249
A&b Transportation,378 E Main St Apt1,New Holland,PA,17557,717-354-9894
Fbm Express,55 Buck Rd,Huntingdon Valley,PA,19006,215-942-0900
Mkt Trucking,397 Scotch Hill,Drifton,PA,18221,570-926-9354
Kenny's Auto Sales,820 Welsh Road,Huntingdon Valley,PA,19006,215-938-9333
Five Forks Ag Service,10696 Five Forks Road,Waynesboro,PA,17268,717-762-9580
Country Cabins,1179 West Kings Highway,Coatesville,PA,19320,717-629-7500
Paul Letterine Trucking,169 Forest Drive,North Huntingdon,PA,15642,412-829-1475
Fred Smeal Trucking,725 Market St,Coalport,PA,16627,814-672-5809
Style Logistics,201 Hudson Ave,Scranton,PA,18504,570-344-4682
Brad's Truck & Equip Repair,Rr #2 Box 508,Dalton,PA,18414,570-378-2251
Dme Trucking,23 Wendy Drive,Pequea,PA,17565,717-284-4511
J & S Trucking,198 Black Gap Road,Fayetteville,PA,17222,717-352-7183
Sandhar Trucking Co,358 Springton Rd,Upper Darby,PA,19082,610-352-8508
Larry L Brechbill Hauling,6047 Buttermilk Road,Waynesboro,PA,17268,717-762-3535
Weasel Trucking,Rt 711 Springfield Pike,Normalville,PA,15469,724-455-3075
Ed S Trucking,767 North Center Ave,Somerset,PA,15501,814-445-1200
Feldi & Sons Trucking,34 Laurel Run Rd,Shickshinny,PA,18655,570-547-5305
Streamline Transport,1109 Walters Rd,Pennsburg,PA,18073,215-541-4464
J & S Wiggs Trucking,R D 3 Box 78-b,Sunbury,PA,17801,570-286-2278
Odell Delivery Co,911 Summit Chase Dr ,Reading,PA,19611,610-396-0742
Wood's World Transport,124 Auction Rd,Manheim,PA,17545,717-330-7461
Shaun Krill Trucking,135 Hohn Farm Road Unit A,Chicora,PA,16025,724-282-7834
Cliffs Rollback Service,119 Elizabeth Avenue,Bethlehem,PA,18018,610-442-5456
Braithwaite Transportation,8491 Old 22,Bethel,PA,19507,717-933-9262
J & J Gadola Trucking,429 N Third St,Lehighton,PA,18235,610-377-0487
Darrell's Service Center,59 Limestone St,Bradford,PA,16701,814-368-2277
Sul Custom Service,9494 Old Route 99,Mckean,PA,16426,814-476-1753
Charlton Trucking,161 Charlton Lane,Benezett,PA,15821,814-787-8109
Rj Bouch & Son Trucking,2097 Paradise Road,Reynoldsville,PA,15851,814-427-5294
T And J Trucking,5 Daniel Ct,Saylorsburg,PA,18353,610-381-4169
Tinicum Services,48 Brick Church Rd,Pipersville,PA,18947,610-847-2400
Walt & Als Auto Service,201 Noblestown Rd,Carnegie,PA,15106,412-276-5588
Richard Reighard Trucking,511 Frame Church Road,Clearville,PA,15535,814-784-3909
Glenn G Borrell Trucking,5990 Little Gap Rd,Kunkletown,PA,18058,610-824-6979
Pods Of Philadelphia,211 Commerce Drive,Montgomeryville,PA,18936,215-393-1900
Rush Trucking,32 Wilford St,Pittston,PA,18640,570-883-0865
Mjh Transportation,127 Burnadette St,Fombell,PA,16123,724-452-9105
R D Trucking & Const,195 Pine Grove Rd ,Nottingham,PA,19362,610-476-2256
Wise Monkey Transport,35 Revere Rd Apt # 2,Drexel Hill,PA,19026,610-622-4558
Yothers Trucking,Rd 1 Box 398,Tyrone,PA,16686,814-684-0723
M S Express,305 Juniper Ln,Hanover,PA,17331,717-965-4840
W & W Transport,953 E Westmaeland,Philadelphia,PA,19134,215-426-0361
David's Automotive Service And Sales,1157 State Route 356,Leechburg,PA,15656,724-845-9118
J C Breneman Hauling,1252 Breneman Road,Conestoga,PA,17516,717-872-5786
R & M Express,736 Karen Lane,Hermitage,PA,16148,724-342-0026
Chris Neyman Trucking,37 Lesher Ln,Coalport,PA,16627,814-672-5295
Wishards Auto Sales,8592 Buchanan Trail West,Mercersburg,PA,17236,717-328-3277
D Wimer Trucking,1402 S Center St Ext,Grove City,PA,16127,724-615-3618
Duffy Horse Transportation,430 W First Ave,Parkesburg,PA,19365,610-857-1412
M&m Trucking,2060 Mallard Ln,Lebanon,PA,17046,717-454-0028
J C L Trucking,103 Adam Court,Shohola,PA,18458,570-296-9248
First Choice Auto Express,339 Hartz Rd,Fleetwood,PA,19522,610-944-9011
Dan Warner Trucking,Rr 6 Box 6580,Montrose,PA,18801,570-278-1267
Jennings Trucking,2440 Taneytown,Gettysburg,PA,17325,717-334-9292
Robert A Leonard Jr Trucking,19380 Bennetts Valley Highway,Weedville,PA,15868,814-335-0460
Night Prowler Trucking,941 E Dorset St,Philadelphia,PA,19150,610-364-7846
Eagle 1 Transportation,1857 Bradfield Drive,Mount Joy,PA,17552,717-689-0171
R & R Distributions,4908 Rising Sun,Philadelphia,PA,19120,215-324-2530
S & M Trucking,239 Stonehouse Rd,Carlisle,PA,17015,717-245-0731
Cr Hidalgo Trucking,6120 Cottage St,Philadelphia,PA,19135,215-332-4385
Vincent Freight,560 East Pine Street,Trevose,PA,19053,215-942-0868
Showtime Trucking,Pob 66 Butler Road,Noxen,PA,18636,570-836-4595
Muccio School Transportation,115 Kallas Road,St Marys,PA,15857,814-781-3400
Dba Markley's Hauling,34 Yankee Rd,Quakertown,PA,18951,215-679-2849
Steve Spurigo Trucking,709 West Main St,Schaefferstown,PA,17088,405-283-0521
Morse's Trucking - Excavating,Rr 1 Box 459-a Somers Lane,Lawrenceville,PA,16929,607-738-4850
Karlheim Trucking,319 Pleasant Drive,Aliquippa,PA,15001,724-987-9980
R L Brubaker Trucking,Rr1 Box 2935,Mcalisterville,PA,17049,717-463-2366
Kenneth St Clair Trucking,323 Village Road,Friedens,PA,15541,814-445-4598
Jtc Transportation,9 Wooded Way,Lincoln University,PA,19352,610-255-0124
George Weston Bakeries Distribution Company,255 Business Center Dr,Horsham,PA,19044,215-672-8010
Pm Trucking,546 South Richard Street,Bedford,PA,15522,814-934-7691
Sueden Trucking,457 W Main Street,Girardsville,PA,17935,570-527-7881
Ehrhart & Sons Trucking,23751 Earnest Road,Spartansburg,PA,16434,814-654-7066
Mccluskey Trucking,334 Third Street,Reynoldsville,PA,15851,814-603-2377
Klouser Trucking,214 Park Ln,Hegins,PA,17938,717-315-1313
Salvage One Auto Rec,3306 S 67th St,Philadelphia,PA,19153,215-365-2150
United Force Road Service,73 Buck Road,Huntingdon Valley,PA,19006,215-942-0900
Ron Austin Trucking,Rr 3 Box 107,Columbia Crossroads,PA,16914,570-297-3286
"D & W Transportation Of Summit Hill, Inc.",201 East Lehigh St,Summit Hill,PA,18250,570-657-0152
Nichols Trucking,374 Pumpkin Hill Rd,Mansfield,PA,16933,570-549-2610
I Am Starlight Express,309 West Harford Street,Milford,PA,18337,570-296-8881
J And S Transport,1134 Chestnut St,Reading,PA,19602,610-371-2009
J W Trucking,623 Summit Rd,Bradford,PA,16701,814-465-2326
Tommy's Auto & Truck Accessories,628 East Cedar St Rear,Allentown,PA,18109,484-664-7777
Henning Trucking,1565 Chalk Avenue,Blue Bell,PA,19422,610-278-0932
Richard Hoppe Trucking,27 Crestwood Rd,Levittown,PA,19057,215-547-1369
Dexter's Service Center,156 West Washington St,Bradford,PA,16701,814-362-3888
North South Ev A-s & Service,15038 Buchanan Trail East,Blue Ridge Summit,PA,17214,717-794-5649
Magic Trucking,1176 Dorchester,Bushkill,PA,18324,570-476-4776
Jackson Trucking,181 S Elk Run Rd,Mainesburg,PA,16932,570-549-2614
D&s Trucking,211 Chestnut Street,Jamestown,PA,16134,724-932-3862
Chrismer Trucking,3835 Ridge Road,New Columbia,PA,17856,570-568-0759
Kunselman Trucking,399 Spruce Street,Strattanville,PA,16258,814-764-5937
Littles Moonlight Express,2249 Linden Rd,York,PA,17404,717-801-8085
Kulwider Trucking,12 Greenview Dr,Stroudsburg,PA,18360,201-874-4629
Denley Motor Express,831 Market Street,Williamsport,PA,17701,570-326-3535
J&j Short Hauling,222 Fairview Avenue,Punxsutawney,PA,15767,814-938-7882
Junior Express Of Poconos,9 Orchard View Dr,Effort,PA,18330,610-638-1293
"Keeney Fire Extinguisher Service, Inc.",8980 Anthony Highway,Waynesboro,PA,17268,717-762-7611
Martin Express,6078 Pleasant St,So Park,PA,15129,412-835-2296
Gillingham Hauling,326 Vernon Road Lot 28,Greenville,PA,16125,724-589-0201
Tom Fenton's Auto Shop,1055 Hilltop Road,Greenville,PA,16125,412-588-5363
Greenough Trucking,Rr2 Box 129a,Columbia Crossroads,PA,16914,570-596-4727
Mike Argonish Trucks,321 Riley Street,Old Forge,PA,18518,570-562-2963
Trenchless Rehabilitation Services,823 Lincoln Ave Unit 2da,West Chester,PA,19380,610-431-5973
Av Transport,681 Old Greentown Rd,Greentown,PA,18426,570-676-3752
Bulldog Trucking,53 Hearthside Rd,Aston,PA,19014,610-416-3379
Lil Rigg Trucking,2243 South Market Street,Mechanicsburg,PA,17055,717-773-0468
Rumble Trucking LLC,7835 Deer Run Road,Glenside,PA,19038,215-517-6999
Express Wholesale,3868 Byron Road,Huntingdon Valley,PA,19006,267-467-0485
"Vast, Inc.",430 Allentown Drive,Allentown,PA,18109,610-821-1061
"Farmeries Trucking, Inc.",323 Stone Church Road,Hunker,PA,15639,724-925-2402
Allenport Motor Freight,P-4 100 Federal Dr,Mount Union,PA,17066,814-599-3524
Cool Springs Farm,11695 Maplewood Rd,Guys Mills,PA,16327,814-789-3361
Excavating Services,2837 New Franklin Rd,Chambersburg,PA,17202,717-264-7149
Tower Maintenance Service Co,804 Welsh Road,Huntingdon Valley,PA,19006,215-938-8781
R & S Logistics,105 Elgra Ct,Narvon,PA,17555,717-445-5365
Jc Transport,15 Forest Hill Drive,Albrightsville,PA,18210,610-476-9477
Shover Trucking,14 Burrow Hollow Road,Tioga,PA,16946,570-537-6188
Mignogna & Sons Trucking Llp,40 Penn Avenue,Souderton,PA,18964,215-703-8947
Dba Lichty Transport,1018 Old State Rd,Covington,PA,16917,570-549-6992
Quadstar Transportation,195 West Moorestown Rd,Wind Gap,PA,18091,908-387-0909
Hughes Hauling & Transport,720 Stonehill Rd,Rogersville,PA,15359,724-499-5791
J Freight Transportation,104 5th Street,Bessemer,PA,16112,330-207-4389
Gary R Smith Trucking,2 Potomac Ave,Pittsburgh,PA,15220,412-861-6755
Gress Trucking,10315 Church Hill Rd,Mercersburg,PA,17236,717-729-3492
Cook Trucking,4 Fieldcrest Drive,Mcdonald,PA,15057,724-796-3611
Lcb Trucking,386 Thunder Circle,Bensalem,PA,19020,267-560-5838
David E Wilsey Transportation,58 South Main St,Quakertown,PA,18951,267-261-0017
Keiser Trucking,307 Dahlia Road,Lancaster,PA,17602,717-399-8490
Eastern States Direct Delivery,217 East Eleanor Street,Philadelphia,PA,19120,215-457-1850
A & G Battle's Expedient Transportation Services,1917 Cook Avenue,Erie,PA,16510,814-897-1827
Caltagarone Sales And Service,364 Dickey Rd,Reynoldsville,PA,15851,814-653-2033
Leasure Trucking,17 East Fourth Ave,Everett,PA,15537,814-652-9182
Baker Transport,638 Rolling Stone Road,Kylertown,PA,16847,814-345-4257
P N D Trucking,10406 Horse Valley Road,East Waterford,PA,17021,717-734-2004
Milcreek Enterprises,926 Sr 49 West,Ulysses,PA,16948,814-848-9944
"Manspeaker Excavating & Trucking, Inc.",989 Manspeaker Rd,Saxton,PA,16678,814-635-2300
Patiala Transport,Hc1- 1338 Route 115,Blakeslee,PA,18610,732-921-9197
Z B S Delivery Service,2200 Griffith St,Philadelphia,PA,19152,267-257-2019
C & S Trucking,612 S Howard St,So Williamsport,PA,17702,570-322-6443
Bt Trucking,2039 Walnut Street Apt 2,Holmes,PA,19043,610-476-0207
Greco Distributing,40 Rolling Acres Road,Mansfield,PA,16933,570-662-7652
Ariel Asson,941 Granite St,Philadelphia,PA,19124,267-784-2915
J K Transport,25926 Lake City Road,Ridgway,PA,15853,814-772-4864
R R U Jr Trucking,1332 Stitzer Rd,Pitman,PA,17964,570-648-2389
M-n-m Mobile Transport,3133 Heathville Ohl Road,Summerville,PA,15864,814-227-4074
T & D Trucking,228 Silo Road,Shickshinny,PA,18655,570-256-9012
Interstate Transport & Repair,1515 Clintonville Rd,Harrisville,PA,16038,814-786-7434
Blanks Moving & Storage,619 Spruce St,Reading,PA,19602,610-375-1631
Wareham Trucking,135 W Main Street,Mount Jewett,PA,16740,814-778-6135
Bay Trucking,2022 Jason Dr Unit B,Huntingdon Valley,PA,19006,215-354-1560
J And B Trucking,144 Lumber,Littlestown,PA,17340,401-984-4477
A F Trucking,3624 N Marshall St,Philadelphia,PA,19140,267-506-9079
Jcyc Trucking,Rr2 Box 124c Vans Beach,Meshoppen,PA,18630,570-833-1693
Seymour Trucking,Rr 2 Box 171a,Rome,PA,18837,570-395-0957
"K&m Trucking, Inc.",33 Dieter Ave,Morrisville,PA,19067,267-808-1863
Johnson Transportation,5715 Atkins Ave,Bristol,PA,19007,215-785-0824
Cordell Transport,10924 Burkett Road,Greencastle,PA,17225,717-593-0081
Advanced Auto Tech,674 Johnsons Mill Road,Needmore,PA,17238,717-294-6399
L M M Trans,405 School Road Apt 1,Denver,PA,17517,717-823-1618
Hollenshead Transport,1383 Lancaster Road,Manheim,PA,17545,717-664-0012
Gm Panicker's Tours & Travel Service,7606 Castor Avenue,Philadelphia,PA,19152,215-342-7075
G&d Express Delivery,260 Manor Drive,New Oxford,PA,17350,717-870-2301
Lee Harrison Trucking,45 Smith Road,Equinunk,PA,18417,570-493-0095
Eduard Safroniy,125 West Street Road,Feasterville,PA,19053,718-646-1830
Milford E Stevens Trucking,254 Mcbride Rd,Harrisville,PA,16038,724-504-7979
Drace Trucking,611 Turnpike Road,Elizabethtown,PA,17022,717-367-6065
Cliff Miller Trucking,26 Park St,Unioncity,PA,16438,814-438-2165
Dunmore Repair & Sales,101 St Rt 92s,Tunkhannock,PA,18657,570-836-9600
Sam's Trucking,13790 Molly Pitcher Hwy Lot #7,Greencastle,PA,17225,717-404-1212
"Patriot Collision Center, Inc.",60 State Street,Hamburg,PA,19526,610-562-9411
Pioneer Auto-brooklynn Trucking,3896 Pittsburgh Rd,Perryopolis,PA,15473,724-323-3659
Chess Enterprises,168 Chess Mine Road,Dillner,PA,15327,724-943-3279
Resovia Express,123 Old Forge Dr,Bath,PA,18014,610-837-0455
Richards Auto,8900 Roosevelt Blvd,Philadelphia,PA,19115,215-901-0618
C & G Auto LLC,1239 Arendtsville Road,Biglerville,PA,17304,717-677-9833
Fox Trucking,746 Butler Road,Everett,PA,15537,814-735-2763
Baldwin & Son Auto Transport,415 School House Road,Stoystown,PA,15563,814-893-5095
Mid-atlantic Independent Tech Services,2978 Homestead Rd,Mount Joy,PA,17552,717-492-9894
Heffelfinger Hauling,409 West 37th Street,Reading,PA,19606,610-406-9732
Cruz Trucking,1320 Cumberland Street,Lebanon,PA,17042,717-274-8592
Lmk Trucking,278 Dallas Drive,Grantville,PA,17028,717-469-2982
Allen Bowers Trucking,241 Spruce Road,Confluence,PA,15424,814-395-3746
B W Shaffer Trucking,144 Center St,Milton,PA,17847,570-742-4267
"Houseal Transport, Inc.",170 Coffee Goss Rd,Maytown,PA,17550,717-426-4323
Technical Electrical Services LLC,119 Acacia Drive,Bridgeville,PA,15017,412-221-2080
Bricker Transport,306 East Main Street,Carnegie,PA,15106,708-249-8034
Lrw Hauling,2682 York Rd,Gettysburg,PA,17325,717-253-7702
Rivera Trucking,723 S 60th St,Harrisburg,PA,17111,717-856-5547
Clemens Tire Auto,651 Salfordville Rd Box 152,Ledereach,PA,19450,267-446-0903
Lubas Transport,244 Nandina Plaza 1st Floor,Morrisville,PA,19116,609-510-1508
T S I,607 Wayland Rd,Plymouth Meeting,PA,19462,610-940-9899
Mizzentop Exs,1409 Beaver Valley Pk,Refton,PA,17568,717-786-8809
Simz Trucking,160 Pleasant Street,Bradford,PA,16701,814-368-6173
Foxes Hauling,327 High Street,Milton,PA,17847,570-742-8900
Elmo Transport,126 Krape Ln,Bellefonte,PA,16823,814-280-2479
Brubaker Transport,9588 Fort Robinson Rd,Ickesburg,PA,17037,717-275-5124
George Haines Transportation,32 Richcreek Ridge Lane,Landisburg,PA,17040,717-789-4406
Zimmerman's Auto Wrecking,383 Sr 1018,Kittanning,PA,16201,724-545-7102
Wallace Trucking Service,41 Hemlock Lane,Leola,PA,17540,717-471-1341
M R Trucking,948 Old Bethlehem Road,Quakertown,PA,18951,215-538-7133
Fma,102 Commerce Drive,Montgomeryville,PA,18936,267-646-2470
H&m Movers,6524 Tulip St,Philadelphia,PA,19135,215-333-4145
Cygnus Trucking,1115 Branchton Road,West Sunbury,PA,16061,724-290-2188
J&b Aikens Transport,500 Harrison St,Clymer,PA,15728,724-254-2049
Resseguie Explosive Services,3 Cottage Lane,Harford,PA,18823,570-434-2201
Kumi Hauling Company,737 Blue Mountain Lake,E.stroudsburg,PA,18301,570-422-1095
Baglier Racing,248 Pittsburgh Road,Butler,PA,16001,724-283-7400
Whitmer Transport,45 Idle Road,Marysville,PA,17053,717-957-2553
Biglerville Auto Transport,23 Maple Ave,Biglerville,PA,17307,717-677-4627
Ambassadors Moving,12325 Academy Rd,Philadelphia,PA,19154,215-632-3535
Night Moves Motor Sports,Rr # 2 Box 92,Bushkill,PA,18324,570-588-3587
L Torres Deliveries And Moving Company,2028 Beligh Avenue,Philadelphia,PA,19152,267-987-9928
J & V Trucking,209 Buckeye Drive,Mcconnellsburg,PA,17233,717-485-4057
Greely Trucking Company,58 Wotring Rd,Washington,PA,15301,724-288-0961
P&f Installations,119 S Hartman Street,York,PA,17403,717-586-3512
Hals Hauling,30 Mini Dr,Halifax,PA,17032,717-362-1040
Jms Trucking,851 River Road,Dawson,PA,15428,724-529-2384
Aaron Transport,1037 Chestnut Level Road,Quarryville,PA,17566,717-278-8498
Jake's Auto Exchange,645 East Main Street,Annville,PA,17003,717-867-2946
Daddy's & Daughters,5924 Devon Place,Philadelphia,PA,19138,215-852-9625
Day Transport,398 Jay Lane,Mountville,PA,17554,717-285-9177
Cool Runnin Refrigerated Logistics,320 B Northgate Drive,Warrnedale,PA,15086,724-935-4598
Rkb Trucking,605 Dorey Street,Clearfield,PA,16830,814-768-3516
R A Kidd Transportation,404 Bridge Street,Selinsgrove,PA,17870,570-374-0618
Tobys Trucking & Hauling,120 Hilltop Dr,Chambersburg,PA,17201,717-264-6691
Farley's Industrial Services,818 W Spring Street,Titusville,PA,16354,814-827-2721
Expediting Logistics,1414 Calcon Hook Road,Sharon Hill,PA,19079,610-583-0124
Ricks Truckin,2056 Wayne Rd,Chambersburg,PA,17201,717-261-5746
Z Serafin,1166 Plowshare Road,Blue Bell,PA,19422,610-279-6906
H T S Airport And Sedan Service,3049 Brighton Rd,Pittsburgh,PA,15212,412-732-9450
Pilot Air Freight,744 Roble Road Suite 120,Allentown,PA,18103,610-264-8777
Rwm Trucking,Box 92 Driftwood Terrace,White Deer,PA,17887,302-629-5090
C D White Trucking,4653 Bossler Road,Elizabethtown,PA,17022,717-361-9877
E&e Materials Handling,1310 Main Street,Crescent,PA,15046,540-373-5839
D P Miller Distributing,7289 Park Drive,Bath,PA,18014,610-837-2843
C O Laver Transport,920 Louisa Street,Williamsport,PA,17701,570-322-2331
John L Wilson Delivery,64 Long Meadow Rd,Royersford,PA,19468,610-792-1780
Leelee Transport,Pmb371/45 E City Line Ave,Bala Cynwyd,PA,19004,215-224-8196
Hawley Hauling,1332 Main St,Bradford,PA,16701,814-362-7331
Lehman Trucking,5120 Grubb Road,Erie,PA,16506,814-833-8161
Hassinger Transport,9488 Rt 35 Apt 1,Mt Pleasant Mills,PA,17853,570-539-2508
Rivers Edge Trucking,138 Main Street,Catawissa,PA,17820,570-356-7166
Alm Transportation,1400 N 16th St Bldg A Apt A8,Philadelphia,PA,19121,215-681-8710
Hb Trucking,2464 Madison Avenue,Bethlehem,PA,18017,610-867-2885
"Frey's Log Hauling, Inc.",4084 Williamson Trail,Liberty,PA,16930,570-324-6446
Pegasus Chaffeured Motorcars,6030 Bunkerhill Street,Pittsburgh,PA,15206,412-441-4000
Milena Trucking,1328 Greeby Street,Philadelphia,PA,19111,215-704-1188
"Michael J Lavigne Enterprises, Inc.",853 Spring Hill Rd Bldg D ,Sterling,PA,18463,570-457-3252
Mccoy Trucking,Rd 1 Box 321,Commodore,PA,15729,724-254-2949
Glenn E Fulmer Trucking,1175 W Swartzville Road,Reinholds,PA,17569,717-336-7461
Samuel B Alcott Trucking,766 W Newton Rd,West Newton,PA,15089,724-872-5865
Robby Belotti Trucking,744 Brandy Camp Road,Kersey,PA,15846,814-885-6743
Paul K Frisbie Trucking,81 Powderly St,Carbondale,PA,18407,570-282-4140
M J Transport,445 Hoover Road,Schellsburg,PA,15559,814-733-4436
William C Bell,Rd 2,Knox,PA,16232,814-797-2501
Sigmund Transfer Company LLC,2606 Fifth Ave,Mckeesport,PA,15132,412-664-7637
Haas Brothers Trucking,350 Arnold Rd,Jermyn,PA,18433,570-282-3694
John G Hall Trucking,524 Lancebark St,Trevose,PA,19053,215-396-0916
Grygo Trucking,2618 Pearl Ave,Erie,PA,16510,814-899-6945
Fantanarosa Transport,900 Scott St,Kulpmont,PA,17834,570-373-1353
Roger Jenkins Trucking,118 Highland Drive,Industry,PA,15052,724-643-4862
Eckman Transport,102 Grubbs Corner Road,Peach Bottom,PA,17563,717-548-4041
Miller Trucking,129 North Center Street,Fredericksburg,PA,17026,717-865-3929
William E Monahan Trucking,203 Beal Rd,Dilliner,PA,15327,724-943-3721
Roxberry's Trucking,115 Chevy Chase St,Cochranton,PA,16314,824-425-1157
Kab Trucking Company,530 East St,Bloomsburg,PA,17815,570-387-6225
"Agent Of United Van Lines, Inc.",316 Finley Rd,Belle Vernon,PA,15012,724-929-9208
Blasko Trucking,1725 Howell Street,N Versailles,PA,15137,412-829-7517
Jabez Trucking,719 N Temple Blvd,Temple,PA,19560,610-929-5037
Smith Trucking,6438 N 16th St,Philadelphia,PA,19126,856-546-5130
Big B Trucking,120 Center Street,E Stroudsburg,PA,18301,570-476-1641
Wayne Stauffer Trucking,16767 Rte 8,Union City,PA,16438,814-438-2999
Fields Transport,202 Chase Ave,Hallstead,PA,18822,570-879-5351
Sns Trucking,64 W Hartford Street,Ashley,PA,18706,N/A
Cm Trucking,185 Hollow Road,New Providence,PA,17560,717-786-9233
B & B Express,Box 243 Rt 42 North#14189,Eagles Mere,PA,17731,570-525-3332
Harry Sutton Trucking,Rd #5 Box 77b,Montrose,PA,8801,570-934-2857
J S Hauling,637 E Airy St,Norristown,PA,19401,610-272-4470
Jim Kearns Trucking,140 Girard Ave,North Hills,PA,19038,215-887-5092
Sunday Trucking Jr,427 Cortez Road,Lake Ariel,PA,18436,570-689-5727
Delivery Svc,280 Linton Hill Rd,Duncannon,PA,17020,717-834-6856
J & B Barthold Trucking,9 Sycamore Dr,Bath,PA,18014,610-746-1826
M & R Trucking,204 Marienstier Rd,Upper Black Eddy,PA,18972,610-847-8783
Neare Trucking,137 William St,Pittston,PA,18640,570-655-3504
Garner Trucking,110 Garner Lane,Boyers,PA,16020,724-735-2887
Anthonys Feed Service,45193 Farrington Rd,Spartansburg,PA,16434,814-827-9354
"Scat Transport, Inc.",841 Painter St Ext,Everson,PA,15631,724-887-7948
David W Pasteryk Trucking,122 Melrose Ct,Bridgeville,PA,15017,412-221-3523
White Dove Trail Trucking,25 Canada Run Rd,Wellsboro,PA,16901,570-724-7075
T Shaffer Trucking,332 Elk Run Ave,Punxsutawney,PA,15767,814-938-9227
Susan K Johns Trucking,2650 Manor Dr,Ford City,PA,16226,N/A
Jaros Trucking,1214 Zook Road,Atglen,PA,19310,610-593-5197
Rgj Trucking,1544 Long Lane,Millersville,PA,17551,717-871-3245
P T Trucking,195 Shirls Ave,Washington,PA,15301,724-225-8213
Phelps Trucking,440 Chester Pike,Crumlynne,PA,19022,610-521-9473
Rusciolelli Transport,Rd 1 Box 19 B,Luthersburg,PA,15848,814-653-2007
Gap Auto Transport,5749 Lincoln Hwy,Gap,PA,17527,717-442-4643
Jc's Trucking,1332 Bicycle Road,Stoystown,PA,15563,814-520-3097
D Gorton Trucking,945 1/2 Jackson Ave,Warren,PA,16365,814-726-0660
Mccormick Lines,85 Griffith Rd,Muncy,PA,17756,570-546-5921
D A Harkless Trucking,R D 1 Box 360,Seneca,PA,16346,814-676-1890
Lee Trucking,R R 1 Box 110b,Granville Summit,PA,16926,570-364-5236
K & S Trucking,210 Pine Creek Road,Kempton,PA,19529,N/A
"Russell Enterprise Transportor, Inc.",209 Rock St,Hughestown,PA,18640,570-654-5943
Barry L Crespos Transport Ltd,13 Birdsfoot Dr,Robesonia,PA,19551,610-693-8045
R A Gross Trucking,100 Evans Rd,Pottstown,PA,19464,610-367-8937
J & S Trucking,22506 S Hickernell Road,Conneautville,PA,16406,814-587-3986
J & A Trucking,2713 W Albert St,Philadelphia,PA,19132,215-882-1703
Caballero Delivery Service,169 W Thayer St,Philadelphia,PA,19140,267-608-0011
Meredith Trucking,4 N Market St,Elysburg,PA,17824,570-672-9816
A & M Trucking,208 Academy Ave,Glenolden,PA,19036,610-583-5188
"R A Rudisill Trucking & Excavating, Inc.",1281 Red Hill Rd,New Oxford,PA,17350,717-624-3416
Bova Trucking,Rr 1 Box 17,Roulette,PA,16746,814-544-7401
Sharlee Trucking,745 Market Street,Bellefonte,PA,16823,814-353-8347
Donald Swift Trucking,Box 101,Rixford,PA,16745,814-465-3261
M & T Trucking,228 Poplar Creek Rd,Effort,PA,18330,570-851-5259
Winans Trucking,132 Random Road,Corry,PA,16407,814-664-2118
Windytown Transport And Service Co,932 West Main Street,New Holland,PA,17557,717-556-0519
Advanced Transfer,820 Route 910,Cheswick,PA,15024,412-828-1958
J C Transportation,521 Five Pointville Road,Denver,PA,17517,717-445-6143
"Ray & Roe Corrigan Trucking Co, Inc.",1000 Scott Street,Wilkes Barre,PA,18705,570-832-8955
Perkins Trucking,Rd 1 Box 1268,Shinglehouse,PA,16748,814-698-2208
Todd's Transport,46 Limestone Estates,Milton,PA,17847,570-437-3669
Icb Trucking,1041 St Rt 288,Fombell,PA,16123,724-758-7488
Fantasia Machinery Transport,1251 Big Sewickley Creek Road,Sewickley,PA,15143,724-266-2620
Paul Hughes Trucking,252 Wharton Rd,Farmington,PA,15437,724-438-1875
"Oneill Moving, Inc.",1012 E Schuyikill Rd,Pottstown,PA,19465,610-996-1883
M Stauffer,2 Greenfield Drive,Paradise,PA,17562,717-442-8046
Phoenix Movers,2 Beechwood Lane,Yardley,PA,19067,877-445-9795
Paul E Nauman Trucking,Clark Rd Box 3253,Cresco,PA,18326,570-595-3417
"Tolbert Trucking, Inc.",669 Stouffer Ave,Chambersburg,PA,17201,717-264-6120
C M Gee Trucking,Po Box 1083,Dubois,PA,15801,814-672-5895
Mac's Auto Company,220 Market St,Nanticoke,PA,18634,570-735-1471
James R Harding Trucking,Rr2 Box 4b,Higins,PA,17938,570-682-9714
Jay's Trucking,122 Colleen Dr,Blakeslee,PA,18610,570-814-6781
Holtry Transport,13509 Cumberland Hwy,Orrstown,PA,17244,717-530-8350
Shadle Trucking,244 Schwenks Road,Hegins,PA,17938,570-617-8087
Bob Smith's Auto,15 North St,Meyersdale,PA,15552,814-634-5741
A.c. Hess Trucking ,295 Ore Mine Rd ,Mount Joy,PA,17552,717-945-3997
Lefever Transport,14 Thornapple Drive,Marietta,PA,17547,717-426-1442
Deluxe Delivery,35 East 1st St,East Stroudsburg,PA,18301,570-424-1070
Belford Transport,11 Spring Hill Rd,Sterling,PA,18463,570-689-3748
Mark D Hammersla Trucking,340 Kohler Mill Road,New Oxford,PA,17350,717-624-4879
Rick Emig Trucking,121 Cashman Rd,Gettysburg,PA,17325,717-337-9367
Scott Post Trucking,9693 German Rd,North East,PA,16428,814-431-5058
Woodall Trucking,216 Lincoln Ave Extension,Charleroi,PA,15022,724-483-6266
Rhodes Trucking,116 Stone Creek Rd,Huntingdon,PA,16652,814-641-9435
P & H Express,802 Matilda Ave,New Castle,PA,16101,N/A
Maze Trucking Co,R D #1 Box 184a,Pittsfield,PA,16340,814-563-3262
Hard Labor Trucking,R R 1 Box 198,Wyalusing,PA,18853,570-746-9180
Chaapel Trucking,Rr3 Box 7936,Canton,PA,17724,570-673-8836
A&b Transportation,303 Sharon Dr,Hookstown,PA,15050,724-624-6090
Holderman Trucking,Hcr 01 Box 25a6,Alexandria,PA,16611,814-832-0087
Poist Trucking,5435 Carlisle Pike,New Oxford,PA,17350,717-624-0446
Valley Transportation,905 Harrison St Ste 104-c,Allentown,PA,18103,610-709-0951
R E Mapes Trucking,Box 169 Industrial Rd,Mifflintown,PA,17059,717-436-8305
"Macsween Trucking, Inc.",2729 Sumner St,Natrona Heights,PA,15065,724-681-7704
Lefever Transport,14 Thornapple Drive,Marietta,PA,17547,717-426-1442
Nyman's Trucking,82 Lizardsville Road,Mill Hall,PA,17751,570-726-4466
Ort Trucking Company,3040 Solar Drive,Dover,PA,17315,717-792-5448
A Model Express,176 Copeline Road,Philipsburg,PA,16866,814-342-7699
Taraba Trucking,206 Railroad St,Mcdonald,PA,15057,724-926-4027
Phelps Transport,4320 S Washington Street,North East,PA,16428,814-725-3133
Amey Trucking,840 St John Street,Allentown,PA,18103,610-349-7426
Ray Achey Hauling,Rr 6 Box 6851,Saylorsburg,PA,18353,570-992-2148
S L Presley,11251 Anthony Highway,Waynesboro,PA,17268,717-765-8054
G & D Express,Quarry Rd,Middleburg,PA,17842,570-837-6633
Rwm Trucking,762 Mt Cydonia Rd,Fayetteville,PA,17222,717-352-2423
Scott A Sportelli Trucking,1060 A Island Park Rd,Easton,PA,18042,610-253-3790
Spurlock Transport,603 Spring Ct,Abbottstown,PA,17301,717-259-1465
Hartranft Trucking,129 Springhaven Road,Newmanstown,PA,17073,717-949-6955
D & L Trucking,671 Clairmont Avenue,Schuylkill Haven,PA,17972,570-385-1410
Schmouder's Trucking,1954 Rt 287,Morris,PA,16938,570-850-8143
Natale Trucking,517 W Poland Rd,Bessemer,PA,16112,724-667-9639
Sam Schwalm Trucking,605 East Main Street,Hegins,PA,17938,570-617-8723
Kenny Kautz Trucking,27 Sunflower Drive,Ephrata,PA,17522,570-752-7367
Gtx Trucking,1266 Elevebth Ave,Natrona Heights,PA,15065,724-226-8509
Smiley Services,20 Martin St,Donaldson,PA,17981,570-695-0971
"Craig Martin's Paving, Inc.",50 Waterview Dr,Glenmore,PA,19343,610-642-8900
Vic Catalano Trucking,1124 Morton Avenue Apt A,Chester,PA,19013,610-876-4686
M & R Trucks,518 Noble Road,Atglen,PA,19310,610-273-9715
J And E Trucking,7923 Sleepy Hollow Dr,Tobyhanna,PA,18466,570-894-1225
R & H Trucking,177 Mechanic St,Salisbury,PA,15558,800-257-9174
"Lj's Trucking, Inc.",1139 W 29th St,Erie,PA,16508,814-866-0831
H H Transport Rigging Co,Box 111 Reckner Road,Salisbury,PA,15558,814-662-2169
Muir's Trucking,16375 Stewart Road,Centerville,PA,16404,814-827-4280
Ricky Ingram Trucking,650 Lincoln Garden Road,Ephrata,PA,17522,717-733-7841
Mowry's Trucking,634 S Imler Valley Rd,Osterburg,PA,16667,814-276-9369
Kreiser Transport,749 Amelia St,Lebanon,PA,17046,717-270-1819
Frey's Express,550 Cleveland Ave,Chambersburg,PA,17201,717-709-9220
Dedicated Delivery Service,14 Hawthorne Road,Bradford,PA,16701,814-362-2701
M L M Trucking,300 Ridge Road #73,Etters,PA,17319,717-202-1333
Zaffino Transfer,3015 Pennsylvania Ave,Erie,PA,16504,814-455-1454
D & R Express,3934 Saint Marys Road,Wapwallopen,PA,18660,570-379-2531
C & F Trucking,3 Genoa Lane,Shavertown,PA,18708,570-823-0113
Palmer & Son Trucking,742 Fairfax Rd,Drexel Hill,PA,19026,610-259-1133
Bill Mead Heavy Hauling,Rr1 Box 121,Kingsley,PA,18826,570-434-2683
D & C Transportation,281 Derbytown Road,Latrobe,PA,15650,724-539-4514
Wes Cook Transport,188 Cramer Road,Normalville,PA,15469,724-455-7356
Just Rooster Cruisin Trucking Co,881 Yellow Hill Rd,Biglerville,PA,17307,717-677-8872
Gregory S Nicholas Transportation,10 Harvest Moon Pk,Linden,PA,17744,570-398-7046
Highpoint Trucking,6 Highpoint Dr,Saylorsburg,PA,18353,570-402-3930
Morningstar Transport,419 E Church Street,Stevens,PA,17578,717-355-5145
Ashcraft Hauling Co,146 Sassamarville Rd,Bilbertsville,PA,19525,215-783-3940
Akw Transport,438 Libby Rd,Millmont,PA,17845,570-922-1744
Seibert Trucking,1744 Easton Rd,Kintnersville,PA,18930,610-749-0427
Damar,1801 South 12th Street,Allentown,PA,18103,610-798-9444
Mighty Joe Young Trucking,4732 Roosevelt Blvd,Philadelphia,PA,19124,215-744-9786
Ostroff Trucking,2702 Washington Blvd,Liberty Boro,PA,15133,412-491-2333
C S T Charlie Schrecengost Trucking,245 Allegheny Boulevard,Brookville,PA,15825,814-849-0962
J & W Trucking,2481 Mickanin Rd,N Huntingdon,PA,15642,724-863-3933
Lowery Trucking,Rr 3 Box 300c,Meshoppen,PA,18630,570-833-5868
Cochran Trucking,Rr 1 Box 395c,Lock Haven,PA,17745,570-769-1624
Mmra Tranz-it Company,610 N Second St,Wormleysburg,PA,17043,717-648-6626
Arts Hauling,3359 Orefield Rd,Allentown,PA,18104,610-395-0558
Greg J Wolf Trucking,3378 A York Rd,Gettysburg,PA,17325,717-495-8157
Jeff Marsh Trucking,1878 Krunsville Rd,Lanhartsville,PA,19534,484-201-4130
Sandyme Trucking Co,178 E Overbrook Rd,Shavertown,PA,18708,570-675-5738
Nader Trucking,2172 Lake Rd,Cochranton,PA,16314,814-425-7703
Cmp Trucking Co,47 Beechtree Road,Levittown,PA,19057,215-943-5488
Laplante Transport,28 N Hellertown Ave,Quakertown,PA,18951,215-538-0360
Cricket's Trucking,395 Eighth Street,Selinsgrove,PA,17870,570-374-9408
Ken Herman Jr Trucking,166 Darby,Knox,PA,16232,814-797-1533
Bair Transport,110 Dogwood St,Bellefonte,PA,16823,814-280-7288
G L Bricker Transport,D 31 Forest Height,Butler,PA,16001,724-789-9702
Safko Trucking,368 Old Tire Hill Rd,Johnstown,PA,15905,814-288-4866
Bob Hunsicker Trucking,2764 Mountain View Drive,Bath,PA,18014,610-837-6427
Caton Trucking,Rd 2 Box 45b,Wysox,PA,18854,570-265-4530
Jlr Transport,400 Ramsey Rd,Breezewood,PA,15533,814-735-3996
"C L Records Jr Trucking, Inc.",471 Weber Rd,Clearfield,PA,16830,814-768-7874
Karns Trucking,Old Route 26 Box 325,Everett,PA,15537,814-652-9309
Kriner Trucking,52 Rural Avenue,Dubois,PA,15801,814-371-8396
Ferstermaker Trucking,56 S Church St,Macungie,PA,18062,610-965-3738
Hooper Trucking,348 S Wayne Street,Lewistown,PA,17044,717-247-2445
Oncour,1322 Phillippi Ave,Bethel Park,PA,15102,412-860-5658
Myers Trucking,660 Ridge Rd,Dillsburg,PA,17019,717-432-0435
Ballard's Auto Sales,13287 Blue Ridge Ave,Blue Ridge Summit,PA,17214,717-794-5807
Nudge Trucking,21 Eddie's Lane,Bloomsburg,PA,17815,570-784-2328
W & R Trucking,42637 Byler Dr,Titusville,PA,16354,814-827-2679
Rolling Rubber Transportation,1627 Methyl Street,Pittsburgh,PA,15216,412-341-1269
Schlegel's Services,301 E Knowles Ave,Glenolden,PA,19036,610-659-8688
Warpus Trucking,1018 Scenic Dr,Clarks Summit,PA,18411,570-585-0266
Wanner's Transport & Delivery,813 Nina Way,Warminster,PA,18974,215-672-8060
"J W Hess Site Services, Inc.",13 Colergo Drive,Douglassville,PA,19518,610-689-4595
Weaver's Ag Service,532 Centerville Rd,Newville,PA,17241,717-776-6772
Herbert's Auto Service,800 Kidder Street,Wilkes-barre,PA,18702,570-829-9380
Bill's Service LLC,592 Nazareth Pike,Nazareth,PA,18064,908-454-0602
W P Ogozaly Trucking,308 Main St,Vandling,PA,18421,570-281-9749
Always Trucking,Po Box 285,Cyclone,PA,16726,814-465-7767
Young Trucking,36 Walker Ave,Bradford,PA,16701,814-465-2325
G L Renn Transport,1507 Middle Rd,Middleburg,PA,17842,570-837-6146
Shenandoah Farms Trucking Div,Rd # 3 Box 314,Latrobe,PA,15650,724-423-5793
Ord's Otr Tire Service,867 Cardinal Lane,Lewisberry,PA,17339,717-979-9991
Green Hornet Express,4615 Darlington Rd,Yokr,PA,17404,717-792-2076
Daytime Transit,105 Rock Oak Lane,Greentown,PA,18426,570-857-9293
Ken Herman Trucking,166 Darby,Knox,PA,16232,814-797-1533
C E Davis Trucking,4527 Hopewell Heights Rd,Aliquippa,PA,15001,315-335-6416
H & B Trucking,254 Mudd Pike Rd,Markleysburg,PA,15459,724-329-5749
Vti Trucking,895 Walnut St Apt A10,Catasauqua,PA,18032,610-820-7670
Revere Express,2104 Oakmont Road,Havertown,PA,19083,610-446-0225
Team Service 112 Wholesale,264 Saw Creek Estates,Bushkill,PA,18324,570-588-4148
Ski's Trucking,H C I Box 1307,Blakeelee,PA,18610,570-972-7403
Lenz Trucking Co,507 West High Street,Ebensburg,PA,15931,814-242-3768
Harry Hildenbrand Trucking,960 Waltz Mill Rd,Ruffsdale,PA,15679,724-858-9102
Weavers Transport,5811 Wertztown Road,Narvon,PA,17555,717-351-0372
Keystone Transportation,1232 Chruch Street,Reading,PA,19601,610-236-0204
Meholic And Son Trucking,804 Thornhurst Rd,Gouldsboro,PA,18424,570-472-9564
Biggs Express,1610 Shenandoah Ct,Allentown,PA,18104,610-351-0786
Marques Family Trucking Co,607 E 12th St,Erie,PA,16503,814-459-5018
Four States Mobile Home Transport,150 Wilkson Lane,Fayettville,PA,17222,717-328-4975
Sipes Trucking,208 1/2 East Walnut Street,Mcconnellsburg,PA,17233,717-485-4396
M&m Xtream Hauling,Po Box 647,Hawley,PA,18428,570-857-0650
Larry G Snyder Sr Trucking,407 First St Box 155,Summerdale,PA,17093,717-732-3768
Lk Taylor Trucking,R D 3 Box 135,Clearfield,PA,16830,814-765-6326
"F&g Trucking, Inc.",5449 Belmar Terrace,Philadelphia,PA,19143,N/A
Extreme Transport,14948 Croghan Pike,Mt Union,PA,17066,814-542-2572
St Marys Auto Wreckers,1388 Million Dollar Hwy,Kersey,PA,15846,814-834-2089
Brown Transport,702 Rt 501 South,Newmanstown,PA,17073,717-949-3744
M R Benedek Trucking,Rd #2 Box 83a,Dubois,PA,15801,814-371-3961
Kenny Breidinger Truck,1504 North Blvd,Bethlehem,PA,18017,610-866-0167
M G M Trucking,Rr 1 Box 264 E,Wyalusing,PA,18853,570-237-1798
B & M Trucking Co,525 Greenwich Street,Wyomissing,PA,19610,610-373-1228
D & L Trucking,1286 East Earl Rd,East Earl,PA,17519,717-355-0016
Dave Reed Trucking,111 Littleton Drive,Hanover,PA,17331,410-340-0853
"C L Records Jr Trucking, Inc.",471 Weber Road,Clearfield,PA,16830,814-768-7874
N E B Kalp Trucking,Po Box 24 Rt 31,Acme,PA,15610,724-593-2080
Blitz Trucking,39952 Gilson St,Centerville,PA,16404,814-654-7284
Panther Express,102 Green Tree Dr,Schuylkill Haven,PA,17972,570-366-1076
Hopkins Trucking,1095 Whittier Ave,Andalusia,PA,19020,215-633-9563
A-class Luxury Transportation,1675 Wrightstown Rd,Newtown,PA,18940,215-860-8040
Bruce A Ray Trucking,Rd 2 Box 252aaa,Volant,PA,16156,724-533-5745
Koontz Trucking,400 Summit Ave,Johnstown,PA,15905,814-241-4196
Tls Trucking,39 Bohac Street,Swoyersville,PA,18704,570-283-2469
Appenzellers Trucking,50 Shawnee Trail,York Haven,PA,17370,717-266-9921
J & K Milk Transport,4853 Beaver Street,Springboro,PA,16435,814-587-3979
Glory Barn Trucking,Rr 2 Box 2756,Canton,PA,17724,570-673-5777
Chris Belles Trucking,41 Mcardle Rd,Sayre,PA,18840,570-888-0500
Megans Trucking,1549 Rodney Dr,West Chester,PA,19382,610-793-0659
Netmark Auto Sales,1602 Paxton St,Harrisburg,PA,17104,717-230-9490
Stanley Simon Trucking,1405 N Summer Ave,Scranton,PA,18508,570-689-5679
Vroman Trucking,North Water Street,Grover,PA,17735,570-998-2880
J E Robbins Trucking,1827 Hardscrabble Rd,Tioga,PA,16901,570-537-3483
Talon Trucking,6975 B New Oxford Rd,Harrisburg,PA,17112,717-540-7014
Kearney Trucking,851 Madisonville Road,Madison Township,PA,18444,570-842-1657
Aaron Lukens Trucking,R R 1 Box 89,Clearfield,PA,16830,814-762-8318
T F R Trucking,106 Goat Hill Rd,Masontown,PA,15461,N/A
First Dream Transport,5601 Turtle St,Bristol,PA,19007,N/A
"Burke Trucking, Inc.",467 W State St,Larksville,PA,18651,570-779-3405
Doolittle Digging,1756 Dime Road,Vandergrift,PA,15690,724-567-5873
J Mikloiche Trucking,Rt 92,S Gibson,PA,18842,570-756-5233
Etr Trucking,25 Berlin St,Codorus,PA,17311,717-229-2088
Abbs Transport,733 Newport Avenue,Gap,PA,17527,717-442-3773
Pascarella Trucking,233 Zackery Lane,Stillwater,PA,17878,570-864-2869
Panella Auto Repair,Rd 1 Box 363,New Calile,PA,16141,724-336-5015
Rpc,785 Race Track Road,Abbottstown,PA,17301,717-624-1794
Walls Family Hauling,544 Dauphin Street,Lancaster,PA,17602,610-384-0820
Freeman Transport,292 Dillon Rd,Acme,PA,15610,724-423-5696
Transpol,3823 Foxborough Court,Stroudsburgh,PA,18360,402-534-2253
Reitz Trucking,124 Church Street,Slatington,PA,18080,610-704-9726
Minchoff Trucking,202 West Penn Street,Schuylkill Haven,PA,17972,570-385-2330
J F Transport Trucking,1816 Sharon Rd,Meadowbrook,PA,19046,215-882-3683
Charles G Schwartz Jr Trucking,6417 Hawthorne St,Philadelphia,PA,19149,215-543-0628
"Brunecke Trucking Co, Inc.",Rd 3 Box 968,Saltsburg,PA,15681,N/A
Mast Cattle Hauling,2825 Best Road,Morgantown,PA,19543,610-913-8482
Robert E Sprankle Trucking,181 Boyd Street Po Box 124,Blandburg,PA,16619,814-687-3260
Sprague Trucking,200 Hughes Avenue,Sellersville,PA,18960,215-631-2432
Empty Pockets Trucking,Rd 5 Box 5513,Saylorsburg,PA,18353,570-992-5165
Mt Trucking,1503 S Jefferson St,Allentown,PA,18103,N/A
Rv Transportation,18 S Funk Rd,Boyertown,PA,19512,610-473-8231
D X Transport,853 Montgomery Ave Rear,Narberth,PA,19072,610-667-1845
B K Trucking,117 N Eagle Rd Ste 205,Havertown,PA,19083,610-446-4930
Shaffers Transfer,513 Old Lincoln Highway,Stoystown,PA,15563,814-893-6176
Yeleti M Paul,172 Sunny Brook Rd,Limerick,PA,19468,484-744-2966
D A Leister Trucking,1101 Miller Rd,Pottstown,PA,19465,610-970-0312
The Truck Shop,360 Manor Street,York,PA,17403,717-854-8570
G R Brinkley Trucking,3210 Buffalo Rd,Erie,PA,16510,814-898-2734
P & S Trucking,1496 Oak Drive,Macungie,PA,18062,610-737-6996
York County Automotive,141 South Main Street,Jacobus,PA,17407,N/A
L W Montgomery Trucking,228 Hurley Road,Coatesville,PA,19320,610-384-6675
Mackenzie Vending Services,719 E Washington St,Allentown,PA,18109,610-820-9600
St Seafood Delivery,2435 Jasper Street,Philadelphia,PA,19125,610-444-1464
Joe Otto Trucking,10942 West Law Rd,North East,PA,16428,814-725-1532
Bob Groff Trucking,2401 Scenic Drive,Manheim,PA,17545,717-665-5246
Angela Lebron Transport,157 W High St,Womelsdorf,PA,19567,610-589-1852
Hindman Hauling,127 Hindman Lane,Butler,PA,16001,724-848-1035
M & K Transport,98 Homestead Road,Grantville,PA,17028,717-469-1802
S D Morrow Trucking,Rd 1 Box 266f,Loysville,PA,17047,717-789-4920
Brenek Truck & Transport,35045 Crowpher Road,Titesville,PA,16354,814-827-0286
J Herron Trucking,512 Riverview Village,West Pittston,PA,18643,570-388-2537
Dagmar Trucking,Box 158 Hickory Hills,White Haven,PA,18661,508-862-0100
Twc Trucking,102 James Street,Quakertown,PA,18951,215-536-9089
Richard P Smiley Trucking,R R 2 Box 331a,Kunkletown,PA,18058,610-381-2955
R C L Trucking,2300 S Delaware Dr,Easton,PA,18042,610-250-5891
Conrad Trucking,3118 Ridge Ave,Aliquippa,PA,15001,724-378-8449
Rlr Trucking,386 Battleground Hollow Rd,Everett,PA,15537,814-735-2575
Pat's Auto Service,1501 New Hope St,Norristown,PA,19401,610-279-9018
Ortiz Trucking,6662 Algar St,Philadelphia,PA,19135,N/A
David Schlessinger Trucking,149 Grouse Rd,Elizabeth,PA,15037,412-673-9000
Ats Transportation Systems,1514 Lincoln Way Suite 203,White Oak,PA,15131,412-664-1720
B & D Trucking,2635 Leitersburg Rd,Waynesboro,PA,17268,717-593-9757
J E Swope Trucking Co,1799 Farmington Ave,Pottstown,PA,19464,610-326-2104
Speedway Express,J & J Road,Hamlin,PA,18427,570-689-4904
American Wireless Transport,1421 Fallowfield Avenue,Pittsburgh,PA,15216,412-366-7317
"Shani Transport Company, Inc.",718 Folk Street,Easton,PA,18042,610-330-9826
Kj Auto Transport,3753 Lankenau Road,Philadelphia,PA,19131,207-257-5300
Parks Trucking,1417 N River Rd,Grantville,PA,17029,717-242-0471
Beck's Transfer,Rich Valley Road R.d. #1 Box 421,Emporium,PA,15834,814-486-5005
J&l Trucking,326 Pine Court,Bensalem,PA,19020,215-633-1583
Raystown Transit Service,9071 Old Route 22,Huntingdon,PA,16652,814-669-4999
Tomak Transport,439 Jackson Rd,Ulysses,PA,16948,814-848-7681
Chapman Trucking,851 Medisonville Rd,Madison Twp,PA,18444,570-842-1657
George's Auto Sales,Route 54 Box 1267,Barnesville,PA,18214,570-467-3401
Expressims In Art,821 W Main St,Carnegie,PA,15106,412-278-3374
Lar Transportation,1216 Red Bridge Road,Gettysburg,PA,17325,717-337-2029
J & H Transport,27 N 7th Ave,Coatesville,PA,19320,570-842-6728
Tiger Auto,1548 Dickson Ave,Scranton,PA,18509,570-347-4202
Canaan Express,5030 Spruce Park,Lebanon,PA,17046,856-307-0066
Wilson's Service Center,164 W 4th St,Lewistown,PA,17044,717-242-3992
Reesman Trucking,114 Sipes Rd,Freeport,PA,16229,724-295-3258
R C Transportation,418 Blandon Road,Fleetwood,PA,19522,610-944-8967
Down Home Trucking,452 W Main St,Walnut Bottom,PA,17266,717-530-5056
Troy A Sensenig Trucking,719 Narvon Road,Narvon,PA,17555,717-768-7339
Fink Trucking,108 Cowell Avenue,Oil City,PA,16304,405-942-2586
Wld Trucking,6144 Osage Ave,Philadelphia,PA,19143,215-748-2139
Mike's Delivery Service LLC,3476 W Columbia St,Whitehall,PA,18052,610-439-5144
Goodwill Truck Lines,2791 Dunn Valley Rd,Waterford,PA,16441,814-864-1113
Rem Trans,Bucksy Rd 857,Middleburg,PA,17842,570-837-1006
Steve Mooney Trucking,104 Westside Ave,Leghighton,PA,18235,610-377-5310
Dietrich Trucking,171 N River Drive,Jamestown,PA,16134,724-932-3036
"Rcg Trucking Line, Inc.",940 South Side Ave,Pittsburgh,PA,15212,412-812-6416
Bozzman Trucking,332 New Bloomfield Rd,Duncannon,PA,17020,717-756-5359
Das,231 West Johnson St,Phildelphia,PA,19144,215-848-0401
J & D Transportation,7 West Carson Street,Canton,PA,17724,570-673-3663
Ken Heisey Trucking,1910 Sanctuary Road,Manheim,PA,17545,717-665-0627
Zimmerman Trucking,33 Union Street,Schuykill Haven,PA,17972,570-385-9160
Nts,2150 Rosedale Rd,Quakertown,PA,18951,215-529-5380
Shamrock Food Distributors,2799 Murray Ave,Bensalem,PA,19020,215-639-0998
Frangipani Auto Sales,122 S Gun Club Road,Oliver,PA,15472,724-438-4954
Exhaust Hood Depot Com,214 Church Street,Hustontown,PA,17229,814-515-3983
"Thunder Transport, Inc.",1741 Langhorne Yardley Rd,Lanhorne,PA,19047,215-752-1171
Spickler Trucking,199 Blue Juniata Drive,Lewistown,PA,17044,717-248-1001
Jovenall Farms & Transport,340 Wozniak Rd,Mercer,PA,16137,724-946-8226
Cline Transport,504 North Ave,Midway,PA,15060,724-796-5901
North Penn Transportation,2750 Morris Rd,Lansdale,PA,19446,610-584-7993
J & T Transportation,Rr 1 Box 526,Warren Center,PA,18851,570-395-0113
The Autoworks,723 South Broad Street,Lititz,PA,17543,717-625-7177
R & J Fey Trucking,864 Deep Creek Rd,Ashland,PA,17921,570-682-3914
Todd R Kahley Trucking,73 Naginey Road,Milroy,PA,17063,717-667-2038
F&f Mobile Home Service,654 S Scrubgrass Road,Imler,PA,16655,814-784-9999
K L Ayers,1182 Long Run Rd,Schuylkill Haven,PA,17972,570-739-1046
Tucker Transport,19 Seeley Road,Tafton,PA,18428,570-226-5175
Rekar Trucking Co,5 Benson St,Clarendon,PA,16313,814-723-5893
S P Papay Trucking,7852 N 7th St,Slatington,PA,18080,610-760-0596
Ricky Oakley Trucking,26334 State Rt 29,Hallstead,PA,18822,570-967-2862
United Transport Services,764 Cold Spring Rd,Elizebethtown,PA,17022,717-664-4545
Ta Trucking,426 Wray Large Rd,Clairton,PA,15025,412-461-9183
Sr Coacher Transportation,104 W Hathaway Lane,Ardmore,PA,19003,610-645-8350
Jp Transport,Rr 1 Box 680,Blain,PA,17006,717-536-3857
Fryer Trucking,111 Glendale Rd Rd 3 Box 488b,Beaver Falls,PA,15010,724-843-7305
Eddie Hills Express Trucking,4238 Shelmire Ave,Philadelphia,PA,19136,215-624-9424
Becker Hauling,271 Shadow Oaks Lane,Waynesburg,PA,15370,724-627-0303
Rheem Supply,900 Calcon Hook Road,Sharon Hill,PA,19079,610-461-7180
Blair Transport LLC,838 East 15th St,Chester,PA,19013,610-357-6817
D A D Trucking,30 Druckemiller Drive Rd #1,Mcclure,PA,17841,717-543-5402
Zimmy's Auto & Equip Transport LLC,140 Ivy Drive,Manchester,PA,17345,717-266-4939
Simmers Trucking,Rr 2 Box 77d,Mehoopany,PA,18629,570-833-2106
Dean Rhodes Trucking,5140 Carlisle Pike,New Oxford,PA,17350,717-624-6139
J Gaines Trucking,771 Smylie Rd,Philadelphia,PA,19124,215-743-1848
Pine View Trucking,350 Nottingham Road,Nottingham,PA,19362,717-529-2855
J J S Trucking,R R 1 Box 18,Milan,PA,18831,570-888-1647
Nipro Services,48 Rose St,Feasterville Trevose,PA,19053,215-322-6751
Rocs,1267 Belden Road,Bedford,PA,15522,814-624-5170
D Mcintyre Transport,610 Gardner Center Rd,New Castle,PA,16101,724-657-1964
Dan Hornung Transport,794 Carberry Rd,Brookville,PA,15825,814-590-3057
D & S Trucking,Rr 6 Box 6861c,Saylorsburg,PA,18353,570-992-4892
Faithful Trucking,3360 Chichester Ave Apt K15,Boothwyn,PA,19061,443-415-4220
"Penn Jersey Courier Service, Inc.",3569 Bristol Pike Bldg 2,Bensalem,PA,19020,215-244-1010
Jaguar Tico Transportation Company,6544 Dicks Ave,Philadelphia,PA,19142,267-971-1168
Mark Dehart Transportation,105 Park Edge Drive,Zelienople,PA,16063,724-452-5817
H W Weaver & Sons Farms,101 Main Street,Muncy,PA,17756,570-971-1971
Laudenslager Trucking,Market St Box 91,Gratz,PA,17030,717-365-3018
Dale Scott Trucking,180 Willow Mill Park Rd,Mechanicsburg,PA,17050,717-691-7380
F&l Trucking,235 West Juniata Parkway,Millerstown,PA,17062,717-589-7209
Ron Hawk Trucking,350 11th St,Conway,PA,15027,724-869-1629
Jones Trucking,160 Locust Run Road,Thompsontown,PA,17094,717-535-4345
Kevin L Glick Trucking,800 Trenton Rd Apt E134,Langhorne,PA,19047,717-278-2264
Simpson Trucking,249 Shirktown Road,Narvon,PA,17555,610-286-6171
Myers Trucking,293 Long Lane East,Rimersburg,PA,16248,814-473-8327
Bill Straw Trucking,9935 Willow Drive,Wexford,PA,15090,412-596-4840
Buckwirth Trucking Co,714 Carriage Circle,Aston,PA,19014,800-472-2496
G A D Trucking,19 Sterner Run Road,Kunkletown,PA,18058,570-619-5390
Faith Delivers,85 N18th St Suite A,Harrisburg,PA,17103,717-334-0342
G&j Trucking,1545 Fishing Creek Rd,Roulette,PA,16746,814-544-8828
Scott Morningstar Trucking,Cedar & Chestnut,Broad Top,PA,16621,814-635-2751
Krakow Express LLC,1 Autumn Drive,Mountaintop,PA,18707,570-474-2339
D A Gregory Trucking,404 Liberty Ave,Roseto,PA,18013,610-588-8899
C E Wynn Trucking,Po Box 16,Dalmatia,PA,17017,570-758-4772
"Lego Enterprises, Inc.",R D 3 Box 407,Tyrone,PA,16686,814-360-3453
Babcock Trucking,2436 S R 44 S,Shinglehouse,PA,16748,814-698-2417
Robert Howard Scott Jr Transportation,1601 Ellsworth Ave,Heidelberg,PA,15106,412-429-8382
Vrotney Trucking,7237 Jackson St,Philadelphia,PA,19135,215-708-1225
Mechanized Transport,521 Clyde Street,Nazareth,PA,18064,610-759-1149
Eddie Otero Transport,2342 North Mutter Street,Philadelphia,PA,19133,215-426-6814
Liberty Transfer,Rr 1 Box 60,Granville Summit,PA,16926,570-673-3925
"Ryba's Auto Sales, Inc.",697 S Kennedy Dr,Mcadoo,PA,18237,570-929-3766
Carl Vanderpool Trucking,974 West Mountain Road,Paxinos,PA,17860,570-286-6764
B L Trucking,6375 Hillside Rd,Germansville,PA,18053,610-392-3069
"Randelle, Inc.",4331 Fairview Rd,Columbia,PA,17512,717-684-4554
Ryan M Buss Trucking,4578 Hanoverville Rd,Bethlehem,PA,18020,610-746-3067
C Smith Trucking,1244 Birkbeck Street,Freeland,PA,18224,570-636-3101
Russell & Darlene Yoder Trucking,625 Market Street,Mifflinburg,PA,17844,570-966-6164
Eshleman Express,121 E Cottage Ave,Millersville,PA,17551,717-354-6777
Black Crow Trucking,537 Plum St,Johnstown,PA,15901,814-269-7197
W E Lyon Trucking,3813 Bryanhill Rd,Emporium,PA,15834,814-486-3116
Tony & Teresa George Trucking,155 Oak Street,Lilly,PA,15938,814-884-0253
J & B Buckwalter Trucking,113 Sones Rd,Millville,PA,17846,570-458-5159
Kaizer Trucking,428 Hill St,Reynoldsville,PA,15851,814-653-8625
Straight Line Enterprises,3520 Columbia Ave,Lancaster,PA,17603,717-285-2831
Jae-r-lin Trucking,Rr 2 Box 310,Winfield,PA,17889,570-523-7305
Ram Transport,418 Deer Haven Road,Frenchville,PA,16836,814-263-7245
T And C Transportation,38233 Five Corners Rd,Centerville,PA,16404,814-967-2248
Looney Toon Trucking,4108 Rice Ave,Erie,PA,16510,814-825-5989
J & D Trucking,R R 4 Box 4718,Kunkletown,PA,18058,610-381-4415
Rb Younger Trucking,223 Baylor Rd,Watsontown,PA,17777,570-538-9612
Peace Trucking,2129 Deer Ridge Dr,Pottstown,PA,19464,610-327-3523
"Logan Transport Services, Inc.",13242 Summit Square Center,Langhorne,PA,19047,215-396-4246
Leon J Richcreek & Son Trucking,1320 Conewago Avenue,Manchester,PA,17345,717-266-5338
Santa's Trucking,641 Baldwin Street,Bridgeville,PA,15017,412-221-3105
Ntc,4001 Peacock Dr,Bethleham,PA,18020,610-954-5684
Fry Trucking,37 Reader Road,Danville,PA,17821,570-458-5495
Olan D Smith Trucking,591 Seven Points Road,Sunbury,PA,17801,570-286-5083
Lauffenburger Trucking,825 Cobham Park Rd,Warren,PA,16365,814-726-0923
Ron Pickering Trucking,1492 Orchard Road,Great Bend,PA,18821,570-879-2975
J B Trucking,Pardee Rd Rr 4 Box 316,Philipsburg,PA,16866,814-342-6926
Hanover Intermodal Transport,112 Beck Mill Rd,Hanover,PA,17331,717-630-0700
Mid-state Thermosonics,208 Maple St,Lebanon,PA,17046,717-273-0060
John Green & Son Trucking,1798 Wilderness Rd,Lancaster,PA,17603,717-481-7714
Butler Transportation Agency,2 Neville Road,Moscow,PA,18444,570-689-7720
Tiny Trucking,442 Colerain St Box 115,Sligo,PA,16255,814-745-3250
Kelli's Trucking,7777 Hamot Road,Erie,PA,16509,814-462-9166
Schultz Trucking,29 Red Maple Drive,Lewis Run,PA,16738,814-362-1886
"American Freedom Express, Inc.",1321a Pine Run Rd,Abbottstown,PA,17301,717-259-9907
Storman Norman Trucking,1116 Bell Ave,Yeadon,PA,19050,610-656-2138
Balkan Trans-exps,95 Behrens Road,Jim Thorpe,PA,18229,570-325-2434
D&c Trucking,Rd 2 Box 317,Portersville,PA,16051,724-368-9337
Cruz Trucking,825 North 20th St,Allentown,PA,18104,610-776-0903
Thomas E Martin Trucking,11 Andrew Ave,Ephrata,PA,17522,717-721-6890
D & L Trucking,671 Clairmont Ave,Schuylkill Haven,PA,17972,570-385-1410
Hainley Trucking,19 Forbes Rd Suite B,Trafford,PA,15085,412-824-4140
Blue Mt Lake Limo,683 Blue Mt. Lake,East Stroudsburg,PA,18301,570-730-0640
Kas Trucking,Tunkhannock Dr,Pocono Summit,PA,18346,570-646-5259
Ratliff Trucking,2005 Old Philadelphia Pike,Lancaster,PA,17602,717-945-6959
R B Trucking,707 Hoffer Road,Mount Pleasant Mills,PA,17853,570-539-0073
Joe Rorabaugh Trucking,577 Ash Rd,Clymer,PA,15728,724-254-4129
Jet Trucking,428 Hickernell Road,Ellwood City,PA,16117,724-752-3726
Jess Xpress,936 Newark Rd,Toughkenaman,PA,19374,610-268-2043
Gostony Trucking,Rr 4 Box 4101,Saylorsburg,PA,18353,610-393-5422
Knisleys Trucking,704 Pine Grove Furnace Rd,Aspers,PA,17304,717-677-8521
Mele Trucking,502 Norristown Rd,Horsham,PA,19044,405-350-6508
Gerald W Barrett Trucking,327 Dayton Smicksburg Rd,Smicksburg,PA,16256,814-257-6519
V&j Baloga Trucking,38 Spring St,Freeland,PA,18224,570-636-3259
Sosnick Trucking,240 White Street,Saltsburg,PA,15681,724-422-7730
Art Express,106 Carousel Circle,New Britain,PA,18901,N/A
Showers Transportation,9423 Route 208,Knox,PA,16232,814-797-1879
Balsam Valley Drayage,1650 Stony Fork Rd,Wellsboro,PA,16901,570-724-7627
C A D Trucking,313 Pentuin Dr,Bensalem,PA,19020,215-639-9777
Amditis Trucking,90 Rock St,Pittston,PA,18540,570-489-5471
Stephen Swope Trucking,7120 Ward Drive,Mercersburg,PA,17236,717-360-3223
J & B Transport LLC,508 E Catherine St,Chambersburg,PA,17201,717-552-3399
Simcox Trucking,100 Daleville Rd,Cochranville,PA,19330,610-869-4069
Hoban's Trucking,236 Dale St Apt 2,Meyersdale,PA,15552,301-689-2203
Bill Frisbie Trucking,R D 1 Box 713 Apt 1,Jermyn,PA,18433,570-282-3694
Sylvest Transport,75 Knoxlyn Road,Gettysburg,PA,17325,717-337-0206
Bmw Trucking,Rd #3 Box 7537,Jonestown,PA,17038,717-865-7368
"Clark Trucking, Inc.",17 1/2 Six Mile Rd,Tiona,PA,16352,814-723-2760
William E & Donna Krape Trucking,670 Low Dutch Road,Gettysburg,PA,17325,717-334-0362
T T S Trucking,Rt 36 Box 25,Lajose,PA,15753,814-277-6574
Pelczynski Trucking Co,1111 E Lisburn Rd,Mechanicsburg,PA,17055,717-697-4402
Swartz Trucking,R R 1 Box 692,Port Royal,PA,17082,717-527-4782
Koons Trucking,Rr 1 Box 245,Milton,PA,17847,570-524-4561
"Mochan Express, Inc.",1480 Lakeside Drive,Tobyhanna,PA,18466,347-661-0442
Brown's Transport,Po Box 7601,Steelton,PA,17113,717-943-5385
Heffner Transportation Co,34 Fox Hollow Drive,Downingtown,PA,19335,610-321-2094
A & V Transport,1234 Foulkrod St,Philadelphia,PA,19124,215-350-0717
"Woodward Bus Service, Inc.",Rr #2 Box 2094,Canton,PA,17724,570-673-8891
The Woods Enterprises,Rt 213,Langhorne,PA,19047,215-750-4187
Mid-atlantic Trucking,210 West Hamilton Ave # 295,State College,PA,16801,800-899-5947
P N C Transport,5205 E Tabor Road,Philadelphia,PA,19120,215-681-2077
Seglock Transport,1240 Seglock Rd,Lititz,PA,17543,717-615-2915
Windy Hill Furniture Ltd,7361 Kettle Rd,Tyrone,PA,16686,814-684-5040
R&l Express,Rr #1 Box 353-a,Middleburg,PA,17842,570-837-3466
Norris Service Co,Mosiers Knob Road,Shawnee On Del,PA,18356,570-424-5350
"Shotcrete Specialists, Inc.",159 Upland Ave,Horsham,PA,19044,215-675-2138
Jake Davis Trucking,2611 Elk St,Lake City,PA,16423,814-774-2801
Auto-bound Corp,68 Parkside Cir,68 Parkside Cirr,PA,19056-3502,267-414-4502
Tfs Trucking,640 Walnut Street,Bangor,PA,18013,610-462-1786
G & T Trucking,850 Longview Lane,Gap,PA,17527,717-442-8900
Mcb Hauling Co,3301 S Galloway St,Philadelphia,PA,19148,215-336-2313
Dan Sorvelli Trucking,16 Woodcrest Drive,Clarendon,PA,16313,814-730-6120
Fetterolf Trucking,9101 Fillinger Rd,Cranesville,PA,16410,814-756-3898
R E Miller Trucking,5338 Carlisle Pike,New Oxford,PA,17350,717-624-2655
"Yallahs Trucking, Inc.",555 N Paxon St,Philadelphia,PA,19131,215-878-7497
2 Guys & A Truck,1218 W 38th St,Erie,PA,16508,814-868-1465
J C Express,354 Main Street,Blandon,PA,19510,484-256-2503
Renegade Trucking,661 Sarver Rd,Sarver,PA,16055,724-353-9099
Dsm Transportation,103 Woodridge Dr,Cranberry Twp,PA,16066,724-776-0198
Cole Trucking,513 Norman St,Nazareth,PA,18064,610-746-4440
Stoltzfus Transport,391 Wolfland Road,Lewisburg,PA,17837,570-524-7835
Dennis Smith Loggin Co,2564 West 8th St,Erie,PA,16505,814-836-9663
Service Master Clean By Daniels,3108 W Market St,York,PA,17404,717-792-7770
East Winds Transportation,5 S Center Ave,Leesport,PA,19533,610-921-7950
Velazquez Trucking,400 Peach Tree Trail,Easton,PA,18040,610-252-3253
Parcon Express,22 Front St,Mohnton,PA,19540,610-777-2653
Marshall Trucking Co,1104 Summit St,New Castle,PA,16101,724-652-2244
R Tessitore Trucking,1047 Germans Rd,Lehighton,PA,18235,570-386-2485
"Merat Trucking, Inc.",198 Baldhill Rd,Frenchville,PA,16836,814-387-3645
Denny's Service Center,32 N Main St,Millville,PA,17846,570-458-9985
K R Henry Trucking,2050 Turnpike Rd,Elizabethtown,PA,17022,717-572-2161
Lindsey Trucking,138 Main St,Fallentimber,PA,16639,814-672-3985
M&m Auto Sales & Rentals,3 Ideal Park Rd,Catawissa,PA,17820,570-799-0605
Sam Huston Trucking,481 Enon Road,Enon Valley,PA,16120,724-336-6610
Walt Miles Trucking,153 S Main St,Port Allegany,PA,16743,814-642-7358
Elb Delivery Service,1215 Dutch Ridge Road,Beaver,PA,15009,724-775-6744
J A Yurchisin Trucking,101 Hazen Place,Sharon,PA,16146,724-981-9216
L & B Trucking,2230 W Tioga St,Philadelphia,PA,19140,215-223-0936
Ron Lehman Trucking,Po Box 266 W Main St,Kreamer,PA,17833,570-374-1839
King Environmental,45 N Market Street Suite 306,Lancaster,PA,17603,717-481-7404
Travs Trucking,180 Amity Park Rd,Douglassville,PA,19518,610-587-3175
G R Baker Trucking Co,277 Wyant Rd,Kittanning,PA,16201,724-297-5448
Classic Transport,1554 Paoli Pike,West Chester,PA,19380,215-266-5866
D H Trucking,103 N 3rd St,Darby,PA,19023,601-583-0469
Martin Trucking,2802 Fisher Rd,Strattanville,PA,16258,814-764-6444
D R Bowers Trucking,2934 Tunnelhill Rd,Lebanon,PA,17046,717-270-0852
Zalar Trucking,5 Glassworks Rd,Greensboro,PA,15338,724-998-4738
Duncan Garage,Rd 6 Box 435,Kittanning,PA,16201,724-595-6641
Njs Transport,401 Rt 88,Carmichaels,PA,15320,724-966-2758
Liberty Petroleum Distributors,1492 Oliver Rd,New Milford,PA,18834,570-465-4590
P Ryan Garber Trucking,876 Milton Grove Road,Mount Joy,PA,17552,717-629-9572
Northeastern Pennsylvania Courier Services,1138 West Market St Suite B,Scranton,PA,18508,570-496-0384
Workman Trucking,2035 Hancock Rd,Homer City,PA,15748,724-726-9761
Steel City Transport,402 Quarry Dr,Greensburg,PA,15601,724-668-8125
Worden & Shewell,730 Ridge Ave,York,PA,17403,717-846-8858
Jml Trucking,6370 Carpenter St,East Petersburg,PA,17520,717-917-6664
Daeze's Trucking Co,210 Yard Street,Nesquehoning,PA,18240,570-645-6649
Phil Yoder Transport,116 Red Barn Lane,Mifflinburg,PA,17844,717-354-6777
Hopkins Trucking,47 Clinton Road,Mohnton,PA,19540,610-856-1928
H & R Weiss Trucking,178 South Greenview Road,Schuylkill Haven,PA,17972,570-366-2586
Raymond Rodkey Trucking,1960 Hogback Hill,West Decatur,PA,16878,814-857-7358
I Rodriguez Transport,3466 Frankford Ave,Philadelphia,PA,19134,215-459-4983
Mg Auto Transport,15 West Main St,Junedale,PA,18230,570-454-7836
Bonomo Trucking,32 Pittston Ave,Pittston,PA,18640,570-654-1951
Rainbow Limo & Air Parcel Service,539 South Bolmar Street,Westchester,PA,19382,610-696-6060
B & M Trucking,330 Apache Avenue,Corry,PA,16407,814-665-9318
R & S Distributors,1735 Danforth Street,Philadelphia,PA,19152,215-313-1735
S Salkowski Hauling,26 Spring Rd,Boyertown,PA,19512,610-689-0890
Slater Farms,1324 Jollytown Rd,New Freeport,PA,15352,704-778-7012
C& S Transport,501 South Breezewood Road,Breezewood,PA,15533,814-735-4932
Hite Auto Transport And Trucking,147 South Side Road,Canton,PA,17724,570-673-5815
R N I Trucking,112 Creekside Court,Venetia,PA,15367,724-942-9373
Murphy & Reynolds Transportation,526 E Centre St,Mahanoy City,PA,17948,570-773-3330
"American Auto Recovery, Inc.",779 Third St,Whitewall,PA,18052,610-266-1284
Bielak's Auto Transport,1251 East 34th Street,Erie,PA,16504,814-944-7928
Hummingbird Express,2538 Timberlane Dr,York,PA,17404,717-968-7991
H&m Transporters,13426 Route 8,Wattsburg,PA,16442,814-739-0268
Lil Matts Same Day Express,4028 Taylor Ave,Drexel Hill,PA,19026,610-259-0935
Jj's Target Transportation,172 Dr Howder Rd,Champion,PA,15622,724-455-5824
Duanes Backhoe Service,117 Penny La,Athens,PA,18810,570-731-4412
"Love Wolf Transport, Inc.",272 Fairview Rd,Manheim,PA,17545,717-629-0545
Martin's Timber Transport,6314 Old Turnpike Rd,Vicksburg,PA,17883,570-966-4020
James B Chamberlain Express,25805 State Hwy 98,Edinboro,PA,16412,814-734-5139
Code Red Delivery,350 E Cambria Street,Philadelphia,PA,19134,215-425-8544
Fair Hope Trucking,123 First Avenue,Hyndman,PA,15545,814-842-6872
Kecks Sugar Valley Transport,66 S Hopple Hollow Road,Loganton,PA,17747,570-725-3362
Kevin Hicks Trucking,525 Torrey Rd,Honesdale,PA,18431,570-253-1494
J & J Trucking Company,62 Frogtown Rd,Ottsville,PA,18942,610-847-2435
Apple Mobile Medical,510 Jamison,Ellwood City,PA,16117,724-752-6837
Voyager Transport,54 Elk Drive,Hanover,PA,17331,717-357-1254
Bryan W Ott Trucking,567 Deer Run,Bangor,PA,18013,610-588-8149
Hlh Trucking,19678 Bockman Hollow Road,Saegertown,PA,16433,814-763-6392
Demaree Trucking,351 S Main St,Lewistown,PA,17044,717-247-2141
G B H Services,509 Worthington St,Mckeesport,PA,15132,412-751-1081
Kti,441 County Line Rd,Huntingdon Valley,PA,19006,215-901-0995
Beegle Family Trucking,3333 Main Road,Bedford,PA,15522,814-847-0163
Nrh Transport,720 Shakespeare Ave,Milton,PA,17847,570-742-4586
Louis Esa Trucking,3828 State Street,White Haven,PA,18661,570-443-8072
Sharp Auto Sales,30 Pumphouse Rd,Oil City,PA,16301,814-678-2200
Twin D Trucking,911hemcock St,Boalsbur,PA,16827,814-466-6878
F & B Transport,1545 Susquehanna Trail Lot 28,York,PA,17402,717-266-6367
Bs Trucking,3337 State Route 118,Dallas,PA,18612,570-675-4685
Bowser Trucking,7259 Main St,Geneva,PA,16316,814-382-5011
Ron Kuzo Auto Sales,Rt 61 1541 Chestnut Street,Kulpmont,PA,17834,570-373-5649
Lawton's Hauling & Installing,727 Clover Lane,Plymouth Meeting,PA,19462,610-279-9170
"Miracle Trucking, Inc.",Rr 20 Box 1624,East Stroudsburg,PA,18302,570-223-6753
Michael L Gessner Trucking,1415 Main Street,Berlin,PA,15530,814-267-3879
B Winders Trucking,46 D Oriole Road Lot 8,Orangeville,PA,17859,570-458-5579
D Stafford Trucking,2 South Tremont St,Zerbe,PA,17981,570-695-0144
L & S Showalter,410 Stuck Road,Mount Pleasant Mills,PA,17853,570-539-8052
Stewart Transport,308 Alexandria Ct,Marietta,PA,17547,267-228-4496
Smallwood Trucking,334 Big Ridge Rd,E Stroudsburg,PA,18301,570-223-6667
H Gross Transportation,126 Brittany Drive,Chalfont,PA,18914,267-228-8626
R S Keith Transportation,1457 New Holland Pike,Lancaster,PA,17601,717-391-2850
M G Trucking,3709 Us Hwy 522-n,Lewistown,PA,17044,717-543-6178
Express Transport,169 Linwood Road,New Bethlehem,PA,16242,814-275-2644
Cjr Trucking,1501 Berleyway,Lansdale,PA,19446,718-363-1942
Spring Line Express,5805 Pemberton St,Philadelphia,PA,19143,215-748-3544
Prospect Valley Trucking,1335 Prospect Road,Columbia,PA,17512,717-684-5339
Eagle Pro Hauling,95 Williow St,Adamstown,PA,19501,717-484-1386
A M I R Transport,1325 Walnut Lane,Macungie,PA,18062,610-530-4545
H L Trucking,128 Bridge Street,Old Forge,PA,18518,570-457-3207
Bk Forry Trucking,1327 N Strickler Road,Manheim,PA,17545,717-653-8641
Orchard Hills Transport,1 Baldwin Ave,Shamokin Dam,PA,17876,570-743-2601
Hilleman Transport & Delivery,350 Kennedy Blvd,Pittston,PA,18640,570-563-2072
Csh Transportation,7992 Lot 23 West Market Street,Mercer,PA,16137,724-662-0397
S D Ruff Trucking,9892 Hickory Road,Felton,PA,17322,717-993-2614
Stony Brook Express,3717 E Market Street,York,PA,17402,717-600-0099
Martin's Shed Hauling,501 E Brubaker Valley Road,Lititz,PA,17543,717-627-1802
Jtk Transport,5988 Woods Rd,Stewartstown,PA,17363,717-993-5563
Badali Transport,416 Washington Road,Waynesburg,PA,15370,724-747-0606
Bt Transport,492 Shelbourne Drive,Pittsburgh,PA,15239,412-793-6606
Mccarty Trucking,412 Roberts Road,Summerhill,PA,15958,814-487-5346
Seabridge Family Trucking,Po Box 91,Sybertsville,PA,18251,570-233-2899
R S L Hauling,468 Fawn Run Road,Bushkill,PA,18324,570-588-1311
Appleman Transport,1104 Main Ave,Clarks Summit,PA,18411,570-687-6222
C J Trucking,191 28th Hwy Lot 253,Carlton,PA,16311,814-425-6787
Municipal Waste Hauler,552 E Wyoming Ave,Philadelphia,PA,19120,215-329-9389
Jaben Transport,701 Cloverfield Dr,Narvon,PA,17555,717-707-5676
Roque Cable Services LLC,125 Crescent Dr,Chalfont,PA,18914,267-261-4930
"Valley Oil Field Service, Inc.",5082 Route 46,Smethport,PA,16749,814-887-9209
"Pjd Transportation, Inc.",5530 Freshcorn Road,Cranberry Twp,PA,16066,724-728-7115
Team Laminates Company,1013 Spring Garden Ave,Pittsburgh,PA,15212,412-323-1911
Harvey & Son Transport,1838 Leafmore Rd,Chambersburg,PA,17201,717-262-1023
Rl Kreidler Jr Trucking,668 Abel Colony Rd,Windgap,PA,18091,610-960-5006
S J Feather Trucking,255 Lovely Rd,Alum Bank,PA,15521,814-276-3882
T & C Trucking,123 W 22nd Street,Chester,PA,19013,610-499-0655
Frank D Shingler Trucking,4557 Us Hwy 522 N,Mcclure,PA,17841,717-543-5336
"Fritz Moving Company, Inc.",130 Redners Way,Leesport,PA,19533,610-916-9916
Betts Trucking,911 Mulligan Hill Rd,New Florence,PA,15944,724-676-4487
"Tas Trucking, Inc.",115 E Vickie Lane,Elizabethville,PA,17023,717-362-9986
E & H Tiltbed & Transport,817 Water St,Brownsville,PA,15417,724-785-2645
Tc Trucking,567 Gerhard Street,Philadelphia,PA,19128,215-483-1514
Mcdanel Trucking,888 Soap Run Road,Fombell,PA,16123,724-758-1019
Chenoga Trucking,228 Grozanick Rd,Patton,PA,16668,814-674-8819
Smoll's Trucking,105 Village Green Drive,Gilbertsville,PA,19525,484-945-0000
Tony's Auto Sales,1098 N Church Street,Hazelton,PA,18202,570-455-8176
Ferragonio Distributing Company,1016 Corporate Ln Bldg 1 Unith,Export,PA,15632,724-733-2626
Fja Trucking,210 Taylor Road,West Newton,PA,15089,724-872-9274
R Tetrick Trucking,555 Straube Avenue,Baden,PA,15005,724-869-4115
Corn Cobb Express,1606 Willowbrook Drive,Chambersburg,PA,17201,717-264-3750
Private Limousine & Sedan Service,527 Blue Mountain Road,Schuykill Haven,PA,17972,570-754-0055
Jerel Trucking,810 Rennard,Morrisville,PA,19067,215-428-0227
Rd Bennett Trucking,826 Lee Run Road,Mahaffey,PA,15757,814-277-6745
Hl Nichols Trucking,985 Stone Jug Road,Biglerville,PA,17307,717-677-4136
Stonestreet Trucking,185 Street Road,Clearville,PA,15535,814-458-3178
Kibbler Macdavis Trucking,1042 N Lawrence St,Philadelphia,PA,19123,N/A
Coble Trucking,1025 Bigmount Rd,Dover,PA,17315,717-292-1444
"Bodacious Trucking, Inc.",1992 Branchton Rd,Hilliards,PA,16040,724-791-9959
Snedaker Trucking,Rr2 Box 2295,Friendsville,PA,18818,570-744-2701
Siegert Trucking Co,424 Concord Circle Road,Beaver Falls,PA,15010,724-847-2541
Renaut Express Service,203 Indian Creek Drive,Mechaniesburg,PA,17050,717-763-9050
R A Miller Transport,30 Roads End Lane,New Bloomfield,PA,17068,717-582-4112
Corey Transport Charters,20763 Old Ellis Hill Rd,Meadville,PA,16335,814-336-5466
Jones Trucking,20 Sleepy Hollow Rd,Nottingham,PA,19362,717-529-6677
Winola Auto & Equipment,1522 N Keyser Avenue,Scranton,PA,18504,570-342-2968
Slj Enterprises,P O Box 257,Norvelt,PA,15674,724-423-2969
J & J Trucking,1779 Bucktail Rd,St Marys,PA,15857,814-834-3075
Keehn Trucking,267 N Middlesex Road,Carlisle,PA,17013,717-249-1486
"William R Green Trucking, Inc.",Rd # 1 Box 163,Woodland,PA,16881,814-857-7631
Pa Truck Service,Rd # 3 Rt 22,Huntingdon,PA,16652,814-643-9988
Hendrickson Hauling,131 Mt Village Drive,Macungre,PA,18062,N/A
Belinda Frantz Trucking,3041 Alder Road,Commodore,PA,15729,724-254-4844
Dkw Trucking,6722 Ditman St,Philadelphia,PA,19152,215-331-5163
Kela Transport,843 Mt Gretna Road,Elizabethtown,PA,17022,717-361-7754
Robert J Smith Trucking,Campbelltown Rd,Mt Jewett,PA,16740,814-778-6053
Keystone Hauling,14 Top Of The Oaks,Chadds Ford,PA,19317,610-558-1688
Cool-way Delivery,506 Hammer Creek Rd,Lititz,PA,17543,717-336-6716
"Csi, Inc.orporated",3921 Hwy 536,Ringgold,PA,15770,814-365-2468
Affordable Auto,521 East Main St,Morristown,PA,19401,610-272-9666
Dreamer Express,571 State Road,Barnesville,PA,18214,570-467-3872
Hertzler Transport,Rr 2 Box 15 A,Greenpark,PA,17024,717-789-4294
Lf Walters Trucking,140 Not Your Lane,Strattanville,PA,16258,814-764-5488
Metros Towing Service,298 Morgantown St,Uniontown,PA,15401,914-768-9911
Trini 2d Bone Trucking,1158 W Main St Apt H2-18,Lansdale,PA,19446,347-446-8778
S J Cook Welding & Flatbed Service,2180 State Road,Ben Salem,PA,19020,215-942-2040
Tri State Amoco,1041 Pennsylvania Avenue,Matamoras,PA,18336,570-491-4827
"T E C Leasing, Inc.",4 Christopher Drive,Holland,PA,18966,609-777-9223
Crooper Crane Service,324 2nd Street Pike Unit 5,Southampton,PA,18966,215-322-5900
Darrow Trucking,Rr1 Box 442,Honey Grove,PA,17035,717-734-1030
R J Express,741 E Cumberland Street-rear,Lebanon,PA,17042,717-769-2550
Topp Portable Air,900c Tryens Road,Aston,PA,19014,610-459-5515
Black Star Trucking,1210 W King St 1w,York,PA,17404,717-650-6169
Rcsm Trucking,720 Schimpff Ct,Scranton,PA,18505,570-348-2010
Sherwood Farm Drainage Service,12655 Plank Rd,Waterford,PA,16441,814-796-0693
Harold D Abel Trucking,755 Willow Lane,Gap,PA,17527,717-442-8778
Diehl's Trucking,3306 Main Road,Bedford,PA,15522,814-847-7751
Highland Tool Co,21 Glendale Drive,Lancaster,PA,17602,717-393-7347
Auto Donation Center,135 E Lincoln Highway,Fairless Hills,PA,19030,215-946-8700
Moonlighter Truck Leasing,7000 Rt 13,Levittown,PA,19057,267-474-8015
C&s Hauling,547 Blue Knob Rd,Portage,PA,15946,814-736-5003
Kc Kinard Trucking,329 Rider Avenue,Lancaster,PA,17603,717-299-2780
Spoerlein Express Trucking,1166 Village Road,Somerset,PA,15501,814-443-6566
Gator Express,606 East Catherine St,Chambersburg,PA,17201,717-261-9898
J Masten & Son Trucking,Lake Road,Saylorsburg,PA,18353,570-992-4225
Stein Trucking,100 Seidle Rd,Mercer,PA,16137,724-475-2118
Mensch Transport,600n 2nd Street,Sunbury,PA,17801,570-286-2412
B & B Express,6556 Kreidler Road,York,PA,17403,717-741-9880
C L Smoker Trucking,300 Pleasant View Rd,Honeybrook,PA,19344,610-273-3671
Vincent Transportation,341 Pine Street,Cumbola,PA,17930,570-277-0438
Ed Price Trucking,106 Cambell Way,Tobyhanna,PA,18466,570-839-1798
"Nker Transportational, Inc.",9039 Hartstown Rd ,Hartstown,PA,16131,814-282-4232
Edwin Miller Trucking,106 Clarence Street,Belle Vernon,PA,15012,724-929-5274
B & M Trucking,455 Christie Road,Hilliards,PA,16040,724-894-2899
Paul R Smith Trucking,84 Odie Lane,Knox,PA,16232,814-797-2608
Lam's Transportating,2430 Smith Mill Road,New Freedom,PA,17349,717-235-9411
Engles Trucking Svc,4891 Georgetown Rd,Franklin,PA,16323,814-758-7235
Tcb Trucking,80 Lark Circle ,York,PA,17404,717-792-1539
Rocky Mountain Transport,461 E Lincoln Avenue,Myerstown,PA,17067,N/A
Chris Ryczek Trucking,163 Woodside-oldframe Road,Smithfield,PA,15478,724-323-2110
Chervanka Trucking,Rr 1 Box 126,Thompson,PA,18465,570-727-2251
H&s Demolition & Hauling,7015 Beaver Dam Rd,Levittown,PA,19057,215-269-5097
Npd,47 Wyncliffe Ave,Clifton Heights,PA,19018,610-636-0510
A C Graff Trucking,651 Riverview Ave,Freedom,PA,15042,724-774-2987
D D D Horse Transportation,55 Cherry Lane,Philadelphia,PA,19057,215-946-6960
Body Shop,5300 Emilie Road,Levittown,PA,19057,215-949-2838
Jason Nesbit Trucking,74 Mahanoy Ridge Road,Elliottsburg,PA,17024,717-582-4859
Agape Transport,135 N 9th Street,Darby,PA,19023,610-202-0171
Rp Trucking,46 East Ave,Bradford,PA,16701,814-363-4511
Marlins Auto Center,7 East Main Street,New Freedom,PA,17349,717-235-8958
Bam Transport,658 Old Route 322,Philipsburg,PA,16866,814-342-3859
Brian G Deal Trucking,102 Gay Street,Salisbury,PA,15558,814-442-5057
C J Marchionda Transportation,1192 5th Street,Beaver,PA,15009,724-624-4718
Villu Trucking,2931 Birney Avenue,Scranton,PA,18505,970-963-9497
P And R Truck Lines,114 Rogers Drive,Clinton,PA,15026,724-899-3671
R W Beatty Trucking,214 Cherry Lane Road,E Stoudsburg,PA,18301,570-629-3921
Derencin Trucking,135 Foster Hill Road,Milford,PA,18337,516-322-5360
M & A Haulage LLC,1000 Mickley Run Ave,Whitchall,PA,18052,570-436-1977
K & R Trucking,1444 Sharon Park Dr,Sharon Hill,PA,19079,610-586-5350
Forsyth Trucking,6468 Lincoln Way East,Fayetteville,PA,17222,717-352-9502
Best Transportation,842 Tombler Street,Fountain Hill,PA,18015,610-882-0995
Dream Scape Express,174 2nd St,Pleasantville,PA,16341,814-589-7081
Paul's Hauling,1720 Ackermanville Rd,Bangor,PA,18013,610-588-7920
Saunders Trucking,1846 Lincoln Rd,Pittsburgh,PA,15235,412-363-0330
T L Enterprise Service,700 Downingtown Pike,West Chester,PA,19382,610-692-4762
John Altemose Trucking,Rr 4 Box 7687b Bonser Rd,Saylorsburg,PA,18353,570-992-6186
John Rodgers Trucking,240 Rounds Hill Rd,Sugar Grove,PA,16350,814-489-3845
John J Kopchinski Trucking,658 Peachridge Rd ,Elliottsburg,PA,17024,717-582-7704
R E Hooper Salvage Transport,East Earl Rd P O Box 183,East Earl,PA,17519,717-355-5008
"Quality Services Plus, Inc.",1208 Brannagan,Tullytown,PA,19007,215-269-7571
Vitaly Kulikov,237 Sycamore Circle,Langhorne,PA,19053,215-833-0470
T & L Transport,13 Front St,Tiona,PA,16352,814-723-7168
Ed's Backhoe Service,301 Highland Ave,Upper Darby,PA,19082,610-352-4704
Mcgarity Moving & Storage,419 Boot Road,Downingtown,PA,19335,610-269-5711
Brown Trucking,373 Mitchell Road,Indiana,PA,15701,724-479-8523
Allisons Livestock Hauling,634 Owl Hill Road,Lititz,PA,17543,717-271-3310
Michaelson Trucking,4938 Rt 873,Schnecksville,PA,18078,610-769-4580
Wm Trucking,130 Shaulis Rd,Hollsopple,PA,15935,814-629-1644
Dale Rodgers Trucking,9097 Ox Bow Road,North East,PA,16428,814-725-3497
Norman's Bus Service,1113 Station Rd,Palm,PA,18070,215-679-8643
James Heileman Delivery Service,3100 Grant Ave B 39,Philadelphia,PA,19114,215-313-2132
Reeder Transport,20698 Great Cove Road ,Mcconnellsburg,PA,17233,717-485-5305
Rick Bedow Trucking,9443 Station Road,Erie,PA,16510,814-392-6979
L & S Trucking,1232 Portzline Hill Rd,Mt Pleasant Mills,PA,17853,717-395-2904
Grounds Maintenance Services,240 Kildoo Rd,New Castle,PA,16102,724-667-9992
Douglas Harrison Trucking,Sr0267,Meshoppen,PA,18630,570-833-5132
Phillips Trucking,11235 N Eagle Valley Road,Beech Creek,PA,16822,570-962-3720
Mchattie Trucking,Rd # 2 Box 165,Portersville,PA,16051,N/A
Labyrinth Transportation,1228 Meanshollow Rd,Shippensburg,PA,17257,717-816-5969
Sun Moon & Stars Transportation,1711 Sarah St,Pittsburgh,PA,15203,412-381-0686
Skf Transportation,335 Mountain Road,Lenhartsville,PA,19534,610-562-0446
Mike Bumbaugh's Auto Repair,324 Park Street,Mont Alto,PA,17237,717-749-5753
M And M Transportation,606 Birch Rd,Albrightsville,PA,18210,570-722-1008
Ocean Tours,6249 Haverford Ave,Philadelphia,PA,19139,215-275-7696
Pontrelli Truck Repair,482 Turkey Hill Road,Stroudsburg,PA,18360,570-992-2104
Clarence & Phyllis Trucking,527 Straube Ave,Baden,PA,15005,724-869-0872
Bdry System Of Delaware And Chester County,1260 Woodland Avenue 31a,Springfield,PA,19064,610-543-2379
Tj King Transport,115 Wv Lane,New Florence,PA,15944,814-341-5267
K M Transport,2813 Ridge Road,Elverson,PA,19520,610-286-9096
Chaffee Transportation,Rr1 Box 114 A,Rome,PA,18837,570-247-2318
Nupak Printing LLC,175 E Walnut Street,Red Lion,PA,17356,717-246-1661
Advanced Equipment Solutions,22 Nealy Blvd,Trainer,PA,19061,610-497-3555
J Delivery Service,217 East James Street,Pittsburgh,PA,15120,412-464-1266
A And G Carriers,127 Baily Rd,Yeadon,PA,19050,610-394-6975
Interstate Carrier,3123 Bedlington Place,Holland,PA,18966,215-300-2242
Bryan Trucking,1826 Dushore Overton Rd,Dushore,PA,18614,570-928-8139
J A Lundberg Trucking,119 Lakefront Drive,Loretto,PA,15940,814-886-5326
T&m Brian,4651 Locey Creek,Osceola,PA,16942,814-258-5561
Wasj Trucking,3129 Centerville Road,Gillett,PA,16925,570-596-2922
N R Metzler Trucking,165 Main Street,Turbotville,PA,17772,570-649-6616
James Witherow Trucking,25 Linwood St,Coalport,PA,16627,814-672-5807
Stairs Trucking,4914 Brush Creek Rd,Meyersdale,PA,15552,814-634-0871
Boccadoris Auto Sales,Box 539 Rd#1,Olyphant,PA,18447,570-254-9719
Heisley Trucking Company,280 Canada Road,Covington,PA,16917,570-659-5163
Weiler Trucking,251 Kline Road,Bethel,PA,19507,717-933-8984
Weicht Trucking & Logging,Rd 3 Box 490,Everett,PA,15537,814-652-6029
Red Rose Express,133 Weidler Ln,Lititz,PA,17543,717-669-3931
Stanley's Farm Service,61 Scenic Rd,Klingerstown,PA,17941,570-648-2088
Ed Sulitka Trucking,501 E Northampton St,Wilkes Barre,PA,18702,570-822-6046
Kessler's General Hauling,Rd 1 Box 1424,Spring Grove,PA,17362,717-225-1045
Ronald L Kane Hauling,Rd 1 Box 96j,Greentown,PA,18426,717-676-4603
Kevins Auto Transport,4972 Rt 41 North,West Grove,PA,19390,302-218-5876
Girts Trucking Co,8555 Findley Lake Rd,North East,PA,16428,814-725-8828
Henry's Automobile Transport,218 W Grant,Myerstown,PA,17067,717-866-6535
Mike Missimer Trucking,72 Wilt Road,Bechtelsville,PA,19505,610-845-8385
Propst Transportation,390 Main Street,Archbald,PA,18403,570-876-8470
Fielder Express,135 Lincoln St,Steelton,PA,17113,N/A
Classic Transport Co,1260 Woodland Avenue,Springfield,PA,19064,610-544-5230
Jeanne Heck Trucking,2987 Main Road East,Emmaus,PA,18049,610-965-4693
Gerald G Schimp Trucking,235 Summit Rd,Bradford,PA,16701,814-465-9895
Mattson Trucking,164 Telegraph Rd,Coatesville,PA,19320,610-466-0987
Jms Transport,322 Willow Ave,Walnutport,PA,18088,N/A
Pittsburgh Diesel Institute,111 Business Route 60,Moon Township,PA,15108,412-935-0388
Acosta Auto Transport,2095 Gap Newport Pike,Cochranville,PA,19330,610-869-4775
Summerson Trucking,Po Box 8,Sinnamahoning,PA,15861,814-546-2422
Paris Trucking,1905 Bauman Road,Quakertown,PA,18951,215-852-6504
Argonish Trucking,216 Mcclure St,Old Forge,PA,18518,570-430-3167
Eader's Milk Hauling,H C R 81 Box 210,Big Covetannery,PA,17212,717-294-3882
Freezer & Pfleegor Transport,Rr #5 125,Montoursville,PA,17754,717-368-3115
A N D Trucking,R D 4 Box 4286-c,E Stroudsburg,PA,18301,717-476-6918
Johnson Trucking,6015 Baynton Street,Philadelphia,PA,19144,215-844-4539
Seibert's Repair Service,44 Hair Road,Newville,PA,17241,717-776-5515
Dixon Transit,Rr #1 Box #4,Falls,PA,18615,570-388-2403
A R S,135 S 18th Street Suite 601,Philadelphia,PA,19103,215-568-5626
A1 Heating Service,109 Brookhill Road,Milford,PA,18337,570-296-8453
Tim Mackenna Transport,81 Slaymaker Hill Rd,Kinzers,PA,17535,717-442-2334
First Class Airport Transportation Company,129 Radcliffe Street,Bristol,PA,19007,215-946-0535
Tri-lucy Couriers,20 Wyneva Street,Philadelphia,PA,19144,215-848-2694
Jerry's White Glove Moving Co,4408 Carlisle Pike,Camp Hill,PA,17011,N/A
Tri-state Transportation Enterprises,4056 Powelton Avenue,Philadelphia,PA,19104,215-222-6211
D And B Freightways,5 Van Lane,Beaver,PA,15009,412-728-4580
Moser Trucking,Rd #3 Box 390,Lewisburg,PA,17837,717-568-0486
Houston Transport,74 Midway Ave,Langhorne,PA,19047,215-949-3152
Earl Comstock Trucking,Rr 2 Box 77,Le Raysville,PA,18829,717-744-2500
610 Motors,112 Washington St,Freemansburg,PA,18055,610-625-9330
Seven R Transport,80 Sycamore Tr,Delta,PA,17314,717-456-5303
James Rosencrans Trucking,Keller Rd Rr1 Box 1779,Sweet Valley,PA,18656,570-477-5101
H J Young Trucking,241 Perry Rd,Shoemakersville,PA,19555,610-562-0506
Raymond J Trainor Trucking Co,4542 Bleigh Avenue,Philadelphia,PA,19136,215-708-1849
J Kohan Trucking,P O Box 147,Wildwood,PA,15091,412-935-8348
Mts Forge,Chestnut Street,Sadsburyville,PA,19369,610-857-3500
Clyde D Mellinger Trucking,650 Sickmans Mill Road,Conestoga,PA,17516,717-872-5173
"Bef Services, Inc.",1670 East Race Street,Allentown,PA,18109,610-266-8080
B M Toplovich Trucking,13900 Akam Rd,Corry,PA,16407,814-664-2792
John Wickizer Wood Products,725 Penn Drive,Tamaqua,PA,18252,570-386-5660
R D Stout Trucking,Star Route Box 56,Holbrook,PA,15341,412-447-2388
Morinelli Trucking,3026 Walker Lane,Eagleville,PA,19403,610-539-6217
Coast To Coast Trucking,106 Julius Street,Clarks Summit,PA,18411,N/A
Exclusive Moving & Hauling,15 Roundwood Lane,Levittown,PA,19055,215-945-2125
Rush Delivery Systems,Rear Of Main St,Lattimer,PA,18224,N/A
Mark A Mercer Trucking,415 West Main Street,Ridgway,PA,15853,814-776-2313
Buff - Ones Transmissions,Box 383,Falls Creek,PA,15840,814-371-8970
Bethlehem Ice Service,623 Hanover Ave,Allentown,PA,18109,610-776-6994
"Jere L Miller Trucking, Inc.",2025 Valley Green Road,Etters,PA,17319,717-938-0428
Fairfield Quality Transpoting,4645 Hwy 19,Cochranton,PA,16314,814-425-8045
Barrys Trucking,904 E 33rd Street,Erie,PA,16504,814-452-1502
David Gladfelter Trucking,3274 Stillhouse Hollow Rd,Shippensburg,PA,17254,717-532-6085
Strut Service Co,135 S Whitford Rd,Exton,PA,19341,610-647-8070
Mbm Deliveries,P O Box 152,Bridgeville,PA,15017,N/A
Poc & O Express,66 Ford St,Tarentum,PA,15084,N/A
"Stevens Transportation, Inc.",309 36th St,Mckeesport,PA,15132,412-672-2524
Mumford Trucking,1416 Horseshoe Pike,Glenmoore,PA,17343,610-383-4726
Barry J Flewellyn,Box 12,Ulysses,PA,16948,814-848-7687
B & B Express,42 Morninglory Lane,Manheim,PA,17545,717-664-2457
N Hagen Transportation,432 Stone Lowesome Rd,Clarion,PA,16214,814-745-2311
Victory Auto & Truck,676 A Wellsville Rd,Wellsville,PA,17365,717-432-8775
Shed Express,46 W Slokom Avenue,Christiana,PA,17509,610-593-7792
A P S,15842 Elm Dr,New Freedom,PA,17349,717-235-5220
Hoyt Industrial Services,2 Hershey Rd,Indianola,PA,15051,412-767-4884
Stenerson Trucking,54 Vicar Lane,Levittown,PA,19054,215-946-6703
B L S Transport,P O Box 228,Lake Ariel,PA,18436,N/A
Greg Bellotti Trucking,27 Tubbs Lane,Leeper,PA,16233,814-744-6240
Mlw Trucking,Rd 2 Box 2621,Mohnton,PA,19540,610-775-1980
Kevin L Palmer Trucking,243 White Clinton Road,White,PA,15490,412-455-7535
J & G Auto Sales,Rr 221 North Main Street,Pittston,PA,18640,570-654-4900
Matthew A Frederick Trucking,110 Linden Ave,Hanover,PA,17331,N/A
K & K Trucking,R D 1 Box 205,Middleburg,PA,17842,717-837-3409
Red Land Body Shop,590 Old York Rd,Etters,PA,17319,717-938-5600
Expo Express,910 Queen St,Steelton,PA,17113,717-986-9508
B L Gowin Trucking,Rr 1 Box 21a,Granville Summit,PA,16926,717-364-5539
C J Christiana,43 Daniels Rd,Lake Ariel,PA,18436,570-937-3028
"Davy Express, Inc.",175 Baer Street,Jersey Shore,PA,17740,570-398-0149
Tucker Transport,105 Gay Lane,Warrendale,PA,15086,412-934-5072
Fegley Trucking,48 Church Rd,Schuylkill Haven,PA,17972,570-739-3653
R & L Transport,958 Jackaway Road,Jamison,PA,18929,215-343-0922
Kline Trucking,218 South St,Hanover,PA,17331,240-367-0302
Watts Trucking,200 Biddle Street,Kane,PA,16735,814-837-7802
Estenich Trucking Co,3876 Smith Rd,Furlong,PA,18925,215-598-8744
Lancaster Tank & Truck Wash,798 Flory Mill Road,Lancaster,PA,17601,717-560-0793
M M Knouse Trucking,Rd 2 Box 328,Winfield,PA,17889,717-524-7096
Kathco Trucking,117 Blue Jay Way,North Wales,PA,19454,215-997-6624
B & B Transport,68 Lickdale Rd,Jonestown,PA,17038,717-865-3856
Rally Carrier,Rd 1 Box 205b,Hopewell,PA,16650,814-766-3488
Commercial Transfer & Intermodal,4080 Kistler Rd,Schenecksville,PA,18078,N/A
Woodruff Trucking,Rt 6,Wysox,PA,18854,570-265-5823
F G Behan Trucking Co,19 So 2nd St,Bradford,PA,16701,814-362-6326
Deily Moving & Storage,2336 Babcock Blvd,Pittsburgh,PA,15237,412-931-2721
Keystone Motor Xpress,276 Overbrook Rd,Dallas,PA,18612,570-675-3113
Balcan Express,40 Behrans Road,Jim Thorpe,PA,18229,N/A
Miller's Veal Hauling,Rd 1 Box 312,Mifflinburg,PA,17844,N/A
Rf Thomas Trucking,13 South Barnes Road,Moscow,PA,18444,570-689-2253
Mcgettigan Trucking,11 Lawnside Road,Cheltenham,PA,19012,215-635-0322
Goggin Moving,6607 Morris Park Road,Philadelphia,PA,19151,215-877-7618
T & S Trucking,286 Hess Road,Quarryville,PA,17566,717-786-6163
Ray Scullin Trucking,137 Fitch Hill Road,Rue,PA,16744,716-895-3483
Big-o-trucking,26 South Colebrook Rd,Manheim,PA,17545,717-665-7076
Highway Automotive,E South St Rd 1 Box 1437,Freeland,PA,18224,717-636-1058
Nebroskie Trucking Co,1415 Howard Ave,Pottsville,PA,17901,570-658-1834
Charles R Watcher Trucking,333 N 9th Street,Pottsville,PA,17901,717-622-1460
Jacoby Trucking,340 Peach Glen Road,Gardners,PA,17324,717-486-5272
B & N Trucking,1774 Ackermanville Rd,Bangor,PA,18013,610-588-6329
East Coast Transport,225 Clifton Ave,Reading,PA,19611,610-777-9640
Aaa Delivery Service,Po Box 303,Douglassville,PA,19518,800-783-4003
Gk&a Transport,12 Hemlock Drive,Jim Thorpe,PA,18229,717-325-4505
R M Trucking,6 Tierney Court,Quakertown,PA,18951,215-804-0608
Horning Hauling,2011 Maytown Rd,Elizabethtown,PA,17022,717-367-4798
"Tgs Stall Services, Inc.",19987 Smith Rd,Conneautville,PA,16406,814-587-2491
Blair's Auto Sales,1734 Basin Dr,Windber,PA,15963,814-467-7217
Mask Trucking,3112 Stoney Creek Rd,Norristown,PA,19401,610-275-8587
Patosky Express,157 Harshaville Road,Clinton,PA,15026,412-899-3544
Lunney Services,Rr 1 67 Maple Lane,Freeland,PA,18224,717-636-2324
R Monaco Trucking,885 Plymouth Rd,Plymouth Meeting,PA,19462,484-744-0919
Metz Trucking,123 Burrellton Dr,Lower Burrell,PA,15068,N/A
Haldeman's Trucking,248 Summitville Rd,New Holland,PA,17557,717-354-0495
Bag Trucking & Supply,Rr 2 Box 300,Mehoopany,PA,18629,570-833-4201
T I Smith Trucking,Rd #2 Box 250 C,Friedens,PA,15541,814-267-5691
C D H Transport,710 Peace St,Hazelton,PA,18201,717-454-5134
Phillippi Trucking,Rd #1 Box 111,Knox,PA,16232,814-797-2998
Troxell Enterprises,2105 East Lizard Creek Road,Lehighton,PA,18235,610-852-3433
Eagle Transfer,1345 W 12th St,Erie,PA,16501,N/A
E & A Transport,Rt 30,Kinzers,PA,17535,717-442-8655
Bepsistos Auto Recycling,Red Hill Ln Village Of Overloo,Shamokin,PA,17871,717-648-9439
Miller Trucking Service,381 Cider Press Road,South Fork,PA,15956,814-487-4602
Rossi Trucking,87 Glen View Dr,Glen Mills,PA,19342,610-459-4020
Unclaimed Freight,2260 Industrial Dr,Bethelhem,PA,18017,610-882-1189
W A A Transport Co,143 Ken Forest Drive,New Galilee,PA,16141,412-336-2225
R Sastre Express,1851 Carlisle Rd,York,PA,17404,717-764-3098
Bittner Trucking,463 Distillery Road,Meyersdale,PA,15552,814-267-3128
A B Trucking,38 Butz Street,Weatherly,PA,18255,717-427-8795
Burruss Trucking,250 Lefever Rd,Newville,PA,17241,717-776-3437
C A B Transportation Service,2387 Sun Drive,Harrisburg,PA,17109,717-234-7849
"Mill Pond Supply, Inc.",603 Third St Ne,Fawn Grove,PA,17321,800-701-2405
Sns Equipment,7545 Chestnut St,Fairview,PA,16415,814-474-1154
Autotek Collision Center,Rr 1 Box 174a,Montrose,PA,18801,717-278-4242
Baker Trucking,11350 Kathryn Drive,Mercersburg,PA,17236,N/A
R & J Trucking,Rr 4 Box 8254,Milford,PA,18337,717-296-8076
Louis Decenzi Hauling,270 Forrest Manor Road,Lincoln University,PA,19352,610-869-0339
Farmer's Feed & Supply Distribution,341 Hopwood Coolspring Rd,Hopwood,PA,15445,724-439-2814
Scott Parks Transportation,115 Bilger Ave,Pleasant Gap,PA,16823,814-359-3033
Albert V Chila Trucking,701 E Highland St,Allentown,PA,18103,610-820-7644
Tempest Transport,901 Pine Court E,Hazelton,PA,18202,570-459-6105
Hipp Trucking,25 Decibel Road,State College,PA,16801,814-234-4550
Paul J Richard Trucking,271 Hoover Ave,N Hampton,PA,18067,610-837-1873
John Rathway Jr Trucking,105 Pernyopolis Road,Perryopolis,PA,15473,724-929-9006
Gregrey Fouse Trucking,Mill St Jefferson Alley,Elizabethtown,PA,17022,717-367-9072
Penn Quaker Trucking,532 Roberts Rd,Nazareth,PA,18064,610-746-2324
Les Kent Contract Hauling,764 Sunset Ave,Philadelphia,PA,19128,609-886-3389
