Company Name,Street Address,Address Locality,Address Region,Postal Code,Telephone
New Vector,1500 Precision Drive Suite 150,Plano,TX,75074,972-542-9660
Amesquita Trucking,1306 W Cr 116,Midland,TX,79706,432-683-7282
C Plair Trucking,6827 Silver Shore Ln,Katy,TX,77449,409-651-7254
Scooter's Transport,8113 N La Homa Rd,Mission,TX,78574,956-212-3726
Madi Y Yuni Auto Transport,512 E Water Lily,Mcallen,TX,78501,956-242-5742
Lad Transport,19814 Hollywalk,Spring,TX,77388,832-359-9525
Hardeman's Transport Co,1119 Shirleen Dr,Stafford,TX,77477,281-261-0189
Top Priority Ground Transportation,7227 San Pablo Dr,Houston,TX,77083,832-419-3485
Bpm Services,810 Pr 2115,Gilmer,TX,75645,903-797-2319
S&r Trucking,4011 Lopez St,Mission,TX,78572,956-222-3532
E N M,1002 Paradise Circle,Palmview,TX,78572,956-484-2974
Castillo Trucking,3915 Co Rd 12,Hereford,TX,79045,806-258-7301
Royo's Trucking,2101 Arizona,El Paso,TX,79930,915-533-4794
Andrews Cattle Transport Company,5560 Cr 106,Whitesboro,TX,76273,940-665-3341
The Silver Bullet,285 E Clover,Bridge City,TX,77611,507-382-3165
Borimex Transport,157 County Rd 303,Floresville,TX,78114,909-634-4505
J & S Trucking,503 County Road 1607,Jefferson,TX,75657,903-665-9964
Moo-ving Com,801 Sandy Creek Drive,Allen,TX,75002,214-882-3733
Wayne Alford Trucking,799 Fm 415,Timpson,TX,75975,936-556-0779
Ja Transport,11897 Pamela Raye Rd,El Paso,TX,79927,915-892-9833
Q Enterprises,3017 N Mile 6 W,Weslaco,TX,78596,956-246-6824
First Class Transport,2002 West 41 And A Half Street,Pharr,TX,78577,956-844-9867
Turbo Trucking,5202 Village Springs Dr,Kingwood,TX,77339,678-427-9074
J G N Transport,Jessica June # 200,La Joya,TX,78560,956-780-1105
Boweavil Haulers,3227 Nebraska Ave,Dallas,TX,75216,214-376-3007
Tenco Transportation,13895 Hwy 287,Saginaw,TX,76179,817-489-1988
Jb Dunaway Trucking,153 N Imperial Dr,Denison,TX,75020,903-337-0542
Nt Trucking,133 Lilac Ln,Burkburnett,TX,76354,940-337-3930
B & S Trucking,185 Cr 4677,Atlanta,TX,75551,903-796-3846
Mar's Trucking,2508 Ironclad Drive,League City,TX,77573,281-332-2553
Night Express 66,7425 Bonnie View Rd,Dallas,TX,75241,405-701-4173
Vernice Transport,355 East Vista Ridge Mall Drive Suite 3212,Lewisville,TX,75067,214-295-6106
A&m Trucking,106 E Historic Route 66,Adrian,TX,79001,806-538-7772
Jandres Transport,374 Valley Park Dr,Garland,TX,75043,972-864-9092
E C O Trucking,25 Western View Dr,Mission,TX,78572,956-458-0192
J&l Transport,5311 Fiesta,Mission,TX,78574,956-584-9900
Quality Auto Transport Company,501 3rd Street,Jarrell,TX,76537,512-731-2929
Solo Express,6253 Fm 507,Lyford,TX,78569,210-837-3916
Tonys Trucking,392 Hwy 214,Muleshoe,TX,79347,806-566-5240
Jrodz Transports,5002 Mariposa St,Edinburg,TX,78542,956-457-9790
Sur Nuff Cattle Haulers,555 Southwind Loop,Seguin,TX,78155,830-303-6102
R & B Leonard Enterprises,12818 Covey Ln,Houston,TX,77099,832-247-2821
D & H Services,1346 Arrow Spring,San Antonio,TX,78258,210-410-4181
Ab Unlimited Transport,4138 Lufborough,Houston,TX,77066,281-880-8979
Garcia Logistics,1234 Kayton Ave,San Antonio,TX,78210,210-378-7467
A & S Transport,6201 Winter Park Lane,Arlington,TX,76018,508-736-8810
Angels Transportation And Supply Services,2315 Stoneburg Ct,Sugar Land,TX,77479,832-563-0559
At Transport Service,3138 Teakwood Dr,Garland,TX,75044,888-501-5420
Source One Freightline,2620 Fountain View Dr Suite 203,Houston,TX,77057,800-883-1592
C O E Transport,130 Narciso Pena St,Rio Grande City,TX,78582,956-735-0829
Truck One,2438 Fm 55,Waxahachie,TX,75165,N/A
Dave Ballesteros Trucking,799 Cr O,Plainview,TX,79072,806-889-3599
Nokturnal Transportation,3409 Harvey Drive,Mcallen,TX,78501,956-627-0600
Fox Line Express,7705 Forest Dream,San Antonio,TX,78233,714-585-8436
J&p Hauling,1527 Haymarket,Dallas,TX,75253,972-557-8182
Rensco,11200 Westheimer Suite 520,Houston,TX,77042,713-953-5300
Disciple Trucking,429 Coyote Trail,Spring Branch,TX,78070,210-291-8744
Pitbull Hauling,3207 Leola Dr,Robstown,TX,78380,361-767-1788
"Inter-commerce Carriers, Inc.oporated",790 Gastonia Lane,Plano,TX,75023,214-445-8776
Ez Trucking,3408 S Jennings Ave,Fort Worth,TX,76110,682-554-4916
Matran Express,8619 Haynes Street,Houston,TX,77088,281-536-6819
Htown Express,6591 Fm 2622,Stony,TX,76259,940-765-2880
Northeast Texas Linen Service,2160 Lamar Ave,Paris,TX,75460,903-785-0355
Double J Transport,5000 Jackson Rd,Krum,TX,76249,940-597-4967
Ems Transportation,715 Mustang Hollow Loop,Buda,TX,78610,512-789-2771
Anaran Hot Shot Eddie Helms Hot Shot Freight Freaks,7946 Cr 116d,Overton,TX,75684,903-987-0163
Garner Services,3641 Diamond Ranch Road,Roanoke,TX,76262,817-490-1830
Smh Trucking,Rt 4 Box 424,Pharr,TX,78577,956-535-8395
Servants In The Wind Trucking,6963 Pin Oak Road,Big Sandy,TX,75755,903-734-7776
Pkh Transportation,6710 Santa Fe Dr,Lubbock,TX,79407,806-785-5935
C & K Transportation,2240 Tarpley Rd Apto 473,Carrollton,TX,75006,214-505-8267
E & T Trucking,2306 Barton River Court,Richmond,TX,77469,713-548-3816
Royle Trucking,5525 Malmedy Rd,Houston,TX,77033,713-631-1095
D&d Trucking,3029 Alta View St,Fort Worth,TX,76111,817-831-4279
Gon Nic Bel Transportation,2919 Pecan,Houston,TX,77087,713-645-7592
Rca Transportation,14807 Hemlock Bridge Ct,Sugar Land,TX,77498,832-367-8728
Xtreme Transportation,2220 Tierra De Paz,El Paso,TX,79938,915-629-7897
Momia Transportation,2917 Dunford St,Fort Worth,TX,76105,817-894-1467
M & S Freight,2414 Azalea Garden Drive,Houston,TX,77038,281-914-8084
Currys Transport,1411 Hickory Creek Ln,Rockwall,TX,75032,469-698-9446
Freight Train Cargo Transport,23747 Bowen Rd,Harlingen,TX,78550,956-493-1395
Sysco Food Services Of East Texas LLC,4577 Estes Parkway,Longview,TX,75603,903-252-6100
Crown Transportation,22614 Blainesville Court,Tomball,TX,77375,832-515-8701
Schwab Trucking,203 Elm Ave,Dumas,TX,79029,806-935-9547
"Black Hawk Express, Inc.",2325 Heather Ridge Ln,Garland,TX,75040,214-417-4063
Culp Transportation,19707 Misty Pines Ct,Humble,TX,77346,832-309-8571
Sajari Transport Service,14725 Las Colonias,El Paso,TX,79928,915-355-0018
Froste Transport,4220 Mulberry Dr ,Carrollton,TX,75010,972-394-9104
Mo Haulin,17831 Shady Canyon Lane,Tomball,TX,77377,281-825-6370
Zavala Trucking,12017 Sal Rasura,El Paso,TX,79936,915-849-0849
Big T Trucking,3169 Cr 4113 S,Henderson,TX,75654,903-861-0116
Bar Seven Trucking,8251 Cr 351,Blanket,TX,76432,325-647-5752
Blue Caribbean Express,1900 Bronze Apt 4,Pharr,TX,78577,956-648-2684
Waymaker Freight,6954 39th St,Groves,TX,77619,409-962-0278
"All Sport Distributing, Inc.orporated",720 Jewell Drive,Waco,TX,76712,512-501-3875
Super 70 Expressway,825 Pryor Drive,Arlington,TX,76001,817-808-4907
Armaan Logistic,4501 Gannet Ln,Garland,TX,75043,972-757-5291
Gael Transport,3665 Tierra Bahia,El Paso,TX,79938,915-892-4224
Sierra Transportation Services,9747 Vallarta Dr,El Paso,TX,79927,915-472-8273
C&k Trucking Express,6015 Drenner Park Ln,Houston,TX,77086,281-726-2830
Vjv Transport,409 Masschusetts,Harlingen,TX,78552,956-792-3895
3d Express,2210 Hightower Drive,Garland,TX,75041,501-945-1414
Redfire Trucking,12966 Jeremiah Driver,El Paso,TX,79928,915-356-6880
Jc Iii Module Haulers,2205 S 26 And A Half St,Mcallen,TX,78503,956-341-5023
Safe Transportation,716 Haver Hill,El Paso,TX,79907,915-859-4151
Fox Transportation,22068 Knights Cove Dr,Kingwood,TX,77339,832-405-4982
Acn Express,119 Ocean Dr,Gun Barrel City,TX,75156,903-288-7935
Manuel Mora Transportation,9861 Virginia Pkwy,Mckinney,TX,75071,469-371-8159
I R Trucking,10807 Jones Rd Pmb 124,Houston,TX,77065,832-746-7368
Martin Redekopp Mobile Home Mover,607 Sw 13th,Seminole,TX,79360,432-758-9393
Gilbert Wrecker Service,2916 E Hwy 82,Gainesville,TX,76240,940-668-8501
Elite Transportation,29510 Dan Rd,Magnolia,TX,77354,281-904-5975
Billys Truck Service,3310 Ave F Nw,Childress,TX,79201,940-937-0115
B&t Trucking,461 Cr 699,Farmersville,TX,75442,469-288-9482
Alnel Trucking,129 Freedom Trail,Forney,TX,75126,972-564-0400
Jg Trucking,3360 Calle Bolivia,Brownsville,TX,78526,956-243-7067
Cisneros Transport,3008 Yanez St,Donna,TX,78537,956-472-5280
Bigfish Transport,500 Moss Hill Rd,Hewitt,TX,76643,254-424-8807
Chompiras Trucking,3744 Misty Meadow Dr,Fort Worth,TX,76133,817-346-9425
G Jimenez Trucking,15346 Bedford Glen,Channelview,TX,77530,832-492-6349
All States Transportation,14754 Walters Road,Houston,TX,77068,832-249-7082
All Nation Transport,5917 N 35th St,Mcallen,TX,78504,956-227-5871
Rhino Hotshot Service,1414 Young Avenue,Jourdanton,TX,78026,210-487-0575
Robert Black Fastball Trucking LLC,1405 Bayou Oak,Friendswood,TX,77546,832-641-0992
Matheus Trucking Co,5732 Chelmsford Trail,Arlington,TX,76018,214-796-9211
Edward Transport,5736 Palomino Way,Grand Prairie,TX,75052,214-802-5546
Transsouth Transportation,12932 Parker Ct,Mesquite,TX,75180,214-643-2240
Two Men And A Truck,800 Paloma Drive Suite 120,Round Rock,TX,78664,512-246-0303
J & D Trucking,921 Sasha Circle,Brownsville,TX,78521,956-525-5610
M & G Transport,1502 Evergreen,Houston,TX,77087,210-825-7195
J & A Logistics,787 De Leon,El Paso,TX,79912,915-581-7766
Brisa' S Transport,1001 E Gibbs St,Del Rio,TX,78840,830-469-8349
Sancho Trucking,4959 Aiken Ln,El Paso,TX,79924,915-479-6272
L & B Jackson Transport,2811 Pittsburg St,Amarillo,TX,79103,806-374-8663
San Lorence Transport,2010 E Silver Bell,Palmhurst,TX,78573,956-227-5579
Quality Carriers,2920 W Sugar Cane Drive,Weslaco,TX,78596,956-532-5050
Mgm Truck Line,710 Commons Lakeview Dr,Huffman,TX,77336,281-360-4112
Lx4 Transportation,3977 Hwy 82,Henrietta,TX,76365,940-782-5824
Impekable Trucking,219 Overland Park Dr,Houston,TX,77049,713-875-0070
C & J Transportation,122 W Grauwyler Rd,Irving,TX,75061,214-287-9021
M T Haslip Trucking,508 Picketts Dr,Mesquite,TX,75149,972-571-3768
Eagle Star Trucking,601 W 6th St,Houston,TX,77007,832-204-0790
C & S Transport,320 E Santa Rosa Avenue,Edcouch,TX,78538,956-262-3271
Laredo Auto Transport,2920 Anna Ave,Laredo,TX,78041,956-725-7152
Wd Trucking,341 1/2 Elm St,Munday,TX,76371,940-256-0013
"Rr Logistics, Inc.",11614 Featherbrook,Dallas,TX,75228,214-929-6146
Dj's Trucking,9525 Flintridge Drive,Fritch,TX,79036,806-857-6313
Blink's Trucking,4310 Eaglewood Trl Drive,Fresno,TX,77545,832-524-4461
Jm-a Transport,4335 Fm 726,Gilmer,TX,75645,903-734-7282
Alfaro Trucking,16027 Birch Vale Road,Houston,TX,77084,713-585-1172
Rampart Trucking,2822 Oleander St,Pasenda,TX,77503,713-906-8817
Adlene Transfer,12811 Greenwood Forest Dr 2103,Houston,TX,77066,281-537-2503
Joya Trucking,19439 Hickory Meadow Lane,Houston,TX,77084,281-578-0851
R & J Wheel Transport,15013 Horizon Blvd Sp C,El Paso,TX,79928,915-422-0450
E & W Transport,2615 Vz Cr 3502,Wills Point,TX,75169,972-743-9927
Carlos Deliveries & Distribution,203 Hartsdale Drive,Dallas,TX,75211,214-243-7681
Gerald Robinson Trucking,754 Cedarwood Dr,Cedar Hill,TX,75104,214-682-0558
Priority Auto Carriers,712 Highland Dr,Cedar Hill,TX,75104,682-583-2501
Panuco's Trucking,12228 Robert Dahl,El Paso,TX,79936,915-726-0328
Devos Heavy Haul,10440 Windfern Rd,Houston,TX,77064,832-492-6792
S T Trucking,1657 Bob Smith Dr,El Paso,TX,79936,505-350-8120
Road Warrior Express,12801 Tierra Karla,El Paso,TX,79938,915-855-3199
Asia Express,2970 Bly Stone Lane #108,Dallas,TX,75220,972-745-0555
Reyes Trucking,401 Hickory,Dumas,TX,79029,806-935-3497
Nuevo Rey Freight,1355 Pony Trail Pl,El Paso,TX,79936,915-859-2286
Brown Trucking,1209 Melinda,Dumas,TX,79029,806-433-4670
Royal Truck Line,1705 Metro Crest Dr 271,Carrollton,TX,75006,469-386-9254
Gtz Logistics,5202 N Barbmar Lane,Edinburg,TX,78541,956-292-5761
Abad Freight Lines,124 Deanna Dr,San Juan,TX,78589,956-878-5871
Tom Petty Trucking,278 County Road 911 Edwards,Royse City,TX,75189,972-636-9697
O & L Transportation,2977 Skylark,Odessa,TX,79761,432-425-8110
Canizales Brothers Trucking,2807 Pheasant Run,Humble,TX,77396,281-441-6376
Angel Truck Lines,14856 Kingston,El Paso,TX,79928,915-219-3686
All Points Transport,8600 Gateway East Suite 202,El Paso,TX,79907,915-621-0320
Durcent Transportation,17903 Kermier Road,Hockley,TX,77447,713-213-3497
Caldwell Trucking,1045 Cr 456,Princeton,TX,75407,469-853-4867
Khara Transport,211 Savannah Moss Dr,Richmond,TX,77469,559-999-4244
Texas Hillbilly Truckin,1060 Cr 2917,Dodd City,TX,75438,903-227-2901
Comtrak Logistics,952 Channing Circle,Dallas,TX,75224,214-769-3653
J Iii Trucking,129 N Maple St,Roma,TX,78584,956-208-0300
Colin Trucking,11801 E Loop 1604 N Apt 15203,Universal City,TX,78148,678-263-6498
R V Express,4307 Ave L,Galveston,TX,77550,409-750-9152
Landmark Carriers,1505 Robin Avenue,Mcallen,TX,78504,956-655-0916
People Express Services Transportation,1311 Garland,Houston,TX,77087,832-978-6557
Acr Trucking,3510 Eichman Rd,Poteet,TX,78065,830-742-3203
P M M Delivery,19408 Park Row 352,Houston,TX,77084,281-398-1428
Air America Transportation Services,5018 Debeney Dr,Houston,TX,77039,281-449-3828
V R Auto Transport,3613 Agusta,Mc Allen,TX,78501,956-458-6289
Eagle Express,2203 Gable Hollow Ln,Katy,TX,77450,832-339-2074
Big Lowe Loads,1261 E Pentagon Parkway,Dallas,TX,75216,214-374-4329
Aguayo Remodeling Services,10530 Bainbridge St,Houston,TX,77016,713-631-3747
Thirty Thousand Transportation,4690 W Eldorado Pkwy,Mckinney,TX,75070,972-662-6467
Rm Transport & Logistics,8793 Wyndom Terrace Trail,Laredo,TX,78045,956-231-6746
Go Hi Trucking,15 Soto Dr,Brownsville,TX,78521,956-459-8559
Torres Transport,110 Meadow Way,Cedar Creek,TX,78612,512-321-1651
Lnb Transportation,2222 County Road 4625,Kennard,TX,75847,936-852-3532
L O Transportation,11544 Jerry Lewis Way,El Paso,TX,79936,915-856-1688
B & B Thread Protectors & Bit Service,21454 Forest Colony,Porter,TX,77365,832-724-1040
The Usa Trucking Co,5000 K Ave Apt 3914,Plano,TX,75074,469-853-9511
Arredondo Trucking,2193 Co Rd 2200,Midland,TX,79705,432-685-0007
Mike & Nita Trucking,4571 Shawnee Dr ,May,TX,76857,325-784-7755
Max Trucking,13931 Fm 105,Orange,TX,77630,409-735-4775
R T Trucking,2007 Durango Ave,Laredo,TX,78046,956-319-0080
J & M Transport,5315 N Moorefield Rd,Mission,TX,78574,956-583-9285
Rivera's Trucking,34840 Fm 732,San Benito,TX,78586,956-494-9848
Mercado Transport,11924 N Los Ebanos Rd,Mission,TX,78573,956-580-3210
B & Q Trucking,802 Cedar St,Floydada,TX,79235,806-983-2090
Brent Carney Trucking LLC,6395 Cr 4260,Hillister,TX,77624,409-283-7953
Silva Transport,313 S Delaware Street,Alton,TX,78573,877-580-0935
Boylan Trucking Co,10123 Kerrwood Ln,Houston,TX,77080,713-398-1211
Monster Transport Ii,601 Tilden Ave,Laredo,TX,78040,956-725-8242
J And J Trucking,409 Fm 2423,Grapeland,TX,75844,936-687-3230
Monster Transport,603 Bougainvillea St,Laredo,TX,78046,956-727-0367
Reyna Transport,9747 Jo Pierce Street,Dallas,TX,75217,214-604-3279
Texan Trucking,8303 Braes Meadow,Houston,TX,77071,713-778-1196
D-star Transportation,17124 Market St,Channeview,TX,77530,281-457-7278
Micah Brown Trucking,6557 Fm 197,Arthur City,TX,75411,903-732-3955
Gaspar Trucking,34904 Fm 732 Apt B,San Benito,TX,78586,817-209-8357
Deeshot,27094 N Pinewood Dr,Hockley,TX,77447,713-443-4878
Tk Trucking,486 Gooseneck Cemetary Road,Graham,TX,76450,940-550-5333
Jb&d Trucking,1442 5th St,Roma,TX,78582,956-256-1174
Benmar Trucking,211 Buchanan,Bledsoe,TX,79314,806-525-4447
Longhaul Transportation,2507 Carlos Ave,Brownsville,TX,78521,956-233-8855
God Gift Transport,7322 Curlew Dr,Cypress,TX,77433,832-858-8900
Mjs Trucking,3521 Pacesetter,Dallas,TX,75241,214-397-2924
Jcr Express,9360 Northridge,Conroe,TX,77303,832-618-4109
Aguilar Trucking,606 Alma Street,Mission,TX,78572,956-424-6553
Caa Services,4279 Haslet-roanoke Rd,Roanoke,TX,76262,817-675-1622
Rodney Fields Trucking,390 Needles,Vidor,TX,77662,409-422-4531
Jg-52 Transport,2879 County Road 370,El Campo,TX,77437,979-637-0633
Pc&d Trucking,5643 Bear Meadow Lane,Katy,TX,77449,281-861-4077
Tp Trucking,14010 Panhandle Drive,Sugar Land,TX,77478,832-814-0613
Ameritex Trucking,8382 Hills Parkway,Montgomery,TX,77316,936-521-9007
Driven Transport,5136 Cliff Oaks Drive,Fort Worth,TX,76179,601-918-1304
Ktli,1721 Heron Dr,Aubrey,TX,76227,469-855-1533
Termanes Trucking,1114 Lonsdale Ave,Dallas,TX,75217,505-450-3562
Djk Transportation,710 Hugh Walker Dr,Mesquite,TX,75149,469-471-8361
Prime Time Trucking,3802 Misty Ridge Ln,Humble,TX,77396,832-473-3144
Srs Trucking,500 Ne I Ave,Fabens,TX,79838,915-765-2173
Ventura Transport,2903 Hydrangea Ave,Killeen,TX,76549,254-368-2926
Bubba Trucking,212 Ivy Spur,Carthage,TX,75633,903-694-2911
Dave's Hot Shot Service,13722 Calvert Drive,Troup,TX,75789,903-752-1030
Anderson Carriers,19506 Cisco Ct,Cypress,TX,77433,832-754-8007
Vision Brokerage & Transportation,414 Nafta Blvd,Laredo,TX,78045,956-722-0964
Legitament Trucking,530 Silver Creek Circle,Richmond,TX,77406,904-333-6298
Herron's Transportation,11501 West Rd,Houston,TX,77065,281-890-2263
Rickys Repair Service,10717 Mc Allen,El Paso,TX,79924,915-822-1664
Menard Trucking,2042 Lexington Woods Drive,Spring,TX,77373,281-889-1992
Atc Transport,9860 A Hwy 271 North,Tyler,TX,75708,903-593-6800
Jc Transport,426 Cripple Creek,Alamo,TX,78516,956-460-1116
Ontiveros & Son Trucking,808 Oak Brook Dr,Grand Prairie,TX,75052,214-681-3565
Black Diamond Hot Shot Co,2608 Wills Way Drive,Granbury,TX,76049,817-706-5028
Ricardos Trucking,9530 Cedar Ridge Ct,Willis,TX,77318,936-228-0158
Mike Flores Transport,7 Miles S Rangerville,San Benito,TX,78586,956-454-2974
A & S Trucking,10105 High Eagle Trail,Fort Worth,TX,76108,817-367-2881
J Garcia & Sons Trucking,21634 Longwood,San Antonio,TX,78259,210-451-1879
Trinity Transport,3713 Tierra Isela,El Paso,TX,79938,915-856-1359
Turquoise Star Transport,5007 Hickory Gate Drive,Spring,TX,77373,281-907-6045
Jeser Transport,3790 N Zaragoza St,El Paso,TX,79938,915-790-6990
A N R Transportation,4994d Hwy 6 North 190,Houston,TX,77084,832-339-0353
Riccolo Transport,6692 Fm 2626,Newton,TX,75966,409-313-3751
Anchor Trucking,208 Pine St,Chico,TX,76431,940-644-2343
Munoz Trucking,430 Center St,Center,TX,75935,936-598-8067
Alexandra Fleet Trucking,5708 Cobalt Lane,Killeen,TX,76542,254-247-2088
Royal Eagle Carriers,244 Azucena St,Brownsville,TX,78521,956-579-4933
Emmons Home Transport,2119 N Torrance Ave,Odessa,TX,79763,432-770-4432
Wiles Transports,4615 Ridgeton Drive,Houston,TX,77053,281-352-5378
J & J Trucking,1604 Verbena St,Edinburg,TX,78539,956-588-1356
Gg Transportation,12721 Green River Dr,Houston,TX,77044,281-436-0300
Simmco Services,217 County Road 3392,Deberry,TX,75639,903-766-2400
A-1 Industrial Hauling,8808 Myra St,Fort Worth,TX,76108,817-219-2249
Yahveh Jireh Transport,212 Lucille St,Irving,TX,75060,972-579-8098
5g Transportation,7461 Sh 171,Hillsboro,TX,76645,254-582-7825
J & J Trucking,2706 Atlanta Dr,Pharr,TX,78577,956-782-4771
M3 Transport,2306 Mulberry Drive,Weslaco,TX,78596,956-463-4266
A&g Lopez Trucking,1614 La Joya St,Corpus Christi,TX,78417,361-852-1140
3 Bar G Hotshot Service,19044 Hwy 343,Cushing,TX,75760,936-326-5156
God Answers Prayers Trucking,9635 Elkwood Dr,Dallas,TX,75217,214-557-1132
J Ust R Un Trucking LLC,3326 Chandler Court,Irving,TX,75060,866-644-0102
Sammons Trucking,372 Miller Dr,Easton,TX,75641,903-643-2013
De'anda Trucking,823 N Roosevelt,Amarillo,TX,79107,806-381-2911
Pacific Transportation,8401 Skillman St Apt 1033,Dallas,TX,75231,214-503-9880
Vargas Trucking,319 Lometa Road,Cactus,TX,79013,806-922-8213
A And J Distributors,7816 Ranchland Dr,El Paso,TX,79915,915-873-1560
R & R Trucking,2001 Walnut St,Grand Prairie,TX,75050,214-616-1294
Jc Express,2907 Nickel Road,Mission,TX,78572,956-458-0320
T3 Transport,2539 Forge Creek Rd,Houston,TX,77067,281-580-7621
Luis Nunez Jr,1215 Nw 12th Place,Andrews,TX,79714,432-889-6268
T Erwin Trucking,3352 Broadway Blvd Ste 537,Garland,TX,75043,469-279-3534
Gunterville Equipment Service,3428 Elk Drive,Orange,TX,77630,409-735-7964
Nava Trucking,620 N Meredith,Dumas,TX,79029,806-930-6343
Amc Freight,7209 Ptj Drive,Palmview,TX,78572,956-212-8732
Fortex Transportation,1117 E Pulaski,Fort Worth,TX,76104,817-703-3748
Raul's Trucking,309 Valley Ridge Dr,Red Oak,TX,75154,323-236-4528
Se7en Express,425 South 83rd,Edinburg,TX,78589,956-579-5114
A & J Logistics,13485 Fm 491,Mercedes,TX,78570,956-565-0264
Railsback Trucking,109 Se 4th,Knox City,TX,79529,940-657-3468
Altech Logistics Nation Wide,86 W Road Runner Dr,Somerset,TX,78069,830-429-1897
Bj Carriers,13494 Port Drive,Laredo,TX,78045,956-727-9032
Okie Trucking,902 Sw Avenue E,Seminole,TX,79360,432-758-2403
Captain James Transport,4412 Ashwood Dr,Mesquite,TX,75150,469-556-9087
Jras Trucking LLC,13002 Taylor Lane,Stafford,TX,77477,281-499-4564
Tvk Logistic,20627 Wood Rain Court,Katy,TX,77449,832-283-0185
R And C Trucking,1327 Deerhound Pl,Round Rock,TX,78664,512-577-3655
Gast Trucking,9821 Summerwood Cir Apt 702,Dallas,TX,75243,214-732-5125
Alejandro's Trucking,814 E San Jose St,Laredo,TX,78040,956-242-8457
A & G Trucking,1023 California Rd,Los Fresnos,TX,78566,956-266-6743
Chavez Transportation,18218 Dusty Terrace Lane,Katy,TX,77449,832-859-2647
S&c Hotshot And Transportation,111 Forest Lane,Atlanta,TX,75551,903-799-8810
Sts Stone Transportation Service,147 Gibson Lane,Weatherford,TX,76088,817-594-5321
Jas Trucking,104 Nw 5th,Dimmitt,TX,79027,806-570-1720
Kass Fm Express,7662 Pebble Dr,Fort Worth,TX,76118,817-590-2100
La Ranita Trucking,406 Nw 6,Dimmitt,TX,79027,806-336-3866
Michael S Mabry,5781 Millstone Drive,Navasota,TX,77868,713-377-8430
Scharer Trucking & Grading,1050 Mustang Lane,Killeeen,TX,76549,254-223-6456
M&n Trucking,12148 Road House Dr,El Paso,TX,79936,915-921-8112
Charlene's Express,2507 E Datil St,Hidalgo,TX,78557,956-843-9455
Best Way Transport,11720 Beaumont Hwy,Houston,TX,77049,832-230-0991
Magnum Transportation,13895 Us Hwy 287,Fort Worth,TX,76179,817-284-1000
L & S Trucking,501 W Virginia Ave,Temple,TX,76501,254-778-6725
Polar Bear Express Trucking,1647 Doug Olson Dr,El Paso,TX,79936,415-577-1387
T & J Trucking,19694 Hwy 155 South,Flint,TX,75762,903-520-0889
Sos Trucking,114 Idle Creek Lane,Desoto,TX,75115,972-815-3100
Loyalty Express Transport Services,2316 Prescott Downs Drive,Denton,TX,76210,817-915-5954
Transportes Santa Maria,4006 Fairbanks Ct Irving Texas,Irving,TX,75062,469-441-2882
Ranger 6 Transportation,3724 Kilkenny,Houston,TX,77047,713-253-4385
J Garcia Trucking,13014 Peregrine,San Antonio,TX,78233,210-653-1253
Wicho's Trucking,9611 Bobwhite,Laredo,TX,78045,956-326-6176
Farout Transportation,1830 Cr 4680,Boyd,TX,76023,817-966-9609
4c Transport,10812 Compadre Drive,Mercedes,TX,78570,361-533-4291
S A Y Transport,9809 Tuffly,Houston,TX,77029,713-676-2815
M3 Transport,7111 Oak Bluff Dr,Magnolia,TX,77354,281-415-7447
Barajas Express,2026 W Buchanan Ave,Alton,TX,78573,956-624-6944
Omz Auto Transport,4009 Pin Oak Ter # 214,Euless,TX,76040,682-557-4010
Jva Trucking,5009 S 24th St,Mcallen,TX,78503,956-457-6360
Double F Transports,1218 Nw 12th Place,Andrews,TX,79714,432-528-6241
Ss Transportation,12661 Pioneer Dr,Clint,TX,79836,214-718-7584
David Brawley Trucking,761 Globe,Blue Mound,TX,76131,682-583-4319
Tex-mex Transport,715 Augusta Dr,Pharr,TX,78577,956-624-6826
Jala Express,1117 East Lovett Street,Edinburg,TX,78541,956-451-8732
Reliable Freight Carriers,8915 Homestead Rd,Houston,TX,77016,713-631-9000
Up & Down Carriers,5905 Santa Maria Ave Apt 32b,Laredo,TX,78041,956-235-4360
Earl Dale Jones Trucking,163 Jack Rabbit,Horizon City,TX,79928,915-852-2647
American Moving Group,1331 Regel Row #300,Dallas,TX,75247,214-909-1006
Gonzalez Trucking,205 E 3rd St,New Deal,TX,79350,806-746-5438
Lydell Whiting Trucking,2835 Green Hollow Ct,Missouri City,TX,77489,281-437-1269
Ochicha Transport,610 East Martin Luther King Blvd,Jasper,TX,75951,409-489-9365
Mich Transportation,9973 Rosa M Richardson Ave,El Paso,TX,79927,915-999-5834
Triple G Trucking,970 Central Avenue,Hartley,TX,79044,806-268-0091
Frenchie Transport,1007 West Highway 83 Trailor 9,Pharr,TX,78577,956-784-4396
L M Auto Transport,2516 Ruger Dr # 125,Arlington,TX,76006,214-317-2960
Johnson Trucking,600 South Hawley,Clarendon,TX,79226,806-662-4230
Jpt Transportation,2101 East County Rd 140,Midland,TX,79706,915-203-3641
Litos Transport,1309 E Filmore Avenue,Alton,TX,78573,956-432-8323
B E Delivery,3108 Gerome,Fort Worth,TX,76118,817-701-5033
Jo-lyd Transport,12497 Martin Bauman,El Paso,TX,79928,915-345-3411
J Mackenzie Transport,2920 Shadowbriar Apt 631,Houston,TX,77082,512-769-0324
Ron Collins Transportation,16190 Beaumont Hwy Bldg 8,Houston,TX,77049,281-844-7488
Stewart Transport And Leasing,4012 Marana,Granbury,TX,76048,817-372-3236
Williams Trucking,121 Bowie,Strawn,TX,76475,254-672-5322
Byg Transport,4600 Kendlewood Cts,Mcallen,TX,78501,956-522-7147
Oc Express,1800 Magdalena Ave,Mission,TX,78572,956-432-1791
Big Dale's Transport,5008 Keeland,Houston,TX,77016,832-752-3596
Brj Services,1175 State Hwy 77,Hillsboro,TX,76645,254-582-0834
M L M Express,459 County Road 4012,Dayton,TX,77535,281-385-2775
Transportes Reyes,6101 S W Freeway Suite 413,Houston,TX,77047,281-330-5116
Tcb Trucking,9207 Village Creek Loop,Silsbee,TX,77656,409-755-2499
Bubba J Transportation,531 San Pedro,Goodrich,TX,77335,936-365-3781
Snr Transportation,3225 Cathy Ln,Belton,TX,76513,254-393-1109
Meny's Trucking,241 North Bliss,Dumas,TX,79029,806-930-6465
Garage Door Services,1213 Pancho Street,Lockhart,TX,78644,512-376-7245
Hoover's Transport,26120 Nichols Sawmill Rd,Magnolia,TX,77355,281-259-0029
Eddy Wrecker Service,1028 Cr Sw 3055,Saltillo,TX,75478,903-588-6944
Golden Eagle Trucking,11444 Ardelle,El Paso,TX,79936,915-269-3077
Rf Trucking,South 493 Morraco Drive Lot No 13,La Blanca,TX,78558,956-789-3251
B & B Trucking,1319 Machen Ln,Gilmer,TX,75644,903-790-2819
3 B's Transportation Services,1605 Terbet Lane,Fort Worth,TX,76112,817-360-2484
Hammer Transport,4903 N Bentsen Palm Dr,Mission,TX,78572,956-735-6801
Scott Flowler Trucking,2434b Business 287 J,Iowa Park,TX,76367,940-781-3617
Dillon Trucking,315 Maroby St,Houston,TX,77017,832-545-1217
F & D Transport,308 S Juanita,Edcouch,TX,78538,956-239-1367
Harold Transport,4945 Miller Ave,Fort Worth,TX,76119,323-236-7425
Mickens Trucking,5906 Roberts,Texas City,TX,77591,281-458-3411
Cgs Express,15464 Cardinal Trail,Conroe,TX,77302,832-335-6752
Michael P Harris Trucking,6091 Us Highway 79 South,Beckville,TX,75631,903-693-5951
A&e Mobile Home Moving & Service,6305 Andrews Hwy,Odessa,TX,79762,432-362-2697
Turner Transport,8216 Monterra Ranch Circle #1510,Ft Worth,TX,76177,817-637-9279
G & B Trucking,7621 Olivarez Dr,Weslaco,TX,78596,956-783-1100
Tbh Freight,7915 Lawnwood,Houston,TX,77086,832-434-5412
Express Transportation,14403 Export Rd,Laredo,TX,78045,956-790-9400
Easy Jet Transport,6061 Village Bend #1908,Dallas,TX,75206,214-295-7296
Bhullar Transport,8630 Westcove Cir,Houston,TX,77064,281-894-4646
Cayer Management Services,8295 Fm 327,Elmendorf,TX,78112,361-350-0442
Page Transport,12932 Leader Street,Houston,TX,77072,832-641-6955
Roberts Wrecker Service,2820 N W Loop 286,Paris,TX,75460,903-784-8182
L And L Trucking,601 Maynard Ave,Dalhart,TX,79022,806-249-0583
Vaqueros Trucking,15406 Evanston Avenue,Lubbock,TX,79424,806-239-7538
George Walker Trucking,285 Cr 129,Clyde,TX,79510,325-893-5519
Kg Trucking,128 Haberle Rd,Seguin,TX,78155,830-303-4520
Bullseye Freight,1307 12th Street,Galena Park,TX,77547,713-418-0060
Odom's Auto Service,1734 M L Anderson,Tenaha,TX,75974,936-248-2041
Edwards Hot Shot Company,3718 Ovilla Road,Red Oak,TX,75154,214-542-2731
Steve Phillips Trucking,6058 Fm2109,Huntington,TX,75949,936-876-3159
B&b Farm Horse Transport,13639 Abrahamson Rd,Manor,TX,78653,512-771-7718
J&c Transportation,11912 Pueblo Amable Way,El Paso,TX,79936,915-740-1470
Gunbarrel Transportation,2000 E 42nd,Odessa,TX,79762,432-438-5445
A & B Trucking,1207 Doubles Dr 702,Arlington,TX,76017,469-774-8688
Associates Express,1800 N 7th Ave,Crystal City,TX,78839,830-374-4400
R Garcia Trucking,5204 Opal Rd,Laredo,TX,78046,956-949-2197
R D Miller Trucking,9272 Nw Cr 1342,Blooming Grove,TX,76626,972-841-0374
Casso Transport,3002 Barcelona Ave,Laredo,TX,78040,956-791-1047
La Trucking,16002 Pin Oak Ridge St,Houston,TX,77073,832-273-9270
Direct Transport LLC,851 Vzcr 3434,Wills Point,TX,75169,903-873-5351
Elite Transport,13916 Heartside Pl,Farmers Branch,TX,75234,972-408-6591
Big Tex Auto Transporters,12551 Saddle Club Dr,Forney,TX,75126,214-682-8446
Es Lujo Trucking,2812 North Jesus Flores,Elsa,TX,78543,956-239-6012
2 Gs Trucking,663 West Texas Avenue,Waskom,TX,75692,903-407-7940
J & S Trucking,706 Cherokee,Hereford,TX,79045,806-674-2905
Goldine Trucking And Hauling,5702 Groveton Street,Houston,TX,77033,713-734-6617
Keina Express,3808 Avocet Ave,Mcallen,TX,78504,956-664-0484
Buck Wild Express,845 Cr 455,Dayton,TX,77535,936-258-0800
Ms Just In Time Trucking,5216 Jordan Ridge,Dallas,TX,75236,469-422-5614
J & M Trucking,210 W Crestway St,Plainview,TX,79072,806-729-1358
Rk Hot Shots,2855 Coble Rd,Poteet,TX,78065,210-884-2909
Royal Transport,219 Western Boulvard,Brownsville,TX,78520,956-233-8855
Colmont Trucking,10201 Bretton,Houston,TX,77016,713-633-3680
E And J Transportation,159 Lynnwood Dr,New Caney,TX,77357,713-992-2291
Garcia Transport Express,4413 N Westgate,Weslaco,TX,78596,956-472-6052
Villarreal Trucking,1007 E 2nd St,Mission,TX,78572,956-581-4794
Amr Transport,1822 Lone Oak,Houston,TX,77093,713-632-7905
Sierra Oilfield Transportation,5370 W Avacado,Odessa,TX,79766,432-349-7088
Ac Trucking LLC,9955 Kempwood Dr Apt 907,Houston,TX,77080,573-330-9048
Transportes Evin Armas,213 Fm Rangerville Rd #1479,Los Indios,TX,78567,616-295-8987
R & B Transports,1801 Damasco,Edinburg,TX,78541,832-814-0312
J&j Xpress,2912 North 32nd St Apt 2,Mcallen,TX,78501,323-384-2523
Jnl Express,406 Schulte Road,Sealy,TX,77474,337-594-8448
Ray Rodriguez Trucking,7193 5 Old Talley Rd,San Antonio,TX,78253,210-688-6467
El Mulato & Mundo Services,1044 Washington St,Kermit,TX,79745,432-208-3028
Texas Rebel Trucking,9911 Palm Dr,Baytown,TX,77521,832-880-1194
Texas Moving Services,11 Oak Creek Ste A,Kaufman,TX,75142,214-543-1612
Miguel Angel Trucking Corp,815 Hickory Hill Dr,San Antonio,TX,78219,786-487-6228
Will Solomon Trucking,717 Farm Road 2664,Nacogdoches,TX,75965,936-554-9590
Eagle 1 Transport,3409 Ulex Ave,Mcallen,TX,78504,956-907-0774
Soms Global Logistics,11526 Harwin Drive,Houston,TX,77072,281-690-2966
Steve Pebley Services,340 Cr 4779 South,Sulphur Springs,TX,75482,214-240-0801
S & S Express,9918 S Hwy 121,Trenton,TX,75490,972-346-3956
Munoz Trucking,1011 N Arthur,Amarillo,TX,79107,806-336-2222
Arevalo Marcotrucking,409 Hahlo St,Houston,TX,77020,713-673-1629
J City Trucking,8511 Wingo Way,El Paso,TX,79907,915-443-6926
Y & G Trucking,10803 Ribstone Circle,Houston,TX,77016,832-293-6161
Ysuhuaylas Transport,1105 Crossbend Rd,Plano,TX,75023,214-607-5608
Casa Trucking,9203 Strathmill Ct,Houston,TX,77095,281-851-7885
Ruch Transport,13007 Benford Drive,Houston,TX,77099,281-498-0898
Empty Pockets Express,5800 Lake Lucerne,San Antonio,TX,78222,210-648-3220
M C Trucking,409 Hickory,Dumas,TX,79029,806-930-6611
Roadhouse Transportation,6250 Westpark Dr Ste 110,Houston,TX,77057,713-858-0519
S & A Transport,708 Eagle Ave,Pharr,TX,78577,956-342-4292
Ldp Hauling,6653 Weir Rd,Cleveland,TX,77328,281-796-6868
Stokes Brothers Trucking,4977 Cr 493,Hawley,TX,79525,325-660-8733
Finish Line Transport,8601 Puerto Escondido,Laredo,TX,78045,956-242-7667
Big H Carriers,9931 Northwest Park Place Dr,Houston,TX,77086,281-669-6813
G&m Freight Carriers,1701 Star Ruby St,San Juan,TX,78589,956-578-9261
R G Trucking,1316 N 4th,Temple,TX,76501,254-773-7967
Galax Freight Transport,7106 Turtle Lagoon Row,Houston,TX,77036,713-334-7709
Atl Logistics,1314 E Texano Rd,Hidalgo,TX,78557,956-843-7998
Martinez Transport,4626 Silver Dr,Dallas,TX,75223,214-827-3931
R K & Sons Trucking,12300 Brookglade Circle 82,Houston,TX,77099,832-859-5833
Road Runners Transport,1903 W 41 1 And 2 St,Mission,TX,78573,956-739-0909
A&f Express,1607 Monte Cruz St,Mission,TX,78574,956-584-8118
Celadon Truck Load,3817 Sabatini Street,Weslaco,TX,78596,956-472-5393
Gomez & Ortega Transports,22532 Las Palmas Cir E,Harlingen,TX,78550,956-241-0700
Just Trailer Services,12942 Barcus,Houston,TX,77015,832-889-3292
Ramirez Ohana Trucking,102 1st Street,Bovina,TX,79009,254-338-4382
Mid Coast Express,1512 Garden Drive,Mission,TX,78572,956-222-5723
Ace Transportation,21940 Ann Showers Dr,Elgin,TX,78621,512-821-1902
Hard Time Trucking,1508 Oak Meadows Drive,Dallas,TX,75232,214-325-7913
T & A Trucking,8306 Burg,Houston,TX,77088,281-447-5160
Barber Boyz Trucking,620 Golfview Lane,Grand Prairie,TX,75052,214-552-4300
Rangle Trucking,4605 Oates Rd,Houston,TX,77013,713-672-8800
C A Transport,1801 Lewis Dr,Garland,TX,75041,469-298-0697
J Zorrilla Trucking,4105 Warbler St Apt #79,Dallas,TX,75227,469-286-9015
D & S Trucking,508 Ruth Street,Baytown,TX,77520,281-639-9579
Amor Brothers Trucking,9707 Ella Blvd,Houston,TX,77038,281-260-0205
Dragon Express,421 E Thomas Rd Apt 5108,Pharr,TX,78577,956-874-8740
Avril Transport,15803 Mountain Mist Trail,Houston,TX,77049,713-373-6983
R&y Trucking Express,311 Remington Green Ct,Houston,TX,77073,281-667-2477
Unique Auto Transport,3801 Nolana Ave,Mcallen,TX,78504,956-631-0056
Requested Courier & Logistics,248 Private Rd 6953,Mineola,TX,75773,214-217-9907
Triple J Transportation,802 E Expressway 83 Ste I,Pharr,TX,78577,956-961-1918
Kelley's Auto Transport,4207 Castor St,Houston,TX,77022,832-279-6701
4 R Transport,6310 Gladwell Drive,Houston,TX,77072,281-564-2395
N & E Transport,2828 Josephina Rd,Edinburg,TX,78541,956-239-0717
Jc Trucking,Leo 2nd Street,La Joya,TX,78560,956-227-8580
C And C Trucking,505 N Sam Houston Parkway Suite 525,Houston,TX,77060,281-931-3570
Valentina's Transportation,2305 Kennedy Drive,Weslaco,TX,78596,956-246-9384
Velas Transportation,217 South Bridge Ave,Weslaco,TX,78596,956-463-4943
J K P Trucking,637 Mist Mountain Drive,Fort Worth,TX,76140,817-905-5428
Mj Transport,709 E 3rd St,Irving,TX,75060,469-682-0550
L S Express,7393 E Expressway 83,Rio Grande City,TX,78582,956-227-6969
B & J Trucking,7024 Gillis Johnson St,Fort Worth,TX,76179,817-386-3694
Coastal Transport,1 Clark Dr,Conroe,TX,77301,936-760-9424
Snaal Transport,7207 Flagstaff,El Paso,TX,79915,915-329-4985
Str8 Grinding Trucking,5022 Fm 1765,Texas City,TX,77591,409-933-0901
Interstate Carriers Express,5202 Azalea Avenue,San Juan,TX,78589,956-821-4794
Carney Truck Lines,7308 Natalie Dr,Fort Worth,TX,76134,817-404-9886
Anthony Tullos Services,7218 Wedgewood Drive,Magnolia,TX,77354,832-217-8723
Houston Wildcat Transportation,6802 Fm 1942,Baytown,TX,77521,281-421-1277
Velas Transport,11513 Mile 2e Rd,Mercedes,TX,78570,956-376-6122
Arredondo Trucking,542 N 10 1/2 St Box 8114,Alamo,TX,78516,956-457-3551
Espino Tonche Trucking,5041 Sierra Madre Dr,El Paso,TX,79904,915-479-5065
Highgear Trucking,2715 Gallant Ct,Southlake,TX,76092,214-770-6669
Mario Brother Trucking,12030 Green River Rd,Houston,TX,77044,281-809-5782
Jmj Courier & Delivery,504 Via Altos Drive,Mesquite,TX,75150,214-282-7226
R&d Martinez Transportation,2906 South Spring,Amarillo,TX,79103,806-382-2454
Double Aa Express,345 Champion Blvd Apt 225,San Marcos,TX,78666,512-317-6058
Stevens Hotshot,1812 Redwood Road,Gilmer,TX,75645,903-738-0336
Chacon Trucking,12329 Bill Mitchell Dr,El Paso,TX,79938,915-539-3762
Memo's Trucking,23106 Harpergate,Spring,TX,77373,832-287-9304
Direct Logistics Transport,16770 Hedgecroft Ste 702,Houston,TX,77060,281-405-8320
Del Pitts Trucking,5083 Fm 2123,Paradise,TX,76073,940-740-1051
R&e Transport,2810 Norton,Laredo,TX,78046,956-750-0616
R&dtrucking,463 Jerry Lucy Rd,Longview,TX,75603,903-643-8459
Auto Transporte Pwr,13331 Yerba Aniz,San Elizario,TX,79849,915-491-5264
Dynamic Transportation,301 Sw Ave K,Seminole,TX,79360,432-209-1132
Ameritrac Railroad Services,1210 West Archer Road,Baytown,TX,77521,281-474-4555
Aia Cable Tool Services LLC,529 Hazel St,Pampa,TX,79065,806-669-1797
J Marquez Trucking,824 Oak Brook Drive,Grand Prairie,TX,75052,214-325-8588
Diamond D Transportation,3438 Linda Drive,Dallas,TX,75220,214-417-1293
Phd Trucking,920 S Main Suite 200,Grapevine,TX,76051,817-410-9070
Zamzam Logistics,9947 Harwin Dr Suite I,Houston,TX,77036,281-300-3784
Leonard Allen,539 Cr 369,Broaddus,TX,75929,936-872-9937
Mrg Trucking,403 Olmo Street,Mission,TX,78572,956-624-7003
Thompson Transport,1019 Cottage Oak Ln,Houston,TX,77091,281-736-5041
M J Transport,312 Garza St 5th,La Joya,TX,78560,956-580-3979
Holguin Trucking,162 East Borman,Odessa,TX,79766,432-556-3549
Ram Logistics,5528 Portugal Loop,Laredo,TX,78046,956-220-4728
Cj Logistics,510 Pepper Tree Dr,Donna,TX,78537,956-784-0578
Hatch's Wrecker And Auto Service,2009 North Margaret,Kirbyville,TX,75956,409-423-3100
Titan Express,1705 W 22nd St,Mission,TX,78572,956-583-7412
A And L Trucking,141 Pr 3208,Bridgeport,TX,76426,940-210-2544
First Express Services,902 Paradise Circle,Mission,TX,78572,956-400-9401
H F Trucking,1111 Somercotes Ln,Channelview,TX,77530,281-860-9868
Herrera Trucking,4702 Daisy Meadow,Katy,TX,77449,281-657-5827
Golley Petersen Express,6701 Greenspring Dr,Artlington,TX,76016,817-937-1584
Sams Trucking,4132 Periwinkle,Mcallen,TX,78504,956-686-2077
Lvc Transportation,10484 Kirkland St,Socorro,TX,79927,915-860-7146
Maad Transport,144 Cordova Ln,Laredo,TX,78043,956-744-7708
3 Diamonds Transport,11852 Snow Hawk,El Paso,TX,79936,915-276-3859
Big C Transport,13205 Magdalena St,Weslaco,TX,78596,956-262-9961
Vargas Hauling,311 N Barron Rd,Covington,TX,76636,254-854-2830
Magdari Transport,9303 Custer Rd Apt 1517,Plano,TX,75025,203-300-9148
Beavers Fence Company,678 Julius Davis Lane,Marshall,TX,75672,202-521-1493
Tyke's Trucking,12694 St Hwy 154,Harleton,TX,75651,903-930-3999
Wilsons Transit,5171 Charlene St,Fort Worth,TX,76105,817-994-5552
Intra-services Waste Transport,16217 Ridlon Street,Channelview,TX,77530,281-452-9803
Jmc Carriers,5802 Longoria Loop,Laredo,TX,78041,956-251-0323
J F K Transport,Rt 1 Box 44 B,San Juan,TX,78589,956-460-3164
S H Trucking,1307 S Otyson,Mt Pleasant,TX,75455,903-424-4758
Borunda Trucking,Rr 2 Box 3,Hale Center,TX,79041,575-637-4107
Transcivil,915 Nw 28th Street,Fort Worth,TX,76164,817-744-7120
Taylor Trucking,247 Cr 2610,Decatur,TX,76234,940-627-3520
B & B Express,806 N Dwight Ave,Dallas,TX,75211,214-467-3200
V F F Transport,10 W County Road 204,Pecos,TX,79772,432-447-0108
Pacas Freight,850 Springwood Dr,Grand Prairie,TX,75052,214-334-7461
Red Raider Moving,600 S Tyler St,Amarillo,TX,79101,806-322-1152
Salinas Trucking,25053 Brushline Rd,Edinburg,TX,78541,956-221-0351
Apache Trucking,494 W Apache Point,Odessa,TX,79766,432-631-6605
Vm Transportation,17524 Sabal Palm Dr,Penitas,TX,78576,956-310-1623
Felix Transport,404 Chase Hill Lane,Burleson,TX,76028,817-297-7235
Reaves Trucking,1400 Williams Street,Cleveland,TX,77327,281-593-0235
Double G Trucking,3612 Red Oak Ln,Plainview,TX,79072,806-296-5829
Wesley Scott Trucking,156 Cr 1160,Cooper,TX,75432,903-366-1673
H & D Trucking,1721 Nobis Ave,Edinburg,TX,78539,956-720-9386
Moreno Transport,5220 Tropicana Avenue,El Paso,TX,79924,915-227-2767
Sulemko Transportation,11511 Meadowbrook Dr,El Paso,TX,79936,915-252-0174
Hv Trucking,2835 Oak Crest Dr,Grand Prairie,TX,75052,817-819-5989
Kg Transport,5540 Bennett Lawson Rd,Mansfield,TX,76063,817-563-0219
Stiles And Company,11240 Perry Rd Apt 144,Houston,TX,77064,832-881-6505
No Limit Trucking,1904 N Illinois Ave,Brownsville,TX,78521,956-293-0511
Belew Mulching Service,615 County Road 097,Jasper,TX,75951,409-489-6290
Jm Trucking,714 Hillside Drive,Grand Prairie,TX,75051,817-366-7422
In-tex Transportation,11031 Spell Rd,Tomball,TX,77375,281-351-0878
Vehi Quest Auto Brokers,6238 Skylark Circle,North Richland Hills,TX,76180,817-726-4168
Georga A Hull,1561 Fm 1512,Jewett,TX,75846,903-626-5153
Rhys Transport,114 Lindy Lee Ln,Mabank,TX,75156,903-275-8064
Iracer Trucking,8800 South Cage,Pharr,TX,78577,956-283-8600
Under Siege Transport,6303 Dawnridge Rd,Houston,TX,77035,713-393-4577
Vazquez Truckin,504 Sandpiper Ln,Mesquite,TX,75149,469-487-3913
C & J Trucking,405 Ne 13th,Paris,TX,75460,903-737-2919
Sandoval Transport,386 Airway Dr,Houston,TX,77037,832-230-1611
Danas Run Transport,7718 Antoine Drive,Houston,TX,77088,832-814-0664
E & J Trucking,614 Muckleroy,Nacogdoches,TX,75961,936-462-1607
Webb's Trucking,155 Horton St,Vidor,TX,77662,409-828-2110
By Faith Trucking,465 Lone Oak,Rusk,TX,75785,903-391-8054
Distribuidora Tolteca,1104 S Edgefield Ave,Dallas,TX,75208,469-441-5696
D & D Transportation,9135 Pr 2311,Quinlan,TX,75474,903-356-3136
Medina Trucking,23119 Skila Dr,Elmendorf,TX,78112,210-373-3590
Blue Star Transport,Rt 12 Box 341,Edinburg,TX,78541,956-289-8769
Cim Transport,3034 Valletta St,Brownsville,TX,78520,956-544-7233
Dsr Transport,1425 Wheat Field Dr,Mesquite,TX,75149,214-609-9606
Batres Transport,1886 Cr 105,Plainview,TX,79072,806-685-8015
Julio's Trucking,3904 Summer Hill Dr,Balch Springs,TX,75180,214-580-0389
Mp Auto Transport,1723 Wood Quail Way,El Paso,TX,79936,915-694-4566
Taurus Express,11410 Rendezvous Dr,San Antonio,TX,78216,210-377-0077
Rodriguez Transport,405 E Spurgeon,Itasca,TX,76055,254-707-0961
Rjs Trucking And Bobcat Hauling,1100 Hawaii St,El Paso,TX,79915,915-355-8784
Hot Rod Cycle & Auto Transport,17908 Fm 197,Sumner,TX,75486,903-782-9232
J G C Transportation,1814 North Link,Palestine,TX,75803,903-729-3560
Wild K Express,1234 Cr Aa,Muleshoe,TX,79347,575-309-5230
Russo Transport,1831 Fm 2397,Friona,TX,79035,806-363-0274
Tat Express,915 Finn Rd Suite 120,Wilmer,TX,75172,972-225-3017
K-c Trucking,3509 Gabbie Lane,Edinburg,TX,78541,956-867-2824
Southwest Transportation,15254 Kingsbridge Way,Houstob,TX,77083,281-575-1205
Hta Transport,11835 Priscilla Circle,El Paso,TX,79936,915-307-3283
Vgm Express,634 Star Lane,Edinburg,TX,78539,956-316-1545
Keith Lang Dozer Service,112 Cr 2128,Atlanta,TX,75551,903-799-7168
C & O Trucking,171 Barker Rd Apt B,El Paso,TX,79915,915-727-4912
From The Ground Up Truckin,9600 Forest Ln 145,Dallas,TX,75243,469-233-9716
Double R Trucking,14914 Merritt Ln,Houston,TX,77060,832-380-0805
Lozano's Freight,15 Las Lomas,Rio Grande City,TX,78582,956-735-0297
Rental Transport Services,7639 Canyon Drive,Amarillo,TX,79110,806-322-0021
Mitchell Transportation,135 W Browning,De Kalb,TX,75559,903-701-7517
Vld Truck And Tractor,109 Jasper Ln,El Paso,TX,79927,915-859-3865
T A M Transport,202 Chimney Rock St,Lufkin,TX,75904,936-634-0910
Meredith's Trucking,2500 Southcrest Dr,Arlington,TX,76016,817-654-2394
Prime Logistics,12020 Meadow Gate Dr,El Paso,TX,79936,915-497-5277
Vp Transport Services,846 Richview Dr,Houston,TX,77060,281-821-2042
Big Game Trucking,1013 Wall Street,Houston,TX,77088,832-896-1935
Belinda's Transport,1516 Registry Drive,Desoto,TX,75115,469-744-3078
Black Knight Hotshot,400 South Railroad,Fritch,TX,79036,806-397-0191
Whitey Trucking,270 Fm 489 East,Buffalo,TX,75831,903-389-4426
Nick Transports,7419 Silentwood,Houston,TX,77086,N/A
Ranch Hand Transport,1206 Borland Ln,Wichita Falls,TX,76305,940-235-5274
Air-freight Truckers,754 Port America Place,Grapevine,TX,76051,817-350-3272
S & P Trucking,3894 Llama Rd,Gilmer,TX,75644,903-762-1792
Charles Will Truck,100 Cardinal,Lumberton,TX,77657,409-828-0533
Nash Trucking,3357 Nutmeg Road,Big Sandy,TX,75755,903-725-7844
Nuevo Leon Trucking,1624 Tiffany,Mission,TX,78574,956-271-4327
Yr Transportation,5047 Redwing Brook Trail,Katy,TX,77449,281-855-7623
Blessed Express Transportation,9494 Humble Westfield Road Suite 2212,Humble,TX,77338,281-924-8728
Kbc Trucking,3808 Sevenoaks Drive,Keller,TX,76248,469-226-9761
Ctl Black Diamond Transportation,6241 Warrington Place,Fort Worth,TX,76112,817-706-5485
Kaliman Logistics,3115 E Nixon Ave,Mission,TX,78574,956-739-3834
Bag Transport,6606 De Moss Drive 1804,Houston,TX,77074,832-766-0023
All American Truck Lines,1221 S Hammond,Mathis,TX,78368,361-547-0803
F&a Transportation,8165 East 17 Halfmile,Edinburg,TX,78542,956-316-3367
Chapa Transport,305 E Ave J,Robstown,TX,78380,361-548-2596
Mart'z Trucking,125 Tecate Dr,Mission,TX,78572,956-489-2001
G Transport,1618 69th St,Lubbock,TX,79412,806-559-9527
Rh Transportation,6401 Bingle Rd Ste 120,Houston,TX,77092,281-888-3051
Gallegos Trucking,505 South K St,Harlingen,TX,78550,956-281-6711
M & T Express,1113 Melrose St,Garland,TX,75040,469-585-3721
Fluid Transport,13608 Midway Road,Dallas,TX,75244,972-860-7842
K & M Services,9080 Cr 436,Marquez,TX,77865,936-396-3414
Ochoas Trucking,136 Max Garcia Cir,Garciasville,TX,78547,956-735-9414
Bright Star Trucking,1005 Prairie Ave,Cleburne,TX,76033,817-517-7497
Amazing Grace Trucking,3200 Fleetwood Dr A5,Amarillo,TX,79109,806-206-2056
Rodriguez Transport,1512 N Houston,St Cameron,TX,76520,254-482-1203
Albert Edwards Trucking,2573 County Road 3500,Honey Grove,TX,75446,903-378-3530
Peter And Sons Transport,9385 Arkansas Rd,Brownsville,TX,78521,956-233-8855
"Rosen Logistics, Inc.",14100 Interdrive East,Houston,TX,77032,281-925-0227
Coast To Coast Transporters,811 San Jacinto,Lockhart,TX,78644,210-896-3059
Twin City Trucking,5707 Meadowlark Driver,Richmond,TX,77469,832-418-0389
Lockstedt Trucking,2317 North 7th Street,Abilene,TX,79603,325-677-5149
D G Trucking,908 Willaby Ln,Channelview,TX,77530,281-452-1602
Diversified Transportation,1325 E Loop 301,Sulphur Springs,TX,75482,903-885-1296
Deep South Transport,1104 Live Oak St,Elsa,TX,78543,956-532-4261
Moonlight Transportation,11707 Sela Ln,Houston,TX,77072,281-236-8131
C2c Transport,2501 Audrey Lane,Amarillo,TX,79118,806-223-6257
Crown Moving,9682 Hwy 8 North,Douglasville,TX,75560,903-826-5326
Christ Is The Way Trucking,919 S Weatherred Apt 111,Richardson,TX,75080,469-328-2410
Msw Express,12019 Sun Canyon Ct,Tomball,TX,77377,832-435-5746
Freightbuzz,808 S College St Ste 306,Mckinney,TX,75069,305-867-8757
E & P Trucking Ii,3829 East Loop 820 S Ste 220,Fort Worth,TX,76119,817-507-3516
Mh Transport,120 Mina De Oro,Mission,TX,78572,956-222-6394
Branded Freight,967 Cr 118,Hico,TX,76457,254-785-2575
Gmc Transit Htx,406 E Wayside,Wharton,TX,77488,713-757-2284
All Around Hot Shot Company,41 Willow Brook Ct,Martindale,TX,78655,512-557-0491
C&f Trucking Company,704 Polk Dr Apt 213,Arlington,TX,76011,817-200-6411
All Usa Moving & Storage,19618 Plantation Road Trl,Katy,TX,77449,832-231-7767
Usa Express Carriers,1701 Avocet Apt E9,Mcallen,TX,78504,956-223-8741
Clough Transport,116 Belair,Winters,TX,79567,325-754-4640
Jody Parks Trucking,10106 Technology Blvd W Apt 612,Dallas,TX,75220,214-883-5636
Kw Transport,16437 Fm Rd 16 W,Lindale,TX,75771,903-881-0815
Superior A Transport,824 W Clark,Pharr,TX,78577,956-325-3828
G & S Trucking,1608 S Fannin,Amarillo,TX,79102,806-367-8920
C & M Trucking,1176 Farm Road,Center,TX,75935,936-598-8151
Dlm Trucking,25901s Us Highway 87,Canyon,TX,79015,806-570-9520
Northern Star Transport,2116 S 30th Street,Mcallen,TX,78503,956-278-6079
G R Transport,5812 Jacks St,Edinburg,TX,78542,956-515-8767
Desertmoon Trucking,2304 W 14th,Odessa,TX,79763,432-634-0633
Henson Trucking,160 County Road 105,Seminole,TX,79360,432-758-3353
Times Express,3820 S Evangelina St,Edinburg,TX,78541,956-223-0258
J Max Express,122 Miller Circle,El Paso,TX,79915,915-449-4757
Bay Area Transport,3215 Iowa,Baytown,TX,77520,888-558-3604
C H Transport,5804 Tradewind Circle,Laredo,TX,78041,909-544-1942
De La Cruz Trucking,14202 Tachie Drive,Mercedes,TX,78570,956-234-3275
Covington Hot Shot,15627 Sunset Rock,Houston,TX,77084,281-463-3434
Titan Express,1705 W 22nd St,Mission,TX,78572,956-583-7412
Castillo Auto Transport,2343 Cartwright Street,Dallas,TX,75212,210-625-2709
Riley Williams Truckin,4101 Delafield Lane Suite 14 106,Dallas,TX,75227,214-694-7598
Charlie Ford Transport,6833 Buggy Trail,Athens,TX,75751,214-502-6061
Fort Worth Motor Express,308 N Beach Street,Fort Worth,TX,76111,817-831-8500
Rdm Transportation,1201 Ave J,South Houston,TX,77587,713-940-7291
Ust Services,3683 Cr 4806,Athens,TX,75751,903-677-2195
G T Logistics,2006 Eastfield Cr,Missouri City,TX,77459,832-524-3989
Vaquero Energy Services,229 W Main,Donie,TX,75838,254-359-4490
Service Transport,657 Cr 2840,Mineola,TX,75773,903-569-2882
Dba Pms Heavy Haul,22703 Acorn Valley Dr,Spring,TX,77389,281-353-5029
Yj Trucking,9247 Waving Fields Dr,Houston,TX,77064,832-618-3225
Gg Trucking,141 E Ovilla Rd,Red Oak,TX,75154,619-754-1313
Anciras Transportation,10203 Cheetah Lane,Laredo,TX,78045,956-568-3550
Us Cargo,12381 Peak Cir,Frisco,TX,75035,972-821-1124
D5 Trucking,610 Soledad Street,Arlington,TX,76002,951-377-0482
Destiny Transport,8327 Opalwood Lane,Humble,TX,77338,832-524-2960
Fabwright Custom Freight Service,10320 Climer Circle,Amarillo,TX,79124,806-354-8900
Iv J Logistics,1524 Cypress Dr,Weslaco,TX,78596,956-495-6985
D&s Transport,507 Wilkes,Wharton,TX,77488,979-531-8079
Clutch City Express,14925 Stuebner Airline Ste 304a,Houston,TX,77069,832-476-8492
Dba J & J Transport,2802 N Quaker Space 49 A,Lubbock,TX,79415,806-283-5075
Eagle Eye Services,485 County Road 407,Carthage,TX,75633,903-693-6122
Robert Palmer Trucking,563 Aviator Drive,Fort Worth,TX,76179,310-987-0951
Leo's Trucking Co,14700 Miguel Street,Clint,TX,79836,915-731-4094
Djl Trucking,19623 Mackinaw Isle Ct,Cypress,TX,77429,832-868-1722
Jac Transportation,267 County Rd 4480,Warren,TX,77664,409-547-0406
Jandro Lopez,511 Sixth Ave,Anthony,TX,79821,915-892-9834
Litten Transport,2000 W Hwy 82,Whitesboro,TX,76273,940-224-5032
Burns Trucking,709 Eddorado Dr,Desoto,TX,75115,817-313-4100
Mss Transport,2540 Ridgmar Boulevard Apartment 05,Fort Worth,TX,76116,501-813-2530
4f Express,705 Brooklyn,Dalhart,TX,79022,806-244-9769
Self Transportation,5602 Woodhollow Dr,Arlington,TX,76016,817-308-7614
R&g Transport,111 Magee Lane,Robstown,TX,78380,361-443-6733
Community Education Centers,3400 Fm 350 South,Livingston,TX,77351,936-967-8000
Vitolas Transport,4917 Melinda Dr,Fort Worth,TX,76119,817-536-5339
Mcdonald Trucking,13147 Lima Drive,Houston,TX,77099,281-498-0019
Chad Fucik Dba Rocking F Trucking,1028 Lions Park Drive,Garwood,TX,77442,979-758-9044
Chapman Hot Shot,8310 Cr 3700,Murchison,TX,75778,903-469-3979
Chris B Trucking,10938 Meadow Walk Ln,Houston,TX,77067,281-999-2447
Jl Trucking,201 W Simonds Rd,Seagoville,TX,75159,214-533-5778
Cowboy Transportation,1909 Park Avenue South #70,Arlington,TX,76010,682-241-4514
Desert Interstate Logistics,11169 Cutty Sark,El Paso,TX,79936,915-313-5901
Trahan Trucking,6424 Jade Avenue,Port Arthur,TX,77640,409-736-3817
Jc Cherry & Son Transport,9427 Mayblossom Way,Dallas,TX,75217,972-762-7956
Cj Transportation,1550 Dugosh Rd,Pleasanton,TX,78064,830-277-2146
Salas Transport,2002 Jasmine St,Denton,TX,76205,940-765-1317
Jog Freight Services,108 Vanderbilt Lane,Waxahachie,TX,75165,469-688-1416
Blue Lake Transport,7302 Red Deer Paff,San Antonio,TX,78249,N/A
Lnc Express,1212 Idle Wild,El Paso,TX,79925,915-775-9314
Duran & Sons Trucking,104 Bay Meadows Drive,Irving,TX,75063,818-687-7827
Lariat Transport,158 Woody Creek,Springtown,TX,76082,817-707-4077
Arana's Trucking,1610 N Highland St,Amarillo,TX,79107,806-420-0563
Wilganowski Cattle Co,11633 Mesquite Ave,Hearne,TX,77859,970-422-1158
Ricardo Olivarez Trucking,613 S Mile Rd,Mission,TX,78572,956-345-4597
Lonell Hooper Trucking,590 Prince Strret,Beaumont,TX,77703,409-791-2414
G & H Transport,1912 East First Street,Mount Pleasant,TX,75455,903-434-3834
Larry James Trucking,10382 S Fm 2790 W,Somerset,TX,78069,830-429-3136
Gonzalez Dump Truck Service,4992 Hoisache Street,Sealy,TX,77474,281-799-8583
Mg Canales Trucking,Fm 1732 & Parker Street,Olmito,TX,78575,956-350-4325
R & F Trucking,2509 Nw Loraine St,Fort Worth,TX,76106,817-353-2128
T&r Hauling,2912 W Morton,Denison,TX,75020,903-814-6557
Copeland Transport,8304 Tropical Drive,Donna,TX,78537,956-630-2962
Garcia's Hot Shot Delivery Corporation,100 S Wright Ave,Kerens,TX,75144,903-396-0117
Morales Trucking,314 Austin St,Brownfield,TX,79316,806-637-1021
Art's Trucking,701 S Browning,Amarillo,TX,79104,806-342-3626
Agi Services,5017 Augusta St #3,Houston,TX,77007,713-320-2326
D N Jesus Freight Service,12605 Sun Mist,El Paso,TX,79938,702-208-5635
Lazy H Transport,1330 Reid Rd,El Paso,TX,79927,915-637-4305
Tk Trucking,111 Elfwood Ct,Houston,TX,77015,832-397-0390
Crawfish Trucking,403 Rolling Hills,Cleburne,TX,76033,817-558-0096
Eagle Express Carrier,60 Calle Sotelo,Eagle Pass,TX,78852,830-352-5024
Lawson Trucking,1907 Cr 2608,Center,TX,75935,936-591-9207
Texan Dump Trucks Ii,4500 Texan Road,Mission,TX,78574,956-682-8600
Hinojosa Trucking,301 Aileen,Plainview,TX,79072,N/A
Matta Transports,17015 Carbridge Dr,Houston,TX,77084,281-788-2859
Ps Transport,2757 Fm 2127,Chico,TX,76431,940-395-6141
G&g Trucking,1190 Lyons,Progreso,TX,78579,956-375-6569
G & M Transport,3201 Washington Ave,Mission,TX,78574,956-454-2974
Stuart Hotshot Service,2449 County Road 4135,Henderson,TX,75653,903-241-6256
Telford Services,105 N Archer St,Groesbeck,TX,76642,903-391-7117
Guadalupe Becerra,7306 Brazos Avenue,Port Arthur,TX,77642,409-549-2918
E & B Trucking,1868 Wagon Trail,Denver City,TX,79323,806-252-0928
Gibbons Services,405 North Cummings,Alvarado,TX,76009,817-790-0299
P M Transport,508 East Howard Lane #259,Austin,TX,78753,512-689-4643
Lul Trucking,7305 Colfax Dr,Rowlett,TX,75089,972-475-8575
On Time Express,2609 N Dos Arbolitos Ave,San Juan,TX,78589,956-457-8972
Rebel Hauling,417 Huber Ln,Kyle,TX,78640,512-262-0200
L T H Trucking,457 North Rd,Kennedale,TX,76060,817-774-6086
Ham Trucking,2201 Cr 8,Odonnell,TX,79351,806-201-5008
R A L Transport,608 S Lamar St,Estland,TX,76448,254-631-9476
C C Movers,2637 Texas Ave,Bridge City,TX,77611,409-735-8801
Judd Trucking,2919 Thousand Oaks Dr,Anna,TX,75409,972-924-2729
Yellow Auto Sales,6201 Fm 1732,Brownsville,TX,78520,956-350-8811
Demeter Transport LLC,102 Robertson,Rio Hondo,TX,78583,956-748-2800
Rafter F Hot Shots,213 Ne Amy St,Burleson,TX,76028,817-447-3045
Lutkenhaus Trucking,270 Private Rd 345,Irene,TX,76650,254-205-3511
M & M Trucking,1150 Acr 161,Elkhart,TX,75839,903-764-0376
Armando Garcias Trucking,217 Margaret Ln,Red Oak,TX,75154,972-544-2486
R & V Trucking,3000 State Hwy 22,Hillsboro,TX,76645,254-582-2934
Lawrence Garcia,1301 48th,Lubbock,TX,79412,806-763-8968
Cmontoya Trucking,11575 Fowler Rd,Atascosa,TX,78002,210-381-0171
Jc Transportation Services,2637 Trinty St,Irving,TX,75062,214-883-5314
Red Wagon Hotshots,18701 Ih 35 N,Schertz,TX,78005,830-570-0672
S & D Delivery,3103 Georgia Pine,Spring,TX,77373,281-660-5574
Tmtk Trucking,1416 Cherokee Rose Ln,Burleson,TX,76028,817-896-6191
Allstate Trucking,2822 Childs St,Dallas,TX,75203,214-938-0534
Johnson Trucking,13020 Winding Oak,Lindale,TX,75771,903-882-5815
Fisk Dozer Service,722 Conlen,Dalhart,TX,79022,806-249-4242
Gonzalez Trucking,3009 Carnation,Fort Worth,TX,76111,817-891-4010
Roy Guzman Trucking,1185 El Venado Drive,Eagle Pass,TX,78852,830-776-1321
Walker Trucking,12525 Fm 2378,Anton,TX,79313,806-873-3460
Kadh Hotshot,50 Florey Lake,Kilgore,TX,75662,903-834-7324
T & K Trucking,1110 Spearson Ln,Austin,TX,78745,512-636-1442
Montes Trucking,227 Fm 3050,Whitney,TX,76692,254-707-0157
Correa Transport,1100 W Walker Rd,Caddo Tx 76429,TX,76429,972-992-8073
Xp Services,12230 Kindred Ln,Houston,TX,77049,281-454-6464
Faithworks Trucking,8820 Sagebrush Trail,Crossroads,TX,76227,972-292-3597
M G Express,Solis St,Santa Maria,TX,78592,956-357-8080
Allen Transportation,1618 Serenity Drive,Pflugerville,TX,78660,512-922-0964
Jamboo-pike Transport,1614 Leisha Dr,Killeen,TX,76549,254-526-2077
Zago Transport,3714 San Agustin Apt #2,Laredo,TX,78041,956-237-5318
Cm Trucks,3675 State Hwy 19,Huntsville,TX,77320,936-594-3389
"Triple Shot Express, Inc.",10576 Timberidge Dr,College Station,TX,77845,979-219-0509
Kevin Delp Trucking,350 Cr 4020,Woodville,TX,75979,409-283-7638
J F Livestock,839 Larry Drive,Gonzales,TX,78629,830-672-5784
Firewheel Transport,2629 Fm 741,Crandall,TX,75114,469-556-2756
Seven Days Express,616 Santa Ana,Weslaco,TX,78596,281-500-1499
S Villarreal Trucking,24311 E Terrace Dr,Porter,TX,77365,713-858-4808
Rm Transport,1747 Camarinos Dr,Eagle Pass,TX,78852,830-773-5773
Universal Freight Services,345 County Rd 2270,Cleveland,TX,77327,713-514-6491
Zamora Trucking,4619 Quachita,Houston,TX,77039,281-442-7092
Wernecke Recycling Service,3512 Claraboya Cane,Mission,TX,78572,956-783-1100
Coyote Transportation Services,4900 Askins Lane,Houston,TX,77093,832-279-3983
A & R Trucking,1509 Sylvan Dr,Plano,TX,75074,214-962-7305
Acm Trucking,2914 Aftonshire Way 11-203,Austin,TX,78748,512-638-2379
K & G Transport,9931 Vally Park Dr,Houston,TX,77078,713-928-0784
Mla Express,12823 Lake Conroe Hills Dr,Willis,TX,77318,713-203-4321
A & R Demolition,13201 Fm 812,Del Valle,TX,78617,512-243-2913
Dba B & K Delivery,303 Las Colinas Drive,Georgetown,TX,78628,512-863-4300
B&c Express,27558 Northgate Lane,Splendora,TX,77372,281-399-9308
Welding Service,311 North Hamilton Street,Iredell,TX,76649,254-364-2266
Three Brothers Trucking,514 Hillside Cout,San Antonio,TX,78258,210-481-9984
Montex Transportation,323 Wedgerock Dr,Webster,TX,77598,832-524-1242
Formaspace Logistics Services,1100 E Howard Lane Ste 400,Austin,TX,78753,512-279-2576
Valley Transport LLC,3608 Lott Rd,Donna,TX,78537,956-650-7322
Sizemore Trucking,517 Knox Av,Boyd,TX,76023,817-692-3874
Levane Transportation,19839 River Rock Drive,Katy,TX,77449,281-861-9392
J & E Transport,1009 W Stinson,Dimmitt,TX,79027,N/A
Sullivan Trucking,5038 N Sullivan Rd,Fort Stockton,TX,79735,432-336-5813
J O Trucking,1941 Fm 1002 S,Big Sandy,TX,75755,903-725-3397
Victory Trucking,1264 Cr 3533,Saltillo,TX,75478,903-258-4537
Lindley's Transport,Rt 1 Box 65,Desdemona,TX,76445,254-758-2691
M&j Service,604 Fm 1585,Lubbock,TX,79423,806-928-2879
Porras Produce Distributor,1809 Ne 3rd,Amarillo,TX,79107,806-373-4880
Carrizales Services,1421 Erwin Rd # 64,Houston,TX,77039,281-650-0426
Jacquez Trucking,1005 Morton,Dumas,TX,79029,806-935-8693
Well Done Trucking,4410 Page Road,Longview,TX,75605,903-353-8554
R Gomez Transport,8739 N Bentsen Palm Drive,Mission,TX,78574,956-583-4962
C Ej Trucking,1980 Canyon Ridge Street,Fort Worth,TX,76131,817-454-6778
Next Point Hauling,1800 Sherwood Forest St Bldg E,Houston,TX,77043,281-769-2399
G & M Auto Transport,1606 Omni St,Pharr,TX,78577,956-483-7492
Badillo Trucking,4000 Hollister Apt#100,Houston,TX,77080,713-213-9506
Camarena Trucking,402 Keenland Dr,Georgetown,TX,78626,469-576-0021
Kjr Trucking,208 5th St,Odonnell,TX,79351,806-201-5739
Express Freight Delivery,2319 Whispering Pines St,New Caney,TX,77357,832-794-8789
David Halewyne Trucking,5001 Fairdale Street,Pasadena,TX,77505,281-487-4539
J & T Trucking,1800 Ringtail Drive,Little Elm,TX,75068,972-347-3940
Rojo Trucking,P O Box 174,Newark,TX,76071,817-909-0788
D J E And Son's Transportation,8427 Pigeonberry Dr,Converse,TX,78109,210-313-1972
Cash Money Trucking,244 N Iowa Ave,Brownsville,TX,78521,945-466-1003
Rawhide Transport,555 Main,Lewisville,TX,75067,972-989-6470
Pj Transport,705 S 10th St,Mcallen,TX,78501,956-618-5457
Gs Express,5707 Springfield,Laredo,TX,78041,956-726-3377
Nunez Trucking,8608 Sagebrush Trl,Crossroads,TX,76227,972-294-4919
A&v Transportation,1501 Corsicana Hwy,Hillsboro,TX,76645,817-353-6390
Pena's Trucking,828 Edgemont Dr,Arlington,TX,76017,817-988-5446
Coats Trucking,7558 Metts Rd,Splendora,TX,77328,281-592-6409
Cobarrubia Trucking,333 Cummings St,Uvalde,TX,78801,830-261-8902
B Bell Trucking,1054 Jan Lee Dr,Burkburnett,TX,76354,940-569-6266
Hi Gear Transport,1921 Loma Alta,San Juan,TX,78589,956-929-5282
Rivera Transportation,702 S Hwy 101,Chico,TX,76431,940-644-2171
Jacquez Trucking,4315 Fm 3213,Dalhart,TX,79022,806-333-7529
Lm Transport,1827 Patricia Lane,Laredo,TX,78046,956-208-1219
Phillip & Sherry Mccaa Trucking,483 Rusk Ave,Wells,TX,75976,936-824-2828
C & T Trucking,401 Green Canyon Dr,Mesquite,TX,75150,972-203-5706
Ruvalcaba Juan Trucking,3726 Penrod,Dallas,TX,75211,214-355-0546
Two Men And A Truck,14309 Toepperwein Rd Suite 201,San Antonio,TX,78233,210-280-1980
Lionize Freight,21721 Holly Leaf,Porter,TX,77365,281-796-9036
Mckay Trucking,1007 S Jackson,Hereford,TX,79045,806-344-2856
Cc Transport,3810 Collins St,Fort Worth,TX,76119,202-521-1493
Jjb Auto Transport,3465 Lee Blvd # 217,El Paso,TX,79936,915-490-6493
Maggo Logistics,2816 Casados Dr,Missi0n,TX,78574,956-328-6053
Cg's Trucking,415 Angela Street,Roma,TX,78589,956-263-7638
Charles W Barnett Trucking Company,103 County Road 3310-d,Cleveland,TX,77327,281-592-8942
4-v Freight And Service,205 3rd St,Lakeview,TX,79239,806-867-3032
Cc Trucking,1015 Garza St 2,Laredo,TX,78040,956-231-9573
Valles Pocasangre Trucking,1602 Carl Road Apt 54,Irving,TX,75061,972-697-1754
Jack Johnson Trucking,1923 Crestdale,Houston,TX,77080,713-973-9268
Aguilera Trucking,3900 S Ware Rd Apt # 618,Mcallen,TX,78504,956-686-6773
Blue Star Transport,#6 Kerry Circle,Vidor,TX,77662,409-791-7539
Ferry Refrigeration Services,7292 Us Hwy 77a South,Cuero,TX,77954,361-293-2966
Gema Trucking,2919claudiadr,Leander,TX,78641,512-259-5649
E & K Trucking,1777 County Road 1214,Rusk,TX,75785,903-541-6250
Lane Trucking,120 Melanie Lane,Longview,TX,75603,903-643-8349
Tna Express,16514 Churchill Cove,Selma,TX,78154,210-843-3880
Action Auto Transporters,6653 Mckinney Ranch Parkway #4104,Mckinney,TX,75070,214-733-2151
Jsh Trucking Company,897 Fm 3013,Sealy,TX,77474,979-885-3708
Uresti Trucking,4815 Curve Rd,Edinburg,TX,78542,956-287-2965
S & S Transports,1019 South Bartlett Ave,Laredo,TX,78043,956-206-3782
Sl& B Trucking,401 Jacob,San Juan,TX,78589,956-781-7102
J R A Trucking,1214 Raines St,Arlington,TX,76010,817-819-9220
Gij Trucking LLC,9246 Blankenship,Houston,TX,77080,713-996-8767
Mlc Hauling,5675 Woodrow Bean Ste 8,El Paso,TX,79924,915-549-3594
Vilano Truck,16614 Sir William Dr,Spring,TX,77379,281-257-0280
Auto Transportes Yerani,6303 S Jackson,Pharr,TX,78577,956-783-1100
Link Usa Logistics,2027 Goldspring Ln,Spring,TX,77373,281-905-8598
V & A Trucking,2002 S Co Rd,Lamesa,TX,79331,806-872-5850
H Flores & Sons Trucking,628 Hermiston St,Rio Grande City,TX,78582,956-239-1449
A S D Trucking Co,4106 Lakehurst Court,Dallas,TX,75211,214-339-2975
Raze Express,6410 Fm 1430,Rio Grande City,TX,78582,956-598-2588
Seven Days Express,12420 Tierra Cebada Dr,El Paso,TX,79938,915-238-2145
Amza Transport Services,2509 Heather Ave,Edinburg,TX,78542,956-380-6737
A-z Transport,2809 Bluffview Dr,Lewisville,TX,75067,972-620-5622
G-1 Transport,132 Pr 3283,Gilmer,TX,75645,903-734-1351
Danielot Trucking,925 S Mason Rdste 222,Katy,TX,77450,281-394-2002
Molinas Trucking,1210 N Ave F,Denver City,TX,79323,806-592-3815
C Lima Trucking,3112 Windsor Rd,Carrollton,TX,75007,214-529-0445
Family Duran School Bus Service,5042 Spring Forest Dr,Houston,TX,77091,713-956-6748
Shine Time Transport,448 Bolero Ave,Dallas,TX,75217,214-388-4782
D Campos Trucking,737 Walker St,Fabens,TX,79838,915-764-6877
Tovar Trucking,600 S 6th Street Apt A,Mcallen,TX,78501,956-926-9480
Driven By Faith,907 Wandering Way,Allen,TX,75002,469-247-5429
Jose Flores Trucks,3706 Landa,Houston,TX,77023,832-858-7279
J & R Transport,1417 Belo Pl,Galveston,TX,77551,409-256-3643
Hinojosa & Son's Trucking,3670 South Loop 1604 East,San Antonio,TX,78264,210-626-1100
Brunson Deliveries,505 W Robin Court,Desoto,TX,75115,214-422-1294
Best Success Trucking,6605 Rutherford,Plano,TX,75023,318-525-7452
Mr Gus Trucking,1607 E 34th St,Plainview,TX,79072,806-292-9257
M A W Trucking Co,11620 Thousand Pines Cir,Frankston,TX,75763,903-312-4938
Dna Trucking,602 N Baird St Suite 222,Midland,TX,79701,443-466-4674
Cruz Trucking,11700 Audelia Rd Apt 614,Dallas,TX,75243,972-900-2538
Jackson Rollback Trucking Service,3743 Woodlace,Humble,TX,77396,281-454-5288
Dal-worth Delivery & Moving,2407 Glacier Street,Irving,TX,75062,972-255-0196
H Martinez Trucking,5403 Hwy 90 West,Eagle Lake,TX,77434,281-979-2912
No Limit Enterprise,2987 Cr 265,Jasper,TX,75951,281-732-7298
Left Lane Express,8715 Lamar Ave,Odessa,TX,79765,432-366-8164
Junco Brothers Trucking,8205 Cowart St,Houston,TX,77020,832-618-2000
Nn Transports,1504 Barcus Cir,Fort Worth,TX,76134,817-715-1994
J E Trucking,18911 Valley Cove Drive,Cypress,TX,77433,281-948-3333
Tuff Transport,2028 Cr 1370,Alvord,TX,76225,702-465-9656
Cowboy Trucking,6006 Allen Lane,Christoval,TX,76935,325-896-2238
Turner Trucking,400 W Richmond,Quinlan,TX,75474,903-356-5692
Pilkinton Trucking,835 Private Rd 5053,Melissa,TX,75454,972-562-9171
Erw Trucking,1142 Hobo Lane,Madisonville,TX,77864,936-577-2154
Ramirez Trucking,14415 Fm 1100,Manor,TX,78653,512-845-4144
Carrier,1802 Langford,College Station,TX,77840,979-492-0442
Padre Pio Logistics,1001 South Travis Street,Sherman,TX,75090,903-813-8947
Southgate Trucking,300 Main,Itasca,TX,76055,817-896-8220
P G Trucking,602 S Lancaster St,Big Spring,TX,79721,956-844-2004
Lloyd Truck,3200 Fm 1170,Blackwell,TX,79506,325-277-9016
Jonezy Hot Shot Service,1825 Petroleum Dr,Odessa,TX,79762,432-296-8055
J C Transport,6908 Valencia Circle,Mission,TX,78574,956-379-7791
Arronte Trucking,806 Sunny Oaks,Pflugerville,TX,78660,512-563-9650
R Flores Trucking,4717 Edison Street,Houston,TX,77009,713-692-8529
M And D Trucking,1225 East Barry Street,Fort Worth,TX,76110,214-554-3547
Marquez Trucking,3051 County Road 62,Olton,TX,79064,915-422-3042
B & E Transport,7014 Butterfield,San Antonio,TX,78227,210-267-8188
Jbm Expedited Carriers,6410a Beard Rd,Needville,TX,77461,713-870-5998
Pedro Morales Trucking,1127 Duke,El Paso,TX,79903,915-778-8701
Move America,3604 Ravenwood Dr,Bryan,TX,77802,979-324-1192
Guajardo And Son Trucking,5333 Sweet Briar,Houston,TX,77017,713-589-3145
Juan Flores,18714 S Colony Shore,Cypress,TX,77433,281-640-8247
Baytown Express Trucking,505 West Cleveland Street,Baytown,TX,77520,936-441-7116
B J C Transport,213 Fm Rangerville Rd,Los Indios,TX,78567,713-447-1771
Kromah M Trucking,10202 Forum Park Dr Apt 218,Houston,TX,77036,713-870-8174
Dmd Transport,6624 Rolling Vista Dr,Dallas,TX,75248,972-458-2112
M T Transport,1432 Denver Street,Edinburg,TX,78541,956-249-9485
Russell Transport,307 Travis Circle,Valley View,TX,76272,940-637-2116
Hdz Transport,1506 Pine St,Progreso,TX,78579,956-514-0619
Spring Moving Company,395 Sawdust R Suite 2063,The Woodlands,TX,77380,281-355-1600
Super S Logistics,604 Bertha Blvd,Mission,TX,78573,956-580-1461
Wawees Logistics,1818 Lamb St,Harlingen,TX,78550,214-930-2334
M & R Trucking,13021 Valley Forge Circle,Balch Springs,TX,75180,214-998-2226
Francisco J Flores Trucking,4418 Mystic Sunrise Dr,San Antonio,TX,78244,210-430-0581
Poth Transportation,110 Chambers,Poth,TX,78147,830-484-2470
Flores Trucking,617 Binkley,Dumas,TX,79029,806-930-6743
Jasso Transport,509 Rachel,Odem,TX,78370,N/A
Von Hoppen Distributing,260 Mcbride,Corpus Christi,TX,78408,361-299-1500
Trega Carriers,3400 Geranium Ave,Mcallen,TX,78501,956-522-4733
Moncayo Transport,910 N Arthur,Amarillo,TX,79107,806-379-9592
Ec Bros Transport,15111 Treaty Oaks,Houston,TX,77053,281-785-4462
Jackson Transportation,605 Caddell Street,Aubrey,TX,76227,940-210-0867
Adc Trucking,24704 Killarney St,Hempstead,TX,77445,979-921-0171
T Rex Transports,1300 S Pleasantview Dr,Weslaco,TX,78596,956-463-3812
Pmc Transportation,2130 Forest Ranch Dr,Houston,TX,77049,713-928-0040
Jl Camargo Trucking,12106 E Marsham Cir,Houston,TX,77039,713-240-0746
Vm Trucking,1923 Dyansty Manor,Glenn Heights,TX,75154,972-223-2241
Right Wm Transport,4802 W University Blvd,Dallas,TX,75209,214-356-8594
Daniel Sengal Trucking,1605 Willow Creek,Mesquite,TX,75181,214-779-5245
Marshall Trucking,5088 Viking Coral,San Antonio,TX,78244,210-566-0206
F X Express 1,678 County Rd 3156,Orange,TX,77632,956-515-7880
Porter Trucking,1178 Cr 45080,Powderly,TX,75473,903-495-4041
J & J Truck Enterprise,9114 Spaulding Street,Houston,TX,77016,713-635-4127
J Dub Trucking,3001 Scr 1210,Midland,TX,79706,432-894-9052
Abel's Hot Shot,5918 Wickover Lane,Houston,TX,77086,281-999-7167
Landeros Trucking,7151 Laurel Hill Ct,Fort Worth,TX,76133,817-655-2625
Crossroads Vacuum Truck Service,9842 Fm 467,Seguin,TX,78155,830-832-1730
Torres Freight,8705 Kingsway,Canutillo,TX,79835,915-886-2023
Blue Diamond Transportation,520 Riverview Circle,El Paso,TX,79915,915-401-9677
Tamez Transports,2610 Mi Tierra Dr,Weslaco,TX,78596,956-463-7223
S & J Trucking,6548 Hudnall Road,Orange,TX,77632,409-738-5151
Classic Carriers,117 Magellan Circle,Ferris,TX,75125,214-794-0448
Chavira Express,2177 Balboa St,Mcallen,TX,78503,956-631-5473
Amex Transport,201 East Lovett St,Edinburg,TX,78541,956-624-9675
Pritchard Trucking,412 Ne Avenue A,Hamlin,TX,79520,325-576-3748
Eagle Disposal & Distribution,570 Soda Springs Rd,Luling,TX,78648,830-875-3354
Ruben's Delivery Service,1140 Misty Acres,New Braunfels,TX,78130,210-420-2682
A & N Transportation,12532 Tierra Encino,El Paso,TX,79938,915-274-9547
Bull Head Express,2422 Houston St,San Angelo,TX,76901,325-374-3847
Roy Nelson Trucking,803 Shamrock,Leander,TX,78641,512-825-8829
Smart 1 Express,2475 Carson Trail,Grand Prairie,TX,75052,972-609-4807
Harries Service Carrier,10307 Airline,Houston,TX,77095,281-345-1746
Conner Bros Dozer Service,Rt 1 Box 87,Ranger,TX,76470,713-854-6144
James Payne Trucking,395 5th St,Detroit,TX,75436,903-219-1247
Rolando & Daniel Trucking,6305 Tiner Trail,Austin,TX,78724,512-801-7255
Aguillon & Son Trucking,613 Knight St,Hereford,TX,79045,806-346-1879
Kimberly Moreno,6200 Old Pearsall Rd #3207,San Antonio,TX,78242,210-870-7925
Millionaire Transport LLC,2138 Romel St,Eagle Pass,TX,78852,830-968-8691
Salazar Trucking,211 Cr 110,Uvalde,TX,78801,830-278-4890
Blackwood Delivery Services,2350 Fawkes Lane,Roanoke,TX,76262,817-521-1876
Arthur's Transport,425 Orion,Corpus Christi,TX,78418,N/A
G & C Transport,8718 Rancho Alto Drive,Edinburg,TX,78542,956-457-5930
L Y J O Trucking,1004 E Grubb Dr,Mesquite,TX,75149,214-757-9606
Queens Trucking,609 Highland Dr,Arlington,TX,76010,817-455-4431
All Reza Transportion Company,3822 Copper Bend,Laredo,TX,78045,956-337-1273
Aggo Trucking,14539 Stumpy Lane,Edinburg,TX,78541,956-380-3095
W A Auto Recycling,18026 Deep Brook,Spring,TX,77379,281-826-3698
Aaaa's Transport,9711 N Moorefield Rd,Mission,TX,78572,956-209-3833
Midgard Construction,8337 Hwy 12,Orange,TX,77632,409-670-8442
Azr Trucking,415 Corlena,San Antonio,TX,78011,210-912-6397
Sosa Transport,613 Garrett,Pasadena,TX,77506,281-627-4148
Salazar Trucking,713 Avenue M,South Houston,TX,77587,713-943-2302
Diamond L Trucking,3205 Lockheed,Midland,TX,79701,936-334-4058
Jackery Trucking,5819 Alecia Ln,Joshua,TX,76058,817-471-2277
Tavi Transport,6001 Riverside Dr,Laredo,TX,78041,877-309-4949
Regalado Trucking,1505 Oakwood,Navasota,TX,77868,979-777-8817
Diaz Trucking,1121 Irene Dr,Mesquite,TX,75149,214-269-6429
Eba Transport,41741 4th St,La Joya,TX,78560,956-584-8914
No Limit Transportation,2310 N Battlebell Rd,Hiighlands,TX,77562,713-705-9904
Ryno's Hotshot And Trucking,1100 Avenida De Mexico,Odessa,TX,79761,432-894-8128
Hope Delivery,5314 Randolph Blvd,San Antonio,TX,78233,210-843-8580
Dba Jb Vasquez Trucking,621 S Sam Houston,Odessa,TX,79761,432-556-8080
Good Ol Boys Movin,705 W 5th,79072,TX,79072,806-685-1491
J A M Transport Service,10726 Archers Point,San Antonio,TX,78254,N/A
J & I Trucking,4432 1/2 Mclean,Baytown,TX,77521,281-691-1725
Almarez Trucking,19806 Pond Arbor Path,Richmond,TX,77407,281-739-4892
Ramos & Sons Trucking,1020 Jessie Street Apt 3,Weslaco,TX,78596,210-463-2107
Jam Trucking,6542 Fm 2494,Athens,TX,75751,903-681-0005
Horton Trucking,3347 Fm 897,Dodd City,TX,75438,903-249-0096
J Mar Transport,12053 Fm 2812,Monte Alto,TX,78358,956-373-1774
Mcqueen Transportation,1204 Cindy Ln,Cleburne,TX,76033,817-202-5626
K B Delivers,10203 Verlyn Road,San Antonio,TX,78230,210-442-9109
D J's Trucking Co,7003 Carioca Dr,Dallas,TX,75241,214-374-0089
Jose Aa Trucking,6100 Marinette Apt 702,Houston,TX,77036,832-978-1698
Jnd Express,467 Edgewood Ave,Edinburg,TX,78541,956-287-7776
Mts Transport,2 1/2 Mile S Tower,Alamo,TX,78516,956-781-2523
Sevenfortyseven,601 Havenwood Lane North,Fort Worth,TX,76112,817-446-3047
Anitas Trucking,1006 East Ave B,Sweetwater,TX,79556,325-235-8699
C Rios Trucking,2120 Merle,Pasadena,TX,77502,713-367-3822
R L Sparks,4510 Cole Drive,Abilene,TX,79606,325-518-1100
Rgj Trucking,705 S Minnesota Rd,Mission,TX,78573,956-584-8844
Lilly's Trucking,2338 Armond Dr,Longview,TX,75602,903-387-0320
Aguirre Produce Fresh Express,3907 Black Locust Dr,Houston,TX,77088,832-273-1919
Cowboys Transportation,1325 Loop 301 E,Sulphur Springs,TX,75482,903-885-1296
Hughes Delivery Service,1201 West Loop North,Houston,TX,77055,713-680-9333
Highway To Heaven Transport,1469 Cal Young Road,Hallsville,TX,75650,903-452-2096
Tiki Express,8531 Collingwood,Universal City,TX,78148,210-392-6177
Denise Transports,1106 E 18th St,Weslaco,TX,78596,956-756-0099
Arnolds Transport & 7 Seven Brothers,3337 N 42 Street,Mcallen,TX,78501,956-789-7888
J Maxey Trucking,1405 Creekwood Lane,Longview,TX,75602,903-758-0055
M V Truck,10220 Cr 312,Terrell,TX,75161,214-566-3245
Mdexpress,7900minesrd,Laredo,TX,78045,956-722-6540
Dmas Transport,4101 San Jacinto Street Suite 107,Houston,TX,77004,713-528-6141
D'vagonzz Trucking Co,923 Vance Jackson Suite 907,San Antonio,TX,78201,210-281-5127
Hcm Deliveries,1383 3 Pieper Road,New Braunfels,TX,78130,830-237-4037
"Benny Evans Trucking, Inc.",4960 Tin Top Road,Weatherford,TX,76087,817-596-0433
Erk Transport,4681 Plainview Road,Midlothian,TX,76065,972-775-5628
B&s Trucking,5095 Folsom,Beaumont,TX,77706,409-893-3349
G&f Transport,413 Friona Dr Apt #1,Soccoro,TX,79927,915-867-3549
Nitech Transportation,12119 Garner Mill Ln,Houston,TX,77089,281-989-0028
Superior Auto And Transport,12867 Azogue,El Paso,TX,79938,915-691-9479
Hustler Transportation,3635 Mesa,Houston,TX,77013,713-864-7632
A Logistics,10998 S Wilcrest # 235,Houston,TX,77099,281-617-7088
Kitchings Services,21443 Hwy 64 E,Arp,TX,75750,903-859-7302
Melmor Transport,12520 Gus Salcido,El Paso,TX,79928,915-727-8398
Perez Trucking,1301 Rosewood Lane,Lancaster,TX,75146,214-274-5473
Triple C Construction,1330 Heathington Rd,Weatherford,TX,76088,817-599-9525
Posadas Trucking,3015 Country Square Dr Apt 1017,Carrollton,TX,75006,281-740-4774
Jesus A Ramos Trucking Co,550 Stafford Run Rd #1201,Stafford,TX,77477,281-210-9835
Deanda Hauling,1203 Brazos,Menard,TX,76859,325-347-4743
A B Transport,19422 Remington Wick Court,Houston,TX,77073,832-287-5288
Inti Transportation LLC,14415 Kodiak Lane,Pflugerville,TX,78660,512-563-9128
Charro Trucking,1800 Houston Ave,Houston,TX,77007,713-298-4894
Xtra 21 Express,7425 Bonnie View Ste A,Dallas,TX,75140,817-361-2716
Menendez Transport,213 F M Rangerville Road,Los Indios,TX,78567,505-795-6103
Fraire Transport,2113 Abril Dr,El Paso,TX,79935,915-593-9100
Lr Davis Roustabout Services Llp,1820 Alcock,Pampa,TX,79065,806-669-7976
Aps Trans,7212 Ley Rd,Houston,TX,77028,281-650-9336
South Harvest Express,813 W Douglas St,Pharr,TX,78577,956-454-1907
Garza Trucking,512 Marshall Ct,Irving,TX,75060,469-438-4655
Tb Trucking,8901 N I-27,Lubbock,TX,79403,806-746-6570
Juan R Galdamez Trucking,3400 Occe #2115,Houston,TX,77063,713-928-0013
D & C Transport,615 N Starboard St,Crosby,TX,77532,281-328-6178
First Global Relocators,5103 Wolverton Ct,Garland,TX,75043,214-586-5044
J Zizzo Trucking,4780 Pea Ridge Rd,Temple,TX,76502,254-613-4309
Drockin Express,310 Colwell,Pleasanton,TX,78064,830-281-6516
Mendoza Deliveries,116 G Rodriguez,New Braunfels,TX,78130,210-336-7749
Criswell Trucking,6211 Willow Creek,Amarillo,TX,79108,806-336-5368
2 S Trucking,24839 Sh 19,Canton,TX,75103,903-343-5620
Jt Trucking,215 Swisher,Dallas,TX,75065,214-489-3429
Gp Logistics,616 Palo Duro Drive,Hurst,TX,76054,817-605-7170
Dj Hotshot Trucking,4144 Cr 149,Centerville,TX,75833,903-536-4292
Jvc Transport,12547 Greens Bayou St Apt C,Houston,TX,77013,832-533-6764
Jlm Trucking,227 Ave J,Hereford,TX,79045,806-346-1516
Rick Countryman Trucking,244 San Diego Ave,Brownsville,TX,78526,956-986-2165
Alc Trucking,5102 Danfield St,Houston,TX,77053,713-413-8823
Teafatiller Trucking,13719 County Rd 2,Stratford,TX,79084,806-727-4622
Gold Auto Parts Recyclers,3301 S Lamar,Dallas,TX,75217,214-941-1530
Av Express,109 E Crockett,Alamo,TX,78516,956-272-7964
Eagle Freight,509 Pedro Ave,Mission,TX,78572,956-321-3324
Fun Trucking,605 Purple Lane,Harlingen,TX,78552,956-425-6306
Cynthia N Cepeda,28 Cela,Brownsville,TX,78520,956-467-7726
3a Transport,609 E 2nd St,Clarendon,TX,79226,806-874-0495
South Texas Trucking,600 Borrego,San Juan,TX,78589,956-570-7559
Total Restoration Services,5198 S Loop 340,Robinson,TX,76706,254-756-3560
Link Transports,2609 Brook Crest Dr,Garland,TX,75040,214-229-8171
L And T Trucking,5235 Margo Lane,Beaumont,TX,77708,409-791-0931
Adt Drilling Services,104 Manders Court,Runaway Bay,TX,76426,940-627-0017
Thacker Trucking,511 County Road 4306,Naples,TX,75568,903-897-0164
Triple M,11515 South Garden,Missouri City,TX,77071,713-478-9639
Robles Trucking,18302 Cr 207,East Bernard,TX,77435,979-257-7294
Big Johns Moving,18776 County Rd 498,Lindale,TX,75771,903-882-8848
A & L Transport,1015 Hilda Ave,Mission,TX,78572,956-222-7879
J Martinez Trucking,219 West Sugar Cane Dr,Weslaco,TX,78596,956-314-7367
J N B Hot Shots,1500 Blue Grove Apt 1142,Lancaster,TX,75134,214-738-3219
Jd Garza Trucking,9306 Rockmore Dr,Houston,TX,77064,281-469-1020
Pineknott Express,4623 Fm 1971 S,Timpson,TX,75975,903-898-2415
Rodriguez Trucking,1021 N Peregrine Dr,Edinburg,TX,78541,956-380-0600
Paz Auto Transport,3302 Arco Ariz,Mission,TX,78573,956-572-7007
I & L Trucking,12464 Hwy 146 N,Liberty,TX,77575,936-298-9537
Morales Trucking,16050 Harrison Ave,El Paso,TX,79928,915-892-5228
H K Trucking,9922 Hwy 7 E,Joaquin,TX,75954,936-269-9942
Dme Flores Trucking,310 Parramatta Ln Apt 113,Houston,TX,77073,281-608-5280
On The Ball Trucking,3718 Quail Meadow Drive,Missouri City,TX,77459,832-731-9129
Metro City Transport,20501 Katy Freeway,Katy,TX,77450,281-599-3434
Soldier Delivery Service,2313 Gavin Trl,Pflugerville,TX,78660,214-274-6162
Mlb Transport,2910 Sinton Court,Katy,TX,77449,281-599-9729
Dunn And Son Construction,318 County Road 2510,Woodville,TX,75979,409-377-0693
Basin Express Transportation,4716 Angus Rd,Odessa,TX,79764,432-272-9920
U & I Trucking,6301 Old Brownsville Rd,Corpus Christi,TX,78417,361-288-4707
Silver Bullet Trucking,6513 Garnet Avenue,Port Arthur,TX,77640,239-821-1404
D & R Transport,445 Timber Wild Dr,Weatherford,TX,76087,817-565-7448
Romero Transport,5818 Hatfield Glen Drive,Katy,TX,77449,832-466-5934
Pendley Auto,8975 Business I-40 West,Amarillo,TX,79124,806-355-9083
Ricardo Diaz,814 Quebec Drive,Garland,TX,75040,214-562-9043
Henderson Trucking,320 S Third St,Silsbee,TX,77656,409-385-4681
Rockin R Heavy Haulers,187 River Trail Rd,Pipe Creek,TX,78063,210-379-9880
M-c Trucking Ltd,9366 Greenbranch Loop,Bryan,TX,77808,979-574-6819
Three Halves,1207 Pierce Ave,Friona,TX,79035,229-515-4843
K&n Auto Transport,8101 Bendell Dr,Houston,TX,77017,713-941-5561
J J Trucking,5420 South Cattle Drive,Odessa,TX,79766,432-559-9638
Grand Rapid Freight,3301 S Martin,Laredo,TX,78046,956-725-5414
C & R Trucking,5844 Hwy 69 South,Woodville,TX,75979,409-377-2752
Zendejas Trucking,8603 Citation Ct,Houston,TX,77088,281-448-5179
Cantu's Trucking,4500 N Inspiration Road,Mission,TX,78572,956-585-9315
Deason Services LLC,2537 Shepherds Glen,Wichita Falls,TX,76308,940-642-7907
Johnson Trucking LLC,900 Bayview Dr,Wylie,TX,75098,214-325-6443
D&d Hot Shot & Transportation,2017 N Sam Houston,Odessa,TX,79761,432-438-5496
I & I Contractors,2706 Brazos Ave,Odessa,TX,79764,432-889-3712
Gaona T & C Trucking,2320 Cherrybrook Ln 602,Pasadena,TX,77502,832-790-2213
Southland Trucking,1411 Thrift,El Campo,TX,77437,979-543-5594
Gamez Trucking,14818 Henry Rd,Houston,TX,77060,832-606-4038
Greleo W Transportation,5450 Suncrest Dr Apt 11-b,El Paso,TX,79912,915-633-4683
Chattman Transportation,401 S Bender Apt 1109,Humble,TX,77338,832-398-0803
Bubba Mohon Mowing,24717 Cr 374,Gladewater,TX,75647,903-720-0044
Hall Trucking,8107 Wolf Rd,Spring,TX,77379,832-306-4373
Damien Johnson Trucking,217 Anderson St,Newton,TX,75966,409-489-2636
Lasco Services,601 Compton,Irving,TX,75061,972-513-1875
Super Speedy Express,5307 Ramos St,Mercedes,TX,78570,956-684-5460
Design District Custom Draperies,8820 Directors Row,Dallas,TX,75247,214-760-2460
Cervantes Trucking,5415 Sendero Ave,Edinburg,TX,78542,956-907-8079
Bill Wagner Electrical Service,5606 Massie,Amarillo,TX,79108,806-383-6072
Rc Transportation,2401 S Jackson Rd Lot 55,Pharr,TX,78577,956-451-5917
Richland Transport,13611 Sunrose Lane,Houston,TX,77045,713-230-8658
Moven Trucking Company,213 Fm Rangerville Road,Los Indios,TX,78567,415-877-0259
Omar Verduzco,11810 Diamond Head,El Paso,TX,79936,915-856-9554
Nxday Express,7211 Nickaburr Creek,Magnolia,TX,77354,281-610-8423
Importadora Marin Hernandez Sa,2608 S Cage Blvd #8,Pharr,TX,78577,505-226-3325
J A Transport,5022 S Willow Dr,Houston,TX,77035,832-382-5802
Koal Logic,9964 Silent Hollow Dr,Fort Worth,TX,76140,254-458-7714
Angel D Chochoate,119 W Falcon Ave,Pharr,TX,78577,956-648-4094
Calvillos Trucking,2555 Greenhurst Drive,Farmers Branch,TX,75234,214-212-6771
Gs Trucking,1410 Donn Dr,Mission,TX,78572,956-624-6517
Texas Transport Specialist,1710 Pine Dr,Midlothian,TX,76065,582-553-9465
Sva Trucking,8617 Kammey Cv,Austin,TX,78747,512-844-6922
Load & Go Xpress,10305 Blitzen,Laredo,TX,78045,956-753-0337
Ramos Transporter,6233 Gulfton 1138,Houston,TX,77081,843-247-2988
Moon Dozer Service,2400 Devil' S Hollow Road,Graford,TX,76449,940-664-2700
Texas Motor Freight,7307 Jospeh Lane,Baytown,TX,77520,713-851-3157
Rocket Express Logistics,Lot 17 Mile 16 N,La Blanca,TX,78562,956-239-6698
A & D Transport,804 Duranta,Alamo,TX,78516,956-578-6505
S K Johnson,3239 Alabama,Houston,TX,77004,281-608-2621
Alex Services,6897 Silver Creek Azle Rd,Azle,TX,76020,682-552-6850
Klingler's Transport,179 Wells St,Hawkins,TX,75765,903-769-5322
Jinks Transport,24910 Penny Lane,Porter,TX,77365,713-628-0061
Djs Service Company,269 Inerrisdia Rd,Ferris,TX,75125,972-842-2032
Five Star Hauling,13575 W Fm 476,Somerset,TX,78069,830-701-4499
Rm Trucking,4543 Bowie Lane,Grand Prairie,TX,75052,214-288-8343
Kk Trucking,3108 E Combes Ave,Alton,TX,78574,956-357-2695
Jbl Hotshot,19607 Atasca Oaks Drive,Humble,TX,77346,832-527-8285
Pf Transportation,3639 Cr 3307,Greenville,TX,75402,972-809-9593
Ae Trucking,7207 Albany Ridge,San Antonio,TX,78250,210-858-8883
Kruse Kontrol Transport,401 Terra Vista #811,Round Rock,TX,78665,512-225-4633
Jessie Herman,8936 Whitewing Lane,Dallas,TX,75238,214-340-7588
Rolling S Transportation,2503 Parkhaven,Sugarland,TX,77478,281-865-5329
Abi Transport,316 W Torritos,Weslaco,TX,78596,956-975-9589
Fermins Trucking,316 Kissling,Robstown,TX,78380,361-241-8365
Tauros Transport,3504 Lanford St,Mission,TX,78574,956-222-3535
Landrys,14624 Dubois,Beaumont,TX,77705,409-794-2334
Mike's Transport,321 Valle Del Carmen,Socorro,TX,79927,915-851-0705
Wanpen Trucking,300 Madison Ave Apt#504,Childress,TX,79201,806-759-7599
G P Transport,8015 N Expressway 281,Edinburg,TX,78542,956-381-5324
Eg Transport,4212 Jerry Ann Drive,Edinburg,TX,78539,956-393-0928
Ace Wrecker Service,400 N Center St,New Boston,TX,75570,903-628-2914
Hampton's Trucking,14575 Eastside Rd,Tyler,TX,75707,903-539-7168
Cedar Valley Transport,3310 Rr 2454,Kingsland Texas,TX,78369,512-734-1379
Mgt Trucking,1810 E Fm4,Cleburne,TX,76031,817-219-4054
J W Trucking,23 Dogwood Lake Dr,Texarkana,TX,75503,903-792-3139
Burton Trucking,1207 Latham Lane,Longview,TX,75602,817-483-2172
Reggie's Trucking & Rental,900 N Pennsylvania,Big Lake,TX,76932,325-884-2011
Poultry Service Company,500 County Road 2113,Blossom,TX,75416,903-982-7271
Dsr Enterprises,1298 Private Road 4411,Decatur,TX,76234,940-210-6557
B E S T Price Auto Shippers,8831 Misty Meadow Creek Lane,Humble,TX,77338,832-566-3313
Mersiovsky Trucking,108 Avenue B,Electra,TX,76360,940-733-0414
Velotica Trucking,314 Mistflower Ln,Fate,TX,75132,916-439-2344
Adrian's Transport,County Rd #16a,Drisco,TX,78351,956-408-3392
Tnt Express Deliveries,1020 Trumbo Trl,San Antonio,TX,78264,830-237-4358
Abd & J Transport,1326 Flatrock Creek Dr,Houston,TX,77067,832-731-8640
Box Express,310 West Paisano Dr,El Paso,TX,79901,915-877-0453
Houston International Transportation And Storage Company,12326 Scarlet River Dr,Houston,TX,77044,832-207-2076
Barajas Trucking,6204 N Bentsen Palm Drive,Mission,TX,78574,956-624-6944
Platinum Deliveries,5859 Reed Rd,Houston,TX,77033,832-837-0230
Thrifty Moving And Storage,5909 Harvist Hill Rd #1078,Dallas,TX,75230,682-521-6200
Abc Trucking,114 Paul Place,Pleasanton,TX,78064,210-887-1363
Wildcard Services,213 Pine Harbor,Onalaska,TX,77360,936-340-3596
Imperial Freight Line,3272 Ramirez Street,Roma,TX,78584,956-208-6305
Rocking R Trucking,4121 Longleaf Lane,Fort Worth,TX,76137,817-232-1734
Delrio Trucking,14447 Gainesville St,Houston,TX,77015,832-231-2087
Thrush Transport LLC,1840 High Prairie Rd Ste D,Grand Prairie,TX,75050,800-384-6808
Pena Trucking,13619 Inwood Rd 380,Dallas,TX,75244,214-882-3480
S S S Particular Service,1/2 Mile South San Antonio Rd,San Juan,TX,78589,956-451-9223
Triple J Transportation,3836 Brambleton Pl,Forest Hill,TX,76119,817-413-6718
Maloz Trucking,8152 Granby St,El Paso,TX,79932,915-760-6005
Jimmy Trucking,8011 Summertrail Dr,Houston,TX,77040,832-875-8356
Cargo Express,3510 Ginger Ave,Edinburg,TX,78539,956-789-7767
Fields Trucking,2237 N Fm 225,Douglass,TX,75943,936-564-4493
R Rivera Trucking,4212 Bowie Street,San Angelo,TX,76903,N/A
Angel Escobar Trucking,160 Cr 158,Floresville,TX,78114,210-635-8205
Trevizo Trucking,9727 Alameda Sp #a50,El Paso,TX,79927,915-838-5661
Parker Trucking,802 W Holland Suite A,Alpine,TX,79830,432-837-5009
Circle 6 Transport,704 David Lane,Collinsville,TX,76233,903-821-6908
Jonejaml,2456 Buttercup Ln,Brenham,TX,77833,713-503-8123
Hwy Express,7513 N Fm 1015,Mercedes,TX,78570,956-314-9046
Rg7 Services,12261 Fondren Rd Apt# 1116,Houston,TX,77035,832-893-9435
Cb Hauling,3309 East Truman Avenue,Alton,TX,78573,956-693-7312
G & J Transport,11815 Burlingame,Houston,TX,77099,281-568-4882
Aas Transport,1486 Hwy 7 East,Centerville,TX,75833,903-536-3165
Vazquez Trucking,2104 Tierra Dorada,Mission,TX,78572,956-585-2649
Goodman Trucking,4455 Smart Street,Beaumont,TX,77713,409-893-8862
Rocking Cab Trucking,6207 Shawnee,Midland,TX,79705,432-295-0542
Continental Logistics,3000 Carrizo Springs Ct.,Katy,TX,77449,281-704-6794
National Printing Equipment,48 Cooper Road,Houston,TX,77076,832-473-9856
Konco Transport,3208 Pinder,Laredo,TX,78040,956-337-2171
Delcor Transportation,1148 Savannah Ln,Kaufman,TX,75142,903-641-2488
Tda Transport,120 S Panuco Dr,Trinity,TX,75862,936-744-1262
Third Coast Trucking,8427 S Breeze,Houston,TX,77071,281-889-2703
Dsb Olivarez Trucking,16811 Kinney Point,Houston,TX,77073,832-244-3752
El Ruso Transport,1203 E 10th St,San Juan,TX,78589,956-223-3424
Lady O Xpress,1820 S 10th Street #173,Mcallen,TX,78503,956-522-7689
J J Trucking,720 Kelsie Lane,Desoto,TX,75115,214-477-6362
Taylor Ministry Trucking,4509 Rolling Hills Dr,Fort Worth,TX,76119,817-855-9896
J A Johnson Trucking,703 Cr 2339,Dayton,TX,77535,936-258-7611
Roc Trucking,4723 Knottynold,Houston,TX,77053,713-906-3853
Bissmark Transportation,6145 Quail Ave Trlr 821,El Paso,TX,79924,915-755-0297
Rueda Transport,213 Fm Rangerville Road,Los Indios,TX,78567,956-440-9350
Lobo Trucking,1804 South Main,Midland,TX,79701,432-222-0505
Rj & Sons Trucking,2525 Clovermeadow Dr,Fort Worth,TX,76123,817-423-0337
P A C Transports,2108 Ebony Ave,Penitas,TX,78576,956-205-2863
Mercedes Trucking,6509 Orange Blossom,Austin,TX,78744,512-422-4368
Etaf Transportation,4253 Carlton Way Apt 2145,Irving,TX,75038,972-746-9387
Tezino Trucking,14915 Arvonshire Ct,Houston,TX,77049,281-459-3533
E And C Trucking,2305 North Tenth Street,Beaumont,TX,77703,409-466-0495
Mas Logistics,4502 Mustang Rd,Manvel,TX,77578,281-728-3289
Jameson's Transport,25675 Overlook Pkwy #3306,San Antonio,TX,78260,702-420-9588
Venecia Trucking,17413 Royal Palm Dr,Penitas,TX,78576,956-451-2495
M R Transport,9715 Airline Drive Suite D,Houston,TX,77037,281-847-1259
Samano Transport,123 West 10 Street,San Juan,TX,78589,956-429-2257
Ole Man Trucking,1007 Sleepy Hollow Dr N,Irving,TX,75061,214-514-2995
E & L Xpress,420 Se 2nd Street,Premont,TX,78375,361-207-2283
Williams Transportation,204 Williams Street,Clint,TX,79836,915-471-3073
Joe Flores Trucking,12136 Robert Glenn,San Antonio,TX,78252,210-745-9045
R P Transport,1454o Bammel N Houston Rd,Houston,TX,77014,832-353-0435
Mega Transportation,2112 Oceanside Dr,El Paso,TX,79936,915-222-4773
Green Hippo Moving And More,1907 Canvas Back,Taylor,TX,76574,512-934-4798
H & L Trucking,2609 East Jarilla,Hidalgo,TX,78557,956-225-9179
Benavidez Trucking,1003 East Harding Avenue,Mission,TX,78572,956-580-4529
Los Primos Trucking,9622 Gaza Dr,El Paso,TX,79927,915-208-8528
Rapid Move,505 E Exchange Pkwy,Allen,TX,75013,214-785-7070
D & S Trucking,196 Hollywood St,Livingston,TX,77351,936-685-2726
Lone Star Transports,2918 Jerome,Dallas,TX,75223,469-321-7502
Andrew's Trucking,13557 Miracerros,San Elizario,TX,79849,915-873-8182
Caney Creek Services,21317 Penny St,New Caney,TX,77357,281-354-2634
Nucks Trucking,1507 Quail Dr,San Juan,TX,78589,956-467-9396
W & W Trucking Service,1709 Owl Rd,Lubbock,TX,79407,806-778-4568
Escamilla Auto Transport,3908 Calle Mazatlan,Laredo,TX,78046,956-235-6496
Tapia Trucking,203 E Pennsylvania,Midland,TX,79701,432-238-8641
Cc Trucking,3416 Minnie Lane,Edinburg,TX,78542,956-624-2111
Cmt,5379 Fm Rd 2625 East,Marshall,TX,75672,903-327-4318
No Limits Express,4 Pamplona Ct,Brownsville,TX,78526,956-233-8855
Finch Ranch Helicopter Service,3400 County Rd 23,Hedley,TX,79237,806-856-5930
Hugo Morales Transport,1105 Douglas Street,Pharr,TX,78577,956-778-1135
Jema Prestige Movers,1012 Belmead,Arlington,TX,76014,214-673-2337
Lindsey Transport,3336 Caribbean Drive,Mesquite,TX,75150,469-652-2203
Hub's Trucking,4603 Dahlia,Victoria,TX,77904,361-897-3722
Cw Trucking,703 E Mf 514,Point,TX,75472,903-267-8742
Big Nate's Trucking,12920 Village Gate Drive,Houston,TX,77082,281-589-1893
J M Riley Truck Line,190 Cr 2105,Hooks,TX,75561,903-547-2827
Major Transport,6205 N Fm 493,Donna,TX,78537,360-610-1530
A Gem Trucking,704 Viento Tropical,Mission,TX,78572,956-240-0296
Gram Transport Services,3852 Scott,Odessa,TX,79762,432-349-5827
Rodriguez Transport,2110 John Kolb Rd,Lufkin,TX,75901,936-632-5263
Road Runner Hot Shot Service,710 Fawn Drive,Houston,TX,77015,713-409-5038
Rendon Transportation Services,2520 Airline Suite 103,Houston,TX,77009,713-874-7600
Buffalos Dumptruck Services,6718 Feldspar,Houston,TX,77092,832-858-1075
Eagle Transportation Co,10858 W Mile 7 Rd,Mission,TX,78573,956-358-5212
Wagon Train Express,214 Gaber St,Sanford,TX,79078,806-865-3154
A & M Road Boring & Trucking,6726 E Mt Houston Rd,Houston,TX,77050,N/A
A & H Trucking,709 S Crane,Odessa,TX,79763,432-924-0060
Adan Alonso,4918 Brianna Place,San Antonio,TX,78251,210-589-3000
Muneca Trucking,716 N Alton Blvd,Alton,TX,78574,956-454-2974
Beasley Trucking,802 Cr 2307,Lone Star,TX,75668,820-656-2626
J Ray Trucking,15406 Cr 2200,Lubbock,TX,79423,806-863-2006
Amador Truck Lines,13348 Sommerset Rd,Von Ormy,TX,78073,210-778-7668
Sutton Trucking,12417 Strick Lane,Houston,TX,77015,713-451-1802
Dura Mex Trucking,171 Union Wine Rd,New Braunfels,TX,78131,830-660-2154
Transportes Gafi Sa,4023 Almond Lake Drive,Houston,TX,77047,281-330-5116
All Usa Moving And Storage,9940 Richmond Ave #1033,Houston,TX,77042,713-787-6683
Carrier,Laurie Jo,El Paso,TX,79927,915-858-9972
Tagl Trucking,640 Esterine Rd,Dallas,TX,75217,214-801-7930
T E Trucking,9403 Carmalee,Houston,TX,77075,281-924-5986
Rodriguez 2 Trucking,6914 Paso Del Sol,Houston,TX,77083,832-692-7071
Dh Xpress,1717 Quail Grove Dr,Fort Worth,TX,76177,318-839-1678
Henson Resources,366 Cr 4123,Bivins,TX,75555,903-293-1030
Leigh Transportation,7309 Vanessa Dr,Fort Worth,TX,76112,682-552-3727
First Choice Logistics LLC,13818 Vickston Ln,Houston,TX,77014,832-638-5259
Rays Delivery Service,1526 S Good Latimer,Dallas,TX,75226,214-428-4660
2 Lane Highway,455 Skyline Drive,Center Point,TX,78010,830-634-2861
Transportes Olivas,103 Stockton,Presidio,TX,79845,432-295-0389
Hinojosa's Carriers,1118 Savana Lp,Laredo,TX,78046,956-235-3082
Keith Joseph,10104 Lamb Brook Ln,Pearland,TX,77584,713-371-6380
A & B Payne Trucking,409 Skyline Ave,Killeen,TX,76541,254-628-2127
Abs Transport,187 Harrington Rd,Marshall,TX,75670,903-930-0970
B A Hot Shot,21203 Albany Park Ln,Spring,TX,77379,832-370-5912
H P Express Higher Power,7066 Cr 608,Skidmore,TX,78389,361-542-3232
Whiteline Transport,814 W Albatross,Pharr,TX,78577,956-438-7390
Platinum Plus Delivery,6126 Belmark,Houston,TX,77033,713-890-9012
Dunlap Farm,3253 Williamson Rd,Lockhart,TX,78644,512-913-4058
Private Passenger Transportation,604 Florence Ln,Brownsville,TX,78520,956-466-0331
D & N Transport,3550 Los Lagos Dr,Edinburg,TX,78542,956-223-5984
D-r Transport,114 Fm 1996,Oglesby,TX,76561,254-654-4610
B & R Anaisa Trucking,201 Plaza Verde 2307,Houston,TX,77038,281-875-9956
Matthew Mchazlett Transport,452 E Dean St,La Pryor,TX,78872,830-365-4437
Al Nuno Transport,3220 East Frost #19,Laredo,TX,78043,956-934-0515
Double O Express,305 N West,Rio Grande City,TX,78582,956-437-6162
Avery Trucking,1241 Maxwell St,Buffalo Gap,TX,79508,325-572-4188
Anr Trucking,4492 Old 83 Garceno Rd,Rio Grande City,TX,78582,956-437-5355
Ruiz Trucking,1304 S Jackson,Odessa,TX,79761,432-288-1570
K C Cooksey Trucking,Lockwood,Houston,TX,77026,713-674-0655
Cw Freight,2466 Cr 119,Baird,TX,79504,325-480-2215
Novasq Freight,3515 Morris St,Edinburg,TX,78539,956-867-2466
Vk Truckikng,2601 Medina Dr,Carrollton,TX,75007,469-237-8662
Samuel Paez Trucking,241 Hwy 46 West,Boerne,TX,78006,210-386-3557
Priority Trucking,839 N Duncanville Road,Duncanville,TX,75116,214-995-5524
Phoenecian Meritime,12604 Haynes Road,Houston,TX,77066,281-875-1603
Triple L Transport,6438 Fm 607,Murchison,TX,75778,903-714-7025
E & D Trucking,499 Bayou Dr,Channelview,TX,77530,832-659-1540
M & M Xpress,15955 E Mile 19 Rd,Edinburg,TX,78542,956-383-8529
Two Brothers Movers,9227 Terrydale Dr,Houston,TX,77037,281-272-0309
Austech Hauling,18105 Foust Suite C,Buda,TX,78610,512-657-2318
Suarez Trucking,110 Huffir,Smiley,TX,78159,210-379-9903
Dba Lgl Hauling,11205 Southwest Oaks Dr,Austin,TX,78737,512-801-8047
H & C Trucking,2881 Highway 10 North Lot 21,Tyler,TX,75704,918-813-7660
Angelicas Thrift Store Appliances,19015 Cobb,Tornillo,TX,79853,915-541-5880
A And A Trucking,505 West Gravis,San Degio,TX,78384,361-279-2304
Eagle Transport,813 E Olympia,Mcallen,TX,78503,956-535-8588
Anderson Express Logistics,5315 Fm 744,Corsicana,TX,75110,214-417-7217
Torres Trucking,14236 Bryce Dr,Horizon,TX,79928,915-867-7175
Transport Gary,213 Fm Rangerville Road,Los Indios,TX,78567,956-831-9422
Reynoso Trucking,3400 Parrott,Waco,TX,76707,254-755-8739
J&e Express Trucking,901 E Arapaho Avenue,Pharr,TX,78577,956-782-5338
Dsd1 Trucking Company,5007 Enyart,Houston,TX,77021,831-782-3348
R J Transport,206 Bluebird Lane,Lufkin,TX,75904,936-632-8035
Ray Stacey Trucking,14953 Bray Road,Kamay,TX,76369,940-428-4202
Rocks Transportation,114 North Avenue,Laredo,TX,78045,956-232-0030
J & J Transport,3700 E Hwy 85 Apt 3102,Ennis,TX,75119,972-875-6216
Marenco Trucking,8715 Beechnut St #7,Houston,TX,77036,832-244-2157
Spitfire Express,985 Wickliffe Rd,Ferris,TX,75125,469-767-4437
Carmona Trucking,1005 W Elm St,Denver City,TX,79323,432-425-5726
Whip & Ride Express,1812 Fm2966,Quitman,TX,75783,903-497-2097
R & J Trasport,11819 Lelda Ln,Houston,TX,77071,832-766-3601
Joesma,8106 Iowa Rd,Edinburg,TX,78539,956-381-1199
Transport Fito,1916 Military Hwy 281,Los Indios,TX,78567,845-746-0297
A+ Ortega Trucking,Rt 1 Box 104-a,Alamo,TX,78516,405-601-4455
Garza Logistics,7009 Loma Linda St,Mission,TX,78572,956-451-1126
Iv Transport,12041 Dessau Rd #1707,Austin,TX,78754,512-563-6188
Holland Freight,1878 Bowie St,Sanger,TX,76266,817-403-9582
Allen & Allen Trucking,208 Alicia Dawn Dr,Longview,TX,75605,903-238-3809
P & B Trucking,6430 W 18th St,Odessa,TX,79763,432-208-8480
Gordos Trucking,402 West 1st St,Mercedes,TX,78570,956-376-9000
Rico's Trucking,1005 Cherokee St,Longview,TX,75604,903-720-6445
J B P Trucking,6166 Benchley Dr,Bryan,TX,77807,979-676-0179
O G Transport,5919 Lindale,Dallas,TX,75206,713-632-3139
M & M Stone,8901 W Hwy 377,Tolar,TX,76476,254-592-7334
Geneta Smith,6002 I 10 East,Baytown,TX,77521,281-427-5594
Trading Chemical Services,2018 E Hwy Bus 83 #301,Mission,TX,78572,956-515-1377
Kc Transport,314 Thomas Street,Brownsville,TX,78521,956-589-0129
Straightway,7699 Daylily Way,Frisco,TX,75034,214-289-8761
Oakes Transportation,109 Westwood Dr,Troup,TX,75789,903-842-1975
Rodama Trucking,6320 Redeagle Creek Dr,Fort Worth,TX,76179,817-948-9478
G M G Trucking,6610 Tarnef #335,Houston,TX,77074,281-709-8826
M&r New Beginings,5924 10th Drive,Lubbock,TX,79416,806-441-8348
Gato Trucking,402 E Valencia,Odessa,TX,79766,432-330-2000
Cc Transport,203 Martingale Apt 47,Laredo,TX,78041,956-473-9817
P & L Hotshot,27119 Austin St,Hockley,TX,77447,936-441-7116
Texas Carrier,104 Palomino Ln,Krum,TX,76249,559-312-4900
Blue Ocean Wholesale,2148 Royal Lane Suite 800,Dallas,TX,75229,972-620-2583
Secure Auto Transport,140 Brigman Rd,Maypearl,TX,76064,469-285-9386
Mobile-crete Cen-tex Plaster Cen-tex Gunite,1450 Cr 269,Leander,TX,78641,512-260-5200
Desert View Transport,14410 Hovland Ln,El Paso,TX,79938,915-288-1013
Op Trucking,430 Sage Circle,Panhandle,TX,79068,806-477-8240
Trevinos Auto Transport,202 E Center St,Roma,TX,78584,956-847-4323
Round Da Globe Transports,14423 Almeece,Houston,TX,77045,713-434-2046
Jrt Transport,637 Willow Grove Rd,Waco,TX,76712,254-848-2990
Er Transport,904 E Sam Houston,Pharr,TX,78577,956-783-1100
Buster's Trucking,1625 Spencer Hwy,South Houston,TX,77587,832-651-7410
Roberson Trucking,3623 E 15th Place,Lubbock,TX,79403,214-274-8873
Rock-n-art,1204 Hwy 156 S,Haslet,TX,76052,817-439-5008
Hernandez L Trucking,6245 Renwick Apt 4445,Houston,TX,77081,832-661-6627
Spoken Word Time Transportation,501 Esther Blvd,Nacogdoches,TX,75964,936-564-3768
Romero Brothers Trucking,11514 W Bellfort St,Houston,TX,77099,713-377-0312
R J's Trucking,229 Mirage,Gilmer,TX,75645,903-797-2807
Covington Hay,3766 Clarksville St,Paris,TX,75460,903-905-4062
Baloch Logistic,4546 New Hope Terreace Lane,Katy,TX,77449,281-345-0866
L M Trucking,609 Lefors St,Pampa,TX,79065,806-662-6883
Paco's Trucking,2211 Alysha Ct,Laredo,TX,78041,956-635-2265
Bad Company Transport,902 E Ave C,Robstown,TX,78380,361-549-9279
Xtreme Transport,210 Charreada Drive,Laredo,TX,78045,956-265-4910
Jose Cienfuegos Trucking,1510 Fm 1185,Lockhart,TX,78644,512-227-7141
Dirt Haulers,504 3rd Place,Dumas,TX,79029,806-930-2899
Amos Trucking,374 Pr 3104,Gilmer,TX,75644,903-725-7036
Broughton Transport,Mountain Drive,Kerrville,TX,78028,830-739-1751
Gearhead Express,1425 E Highway 199,Springtown,TX,76082,817-995-7785
Medina Transport,9410 Balsam Ln,Houston,TX,77078,281-384-6041
Tcb- Transportation Carrier Brokerage Enterprises,1443 Great Easton Lane,Houston,TX,77073,281-209-9156
Dndr Enterprize,40005 Heritage Hollow # 108,Georgetown,TX,78626,512-913-5509
Tst,1204 Executive Dr West,Richardson,TX,75081,972-968-9525
Williams Trucking,275 Matthews Road,Pollock,TX,75969,936-853-3470
J M Owen Trucking,5707 4th Ave Lot 308,Canyon,TX,79015,806-576-9720
J-gon Trucking,470 Rio Vista,El Paso,TX,79927,915-203-2810
Kwm Transport,6839 Renata Circle,Houston,TX,77084,803-571-3014
Duran Trucking,Rt 1 Box 9127,Eagle Pass,TX,78852,830-513-1228
Ortiz Trucking,310 Julie,Dumas,TX,79029,806-717-0743
Daniel Olivas,500 S Grant,Odessa,TX,79761,432-413-9013
Trio Transport,709 E 3 Rd Street,Irving,TX,75060,817-521-2282
J&b Logistics,610 South Nebraska Ave Apt 2,Weslaco,TX,78596,N/A
Rite On Time Transportation,7327 Carriage Lane,San Antonio,TX,78249,210-872-1414
M M V Transport,1126 Moonmist Drive,Houston,TX,77072,281-879-4873
Running Bear Logistics,9150 Bridle Trails Dr,Amarill,TX,79119,806-316-3189
L & L Trucking,419 Gibbs St,Huntsville,TX,77320,936-649-2454
Trm Express,413 Bronte Ave,Pharr,TX,78577,956-787-1869
H2t Transportation,401 North Church Street,Pilot Point,TX,76258,940-435-1536
Singh Transport,8920 Sunny Hollow Dr,Ft Worth,TX,76179,817-412-8698
Alvarez Trucking,15152 Socorro Rd,Clint,TX,79836,915-637-7825
Perez Trucking,1920 Cleveland,Laredo,TX,78043,956-206-7806
Scott Cawley Trucking,101 N Vicksburg,Lubbock,TX,79416,325-226-4550
De La Garza Trucking,26306 La Fouche Rd,Tomball,TX,77377,281-255-3721
Sneed's Trucking,3402 Denton Meadows Ct,Katy,TX,77449,281-599-8086
It Iz Fast Freight,7485 Florida Pine St,Brownsville,TX,78526,956-535-6642
Ddg Cartage & Distribution,12043 Marquis St,El Paso,TX,79936,915-383-6572
Logistics Crates & Freights,4970 Briar Oak Ln,Grand Prairie,TX,75052,972-602-3787
Jupiter Drive Transport,2601 Cartwright Rd Suite D316,Missouri City,TX,77459,713-628-2501
Ybarra Trucking,823 Nafta Blvd,Laredo,TX,78045,956-333-7606
Ovalle Trucking,4334 Kivin Kay Dr,Houston,TX,77084,832-229-1414
Adrian Pena's Welding Service,3308 Santa Erica,Mission,TX,78572,361-442-3082
Aja Trucking,13414 Long Glen,Houston,TX,77039,281-615-4030
Bam Transportation,2300 Mimosa Dr,Tyler,TX,75701,903-283-7737
Cc Transport,1516 Warwick Dr,Landcaster,TX,75134,214-402-5689
Buck-a Transport Services,2509 Bowers Rd,Seagoville,TX,75159,972-287-7096
Fm Transport,Sioux Ter S L81,San Juan,TX,78589,956-343-4229
Parcos Trucking Co,1516 138th St,Lubbock,TX,79423,806-577-8421
Reliable Transports,9319 Lbj Freeway,Dallas,TX,75243,214-861-7001
David's Transport,19549 State Hwy 64,Canton,TX,75103,214-557-2446
Pega Dump Truck Services,504 Galveston Rd Apt C,Brownsville,TX,78521,956-459-4599
Shine Enterprise,3229 Hampton,Corpus Christi,TX,78414,361-985-1991
C&c Auto Parts,1913 Magoffin,El Paso,TX,79901,915-532-5971
Rodriguez Trucking,510 S Washington,El Campo,TX,77437,979-320-4019
Kn Trucking,3744 Summer Crest Dr,San Angelo,TX,76901,325-942-6516
Redeemer Trucking,1004 Hillcrest,Graham,TX,76450,940-549-5525
Am Transportation,13811 Ivimist Ct,Houston,TX,77044,281-203-1834
Sandoval Trucking,5317 Ramirez Drive,Laredo,TX,78043,956-857-5472
Slavin Sparks Trucking,110 Savanna Drive,Weatherford,TX,76087,940-328-2387
Lotus Oilfield Services,1008 Southview Circle,Center,TX,75935,800-595-7802
Road King Transportation,215 W Nevada Ste A,El Paso,TX,79902,915-727-8995
Preffered Trucking,3933 Garden Springs Dr,Fort Worth,TX,76123,817-689-3978
D R Trucking,5828 World Champion Crt,Fort Worth,TX,76179,817-822-0576
Frank's Trucking,5129 Gulfway Dr,Port Arthur,TX,77642,409-962-3449
Tiger Express,119 S Cedro St,Weslaco,TX,78596,956-588-9023
Southbelt Trucking,495 Coryell,League City,TX,77573,281-910-5599
Three C's Transport,4104 Blanca Circle,Mission,TX,78574,956-874-8817
Constant Transportation LLC,1434 Barnard Rd,Brownsville,TX,78521,361-443-6890
Dale & Dale,11394 James Watt Dr Suite 509,El Paso,TX,79936,915-727-3641
Z Auto Transport,1504 North Point Blvd,Palmview,TX,78572,956-783-1100
Ellie's Express,1002 Sapphire Street,Weslaco,TX,78596,956-314-6375
Garcia-castillo Transport,3109 Ozark Ave,Mcallen,TX,78504,956-569-7738
Buffalo Trucking,29000 Glenwood Rd,San Benito,TX,78586,956-454-2350
Landstar Express,8355 County Road 4023,Kemp,TX,75143,214-455-0560
H & J Transport,17117 Westheimer #9,Houston,TX,77082,713-514-7221
Shepherd Trucking,224 Hilltop Ave,Gilmer,TX,75644,903-841-2552
Muniz Trucking,604 10th,Seagraves,TX,79359,432-847-7929
National Equine Transportation,6700 W Sundance Cir,Joshua,TX,76058,817-219-0490
Getter Done Trucking,2750 Deer Road,Brenham,TX,77833,979-830-0015
Oden Trucking,8234 Us Hwy 79 N,Deberry,TX,75639,903-754-2325
Aa Express,5813 Arthington,Houston,TX,77053,281-438-7437
My Wagon Xpress,8721 Cockburn St,Houston,TX,77078,713-635-4747
Rockin-diamond D Transport,729 Plaza Dr,Fort Worth,TX,76140,817-231-9994
Great Rift Carriers,13212 Alyssum Drive,Keller,TX,76244,817-590-2100
Safe & Sound Transport,3100 Walnut Bend Ln Apt 316,Houston,TX,77042,702-354-1674
Texas Hot Shot Services,8000 Ne Cr 2071,Powell,TX,75153,903-345-9025
Rfw Express,8721 San Joaquin Trail,Fort Worth,TX,76118,817-891-7921
Route 9 Trucking,222 Cr 3218,Jacksonville,TX,75766,903-586-9912
Zm Express,6010 Ironmill Creek,Converse,TX,78109,210-932-8451
D&j Transport,322 Cr 280,Jasper,TX,75951,409-224-0045
Triple A Forwarding,1502 Barcelona,Mission,TX,78572,956-222-0927
M Bar J Ranch & Transport,19413 Hwy 271 N,Winona,TX,75792,903-877-3397
J&r Services,4895 Romeda Road,Beaumont,TX,77705,409-840-4620
Sims Operations,13320 Vida Ln,Dallas,TX,75253,214-780-8753
J T Auto Transport,11019 Angel Pt,San Antonio,TX,78254,210-255-9791
Cano Trucking,19406 Southhaven Dr,Houston,TX,77084,832-407-8460
122 Transport,8931 Tintagel St,San Antonio,TX,78254,210-416-0750
Trinity Logistics,1253 Pelican Pl,New Braunfels,TX,78130,830-626-3322
Silva Spur Hay & Hauling,9216 South Us Hwy 377,Dublin,TX,76446,254-396-9828
High Trucking & Excavation,1293 Cr 475,Stephenville,TX,76401,254-968-3070
D & A Trucking,6080 Libby Ln,Beaumont,TX,77708,409-892-6174
Tito Trucking,15121 Mica Rd,El Paso,TX,79928,915-861-6614
Johns Vac Service,13502 Conklin Ln,Houston,TX,77034,713-295-9656
All-state Logistics,717 Red Oak Ave,Crosby,TX,77532,832-848-1252
Santana Trucking,1225 E Broadway Ave,Fort Worth,TX,76104,817-716-2449
J C Trucking,4351 S Polk St,Amarillo,TX,79110,806-335-6939
F Trabado Trucking,110 E 12th St,Denver City,TX,79323,956-457-6958
Martinez Trucking,233 Spencer Rd,Wharton,TX,77488,979-532-0391
Samps Trucking,707 Sam Wiley,Cleveland,TX,77327,281-592-9363
James W Buzbee Transport,122 Hcr 2214,Aquilla,TX,76622,254-694-6241
Peter Trucking,1621 Redtown Rd,Elgin,TX,78621,512-636-3768
C H Trucking,2802 Rocky Creek Dr,Mansfield,TX,76063,817-477-4450
J And L Transport,1832 Spinnaker Lane,Azle,TX,76020,817-925-5788
Amoun Trucking,525 Chapel Creek,Lake Dallas,TX,75065,972-740-5088
Millers Hot Shot,12023 Cr 2298,Tyler,TX,75707,903-566-7655
Billy Crocker Transport,6126 Rolling Heights Circle,Kaufman,TX,75142,N/A
Speedy Transport,418 S Mendiola Ave,Laredo,TX,78043,956-717-2326
American Eagle Transport,504 B South 10th Street,Donna,TX,78537,956-227-3464
Cnb Transport,1001 Simpson Dr,Mineral Wells,TX,76067,940-452-5401
Sam Butler Trucking,545 Allen Street,Cleveland,TX,77327,281-659-4355
D&d Seafood,5017 Woodlawn,Groves,TX,77619,405-488-8807
Gilstrom Transportation,3737 Burkett #42c,Houston,TX,77004,713-206-9112
Jd Trucking Co,4129 Tiburon St,Fort Worth,TX,76106,817-454-0292
Willis Cargo Transport,22577 Lime Street,Frankston,TX,75763,903-876-3734
Bowen Logistics,Rt 1 Box 383a,Jasper,TX,75951,936-553-8898
Jose Hernandez Trucking,220 Northpoint Dr # 1901,Houston,TX,77060,832-488-4119
Abby Auto Transport,119 S Cage # 7,Pharr,TX,78577,956-310-4968
Diggers Cemetary Service,2015 Christoval Rd,San Angelo,TX,76903,325-651-5405
West Ltd,11026 Hwy 124,Beaumont,TX,77705,409-794-9090
Eg Trucking,3817 Monica Dr,Weslaco,TX,78596,956-825-7157
C Alvarez Trucking,220 Caramel Dr,Alamo,TX,78516,956-578-6807
Hernandez Transport,3806 Savanah Dr,Garland,TX,75041,214-394-9846
"Target Logistics, Inc.",1160 Joe Battle,El Paso,TX,79936,915-225-8188
Raw's Trucking,7713 Yoe St,Houston,TX,77016,832-794-0143
Quick Transfer Service,1013 Hodgkins #f,Houston,TX,77032,713-516-2699
Jose L Reyna Trucking,15322 Chestnut Ln,Channelview,TX,77530,281-935-8789
R&j Transportation,10230 Scyene Rd,Dallas,TX,75227,972-432-6927
Stone Trucking,17590 Fm 455,Celina,TX,75009,214-232-3928
Scottie G's Transport Service,394 Patterson Lane,Bullard,TX,75757,903-360-4981
Great Mount Logistics,5506 N Huisache Ave,Pharr,TX,78577,956-592-3270
Segura Trucking,2605 Dandelion Ln,Rowlett,TX,75089,214-966-9222
Freedom Express,4232 Lavaca Trail,Carrollton,TX,75010,214-607-7440
Kc Transportation,7702 Providence Dr,Rowlett,TX,75089,714-880-2222
Need To Go Transportation,115 Fcr 415,Fairfield,TX,75840,888-881-9803
Koffi Enterprise,10632 Ashmore Dr,Fort Worth,TX,76131,817-306-0266
H & H Transport Company,3450 Farm To Market Road 18,Abilene,TX,79602,325-660-0033
Rg Transport,602 Foshee St,Mission,TX,78572,956-240-3458
Tp C&s,204 Jason St,Canadian,TX,79014,806-323-2208
V & A Transport,315 E Jones,Pharr,TX,78589,956-560-7100
M&m Trucking,5309 Village Tr,Austin,TX,78744,407-590-7491
Tostado Trucking,7820 Citrus Hills Dr,Weslaco,TX,78596,956-792-1442
Spurlino's Hotshot And Car Haulers,55 Linwood Dr,Marshall,TX,75672,903-935-1997
Flanagan Trucking,2305 Terry Street,Nacogdoches,TX,75964,N/A
On The Run Transport,2902 Tower Bridge Court,Pearland,TX,77588,N/A
Fs Trucking,479 Davis,Victoria,TX,77905,361-655-1172
Ma & Pa's Trucking,915 Arlington Rd,San Benito,TX,78586,956-783-1100
"Hensley -valrie, Inc.orporated",2038 Valley Manor Drive,Missouri City,TX,77489,281-943-4882
H&m Transportation,78 Basswood Drive,San Antonio,TX,78213,830-947-3296
C & L Transport,934 Cr 820,Nacogdoches,TX,75964,936-559-0794
Jaime Transport,2039 Lima Loop,Laredo,TX,78045,956-319-0719
Auto Master,3460 Slocum St,El Paso,TX,79936,915-726-3596
Roder Auto,13910 Lillja,Houston,TX,77037,713-885-8845
Arrow Transportation Services,8210 Roswell St 8,Houston,TX,77022,713-747-5330
Ivan's Transport Trucking,4335 Santa Anita,Pasadena,TX,77503,281-476-1044
Lone Oak Livestock,11025 Fm 847,Dublin,TX,76446,254-445-2614
P L I,4007 Clayton Bend Court,Houston,TX,77082,281-777-8339
Ba Trucking,7599 Fm 35,Royse City,TX,75189,214-797-6715
Transportes Cuna,28919 Rangerville Rd,Harlingen,TX,78552,713-839-8501
Jtb Transportation Co,325 Nw Hillery,Burleson,TX,76028,817-426-3722
Talamantez Transport,4226 Wildt Rd,San Antonio,TX,78222,210-835-8546
Df Trucking,4310 Rand St,Houston,TX,77026,713-672-4178
Arana Creek Services,1008 Boat Works Rd,Riviera,TX,78379,361-296-4009
Jrg Trucking,3314 Conrad Ln,Katy,TX,77449,281-850-7093
Sey-more Logistics,1801 Estrada Pkwy 201,Irving,TX,75061,214-550-0249
Ace Trucking,1204 N Cty Rd 2930,Lubbock,TX,79403,806-438-2807
Rascon Trucking,1291 Co Rd 36,Vega,TX,79092,806-881-8947
Gils Interstate Logistics Services,861 Los Surcos Rd,El Paso,TX,79907,N/A
V&a Xpress,3304 Moorefild Rd Apt 4,Mission,TX,78574,956-222-0695
Rufus Day Trucking,485 Rolling Hills Pl Apt#323,Lancaster,TX,75146,972-230-1603
Alco Trucking,520 Zebu,El Paso,TX,79927,915-691-8379
D&b Transportation,131 South Guerra Street,Weslaco,TX,78596,956-207-6325
S & S Transportation,21111 Pinetex,New Caney,TX,77357,281-689-3327
Benny's Express,1706 West Jefferson Ave,Alton,TX,78573,956-321-7274
Ile Transport Services,4101 Morelia,Laredo,TX,78046,956-235-7476
Armando Villa Trucking,2323 W 13th,Odessa,TX,79763,432-438-3765
B & Y Transport,809 W Tierra Linda Cir,Mission,TX,78572,956-735-5431
Lg Trucking,1301 Nani St,Pharr,TX,78577,956-783-1100
Autolotes Dayana,30471 Rangerville Road,San Benito,TX,78586,956-428-8804
Tld Heavy Haul,22722 Brookforest,New Caney,TX,77357,281-399-2179
K & D Carriers,110 Windsor,Laredo,TX,78041,956-717-1554
Bates Transport,14311 Skyfrost Lot # 145,Dallas,TX,75253,214-772-6096
On The Go Trucking,2250 Jackson Circle,Carrollton,TX,75006,972-742-2024
Casarin Cargo Trucking,14101 Transportation Ave,Laredo,TX,78045,956-791-1216
Garcia's Transport,18920 Carrot St,Spring,TX,77379,832-257-9612
S & C Trucking,409 E Reeves St,Tyler,TX,75702,903-595-6624
L & M Express,1900 Southbrook Dr,Wylie,TX,75098,214-641-3610
Montanez Trucking,8408 Whispering Willow Ln,Fort Worth,TX,76134,817-807-7546
Gonzalez Trucking,900 Loma Linda,Alamo,TX,78516,956-905-0417
Dl Trucking,8519 Delfina Dr,El Paso,TX,79907,N/A
Marin Trucking,2001 Bristol Rd Apt #327,Laredo,TX,78045,956-949-3695
Marji Trucking,9306 Parkmore Dr,Houston,TX,77095,281-550-8708
Castor Trucking,1675 Reese Rd,Kaufman,TX,75142,817-240-1207
Tuel Transportation,5251 Pr 4084,Gilmer,TX,75644,903-725-7669
Delmax,494 B Walnut Circle,Laredo,TX,78041,956-229-7712
Bravo & Sons Trucking,172 Hidalgo Ave,Rio Grande City,TX,78582,956-488-6453
D&d Truck Line,1326 East Beltline Road,Wilmer,TX,75172,214-466-0833
Kemp Jones Transportation,205 E Goree,Benjamin,TX,79505,940-459-2054
Cross Transportation & Logistic,97 Orchard Ct,Laredo,TX,78045,956-717-2929
J P Transport,906 South Barlett Ave,Laredo,TX,78043,956-740-0146
Next Generation Charters,19443 Billineys Park Dr,Katy,TX,77449,281-861-8526
Angel Trucking,20907 Lansing Ridge,Katy,TX,77449,832-533-1239
Elite Drilling Services Of Texas,1113 N Nolan River Rd,Cleburne,TX,76033,817-202-0553
C A Trucking,313 Victoria,Laredo,TX,78040,956-783-1100
Waw Sand Company,754 North Cherry St,Seguin,TX,78155,830-303-9931
Moy's Transport,14966 Catherine Jane Dr,El Paso,TX,79938,915-850-1035
Shane Mcdougal Trucking,842 W Villaret,San Antonio,TX,78224,210-921-9683
El Tecate Transport,23101 Brushline Rd,Edinburg,TX,78541,956-821-8905
Gold Eye,2012 Mary St,Corpus Christi,TX,78405,361-444-9400
Wb & T,1588 W Klein Rd,New Braunfels,TX,78130,210-464-7089
Price Services,417 North 7th Street,Jacksboro,TX,76458,940-366-4353
C E C Transport,1110 W Chavez Street,Edinburg,TX,78539,573-645-2100
Cordova Trucking,12102 N Los Ebanos,Mission,TX,78573,956-792-2889
Acatlan Transportation,1926 Elmwood Blvd,Dallas,TX,75224,214-579-5002
Kc Transport,6012 N Shary Rd,Mission,TX,78573,956-429-9793
Willy Jack's Trucking,1070 Cr 1653,Chico,TX,76426,940-393-9185
K Dezel Logistics,5355 Margaret Ln,Beaumont,TX,77708,409-347-8036
F And S Trucking,2514 Cervantes Ave,Edinburg,TX,78541,361-443-9116
Meador Trucking,308 North High,San Saba,TX,76877,325-372-1900
Mr Trucking,1335 Silverado Dr Apt 107,Houston,TX,77077,832-889-7704
Transportes Sebastian Sa De Cv,4023 Almond Lake Dr,Houston,TX,77047,281-330-5116
C & S Transport,141 W Longoria,Pharr,TX,78577,956-432-0001
Higherways Transportation,5909 102nd,Lubbock,TX,79424,806-783-8824
Shapa Auto Transport,6419 Pizarro,El Paso,TX,79912,915-504-0728
El Paso Trucking Company,3604 Race St,Fort Worth,TX,76111,817-715-9231
Acosta And Company Trucking,11675 W Bellfort Apt 1610,Houston,TX,77099,832-531-0213
R & M Trucking,4416 Glen Eagle's Drive,Odessa,TX,79707,432-770-8460
Berry Services,19922 Heritage Drive,Tomball,TX,77377,281-620-8394
Kelvin Erringhouse,6619 Annunciation,Houston,TX,77016,713-384-2265
Frontier Communications,2200 West Airfield Dr Dock E,Dfw Airport,TX,75261,972-947-1202
Alvarado Hot Shot Service,3719 Charles Conrad St Apt D,Kirby,TX,78219,210-548-1845
Jm & Son's Transport,1218 Tidwell Rd,Houston,TX,77022,713-213-5572
Jc Express,1902 Leandro St,Mission,TX,78574,N/A
R & R Express,412 E William Cannon Dr Apt 1504,Austin,TX,78745,512-507-2469
Kjs Services,19230 Morris Ave,Manvel,TX,77583,832-621-9485
Morales Trucking,1311 Nw 12th Place,Andrews,TX,79714,432-349-0486
Rio Mobile Homes Sales & Transport,1209 E Sioux Rd,San Juan,TX,78589,956-789-0178
Dbs Trucking,5321 Silverymoon St,Dallas,TX,75241,469-233-0544
Clean Up Man Trucking,22922 Banquo Dr,Spring,TX,77373,281-443-1381
M K Services,16721 Lightner Ave,Odessa,TX,79766,432-940-1427
Gou Express Lines,18065 Appleridge Dr Apt 2421,Dallas,TX,75287,469-556-1372
Laoe Distributors,5715 Harper Forest Dr,Houston,TX,77088,713-202-3138
Gomez Backhoe Service,614 W 2 Mile Rd,Mission,TX,78574,956-573-7644
Rosa's Bus Service,329 Baldinger,Houston,TX,77011,713-926-6332
Ram's Logistics,515 S 13th St,Donna,TX,78537,956-223-9861
Rodriguez Transport,1452 El Venado Drive,Eagle Pass,TX,78852,830-757-8060
Aquiles Transport,761 Post Avenue,Corpus Christi,TX,78405,361-884-1187
Ma De Los Angeles Trucking,13539 Fm Road 498,Lyford,TX,78569,956-968-6448
Pedro Martinez Jr Trucking,296 E Polaco St,Roma,TX,78584,956-849-4163
Eclipse Mercantile,2552 Us Highway 287,Mansfield,TX,76063,817-572-4534
B A Trucking,2102 75th St,Lubbock,TX,79423,806-577-0915
R & R Trucking,16333 S Ih-35,Bruceville,TX,76630,254-857-7368
Ventura's Trucking,16150 Kieth Harrow Blvd Apt 1701,Houston,TX,77084,713-283-4189
D & C Hot Shot Service,5911 Paloma Lane,Needville,TX,77461,979-793-3785
South Valley Transport,1202 Ignite St,Penitas,TX,78576,956-578-9705
Freight Hoggs,10623 Castleton,Houston,TX,77016,713-635-1926
Allens' Services,9801 Album St,El Paso,TX,79925,915-309-3886
New Era Transport,449 Riverwood Drive,San Angelo,TX,76905,325-651-5459
Alpha Omega Express,4211 Americana Lane,Mission,TX,78572,956-583-7979
M Mercado Trucking,217 David Davis,Mcgregor,TX,76657,254-379-4459
Mty Logistics,12363 Abrams Rd #424,Dallas,TX,75243,469-274-1411
Country Girls Transport,8050 Pr 7405,Chandler,TX,75758,903-852-5788
Michael F Leber Dba,3917,Tompkins Rd,TX,79930,915-565-7446
Moco Trucking,907 Hitchcock Circle,Duncanville,TX,75137,469-235-3766
Extreme Hot Shot Services,14519 Texarkana,Houston,TX,77015,713-453-1394
Chandler Services,544 Williamsburg Ave,Carthage,TX,75633,936-554-0878
Kds Transportation,5600 Babcock Rd,San Antonio,TX,78240,309-219-6138
Brown Transport Services,908 Shortline Blvd,Midlothian,TX,76065,972-921-1438
Silverado Trucking,5812 S Cage,Pharr,TX,78577,956-237-2707
J & B Trucking,2627 Mobile Ave Apt 3,El Paso,TX,79930,915-867-9813
Sid Merrill,503 Sw 13th,Perryton,TX,79070,806-898-5573
Andrade Transportation,111 Burbridge Rd,Clint,TX,79836,915-252-6266
P&p Transport,145 Cr 2132,Quitman,TX,75783,903-763-8067
Lb Transport,170 Shiloh Dr,Richmond,TX,77469,281-937-0020
J And D's Trucking,1998 Fm 1172,Friona,TX,79035,806-265-7547
Lone Star Logistics,8695 Fm 524 Rd,Sweeny,TX,77480,979-548-1120
J&j Trucking,8801 Mines Rd,Laredo,TX,78041,956-726-2586
Porcayo Trucking,3802 Mohawk,Houston,TX,77093,713-557-6179
Multi Services Castill0,2626 East Military Highway,San Benito,TX,78586,507-329-5655
M & M Trucking Co,246 Allard Rd,Ennis,TX,75119,972-670-4281
Mdvg Trucking,3421 Loyola Ave,Mcallen,TX,78504,N/A
Mario A Rodriguez Trucking,520 Cr 3821,San Antonio,TX,78253,830-995-4020
New Image Movers,20130 Foxwood Forest,Humble,TX,77338,713-408-0709
J R Trucking,859 N 1936,Odessa,TX,79763,432-661-2604
Reyes & Reyes Trucking,1315 N Nursery Rd 209 A,Irving,TX,75061,469-432-4363
Americas Moving And Freight,9322 Valley Gate,San Antonio,TX,78250,210-204-4821
Hernandez Trucking,1230 S Buffalo Ave,Buffalo,TX,75831,214-862-5054
Jr Express,215 West 2nd St,Alice,TX,78332,361-701-9869
Rojas Welding Service,9814 B Village Bell,Houston,TX,77038,832-331-6562
Arzaga Trucking,1218 Colina Blanca,El Paso,TX,79927,915-731-6826
Heavenly Express,8408 Sunrise St,Edinburg,TX,78542,956-225-6383
Coastline Trucking,119 West Ave F,Robstown,TX,78380,361-646-0047
Tarheel Transport,7826 Glencrest Dr,Sachse,TX,75048,910-237-4325
W & K Trucking,1935 Fm 2457,Livingston,TX,77351,936-967-3674
Gulf Star Industrial Services Ltd,553 W 22nd Street,Houston,TX,77008,832-460-7370
Truckline Express,3904 W Mile 3 Rd Ste 2,Mission,TX,78574,956-783-1100
Alpine Transportation,2506 Bustamante St,Weslaco,TX,78596,956-650-7517
Mercedes Transport,801 S S Eastloop 323 Suit A,Tyler,TX,75702,903-526-7820
Fox Transport And Delivery Services,7507 Livery Lane,Cypress,TX,77433,281-345-7431
J & M Trucking,3003 East Fm 979,Franklin,TX,77856,979-828-3503
Tonys Transport,260 Fm 3039,Combine,TX,75159,214-263-2485
Continental Freight Solutions,1955 New Hope Road,Crossroads,TX,76227,214-724-3533
S B Trucking,14438 Andrea Way Ln,Houston,TX,77083,281-932-7024
