Company Name,Street Address,Address Locality,Address Region,Postal Code,Telephone
R&l Firewood & Trucking,144 Old Heights Road,Glover,VT,05839,802-525-1087
Wilder Trucking,1194 Crossett Hill,Duxbury,VT,05676,802-244-5228
G&m Trucking,1988 Calender Brook Rd,Burke,VT,05871,802-274-8832
The Milkman,78 Alden Rd,Bellows Falls,VT,05101,802-463-2091
Allphase Excavation & Trucking,192 Pine Oak Park,Waltham,VT,05491,802-877-6845
T N T Transport,398 Elm Street,N Bennington,VT,05257,802-375-3621
Tjl Transport,64 Green St,Vergennes,VT,05491,802-377-9559
Green Way Caretaking Services LLC,11 Little York Rd.,Bondville,VT,05340,405-599-1234
Granite Mountain Transport,1105 Mccarthy Rd,Graniteville,VT,05654,802-476-3666
On Site Automotive,391 Whittier Road,Derby Line,VT,05830,802-895-2781
S D V Trucking LLC,422 Rt 114 South,Norton,VT,05907,802-822-5200
Gabby's Livestock Hauling,16 Mill Road,N Springfield,VT,05150,802-886-2745
Africa Market,300 Lake St # 204,Burlington,VT,05401,802-324-806
Hilchey's Trucking,314 Safford St,Bennington,VT,05201,802-447-7214
Weswind Trucking,4083 Gore Road,Derby,VT,05829,802-895-4077
Mobile Home Transport LLC,3359 N Wolcott Rd,Wolcott,VT,05680,802-888-6666
Mj French Transport,2498 River Rd E,Johnson,VT,05656,802-635-6681
S E W Transport,27 Sliverdowl Rd,Mooretown,VT,05660,802-485-3227
Econo Hoe,1129 Burr Pond Rd,Sudbury,VT,05733,802-273-3653
Joe's Transport,3276 Upper Rd,Plainfield,VT,05667,802-479-3433
Bourn2 Transport,106 Grover Dr,Rutland,VT,05701,802-775-5356
Last Chance Truckin,10 Sevigny,Castleton,VT,05735,802-273-2935
Back Hills Services,275 Rte 110,Tunbridge,VT,05077,802-889-3359
Emery Trucking,3 Emery Hill Drive,East Dummerston Dr,VT,05346,802-254-8708
Km Property Services,103 Walsh Ave,White River Junction,VT,05001,802-280-5636
Evergreen Distributors,806 Old Codding Rd,Putney,VT,05346,802-683-7506
Lafond Trucking,1044 Rt 12,E St Johnsbury,VT,05838,802-745-8403
Brookfield Transportation Services,1591 Lakeview Dr,N Hero,VT,05474,518-298-2684
Holmes Trucking Of Brattleboro,317 Carriage Hill Road,Brattleboro,VT,05301,802-258-3920
Coleman Strong Enterprises,9776 Route 30,Jamaica,VT,05343,802-375-5222
"Shelburne Autoworks, Inc.",500 Sheehan Green,Charlotte,VT,05445,802-425-2787
John's Light Trucking Ex,146 Parizo Rd,Swanton,VT,05488,802-868-7668
Jimmy Eastman Trucking,5478 Burton Hill Road,Irasburg,VT,05845,802-754-2972
Eric G Boyd Trucking,1530 Holbrook Rd,Jacksonville,VT,05342,802-368-2410
"Nutbrowns Contstruction, Inc.",1330 Coles Pond Rd,Danville,VT,05828,802-748-4644
Colebell Trucking,Rt 131,Ascutney,VT,05030,802-356-6762
Brushwood Transport,128 Brushwood Road,Bradford,VT,05033,802-222-5208
Waidlich Trucking,686 Green Mountain Turnpike,Chester,VT,05143,413-659-0296
Fortier Distributing,195 Cortland Hill,Waterford,VT,05819,802-748-4687
Pappies Trucking,2010 Rollo Road,Swanton,VT,05488,802-868-4189
Cruz's Bus Service LLC,81 Gale St,Canaan,VT,05903,802-822-5110
Shane Geno Trucking,54 Braley Rd,Bridgewater Cors,VT,05035,802-672-5415
M & D Hauling,1063 Codding Hollow Rd,Waterville,VT,05492,802-644-5935
Cd Reilly Services LLC,10523 Pomfret Road,N Pomfret,VT,05053,180-229-6213
Lance Trucking,24 Independent Dr,Hartland,VT,05048,802-436-3001
Njn Transportation,151 West St,Winooski,VT,05404,802-655-4146
Justin Frizzell Trucking,28 Covell Road,Lemington,VT,05903,802-277-8539
Willoughby River Farm Trucking,1145 Evansville Rd,Brownington,VT,05860,802-754-2669
Have Trash Will Travel,4973 Vermont Route 14,South Royalton,VT,05068,802-763-8298
Diamond Automotive,55 Chestnut Street West,Brattleboro,VT,05301,802-254-9452
K & L Trucking,515 Main Street,Chester,VT,05143,802-875-4028
Aamco Transmission,9 Green Mountain Dr,South Burlington,VT,05403,802-864-0049
Ez Trucking,80 Brook St Apt 1,Brattleboro,VT,05301,802-254-5656
Tri State Basement Systems,101 Granger Road,Berlin,VT,05602,802-498-0810
Bob's Trucking,351 Cedarwood Drive,Island Pond,VT,05846,802-723-4036
Kevin Bagley Trucking & Firewood,4466 Vermont Route 100,Granville,VT,05747,802-767-3765
Coons Trucking,99 Coons Road,Richford,VT,05476,802-848-7404
Big Yellow Taxis,94 Bowling Lane,White River Junction,VT,05001,802-296-2733
Amsden Trucking,7937 Windham Hill Rd,Windham,VT,05359,802-875-3193
Alan Bowser Trucking,19 Route 129,Alburg,VT,05440,802-238-7438
Theodore Salomaa Trucking,6840 Waits River Road,Bradford,VT,05033,802-439-6790
J & M Trucking,675 Overlea Road,Bennington,VT,05201,802-442-5347
Ron Hook's Auto Repair & Salvage,108 Mill Street,North Hartland,VT,05052,802-295-5142
K - N Auto,1197 East Main St,Newport,VT,05855,802-334-0118
Mountain Top Auto Hauling,338 Brook Road,Strafford,VT,05072,802-765-4674
Jwd Trucking,12 Lakes End Court,Wells,VT,05774,802-645-9164
Scott Cochran&sons Transport,2519 Joes Brook Rd,Danville,VT,05828,802-748-8155
American Lenders Service Company Of Burlington Vermont,1590 Route 7 South,Middlebury,VT,05753,802-388-7376
Larrys Golf Car Service,114 Gummerus Rd,E Berkshire,VT,05447,802-933-4489
Rick And Angie Cameron Jr Trucking,418 Us Rt 2,Alburg,VT,05440,180-279-6306
Mark Whitney Trucking,21 Whitney Lyman Drive,Chelsea,VT,05038,802-685-4559
Morris Trucking,146 Hathaway Rd,White River Junction,VT,05001,802-356-3177
Sierra Trucking,2874 Brook Road,Burke,VT,05871,802-467-8652
Northeast Express,1079 Shattuck Hill Rd,Newport,VT,05855,802-334-1838
Jls Auto,2908 Fort Bridgeman Rd,Vernon,VT,05354,802-257-7404
Albany Auto Repair & Body Shop,260 Main St Rt 14,Albany,VT,05820,802-755-9278
Bob Willey Excavating,79 Jennifer Lane,White River Junction,VT,05001,802-295-2448
Jp2 Snow Removal,1720 Shelburne Rd,South Burlington,VT,05403,802-859-9280
Corliss Concrete Pumping,1093 Back Center Road,Lyndonville,VT,05851,802-626-3222
Peter Gourley Trucking,74 Advent Hill,Hartland,VT,05048,802-436-3441
K & M Hale Trucking,179 Scotch Hill Ext,Fair Haven,VT,05743,802-265-8283
Ctr Transportation,77 Grassano Dr,Bristol,VT,05443,802-870-3136
White's Trucking,1638 East Bethel Rd,Randolph Ctr,VT,05061,802-728-3055
Brett Berry & Sons,395 Pike Road,Jacksonville,VT,05342,802-368-0077
Northern Precast And Welding,83 Crawford Road,Newport,VT,05855,802-334-1978
Arnold Wescom Trucking,3128 Vt Rt 109,Belvidere,VT,05442,802-644-5141
Spartan Movers,56 Lincoln St #8,Essex Jct,VT,05452,802-872-7849
William Steele Truck & Auto Repair,2858 Popple Dungeon Rd,Chester,VT,05143,802-875-2082
Vermont Heritage Distributors,3662 North Derby Road,Beebe Plain,VT,05823,802-334-2528
T&d Services,2402 West Rd,West Rutland,VT,05777,802-235-2432
Kandzior Transport,75 Satterly Road,Ferrisburgh,VT,05456,802-877-3658
Jmb Transport,110 Morgan St,Bennington,VT,05201,802-753-1459
Michael A Marsha & Sons Transport LLC,96 Hanna Road,Highgate Ctr,VT,05459,802-868-2667
East Main Auto Repair,210 East Main Street,Newport,VT,05855,802-334-5662
T-lahar Trucking,194 West Street,Barton,VT,05822,802-525-6235
Robert Trucking,4961 Case St,Middlebury,VT,05753,802-382-8984
Covey Trucking,750 Franklin Road,Vernon,VT,05354,082-257-4096
Dartmouth Moving & Storage,128 Three Mile Bridge Rd,Middlesex,VT,05602,802-223-1865
Aqua Waste Septic Service,187 Old Harbor Road,Bennington,VT,05201,802-442-2036
Smitty's Auto Works,897 Augurhole Road,Brattleboro,VT,05301,802-464-0025
Maurice Roy Trucking,1311 Vt Rt 114 S,Norton,VT,05907,802-822-9983
John Young Trucking,Rt 102 Box 179,Guildhall,VT,05905,802-676-3501
D&g Transport,2404 Reagan Rd,Montgomery,VT,05471,802-326-3235
W C Transport,24 Railroad St,Milton,VT,05468,802-893-7518
Hensel Trucking,398 Fairfield Rd,East Fairfield,VT,05448,802-827-3987
Hossenfeffer Trucking,1478 Colby Rd,Lunenburg,VT,05906,802-892-5983
Fitzpatrick Trucking,South Hill Road,Wardsboro,VT,05355,802-896-9448
Freedom's Edge Marine,29 Gorham Bridge Rd,Proctor,VT,05765,802-459-2070
Frank Parker Trucking,20 Marcy Lane,Middletown Springs,VT,05757,802-235-2189
Best Price Deliveries,59 Buell St 2,Burlington,VT,05401,802-951-9244
D & R Transport,2585 Us Route 7,Swanton,VT,05488,802-309-0208
K S Auto And Repair,Rt 5,St Johnsbury,VT,05863,802-748-1100
Rj Services,750 Roberts Road,Springfield,VT,05156,802-674-1837
North East Car Hauling,22 Colodny Terr,Newport,VT,05855,802-334-8210
Lavallee Trucking,135 First Avenue,Chester,VT,05143,802-875-6354
Triple M Transport,401 Piney Woods Road,Bristol,VT,05443,802-233-9545
Wilwood Transportation,Buck Brook Road,East Charleston,VT,05833,802-723-4852
"Davis Auto, Inc.",1350 Rt 14,Hartford,VT,05047,802-296-5968
John Berry & Son Trucking,1489 Simpson Hill Road,Sutton,VT,05867,802-626-5239
Big Ugly Bear Auto Trader,22 Memorial Drive,St Johnsbury,VT,05819,802-748-2255
K & J Farms,275 Clay Point Road,Colchester,VT,05446,802-893-7061
K P Trucking,Centerville Road,East Wallingford,VT,05742,802-259-3451
Greene's Servicenter,101 East Main St,Wilmington,VT,05363,802-464-3306
Gaudette Transport Co,119 Dezotelle Road,E Fairfield,VT,05448,802-827-9725
Moffatt Trucking & Excavating,3375 Island Pond Road,Newark,VT,05837,802-467-1186
Transport Mike Coates,1169 Rt 2 Box 24,East St Johnsbury,VT,05838,802-748-2690
A J Trucking,3279 Vt Rt 105,Sheldon,VT,05483,802-933-4536
Ballou Transportation,1168 Happy Hollow Road,South Royalton,VT,05068,802-433-1061
G M Services,217 Town Farm Road,Norwich,VT,05055,802-649-8799
Dlc Trucking,152 Water St,Northfield,VT,05663,207-551-2079
K T Service And Repair,549 Green Road,Whitingham,VT,05361,802-368-9978
Gray's Excavating,150 Sam Webb Road,Fairfax,VT,05454,802-849-6285
S D H Trucking LLC,1428 Rockingham Rd,Chester,VT,05143,802-463-9435
J W Transport,140 Scott's Lane,Craftsbury,VT,05826,802-586-6910
Poorboy Trucking,121 West St,Fairfield,VT,05455,802-933-5908
Meunier Transport,#7 Homestead Acres,St Albans,VT,05478,802-527-5028
Gordon Johnson Trucking,563 River Road South,Putney,VT,05346,802-387-2745
Ned Transportation Services,24 Clapper Rd,Milton,VT,05468,802-891-2000
Bob's Auto Rescue,3015 Fort Bridgman Road,Vernon,VT,05354,802-257-3041
Jim Hill Trucking,141 Glover Rd,Groton,VT,05046,802-584-4210
Sjl Transport,513 Crawford Hill,W Charleston,VT,05855,802-895-4104
Carvage Transport,45 Highland Ct,Chester,VT,05143,802-875-3341
Boyee Trucking & Construction,2494 Rt 302,Wells River,VT,05081,802-429-2432
"Southern Cross Concrete Pumping Service, Inc.",973 Old Town Farm Rd,White River Ct,VT,05001,802-295-1771
Northland Transport,74 Central St,Newport,VT,05855,802-334-2521
Delmar Deliveries,257 Jasper Mine Rd,Colchester,VT,05446,802-893-2723
A-m Trucking,280 Creek Rd,Irasburg,VT,05845,N/A
Key Auto Sales,94 Community Drive,Newport,VT,05855,802-334-1996
Leonard's Auto Repair,297 Rowes Rd,S Londonderry,VT,05155,802-824-5034
Rexford Trucking,866 Calender Brook Rd,West Burke,VT,05871,802-626-8670
Forestery Transport,2959 Highland Gray Rd,Poultney,VT,05764,802-287-9849
Cam-aar Distribution,18 The Square Unit 34,Bellows Falls,VT,05101,802-463-3288
C Carrara Trucking,141 Marc Drive,Chester,VT,05143,802-875-2643
Stewart Trucking,792 Bellows Falls Road,Putney,VT,05346,802-387-1107
K & T Trucking,48 1/2 Saxtons River Road,Bellows Falls,VT,05101,802-463-3986
Waterbury Moving And Storage,121 Pleasant St,Ludlow,VT,05149,802-236-7624
Butler Trucking,4198 Burton Hill Road,Irasburgh,VT,05845,802-754-9507
Mountain View Trucking,363 Topsham Corinth Rd,Topsham,VT,05076,802-439-5550
Precision Crane Service,Rr 1 Box 209 Pudding Hill,Lyndonville,VT,05851,802-626-3036
Desperado & Son Trucking,Rt 5 80 Main St,Lyndonville,VT,58511,802-748-5706
Crawford Trucking,Rr 1 Box 874,Stamford,VT,05352,802-694-1316
"New England Auto Supply, Inc.",40 Court Street Unit #3,Middlebury,VT,05753,802-388-6577
Brent Benoit Transportation,200 Osborne Road,Barre,VT,05641,802-479-2684
Valley Auto Service,Route 30,Newfane,VT,05345,802-365-9264
Begin Trucking,1464 Blackmer Blvd,Stockbridge,VT,05772,802-234-6113
Raymond Trucking,Wilson Road,Johnson,VT,05655,802-888-7186
E Ingerson Trucking,761 Rice Willis Road,Castleton,VT,05735,802-265-8022
Dimmick Wastewater Service,1362 Curtis Road,Randolph Center,VT,05061,802-728-4700
Bill Kittell Trucking,Rr,Sharon,VT,05065,802-763-7863
Beauregard Transport,Bush Road,Alburg,VT,05440,802-796-3075
Sherm's Trucking,Rd 4 Box 2505,Montpelier,VT,05602,802-229-4386
Big Dogs Express,23 A Gentes Rd,Essex Junction,VT,05452,802-879-1434
Laplant Trucking,64 Haskins Terrace,West Berlin,VT,05663,802-229-1801
Silver Star Trucking,Road 34,Franklin,VT,05457,802-285-2036
J W Lourie Trucking,East St,West Rupert,VT,05776,802-394-2956
H Descheneau Transport,Rte 101,North Troy,VT,05859,802-988-2827
Precision Valley Auto Sales,45 Clinton St,Springfield,VT,05156,802-885-5090
R C Transport,P O Box 993,St Albans,VT,05478,N/A
Bovey's Timber Express,Hollister Quarry Rd Florence,Brandon,VT,05733,802-483-2869
Bean & Family Trucking,P O Box 385,Island Pond,VT,05846,N/A
Best Western The Lodge At Mount Snow,Rt 100,West Dover,VT,05356,802-464-5112
Extraordinary Limo Service,12 Meadow Street,Ludlow,VT,05149,802-228-4636
G E Pike Trucking,219 Dark Meadows Drive,Mt Holly,VT,05758,802-259-2313
Randy's Automotive,137 N Main St,White River Junction,VT,05001,802-296-7439
Daves's Automotive,10 Gregory Drive,So Burlington,VT,05403,802-658-4616
Tug Mountain Trucking Co,Sawney Bean Rd,Thetford Ctr,VT,05075,802-333-4694
Terry L Bunnell,Rr 1 Box 73,East Ryegate,VT,50420,802-584-4732
B&d Service Station,165 Province Street,Richford,VT,05476,802-848-7469
Ryan Transit,3225 Richvlle Rd,Shoreham,VT,05778,802-897-5921
Huse Trucking,South Road,Bradford,VT,05033,603-448-6203
Lambert Transport Ltd,Rr 1 Box 4317,West Rutland,VT,05777,N/A
Stanley E Morse Jr Trucking,1479 Victory Rd,No Concord,VT,05858,802-695-8121
Moore's Transport,2571 10 Mile Square Road,East Charleston,VT,05833,802-723-6985
Bc Transportation,Box 215 The Mill,Bridgewater,VT,05034,802-672-3565
Letourneau Trucking,1024 Holland Pond Rd,Derby Line,VT,05830,802-895-4171
L Clark Trucking,Rfd 2 Box 1015,Enosburg Falls,VT,05450,802-933-4187
Canaan Gulf Station,Rte 114 & 253,Canaan,VT,05903,802-266-8900
Sun Land Auto,Crown Point Road,Bridport,VT,05734,845-758-5451
Sheperd Transport LLC,Rr 1 East Richford Slide Rd,Richford,VT,05476,802-848-3128
Green Trucking Transport,152 Silver Lane,Vernon,VT,05354,802-254-9725
Marcoux's Wrecker Service,Battle Row Road,Hyde Park,VT,05655,802-888-4911
R Blow Transport,15 Rounds Rd,Milton,VT,05468,802-527-2941
Mike Wood Trucking,1620 Coolidge Hwy,Guilford,VT,05301,802-257-5304
M Pion & Sons Transport,132 Irish Hill Rd,Lowell,VT,05847,802-744-2425
Lf Transport,2503 Beebe Plain Rd,Derby,VT,05829,802-766-8029
G M Grant Transport,Rte 116,Bristol,VT,05443,802-453-6185
G Housen North,155 Seward Rd,Rutland,VT,05701,802-773-4707
Lou Yannotti Trucking,1235 East Road,Bennington,VT,05201,802-442-9913
Green Mountain House Movers,Stewart Raod Berlin,Montpelier,VT,05601,802-229-4486
Herb's Trucking,Branch Brook Rd,Groton,VT,05046,802-584-3361
Town & Village Bus,14 Main St,Chester,VT,05143,802-875-3443
Robert Joslin Trucking,52 Joslin Hill Rd,Wardsboro,VT,05355,802-896-6279
Green Mountain Moving & Delivery,552 Avenue D Ste 10,Williston,VT,05495,802-862-7258
E Starr Trucking,884 Vt Rt 105 W,North Troy,VT,05859,802-988-2282
Wisell's Earth Moving,Biddie Knob Rd,Hubberton,VT,05702,802-273-3929
Spencer's Service,4211 Calender Brook Rd,Sutton,VT,05867,802-467-3544
G & J Fowler Trucking,22 North Shore Dr,Bellows Falls,VT,05101,802-463-3422
Vezina Trucking,72 Ingalls Dr,Orleans,VT,05860,802-754-9309
North Main Service,Route 12,Northfield,VT,05663,802-485-4841
Godda Truck Lines,Route 4,Bridgewater,VT,05034,802-672-5013
Tri-state Delivery,32 Main St Suite 20,Bratttleboro,VT,05301,802-254-4898
Danforth Trans,Rr 1 Box 603a Pike Hill Rd,Corinth,VT,05039,802-439-5170
Barnett Trucking,31 Green Mountain Dr,St Albans,VT,05478,802-524-5381
Rodrigue Trucking,17 Geno Avenue,Rutland,VT,05701,802-775-7548
Leemax Trucking,552 Stagecoach Road,Morrisville,VT,56618,802-888-3656
Mark's Auto Repair,371 So Rt 7,Milton,VT,05468,802-893-1855
Vermont Courier,444 Shunpike Road,Williston,VT,05495,802-865-1119
Young Auto,Rt 114,E Haven,VT,05837,802-467-3702
Scott Morse Trucking,112 North Rd,E Arlington,VT,05252,802-375-8335
Murray's Meats & Food Service,P O Box 131,Lyndon Center,VT,05850,802-748-8624
Mark's Auto,73 Boro Hill Road,Monkton,VT,05469,802-453-4794
L L Potwin Services,179 Handy Road,White River Junction,VT,05001,802-296-3000
Mikes Trucking,Rt 100,Eden Mills,VT,05653,802-635-7657
A & L Transfer,P O Box 927,Colchester,VT,54460,802-654-8604
Dennis Sample,Th 3 Bean Hill,West Glover,VT,05875,802-525-4672
John Colgrove Trucking,37 Autumn St,St Johnbury,VT,05819,802-748-4304
Boissonnault Trucking,50 Misty Dr,Chester,VT,05143,802-869-2894
D & R Trucking,805 E Brighton Rd,Ferdinand,VT,05846,802-723-4219
Jette Trucking,Box 584,Sheldon,VT,05483,802-933-4658
Bob O'brien Trucking,161 Depot St,Jamaica,VT,05343,802-874-4854
St Onges Custom Spreading & Hauling,1685 Newport-airport Rd,Newport,VT,05855,802-334-3044
S&k Trucking,3 Field Avenue,Rutland,VT,05701,802-773-0715
Bruce Tenney Trucking,159 Brookline Rd,Athens,VT,05143,802-869-2158
Mike Moore Trucking,1394 Brown Farm Rd,Lyndon,VT,05851,802-626-8859
2nd Chance Movers,219 N Winooski Ave,Burlington,VT,05401,802-651-4053
Chad Perry Trucking,152 State Street,Montpelier,VT,05602,802-249-0974
Hawk Hill Express,Middle Road,Bridport,VT,05734,802-758-2180
Denny's Details,42 Washburn Way,Vernon,VT,05354,802-254-4873
Rivers Trucking,17 Potter Road,Fairfax,VT,05454,802-849-6972
Garand Trucking,4498 Vt Rt 122 Box 118,Sheffield,VT,05866,802-626-3490
Roy Lane Trucking,563 Birchwood Dr,Hinesburg,VT,05461,802-482-6039
Meacham Transfer Service,Upper Plains Rd,E Middlebury,VT,05740,N/A
Pat Marshall Transportation,297 Clark Hill Rd,West Rutland,VT,05777,802-438-6167
Lussier Transport,183 Rugg Rd,Fairfield,VT,05455,802-524-4210
Marcoux Trucking Co,392 Pleasant St,Island Pond,VT,05846,802-723-5942
Devost Contracting & Trucking,49 Railroad Ave/rt114,Norton,VT,05907,802-822-5259
Willie Vance Trucking,1166 East Main St,Newport,VT,05855,802-334-6925
Starr's Transportation,371 North Pleasant Street,North Troy,VT,05859,802-988-2281
Spaulding Fuels-spaulding Trans,See 209923,Fair Haven,VT,05743,802-265-4502
R & S Trucking,Pleasant Valley Road,Rockingham,VT,05143,802-463-3837
Urie Trucking,12 Lake Road,Newport,VT,05855,802-334-8810
R & L Transport,415 Country St,Bennington,VT,05201,802-379-4436
E H Piper Trucking,128 Town Farm Rd,Bradford,VT,05033,802-222-4624
Davis Contracting Service,Center Road,Hardwick,VT,05843,802-472-6221
"Mountain Transit, Inc.",19 Precast Rd,Milton,VT,05468,802-893-1334
Martin Brothers Trucking,493 Sandhill Road,Georgia,VT,05468,802-524-2794
L D Avignon Trucking,Rd1 Box 351,Salisbury,VT,05769,802-352-6625
Ed`s Trucking Co,110 Merchants Row P O Box 206,Rutland,VT,05701,N/A
Ingerson Trucking,120 Bobbin Mill Road,Lunenburg,VT,05906,802-892-5978
J E S Trucking,250 Sand Hill Rd,Bethel,VT,05032,802-234-9659
American Trans & Recovery Woodstock Sunoco,Pleasant & Charles St,Woodstock,VT,05091,802-356-1304
M J Lewis Trucking,330 Sunset Hills,Pownal,VT,05261,802-558-1313
Tardie Transportation,1350 Hartford Ave,White River Junction,VT,05001,802-295-7484
Steady Transport,2674 Monkton Road,Vergennes,VT,05491,802-877-2717
Roger Henry Trucking,Conn River Road,White River Junction,VT,05001,802-295-7419
Bergeron's Service Center,#4775 Rt 14,White River Junction,VT,05001,802-295-5377
Woodbury Auto,51 Gallison Hill Rd,Montpelier,VT,05602,802-223-6283
R T Graves Trucking,408 Vt Rte 105,West Charleston,VT,05872,802-895-4825
Jlc Transportation,Chelsea Road,Bradford,VT,05033,802-439-5402
Meyette Trucking,Topsham Road,Topsham,VT,05076,802-439-5896
J & C Thompson Transport,499 Vt Rt 100,Newport Center,VT,05857,802-334-7482
Skip's Trucking,Rr,Pownal,VT,05261,802-823-7297
Kermit Weed Logging And Trucking,2316 Us Route S,West Burke,VT,05871,802-467-3416
Bickford Trucking,224 Roaring Brook Road,Barton,VT,05822,802-525-3205
"Fuster Trucking, Inc.",4477 Route 100n,Pittsfield,VT,05762,802-746-8085
Earl Shatney & Sons Trucking,41 School Street,East Hardwick,VT,05836,802-472-5810
Ron's Auto,924 East Road,Milton,VT,05468,802-893-7228
Veysey Trucking,6081 Vt Rte 125,Vergennes,VT,05491,802-759-2755
Mayo's Trucking,1101 West Hill Road,Stowe,VT,05672,802-253-4137
T Rouse Transport,2420 Rt 30,Cornwall,VT,05753,802-462-2326
Ranzona Moving,231 Grove Street,Bennington,VT,05201,802-442-2679
Best Trucking,Town Highway 6,Est Danby,VT,05739,802-325-3242
Cunningham Trucking,Rr 1 Box 169,Jeffersonvlle,VT,05464,508-398-5301
South Main Auto Sales And Service Or South Main Accessories,448 Main St,Saint Johnsbury,VT,05819,802-748-9694
Anthony Lussier Trucking,4161 Watertower Rd,Enosburg Falls,VT,05450,802-933-4156
Paul's Trucking,Rr 2 Box 1900,Johnson,VT,05656,508-543-0467
Joslin Trucking,4006 Rt 100,Wardsboro,VT,05355,802-896-6252
Morf Transit Apollo Limousine Vermont Charter & Limousi,666 Riverside Ave,Burlington,VT,05402,802-864-5588
Camel Hump Auto,740 Bert White Road,Huntington,VT,05462,802-434-3092
Handy Toyota,39 S Main St,Saint Albans,VT,05478,802-527-7512
Eastman Trucking,20 School St,Newport Center,VT,05857,802-334-2431
John Manning Trucking,Po Box 241,Thetford Center,VT,05075,802-785-4984
Envornmental Foam Of Vermont,3 Corporate Dr Unit 2,Essex,VT,05452,802-879-0270
Ray Dagesse Trucking,11 Rouhier St,Canaan,VT,05903,802-266-3643
Cfh Transport,Rr 1 Box 41,Concord,VT,05824,802-695-8170
John Wallek & Son Trucking,25 Cutting Lane,Lyndonville,VT,05851,802-626-4656
Cal's Service Station,108 Rockingham Street,Bellows Falls,VT,05101,802-463-4772
R & B Trucking,1078 City Farm Road,Newport,VT,05855,802-334-6883
Goodrich Family Trucking,206 St John Road,Hubbardton,VT,05749,802-223-2364
West Central Vermont Trucking Company,Corona Street,Brandon,VT,05733,802-247-3144
Mark Whipple Trucking,70 George St,Morrisville,VT,05661,802-224-6818
Fairfax Auto,228 River Road,Fairfax,VT,05454,802-849-6769
Blanchard Trucking,825 Kittredge Rd,Orleans,VT,05860,802-754-2016
Ddep Trucking,31 Hebert Road,Montpelier,VT,05602,802-229-0662
Tnb Trucking,Route 2,Concord,VT,05824,802-695-4641
Bedard's Service Center,134 Portland St,Saint Johnsbury,VT,05819,802-948-3635
Wescott's Trucking,Lakewood Dr,Swanton,VT,05488,802-868-3592
Jerry Barton Transport,Rd 1 Box 312-b,Jericho,VT,05465,802-434-5699
J&d Transport,Rt 100c,Johnson,VT,05656,802-635-7147
M&s Trucking,Rr,Perkinsville,VT,05151,802-875-4576
Septic Tank Cleaning Service,Rd #1 Box 2049,Swanton,VT,05488,802-524-4414
B & S Trucking,30 Bavier Ave,Windsor,VT,05089,802-674-5032
Lmc Service Center,Rr,Arlington,VT,52500,802-375-9256
K L S Trucking,86 Grand Avenue,Swanton,VT,05488,802-868-5329
Doug's Auto Works,216 Rt 100,Wardsboro,VT,05355,802-896-6025
Classic Towing And Recovery,3620 Vermont Route 14,Sharon,VT,05065,802-763-2000
Bedrock Farm,1344 Ballard Rd,Saint Albans,VT,05478,802-524-5131
Ashelberry''s Tree Service,17 Ledgely Dr,Shaftsbury,VT,05262,802-733-5125
Lanoue''s Transport,26 Talbot Lane,Glover,VT,05839,802-525-4805
Black Watch Farms,1233 Weathersfield Ctr Rd,Weathersfield,VT,05156,860-798-8102
J & M Land Services,672 Meadowbrook Rd,Brattleboro,VT,05301,802-579-4600
Yankee Cordwood Company,1295 Rowell Road,Vershire,VT,05079,802-685-4740
Farrar & Son Trucking,1515 S Vershire Rd,Vershire,VT,05079,802-333-9499
Twin State Monuments,3733 Woodstock Rd,White River Jct,VT,05001,802-295-4811
Ecpm,40b Ivtervale Road,Burlington,VT,05401,808-860-7267
Connelley Transport LLC,354 Sylvan Park Rd,Stowe,VT,05672,802-253-8963
Atc Transport,91 Hedgerow Dr,Shelburne,VT,05482,800-226-3696
Georges Napa Auto Parts,281 Elm St,Enosburg Falls,VT,05450,802-933-5051
Maple Mountain Woodworks LLC,262 St Albans Rd,Swanton,VT,05488,802-848-8065
Hislop Motor Express,165 Felicity 2nd Ave,Williamstown,VT,05679,802-839-8947
Morrison Landscape And Construction,89 Fairview Lane,New Haven,VT,05472,802-291-1095
Lg Page Roofing,205 Mcrae Rd,Groton,VT,05046,802-584-3212
M & A Motorsports,6682 Route 7,North Ferrisburg,VT,05473,802-425-3560
Sdl Transportation,65 Commerce Street,Williston,VT,05495,802-860-6100
Mountian View Dairy Equipment,3984 Berkshire Ctr Rd,Berkshire,VT,05450,802-933-2961
Stowe Hollow Tractor,2279 Stowe Hollow Rd,Stowe,VT,05672,802-253-9742
Andy Conrad Distributing,728 Missing Link Road,Bellows Falls,VT,05101,802-463-9486
S And S Trucking,242 Henry,Williamstown,VT,05679,802-272-7422
Maple Glen Farm,283 Cabot Plains Rd,Cabot,VT,05647,802-917-2612
Myott's Excavating,380 Vermont Route 15,Jericho,VT,05465,802-899-2174
Advanced Refrigeration,2148 Leadville Rd,Newport Center,VT,05857,802-334-9999
Jack Rooster Transport,453 West Mountain Rd,Shaftsbury,VT,05262,802-681-8762
Turgeon Builders,57 Houran Road,Bennington,VT,05201,802-447-2285
Burnor Trucking,1300 Irongate Road,Cambridge,VT,05444,802-644-5086
Huntington Garage,2770 Main Road,Huntington,VT,05462,802-434-2299
Sears Of Middlebury,383 Exchange St,Middlebury,VT,05753,802-388-4800
Sergi Trucking,27 Lawton Drive,Brattleboro,VT,05301,802-254-4676
Carrier & Sons Property Maintenance,119 Quechee Hartland Rd,White River Jct,VT,05001,802-295-1046
West Chester Excavating,918 Farrar Road,Chester,VT,05143,802-875-3578
"Severance Building & Design, Inc.",64 River Road,Putney,VT,05346,802-387-6024
"4 Buck Enterprises, Inc.",995 Rabbit Plain Rd,St Johnsbury,VT,05819,802-748-9152
Plain View Farm,8 Colby Road,Topsham,VT,05076,802-439-5536
Mountainview Excavation,598 Lower Bailey St,Thetford,VT,05075,802-785-4424
Champlainside Farm,858 Lake Street,Bridport,VT,05734,802-758-9282
Ogden & Chalmers,4 Cody Road,Londonderry,VT,05148,802-824-5423
Huffman Trucking,21 Cliff Street,Montpelier,VT,05602,802-249-9158
T R Uck,340 Fairview Square,Fairlee,VT,05045,802-233-0716
G H Robinson & Sons,20 Robillard Rd,Stamford,VT,05352,802-694-1211
Duane Merrill & Company Auctioneers & Appraisers,137 James Brown Dr,Williston,VT,05495,802-878-0262
Big Joe's Hook & Tow,277 West Street,Rutland,VT,05701,802-773-4563
Pepe Excavating,999 Barry Rd,Fairfield,VT,05455,802-527-0888
Wills Towing,81 Fisher Rd,South Royalton,VT,05068,802-763-8810
Orrin Domina Trucking,4566 Tyler Branch Rd,Enosburg Falls,VT,05450,802-309-0896
Hop To It Towing,100 Cleveland Ave,Rutland,VT,05701,802-342-6874
Moonlight Towing,453 Camp Rd - Hubbardton,Brandon,VT,05733,802-273-3338
Vermonters Helping Vermonters,7013 Vt Rte 15,Wolcott,VT,05680,802-472-3999
Making The Rounds Rubbish Removal,40 Fenton Rd,Chester,VT,05143,802-875-4642
A&a Custom,171 Hidden Glen Rd,East Bethel,VT,05032,802-369-6699
Advantage Towing And Recovery,2326 Hartford Ave,White River Junction,VT,05001,603-667-1163
Cold Hollow Express,3242 Boston Post Rd,Enosburg Falls,VT,05450,802-829-9301
Wood Roan Ranch,224 S Main St,Whiting,VT,05778,802-623-6385
Stanton Enterprises,555 Browns Hill Rd,Newport Center,VT,05857,802-334-2548
Creative Contours,157 Mattson Road,Chester,VT,05143,802-875-4753
Josh Benson Property Maintenance Trucking,147 Button Hill Rd,Tunbridge,VT,05077,802-889-3222
Kelly J Backus Mechanical,2047 Vt Rt 100,Lowell,VT,05847,802-744-6225
Red Wagon Plants,2408 Shelburne Falls Rd,Hinesburg,VT,05461,802-482-4060
Alex Wright Cedar Products,62 Crow Hill Rd,Danville,VT,05828,802-748-4505
Innovative Concrete,538 Clemons Rd,Chester,VT,05143,802-558-7618
York Street Auto Repair,468 York Street,Poultney,VT,05764,802-287-5851
Ken's Karpentry,1307 Brown Farm Road,Lyndonville,VT,05851,802-748-9475
River Valley Technical Center,307 South St,Springfield,VT,05156,802-885-8303
Royer's Service Station,4775 Route 5,Irasburg,VT,05855,802-754-2106
Champlain Valley Apiaries,504 Washington St Ext,Middlebury,VT,05753,802-388-7724
Kml Transport,14 Caspian Ave,Hardwick,VT,05843,802-472-3797
Goss Dodge Chrysler,1485 Shelburne Road,South Burlington,VT,05407,802-658-0120
R&rlubes,179millst,Eastbarre,VT,05649,802-522-7653
Belles Fries,168 Barker Ave,St Johnsbury,VT,05819,802-748-3942
Healthy Living Market,222 Dorset Street,Burlington,VT,05403,802-863-2569
Chaves Arlington Gravel Pit LLC,242 Chaves Rd,Londonderry,VT,05148,802-824-3140
Cw Thompson Trucking,4521 Rte 5 South,Mcindoe Falls,VT,05050,802-274-3969
Davenport Excavation,1105 Vt Route 31,Poultney,VT,05764,802-287-9652
Daniel Smith Builders,664 Route 2b,Saint Johnsbury,VT,05819,802-748-4345
Uriah Wallace Auction Service,906 Miller Pond Rd,Vershire,VT,05079,802-333-4386
Namaste Asian Market,235 Main St #4,Winooski,VT,05404,802-654-7858
Owner,6 Ethel Court,St Albans,VT,05478,802-309-2648
All Around Rental,1763 Memorial Drive,Saint Johnsbury,VT,05819,802-274-2128
Just Nut New,38 E1m St,Walling Ford,VT,05773,802-446-2677
Darren Chapman General Contractor,1012 Skiparee Road,North Pownal,VT,05260,802-823-5141
Dealer Direct Transport,3699 County Rd,Montpelier,VT,05602,802-229-2666
Cutting Edge Vt,126 Fairfield Hill Road,Saint Albans,VT,05478,802-309-3477
Waffle Cabin,194,Seward Road,VT,05701,781-910-6220
Champlain Welding & Fabrication,405 Vt Route 111,Derby,VT,05829,802-766-2728
"Freshly Baked Delivery, Inc.",44 Twilight Ct,White River Junction,VT,05001,802-839-9642
Farmer,3139 Lake Street,Bridport,VT,05734,802-758-9230
Green Mountain Rough Rider Racing,9 Bear Lane,Hinesburg,VT,05461,202-521-1493
High On The Hill,3274 East Haven Road,Island Pond,VT,05846,802-723-9811
Office Systems Of Vermont,131 S Main St,Barre,VT,05641,802-479-3311
New England Greenhouse Structures,49 Nashville Rd,Jericho,VT,05465,802-316-0019
Lyle Welding & Fabrication,1031 Vt Route 30 N,Poultney,VT,05764,802-287-9065
Ronald Sweet Firewood,156 Turnpike Road,Thetford Center,VT,05075,802-333-9335
Shortt Transport,192 Peacham Road,Danville,VT,05828,180-247-3622
Bd Logging,7627route102,Guildhall,VT,05905,180-267-6363
Lyndon Truck Center,83 Hemlock Lane,Lyndonville,VT,05851,802-626-4300
Grunts Move Junk,402 Lake Rd Suite 100,St Albans,VT,05478,916-599-6732
John Colvin Logging,956 Mosquitoville Rd,Groton,VT,05046,802-584-3079
Unified Transport,470 Kenyon Rd,Bradford,VT,05033,802-439-6234
Blizzard Timber Harvesting,57 Goodness Lane,E Concord,VT,05906,802-695-8830
Malcolm Godfrey Excavation,118 Godfrey Rd,Fairlee,VT,05045,802-333-4198
Tatro Trucking,5195 Vt Rt 15,Waterville,VT,05464,802-644-2922
Blue Hill Logging Co Div,60 E High Ridge Rd,Stowe,VT,05672,802-253-8112
Shatney Transport,80 Barton Orleans Road,Barton,VT,05822,802-525-4579
W Nichols,1013 Rte 30,Dorset,VT,05251-9663,802-362-3504
Paul Pion Logging,425 Rt 302,East Barre,VT,05649,802-476-5142
G&c Transportation,1265 Route 74 E,Shoreman,VT,05770,802-897-2753
A Conant & Sons Truckin,1233 Lower Notch Rd,Bristol,VT,05443,802-453-2148
Vermont Quality Meats,28 Allen St,Rutland,VT,05701,802-747-5950
"Mb Heath & Sons Lumber Co, Inc.",6 Heath Rd,N Hyde Park,VT,05665,802-635-2538
Vt Flatbread,54 South Main Street,Alburgh,VT,05440,802-585-1385
Bogie Trucking,Route 5,Mc Indoe Falls,VT,05050,N/A
A Conant And Sons Trucking,2800 Lower Notch Rd,Bristol,VT,05443,802-453-2829
Conny's Little Trucking Company,907 Newfane Rd,Wardsboro,VT,05355,802-896-6060
T Szirbik Jr Transport,89 Pond Road,Vernon,VT,05354,717-354-6777
B Davis,272 Dickinson Drive,Northfield Fl,VT,05664,802-249-7858
Clayton Corrow & Son Trucking,81 Main St,North Troy,VT,05859,802-624-3328
Nicholas J Kruger,9 Tiffany Lane,Pawlet,VT,05761,518-791-7978
Eaton Trucking,229 Chelsea Rd,Williamstown,VT,05679,802-433-6223
Hacketts Welding,1033 Palin Farm Rd,Derby,VT,05829,802-766-4973
Rainville Custom Crops,656 Pidgeon Hill Rd,Franklin,VT,05457,802-285-6694
Diversified,18 Thorp Rd,S Strafford,VT,05070,802-765-4271
E Erickson Excavating,235 Joshua Place,Rutland,VT,05701,802-773-5743
T W Tree,131 Stoughton Pond Rd,Perkinsville,VT,05151,802-263-5621
Something For Everyone,90 Post Office Road,Waitsfield,VT,05673,802-496-8977
Procut Lawncare,420 South Main St,Brattleboro,VT,05301,802-254-4644
Conley's Sawdust & Firewood,3565 Glover St,Glover,VT,05839,802-525-6280
Barrows Atv,1328 Route 44,West Windsor,VT,05037,802-484-5926
Toby Lussier Carpentry,854 Barnes Brook Road,Kirby,VT,05851,802-626-3773
Wilkins Harley Davidson,663 South Barre Rd,Barre,VT,05641,802-476-6104
Running Brook Farm,1525 Blood Hill Rd,West Windsor,VT,05089,802-484-3030
Libra Intl Racing,170 So Oak Circle,Colchester,VT,05446,802-655-5768
John Of All Trades,724 Union Village Rd,Norwich,VT,05055,802-649-0208
Kings Property Maintenance,171 King Rd,Cambridge,VT,05444,802-324-6370
Overhead Door Of Rutland,63 Plain Street,Rutland,VT,05701,802-775-5711
Moore Snacks,201 Union St Apt E,Springfield,VT,05156,802-591-2192
Blake & Loso Used Cars,Us Rte 14 85 Carleton Blvd,East Montpelier,VT,05651-9801,802-223-7191
Ghousen,1568 Putney Road,Brattleboro,VT,05301,802-257-1151
New Car Dealership,190 Sykes Mountain Ave,White River Junction,VT,05001,802-295-3124
"Bryce Realty, Inc.",125 Yankee Park Road,Fairfax,VT,05454-9406,802-527-0177
Country Home Center,85 Center Road,Morrisville,VT,05661,802-888-3177
Pownal View Barn,Rt 2 Box 75a,Pownal,VT,05261,802-823-7345
Wade Fowler & Son Logging,1757 Money Hole Road,Benson,VT,05743,802-537-4821
C N Webster Excavating,47 Railroad Dr,Clarendont,VT,05759-9240,802-558-3275
Oxbow Farm,5071 Rt 102,Maidstone,VT,05905,802-676-3919
Tyrrell's Enterprises LLC,394 Depot Street,Proctorsville,VT,05153,802-226-7573
Timber Tender,Rt 12,Barnard,VT,05031,802-457-3789
Home And Farm Appliance Center,439 Us Rte 7 N,Rutland,VT,05701,802-773-3877
Armstrong Transport,1360 S 116 Rd,Bristol,VT,05443,540-966-2174
0001 Carrier,42 Wallaby Way,Montpillier,VT,05601,000-111-2222
Grunts Move Junk,402 Lake Rd,St Albans,VT,05478,802-695-0362
2xl Trucking LLC,1011 Greenbush Rd,North Ferrisburgh,VT,05473,802-877-2636
304 Paddock Road LLC,304 Paddock Rd,Springfield,VT,05156,802-369-6070
5 A Trucking LLC,1449 Bristol Rd,Bristol,VT,05443,802-304-3021
"802 Repo, Inc.",400 Windy Woods Rd,Richmond,VT,05477,802-825-5547
802 Rollback LLC,710 Baptist Hill Rd,Lunenburg,VT,05906,802-272-4351
802 Trucking And Distribution LLC,167 Sandhill Rd,Essex,VT,05452,802-355-2293
88 Trucking LLC,963 Townline Rd,Bennington,VT,05201,802-375-4587
A & K Agriservices LLC,1873 Vt Rt 67 East,North Bennington,VT,05257,802-442-2851
A J Cross Jr Trucking & Logging,Rt 114,East Haven,VT,05837,802-467-8892
A K S Green Mountain Express,83 Park St Apt 1,Burlington,VT,05401,N/A
"A L Root Transportation, Inc.",12 Fairground Rd,Brattleboro,VT,05301,N/A
"A L St Onge Contractor, Inc.",1701 North Main Street,Montgomery,VT,05470,802-326-4792
"A M Transportation, Inc.",234 Commerce St,Hinesburg,VT,05461,786-837-3352
A M Trucking LLC,2371 South Rd,Bradford,VT,05033,802-222-3229
"A N Deringer, Inc.",64 North Main Street,St Albans,VT,05478,802-524-8110
A Pelletier,6 Pine St,North Troy,VT,05859-9713,607-742-9709
"A R Transportation, Inc.",10 Slocum St,S Burlington,VT,05403,802-477-3069
A S Clark Sons,3353 Vt Rt 30,West Dummerston,VT,05345,802-257-1963
A S Hudak Lumber Logging,590 St Albans Rd,Swanton,VT,05488-9630,802-527-9802
A Stone Transportation LLC,156 Industry St,Williamstown,VT,05679,802-433-1251
"A&d Automotive, Inc.",38 New Haven Road,Vergennes,VT,05491,802-877-2408
A&w Miller Trucking LLC,185 Center Rd,Morrisville,VT,05661,603-393-9439
"A's Auto And Truck Repair, Inc.",112 Whipple Drive,Guilford,VT,05301,802-254-1155
A-1 Sewer & Drain Service,46 Walker Mountain Road,Clarenden,VT,05759,802-438-5722
A-little Transporter,4552 Georgia Shore Rd,Saint Albans,VT,05478,970-420-6619
Aaa Tree Service LLC,29 Deer Run Lane,North Hyde Park,VT,05665,718-231-2323
Ab Hauling LLC,9 Jenna Ln Unit 202,Milton,VT,05468-8805,802-999-6800
"Abanaki, Inc.",3036 Us Route 7,Pittsford,VT,05763,802-483-9900
"Able Waste Management, Inc.",1515 Lynds Hill Rd,Plymouth,VT,05056,802-672-3569
"Accessibility Systems, Inc.",527 Hinesburg Rd,Richmond,VT,05477,802-434-3499
"Accuworx Usa, Inc.",109 South Main Street,Barre,VT,05641,802-522-1306
Aces Trucking Corp,2145 Tarbell Hill Rd,Cavendish,VT,05142,631-374-7006
Acker Excavating,1853 Mountain Road,Bristol,VT,05443,802-453-4678
Acklin Humphrey Trucking,274 Chesley Hill Road,Sheffield,VT,05866,802-626-3475
"Across Usa Car Express, Inc.",35 Berlin St,Barre,VT,05641,802-476-2028
"Action Moving And Storage, Inc.",359 Jasper Mine Rd,Colchester,VT,05446,802-893-1234
Ada Traffic Control Ltd,100 Parsonage Road,Bridgewater,VT,05034,802-673-5143
Adam Stone Trucking,2586 Chelsea Rd,Williamstown,VT,05679,802-477-2799
Adamant Service Center,1104 Haggett Rd,Montpelier,VT,05602,802-223-1488
Addison Northwest Supervisory Union,48 Green Street Suite 1,Vergennes,VT,05491,802-877-3332
Admhauling LLC,6109 Us Rte 5,Westinter,VT,05143,802-722-3476
"Adrien Inkel Trucking, Inc.",Route 114,Canaan,VT,05903,802-266-8878
"Advance Transit, Inc.",120 Billings Farm Road,White River Junction,VT,05001,802-295-1824
"Advanced Environmental Management Services, Inc.",68 Woodland Dr,Barre,VT,05641,802-479-5400
Advanced Transport LLC,12 Hopkins St,South Burlington,VT,05403,802-505-0961
Aegis Art Works,74 Cotton Mill Hill A 354,Brattleboro,VT,05301,802-579-1341
"Agri-mark, Inc.",193 Home Farmway,Waitsfield,VT,05673,802-496-1200
Aht Trucking Llp,313 Robbinson Rd,Ferrisburgh,VT,05456,518-965-0271
Aim LLC,329 Bahan Rd,Shaftsbury,VT,05262,802-688-8845
Aj Trucking LLC,7011 Boston Post Rd,Bakersfield,VT,05441,802-933-2548
Duncan's Auto,291 St Paul Street,Burlington,VT,05401,802-864-9477
Al's Towing And Repair LLC,282 West Road,Vernon,VT,05354,802-254-4162
Alan Dunklee Excavating,15 Shepard Hill,Hartland,VT,05048,802-436-2414
Alan G Mattison & Sons,140 School Street,Arlington,VT,05250,802-375-2250
Alan Ouimette,225 Vt Rt 78,Alburg,VT,05440,802-796-4155
Lafountain Trucking,5902 Vm Route 116,Starksboro,VT,05487,802-238-0580
White Co,99 Engineers Dr Unit 1,Williston,VT,05495,802-863-0577
"Alderfer Enterprises, Inc.",526 Beam Road,Hyde Park,VT,05655,802-274-1990
"Aldrich Fabrication Center, Inc.",4 Memorial Drive,St Johnsbury,VT,05819,802-748-9122
Aldrighetti Logging LLC,418 Gilead Brook Rd,Bethel,VT,05060,802-353-8826
All In Stone LLC,256 N. Main Street ,Rutland,VT,05701,802-772-7268
"All Metals Recycling, Inc.",2141 Rt 15 West,Hardwick,VT,05843,802-472-5100
"All Season Moving & Storage, Inc.",4531 River Road,West Arlington,VT,05250,802-375-9028
All Service Citgo,165 W Main St,Bennington,VT,05201,802-447-8918
All Star Fuel LLC,8 Elm Street,Bristol,VT,05443,802-453-3101
All-out Waste Management LLC,1599 Murphy Hill Rd,N Bennington,VT,05262,802-442-5064
A Trucking Co,382 Bunker Rd,Dummerston Ctr,VT,05346,919-690-8570
Allans Vending Service LLC,1060 North Harttland Road,White River Junction,VT,05001,802-296-7770
Allen Brothers Oil LLC,6023 Us Rt 5,Westminster,VT,05158,802-722-3331
Allen Hill Trucking,2410 Vt Route 100,Newport Center,VT,05857,802-334-2407
Greniers Truck Shop,1095 Rte 105,W Charleston,VT,05872,802-895-2780
Allstone Corp,3643 Rt103,Chester,VT,05143,802-875-6564
Als Snowmobile,3868 Pine Hill Rd,Newport,VT,05855,802-334-7239
Alton Powers,2938 Vershire Ctr Rd,Vershire,VT,05079,802-333-3680
Alva Waste Services LLC,1233 Weathersfield Center Rd,Springfield,VT,05156,802-885-2994
Alvin Whiting,10 E Village Rd,St Johnsbury,VT,05819,802-535-6676
Good Point Recycling,227 Pond Ln,Middlebury,VT,05753,802-382-8500
"American Safety Transportation, Inc.",125 Culver Hill Road,Middlesex,VT,05602,802-223-5708
"American Travel, Inc.",Rt #100 Po Box 755,West Dover,VT,05356,N/A
Andersonville Transport LLC,1448 Daniels Pond Rd,W Glover,VT,05875,802-525-3229
Schaab Snacks,235 Coolidge Ave,Rutland,VT,05701,802-353-8670
Andrew Balentine,2305 Balentine Rd,East Calais,VT,05650-8205,802-397-2692
Black Ox Trucking,461 Centerville Rd,Hyde Park,VT,05655,802-888-2331
Tinys Trucking,118 Godfrey Road,West Fairlee,VT,05045,802-333-4198
Andrew J Lawrence,2939b Dane Hill Rd,W Charleston,VT,05872,802-233-8771
A R Miller Trucking L L C,1483 White Rd,Corinth,VT,05039,802-439-5715
"Ant Eater Express, Inc.",4 Merrill Lane,Milton,VT,05468,540-966-2174
Anthony E Conant,4489 Ethan Allen Highway,New Haven,VT,05472,802-453-4939
T & D Trucking,327 Bear Farm Rd,Northfield,VT,05663,802-485-7061
Anthony J Meunier,1999 Highate Rd,St Albans,VT,05478,802-868-6263
Moore Bros Body & Paint,797 Vt Route 100 N,Wilmington,VT,05363,802-464-7770
Apollo Fuels,127 River St,Bennington,VT,05201,802-345-5247
"Appleton Transport, Inc.",22 Appleton Rd,Bradford,VT,05033,802-222-4560
"Apw Transport, Inc.",Stebbins Rd,Vernon,VT,05354,802-257-0769
Aqua Vitea LLC,74 Munsil Rd,Bristol,VT,05443,802-453-8590
"Arbor Scape, Inc.",389 Barber Hill Rd,S Pomfret,VT,05067,802-457-5797
Archie Bussino,137 S Hun Pike Rd,Mt Holly,VT,05758,802-259-3113
Archie W Foster,2448 Baley Hazen Rd,Hardwick,VT,05836,802-533-7701
Bolstercrofter Moving And Storage,239 Old Ferry Rd,Brattleboro,VT,05301,802-257-1568
"Area Waste Services, Inc.",Acorn Street,Saxtons River,VT,05154,802-869-2178
Argo K & L LLC,55 Alpine Dr H304,Rutland,VT,05701,646-989-0552
"Ark Mont Transportation And Distribution, Inc.",23 Wolff Dr,Essex Jct,VT,05452,802-879-9986
Arlan Pidgeon,1962 Us Rt 7,Leicester,VT,05733,802-247-6361
Arlington School District,530a East Arlington Road,Arlington,VT,05250,802-375-9744
Iurie Vrabie,12004 Se 7th St Ap B,Vancouver,VT,98683,971-570-3454
Arnold Trucking,Rr 1,Readsboro,VT,05350,802-423-7782
Arnold Withers,105 Peacham Road,Danville,VT,05828,802-684-1002
Arol Ward Excavating Trucking,498 Bell Road,Grafton,VT,05146,802-843-2428
Around Town Towing And Recovery LLC,696 Barker Rd,Post Mills,VT,05058,802-333-9424
"Arrow Moving Systems, Inc.",145 Pine Haven Shores Rd,Shelburne,VT,05482,954-687-9631
"Artisan Surfaces, Inc.",200 Clinton St,Springfield,VT,05156,802-885-8677
At Car LLC,5 Hopkins St,S Burlington,VT,05403,720-324-3252
At Lake Champlain LLC,6 Orr Rd,Jericho,VT,05465,508-505-1898
"Atlantic Relocation Services, Inc.",101 Settlers Road,Bennington,VT,05201,802-733-6914
Portable Storage,1309 Putney Road,Brattleboro,VT,05301,802-254-5155
"Atomic Professional Audio, Inc.",364a Innovation Drive,North Clarendon,VT,05759,802-775-5550
Homestead Fence Company,61 Chipman Point Road,Orwell,VT,05760,802-948-2244
Audy Trucking LLC,3031 South 116 Rd,Bristol,VT,05443,802-453-4499
Lion's Pride Trucking,16 Daniels Hill Rd ,South Newfane,VT,05351,478-320-2020
"Austins Rubbish & Roll -off Service, Inc.",Crawford Hill Road,West Charleston,VT,05872,802-895-4889
"Auto Mall, Inc.",800 Putney Rd,Brattleboro,VT,05301,802-257-5100
"Auto Paint Plus, Inc.",260 Exchange St,Middlebury,VT,05753,802-388-9019
Autobahn Body Works,4 Berard Drive,South Burlington,VT,05403,802-862-0486
Autosmith LLC,5 South Main St,Jericho,VT,05465,802-899-2886
Awg Solo Trucking LLC,27 Hunt Ave,Brattleboro,VT,05301,802-802-4908
"Ayer Auto, Inc.",10 W 2nd St,Barre,VT,05641,802-476-6977
Brink's Auto Sales,659 Bay St Suite 2,Saint Johnsbury,VT,05819,802-748-1355
"B & B Trucking, Inc.",676 Bruneau Dr,Irasburg,VT,05845,802-754-6968
"B & H Enterprises, Inc.",116 Vt Rte 30,Wells,VT,05774,802-645-1961
B & S Transportation LLC,2108 Sheldon Rd,Saint Albans,VT,05478,802-598-2690
"B And L Transport, Inc.",42 Oakwood Lane,Lyndonville,VT,05851,802-626-8969
"B D R Transport, Inc.",7994 Us Route 5,Westminster,VT,05158,800-421-0126
B Mullin Sons LLC,1087 Rte 17e,Addison,VT,05491,802-759-3313
B R Trucking,Rr,Bradford,VT,05033,802-222-9367
"B S Enterprises, Inc.","Sunny Brook Farm, R.d. #2, Box 14",West Burke,VT,05871,802-748-2003
B Tuttle Trucking LLC,31 South St,North Troy,VT,05859,802-323-9832
The Mill Market & Deli,1580 Dorset St,South Burlington,VT,05403,802-862-4602
B W Labree Trucking,693 No Wolcott Road,Wolcott,VT,05680,802-888-5835
B&a Capital LLC,120 S Main St Apt 3,Waterbury,VT,05676,802-233-3669
B&j Enterprises LLC,473 Chapel Rd,Bennington,VT,05201,802-733-6396
The Arbors At Shelburne,687 Harbor Road,Shelburne,VT,05482,802-985-8600
Baker Distributing Corporation,395 North Shrewsbury Rd,North Clarendon,VT,05759,802-773-3397
Baker Lumber Co,1113 Va Cut Off Rd,White River Jct,VT,05001,802-291-9102
Baker Trucking LLC,965 Vt-149,Pawlet,VT,05775,802-733-1238
Bald Mountain Logistics LLC,1983 Dean Brook Road,Chester,VT,05143,802-875-3662
Bandit Trucking LLC,60 Gonyeau Rd Ste 102,Milton,VT,05468-3328,802-752-5807
River Valley Transportation,71 Canal St.,Chester,VT,05143,802-875-3099
"Barcadee Delivery Warehousing, Inc.",156 Acorn Ln Ste 1035,Colchester,VT,05446,802-338-9136
Barkus Excavating LLC,1632 King Hill Road,Readsboro,VT,05350-9704,802-423-7004
"Barnard Associates, Inc.",P. O. Box 42,Bethel,VT,05032,802-234-5511
"Barnard Excavation & Logging, Inc.",2660 Mt Hunger Rd,Barnard,VT,05031,802-234-9593
Barnett Motorsports,1677 Route 121,Westminster,VT,05158,802-463-9081
"Barre Tile, Inc.",889 Rte 14,South Barre,VT,05670,802-476-0912
Barrett Automotive LLC,106 Hill St,Lyndonville,VT,05851,802-626-5404
"Barrett Trucking Company, Inc.",16 Austin Dr,Burlington,VT,05401,802-863-1311
"Barrows Coal Company, Inc.",55 Depot St,Brattleboro,VT,05301-3263,802-254-4574
Berard's Excavating,1356 Branch Hill Road,Readsboro,VT,05350,802-423-5300
Barryo's Custom Hauling,325 Bristol Road,Bristol,VT,05443,802-453-2775
Barry W Martin,253 Us 5,Hartland,VT,05048,802-436-2636
"Batteries Unlimited, Inc.",1298 South Brownell Rd,Williston,VT,05495,802-658-9110
"Bazin Brothers Trucking, Inc.",2425 Back Westminster Rd,Westminster,VT,05158,802-463-2077
"Bbaf Of Vermont, Inc.",19 East Street,Waterbury,VT,05676,405-283-0698
Beach Trucking Excavating,Lake Street,Vergennes,VT,05491,802-759-2428
New England Home Crafters,774 Main Street,Lyndonville,VT,05851,802-626-8686
Bear's Choice Transport LLC,1138 Valley Rd,Lowell,VT,05847,802-624-6822
Interstate Battery System Of New-mont,396 Industrial Park Road,Newbury,VT,05051,802-429-2000
Beech Hill Trucking,161 Town Hill Rd,New Haven,VT,05472,802-453-2992
Bellavance Trucking,5 South Vine Street,Barre,VT,05641,802-479-9311
BeLLCo Enterprises LLC,127 Sunset Lake Rd,Brattleboro,VT,05301,802-254-5145
Ben D Miner,548 Burritt Road,Hinesburg,VT,05461,802-482-2864
Bee There Towing & Recovery,3227 Big Hollow Rd,Starksboro,VT,05487,802-355-7603
"Benchmark Builders, Inc.",149 Wind Dance Lane,Lyndonville,VT,05851,802-626-8050
Benco Trucking,244 Old Schoolhouse Rd,Eden Mills,VT,05653-9778,802-635-6737
"Bendigs, Inc.",Campbell Road,Center Rutland,VT,05736,802-773-0896
Benjamin T Shepard,175 Ripton Rd,Lincoln,VT,05443,802-453-7826
Bennington Movers LLC,112 Lincoln St,Bennington,VT,05201,802-447-3737
"Benny's Sales & Service, Inc.",17 Elm Street,Chester,VT,05143,802-875-2728
"Benoit Trucking, Inc.",4218 Vt Route 22a,Bridport,VT,05734,802-758-2555
Benoits Towing And Recovery,301 Tabor Rd,Swanton,VT,05488,802-868-2323
Bens Trucking,Hcr 73 Box 11,Thetford Center,VT,05075,802-785-2121
Bernard Fauteux Trucking,255 Pleasant Street,Island Pond,VT,05846,802-723-4427
Willey Scales,4613 Duck Pond Rd,Waterford,VT,05819,802-748-8491
Bernard L Roy,3971 Us Route 5,St Johnsbury,VT,05819,802-274-9499
Braley's Trucking & Firewood,21 Rix Road,So Royalton,VT,05068,802-763-8639
Wendel Excavation,255 Brook Road,Middlesex,VT,05602,802-223-4236
"Berthre Harris Trucking, Inc.",4166 Case St Apt 3,Middlebury,VT,05753,205-732-4742
H&b Greenhouse & Nursery,1213 Highgate Road,Highgate Center,VT,05459,802-868-3529
Best Septic Service LLC,153 Birchview Ext,Westminster,VT,05158,802-463-9444
"Best Tv & Appliance Of Rutland, Inc.",120 Woodstock Ave,Rutland,VT,05701,802-773-4292
"Bethel Mills, Inc.",40 Marsh Meadow Road,Bethel,VT,05032,802-234-9951
"Bets Truck Leasing, Inc.",Route 67 Vt Ny Line,Bennington,VT,05201,518-686-4417
"Better Power Equip, Inc.",677 Us Rt 2,Waterbury,VT,05676,802-244-5664
Big Barn Home Furnishings,16 New Haven Road,Vergennes,VT,05491,802-877-2839
Big Guys Property Maitenance,102 Stebbins Rd,Vernon,VT,05354,802-254-8185
"Big Rock Gravel Operations, Inc.",3007 Winhall Hollow Road,South Londonderry,VT,05155,802-824-4070
Bill Cassidy Crane Service,4184 Scott Hwy,Groton,VT,05046,802-584-3496
Aardvark Excavating,272 Gold Brook Circle,Stowe,VT,05672-5292,802-316-7859
Bird Hill Express,7 1/2 Morgan St,Springfield,VT,05156,802-885-5553
Bishop's Plowing & Digging LLC,190 Baltimore Rd,Chester,VT,05143,802-886-8288
"Black Rock Steakhouse, Inc.",284 River St,Springfield,VT,05156,802-885-8179
Black Star Liner Trucking LLC,B 1004 Ethan Allen Av,Essex Junction,VT,05452,917-436-0188
Black Wolf LLC,6 Olde Orchard Park Apt 634,South Burlington,VT,05403,802-777-4400
Blaine Kittell Trucking,978 King Rd,Richford,VT,05476,802-848-3398
Blaine Newland And Sons Trucking,Back Center Road,Lyndonville,VT,05851,802-626-9661
"Blair's Trucking, Inc.",6 North Main St,Alburg,VT,05440,802-796-3282
Blais Produce LLC,600 Old Connecticut River Rd,Springfield,VT,05156,802-885-8787
"Blake Trucking, Inc.",100 Preserve Rd,Fairlee,VT,05045,802-333-4251
"Blanchard Trucking, Inc.",668 Rutland Rd,West Rutland,VT,05777,802-438-5151
Blaze Trucking,120 Mechanic Street,St Albans,VT,05478,802-777-7189
"Blodgett Supply Co, Inc.",100 Ave D,Williston,VT,05495-0759,802-864-9831
Bloomin Onion Concessions,506 Porters Pt Rd,Colchester,VT,05446,802-863-3773
"Blue Ox Enterprise, Inc.",2085 New Boston Rd,St Johnsbury,VT,05819,800-226-3696
"Blue Spruce Farm, Inc.",1796 Vt Rte 22a,Bridport,VT,05734,802-758-2179
Blue Star Carriers LLC,220 Riverside Ave Apt D7,Burlington,VT,05401,802-556-1873
"Blythedale Farm, Inc.",1471 Cookeville Road,Corinth,VT,05039,802-439-6575
Bnl Trucking,89 West St,Middletwn Spg,VT,05757-4402,480-532-5291
Bob's Service Center,4 Ballardvale Dr,White River Junction,VT,05001,802-295-2341
Boise Citgo LLC,Rt 125 & 22a,Bridport,VT,05734,802-758-2361
Bolduc Metal Recycling,239 Bolduc Rd,Middlesex,VT,05602,802-223-7917
"Bond Auto Parts, Inc.",272 Morrison Road,Barre,VT,05641,802-479-0571
Booska World Wide,180 Flynn Avenue,Burlington,VT,05401,802-864-5115
Booska Trucking LLC,2809 Back Coventry Rd,Irasburg,VT,05845,802-673-3639
"Border Concrete Pumping, Inc.",193 Gosselin Drive,Derby,VT,05829,802-766-5353
Borderline Harvesting LLC,5262 Lower Newton Rd,Swanton,VT,05488,802-309-2977
"Boss Excavating And Trucking, Inc.",62 Boutah Rd,Alburg,VT,05440,802-796-4279
Bouchard Pierce Appliance,127 Pearl St,Essex Junction,VT,05452,802-878-4822
Bouchard Steel Erectors LLC,940 Water St,North Bennington,VT,05257,802-753-7250
"Bourdeau Bros, Inc.",25 Severance Road,Sheldon,VT,05483,800-724-7200
"Bowl New England, Inc.",506 Hercules Dr,Colchester,VT,05446,802-655-3468
Bowman Excavating & Transport,103 Webster Road,Coventry,VT,05825,802-323-9795
Br Transportation,263 Fall Brook Rd,Lyndonville,VT,05851,802-535-6944
"Brace's Bread Distribution, Inc.",2656 Mallets Bay Ave,Colchester,VT,05446,802-355-0887
Brad Hurlbert,418 Baker Brook Rd,Williamsvill,VT,05362,603-313-9885
"Bradford's Trucking, Inc.",4993 Sand Road,Ferrisburgh,VT,05456,802-877-3036
At Your House Apparatus Service And Repair,480 Route 2b,St Johnsbury,VT,05819,802-748-8820
Bradley Mcvetty,1342 Rt 102 Maidstone,Maidstone,VT,05905,802-676-3429
Borderline Transport,130 Meadowbrook Dr,Newport,VT,05855,806-292-2765
Bradshaw Transport LLC,99 Fields Lane,Jericho,VT,05465,802-899-3785
Brandon S Mattison,2070 Chapel Rd,Bennington,VT,05201,802-442-6215
"Brattleboro Haulage, Inc.",109 Glen Orne Dr,Brattleboro,VT,05301,603-358-3294
Green Mountain Panel,74 Glen Orne Drive,Brattleboro,VT,05301,802-254-3435
Brattleboro Roofing And Sheetmetal Services LLC,451 Us Route 5,Dummerston,VT,05346,802-254-4333
"Brault's Mobile Homes, Inc.",3691 Roosevelt Highway,Colchester,VT,05446,802-878-4118
Breezy Hill Transport LLC,507 Breezy Hill Rd,Barton,VT,05822,802-323-4048
B & G Enterprises,2020 Bog Rd,Belvidere,VT,05442,802-238-8989
Brent Rossi,417 North Main St,Barre,VT,05641,802-279-3262
Louries Caretaking,447 East St,W Rupert,VT,05776,518-338-5661
Brian L Schlesing,90 Whispering Pnes,Highgate Ctr,VT,05459,802-309-6453
Brian Piper,600 Vt Rt 244,Fairlee,VT,05045,603-208-8586
"Brian Tarbell, Inc.",455 Carley Road,Springfield,VT,05156,802-885-2640
Brian Young Trucking,3381 Oregon Rd,E Concord,VT,05906,802-695-3354
Brian's Farm Supply,2155 South Bingham St,Whiting,VT,05778,802-462-3624
"Briggs Automotive, Inc.",2977 Rt 100,Jacksonville,VT,05342,802-368-7617
"Briggs Trucking, Inc.",302 Rt 17 East,Addison,VT,05491,802-545-2159
Britton Lumber Company LLC,7 Ely Rd,Fairlee,VT,05045-0389,802-333-4388
Glenn A Brown Logging,524 Parsons Rd,Jacksonville,VT,05342,802-368-7015
"Brown Enterprises, Inc.",50 Smith Haven Lane,South Londonerry,VT,05155,802-824-3444
Brown's Country Service,Mount Snow Marketplace Route 100,West Dover,VT,05356,802-464-5200
Brown's Sales & Service,Rr 1,Windsor,VT,05089,802-674-6731
Browns Automotive,Corinth Road,Washington,VT,05675,802-883-5532
"Browns Quarried Slate Products, Inc.",2504 South Street,Castleton,VT,05735,802-468-2297
Brs Automotive Services LLC,167 County Road,Windsor,VT,05089,802-674-1810
"Limlaw Chipping & Land Clearing, Inc.",261 Vt Rt 25,West Topsham,VT,05086,802-439-5995
Bruce L Dusablon,57 Cobble Hill Rd,Milton,VT,05468,802-893-6293
Lowell's Moving & Delivery,552 Avenue D Suite 10,Williston,VT,05495,802-864-6900
Bmt,1008 Town Hill Road,New Haven,VT,05472,802-453-5383
Robson Transport,4146 Mud City Loop Rd,Morrisville,VT,05661,N/A
Bruce Tenney Jr Logging & Trucking,156 Brookline Rd,Athens,VT,05143,802-869-2158
"Bruce Waite Logging, Inc.",88 Snow Road,Dorset,VT,05251,802-867-2213
Brunelle Trucking LLC,64 1st St,Swanton,VT,05488,802-324-4062
B M Moreau Trucking LLC,513 Glen Rd,Newport,VT,05855,802-334-3177
B & N Trucking,820 Borland Rd,W Glover,VT,05875,802-525-4988
B S R Transport,99 Rainey Rd,Lyndonville,VT,05851,802-274-4927
Bt Equipment LLC,656 Rt 17,Bristol,VT,05443,802-777-7651
Btv Transportation LLC & Btv Cleaning LLC,4 Shurtleff Pl Apt 2,Barre,VT,05641,802-233-8080
Buck Adams Trucking,30 Laurel Avenue,Bellows Falls,VT,05101,802-463-2213
Bci Construction Country Ag Service,275 North Orwell Rd,Orwell,VT,05760,802-948-2941
Built-rite Forestry Equipment LLC,750 East Hill Rd,Ludlow,VT,05149,802-228-7293
Bulldog Trucking LLC,563 River Rd South,Putney,VT,05346,802-275-7107
"Burgess Brothers, Inc.",1246 Burgess Rd,Bennington,VT,05201,802-442-4828
Bdc,91 Catamount Dr,Milton,VT,05468-3208,802-893-5105
"Burlington Dry Wall, Inc.",9 Deer Run,Shelburne,VT,05482,802-862-2206
"Burlington Foreign Car Parts, Inc.",2500 Shelburne Rd,Shelburne,VT,05482,802-985-8421
Burns Trucking,Davis Rd,Enosburg Falls,VT,05450,802-933-2848
Burns Trucking LLC,45 Camp Road,Richford,VT,05476,802-528-9514
Butler Family Auto,51 Main Street,Barton,VT,05822,802-525-1255
"Byrnes Truck Store, Inc.",3339 Rt 7 B,North Clarendon,VT,05759,802-775-1551
C & S Trucking,1380 Route 64,Williamstown,VT,05679,202-521-1493
C A Thomas Logistics LLC,2680 Dodd Road,East Fairfield,VT,05448,802-827-3896
"Mcbride Group Tours, Inc.",Route 2,So. Hero,VT,05486,N/A
C Drinkwine Trucking LLC,605 Economou Rd,Huntington,VT,05462,802-434-3865
"C H Express, Inc.",Us Rt 5,Ely,VT,05044,N/A
C H Sheldrick Sons,995 River Road,W Haven,VT,05743,802-265-9700
C J Williams,Fern Place,Rutland,VT,05701,802-775-1392
"C L Austin Transport, Inc.",1076 Vt Rt 113,West Fairlee,VT,05083,802-333-3619
C M Used Auto Parts LLC,148 Calendar Brook Road,Lyndonville,VT,05851,802-626-3320
C O D Brokerage Corp,418 Bettis Road,Randolph,VT,05060,520-980-5240
"C O D Logistics, Inc.",10368 Vt Route 113,Vershire,VT,05079,470-301-8448
C P Dixon Company,34 West Fairlee Rd,Post Mills,VT,05058,802-333-9285
C Perry Trucking Corporation,12 Landfill Road,Milton,VT,05468,802-893-6778
C R Smith Trucking,1938 Route 302,Wells River,VT,05081,802-757-8048
"C S E, Inc.",199 Omega Drive,Willision,VT,05495,802-864-1812
C S Perrault Transport,Route 105 251 Perraults Road,Newport Center,VT,05857,802-334-8688
"C W Gray & Sons, Inc.",2991 Rt 5,East Thetford,VT,05043,802-785-2161
"C Woods Trucking, Inc.",202 Knipes Drive,North Clarendon,VT,05759,802-775-1657
C&c Transport LLC,105 Mountain St,Bristol,VT,05443,405-283-0698
"Ca Ching, Inc.",874 N Williston Rd,Williston,VT,05495-8839,802-242-4440
"Cajun Enterprises, Inc.",16 Mason Drive,Moretown,VT,05660,802-244-8532
Caledonia Central Supervisory Union,10 Route 2 East,Danville,VT,05828,802-684-3801
"Calkins Oil & Excavating, Inc.",1389 Rt 2 West,Danville,VT,05828,802-684-3375
"Calkins Sand & Gravel, Inc.",34 Calkins Drive,Lyndonville,VT,05851,802-626-5755
Calvin M Nolt,260 Puckerbrush West Rd,Hyde Park,VT,05655,802-888-4129
Camton Trucking LLC,161 Marble St,West Rutland,VT,05777-4434,802-522-6431
"Can Am Tennis Courts, Inc.",100 Sand Hill Ext,Castleton,VT,05735,802-468-2423
"Candys Man Trucking, Inc.",182 Covered Bridge Road,Irasburg,VT,05845,802-754-6441
"Canopy Timber Alternatives, Inc.",3311 Rte 7 South,Middlebury,VT,05753,802-388-1548
"Capital Candy Co, Inc.",32 Burnham Street,Barre,VT,05641,802-476-6689
Carey J Halkiotis,469 Day Road,Sharon,VT,05065,804-212-4700
"Careys Auto Sales, Inc.",296 N Main St,Rutland,VT,05701,802-775-4535
Cain Transport,366 Buck Hollow Road,Fairfax,VT,05454,802-849-6027
Coester's Logging,150 Trail Road,Westminster,VT,05158,802-722-4007
Carl Brown Trucking LLC,93 Cobb Lane,Jamaica,VT,05343,802-874-4028
"Carleton Trucking, Inc.",6694 Rt 11,Londonderry,VT,05148,802-824-3974
New England Sales Team,55 Marlboro Rd 4c,West Brattleboro,VT,05301,802-490-2584
"Carmen's Car Service, Inc.",302 Prospect Street,Bennington,VT,05602,802-442-6050
Carol A Gendron,315 Quechee Road,Hartland,VT,05048,802-436-1480
Carpenter Trucking,P O Box 206,Ascutney,VT,05030,802-674-6041
"Carpenters Motor Transport, Inc.",413 Commerce St,Williston,VT,05495,802-862-9669
Justin M Carrara,2705 Vt 7b,North Clarendon,VT,05759,802-236-7681
C Ainsworth Trucking & Excavation,Box 3341 So Bayley Hazen Rd,Wells River,VT,05081,802-584-3262
Carroll T Bean Jr,84 High St,Lyndonville,VT,05851,802-535-4493
Cas Cad Nac Farm LLC,490 Wheeler Camp Rd,Perkinsville,VT,05151,802-263-5740
"Casella Transportation, Inc.",25 Greens Hill Lane,Rutland,VT,05702,802-775-0325
"Casella Waste Management, Inc.",25 Green Hills Lane,Rutland,VT,05701,802-775-0325
"Casella Waste Management Of Ny, Inc.",25 Greens Hill Lane,Rutland,VT,05701,802-775-0325
Castle Trucking,72 South Street,Middletown Springs,VT,05757,802-235-2351
Catamount Forest Products LLC,238 Ricker Mill Rd,Groton,VT,05046,802-274-0045
Catamount Trans LLC,19 Meadow Lane,Springfield,VT,05156,802-263-5479
Catamount Truck & Trailer Repair LLC,7668 Us Route 5,Westminster,VT,05158,802-732-8193
"Catamount Trucking, Inc.",103 Wahsington St,Barre,VT,05641,802-279-1598
"Cattlac Express, Inc.",3206 Vt Rte 15w,Johnson,VT,05656,802-635-9987
Cb Trucking LLC,7949 Vermont Route 36,Enosburg Fls,VT,05450,802-782-4632
Cbb Trucking LLC,171 Pea Ridge Road,Vergennes,VT,05491,802-349-9442
"Cbs Trucks, Inc.",Rr 4-a,Bomoseen,VT,05732,802-468-5358
Ccr Sales & Service LLC,183 Colchester Road,Essex Junction,VT,05452,802-872-2666
Vt Tennis Court Surfacing,564 Concord Avenue,St Johnsbury,VT,05819,802-748-2257
Ccr Sales,2116 A Rt 128,Westford,VT,05494,802-849-6700
"Cdn Construction, Inc.",23 Brookside Drive,Norwich,VT,05055,802-649-2044
Cedar Ledge Fence And Property Care,11 Hamblin Rd,Cornwall,VT,05753,802-462-2100
Center Auto,300 Center Street,Pownal,VT,05261,802-823-5072
Cae Farm Connex,140 Junction Rd,Hardwick,VT,05843,802-472-5362
"Center Service Center, Inc.",2022 N Main St,Londonderry,VT,05148,802-824-3212
Central Dispatch & Logistics Management,Route 105,Newport Center,VT,05857,802-334-8688
Central Vermont Public Service Corp,77 Grove St,Rutland,VT,05701,802-747-5316
"Central Vermont Quality Services, Inc.",292 West Street,Rutland,VT,05701,802-773-7757
Central Vermont Solid Waste Management District,137 Barre Street,Montpelier,VT,05602,802-229-9383
Central Vermont Truck Repair,96 Cleveland Ave,Rutland,VT,05701,802-775-6659
Ceo Sales Distribution,400 Lake Road,Saint Albans,VT,05478,802-524-3806
"Cersosimo Industries, Inc.",P O Box 1800,Brattleboro,VT,05302,802-254-4500
Cersosimo Lumber Co,1103 Vernon St,Brattleboro,VT,05301,802-254-4508
Cgc Logging And Trucking LLC,2650 Rupert Road,Arlington,VT,05250,802-394-2472
Ch Trucking LLC,6840 Waits River Rd,Bradford,VT,05033,802-439-3988
Chalice Horse Transportation,149 Kidder Road,Bradford,VT,05033,802-222-5789
Chaloux Bros Firewood,141therriault Hill,Williamstown,VT,05679,802-433-6619
Logging,4730 W Berkshire,Enosburg Falls,VT,05450,802-933-5343
"Champlain Construction Co, Inc.",1050 Route 7 S,Middlebury,VT,05753,802-388-2652
"Champlain Oil Company, Inc.",45 San Remo Dr,South Burlington,VT,05403,802-864-5380
Champlain Valley Equipment,453 Exchange Street,Middlebury,VT,05753-1115,802-388-4967
Champlain Valley Hardscapes,3062 Williston Road,South Burlington,VT,05403,802-860-7866
Champlain Valley Moving,1093 East Hill Road,Richmond,VT,05477,802-434-8689
Chapman Truckin,35 Beech St,Essex Jct,VT,05452,802-734-0707
"Charlebois Truck Parts, Inc.",557 Riverside Avenue,Burlington,VT,05401,802-658-6170
Charles F Marsha Trucking,96 Hanna Road,Highgate,VT,05459,802-868-2613
Knudson's Salvage,472 Dance Hall Rd,Lunenburg,VT,05906,802-695-1105
A C Lawnmowing & Snowplowing,136 Beech Street,White River Jct,VT,05001,802-296-2234
C Cole And Son Trucking And Logging,1054 River Rd,Lunenburg,VT,05906,405-601-4465
Charles Johnson Jr,114 Rt 106,N Northfield,VT,05150,802-886-1434
Charles L Burbank,4 Ledge Rd,Morrisville,VT,05661,802-888-2652
Charles Lee Timber Transport LLC,3567 Munger Street,New Haven,VT,05472,802-388-3529
Charles Lovell Contractor LLC,Parker Road 62,Westminster,VT,05159,802-722-4156
Charles M Bullock Jr,3672 Vt Route 133,Pawlet,VT,05761,802-325-2109
Charles Mayotte Sr,3634 Bonnyvale Road,Guilford,VT,05301,N/A
"Chase Site Services, Inc.",7904 Pomfret Road,N Pomfret,VT,05053,802-457-3786
"Chd, Inc.",2536 Munger St,New Haven,VT,05472,802-233-1249
Checkered Flag Trucking,167 South Lunenburg Road,Lunenburg,VT,05906,802-892-5338
"Cheever Tire Service, Inc.",245 Rockingham St,Bellows Falls,VT,05101,802-463-3320
Chelsea's Trucking,1083 Rt 9 E,Woodford,VT,05201,802-447-0429
Chesnut Excavating,512 York St Ext,Poultney,VT,05764,802-287-9703
Chets Auto Repair,945 Vt Rt 10,Chester,VT,05143,802-875-3788
"Chief Logging & Chipping Services, Inc.",2494 Stone Rd,S Ryegate,VT,05069,802-584-3868
Chimney Point Farm Lp,7132 Vt Rte 17 West,Addison,VT,05491,802-759-2183
Chr Trucking LLC,382 Hercules Dr Suite 2,Colchester,VT,05446,802-355-4557
Chris Clark Logging,1848 Parker Rd,Vershire,VT,05079,802-356-0044
Cct,1348 Blakely Road,Colchester,VT,05446,802-288-6143
Chris Hunt Transport,700 Whittier Road,Derby Line,VT,05830,802-895-2674
Crit Laundry Trucking,85 Cobb Hill Rd,Hartland,VT,05048,802-369-0108
Christopher R Barnaby,911 S Main St,Bethel,VT,05032,802-234-9427
Christopher Taft,17 Eric Street,Springfield,VT,05156,180-288-5375
"Chucks Heating & Air Conditioning, Inc.",416 Roosevelt Hwy,Colchester,VT,05446,802-655-1489
"Churchill Transport, Inc.",41 Towne Hill Drive,Morrisville,VT,05661,802-793-0327
Burlington Brew Tours LLC,261 South Union St,Burlington,VT,05401,802-760-6091
Cj & Merl's Trucking LLC,84 Pierre Ct Apt 205,Colchester,VT,05446,704-879-1398
"Ckc, Inc.",4434 Memorial Drive,St. Johnsbury,VT,05819,802-748-0190
Ck Lyons,216 Sunnyside Lane,Williamstown,VT,05679,802-433-6294
"Clark's Transferring Service, Inc.",167 Boynton Street,Barre,VT,05641,802-479-2070
Clarke Annette Tabor Trucking Of Bethel,Box 224 Cherry Lane,Bethel,VT,05032,802-234-9654
Clarks Collision Center,697 S Barre Rd ,Barre,VT,05641,802-476-4082
Northern Basement Systems,358 Gallison Hill Rd,Montpelier,VT,05602,802-371-5000
Clarks Sled Service LLC,6 Hopkins Rd,Vergennes,VT,05491,802-233-5582
Classen's Crane Service LLC,2931 Rt 18,Waterford,VT,05819,802-748-2775
Claussen Florist & Greenhouses,187 Main Street,Colchester,VT,05446,802-878-2361
C White Trucking,36 Hideaway Hill Dr,Hartland,VT,05048,603-675-6354
"Clear Away Rubbish, Inc.",207 Kendricks Corner Rd,Perkinsville,VT,05151,802-263-5620
Cleary Stone Company,2178 Essex Road,Williston,VT,05495-7171,802-434-6174
Cliff Johnson & Son,986 Center Rd,Cavendish,VT,05412,802-226-7766
Clifford D Morin Jr,10 Shampeny Hill Rd,Hancock,VT,05748,802-767-4919
Snider Farms Assoc,83 Weightman Hill Rd,Richford,VT,05476,802-933-8354
Clifton James Inman,Hubbard Hill,West Halifax,VT,05358,802-368-2334
Cnh Consulting LLC,55 Fairfield Rd,Cambridge,VT,05444,802-316-6934
"Cobb Lumber, Inc.",1683 Spring Hill Road,South Londonderry,VT,05155,802-824-5037
Cobble Hill Trailer Sales LLC,79 Precast Rd,Milton,VT,05468,802-893-6188
Cobra Enterprise LLC,137 Main Street Suite 200,Newport,VT,05855,802-323-2169
Codling Bros Logging,1165 Maple Hill Rd,Plainfield,VT,05667,802-454-7177
"Coe Transport, Inc.",456 River Road,Killington,VT,05751,802-236-0513
Colchester Champs Trucking LLC,155 Malletts Bay Ave Apt B,Winooski,VT,05404,802-598-1981
Cold Hollow Cider Mill,3600 Waterbury Stowe Rd,Waterbury Center,VT,05677,802-244-8771
Cold Hollow Custom Contractor,1271 Vt Rte 15,Wolcott,VT,05680,802-793-2156
Cole Trucking,Rr 1 Box 4307,Charlotte,VT,05445,802-425-3035
"Colemans, Inc.",Route 100,Jamaica,VT,05343,802-297-1950
Central Service Towing And Recovery,1901 Williston Rd.,South Burlington,VT,05403,802-651-0588
Compass School,7892 Us Rt 5,Westminster,VT,05158,180-246-3252
Complete Septic Services LLC,789 School Street,Islelamotte,VT,05463,802-928-3572
"Concept2, Inc.",105a Industrial Park Drive,Morrisville,VT,05661,877-887-8014
Concord Logistics Group,65 Kim Ln,Milton,VT,05468-3386,407-849-8832
"Connecticut River Transit, Inc.",706 Rockingham Rd,Rockingham,VT,05101,802-460-7433
Connor Homes LLC,1741 Rt 7 South,Middlebury,VT,05753,802-382-9082
Ccs Constructors LLC,138 Munson Avenue,Morrisville,VT,05661,802-888-7701
Converterguys,2037 West Hill Rd,Townshend,VT,05353,802-376-4581
Cooper Fence,189 Blissville Road,Hydeville,VT,05750,802-773-9166
Copans Transportation LLC,332 Roger Hill Rd,E Wallingford,VT,05742,802-455-8005
"Corbett Trucking, Inc.",1069 Us Route 302,East Barre,VT,05649,802-272-1978
Coreys Auto Repair,Rr 1 Box 207,Waitsfield,VT,05673,802-496-3050
Corliss Trucking,3 Davis Ave,Northfield Falls,VT,05664,802-485-6170
Corporal Trucking LLC,75 Trafton Rd,W Windsor,VT,05089,802-356-4888
Corporation Of Marlboro College,2582 South Road,Marlboro,VT,05344,802-257-4333
"Cota & Cota, Inc.",4 Green St,Bellows Falls,VT,05101-1328,802-463-0000
Cota Trucking Company,6 Curtis Ave,Essex Junction,VT,05452,802-878-2668
"Cotas Service Station And Auto Parts, Inc.",88 First Street,Swanton,VT,05488,802-868-2781
"Cote Contractors, Inc.",378 Commerce St,Williston,VT,05495,802-658-2262
"Cote Transport, Inc.",1777 Vt Rte 100,Newport Center,VT,05857,802-334-7118
"Cottrell Construction, Inc.",3126 S Stream Rd,Pownal,VT,05261,802-442-5016
Counters By Design LLC,2461 Red Village Rd,Lyndonville,VT,05851,802-626-3081
"Country Home Products, Inc.",75 Meigs Road,Vergennes,VT,05491-0025,802-877-1200
"Country Walkers, Inc.",93 Pilgrim Park,Waterbury,VT,05676,802-560-0611
"County Oil Delivery, Inc.",270 Harrell Street #1,Morrisville,VT,05661,802-888-5333
Courteous Couriers LLC,5 Brooklyn St,Swanton,VT,05488,802-528-6726
"Couture Trucking, Inc.",4185 Vt Route 101,Troy,VT,05868,802-744-6848
Cowbells Trucking LLC,3227 Rt 5,Irasburg,VT,05845,802-754-2061
"Cowles Quilting Machines Service, Inc.",233 Swanton Road,Saint Albans,VT,05478,802-524-2551
"Cox Trucking, Inc.",3422 Vt Route 109,Belvidere,VT,05442,802-644-2702
Cpj LLC,8529 Route 9,Woodford,VT,05201,203-738-9112
Crackers Trucking,9 Cedar Haven Rd,Shelburne,VT,05482,802-229-5017
Craft Beer Guild Distributing Of Vermont LLC,948 Hercules Drive,Colchester,VT,05446,802-861-3014
Craft Center At Camelot Village,89 Colgate Heights,Bennington,VT,05201,802-445-3043
"Darling Auto Repair, Inc.",19 Branch Brook Rd,Groton,VT,05046,802-584-3273
Goodenough Rubbish Removal LLC,112 Mercury Drive,Brattleboro,VT,05301,802-257-4937
Craig Shepard Trucking,Tice Mills Rd,Holland,VT,05830,802-895-4820
Cristian LLC,5 Olde Orchard Park Apt 511,S Burlington,VT,05403,802-497-4773
Kruger Transport,702 Canaan Hill Rd,Canaan,VT,05903,802-266-7754
Cunningham Logging LLC,702 Canaan Hill Rd,Canaan,VT,05903,802-266-7754
Cunninghams Full Service Station LLC,204 Gale Street,Canaan,VT,05903,802-266-8900
Cura Property Management LLC,256 Lily Pond Rd,White River Jct,VT,05001,802-296-5991
Cura Transportation LLC,635 Woodstock Rd,White Riv Jct,VT,05001,802-295-5991
"Cutting Edge Auto, Inc.",4856 Us Rt 5,Coventry,VT,05825,802-334-2687
Cw Stageworks LLC,3371 Mt Philo Road,Charlotte,VT,05445,802-425-2580
"Cwf Associates, Inc.",139 Quails Hill Rd,Brattleboro,VT,05301,802-254-5740
"Cyr Lumber, Inc.",215 Poor Farm Road,Milton,VT,05468,802-893-4448
"D & C Transportation, Inc.",32 Railroad Ave,Orleans,VT,05860,802-754-6664
"D & D Oil, Inc.",159 Depot Street,Enosburg Falls,VT,05450,802-933-5975
"D & M Petroleum, Inc.",654 Bristol Road,Bristol,VT,05443,802-453-7199
"D G Robertson, Inc.",3016 Williston Rd Calkins Ct,South Burlington,VT,05403,802-864-6027
D L Anderson Hauling,38 Cranberry Lane,Wilder,VT,05088,802-291-1585
D Labbee Trucking LLC,1836 Vt Rt 105 W,North Troy,VT,05859,802-988-2280
D R B Transportation LLC,26 Division St,Barre,VT,05641,802-782-0454
D R Perry Trucking,436 Rush Meadow Road,Brownsville,VT,05037,802-484-3807
B And B Septic,2702 Crepeault Hill Road,Saint Johnsbury,VT,05819,802-748-9858
D Richard Automotive,766 Bay Rd,Colchester,VT,05446,802-879-7518
D&t Transport LLC,3960 Vt Route 105,W Charleston,VT,05872,802-353-8627
D's Transits Solution LLC,82 Hickok St Apt B,Winooski,VT,05404,802-355-0485
Dads 4 By Tool And Supply LLC,22 Memorial Drive,St Johnsbury,VT,05819,802-748-1147
Dairy Solutions LLC,3598 Vt Route 105,Enosburg Fls,VT,05450,802-933-7577
"Dale E Percy, Inc.",269 Weeks Hill Rd,Stowe,VT,05672,802-253-8503
Mcalister Trucking,387 Vt Route 101,North Troy,VT,05859,802-233-1059
Dale Williams,6344 Rt 5 South,Newbury,VT,05051,802-866-5694
"Dales Mobile Home Transporting, Inc.",8 Blake Drive,White River Junction,VT,05001,802-295-7216
Damon Bushey Trucking LLC,16 Mountain St,Bristol,VT,05443,802-453-3581
Dan Choiniere,169 Camp Rd ,East Burke,VT,05832,802-751-9046
Dana Burkewitz,3237 Rte 14,Irasburg,VT,05845,802-754-6350
Drapers Used Cars Junkit,677 Tenney Hill Rd,Hyde Park,VT,05655,802-888-3290
"Dana H Sweet Trucking, Inc.",Route 104 Sweet Landing,Cambridge,VT,05444,802-644-5470
Landmark Property Maintenance,4784 Rt 14,W Hartford,VT,05084-0027,802-296-8170
Danaher Fishery,1548 Eastham Rd,Cuttingsville,VT,05738-9401,802-492-3442
Danco Distributing,269a North Main,Rutland,VT,05701,802-773-6900
Allard Excavating,Mt View Road,Wallingford,VT,05773,802-446-3398
Daniel Brick,70 Underwood Rd,Bradford,VT,05033,802-222-5736
Double D Transport,7 Woodvale Rd,Brattleboro,VT,05301,802-258-8767
Daniel's Trucking,77 Hyde St.,Burlington,VT,05401,802-238-4316
Daniel J Forbush Trucking,Rte 102 Box 67,Guildhall,VT,05905,802-328-2282
Dan Pepin Excavating And Trucking,4650 Vt Rte 100,Newport,VT,05855,802-744-8227
Daniel N Vaine Sr,171 South Pine Banks,Putney,VT,05346,802-258-7006
Daniel Pauline Rancourt,Rt 114 #4822,Canaan,VT,05903,802-266-7782
"Daniels Transportation Co, Inc.",601 Old River Road,White River Junction,VT,05001,802-295-7743
Smith & Smith Enterprises,266 Bears Den Road,Wells River,VT,05081,845-224-6463
Darcy Nelson Log Hauling,799 So Bayley Hazen Rd,Ryegate,VT,05042,802-584-4608
Dark Star Lighting & Production,102 Commerce Street,Hinesburg,VT,05461,802-482-4802
Darko Vujanovic,53 Smith Road,Milton,VT,05468,802-999-2296
"Darling's Boatworks, Inc.",821 Ferry Road,Charlotte,VT,05445,802-425-2004
Mathews Excavating,2043 Hale Road,Waterford,VT,05819,802-748-3703
Darrell Mays,213 Two Ponds Rd,Warren,VT,05674,802-793-4238
D Pion Transport,3013 Hazen Notch Rd,Lowell,VT,05847,802-673-8169
Hellhound Property Maintenance,1 Bachand Rd,Swanton,VT,05488,802-309-4304
Dave Hill Trucking,56 Fletcher Rd,Fairfax,VT,05454,802-782-6549
Dave W Davis Trucking,201 Westminster Road,Putney,VT,05346,802-558-7674
Dave Wacker Logging,87 Wacker Road,Wardsboro,VT,05345,802-896-6728
Davenport Excavation LLC,1105 Vt Rt 31,Poultney,VT,05764,802-287-9652
Davenport Transport LLC,465 Westside Lane,Westmore,VT,05822,802-535-8621
"Daves Transport, Inc.",5072 Rt 5 Box 701,Derby,VT,05829,N/A
Skinner's Trucking,2068 Cross Rd,Concord,VT,05824,802-473-0282
David Barber,31 Masterson Rd,Lincoln,VT,05443,802-453-7744
River Side Rental & Property Management,12 East Street,Beecher Falls,VT,05902,802-266-3650
David C Camara,Scotch Hill Road,Fair Haven,VT,05743,518-282-9646
Cheney Trucking,381 Walbridge Rd,E Montpelier,VT,05601,802-223-5744
David's Trucking Panther Expediti0n Services,68 Main St Apt 410,Brattleboro,VT,05301,802-345-9955
David Couture Trucking,44 Truck Rt,Alburg,VT,05440,802-796-3872
David Deth Excavating,30 Deth Hill,E Haven,VT,05837-0011,802-467-8833
David Brown Trucking,Route 100,Londonderry,VT,05155,802-824-5136
David Emmons,371 Lochlea Lane,Wells,VT,05774,802-645-0451
Rolling Meadows Farm,1212 Baileys Mills Road,Reading,VT,05062,802-484-5540
Whippoorwill Valley Services LLC,1015 Whippoorwill Rd,Thetford Center,VT,05075,802-785-2170
David H Mccullough,1857 North Road,Bethel,VT,05032,802-234-9244
David Haldeman,Rr,Saint Johnsbury,VT,05819,802-748-2368
David J Lovell Trucking,Rr,Fairlee,VT,05045,802-333-4178
Dry Side Drayage,176 Monkton Ridge Rd,Monkton,VT,05469,802-453-4784
David L Merchant Transportation,69 Hickory Lane,Colchester,VT,05446,802-862-7085
Sonic Circus,1233 Vt Route 30,Townshend,VT,05353,802-365-9190
David M Carey,193 Barney Road,Bennington,VT,05201,802-688-6021
"David M Chaves Excavating, Inc.",242 Chaves Rd,Londonderry,VT,05148,802-824-3140
"David M Newton, Inc.",165 Sugar House Ln,Hinesburg,VT,05461,802-482-2658
"David Manning, Inc.",103 Frost Place,Brattleboro,VT,05301-0276,802-258-3962
Nichols Fodder Farm Ltd,138 Morningside Drive,Charlotte,VT,05445,802-425-3047
David Sanderson,799 Christian St,White River Jct,VT,05001,802-369-0326
David Smith,242 Smith Rd,Derby Line,VT,05830,802-895-4317
David Welch Trucking,595 Calkins Camp Road,Danville,VT,05828,805-684-2240
David White Trucking,2063 River Rd,Lemington,VT,05905,808-277-8885
"Davis Auto, Inc.",1350 Rt 14,Hartford,VT,05047,802-296-5968
"Davis Family Deli Provisions, Inc.",134 Park St,Rutland,VT,05701,802-776-4118
Dc Burnham & Sons LLC,3697 Route 30,Middlebury,VT,05753,802-462-2917
Dc Trucking LLC,95 Nason Ter,North Troy,VT,05859,414-551-3840
Dead Creek Transport,Rr,St Albans,VT,05478,802-524-7323
Dean's Auto Service,140 Peavine Park Road,Bethel,VT,05032,802-234-9851
Deep Root Organic Truck Farmers Coop,405 Route 15 West,Johnson,VT,05656,202-521-1493
"Deerings Service Center, Inc.",529 Route 100,Hancock,VT,05748,802-767-3034
Degre Auction Service LLC,1571 Rt 100,Westfield,VT,05874,802-744-2427
Del Disaster Recovery Enterpris LLC,3340 Quaker Village Rd,Weybridge,VT,05753,603-499-6287
"Demag Riggers & Crane Service, Inc.",100 Demag Drive,Williston,VT,05495,802-863-3642
Nagy Logging,223 Downing Rd,Topsham,VT,05076,802-439-5478
Beloin Logging & Trucking,564 Pleasant Valley Road,Underhill,VT,05489,802-899-4989
Bathalon Trucking,832 City Farm Road,Newport,VT,05855,802-334-7226
Dennis Beaudin Monuments,203 Cogswell St,Graniteville,VT,05654,802-476-6802
Dennis Demers Trucking,800 Eligo Lake Rd,Hardwick,VT,05843,802-472-6095
Dennis Ducharme,87 Bailey Pond Road,Marshfield,VT,05658,802-426-3796
Fox Marine Service,356 Prim Road,Colchester,VT,05446,802-862-7707
Dennis Irick,44 Bay Rd,Alburg,VT,05440,802-796-3571
Denroc Logistics LLC,3927 Sand Road,Ferrisburg,VT,05456,802-236-7333
Derby Truck Parts,259 Shattuck Hill Road,Newport,VT,05855,802-895-2961
Derek Gustin,10 Lakewood Drive,Newport Center,VT,05857,802-334-8615
"Derns Blue Ox Trucking, Inc.",51 Peckham Lane,Dorset,VT,05251,802-867-2237
Berry's Trucking,328 Little Egypt Road,Lyndonville,VT,05851,802-626-5886
"Derrig Excavating, Inc.",30 Houghton Brook Rd,Putney,VT,05346-9375,802-387-5479
"Desrochers Bulk Service, Inc.",3761 Us Rt 5,Derby,VT,05829,802-766-4732
"Desrochers Excavating, Inc.",3761 Us Route 5,Derby,VT,05829,802-766-4732
Devaney Dedicated Trucking LLC,3316 Vt Route 78,Highgate Ctr,VT,05459,802-868-5004
Deyo & Sons Trucking LLC,278 Junction Road,Montpelier,VT,05602,802-229-9890
Df Transportation LLC,749 Peace St,Dorset,VT,05251,802-855-1314
Dft Transport LLC,232 Saint Albans Rd,Swanton,VT,05488,603-208-8330
Dicks Automotive,55 Pearl St,St Johnsbury,VT,05819,080-274-8900
"Dido's Trucking, Inc.",8175 Whipple Hollow Rd,Florence,VT,05744,802-483-6079
"Dion Equipment Sales, Inc.",75 Fair Rd,E Montpelier,VT,05651-4518,802-793-7023
Direct Transport LLC,269 Route 2,South Hero,VT,05486,802-372-8565
Dj Lawrence Septic,950 Randall Hill Rd,Springfield,VT,05156,802-376-4499
"Dj Transport, Inc.",20 Prospect Street,White River Junction,VT,05001,802-295-6420
Dj's Truck Service And Repair LLC,643 Weatherhead Hollow Rd,Guilford,VT,05301,802-254-9535
"Djs Enterprise, Inc.",18 Main St,N Springfield,VT,05150,802-885-5850
Dc Associates Skidder Transport,651 Us Route 2,Guildhall,VT,05905,802-328-2484
Don Patenaude Trucking,Rr,Derby,VT,05829,802-766-5520
"Don Weston Excavating, Inc.",349 Commerce St,Williston,VT,05495,802-860-1566
Donald A Putnam Jr,12 New St,Swanton,VT,05488,802-309-0706
Donald Clark Jr LLC,143 Grandview Lane,Addison,VT,05491,802-759-2960
Donald Girouxs Trucking LLC,452 Us Rt 302,East Barre,VT,05649-0079,802-476-5735
Nado Freight Broker,P. O. Box 780,Derby Line,VT,05830,802-873-3246
Donald M Longmoore,1576 Leighton Hill Rd,Wells River,VT,05081,802-429-2050
D & D Auto Transport,179 Welton Rd,Groton,VT,05046,860-919-0224
Cedarbrook Trucking,326 Lowery Rd,Barre,VT,05641,802-371-7756
Junction Auto Center,5507 Ethan Allen Hwy,New Haven,VT,05472,802-453-5552
"Donley Transport, Inc.",785 Upper French Hill Rd,Johnson,VT,05656,802-635-2309
Dons Trucking,35 Beech Street,Essex Junction,VT,05452,802-879-8679
Doolan Fence & Tree,286 Jenneville Rd,Windsor,VT,05089,802-436-3220
Dorman's Transport,984 Grafton Rd,Townshend,VT,05353,802-348-7265
"Doten Grading & Excavating, Inc.",397 Barberry Hill,Woodstock,VT,05091-1269,802-457-2781
Double A Transportation LLC,460 Pleasant Street,Williamstown,VT,05679,802-793-1089
"Doug Leach Excavation, Inc.",161 Forrest Farm Rd,Pawlet,VT,05761,802-325-3697
Doug Shepard Excavating LLC,20 Viens Rd,Saint Albans,VT,05478-9799,802-527-0030
"Cummings & Son Landclearing, Inc.",5559 West Creek Rd,Brandon,VT,05733,802-247-4633
Doug Devereux &sons,2333,Belmont,VT,05730,802-259-2809
Dougs Trucking & Excavtion,1080 Stage Rd,Benson,VT,05743,802-537-2008
Douglas L Smith,8263 Vt Rte 22a,Addison,VT,05491,802-759-3372
Doug Murray Enterprises LLC,3397 Ryegate Rd,East Ryegate,VT,05042,802-757-2677
Douglas Petterson,1404 Gilman Road Rt 122,Wheelock,VT,05850,802-626-3323
Douglas S Crowningshield,29 French Street,Barre,VT,05641,802-249-0349
Dow Trucking LLC,251 Partridge Farm Rd,Barre,VT,05641,802-461-5780
Dowe E Clark Trucking,3 Lamb Hill Road,Wells,VT,05774,802-325-3876
"Dowlings, Inc.",91 Catamount Dr,Milton,VT,05468,802-893-5110
"Doyon Logging, Inc.",100 South St Apt 3,Island Pond,VT,05846,802-723-4642
Driven Transport LLC,4954 Mountain Rd,Bristol,VT,05443,802-453-4445
Duane Shortt Auto Repair,Rr 1 Box 145,North Bennington,VT,05257,802-447-3803
"Dubois Construction, Inc.",46 Three Mile Bridge Rd,Middlesex,VT,05602,802-223-5288
"Dumas Trucking, Inc.",75 Morse Hollow Road,Poultney,VT,05764,802-287-5545
"Dupont Autobody, Inc.",Rt 2 Box 3200,Bristol,VT,05443,802-453-3562
"Duquette Forestry Transportation, Inc.",355 E Wells Rd,Wells,VT,05774,802-342-0495
Lazar Express,102 Oakwood Dr,South Burlington,VT,05403,802-863-2764
Stoneridge Trucking,502 Sanville Rd,Irasburg,VT,05845,802-754-8463
Dutch Vision Trucking LLC,59 Commonwealth Ave,Springfield,VT,05156,802-349-0862
Dwyer Brothers Logging Llp,151 Galloping Hill Rd,Lyndonville,VT,05851,802-626-8208
Dwyers Four Seasons Trucking LLC,120 Hicks Ave,Bennington,VT,05201,802-379-0126
"Dydo & Company, Inc.",44 Route 30,Dorset,VT,05251,802-362-1328
Dyin Breed Trucking LLC,21 New Haven Rd,Vergennes,VT,05491,802-771-7034
Dylan F Rowlee,1028 Jenne Rd,Reading,VT,05062,802-484-5903
Dylan Ward Preston,2480 Guinea Rd,Charlotte,VT,05445,802-425-3952
"E C Perron Trucking, Inc.",651 Roaring Brook Road,Barton,VT,05822,802-525-3883
E J Peno Trucking,117 T Jader Road,Wolcott,VT,05680,802-888-8518
E T Daniels,737 Pikehill Rd,Corinth,VT,05039,803-439-3407
E&m Trucking LLC,737 Pike Hill Rd,Corinth,VT,05039-9706,802-439-3407
"E&s Transport, Inc.",400 Windy Woods Rd,Richmond,VT,05477,802-279-0606
Eae Transport LLC,45 Helen Avenue,South Burlington,VT,05403,802-343-1441
"Eagle Lumber Co, Inc.",220 Robillard Rd,Stamford,VT,05352-9801,802-694-1411
Eagle One Express LLC,2555 Trucott Rd,Holland,VT,05830,405-576-3188
Eagle Trucking LLC,13 North Main St Apt 1,Waterbury,VT,05676,802-373-3922
"Earle's Truck Repair, Inc.",59 North Campbell Rd,Center Rutland,VT,05736,802-773-9198
Black River Produce,449 River Street,N Springfield,VT,05150,802-886-6200
Earthworks Unlimited LLC,270 Miller Pond Rd,Thetford Ctr,VT,05075,802-333-4639
"East Monpelier Home Center, Inc.",2540 Us Rt 2,East Monpelier,VT,05651,802-223-4131
Eastern States Transportation LLC,87 Alpine Dr,Northfield,VT,05663,802-839-0453
J E Trucking,2517 Woodstock Rd,Hartford,VT,05047,802-295-5473
"Eci Rail Constructors, Inc.",98 Engineers Drive,Willsiton,VT,05495,802-863-6389
Ecs Peno Transport,475 Walton Rd,Morrisville,VT,05661,802-888-7207
Ed & Rosemarie White A S Auto Sales,122 Swanton Rd,Saint Albans,VT,05478,802-524-3003
"Eden Automotive Advantage, Inc.",Route 100 North,Eden Mills,VT,05653,802-635-7535
"Edmond Plante & Son, Inc.",388 Vt Rt 111,Derby,VT,05829,802-766-2468
Eds Sunoco Service Plaza,North Hartland Road,White River Junction,VT,05001,802-295-5509
Flynn Trucking LLC,129 Pine Hill Road,Bridgewater Corners,VT,05035,802-672-4321
Edward J Maclina,656 Buttles Rd,Rochester,VT,05767,802-767-3524
Edward Lockerby,383 Church St,Isle La Motte,VT,05463,802-928-3424
"Edward Perron Trucking, Inc.",1956 South Barton Rd,Barton,VT,05822,802-525-3502
Edward Tobin,26 Independant Dr,Hartland,VT,05048,802-436-1319
Farnham's Livestock,83 Farnham Road,Williamstown,VT,05679,802-433-1689
Edwin Wilson Jr,57 Upper Bartonsville Rd,Chester,VT,05143,802-875-3539
Eemaan Enterprises Corporation,300 Lake St #406,Burlington,VT,05401,802-363-2266
"Egyptian Trucking, Inc.",870 Little Egypt Rd,Lyndonville,VT,05851,802-274-6401
"Eilers Bros Trucking & Excavating, Inc.",80 Depot Street,Readsboro,VT,05350,802-423-5413
West Branch Gallery,17 Towne Farm Lane,Stowe,VT,05672,802-253-8943
Elite Auto & Truck Service & Sales LLC,73 Ethan Allen Dr,S Burlington,VT,05403,802-497-0176
Ray's Auto Service,133 Coventry St,Newport,VT,05855,802-334-7832
Elwood M Martin Jr,24 Nutmeg Ln,Salisbury,VT,05769,802-352-1034
Emerald Transportation LLC,145 Pine Haven Shores Rd Ste 1000,Shelburne,VT,05482,508-383-3239
Emerson & Sons,953 Powder Spring Rd,Groton,VT,05046,802-584-4404
Emily W Underwood,Route 100 P O Box 246,South Londonderry,VT,051550246,802-824-3597
Emri Trucking LLC,547 Gaskell Hill Rd,West Burke,VT,05871-9007,802-274-6952
Emt Transportation LLC,22 Spruce Drive,Derby,VT,05829,802-766-3068
"Energy Alternatives, Inc.",76 Hayward St #2,Burlington,VT,05401,802-660-8698
Energy Co-op Of Vermont,Prim Road #3,Colchester,VT,05446,802-526-2683
Thermal House,19 Bennett Drive,Brattleboro,VT,05301,802-874-7222
"Energy Smart Building, Inc.",22 Varney Hill Rd,Starksboro,VT,05487,802-453-3727
"Equipment Express, Inc.",65 Harms Way,Jericho Center,VT,05465,802-899-3233
"Era Transport, Inc.",438 Herrick Rd,Derby Line,VT,05830,514-772-7574
Carrara's Services,154 Circular Dr,Wallingford,VT,05773,802-345-1660
Ejm Enterprises,52 Ossie Rd,E Middlebury,VT,05740,802-388-1440
Eric Page,348 Thaddeus Stevens,Peacham,VT,05862,802-592-3166
Green Mountain Broker's,65 Scarff Avenue,Burlington,VT,05401,N/A
Ernest Wilson,Unit 5 Nacdios Place,Pomkret,VT,05031,802-291-0215
Estes Trucking,Waterman Street,East Barre,VT,05649,802-479-9489
Everest Enterprises LLC,435 Dorset Street Unit 45,South Burlington,VT,05403,802-777-5500
Culligan,154 Brentwood Dr Ste 1,Colchester,VT,05446,802-865-0000
"Evergreen Recycling, Inc.",29 A Street,White River Junction,VT,05001,802-295-7506
"Express Fleet Service, Inc.",1193 Portland Street,St Johnsbury,VT,05819,802-748-3636
F And M Enterprises LLC,2099 Rockingham Rd,Rockingham,VT,05101,802-376-6462
F H Gabert Transportation LLC,2745 Rt 100,S Londonderry,VT,05155,802-824-4696
"Fab-tech, Inc.",480 Herwles Dr,Colchester,VT,05446,802-655-8800
"Fabian Earth Moving, Inc.",1409 Pleasant St,West Rutland,VT,05777,802-438-5040
Falconer Trucking LLC,945 Tenakee Rd,Lowell,VT,05847,802-673-9812
Family Movers Of Vermont LLC,72 Valley Cemetery Rd,Athens,VT,05143,802-885-2521
Farmers To You,446 Industrial Ln,Barre,VT,05641,802-225-6383
Farnham's Scale Systems,Rt 64,Williamstown,VT,05679-0450,802-433-6000
Farnum Trucking,50 Stony Hill Rd,Guilford,VT,05301,802-254-4078
Farquharson Brothers LLC,373 Farquharson Dr,South Ryegate,VT,05069,802-584-3182
Farrell Distributing Corporation,5 Holmes Rd,South Burlington,VT,05403,802-864-4422
"Farrell Vending Services, Inc.",405 Pine St,Burlington,VT,05403,802-864-1900
Fay's Wrecker & Repair Service,12 Lacross Rd,Springfield,VT,05156,802-885-4009
Fay's Wrecker And Repair Service LLC,12 Lacross Rd,Springfield,VT,05156,802-885-4009
"Fecteau Residential, Inc.",350 River St ,Montpelier,VT,05602-8259,802-229-2721
Feed Commodities,47 Feed Mill Lane,Middlebury,VT,05753,802-388-6332
Fellow Trucking Logging,Lyndon Center,Lyndonville,VT,05850,802-626-8529
"Fibermark North America, Inc.",161 Wellington Road,Brattleboro,VT,05301,413-533-0699
"Filskov Bros, Inc.",2341 Griffin Rd,Poultney,VT,05764,802-468-5475
"Fire Management Services, Inc.",35 Sleepy Hollow Rd,Athens,VT,05143,541-991-0693
Fireball Transport LLC,42 Allen Martin Drive ,Essex Junction,VT,05452,802-872-0700
"First Class Trucking, Inc.",146 Clardendon Ave,West Rutland,VT,05777,802-342-7281
Fisk Trucking LLC,6734 Waits River Rd,Bradford,VT,05033,802-439-6185
Fitzpatrick Transport LLC,27 Houghton Brook Rd,Putney,VT,05346,802-387-4574
Five Star Transport LLC,227 N Willard Street #2,Burlington,VT,05401,646-515-6384
Fk Cable Services LLC,109 Route 12a,Northfield,VT,05663,802-224-5279
Flood Brook Union School,91 Route 11,Londonderry,VT,05148,802-824-6811
Floyd Allen Trucking,905 Baileys Mills Rd,Reading,VT,05062,802-484-3414
"Fmr Freight, Inc.",120 Wiley Rd Apt 309,Colchester,VT,05446,844-257-7802
"Foggs Stoneworks, Inc.",3528 Quechee West Hartford Road,White River Jct,VT,05001,802-296-6705
Foley Distributing,280 Seward Road,Rutland,VT,05701,802-773-3738
Foley Services,133 State St,Rutland,VT,05701,802-773-3367
Forever Green Laminates LLC,22 Browne Court Unit 150,Brattleboro,VT,05301,802-251-9955
Foster Property Services LLC,171 Rte 100,Weston,VT,05161,802-548-7123
Four Seasons Auto Transport,1221 Elliott Rd,St Johnsbury,VT,05819,802-751-8929
"Four Seasons Leasing, Inc.",709 Rt 15 E,Hardwick,VT,05843,802-472-6646
Rene Fournier,6 Brooklyn St,Swanton,VT,05488,802-868-2099
Fox Transportation,175 Lyman Ave,Burlington,VT,05401,802-338-1558
Fox Run Hauling LLC,106 Fox Run Dr ,Proctorsville,VT,05153,802-952-4005
"Fph, Inc.",32 Railroad Ave,Orleans,VT,05860,802-754-6664
Fran Bean Excavating,117 Old Hill Rd,Barnard,VT,05032,802-234-9339
Francis Pion Trucking,1468 Irish Hill Rd,Lowell,VT,05847,802-760-7451
"Taylor's Automotive, Inc.",334 Barton-orleans Road,Barton,VT,05822,802-525-3456
Francis Transport LLC,141 Furnace Rd,Brandon,VT,05733,802-881-2476
Francis Veins,11 Clapper Rd,Miltion,VT,05468,802-893-4007
Francois Lapointe Trucking,300 Palin Farn Rd,Derby,VT,05829,802-766-9268
Frank D Harlow,313 Westminster Rd,Putney,VT,05346,802-380-1111
Frank T Lawrence,351 Lawrence Hill Road,Saint Johnsbury,VT,05819,802-748-9216
"Franks Line Striping, Inc.",1792 Leadville Rd,Newport Center,VT,05857,802-334-6279
Grant Trucking,86 Branch Brook Rd,Groton,VT,05046,802-584-3153
Robco Trucking,95 Rte 22a,Orwell,VT,05760,802-948-2006
Fred Vance Trucking,76 Woodbury St,Hardwick,VT,05843,802-472-5516
Fred's Propane & Heating Oil Or Fred's Energy,328 Main Street,Derby,VT,05829,802-766-4949
Fredette Freight Services,3 Clark St,Rutland,VT,05701,802-558-7992
Freight On Time LLC,5 Kocher Drive #1015,Bennington,VT,05201,774-502-8776
Freightainment LLC,300 Main Street Apt 7,Winooski,VT,05404,802-363-7387
Fresh Water Haulers LLC,180 River Road,Underhill,VT,05489-9422,802-658-2223
"Frontier Trucking, Inc.",1528 Us Route 2,East Montpelier,VT,05651,802-223-5359
"Frost Industries, Inc.",112 Whipple Dr,Guilford,VT,05301,860-815-0728
Frostys Towing And Recovery LLC,29 Mountain Home Park,Brattleboro,VT,05301,802-380-8881
Fullam & Sons Transport,639 Town Hill Rd,Goshen,VT,05733,802-989-1222
Fuller Sand & Gravel,28 Brook Road,Danby,VT,05739,802-293-5700
"Fullerton Property Service, Inc.",3613 Fletcher Hill Rd,S Woodstock,VT,05071,802-457-1731
Fuse,110 W Canal Street,Winooski,VT,05404,802-864-7123
Gavin And Clara Trucking,194 Washington St,Barre,VT,05641,802-363-8524
"G And L General Store, Inc.",2813 Route 22a,Benson,VT,05731,802-537-4041
"G Chico Trucking, Inc.",5 Town Farm Rd,Rockingham,VT,05101,802-875-5647
G H Falconer Truckin,27 Hunt Hill Rd,Orleans,VT,05860,802-754-2660
G Hamlin Trucking LLC,27 Mill Street,Cavendish,VT,05142,802-226-7359
G K Bisson Trucking LLC,121 Jensen Rd,Barre,VT,05641,802-522-7457
G S Adams LLC,175 Mansfield Lane,Londonderry,VT,05148,802-824-6116
G Stone Commercial Division,489 Foote Street,Middlebury,VT,05753,802-388-9599
"G W Tatro Construction, Inc.",5195 Vt Route 15,Jeffersonville,VT,05464,802-644-8875
G-dog Enterprise LLC,25 Hawthorn Cir,Essex Jct,VT,05452,802-316-0517
Gaffco Ballistics LLC,114 Horton Road,South Londonderry,VT,05155,802-824-9899
Garden Patch Farm Stand,1700 East Main Street,Newport,VT,05855,802-673-6723
Gemco Freight System,"342 Main, St.",West Rutland,VT,05777,N/A
Garsan Transport,105 Congress Street,Bennington,VT,05201,802-681-5216
Gk Brown Trucking,633 Drumlin Rd,Perkinsville,VT,05151,802-263-5588
Gary C Roy Sr Trucking,2053 West Barnet Rd,Barnet,VT,05821,802-633-2625
Gary Godin,103 7th Street,Colchester,VT,05446,802-363-8090
Gaston Riendeau,146 Middle Road,Swanton,VT,05488,802-868-4157
"Gates Trucking, Inc.",99 Wild Branch Lane,Wolcott,VT,05680,802-888-3637
Gault Trucking And Excavating LLC,339 Gully Rd,Woodstock,VT,05091,802-281-2481
"Gauthier's Trucking, Inc.",5 Gauthier Dr,Essex Junction,VT,05452,802-879-4020
"Gays Fuel Service, Inc.",4 Green Street,Bellows Falls,VT,05101,802-463-0000
Gem Transport LLC,Goldthwaite Road,Chester,VT,05143,802-875-2524
"General Truck Equipment, Inc.",1058 Westminster Heights Road,Westminster Station,VT,05159,802-722-3100
Mogul Motors,311 Moretown Mountain Road,Moretown,VT,05660,802-496-2023
George E Forand Family Trucking Co,107 Hidden Acres,Starksboro,VT,05487,802-453-6461
George Trottier Trucking,Unknown,Burlington,VT,05401,802-433-6633
Mcrae Enterprises,28 Middle Road,Milton,VT,05468,802-893-2715
"George's Shuttle Service, Inc.",46 Butterfield Hill Road,Weathersfield,VT,05151,802-263-5627
Thunder Towing,126 Paintworks Rd,Brandon,VT,05733,802-247-6737
Gerald E Parker,590 West Street,Middletown Springs,VT,05757,802-235-2466
Point Comfort Cottages,3182 Us Rt 2,West Danville,VT,05873,802-684-3379
Gerald Fortin Transport,1232 Beebe Rd,Derby,VT,05829,802-766-2247
"Gero Bros Movers, Inc.",1 Gero Court,Essex Junction,VT,05452,802-655-0803
G M Co,1426 Us Route 7,Pittsford,VT,05763-9266,802-483-2292
Rhoades Salvage,15 Shirley Avenue,Milton,VT,05468,802-893-7089
Gilbert Construction Trucking LLC,3557 Ethan Allen Highway,New Haven,VT,05472,802-877-3613
Dave Kendall Logging,266 Justin Morrill Hwy,Strafford,VT,05072,802-765-4356
"Desjarlais, Inc.",Rt 101 Box 99,Troy,VT,05868,802-988-4101
Gilles J Rainville,421 Skunk Hill Rd,Fairfax,VT,05454,802-849-6669
Gilles Morin,2503 Valley Road,Derby Line,VT,05830,317-359-1471
"Giroux General Transport, Inc.",1 Humbert St,Barre,VT,05641,802-476-4679
Border Truck Equipment,470 Chadburn Road,Irasburg,VT,05845,802-754-2978
"Glenn Sherman & Sons, Inc.",177 Crow Hill Rd,Arlington,VT,05250,802-375-9518
Glodgett's Auto,176 Lafoe Lane,Orleans,VT,05860,802-754-2400
Dms Machining & Fabrication,10 Transport Drive,Barre,VT,05641,802-479-1088
Gm & Sons Transportation LLC,1753 Symes Pond Rd,East Ryegate,VT,05042,802-633-2750
Gmh Hazmat Trans LLC,7668 Us Route 5 Ste A,Westminster,VT,05158,802-460-1300
Gmh Trans LLC,7668 Us Route 5,Westminster,VT,05158,802-460-1300
Green Mountain Window Co,92 Park Street,Rutland,VT,05701,802-747-6915
"Go Bee Usa, Inc.",225 W Pinnacle Rd,Waterbury,VT,05676,905-522-3633
Go Towing And Recovery LLC,4179 Chester Arthur Rd,Enosburg,VT,05450,802-338-7997
Goddard Transport Services LLC,217 James Ave,Burlington,VT,05408,802-578-8929
Lely Center Vermont,10933 Rte 105,Enosburg Falls,VT,05450,802-933-6600
"Goodro Lumber Co, Inc.",388 East Main,East Middlebury,VT,05740,802-388-4915
Goodwin And Sons Trucking,1946 Cold Hill Rd,Lyndonville,VT,05851,802-274-4504
Goodwin Construction LLC,183 Turnpike Rd,Norwich,VT,05055,802-649-2562
"Gopher Broke Farm, Inc.",6235 Garfield Rd,Hyde Park,VT,05655,802-888-9280
Gordon Adams,150 Main Street Apartment 1,Montpelier,VT,05602,207-347-9236
Gmh Transportation Services,220 Gird Lot Road,Springfield,VT,05156,802-885-2916
"Gorham Transportation, Inc.",7752 Us Route 5,Westminster,VT,05158,802-463-9602
"Gosselin Water Wells, Inc.",U S Route 5,Derby,VT,05829,802-766-8818
Gouin Services LLC,500 Guilford St,Brattleboro,VT,05301,802-380-6275
Water Well Drilling,644 Townsend Road,Lyndonville,VT,05851,802-626-4200
Goulet Farms,465 Rte 2,South Hero,VT,05486,802-372-4695
"Graham Moving Storage, Inc.",63 Brentwood Drive,Colchester,VT,05446,802-893-8383
Terricel Transit,126 Grand Avenue,Swanton,VT,05488,802-868-2761
Grand Isle Meat Packing,43 Pearl Street,Grand Isle,VT,05458,518-586-1128
"Granite Importers, Inc.",16 South Vine St,Barre,VT,05641,802-476-5812
Grau Geist LLC,303 Krause Rd,Bennington,VT,05201,802-779-1341
Gray Transport,223 Valley Road,Derby Line,VT,05830,802-895-2806
Graze Llp,10 Green St,Vergennes,VT,05491,802-870-7187
Grc Enterprise LLC,2747 Kurn Hattin Rd,Westminster,VT,05158,802-722-4579
Great Bear Renewable Energy LLC,853 Lancaster Rd,Lunenburg,VT,05906,802-328-2327
Great Bike Tours LLC,155 Fletcher Lane,Shelburne,VT,05482,802-363-9771
Green Acres Milking Shorthorns,2925 Route 14 South,Randolph Center,VT,05061,802-728-4961
"Green Apple Transportation, Inc.",Rr 3 Box 64a,Lyndonville,VT,05851,N/A
G Mac,158 North Main Street,Windsor,VT,05089,802-674-5320
Green Mountain Basement Solutions LLC,447 Oak Circle,Colchester,VT,05446,802-654-9111
Green Mountain Express,215 Pleasant St,Bennington,VT,05201,802-447-0477
"Green Mountain Electric Supply, Inc.",5452 Us Rt 5 Ste G,Newport,VT,05855-1810,802-334-7963
Green Mountain Executive Transportation LLC,84 Susan Lane,Rutland,VT,05701,802-773-1313
"Green Mountain Feeds, Inc.",65 Main Street,Bethel,VT,05032,802-234-6278
Green Mountain Florist Supply,45 Swift Street,South Burlington,VT,05403,802-865-4447
"Green Mountain Freight Express, Inc.",798 Shore Acres Dr,Colchester,VT,05446,802-922-4489
A-1 Metal,426 Montgomery Road,E Berkshire,VT,05447,802-933-7544
Green Mountain Mulch,516 Lower Quarry Road,Derby,VT,05829,802-334-5733
Gmoc,10516 Vt Rt 116,Hinesburg,VT,05461,802-734-6346
"Green Mountain Piano Moving, Inc.",3 Williams Lane,Barre,VT,05641,802-476-8383
Green Mountain Pipeline Services LLC,1887 River Street,Bethel,VT,05032,802-234-9931
Green Mountain Power Corporation,163 Acorn Lane,Colchester,VT,05446,802-747-5863
Green Mountain Refrigerated Transport,378 Roosevelt Highway,Colchester,VT,05446,802-878-2262
Green Mountain Tent Rentals Llp,110 Park Place,Townshend,VT,05353,802-365-7839
Green Mountain Trailer Sales,1 North Hyde Park Road,Hyde Park,VT,05655,802-730-7068
Green Mountain Transportation LLC,2599 W Enosburg Rd,Enosburg Fls,VT,05450,802-933-5506
Green Mountain Used Auto Parts,Castleton Corners Rt 4a,Bomoseen,VT,05732,802-468-5206
Green Mountian Mobile Home Trans,Cedar Mountian Road,Castleton,VT,05735,802-265-8298
Benninaton House Of Tils & Cart,1267 Harwood Hill Road,Bennington,VT,05201-9512,802-447-3393
Green Mtn Transportation Services,30 Sugar Hill Rd,Bethel,VT,05032,802-431-7857
Kobak Trucking,46 Squirrel Hill,Ludlow,VT,05149,802-228-5065
G Lancto Excavating,33 Quinn Drive,Pownal,VT,05261,802-823-5315
Gregg's Excavating,1460 Gee Hill,South Royalton,VT,05068,802-763-8461
Ethan Allen Associates,2629 Vt Rte 10,Chester,VT,05143,802-875-3616
Sargent's Moving,796 Laporte Rd,Morrisville,VT,05661,802-793-4577
"Griffin & Griffin Excavating, Inc.",1909 Airport Rd,Moretown,VT,05660,802-496-3478
Griffins Trucking,Rr,Vershire,VT,05079,802-685-4526
Grizzly Bear Enterprises,191 Airport Rd,Fairhaven,VT,05743,802-265-4173
Grizzly Mountain Trucking LLC,148 Powerhouse Road,Groton,VT,05046,802-584-3423
"Grover Services, Inc.",1091 Bunker Road,East Dummerston,VT,05346,802-387-5377
Gsb Excavation,18 Rbb Drive,Orange,VT,05641,802-476-4642
Gsd Trucking LLC,1274 South Stream Rd,Bennington ,VT,05201,802-440-6255
G T Hayward,46 Coffin Road,St Johnsbury,VT,05819,802-249-1073
Guertin Son Trucking,Mountain View Apts C-6,St Johnsbury,VT,05819,802-748-5253
Guidea's LLC,3 Olde Orchard Park Apt 311,S Burlington,VT,05403,802-343-9863
Guy Palardy,207 Middle Rd,Alburgh,VT,05440,802-796-3637
Guy Welch,148 Welch Road,Topsham,VT,05076,802-522-9546
Gvh Transport LLC,18 Maranda Dr,Milton,VT,05468,802-881-1220
"Gwc Auto, Inc.",123 Tennis Way,East Dorset,VT,05253,802-362-2007
H & T Trucking LLC,597 Derby St,Island Pond,VT,05846,802-673-8036
"H A Manosh, Inc.",120 Northgate Plaza,Morrisville,VT,05661,802-888-5722
H B Septic Services LLC,132 Bridge Street,Springfield,VT,05156,802-885-2300
H Hirschmann Ltd,467 Sheldon Ave,West Rutland,VT,05777-9394,802-438-4447
H S M T Austin Trucking,Main St Rt 113,West Fairlee,VT,05083,802-333-9358
Hrs Transportations,1378 Burpee Road,Bristol,VT,05443,802-453-2147
Hall Transport,937 Us Rt 5,Sutton,VT,05867,802-473-6470
Hamlin Transport,113 Creek Glen,Colchester,VT,05446,802-879-2581
"Handy Chevrolet, Inc.",699 Highgate Rd,St Albans,VT,05478,802-524-7097
"Handy's Service Stations, Inc.",75 South Winooski Ave,Burlington,VT,05401,802-658-4321
"Hanover Transport, Inc.",1919 Town Farm Rd,Brandon,VT,05733,774-312-4889
Hanson Refuse Service,Rfd 3 Box 43c,Brattleboro,VT,05301,802-254-1684
"Hap's Service Station, Inc.",6449 Main Street,Waitsfield,VT,05673,802-496-3948
"Hardpack Distributors, Inc.",1 Tennis Way,East Dorset,VT,05253,802-362-2905
"Hardscapes Masonry Supply, Inc.",3062 Williston Road,South Burlington,VT,05403,802-860-7866
Harrington Freight LLC,173 Jasper Lane,Arlington,VT,05250,802-379-3202
Harrison Redi Mix Corp,1803 Skunk Hill Rd,Fairfax,VT,05454,802-849-6688
"Hartland Service Center, Inc.",Rt 5 N Rr 1 Box 241,Windsor,VT,05089,802-674-2629
Ballou & Sons Trucking,4919 Vt Rt 14,So Royalton,VT,05068,N/A
"Haskins Gas Service, Inc.",1791 Route 30,Dorset,VT,05251,802-867-5741
Hathaway Farm Ltd,741 Prospect Hill Rd,Rutland,VT,05701,802-775-2624
Hayward Son Daughter Trucking,43 E Randolph Rd,Chelsea,VT,05038,802-685-2241
"Hayward Trucking, Inc.",P O Box 2,Fairlee,VT,05045,802-333-4434
Heartwellville Service Station,1661 Vt Route 100,Readsboro,VT,05350,802-423-5251
"Heartwellville Service Station, Inc.",1661 Vermont Route 100,Readsboro,VT,05350-9658,802-423-5251
"Heffernan Excavating, Inc.",70 Hazel Drive,Bristol,VT,05443,802-453-2587
Heibler Trucking,430 Airport Rd,Fair Haven,VT,05743,802-265-4044
HeLLCat Express LLC,91 Hedgerow Dr,Shelburne,VT,05482,908-230-8664
Hells Peak Truckin LLC,174 Hells Peak Rd,Londonderry,VT,05148,802-824-8102
"Hendy Bros, Inc.",1137 Rt 7n,Middlebury,VT,05753,802-388-4482
Townshend Auction Gallery,129 Riverdale Rd,Townshend,VT,05353,802-365-4388
Henry M Shaw,81 Mundel Rd,Strafford,VT,05072,802-765-4241
"Henry Transportation, Inc.",Weatherhead Hollow Rd,Brattleboro,VT,05301,802-254-2683
Gray's Equipment,2991 Rt 5,E Thetford,VT,05043,802-785-2161
Heritage Toyota,1620 Shelburne Rd,South Burlington,VT,05043,802-865-8100
Heritage Ford,1600 Shelburn Road,South Burlington,VT,05403,802-865-8100
Hero's Transport LLC,44 Park St Unit 109,Essex Jct,VT,05452,802-999-9197
"Herrmann Construction, Inc.",254 Airport Road,Manchester Center,VT,05255,802-362-4400
Hidden Springs Maple LLC,162 Westminster Road,Putney,VT,05346,802-387-5200
High 5 Adventure Learning Center,130 Austine Drive,Brattleboro,VT,05301,802-254-8718
High Meadows Farm And Greenhouses LLC,742 Westminster West Rd,Putney,VT,05346,802-387-6050
Highland Ridge Traditions LLC,58 Hibbard Hill Rd,Orwell,VT,05760,802-948-2100
"Highland Sugarworks, Inc.",49 Parker Rd,Websterville,VT,05678,802-479-1747
Hillbilly Trucking LLC,16 Dairy Ctr Ln,Enosburg Fls,VT,05450-5415,802-343-2569
Hillside Customs LLC,77 Goodyear Lane,Cambridge,VT,05444,802-644-6455
Vermont Welding Supply,191 Sherman Lane,New Haven,VT,05472,802-453-7345
"Hodgdon Bros & Sons, Inc.",8 Hodgdon Dr,Swanton,VT,05488,802-868-7280
Hop To It Towing LLC,100 Cleveland Ave,Rutland,VT,05701,802-342-6874
Hottes Trucking,Orchard Dr,Bridport,VT,05734,802-373-7215
"Houghton Sanitary Service, Inc.",416 Guilford Center Rd,Guilford,VT,05301,802-254-9221
Hound Dog Express LLC,80 Old Hollow Rd,No Ferrisburgh,VT,05473,802-425-3325
Quityabitchin Farms And Garage,123 Bennett Rd,Saint Johnsbury,VT,05819,180-274-8888
H Stickney Iii Trucking-excavating,6310 Whipple Hollow Rd,Florence,VT,05744,802-459-2421
"Howe Transport, Inc.",33 Russell Rd,Tunbridge,VT,05077,802-505-0106
However Wild Honey,1240 Myers Rd,Shaftsbury,VT,05262,802-733-4761
"Hp Lumber, Inc.",220 Robillard Rd ,Stamford,VT,05352-9540,802-694-1411
"Hubbard Brothers, Inc.",1678 Cold River Rd,North Clarendon,VT,05759,802-773-2259
Huestis Farm Supply LLC,3877 Crown Point Road,Bridport,VT,05734,802-758-2289
"Hulbert Supply Co, Inc.",332 Pine St,Burlington,VT,05401-4776,802-862-6426
Hulett Trucking LLC,1290 Rt 30,W Pawlet,VT,05775,802-645-9326
Hunt's Farm Supply LLC,126 Hunt Farm Drive,Jeffersonville,VT,05464,802-644-5627
"Hunter Excavating, Inc.",2218 Route100,S Londonderry,VT,05155,802-856-7165
"Huntington Homes, Inc.",344 Fassett Road,East Montpelier,VT,05651-0099,802-479-3625
Hutchinson Trucking,Rfd 1 Box 163 Godfrey Rd,East Thetford,VT,05043,802-785-4453
"I H Charbonneau & Son, Inc.",1881 Sheldon Road,St Albans,VT,05478,802-524-6903
Igloo Trucking System LLC,345 Farrell St Apt 109,S Burlington,VT,05403,907-268-7761
Iii D LLC,91 Middle St,Newport,VT,05855,802-829-9004
Imne Independent Merchandisers,182 Loveland Hill Rd,White Riv Jct,VT,05001,802-291-1790
North Country Linen,1 Lemnah Drive,St Albans,VT,05478,802-524-5059
Infinity Trucking,1722 Baptist St,Williamstown,VT,05679,802-433-6232
Integral Art Solutions LLC,81 Clark St,Brattleboro,VT,05301,802-579-8854
Intervale Compost Products,282 Intervale Road,Burlington,VT,05401,802-660-4949
Iron Mountain Iron & Equipment LLC,9271 Vt Route 9,Woodford,VT,05201,802-447-3497
Iroquois Manufacturing Company,695 Richmond Road,Hinesburg,VT,05461,802-482-2155
Tow Head Trucking,1734 N Church Rd,Danville,VT,05828,802-473-2035
Island Excavating Corp,4 Island Circle,Grand Isle,VT,05458,802-372-4473
Israil Gafurov,12 Cottage Grove 4,S Burlington,VT,05403,802-373-4145
From The Ground Up,87 Cannon Dr,Rutland,VT,05701,802-775-1436
Iurcceni LLC,351 Farrell St Apt 305,S Burlington,VT,05403,816-401-0302
"J & B Trucking, Inc.",640 Charleston Rd,Island Pond,VT,05846,800-582-4010
J & E Transport LLC,70 Happy Hill Rd,Lyndonville,VT,05851,802-626-3101
"J & F Laden, Inc.",1047 Pumpkinvillage Rd,Fairfield,VT,05455,802-933-2302
J & J Blake Excavating LLC,100 Preserve Rd,Fairlee,VT,05045,802-333-4251
"J & J Trucking Co, Inc.",Route 133,Pawlet,VT,05761,802-325-3084
"J & L Service Center, Inc.",216 South Main Street,Saint Albans,VT,05478,802-524-9070
J & M Transport LLC,155 Crabapple Ln,Hyde Park,VT,05655,802-760-9345
J & N Transport,437 Nichols Rd,Fairfax,VT,05454,802-598-3716
J & S Diversified,66 Turco Dr,Cavendish,VT,05142,802-226-7681
J & T Trucking LLC,230 Airport Road,Shaftsbury,VT,05262,802-447-7575
"J A Devos And Sons, Inc.",2263 Greenbush Road,North Ferrisburg,VT,05473,802-425-3020
"J A Mcdonald, Inc.",585 Gilman Road,Lyndon Center,VT,05850,802-626-5201
"J B Trucking, Inc.",640 Charleston Rd,Island Pond,VT,05846,800-582-4010
J Brown Logging LLC,624 York St,Poultney,VT,05764,802-345-8045
"J C B Colby, Inc.",748 Bobbin Mill Road,Lunenburg,VT,05904-0123,802-892-7795
"J D Transportation, Inc.",100 Cleveland Ave,Rutland,VT,05701,802-775-0468
J E Thompson's Garage,Route 7a Main Street,Shaftsbury,VT,05262,802-442-4688
J Fleury Trucking LLC,152 Partridge Ln,Milton,VT,05468,802-233-9351
J H Tire Service LLC,551 Ledge Rd Lot 1,Grafton,VT,05146,802-869-3213
J Hector Tremblay,70 North Rd,Berkshire,VT,05450-5289,802-933-5139
Landshapes,88 Rogers Lane,Richmond,VT,05477,802-434-3500
"J Lemieux Truck Brokerage, Inc.",595 Mooney Road,St. Johnsbury,VT,05819,802-748-4597
J P Logistics LLC,1495 Leighton Hill Rd,Wells River,VT,05081,203-654-0988
"J P Sicard, Inc.",1369 Glover Road,Barton,VT,05822,802-525-9506
"J&b International Trucks, Inc.",964 Hercules Drive,Colchester,VT,05446,802-655-1000
J&e Trucking LLC,2 Stevens Orchard Rd,Orwell,VT,05760,802-345-6755
"J&j Waterhauling, Inc.",67 Traverse Place,Rutland,VT,05701,802-747-6097
"J&n Excavation, Inc.",392 Lost Lake Road,Arlington,VT,05250,802-375-9972
J&o Trucking LLC,15 North St Apt A,Vergennes,VT,05491-1104,802-825-3706
Jj & Sons Logging,401 Brook Road,Chelsea,VT,05038,802-685-4567
"Jack F Corse, Inc.",5812 Rt 15e,Cambridge,VT,05444-0300,802-644-2749
Road Hawg Bbq Swine Dining,2272 Fay Brook Road,Sharon,VT,05065,802-296-1856
Walker Farm,1190 Us Route 5,East Dummerston,VT,05346,802-254-2476
"Jackman's, Inc.",32 Pine St,Bristol,VT,05443,802-453-2381
Jacob Melville,501 Mason Hill Rd N,Pownal,VT,05261,802-823-7281
Parent Family Farm,15 Monument Rd,Swanton,VT,05488,802-868-2514
Rainville Ranch,1159 Gore Rd,Highgate Ctr,VT,05459,802-868-2009
Jakebeau Transport LLC,209 Lavigne Rd,Colchester,VT,05446,802-999-4933
Jam Fuel,23 Bridge St,Windsor,VT,05035,802-682-4328
J & M Auto,2 Johns Road,Grafton,VT,05146,802-875-4218
James B Gray,2168 Ten Mile Square Road,Island Pond,VT,05846,802-723-4335
J & D Booska Trucking,254 North Orwell Rd,Orwell,VT,05760,802-948-2455
Leicester Service Center,581 Us Rt 7,Leicester,VT,05733,802-247-8814
James D Nickles,69 Harvey St App 1,St Johnsbury,VT,05819,802-748-8084
Lead Escort Services,112 South Main Street #205,Stowe,VT,05672,802-535-4779
James A Donovan Trucking,1878 Collins Mill Rd,Newport Ctr,VT,05857,802-334-6677
James E Coombs,West Street,Fair Haven,VT,05743,802-265-3174
Jim Sweeney,364 Valley View Road,West Dover,VT,05356,802-348-9994
"James Irish, Inc.",1386 Grant Road,Marlboro,VT,05344,908-399-2532
Farrington Transport,160 Whitecap Road,Colchester,VT,05446,802-862-0309
Reliance Lp Service,24 Deso Dr,Alburgh,VT,05440,802-782-2276
"Shufelt & Sons Trucking, Inc.",2506 Calendar Brook Rd,Sutton,VT,05867,802-626-9698
Jr Lacourse,47 Park St,Barre,VT,05641,802-279-4524
Havill Excavating,198 Lois Lane,South Pomfret,VT,05067,802-457-4024
Jim Lunnie Const,116 Prospect St,Concord,VT,05824,603-306-2010
Abbott & Son,322 Danville Hill Rd,Cabot,VT,05647,802-595-0809
James Cloud Logging & Trucking LLC,6131 Rt 106,Reading,VT,05062,802-484-5946
"James Rogers Trucking & Excavation, Inc.",419 Hill Road,Brookline,VT,05345,802-365-7951
Hopeful Acres Transport,185 Hopeful Acres Dr,Sutton,VT,05867,802-249-7011
James Takaki,21 Washington St,Brattleboro,VT,05301,136-077-4102
James W Newton,800 Colin Drive,Bristol,VT,05443,802-453-3019
Jameson Trucking,Box 1164 Rd 1,Vergennes,VT,05491,802-259-2682
Janet C Austin,1074 Vt Rt 113,W Fairlee,VT,05083,802-333-9358
Express Lane Enterprises,P. O. Box 422,Chester,VT,05143,802-875-4332
Japanac Transport LLC,109 North Gate Rd,Burlington,VT,05401,802-658-4841
Rahpid Transit,10 Summer St.,Morrisville,VT,05661,N/A
Jason Burt,121 Burtland Dr,St Albans,VT,05478,802-524-0921
Jason Cartwright Trucking LLC,1625 Scott Hill Rd,Berlin,VT,05602-9190,802-272-2998
Fornwalt Excavation LLC,2672 Goshen Road,Bradford,VT,05033,802-222-4685
Cook's Transport,159 Choiniere Rd,Bristol,VT,05443,802-310-1077
Jason M Perry,274 Picknell Road,Westminster,VT,05158,802-463-3038
J Stone And Son Transport,1675 Vt Rt 125,Hancock,VT,05748,802-767-3156
"Jason Patenaude Excavating, Inc.",311 Fortin Road,Derby,VT,05829,802-766-4567
Jason Reynolds,46 Deer Run Road,Alburgh,VT,05440,802-796-4577
Old Timers Timber Frames,16 Main St,Saxtons River,VT,05154,802-376-9529
Perfectpiece,4361 Main Street,Manchester,VT,05254,802-768-8341
Tydans Moving,93 Ledgewood Road,Chester,VT,05143,802-875-6677
"Jay Peak, Inc.",830 Jay Peak Road,Jay,VT,05859,802-988-2611
Jb Trucking & Construction,2825 Highland Gray Rd,Poultney,VT,05764,802-287-2501
Jbe Transportation,647 Bugbee St Apt 21,White River Jct,VT,05001,802-738-5323
Jmb Transport,630 York St,Lyndonville,VT,05851,802-274-3697
Jbl Logging,2482 Old Silo Rd,St Johnsbury,VT,05819,603-616-3911
Jbm Carmel LLC,14 Morse Road,Bennington,VT,05201,802-442-5115
Jc Robinson Logging & Exc,205 Fairview Ave,Wilmington,VT,05363,802-451-6192
"Jcv, Inc.",24 North St,Middletwn Spg,VT,05757,540-966-2174
Joann's Uniforms,22 Fern Court,Colchester,VT,05446,802-862-0290
Jd's Solution Express LLC,82 Hickok St Apt B,Winooski,VT,05404,515-556-8931
Jean L Rondeau,1274 Farrar Rd,Newport Center,VT,05857,802-334-8646
Jp Lemire Farm And Trucking,218 Browns River Rd,Essex Jct,VT,05452,802-878-4297
Jeburt LLC,208 Murray Rd,Whiting,VT,05778,802-989-4248
"Jedda, Inc.",9 Cambridgeport Rd,Rockingham,VT,05143-9001,802-875-3703
Bronson Transport,292 Quiet Valley Road,Shoreham,VT,05770,802-897-2112
Jeff Dunbar Trucking,Rr 1 Box 55a,Concord,VT,05824,802-695-1065
"Jeff Locke Trucking, Inc.",4031 Creek Rd,Irasburg,VT,05845,802-755-6747
Jeff Pierce Trucking LLC,1338 Brookman Road,Pownal,VT,05261,802-823-5772
Jeff Royea Trucking,49 Glen Sutton Rd,Richford,VT,05476,802-848-7173
Jeffery Quillia,277 River St,Bethel,VT,05032,518-645-5052
J A S Transport,80 Leahy Road,Morrisville,VT,05661,802-888-9556
Jeffrey Bh Cook,5305 Plank Road,New Haven,VT,05472,802-349-8782
Jeffrey L Treadway,2006 Cutting Hill Rd,Shoreham,VT,05770,802-989-0832
Jeffrey Lang,44 Hanley Lane,Jericho,VT,05465,802-899-5166
Jeffrey Lefebvre,East Lakeshore Drive,Colchester,VT,05446,802-878-2097
Jeffrey P Davis,1964 West Road,Ira,VT,05777,802-235-9219
Jlg Distributating,390 Clay Road,North Thetford,VT,05054,180-229-9894
J P Brennan & Sons Trucking,1011 Route 100,Newport Center,VT,05857,802-334-7957
Blue Mt Trucking & Excavating,2476 Witherspoon Rd,Groton,VT,05046,802-584-3118
Vermonts Finest Lawncare & Snowplowing,15 Cobble Hill Lane,Chittenden,VT,05737,802-779-8382
Jeremy Stacey,107 That A Way Rd,Fair Haven,VT,05743,802-353-9090
K & J Distributing,70 Meacham,Wallingford,VT,05773,802-446-2920
Jerry D Wellspeak,31 Buck Hill Road,Shaftsbury,VT,05262,802-733-6496
Jerry Dudleys Auto Connection,395 Washington St,Barre,VT,05641,802-476-8114
Jersey Street Transport,Rd 1,Vergennes,VT,05491,802-759-2516
J & A Booska Transport,47 Daigneault Hill Rd,Orwell,VT,05760-9763,802-948-2331
"Jesse Conley Jr Trucking, Inc.",248 Roaring Brook Rd,Barton,VT,05822,802-525-3679
Pipewrench Water Systems & Trailer Sales,7150 Rt 100,West Wardsboro,VT,05360,802-896-6202
"Jet Service Envelope Co, Inc.",80 East Road,Barre,VT,05641,802-229-9335
"Jewell Specialized, Inc.",239 A Street,White River Jct,VT,05001,202-521-1484
"Jewell Transport, Inc.",29 A Street,White River Junction,VT,05001,802-295-5022
Garland Mowing,36 Rounds Hill Rd,Putney,VT,05346,802-387-4253
Polar Bear Enterprises,52 Green Mountain Drive,Morrisville,VT,05661,802-888-7511
Green Mountain Diesel,894 South Barre Rd,Barre,VT,05641,802-479-4579
Jimmy Kennedy,1028 East Hill,Plainfield,VT,05667,802-454-8649
"Jj's Bus Service, Inc.",535 Rte 114,Norton,VT,05907,802-822-5267
Jm Trucking LLC,696 Barker Rd,Post Mills,VT,05058,802-356-0257
Jml Transport LLC,454 Sugarbush Farm Rd,Woodstock,VT,05091,802-356-4273
Windhorse Transportation,20 Wakefield Street,Hardwick,VT,05843,802-291-3281
"Joe Audet Auto Truck Sales, Inc.",438 Elmore Road,Worcester,VT,05682,802-223-8151
"Joe Hance Trucking, Inc.",375 Gorge Road,North Clarendon,VT,05759,802-775-4417
Joe Hurley,112 North Main St Apt 2,St Albans,VT,05478,802-782-7810
John A Mahoney And William H Carris,P. O. Box 696,Rutland,VT,05701,N/A
Pepperidge Farm,641 N Kirby Rd,Kirby,VT,05851,802-626-0946
Lil Johns Trk,3164 Notrh Ave,Burlington,VT,05401,802-862-8927
J B Gladstone Enterprise,161 Mallary Road,Bradford,VT,05033,802-222-9232
John Butson Iii Trucking LLC,551 Route 12,Hartland,VT,05048,603-348-0548
John C Capen,2266 West St,Proctor,VT,05765,802-236-7856
John Cerreta Excavation LLC,4313 East Rd,Shaftsbury,VT,05262,802-447-7901
"John Chadwick, Inc.",164 A Rt 100,West Dover,VT,05356,802-464-8207
John Couture,728 Dexter Mountain Rd,Glover,VT,05857,802-274-5320
Cravinho Property Maintenance,20 Front St,Bellows Falls,VT,05101,802-463-9488
Jfb Trucking,Rt 5,Mcindoe Falls,VT,05050,802-633-2814
"John Furgat Lumber Co, Inc.",Pleasant Valley Road,Bellows Falls,VT,05101,802-869-2161
"John G French & Sons Trucking, Inc.",515 Pleasant Valley Rd,Underhill,VT,05489,802-899-3807
John G Thomas Excavating,1248 Vt Rte 31,Poultney,VT,05764,802-287-5810
Kennison Transport,92 Highland Ave,Newport,VT,05855,802-334-2294
John Hess Trucking,174 Pleasant St,East Arlington,VT,05252,802-375-6815
Laperle's Concrete,205 West Meadow Ct,Pownal,VT,05261,802-823-7748
John M Daniels Trucking LLC,47 Justin Morrill Hwy,S Strafford,VT,05070,802-765-4936
"John Martin Enterprises, Inc.",735 Blissville Rd,Castleton,VT,05735,802-265-4642
Norlander Transport,2000 Calendar Brook Rd,Lyndonville,VT,05851,802-673-5214
John Osowski,685 Center Road,Corinth,VT,05039,802-439-9385
Jacks Composters & Rain Barrels,2681 Us Route 2,North Hero,VT,05474,802-372-8375
Cobble Creek Nursery LLC,991 Tyler Bridge Rd,Monkton,VT,05469,802-453-3889
Loomis Trucking,1121 Vt Rt 149,West Pawlet,VT,05775,518-642-0500
"John Rogers Sons, Inc.",39 Curtis Rd,Barre,VT,05641,802-476-6473
J L Smith Trucking,7259vt Rt 113,Vershire,VT,05079,802-685-3447
Butterworks Farm LLC,421 Trumpass Road,Westfield,VT,05874,802-744-6855
John Trombley Jr,1549 Pencil Mill Rd,Castleton,VT,05735,802-273-2527
Johns Trucking,20 Park Street,Randolph,VT,05060,802-728-3912
"Johnson Energy, Inc.",573 Business Route 4,Center Rutland,VT,05736,802-773-8143
Jon D Sargent,2657 Creamery Rd,Guilford,VT,05301,802-254-3465
An Artistic Arborist,3279 Peavine Blvd,Bethel,VT,05032,802-234-5176
Gillilan Brothers Truck,4393 Vt Rt 15,Jeffersonville,VT,05464,802-644-2516
Jon's Trucking,1310 Goosegreen Rd,Vershire,VT,05079,802-685-3818
"Arborclimb, Inc.",54 Moon Hollow Drive,Putney,VT,05346,180-227-5894
"Jordan Utility Connection, Inc.",472 Clay Rd,North Thetford,VT,05054,802-356-1147
Joe & Sons Garage,131 East Shore South,Grand Isle,VT,05458,802-372-9212
Bourne's Service Center,48 Foundry Street,Morrisville,VT,05661,802-888-5764
Joseph Howard,435 River St,Castleton,VT,05735,802-747-8486
Joseph Juhasz,960 Upper Falls Road,Perkinsville,VT,05151,603-892-2171
"Joseph P Carrara & Sons, Inc.",167 N Shrewsbury Rd,N Clarendon,VT,05759,802-775-2301
Whitehouse Fuels,102 North Winooski Ave,Burlington,VT,05401-3768,802-864-4965
Interstate Forestry Services,332 Craigue Hill Rd,Springfield,VT,05156,802-356-4205
Brattleboro Towing And Recovery,750 Franklin Road,Guilford,VT,05301,802-257-5649
Josh Fenoff Siteworks LLC,367 Fenoff Heights Lane,Waterford,VT,05819,802-535-7941
Artin Motion Watch That Van Go,60 Gonyeau Road,Milton,VT,05468,802-893-7777
Meadowmere Farm,834 West Rd,Vernon,VT,05354,802-254-2176
Josh Ellis Auto Transport,26 Washington St,Fair Haven,VT,05743,802-342-6813
Josh Gervais Trucking,64 Patch Road,Enosberg,VT,05450,802-752-7131
Kennedy & Sons Transportation,356 Pleasant St,South Ryegate,VT,05069,802-274-0773
Imperial Hay Transport,1101 North Rd,Royalton,VT,05068,802-234-2141
Jp Trucking,57 Williams St Ext,Bellows Falls,VT,05101,802-463-4658
Green Mountain Mainlines,3362 Fairfield Rd,East Fairfield,VT,05448,802-370-5146
"Jt Logging Exc, Inc.",279 Hagan Hill Rd,Reading,VT,05062,802-484-5610
Jtb Towing And Recovery LLC,8920 Scotch Hollow Rd,Newbury,VT,05051,802-429-2182
"Justin Companies, Inc.",9 Harrison Ave,White River Junction,VT,05001,802-295-7171
Tough Country Excavating,77 Country Way,Barre,VT,05641,802-318-1435
Justin M Almeida,5181 Lake Street,Addison,VT,05491,802-343-5608
Jw Nelson Logging & Trucking,571 Pond Hill Rd,Lunenburg,VT,05906,802-892-6671
K&b Transport,26 Short St,Franklin,VT,05457,802-933-2246
K & J Trucking LLC,453 Main St Apt 2,Enosburg Fls,VT,05450,802-582-0907
K&r Transport LLC,181 Rod Key St,Lyndonville,VT,05851,802-626-5346
"K A Harvey's Mfg Housing, Inc.",270 Harrell St Building 2,Morrisville,VT,05661,802-888-5995
"K D Hauling, Inc.",473 Morse Rd,Bennington,VT,05201,802-442-6800
K L Winning Transportation LLC,8 Mechanic St,Fair Haven,VT,05743,802-342-0754
"K Ruane & Sons Excavating, Inc.",29 Mountain View Road,Tinmouth,VT,05773,802-446-2924
K W Smith Trucking,131 Wells Fargo Rd,Thetford Center,VT,05075,802-785-4645
"K Wright, Inc.",850 Hinesburg Road,South Burlington,VT,05403,802-862-1563
Kab Trucking,6337 Rt 5,Newbury,VT,05051,802-866-5525
Kadawe Load Services,33 Malletts Bay Ave Apt B,Winooski,VT,05404,802-324-1996
Butch's Moving & Storage,90 Birge St,Brattleboro,VT,05301,802-254-4455
Kalow Technologies LLC,238 Innovation Drive,North Clarendon,VT,05759,802-775-4633
"Kam Service, Inc.",3036 U S Route 7,Pittsford,VT,05763,802-483-9900
Little Mover,838 Keyser Hill Rd,St Johnsbury,VT,05819,802-748-9112
Karl Armstrong Masonry LLC,5202 Memorial Dr,Lyndon,VT,05849,802-626-8775
"Karl R Johnson Trucking, Inc.",3092 S Wheelock Rd,Lyndonville,VT,05851,802-626-8769
Kass LLC,3775 Vt Rt 313,Arlington,VT,05250,802-430-7314
"Kdd Auto Parts, Inc.",732 Waits River Road,Bradford,VT,05033,802-222-9224
Woodstock Sunoco Tire & Auto,65 Pleasant Street,Woodstock,VT,05091,802-457-1114
Keane Trucking,212a Prechtl Rd,Orange,VT,05641,802-476-5617
"Keeler Bay Service Sales, Inc.",522 Us Route 2,South Hero,VT,05486,802-372-6139
Northeast Farm Service,4497 Rt 5,Irasburg,VT,05845,802-754-8863
Keith A Colby,1891 West Lunenburg Road,Lunenburg,VT,05906,802-535-1457
Keith Clifford Contractor,1421 New Boston Rd,Norwich,VT,05055,802-649-3623
Wwsc Whatever Whenever Shipping Company,67 Hardwood Hill Rd,Richford,VT,05476-9643,802-848-3652
Hatch Trucking,118 Brook St,Williamstown,VT,05679,772-708-9532
O K Chase & Sons,167 Hewitt Hill Rd,North Pomfret,VT,05053,802-457-3499
Keith Nott Trucking,58 Derby Ln Jericho St,White River Junction,VT,05001,802-295-1962
Keith Trischman,5385 South Rd,Bradford,VT,05033,802-522-9566
Wolstenholm Logging Truck & Excavation,1408 Rt 113,East Thetford,VT,05043,802-785-2912
Kelley Transport LLC,167 St John St,Rutland,VT,05702,802-773-8523
"Kelley View Farm, Inc.",734 Hinman Settler Rd,Newport,VT,05855,802-766-8878
Kellogg Enterprises LLC,2446 Us Route 5 N,Windsor,VT,05089-9062,802-461-3681
Kelvin Smith,984 Valley View Road,White River Junction,VT,05088,802-295-8956
"Ken Mitchell Trucking, Inc.",1622 Randolph Road,Morrisville,VT,05661,802-888-8970
Ken Willard Trucking,1344 Whiting Rd,Leicester,VT,05733,802-247-6810
Ken Winning Transportation LLC,8 Mechanic St,Fair Haven,VT,05743,802-342-7901
Ken's Hauling And Property Maintenance LLC,1133 Carter Hill Rd,Highgate Ctr,VT,05459,802-782-7911
Kenneth Bunnell & Sons,1047 Joes Brook Road,Saint Johnsbury,VT,05819-9803,802-633-4478
Skipp's Trucking,1073 Burroughs Rd,South Wheelock,VT,05851,802-626-3594
F A S Trucking,Roberts Rd,Ascutney,VT,05030,802-674-6797
"K Pope & Sons, Inc.",247 Cemetery Hill,Shoreham,VT,05770,802-897-7256
Kepm Trucking LLC,3851 Vt Route 22a,Addison,VT,05491,802-759-2238
Kerwick Trucking LLC,5 Center Bay Road,Alburgh,VT,05440,802-345-0321
Keurig Green Mountain,1 Pilgrim Park,Waterbury,VT,05676,802-882-2316
Kevin A Austin Trucking,379 Coach Road,Chester,VT,05143,802-275-3409
Groundworks Farm,697 Elm Street,Florence,VT,05744,703-347-2448
Kevin Jordan Excavating,15 Jewett St,Swanton,VT,05488,802-782-9612
"Kevin L Rogers, Inc.",52 Haven Cemetery Rd,South Royalton,VT,05068,802-763-2844
Kml Transport,5225 Route 31,Poultney,VT,05764-9761,802-287-0610
Kevin R Barrup Trucking,2888 Rt 111,Derby,VT,05829,802-334-2331
Kilburn Transport LLC,2379 Vt Rt 100,Eden,VT,05652,802-279-4228
Killington Auto Repair And Towing LLC,2825 Killington Rd,Killington,VT,05751,202-521-1484
Southstream Services,2310 Southstream Road,Bennington,VT,05201,802-688-3932
Kingdom Express Ltd,1161 Portland St,St Johnsbury,VT,05819,802-748-8170
Kingdom Peaces LLC,1332 Stevens Road,Barton,VT,05875,802-525-1156
"Kingdom Trucking, Inc.",1456 Streansbrook Rd,Derby Line,VT,05830,802-895-2715
Kings Hill Trucking & Excavating LLC,890 Kings Hill Rd,Bakersfield,VT,05441,802-827-3767
Kingsbury Companies LLC,264 Madriver Park,Waitsfield,VT,05673,888-208-7217
"Kingsolo Transport, Inc.",893 Porter Point Rd,Colchester,VT,05446,802-881-2093
Kingzmen Delivery LLC,16 Avenue C,Burlington,VT,05408,802-399-7129
Kik Fenoff,1632 Rte 2 East,Danville,VT,05828-9833,802-684-3353
"Kitchen World, Inc.",83 Ethan Allen Drive,South Burlington,VT,05403,802-658-6971
Kjt Trucking LLC,54 Strawberry Hill,Windsor,VT,05089,802-272-8902
Kml Transport,5225 Route 31,Poultney,VT,05764,802-287-0610
"Kms Frame To Finish, Inc.",Pobox 4202,White River Junction,VT,05001,802-291-6923
Knapp Transport LLC,849 Chelsea Road,Bradford,VT,05033,717-377-0280
Knead Bread LLC,409 Farrell St Apt 116,S Burlington,VT,05403-4426,802-233-1049
Koraks Trucking,27 Waugh Farm Road,Swanton,VT,05488,802-868-4414
Kratt Brothers Company,36149 Rams Rock Road,Morrisville,VT,05661,613-686-6497
Kri Trucking LLC,54 Strawberry Hill,Windsor,VT,05089,802-272-0576
Ksrc Enterprises LLC,53 Memorial Drive,Montpelier,VT,05602,802-229-9742
Ktm Trucking,Clarendon Springs Rd,Clarendon,VT,05759,802-438-6164
"Kurrle Transport, Inc.",366 East Montpelier Road,Montpelier,VT,05602,802-223-5300
Kurt E Colby,1163 Bobbin Mill Rd,Lunenburg,VT,05906,802-892-1018
Kurt J Holmes Trucking,538 Back Center Rd,Lyndonville,VT,05851,802-626-9140
Kurtz Excavating Joshua P Kurtz,289 North Rd,Shaftsbury,VT,05262,802-442-6356
Kyle A Lothian,137 Vt Maple Drive,Franklin,VT,05457,202-521-1484
Blakemans Towing,354 Moore Rd,Sharon,VT,05065,802-763-7087
Polar Express,66 Silver Cir,Barre,VT,05641,802-397-4326
Kyle Greene,264 N Wolcott Rd,Wolcott,VT,05680,802-595-0683
L & D Safety Marking Corp,304 East Montpelier Road,Barre,VT,05641,802-223-6154
"L & G Fabricators, Inc.",137 Harwood Hill Road,Bennington,VT,05201-1016,802-477-0965
"L & R Trucking, Inc.",417 Kelly Cross Road,Salisbury,VT,05769,802-352-4476
L & T Auto Group LLC,2523 Portland St,St Johnsbury,VT,05819,802-748-0808
L A G Hauling LLC,43 Alpine St,Lyndonville,VT,05851-8737,802-473-2817
"L E Distributors, Inc.",262 Powderhorn Rd,Manchester Center,VT,05255,802-362-1942
L E Fairbrother Trucking,Hcr 25 Beaver Meadow Road,West Fairlee,VT,05083,N/A
L E Thompson LLC,4202 Rt 7a,Shaftsbury,VT,05262,802-442-6151
"L F Carter, Inc.",72 Field Ave,Pittsford,VT,05763,802-483-6461
"L F Trottier & Sons, Inc.",401 Dairy Hill Road,S Royalton,VT,05068,802-763-8082
"L H Davis Construction Moving, Inc.",19 Robinson Ave,Bennington,VT,05201,802-442-4374
"L Lemieux Sons Trucking, Inc.",595 Mooney Road,St Johnsbury,VT,05819,802-748-5394
L M Transport,50 Kendall Ave,Rutland,VT,05701,802-775-6764
L N A Trucking,Rr 3 Box 1032,Middlebury,VT,05753,802-462-3824
La Fleche Sr Trucking,29 So Main Street Apt #1,Fairhaven,VT,05743,800-422-4567
"Lacaillade Masonry, Inc.",3990 Main Road,Huntington,VT,05462,802-434-2043
Lacasse Installations LLC,528 Latham Rd,Thetford Center,VT,05075,802-785-4022
Laclairs Excavation LLC,185 Sand Hillrd,Glover,VT,05839,802-525-4530
Lacoste Trucking,320 Taconic Business Park Road,Manchester Ctr,VT,05255,802-362-5310
Lake Champlain Chocolate Co,750 Pine Street,Burlington,VT,05401-4923,802-864-1808
Lake Champlain Entertainment,135 Acorn Lane,Colchester,VT,05446,802-655-4344
"Lake Champlain Trans, Inc.",King Street Dock,Burlington,VT,05401,802-864-9804
"Laliberty Trucking, Inc.",6779 Us Rte 100,Troy,VT,05868,802-744-6642
"Lamoille Valley Ford, Inc.",222 Rte 15 W,Hardwick,VT,05843,802-472-5967
"Lamoille Valley Transportation, Inc.",643 Vt Rt 15 W,Morrisville,VT,05661,802-888-2103
Lamoille Woodcraft,990 Vt 15 E,Hyde Park,VT,05655-9370,802-888-6653
Lance J Bussino,137 Shunpike Rd,Mt Holly,VT,05758,802-259-3113
Vermont Sportscar,382 Hercules Dr,Colchester,VT,05446,802-655-3533
Land Air Express Of New England Ltd,59 Avenue C,Williston,VT,05495,802-860-7033
"Landmark College, Inc.",1 River Road South,Putney,VT,05346,802-387-1611
"Landons Trucking Repair, Inc.",Route 140,East Wallingford,VT,05742,802-259-2010
Larry Brown Excavating,50 Smith Haven Lane,South Londonderry,VT,05155-9234,802-824-3444
Larry C Hutchins Logging Trucking,448 North Street,Brandon,VT,05733,802-247-5527
Grant Trucking,239 Division St,Bennington,VT,05201,802-442-9960
Bb Trucking,Shores Hill Road,Granby,VT,05840,802-328-2671
Larry W Griswold,74 County Road,N Springfield,VT,05150,802-886-2365
Lasr Transport LLC,28 Pr 10,Middlesex,VT,05602,802-223-5504
"Lawes Agricultural Service, Inc.",622 Champlain St,Brandon,VT,05733,802-247-6874
L D Oliver Seed Co,26 Sunset Ave,Milton,VT,05468,802-893-4628
D & L Trucking,2181 Carpenter Hill Rd,Bennington,VT,05201,802-442-9606
Lawrence S Bills,241 Pike Hollow Rd,Stratton,VT,05360,802-896-6338
Lawrence Woodward,19 Route 14,White River Jct,VT,05001-0162,802-295-1018
"Lb Truck Services, Inc.",6243 Us Route 5,Westminster,VT,05158,802-722-4703
Maurices Service Center,265 N Main St,Saint Albans,VT,05478,802-527-0348
"Leach Family, Inc.",839 Sampsonville Rd,Enosburg Falls,VT,05450,802-933-5150
Pepsi Cola Brattleboro North Hampton,1566 Putney Road,Brattleboro,VT,05304,802-254-6093
Leblancs Auto,37 Willow Rd,Bennington,VT,05201,802-442-2308
"Ledge Tech Drilling And Blasting, Inc.",2657 Route 108 South,East Fairfield,VT,05448,802-827-3600
Lee J Swinton,5071 Plank Rd,New Haven,VT,05472,802-922-7226
Legendary Auto Worx LLC,351 Maple St ,White Riv Jct,VT,05001,802-295-7788
Lemington Timber Trucking LLC,76 Lyman,Lemington,VT,05905,802-277-4410
Ladja Farm,433 Leicester Whiting Rd,Whiting,VT,05778,802-623-8051
L R D Dispatch,Po Box 96,Hydeville,VT,05750,802-265-4621
