Company Name,Street Address,Address Locality,Address Region,Postal Code,Telephone
Aa Auto Recovery & Transportation,3100-1 College Street,Alexandria,VA,22306,571-839-1600
Defoggi Trucking,2314b Commerce Center Dr,Rockville,VA,23146,804-749-8880
B&j Trucking,14315 Ferndale Rd,Woodbridge,VA,22193,703-498-4796
Harmon Trucking,2337 Rush Fork Rd Sw,Floyd,VA,24091,540-789-4118
Vietnam Trucking,6430 Deepford St,Springfield,VA,22150,202-251-0231
Renal Clean,21427 Hull Street Rd,Moseley,VA,23120,804-639-2612
Universal Transport,8 Warwick Circle,Chesapeake,VA,23320,757-621-5876
Big Baby Trucking,5423 Scottsville Rd,Jeffersonton,VA,22724,540-937-4605
2 Blessed Transpotation LLC,1829 Sunsprite Loop,Chesapeake,VA,23323,757-966-9962
Kidd Timber,5935 Meadow Creek Road,Wingina,VA,24599,434-983-3134
Merrills Transport,42 Peterborough Drive,Hampton,VA,23666,757-777-8048
Patrick Trucking,9432 Abram Penn Hwy,Patrick Springs,VA,24133,276-629-1687
R&r Hauling,19139 Kings Dr,Jeffersonton,VA,22724,540-341-1932
Mcdaniel Transport,540 Greenhouse Road,Rustburg,VA,24588,434-821-3131
Jj&d Logistics,46616 Chase View,Sterling,VA,20164,571-490-5032
Sandidge Trucking,23599 Botetourt Road,Iron Gate,VA,24448,540-473-3659
Jad Transportation,145 Dearborn Road,Evington,VA,24550,434-426-2085
All American Trucking,33 George Walker Drive,Stafford,VA,22556,540-842-9928
Hepner Tire & Auto,441 Hoover Rd,Woodstock,VA,22664,540-459-2178
Gf Transportation,2449 Brook Overlook Court # 201,Herndon,VA,20171,703-496-0804
Skinner Trucking,909 E Liberty St,Norfolk,VA,23523,757-803-5108
Eddie Raines Trucking,15901 Monrovia Rd,Mineral,VA,23117,540-854-6719
Nash Equipment And Hauling,771 Patrick Henry Highway,Amherst,VA,24533,434-946-5404
Dammer Hown Trucking,1420 Government Road,Williamsburg,VA,23185,757-784-8150
Move It Now Of North Central Virginia,7206 Impala Drive Suite 204,Richmond,VA,23228,804-262-0304
Train's Truckin',3191 Double Bridges Rd,Spout Spring,VA,24593,434-352-8397
L Mast Transport,279 Sylvatus School Rd,Hillsville,VA,24343,276-733-5316
Midnight Train Express,292 Jay Street,Gate City,VA,24251,276-386-7205
Alan Transport,5501 Merchant View Sq 159,Haymarket,VA,20169,703-987-6898
D A C Transport,3726 Richard Ave,Fairfax,VA,22031,703-593-0430
A B Transport,2688 Dyres Mill Court,Woodbridge,VA,22191,703-595-1738
Wallace Trucking,224 Frasher Dr,Clear Brook,VA,22624,540-247-1995
Jamaho Trucking,5792 Northampton Blvd,Virginia Beach,VA,23455,757-228-5625
Giles Logistics,8205 Longvue Circle,Suffolk,VA,23436,757-238-8343
Deb's Auto Transport,1801 Dinwiddie Av,Richmond,VA,23224,804-687-2224
K & S Specialized Hauling LLC,324 Bell Rd,Dillwyn,VA,23936,804-492-9751
Spauldings Distributing,732 Cavitts Creek Road,North Tazewell,VA,24630,276-979-6811
"Hrd Trucking, Inc.",9150 Barrick St # 202,Fairfax,VA,22031,571-437-4092
Hodges Iii Transport,3346 Maplelawn Ave,Roanoke,VA,24012,540-400-2445
"Frd Trucking, Inc.",44470 Keller Sq # 200,Ashburn,VA,20147,571-238-6491
Qrj Hauling Service,2192 Huguenot Springs Rd,Midlothian,VA,23113,804-794-4665
"Monkeys Trucking, Inc.",1206 Marengo Road,Lacrosse,VA,23950,434-636-5074
Nationwide Trucking Service,10124 Overlook Ct,Woodford,VA,22580,202-246-9139
Atlantic Transport Va,822 Forbes Street,Fredericksburg,VA,22405,540-760-0124
Gibson Trucking,26407 Us Highway 58,Castlewood,VA,24224,276-345-1230
Haskins Hauling,3985 E Gretna Rd,Gretna,VA,24557,434-656-2547
Ace Trucking,1438 Elk Garden Road,Lebanon,VA,24266,276-701-5822
Tjg Express,3021 Pierce Road,Saluda,VA,23149,804-785-2027
Tom Harvey Trucking,1290 Screechum Hollow Rd,Bedford,VA,24523,540-874-4821
Rocking D's Hay Hauling,350 Hotchkiss Road,Churchville,VA,24421,540-337-6433
D C Floors,619 Hellen Ave,Chesapeake,VA,23322,757-410-4561
Lm Transport,33127 Christanna Hwy,Blackstone,VA,23824,570-982-9720
J Dismukes Transportation LLC,1765 Chase Pointe Circle Apt 1111,Virginia Beach,VA,23454,973-789-5320
Big Dreams Hauling,9305 James Madison Parkway,King George,VA,22485,540-656-3504
Zeal Transport,1270 Daniel Rd,Axton,VA,24054,276-650-8014
Trust Andrew's Trucking,63 Leesburg Mobil Park,Leesburg,VA,20175,571-283-1670
Wallace Trucking,936 Barton Oaks Place,Herndon,VA,20170,703-707-9269
Harold Blankenship Trucking,24204 Drake Road,Abingdon,VA,24211,276-628-1641
C & V Hauling,520 Olney Road,Vinton,VA,24179,540-400-0929
The Fuel Man,7356 Woodville Lane,Hanover,VA,23069,804-730-9495
Op Delivery Services,12519 Oakwood Dr,Woodbridge,VA,22192,703-232-2040
Jkg Deliveries,49 Glacier Way,Stafford,VA,22554,540-720-2602
Lloyd Lee Reid Trucking,107 W 6th Ave,Lawrenceville,VA,23868,434-848-1719
Tom - Tom Trucking,117 Lakeview Rd,Franklin,VA,23851,757-641-8329
Dennis Trucking,26489 Payne Road,Bloxom,VA,23308,757-709-8401
Roop's Auto,424 Mud Creek Rd,Whitetop,VA,24292,276-388-3492
Douglas Transport,9100 Wycliff Rd,Richmond,VA,23236,804-276-1603
Jm Mobile Home Service,70 Lyons Hollow Rd,Lambsburg,VA,24351,276-755-3878
Jam Trucking Company,687 North Main Street,Chatham,VA,24531,434-429-8943
Danabee Transport,1381 Eisenhower Circle Apt 402,Woodbridge,VA,22191,703-296-0771
Master Transportation,805 West Church Road,Sterling,VA,20164,703-593-4550
Oak Ridge Construction Services LLC,5205 Crooked Creek Lane,King George,VA,22485,540-903-8369
Emac Trucking LLC,6843 Cabin John Rd,Springfield,VA,22150,571-297-4305
A & A Trucking,3953 Cavalry Lane,Penn Laird,VA,22846,540-435-6464
Rock Bottom Transport,1762 Stoney Battery Road,Marion,VA,24354,276-783-7404
Potomac Services,20599 Quarterpath Trace Circle,Sterling,VA,20165,703-444-5155
Navid Trucking,7700 Tremayne Pl Apt 108,Mclean,VA,22102,703-498-6382
R B Trucking,5048 Better Homes Drive,Sugar Grove,VA,24375,276-677-3601
Asap Transportation,613 Morrill Ave Se,Roanoke,VA,24013,540-342-6880
Payless Movers,5819 Cannon Lane,Alexandria,VA,22303,571-318-8830
Campbell Trucking,158 Dillard Hill Rd,Lowesville,VA,22967,434-277-5165
Icon Limousines,138 S Rosemont Rd Suite 205,Virginia Beach,VA,23452,757-498-7433
Atl,6312 Seven Corners Center #254,Falls Church,VA,22044,703-879-8624
Darkside Transportation,9550 Old Creek Drive,Fairfax,VA,22032,571-220-1757
Amg Transprot,130 Fisher Street,Christiansburg,VA,24073,540-381-9793
Peace Of Mind Equine Care And Transport LLC,204 Grace Street,Smithfield,VA,23430,757-818-5834
Warren Jr Trucking,14040 Ivor Rd,Sedley,VA,23878,757-653-2319
Bonilla Trucking,1213 Peoples Way,Virginia Beach,VA,23451,910-286-5556
El Transportation,2810 Kenmore Road,Richmond,VA,23228,804-727-4389
Bba Trucking,21051 Stanford Square Apt 101,Sterling,VA,20166,703-932-5176
L & C Transportation,31420 Nocks Landing Rd,Atlantic,VA,23303,757-824-0098
Iti,153 Wellman Drive,Norfolk,VA,23502,757-410-0177
Rahel Trucking,3656 Stonwall Manor Dr,Triangle,VA,22172,703-441-7963
Melvin Moore Trucking,169 Bellview St,Staunton,VA,24401,540-886-4132
Jama Trucking,3245 Rio Dr Apt 412,Falls Church,VA,22041,571-251-3638
Durango Distribution,7501 Mahoney Drive,Lorton,VA,22079,410-458-5379
Td Transport,1411 Kara Court,Virginia Beach,VA,23454,757-292-1738
End To End Trucking,1014 Tall Tree Rd,Wirtz,VA,24184,540-721-6613
Triad Transport,6804 Lakeridge Dr,Fredericksburg,VA,22407,540-287-2557
Leesburg Auto Finance,355 East Market St,Leesburg,VA,20176,703-779-0000
Dc Transport,105 Peverall St,Goodview,VA,24095,540-890-6052
Brennan Transport,3419 Shady Creek Rd,Richmond,VA,23234,804-914-2741
C & K Transportation,3912 Autumn Mist Drive,Chesterfield,VA,23832-8491,804-378-2692
L M Ivey Trucking,3103 Moss Side Ave,Richmond,VA,23222,804-321-5941
G&t Trucking,2444 Whitney Court,Charlottesville,VA,22911,434-825-5526
Max Truckin,14866 Dorian Dr,Woodbridge,VA,22193,571-237-7365
I An L Trucking,123 North 8th Street,Suffolk,VA,23434,757-374-8813
Johnsons Mail Service,82 Peaks Rd,Prospect,VA,23960,434-574-8849
Ginos Home Service,8987 Howerton Road,Center Cross,VA,22437,804-761-3217
P & J Transportation,203 Robinette Street,Nickelsville,VA,24271,276-479-1962
Silent Movers,1505a Rugby Ave,Charlottesville,VA,22903,540-354-8887
Double A Trucking,183 Gateway East,Richmond,VA,23229,513-777-0706
Williams Trucking,23389 Watson Road,Leesburg,VA,20175,703-327-2220
Range One Transport,40 College Dr,Bluefield,VA,24605,304-952-7848
Big R Express,4900 Leonard Avenue,Richmond,VA,23231,804-433-7130
Jeff Shelton Trucking,37 Alpha Street,Swords Creek,VA,24649,276-991-2725
Springfield Wrecker Services,6703 Backlick Rd,Springfield,VA,22150,703-569-2264
R A L Transport,13191 Dashco Way,Herndon,VA,20171,703-657-0101
Port Xpress Trucking,645 Church St,Norfolk,VA,23501,757-416-6252
Cmb Trucking,105 Shannon Drive,Danville,VA,24540,434-836-2080
Jones Boys Trucking,8120 Wine Store Road,Timberville,VA,22853,540-820-2217
Dynamo Delivery Service,212 Perth Lane,Sandston,VA,23150,804-519-1554
Lone Star Express,1782 Morgan Frederick Grade,Cross Junction,VA,22625,540-888-4422
H D Delivery Service,103 Wintergreen Lane,Stafford,VA,22554,540-659-4331
B & D Trucking,1600 Dovel Hollow Road,Stanley,VA,22851,540-778-2757
Yoders Hauling,10389 East Gretna Road,Gretna,VA,24557,434-335-5509
K M Miles Trucking,9180 James River Road,Shipman,VA,22971,434-263-4033
Bennett Auto Transport,11825 Woodland View Dr,Fredericksburg,VA,22407,540-785-7210
Jb Trucking,112 Nippon Loop,Lynchburg,VA,24501,434-401-9589
M J M Trucking,4226 Big Stone Gap Road,Big Stone Gap,VA,24219,276-220-1634
Bill Farrar Auto Sales,1321 West Danville Street,South Hill,VA,23970,434-447-7020
Kenny's Towimg & Hauling,1011 Windward Rd,Homecreek,VA,24614,276-530-9393
Prodigy Transport,3964 Wyckoff Dr,Virginia Beach,VA,23452,757-340-6699
Hayden Trucking,633 South Main Street,Saltville,VA,24370,276-496-5020
Reyes Trucking,112 Walder St,Manassas Park,VA,20111,571-221-3059
Jks Transportation,374 Coan Harbour Dr,Lottsburg,VA,22511,804-761-5178
Freight Dispatch Services,133 Hawks Nest Ln,Suffolk,VA,23435,757-485-1849
Psh Trucking,1 Piney Branch Circle,Hampton,VA,23666,757-286-7221
E Espinosa Trucking,800 Whispering Woods Ct,Virginia Beach,VA,23456,757-471-4776
Lcs Home Transport,106 Mill Lane,Stafford,VA,22556,540-752-5561
Derricott Trucking,11197 Washington Hwy Lot 15,Glen Allen,VA,23059,804-306-0096
Smith Trucking,4272 Clarks Valley Road,Swords Creek,VA,24649,276-991-1442
Lugnutz Transporting,14533 Fox Knoll Drive,Colonial Heights,VA,23834,804-530-1572
Pumula Horse Carriers,14158 Hopeful Road,Montpelier,VA,23192,804-883-7955
C Edwards Enterprise,5329 Limestone Dr,Richmond,VA,23224,804-334-9820
Durham Trucking,100 Original Airport Rd,Lacrosse,VA,23950,919-790-1354
Tutu Logistics,14396 Westminster Lane #32,Woodbridge,VA,22193,571-237-7477
Crousa Delivery,8422 Obannon Ct #9,Richmond,VA,23228,804-314-4284
Thomas Trucking,810 Danville Pike Sw,Meadows Of Dan,VA,24120,276-952-9914
Bahri Corporation,7701 Hooes Road,Springfield,VA,22152,703-913-7732
Ship Repair,4855 Brookside Court Suite E,Norfolk,VA,23452,757-648-8888
Kart Trucken,10913 Crestwood Drive,Spotsylvania,VA,22553,540-316-1178
Roane&son Trucking,5269 Nomini Hall Rd,Hague,VA,22469,804-472-4844
Valley Tobacco,543 Aileen Road,Edinburg,VA,22824,540-325-0245
Benavides Auto Repair,7414 Fordson Rd,Alexandria,VA,22306,703-299-0258
Dba Tree60,2448 Brussels Ct,Reston,VA,20191,703-758-0958
Speedy Auto Repair,9026 Euclid Ave,Manassas,VA,20110,703-330-3500
Circle S Trucking,3543 Louisa Road,Coeburn,VA,24230,276-219-4919
Rutker Transport,2201 Alean Road,Wirtz,VA,24184,540-334-1070
A & B Trucking,509 Burchtree Road,Hillsville,VA,24343,276-233-2888
J & L Trucking,8006 Rich Patch Road,Covington,VA,24426,540-862-1530
Cm & C Trucking,2203 Evergreen Road,Covington,VA,24426,540-958-3147
Atm Transport,14512 Us Hwy 29,Chatham,VA,24531,434-432-0292
Gt Delivery,3031 Oakley Pointe Terr,Richmond,VA,23233,804-338-5925
Ker Trucking,809 Madison Ct,Stafford,VA,22556,703-459-0658
Lacey Trucking,3318 Loam St,Norfolk,VA,23518,757-239-0139
Meros Trucking,6420 Columbia Pike,Annandale,VA,22003,571-265-6748
Advantage Certified Auto Group,8503 Euclid Ave Suite 5,Manassas Park,VA,20111,703-330-1003
Jmj Carriers LLC,5524 Boundbrook Crt,Virginia Beach,VA,23462,757-769-5788
P & A Transport,3962 Lark Circle,Roanoke,VA,24018,708-205-8564
Tweedy's Farm Fresh Produce,4927 South Amherst Highway,Madison Heights,VA,24572,434-528-5252
Phoenix Home Services,9141 Scholl Craft Ln,Burke,VA,22015,703-725-7945
Hi Octane Hauling,9130 Burnett Drive,Chesterfield,VA,23832,804-928-5996
Gene's Auto Repair & Sales,1915 Va Ave,Collinsville,VA,24078,276-647-1366
Gme,23430 Rock Haven Way Suite 110,Sterling,VA,20166,703-661-5369
Raines & Sons Hauling,246 Bull Run Drive,Hopewell,VA,23860,804-926-9728
Ace Hauling,708 Starview Ln,Richmond,VA,23225,804-380-4515
Mpower Transportation,4991 Lake Brook Drive Suite 250,Glen Allen,VA,23238,804-612-8643
J E Transport Services LLC,13109 Cross Keys Ct,Fairfax,VA,22033,571-259-8413
Gla Transport,22 Halcomb Lane,Stafford,VA,22556,703-498-3295
Williams Hauling,3357 Cedar Springs Rd,Rural Retreat,VA,24368,276-686-4120
S Trucking,19315 Dogwood Drive,Melfa,VA,23410,757-787-4333
Road Yachts,19544 Royal Autumn Lane,Leesburg,VA,20175,703-737-3011
Aan Express,9116 Cloisters West,Richmond,VA,23229,804-200-3572
Seay Logging & Hauling LLC,11928 Farmville Road,Meherrin,VA,23954,434-223-7800
"W L Pair General Hauling, Inc.",310 Crescent Road,Emporia,VA,23847,434-348-9064
Erniestrucking LLC,13105 Canova Dr,Manassas,VA,20112,703-791-5224
Wasel Express,14314 Climbing Rose Way Unt 306,Centreville,VA,20121,571-438-2916
For Hire,6525 Balsam Rd,Richmond,VA,23225,804-674-4768
Break'n Acres Farm,1777 Easters Rd,Boydton,VA,23917,434-738-0668
Tri State Limousine,8058 Filycity Ct,Springfield,VA,22153,703-618-3838
Junk King,7627 Fullerton Road Unit D,Springfield,VA,22153,703-455-3861
Independent Distributor,756 Livestock Rd,Danville,VA,24540,434-836-6245
Liberty Transport & Delivry Srvcs,31204 Askew St,Franklin,VA,23851,757-556-2210
R E Kelley Trucking,3417 Vicker Switch Road,Christiansburg,VA,24073,540-235-2385
L&r Trucking,6852 Hwy 92,Chase City,VA,23924,434-372-3272
Leath Trucking,2785 Page Street Greenwood Village Lot 11,Richlands,VA,24641,276-963-0015
L&m Truck Service,1410 S Pollard Street,Arlington,VA,22204,N/A
Taylor Hauling,18438 Beazley Lane,Milford,VA,22514,804-632-1444
N & D Trucking,4224 Tunnel Hill Road,Honaker,VA,24260,276-873-5921
Carman Carrier Service,880 Cedar Hill Road,Winchester,VA,22603,281-806-1742
Scott's Trucking,20367 Orbit Road,Windsor,VA,23487,757-342-8444
Big Mill Trucking,29373 Delware Road,Franklin,VA,23851,757-582-4620
Real Transport,20202 Marshell Circle,Melfa,VA,23410,757-787-3402
Gibson Trucking,15 Rodney Lane,Fredericksburg,VA,22405,540-479-6184
Ac Smith Transport,4733 Rock Spring Road,Arlington,VA,22207,703-241-0121
Danny's Hauling,3665 Elm Farm Road,Woodbridge,VA,22192,703-670-9652
Party Mobil Touring Services,3142 Ellenwood Dr,Fairfax,VA,22031,N/A
C&d Transportation,13571 Bailey Bridge Rd,Midlothian,VA,23112,804-763-3253
S R Trucking,24496 Tyler Lane,Accomac,VA,23301,757-789-5120
La Wright Trucking,1068 Turn Down Rd,Oakwood,VA,24631,276-498-3435
Crewe Transfer,4001 South Military Hwy,Chesapeake,VA,23321,757-423-4200
Cw Express,5850 Blaine Dr,Alexandria,VA,22303,571-257-6892
Servicemaster Of Fairfax,43676 Trade Center Place#155,Dulles,VA,20166,703-631-0544
Donis Transport,6903 Runnymede Trail,Fredericksburg,VA,22407,540-295-5396
Gore Transport LLC,1218 Springtide Pl,Herndon,VA,20170,703-401-0152
Crownridge Nursery & Hauling,794 Crwonridge Rd,Galax,VA,24333,276-236-4838
B P Transportation,6215 Point Circle,Centreville,VA,20120,703-906-8228
Dq Transport,6107 Havener House Way 1d,Centreville,VA,20120,703-344-8827
J L Powell Trucking,248 Pitch Kettle Road,Dolphin,VA,23843,434-949-6148
R & S Diesel Truck Service,107 Pasbehegh Drive,Williamsburg,VA,23185,757-208-0321
Jms Services,7941 Maplewood Dr,Manassas,VA,20111,571-232-1421
Acclaim Services,8621 Lee Hwy,Fairfax,VA,22031,703-750-0600
Genesis Wh Trucking,11821 Falcon Ridge Dr,Fredericksburg,VA,22407,540-295-5314
Ram Haulers,1876 Tabor Road,Gladys,VA,24554,434-221-8916
Panorama Enterprises,801 Lakeview Drive,Cross Junction,VA,22625,540-888-3599
Acclaimed Services & Acclaimed Plumbing & Electric,8621 Lee Hwy,Fairfax,VA,22031,703-642-6500
U S Express Transportation,373 Westfield Rd,Charlotteville,VA,22901,434-962-6575
K&j Transportation &com,16008 Deer Drive,Nelsonia,VA,23414,757-665-1157
Vip Transport,193 Colonial Drive,Harrisonburg,VA,22801,770-205-0218
Jaden Trucking,455 N Airport Circut,Highland Springs,VA,23075,405-283-0698
"Hunts Horse Hauling, Inc.",12 Live Oak Lane,Stafford,VA,22554,540-658-1709
Mrl Express,15500 Cherry Tree Road,Chilhowie,VA,24319,276-623-6951
Pacasmayo Trucking,16958 Cass Brook Lane,Woodbridge,VA,22191,540-446-3894
Adams Transport,3942 Richfield Lane,Barren Springs,VA,24313,540-553-2642
Blue Foot Transportation LLC,5909 Meriwether Court,Williamsburg,VA,23188,703-942-8344
Nguyen Susan Trucking,6504 Japonica St,Springfield,VA,22150,571-247-6122
Gv Adamson Trucking,325 West Main Street,Wakefield,VA,23888,757-652-5268
Ratliff Transport LLC,350 Yorktown Blvd,Locustgrove,VA,22508,540-220-8175
A M Transport,106 Dulany Pl,Falls Church,VA,22046,571-327-6159
Arias Transport,261 Chelmsford Ct,Sterling,VA,20165,703-869-6729
Duo Distribution,6820 Cedar Loch Court,Centreville,VA,20121,703-608-2519
Lady G Hauling,3737 Folly Neck Road,Warsaw,VA,22572,804-394-2585
Robinson Transportation,614 Elmfield Drive,Richmond,VA,23227,804-229-7867
M Moore Ez Hauling,3000 Sir Meliot Dr,Chesapeake,VA,23323,757-487-0253
Joe Bailey Moving,7604 Fernwood Ave,Richmond,VA,23228,804-237-2922
Shoreline Transport,16381 Courthouse Road,Eastville,VA,23347,757-678-2350
P And K Croft Trucking,8410 Leland Rd,Manassas,VA,20111,703-361-9406
Alexandria Transportation,12022 Trossack Rd,Herndon,VA,20170,703-477-6613
Ellis Transport,5500 Peters Lane,Fredericksburg,VA,22407,540-891-1693
R W Mckenney Trucking,16526 Gaines Road,Broad Run,VA,20137,571-921-0511
Bower Truck Driving & Flatbed,4874 Old Pike Rd,Pilot,VA,24138,540-641-4441
Francisco Bravo Lopez,2222 Lankford Hwy,Mappsville,VA,23407,757-694-7099
Trucking,703 Shelburne Lane,Victoria,VA,23974,434-696-2372
Gil's On The Move Auto Transport And Repair,104 Douglas Dr,Williamsburg,VA,23185,757-725-7166
Jerry Trucking,11 Pebble Beach Drive,Stafford,VA,22554,571-221-2258
Meadows Trucking,611 Poplar Hill,Lexington,VA,24450,540-817-9985
A&k Enterprises,120 Van Gogh Terrace,Winchester,VA,22602,540-722-4229
G&j Auto Transport,529 Grouse Drive,Winchester,VA,22602,540-877-1902
D R D Trucking,102 Johnston Drive,Winchester,VA,22603,540-723-6453
Fine Line Trucking,11765 Capitol Lane,Fredericksburg,VA,22408,540-295-4376
Guzman Trucking,16698 Periscope Place,Dumfries,VA,22026,703-221-1679
"B E S, Inc.",2792 Myrtlewood Dr,Dumfries,VA,22026,703-441-8787
T R Linaburg Trucking,519 Ruebuck Rd,Clear Brook,VA,22624,540-662-1065
Mans' Hauling,1506 Adams Cir,Hampton,VA,23663,571-274-4135
Tinita Express,6129 Windward Dr,Burke,VA,22015,703-250-4073
Tpt Trucking,1215 Douthat State Park Rd,Millboro,VA,24460,540-996-4428
John Ho Trucking,7119 Healy Dr,Springfield,VA,22150,571-276-6273
Y & S Trucking,3596 Davis Rd,New Church,VA,23415,757-824-0221
Beverly C Pugh Trucking,1401-o Forest Oak Lane,Suffolk,VA,23434,757-539-6664
Or Trucking,14037 Mathews Dr,Woodbridge,VA,22191,571-220-1601
Lsi,37224 E Richardson Ln,Purcellville,VA,20132,540-338-9843
Lewis Hauling LLC,11112 Beaver Bridge Road,Chesterfield,VA,23838,804-739-6483
J B Elliott Enterprise,1001 Hawkins Wood Ln,Midlothian,VA,23114,804-378-6047
Journey Transport,4117 Hudson Circle,Harrisonburg,VA,22801,540-433-6470
Myers Freight Services LLC,895 Seville Rd,Madison,VA,22727,540-718-0862
Donald Burcham Tree Farm,332 Misty Trail,Fancy Gap,VA,24328,276-233-2815
Ndl Trucking,97 Pattons Trace,Fairfield,VA,24435,540-377-2642
Gillander Enterprises,4009 Woodfork Road,Charlotte Court House,VA,23923,434-542-5733
A R Trucking,135 Flynn Dr,Front Royal,VA,22630,540-636-4216
United Trucking LLC,5021 Seminary Rd,Alexandria,VA,22311,703-931-2169
Keens Auto Sales,Route 1 Box 132,Raven,VA,24639,276-498-3820
P & R Trucking,3162 Red Root Ridge,Raven,VA,24639,276-963-4302
Burton Trucking,11171 Walnut Lane,Birdsnest,VA,23307,757-678-5463
Serpa Hauling,12112 Rutgers Dr,Richmond,VA,23233,804-353-4508
Guthries Transportation,5160 Volens Rd,Nathalie,VA,24577,434-349-9904
Small's Delivery Services,13502 King Charles Dr,Chantilly,VA,20151,703-675-4295
Heritage Trucking Co,7057 Ararat Highway,Ararat,VA,24053,276-251-2250
Alberto's Trucking,2209 Princess Anne Ln,Woodbridge,VA,22191,571-242-0695
J A P Trucking,14888 Enterprise Ln,Woodbridge,VA,22191,703-497-2955
New Begining Transport,3212 Meadows Way Apt101,Chesapeake,VA,23321,757-967-8293
Jaake Trucking,1100 Brandon Ave,Sterling,VA,20164,301-452-8458
Morgan Gibson Trucking,Route 6 Box 259,Gate City,VA,24251,276-386-2021
Zeladas Trucking,12920 Ness Hallow Ct,Bristow,VA,20130,571-248-8884
Tucker Transport,620 Smith Street,Hampton,VA,23661,757-224-8119
West Bank Trucking,6447 Hwy 58,Buffalo Junction,VA,24529,252-213-3973
Ceh Trucking,227 Esnon Road,Chase City,VA,23924,434-372-5564
Joes Limo Service,5613 Leesburg Pike Suite 1,Falls Church,VA,22041,703-998-0505
Arrowhead Environmental LLC,14 North Court Street,Windsor,VA,23487,757-242-3173
Sneed Trucking,19516 Julep Circle,Colonial Heights,VA,23834,804-520-6388
Tucks Mobile Home Service,118 Davis Drive,Danville,VA,24540,434-724-4914
K & M Hauling,5832 Sumerduck Rd,Sumerduck,VA,22742,540-439-9808
Lopez Trucking,2372 Longview Drive,Woodbridge,VA,22191,571-722-8113
Lxi,1209 Baker Road #506,Virginia Beach,VA,23455,757-962-2836
Gb Trucking,3205 Naper Rd,Alexandria,VA,22306,703-619-9248
B B Delivery Service,4600 Duke Street #1102,Alexandria,VA,22304,703-461-3816
P & T Trucking,Big A Mtn Rt 80,Honaker,VA,24260,N/A
Douglas Trucking Co,3801 Mill Meadow Drive,Midlothian,VA,23112,804-677-8842
Tim Miller Delivery Service,479 Ridgecrest Road,Hardy,VA,24101,609-315-3506
Apartment Movers,8384 A,Lorton,VA,22079,703-922-7777
G&c Trucking,8409 Alameda Ct,Alexandria,VA,22309,703-704-5653
Lca Trucking,14823 Winding Loop,Woodbridge,VA,22191,703-490-6620
Metropolitan Parking & Transportation,2813 Juniper St.,Fairfax,VA,22031,703-448-9790
Direct Delivery,3638 Rolling Hill Ave,Roanoke,VA,24017,540-871-4174
O T H Hauling,4117 Wyndybrow Drive,Portsmouth,VA,23703,757-337-0003
Cvh Transport,205 E Tazewell Rd,Sterling,VA,20164,703-709-0760
J C Wall Trucking,2830 Glendale Mill Road,Freeman,VA,23856,804-731-2303
Jp Trucking Small Corp,5694 Chapel Run Court,Centreville,VA,20120,571-225-8012
Michael Omar,13302 Nottingdale Drive,Woodbridge,VA,22193,703-680-1221
L&g Road Service,83 Potomac Creek Drive Suite 107,Fredericksburg,VA,22405,540-659-5397
Mid Atlantic Moving And Delivery Service,1986 Winslow Ct,Woodbridge,VA,22191,571-225-3849
Double R Trucking,9211 Acer Lane,Manassas,VA,20110,571-229-5169
C & C Carrier,9400 Gunston Cove Rd,Lorton,VA,22079,908-966-0288
Regatta Logistics,10243 Bloomsbury Road,King George,VA,22485,540-538-9477
Irish Rover,10613 Mockingbird Lane,Spotsylvania,VA,22553,540-582-2351
Sky Transportation,2831 Hilliard Rd Apt A,Richmond,VA,23228,804-677-6115
"F & L Trucking, Inc.",6409 Jefferson Davis Highway,Spotsylvania,VA,22553,540-582-9014
Ross Boys Trucking,18155 Purvis Drive,Triangle,VA,22172,540-273-1615
Terry's Transport,1203 Camp Road,Speedwell,VA,24374,276-686-9061
M B Trucking,3762 Wertz Dr,Woodbridge,VA,22193,516-779-9924
Island Transport,1805 William St Apt 205b,Fredericksburg,VA,22401,540-287-3660
Beatrice & Collins Trucking Company,3374 Dondis Creek Drive,Triangle,VA,22172,571-247-7420
B & N Trucking LLC,3940 Evelake Rd,Richmond,VA,23237,804-275-6879
Rebesco Hauling,4605 Winterset Place,Glen Allen,VA,23060,804-539-2155
Lewis Enterprises,1009 Cherrytree Lane,Chesapeake,VA,23320,757-547-0719
Tony's Trucking,9840 Alam Ct,Manassas,VA,20109,703-894-8394
French Transport,9244 Mill Pond Road,Spotsylvania,VA,22553,540-972-9292
J & J Trucking,14664 Ensley Turn,Woodbridge,VA,22193,571-220-3704
Balducci Hauling,2000 Waltman Trail,Vernon Hill,VA,24597,434-476-7299
Butler Transport Services,8179 Driftwood Dr,Prince George,VA,23875,804-731-7317
Gathers Trucking,7186 Porters Rd,Esmont,VA,22937,434-987-0342
Tim's Auto Sales,1001 South Kent Street,Winchester,VA,22601,540-722-2354
Vicks General Hauling,409 Harbour Point #303,Virginia Beach,VA,23451,757-749-1008
B Brown Motor Freight,220 Industrial Dr,Fredericks,VA,22408,540-710-9935
Uso,2111 Wilson Blvd Suite 1200,Arlington,VA,22201,757-320-4040
Two Trolls Trucking,24108 Highway 58,Baskerville,VA,23915,434-447-3270
Bracky Dunlap,6633 Northwestern Pike,Gore,VA,22637,540-858-3357
D5 Trucking,134 Shelton Farm Dr,Stuart,VA,24171,276-694-4991
Lsj Transport,101 Gallion Town Rd,Victoria,VA,23974,434-696-3780
Lawson Trucking,524 Pleasant View Road,Austinville,VA,24312,276-728-4895
Led-sled Truckn,986 Wolf Creek Hwy,Rocky Gap,VA,24366,276-928-1045
Rw Hauling,17345 Ridge Road,King George,VA,22485,540-775-5608
C & S Trucking,9125 Open Gate Road,Gordonsville,VA,22942,540-832-3854
Wright Trucking,4604 Carpenter Rd,Richmond,VA,23222,804-321-3406
Simmons Trucking Co,2606 Woodcreek Court Apt 304,Suffolk,VA,23434,757-215-8499
Earl Duty Trucking,Route 643,Hurley,VA,24620,276-566-8978
Km Trucking,3177 Ranger Rd #200,Fairfax,VA,22031,703-383-9499
Lotts Trucking,2069 Bunker Hill Loop,Bedford,VA,24523,540-586-9554
V M L,16098 Radburn Street,Woodbridge,VA,22191,703-878-9340
Bulk Carrier,3500 Ethel James Dr,Chesapeake,VA,23323,757-967-9592
Reliable Services,306 Heralds Ln,Tazewell,VA,24651,276-979-9278
Dalco Transport Service,1721 Earl Dr,Salem,VA,24153,540-389-9143
D & J Hamlet Trucking LLC,4271 Old Evergreen Rd,Appomattox,VA,24522,434-352-0593
Law Trucking LLC,2202 Byron Street,Richmond,VA,23222,804-321-0315
Pinto Erosion,37872 Charles Town Pike,Purcellville,VA,20132,540-338-7701
Honaker Enterprises,8123 Branchwood Ct,Norfolk,VA,23518,757-480-0081
Palma Transport,5813 Edsall Rd Number 302,Alexandria,VA,22304,703-861-2612
Shades Trucking,1936 N Junaluska Drive,Richmond,VA,23225,804-937-0418
Freda's Trucking,139 Dailey Chapel Rd,North Tazewell,VA,24630,276-979-7666
Brasouza Trucking,1537 Aqua Road,Midland,VA,22728,540-788-4696
J D Trucking,16222 Pocahontas Trail,Meadowview,VA,24361,276-944-0921
Jupiter Executive Sedan & Limo Service,150 S Washingto St # 402,Falls Church,VA,22046,703-237-5466
Brandi Trucking,Hc 61 Box 44c,Grundy,VA,24614,276-259-7762
B & T Trucking,12116 Buck Hall Lane,Fredericksburg,VA,22407,540-785-2720
F S Trucking,4 Whaley Ct,Sterling,VA,20165,703-430-8543
A&i Trucking LLC,6915 Floyd Ave,Springfield,VA,22150,703-309-6603
Tss Trucking,16 Crab Apple Lane Apt 105,Verona,VA,24482,540-290-3484
J And B Transportation,12504 Pitts Ln,Exmore,VA,23350,757-442-2594
Mack A Cubbage Enterprises,434 Famous Lane,Luray,VA,22835,540-743-2616
R & S Delivery Services,102 Vanburen Drive,North Tazewell,VA,24630,304-320-3192
Jackson Transport,10731 Timberrun Rd,Chesterfield,VA,23832,804-744-4617
Ms Trucking,265 East View Street,Dayton,VA,22821,540-879-2867
D & D Transport,4630 Staunton Hill Rd,Brookneal,VA,24528,434-376-1508
Circle A Cattle Transport,5443 Winterset Dr,Roanoke,VA,24018,540-206-5852
Cmx Transport,1399 Chestnut Grove Road,Winchester,VA,22603,540-327-7666
Pearson Trucking,1509 North Point,Reston,VA,20194,202-498-5816
Iron Horse Freight,4505 Sandy Valley Rd,Mechanicsville,VA,23111,804-310-0965
General Merchandise Delivery,13452 Lock Loop,Woodbridge,VA,22192,703-583-6893
Curry Trucking,757 Minebank Road,Middletown,VA,22645,540-550-0068
Peach Tree Hauling,16600 Exter Mill Road,Chesterfield,VA,23838,804-590-2468
D & S Trucking LLC,1230 Evergreen Ave,Richmond,VA,23224,804-306-3838
Pender's Global Trucking,335 Shore Street,Petersburg,VA,23803,804-919-4479
Jk Trucking,10888 Daphna Road,Broadway,VA,22815,540-560-5290
Precision Hauling,9105 Whitemont Dr,Richmond,VA,23294,804-240-9685
Starkey Auto Repair LLC,16466 Greens Corner Rd,Culpeper,VA,22701,540-727-7545
Bowling's Trucking,9639 Sutter Road,Partlow,VA,22534,540-455-0067
Rose Trucking,4265 Thomas Nelson Hwy,Arrington,VA,22922,434-942-5399
Southers Trucking,1331 Poplar Hill Rd,Lexington,VA,24450,540-461-6122
Futrell And Sons Trucking,317 Kay Road,Portsmouth,VA,23701,757-749-4626
Ensminger Enterprises,12357 Mount Rose Drive,King George,VA,22485,540-775-3359
Darryl Martin Trucking,8701 Brock Road,Spotsylvania,VA,22553,540-785-4223
On Time Trucking,230 Chestnut Street,Fieldale,VA,24089,276-806-1762
Bennett Transport,24164 Tasley Rd,Tasley,VA,23441,757-710-5593
Dereks Trucking LLC,26307 Bright Star Rd,Abingdon,VA,24211,276-475-3596
Prw Transport,1017 Riverdale Circle,Culpeper,VA,22701,540-825-1351
La Trucking,5414 8th Place S,Arlington,VA,22204,703-656-5837
Medstar Trucking,722 South Hyannis Drive,Richmond,VA,23236,804-330-4677
Cyncity Trucking,11333 Mt. Olive -cohoke Rd.,West Point,VA,23181,315-717-5554
Sas Transport,6 Thaxton Court,Stafford,VA,22556,540-371-7034
Arthur Barner Ministries,2515 A Victory Blvd,Portsmouth,VA,23702,757-319-3152
S & S Trucking,221 Woodway Road,Pennington Gap,VA,24277,276-393-0837
Prosperity Hauling,31325 Mary Lee Dr,Doswell,VA,23069,804-306-5899
K & S Trucking,29235 Nappesville Road,Nappesville,VA,23407,757-824-6111
A & J Auto Resq,116 Plantation Ln,Winchester,VA,22602,540-667-0183
"Hughes Transport Logistics, Inc.",1601 Ware Bottom Springs Rd,Chester,VA,23831,804-706-9415
C S Transfer,1506 Point Of Rocks Road,Chester,VA,23836,804-530-1597
Dti,1960 Green Pond Road,Chatham,VA,24531,434-441-0717
James W Holmes And Sons Hauling,14027 Washington Highway,Ashland,VA,23005,804-503-0418
Hollywood Transport,5388-b Bedford Terrace,Alexandria,VA,22309,703-360-8318
T & B Transport,15163 Fletcher Rd,Bloxom,VA,23308,757-665-7392
Smith Trucking,Rt 626 Raven Nests Branch,Cedar Bluff,VA,24609,276-964-9764
Morgans Trucking,606 Cobbler Terr,Leesburg,VA,20175,703-737-6712
T & P Trucking,111 N Lincoln Ave,Sterling,VA,20164,703-870-0981
Garris Transport,11001 Belvoir Road,Chester,VA,23831,804-301-8638
C D Rose Trucking,23415 Courthouse Road,Dinwiddie,VA,23841,804-478-5719
Ecofinishes Distributors,450b South Pickett Street,Alexandria,VA,22304,703-373-9091
J & M Trucking,20 North Jenny Lane Road,Fredericksburg,VA,22405,540-899-6135
S And G Transport,3041 Annandale Rd,Falls Church,VA,22042,571-276-4127
Common Carrier,2395 Calno Rd,Hanover,VA,23069,804-339-8199
Barbour Transport,1118 Stovall Trail,Halifax,VA,24558,405-283-0698
Jm Trucking,75 North Carlton Street,Harrisonburg,VA,22802,540-434-0623
Sdm Trucking,6161 Mclendon Ct,Alexandria,VA,22310,703-357-5622
Nationwide Limo Service,249 South Van Dorn St Ste 210,Alexandria,VA,22304,866-727-5466
Bb Transportation,17 Continental Dr Apt A,Hampton,VA,23669,757-438-5706
Iceberg,4343 Ottobine Road,Dayton,VA,22821,540-433-6470
Map & Sons Enterprise,2117 Canvasback Drive,Suffolk,VA,23435,757-538-1703
Hollys Transort,137 Tower Drive,Virginia,VA,23462,757-464-2964
D R Transport,4432 Vermont Ave,Alexandria,VA,22304,571-722-2701
Thomas Trucking,1488 Collingswood Trail,Virginia Beach,VA,23464,757-495-6426
Meredith Transport,83 Woodley Lane,Lawrenceville,VA,23868,434-848-3503
Cibula Hauling,14620 Rivermont Rd,Chester,VA,23836,804-690-0952
Stefko Trucking LLC,8807 Sudley Road Suite 210,Manassas,VA,20110,412-889-4338
Hula Hop Hauling,213 Magnolia St,Suffolk,VA,23434,757-923-5066
Black Hawk Auto Transport,107 Calvary Ct,Stafford,VA,22556,540-659-4008
Rg Feggins Trucking Company,4217 Green Cedar Lane,Richmond,VA,23237,804-647-4252
Jmu Trucking,698 Pinewood Ln,Bassett,VA,24055,276-629-6950
Greg's Trucking,5392 Windsor Dr,King George,VA,22485,540-663-5145
D&dc Trucking Co,295 Kimball Ln,Christiansburg,VA,24073,540-818-1221
S & S Trucking,451 Elams Road,White Plains,VA,23893,434-636-5147
Blanchards Auto Transport,4869 Bridge Road,Suffold,VA,23435,757-638-7714
Move It Now Of Central Virginia,13540 East Boundary Rd Bldg 1 Suite 105,Midlothian,VA,23112,804-565-2125
G & W Trucking,3687 Newport Road,Shenandoah,VA,22849,540-652-1901
Brightwell Trucking,490 Dean Rd,Rose Hill,VA,24281,276-445-4778
Mcsmithandsontrucking,5636 Nomini Hall Rd,Hague,VA,22469,804-472-3312
"Tree Top Services, Inc.",6977 Monahan Rd,Richmond,VA,23231,804-795-5858
Andy's Trucking,1187 Union Grove Road,Keysville,VA,23947,434-736-2429
Simmons Trucking,1091 Piney Pond Road,Brodnax,VA,23920,434-729-3922
"Jeffrey M Stephens Distributer, Inc.",5405 Staples Lane,Woodbridge,VA,22193,703-730-2004
Cm Transport,13734 Mahoney Drive,Woodbridge,VA,22193,321-446-1870
J And L Trucking And Hauling LLC,12000 Bundle Rd,Chesterfield,VA,23838,804-437-4284
Kana Moving,7942n Cluny Ct,Springfield,VA,22153,703-354-2489
Carl R Jackson & Sons Plumbing Heating & Excavating,2121 Garrisonville Road,Stafford,VA,22556,540-752-0100
B-4 Trucking,32069 A S West Rd,Painter,VA,23420,757-442-2646
Jd Logistics,7600 Millcreek Drive,Richmond,VA,23235,410-245-2775
Anderson Transport,3412 Hidaway Court,Bumpass,VA,23024,540-895-0023
Anthony W Harris,1736 Mapleton Drive,Callands,VA,24530,434-724-1600
Lda Trucking,6130 Hot Spring Lane,Fredericksburg,VA,22407,540-379-5293
M Moore Trucking,13209 Central Pointe Road Ste 202,Midlothian,VA,23112,804-608-8677
T & Gw Trucking,388 Level Hill Road,Luray,VA,22835,540-743-3587
"Tk Services, Inc.",1000 Bernard Street,Alexandria,VA,22314,703-504-6116
Qsi Transport,5220 Dickerson Rd,Partlow,VA,22534,301-257-1799
Kennith Howard Jr Trucking,21213 Lake Rd,Abingtdon,VA,24211,276-628-8904
Eleggua Cargo,5220 Williamson Rd Ste B,Roanoke,VA,24012,540-793-7329
R-tech Trucking,1112 S Military Hwy,Chesapeake,VA,23320,757-361-5848
Virginia Intermodal Transportation,61 Pollux Circle West,Portsmouth,VA,23701,757-537-9611
E & J Trucking,2501 Crest Hollow Court,Goochland,VA,23063,804-556-5964
"Calvary Weld Service, Inc.",9935 Bold Camp Road,Pound,VA,24279,276-796-5720
Cmc Trucking,315 Crescent Drive,Franklin,VA,23851,757-556-5797
Ecr LLC,Po Box 38427,Richmond,VA,23231,804-328-1144
John Larson Trucking,125 Freeze Rd,Linden,VA,22642,540-635-1520
Clements Farms Trucking,23093 Antioch Road,Windsor,VA,23487,757-242-9483
Lofties Trucking,7521 Republic Ct # 301,Alexandria,VA,22306,202-396-2047
Shires Trucking,3868 Craig Valley Dr Box 281 D,New Castle,VA,24127,540-312-9380
Lacey's Outdoor Service,9386 Sperryville Pike,Culpeper,VA,22701,540-829-9409
Scuba's Trucking LLC,2622 Three Willows Court,Henrico,VA,23294,804-218-0451
Jr V & H Trucking,349 Little Sorrel Road,Strasburg,VA,22657,540-465-1419
Jlw,4142 Gov Almond Rd,Locust Grove,VA,22508,540-845-8265
Goad Trucking,1713 Kingswood St,Richmond,VA,23224,804-232-5154
Franklin Trucking,2221 Forsythia Drive,Culpeper,VA,22701,540-825-2646
Amc Trucking,300 South Main Street,Suffolk,VA,23434,757-646-0565
Tj's Parts Delivery,6035 Dunbar Rd,Appalachia,VA,24216,276-679-4184
Manassas Auto & Truck Repair,9246 Sills Ct,Manassas,VA,20110,703-330-6446
Hammer Trucking,30971 Ramblewood Drive,Meadowview,VA,24361,276-944-4431
G Swann Trucking,600 N Latham Street,Alexandria,VA,22304,202-438-9044
W O T Trucking LLC,11012 Finney Road,Spotslyvania,VA,22551,540-604-8418
S & B Transport,6071 Studley Road,Mechanicsville,VA,23116,804-221-3228
Talcott Limo Services,500 Pelham Drive,Waynesboro,VA,22980,540-942-5272
B&b On Time Transport,2416 Church St,Norfolk,VA,23504,757-729-0295
Little Trucking,200 Dover Place #3,Stafford,VA,22556,202-320-3194
Ray Jones Jr Trucking,98 Poe Street,Bluefield,VA,24605,276-322-0103
23 Auto Sales,602 Orby Cantrell Hwy,Big Stone Gap,VA,24219,276-523-7003
"Sharon Trucking, Inc.",3620 Barcroft View Terrace 10 ,Falls Church,VA,22041,703-593-4784
Dan Dadisman Authorized Mac Tool Distributor,101 Wilkins Place,Winchester,VA,22602,540-667-5769
Jett Truck,3512 Len Hart Lane,Fredericksburg,VA,22408,540-898-7238
Drummond & Son Trucking,I Boundary Ave,Onancock,VA,23417,757-789-3601
M&m Trucking,5404 Southhampton Drive,Springfield,VA,22151,703-244-8694
Rkm Brothers Express,6564 Azelea Lane,Dayton,VA,22821,540-828-0599
Irwin Trucking,7424 Adams Park Ct,Annandale,VA,22003,703-642-0058
Castillo Trucking,9101 Brook Wood Glen Dr,Glen Allen,VA,23060,804-553-1146
Walker Trucking,10406 Catharpin Rd,Spotsylvania,VA,22553,540-972-1818
Jjc Trucking,2218 Binford Lane,Richmond,VA,23223,804-909-1266
Authorized Matco Tools Distributor,291 Grand View Lane,Berryville,VA,22611,540-955-9104
Garner Trucking,2967 Luttrellville Lane,Farnham,VA,22460,804-529-5974
Woodruff Trucking,15932-a Flag Road,Stpaul,VA,24283,276-762-2290
Coountry Road Bike Tours,6109 North 23rd Street,Arlington,VA,22205,571-275-1025
Breaking Barriers,2890 Adams St,Dale City,VA,22193,571-238-7448
Big K Trucking,209 Walnut Street,Berryville,VA,22611,540-955-0536
Farley Trucking,413 Danner Rd,Max Meadows,VA,24360,276-637-6156
Moreys Step Service,18646 Airport Drive,Melfa,VA,23410,757-789-3202
B & B Hauling,1516 Straight Fk Rd,Grundy,VA,24614,276-566-2158
Acls,23480 Rock Haven Way Suite 150,Sterling,VA,20166,703-729-5900
Mays Trucking,123 Allens Paradise Lane,Tyro,VA,22976,434-277-5881
Lee Cor Contractors,11018 Sparrow Rd,Abingdon,VA,24210,276-628-6841
Sunshine Express,13174 George Washington Memorial Highway,Glenns,VA,23149,804-693-9814
C&p Shanks Transport,665 Sleigh Ride Hill Road,Blackstone,VA,23824,434-676-9108
"Dotson Auto Center, Inc.",4727 George Washington Memorial Highway,Yorktown,VA,23692,757-898-6780
Marvin Anderson Trucking,13386 Hanover Courthouse Road,Hanover,VA,23069,804-537-5186
Gary O'quinn Trucking,Box 14 Laurel Fork,Whitewood,VA,24657,304-967-5303
Brian's Truck Service,4180 West Main Street,Salem,VA,24153,540-397-8404
Mcknights Direct Delivery Service,4650 Peters Creek Rd,Columbia,VA,23038,804-457-2835
Law's Auto Repair,1304 West Maple Drive,Axton,VA,24054,276-650-8414
Brooks Trucking,15291 Flintlock Terrace,Woodbridge,VA,22191,703-583-4030
T Kiflu Trucking,4923 Monitoba Dr #203,Alexandria,VA,22312,703-629-0952
Shine Auto Transport,10424 W Providence Rd,Richmond,VA,23236,804-301-3322
Alfred M Katabazi Dba Big Al Katabazi Trucking,5504 Yellowleaf Dr,Richmond,VA,23234,804-271-0176
Timothy Yost Trucking,280 Cook Street,Boissevain,VA,24606,276-970-4287
"Advanced Dealer Services, Inc.",5741 Bayside Road Suite 101,Virginia Beach,VA,23455,757-464-0095
Onyx & Ozwald,6117 Mantle Road,Burke,VA,22015,703-425-0126
Gcb Trucking,1498 New Hope Road,Cross Junction,VA,22625,540-888-9822
Transportes Izabal Citylines,22455 Powers Court,Dulles,VA,20166,703-723-2345
Jack's Transportation Service,172 Edgehill Dr,Collinsville,VA,24078,276-647-1054
Conrow Trucking,10445 King Hwy,Drakes Branch,VA,23937,434-736-9905
"Industrial Repair Services, Inc.",240 Progress Drive,Chesapeake,VA,23322,757-630-3000
Spring - Time Delivery Svc,635 West Church Road,Sterling,VA,20164,703-421-6460
J L Hauling Services,13538 Bently Circle,Woodbridge,VA,22192,703-730-3719
River Ridge Trucking,1462 Zachary Taylor Highway,Huntly,VA,22640,540-622-2021
Team Worldwide,1209 Baker Road Suite 402,Virginia Beach,VA,23455,757-363-2112
Blue Star Automotive,14408 Black Horse Court,Centreville,VA,20120,703-499-7462
John Hammock Trucking,8184 Huell Matthews Hwy,Alton,VA,24520,434-575-7202
G B Miniz Auto Transport,17589 Washington Street,Dumfries,VA,22026,703-675-6636
S & J Trucking,503 Joslyn Ave,Pennington Gap,VA,24277,276-546-3716
Cowboy's Trucking,13677 Newtown Road,Newton,VA,23126,804-633-3007
Chef Garcia Mexican Foods,2697 Internatal Pkwy # 100-4,Virginia Beach,VA,23452,757-501-8390
Harold Jackson Trucking Co,Rt 19 14311 Gov G C Perry Highway,Pounding Mill,VA,24637,276-963-9514
F & M Trucking,7508 Sterling Dr,Fredricksburg,VA,22407,571-220-7934
Land Express,8503 Lee Hwy,Fairfax,VA,22031,703-289-9626
Cowden's Trucking,333 58th Street,Newport News,VA,23607,757-244-1028
C E Shine Trucking,2534 Alfalfa Lane,Richmond,VA,23237,804-249-2681
Denny & Sons Trucking,Hwy 58 Alt Seminary Rd,Big Stone Gap,VA,24219,276-523-0845
Mike Lowe Trucking,2598 Chances Creek Rd,Fancy Gap,VA,24328,276-728-0715
Mcclenny's Exxon,102 South Hicks Street,Lawrenceville,VA,23868,434-848-3495
Big D Trucking,35694 Christianna Highway,Blackstone,VA,23824,434-676-6032
C&j Trucking,2110 Jeb Stuart Highway,Meadows Of Dan,VA,24120,276-952-6337
Sgt Mud Trucking,850 Crawford Parkway Apt 2314,Portsmouth,VA,23704,757-576-6384
H&t Trucking,7434 Dickenson St,Springfield,VA,22150,703-389-0685
Jfr Trucking,3704 Chico Court,Woodbridge,VA,22193,703-897-6461
"Geris Fleet Services, Inc.",16467 Poor Farm Road,Culpeper,VA,22701,540-825-4545
Charity Trucking,3600 Patsy Ann Dr,Richmond,VA,23234,804-356-7810
Herbert Scott Trucking,174 Fleshood Lane,Lawrenceville,VA,23868,434-848-1591
"Leon Trucking, Inc.",4210 Duvawn Street,Alexandria,VA,22310,703-329-8638
Griffin Trucking,24 Northcutt Drive,Hampton,VA,23664,757-362-8948
Frazier Trucking,2627 Buck Island Rd,Charlottesville,VA,22902,434-296-5293
K & J Trucking,5208 Quiet Place,Woodbridge,VA,22193,703-583-9680
Xtreme Detailing,5677 Assateague Place,Manassas,VA,20112,703-590-4594
Dak Trucking LLC,12221 Cedar View Road,Drewryville,VA,23844,434-658-9550
Auto World Of Kinsport,Rt 4 Box 491,Gate City,VA,24251,423-247-0088
K&b Trucking,27301 Saxis Road,Saxis,VA,23442,757-894-2629
Janneh Transportation,7412 Larne Lane,Lorton,VA,22079,703-550-5667
Just Right Express,22557 Welborne Manor Sq,Ashburn,VA,20148,703-585-4848
Brc Transportation,39000 Bronholly Road,Chesterfield,VA,23832,804-640-8425
M K Trucking,Rt 691,Big Rock,VA,24603,276-530-7763
Fwg Trucking,982 Willis Proffitt Road,Mineral,VA,23117,540-894-5283
Serpa Transport,12112 Rutgers Dr,Richmond,VA,23233,804-754-8688
Castles Trucking,1476 Culbertson Branch Rd,Nickelsville,VA,24271,276-479-1116
Movie Movers East,400 Movie Movers East,Axton,VA,24054,276-650-3378
Starlight Express,1117 East Market St Suite I,Charlottesville,VA,22902,434-295-0782
Loving's Trucking,1007 Federal St,Lynchburg,VA,24504,434-845-4403
L R Mccraw Trucking,507 Longleaf Road,Cana,VA,24317,276-755-4937
Clyde Bonner Transport,1432 Ferndale Ave,Petersburg,VA,23803,804-721-5013
Snyder Brothers Iii,7164 Covingtons Corner Rd,Bealeton,VA,22712,540-439-1977
New Era Trucking,1172 Westwood Rd,Berryville,VA,22611,540-662-6122
World Express,1325 Wilkes Street,Alexandria,VA,22314,703-518-4720
Longshot Trucking,189 Peach Grove Lane,Clear Brook,VA,22624,540-662-4993
Austin Trucking,3759 Hebron Road,Galax,VA,24333,276-236-6604
Warsay Trucking,4635 Seminary Rd # T-1,Alexandria,VA,22304,703-628-4530
"Wb Trucking, Inc.",1830 Giles Ct,Woodbridge,VA,22191,571-722-3417
Downs Trucking,25304 Woodland Pk,Accomac,VA,23421,757-789-3740
R & J Tester Transport,7373 Reedy Creek Rd,Bristol,VA,24202,276-669-5373
Chanos Transportation,3492 Baneroff Drive,Virginia Beach,VA,23452,609-575-9498
Huizucar Trucking,1503 Kentucky Avenue,Woodbridge,VA,22191,571-237-5184
Clint Coal Trucking,Hc 60 Box 295,Hurley,VA,24620,276-566-4028
Dstar Carriers,5251 Brandon Pines Drive,Providence Frg,VA,23140,609-758-7300
D&i Trucking Co,206 Low Ground Road,Emporia,VA,23847,434-634-2396
A & W Transport,65 Goodward Road,Richmond,VA,23236,804-320-5064
Harless Trucking,51 Autumn Ridge,Rocky Gap,VA,24366,304-887-1727
Mike A Rodriguez Trucking,P O Box 220,Lorton,VA,22199,571-221-2099
M G Powell Farm Trucking,2570 Union Chapel Rd,Buffalo Junction,VA,24529,434-374-2540
Car Hauling,13838 Bridlington Court,Centreville,VA,20120,703-675-3688
True Deliverance & Praise Ministry,1809 25th Street,Newport News,VA,23607,757-245-2933
L & S Trucking,472 Cemetery Road,Mcgaheysville,VA,22840,540-289-7900
J & S Trucking,Rr 3 Box 674,Big Stone Gap,VA,24219,276-523-5361
G R H Trucking,Rt 643,Hurley,VA,24620,276-566-4151
Alexx Express,708 30th St Nw,Roanoke,VA,24017,540-819-8449
Avel Trucking,2409 Longview Drive,Woodbridge,VA,22191,703-492-2807
Colonial Garage,175 Lee Ave,Winchester,VA,22601,540-662-3216
Grindstaff Auction Service,8275 North Mayfield Lane,Mechanicsville,VA,23111,804-730-5970
Amayas Trucking,9801 Hagel Circle,Lorton,VA,22079,703-339-6985
Yair Trucking,6019 Alderdale Place,Haymarket,VA,20169,703-754-4638
Eugene M Boley Trucking,1260 Highland Farm Rd,Callaway,VA,24067,540-483-0985
Umana Trucking,11300 Enchanted Woodsway,Fredericksburg,VA,22407,703-929-3386
Cwell Trucking,198 Bruner Ridge Road,Monroe,VA,24574,434-929-0155
Tyree Bros Trucking,150 Ashby Place,Arrington,VA,22922,434-263-6605
New Covenant Transportation,300 Reedcreek Drive,Bassett,VA,24055,276-647-7300
Jonathan's Trucking,7006 Rhoden Court Number 204,Springfield,VA,22151,703-339-8839
Ridley Trucking,15223 Hardiways Mill Road,Dinwiddie,VA,23841,804-469-7006
Gemel Trucking,5001 Seminary Road Apt 1003,Alexandria,VA,22311,703-625-4937
Ideas Auto And Transport,54 Sugarland Sq Ct,Sterling,VA,20164,703-629-1347
T Fam Trucking,612 Treemont Ct,Chesapeake,VA,23323,757-650-8001
J & L Couriers,1357 Rabbit Run Road,Goodview,VA,24095,540-890-5859
Scott Mitchell Enterprises,5019 Jonathan Lane,Roanoke,VA,24019,540-819-3956
Weddle's Trucking,Rt 3 Box 263,Lebanon,VA,24266,276-794-9101
T W Soles Hauling,449 Riverside Manor Blvd,Fredericksburg,VA,22401,540-548-1131
Taylor And Taylor Trucking,21160 L P Bailey Hwy,Nathalie,VA,24577,434-376-7863
Pembroke Transport,7435 Blanton Road,Spotsylvania,VA,22551,540-582-9241
Huffman Rollback Service,154 Fields Ave,Lebanon,VA,24266,276-889-0271
"Sullivan Trucking, Inc.",Rt 600 Sunland Rd,Davenport Va,VA,24239,276-859-2489
Afid Trucking,8014 North Cumberland Road,Springfield,VA,22153,703-622-7874
B & M Trucking,28 Wimer Mountain Road,Blue Grass,VA,24413,540-290-7198
Dan River Construction And Hauling LLC,4046 Bill Tuck Highway,South Boston,VA,24592,434-572-9263
D & D Transport,1827 N Culpeper St,Arlington,VA,22207,703-528-1459
Edwards Transfer & Storage,114 N Main Street,Pearisburg,VA,24134,540-921-4409
J Robinson Trucking,2813 Hopkins Road,Richmond,VA,23234,804-231-2924
Matthew Pierce Trucking LLC,1315 Rich Neck Road,Warsaw,VA,22572,804-333-3582
"Bunker Repair Svc, Inc.",Route 818 Industrial Park Road,Bluefield,VA,24605,276-322-2273
Kustom Auto Transport,8128 Lee Highway,Troutville,VA,24175,540-966-2171
Richards Express,213 A Wolfe Ave,Marion,VA,24354,276-783-5177
H E D Trucking,5593 Malone Ridge Street 7204,Alexandria,VA,22312,703-786-4955
Mother & Daughter Trucking,14931 Abilene Way,Woodbridge,VA,22193,703-670-3681
Axiuz Trucking,5670 Northton Court,Woodbridge,VA,22193,703-732-0596
Kinder Touch Transportation,1445 Carlisle Ave,Richmond,VA,23231,804-226-1925
S&t Trucking,151 Claymont Road,Oak Grove,VA,22443,804-224-7461
Champion Chevrolet Buick Pontiac Gmc,1201 Armory Drive,Franklin,VA,23851,757-562-3151
Ampm Movers,21 Commerce Parkway Suite 101,Fredericksburg,VA,22406,540-368-3027
Focus 1 Trucking LLC,3711 Rolling Hills Ave #d3,Alexandria,VA,22309,703-799-1101
Dad Trucking,204 First Street,Martinsville,VA,24112,276-806-6219
Shaddow Trucking,24031 Pear Orchard Road,Moseley,VA,23120,804-639-9193
Strouth Trucking Co,# 8 Euclid Ave Ext,Bristol,VA,24201,423-340-0093
Plumbing Express Sagewater,450-c- South Picket Street,Alexandria,VA,22304,703-461-0345
Sidney & Judy Wilson Trucking,6423 Southampton Pkwy,Emporia,VA,23847,434-348-3164
Boxcart Moving & Storage Or Boxcart,45120 Global Plaza Ste 100,Sterling,VA,20166,703-263-3300
Craters & Freighters Seva,713 Fenway Ave Ste A,Chesapeake,VA,23323,757-548-5557
Barnes Trucking,201 Aster Lane,Charlotte Courthouse,VA,23923,301-943-2023
Mickey & Garfield Trucking,1200 S Arlington Ridge Rd #202,Arlington,VA,22202,703-486-1565
People's Choice Transport,13324 Nickelson Drive,Woodbridge,VA,22193,571-259-1076
Blue Ridge Freightline,355 Industrial Park Drive,Martinsville,VA,24148,276-650-3700
Davis Construction Services,14325 Willard Road Suite K,Chantilly,VA,20151,703-263-0404
Castillos' Hauling,22182 Lankford Highway,Accomac,VA,23301,757-787-7184
Randys Trucking,25425 Bradshaw Drive,Chantilly,VA,20152,703-731-3422
Coffey Trucking,158 Station Hill Drive,Mount Jackson,VA,22842,540-477-9239
"B J Auto Wholesale, Inc.",11120 Air Park Road,Ashland,VA,23005,804-798-9660
A & A Auto Pepair & Wrecker Service,143 River St,Marion,VA,24354,276-783-3254
Michael Trucking,5100 Columbia Pike #5,Arlington,VA,22204,703-608-4365
G&s Trucking,72 Enon Road,Fredericksburg,VA,22405,540-899-2160
Harman's Automotive,12789 Old Valley Pike,Edinburg,VA,22824,540-984-8800
S&s Transport,2027 Cedar Ave,Buena Vista,VA,24416,540-460-0257
Jamaho Trucking,1204 Erin Ct,Virginia Beach,VA,23454,757-491-6721
Jj Brown Transportation And Delivery Services LLC,5501 Brickshire Drive,Providence Forge,VA,23140,443-794-0345
4-most Transport,9030 Dahlgren Road,King George,VA,22485,845-234-1291
J&s Trucking,22009 Manning Sq,Sterling,VA,20166,703-421-1774
M & P Transportation,902 Parrish Street,Richmond,VA,23226,609-377-1577
Thompson Trucking,Hcr 72 Hwy 460,Big Rock,VA,24603,276-530-7790
Warsaw Used Auto Parts,10508 History Land Hwy,Warsaw,VA,22572,804-394-2802
A & H Transport,Route 2 Box 147,Vansant,VA,24656,276-597-8324
Jesse Mullins Jr Trucking,Rt 1 Box 379d,Grundy,VA,24614,276-935-1657
Chewning Trucking,13591 Countyline Church Rd,Woodford,VA,22580,804-448-4880
D & D Motor Carriers,2110 Highcourt Lane # 303,Herndon,VA,20170,703-629-4204
Aw Transport,9547 Mount Zion Road,Jetersville,VA,23083,804-561-2400
Adair Way Transport,1851 Adair Way,Harrisonburg,VA,22802,540-833-6513
Cac Trucking,1250 Hendricks Mill,Bracey,VA,23919,434-636-3526
Bizport,9 North Third Street,Richmond,VA,23219,804-648-7874
Hylton Trucking,76 Palmer Drive,Martinsville,VA,24112,276-340-0174
Crespo Trucking,17200 Morovia Rd,Orange,VA,22960,703-296-7650
Ronnie East Mobile Home Service,124 North Point Drive,Spotsylvania,VA,22551,540-582-1053
S&e Haley Trucking,12272 Davis Rd,Remington,VA,22734,540-439-8007
R E Sullivan Trucking,7158 Passapatanzy Dr,King George,VA,22485,540-775-2246
Peter J Trucking,2217 Lynhaven Ave,Richmond,VA,23234,804-291-9139
Hauling Trash,2983 Akron Street,Woodbridge,VA,22193,703-583-3536
Two Brothers Hauling,3562 Jefferson Davis Highway,Stafford,VA,22554,540-720-5014
W A Campbell Trucking Co,4882 Wolf Creek Road,Narrows,VA,24124,804-229-9274
Midge Creek Trucking,Rt 5 Box 135,Grundy,VA,24614,276-935-4212
J C O'connell Iv,68 Pheasant Run,Waynesboro,VA,22980,540-932-3666
Jangles Express,13387 Stonewall Jackson Dr,Woodford,VA,22580,804-633-6529
Dunn Distributing,2551 Applepie Ridge Road,Winchester,VA,22603,540-622-8155
S M Transport,5507 Kendrick Lane,Burke,VA,22015,703-426-4613
Sadd Duck Trucking,9763 Mountain Valley Road,Harrisonburg,VA,22802,540-269-4906
Morehead Trucking,661 Shortridge Drive,Bland,VA,24315,276-928-1722
Hannah Hauling,12050 Ivey Mill Rd,Chesterfield,VA,23838,804-590-0602
Cedar Lake Contractors,1189 Cedar Lake Rd,South Boston,VA,24592,434-470-1188
Big Dog Trucking,4712 Lillian Drive,Alexandria,VA,22310,571-278-3308
Foodservice Partners Of Virginia,2823 Franklin Rd Bulding B,Roanoke,VA,24014,540-344-0399
Cat Trucking,4243 Worcester Dr,Fairfax,VA,22032,703-421-4265
"K & Et Trucking, Inc.",4978 Karen Rd,Woodbridge,VA,22193,703-580-8316
M J Zook,159 Widner Way,Rural Retreat,VA,24368,276-686-5269
Steven C Vowell,557 Warrenton Road,Fredricksburg,VA,22405,540-408-3435
Garland L Anderson Trucking,4578 Lee Highway,Marion,VA,24354,276-781-0227
Virginia Express Transportation,9310 South Whitt Dr,Manassas Park,VA,20111,703-330-7055
Dca Msi,4451 Brookfield Corp Dr # 250,Chantilly,VA,20151,703-961-0190
Maz Transport,9208 Byrd Drive,Manassas,VA,20110,703-393-9867
Advantage Movers,203 Yoakum Pkwy #207,Alexandria,VA,22304,703-475-8092
"Black Transport, Inc.",7607 Sheffield Village Lane,Lorton,VA,22079,703-339-3598
Delmar Trucking,3709 Delmar Drive,Woodbridge,VA,22193,N/A
Cypress Xpress Carrier,23305 Pheasant Court,Petersburg,VA,23803,804-862-3916
G Swann & S Brown Trucking,600 N Latham St,Alexandria,VA,22304,202-538-7324
Proctor & Sons,9011 Centreville Road Lot 56,Manassas,VA,20110,571-233-9123
Strother Trucking,50 Porter Hill Road,Stafford,VA,22554,540-657-4825
Ferrell's Trucking,297 Rutledge Road,Red Oak,VA,23964,434-735-8881
Yancey Hauling Sr,3815 Shiney Rock Road,Clarksville,VA,23927,434-374-8042
W & W Trucken,13474 Bordwine Rd,Bristol,VA,24202,276-669-7333
Dl Graham Trucking,4463 Courtneys Corner Road,Bealeton,VA,22712,540-439-1630
Timber Enterprises,1584 Rock Lilly Rd,Wirtz,VA,24184,540-334-5983
S&s Hauling,512 Greyshire Dr,Chester,VA,23836,804-641-2865
"Shadows Hauling, Inc.",2119 Kaiser Drive,Frederickburg,VA,22407,540-898-9116
Summit Transport,315 63rd Street,Newport News,VA,23607,757-593-7102
Jas Delivery Service,2933 Pheasant Ln,Woodbridge,VA,22191,703-441-1543
C & C Trucking,8782 Mt Landing Road,Tappahannock,VA,22560,804-445-4184
T L Wray Trucking,395 Hopkins Road,Rocky Mount,VA,24151,540-489-3727
Dave Mitchell Trucking,1981 Long Hollow Road,Nickelsville,VA,24271,276-479-1043
Cet Trucking,3812 Riddles Bridge Rd,Goochland,VA,23063,804-878-1695
Honey Bal Trucking,4801 Pleasure House Ct # 101,Virginia Beach,VA,23455,757-460-1429
Mike Bottoms Trucking,1504 Virginia Ave,Alberta,VA,23821,434-949-7394
"Commercial Transfer System, Inc.",516 East Bellefonte Ave,Alexandria,VA,22301,703-299-1771
Luttrell Trucking LLC,326 Banbury Terrace,Winchester,VA,22601,540-722-4850
T H & Sons Trucking,8909 Moat Crossing Place,Bristow,VA,20136,571-259-2857
"Latin Tempo Distributors, Inc.",239 N Glebe Rd,Arlington,VA,22203,703-527-0091
Brook Trucking LLC,3099 Antrim Circle,Dumfries,VA,22026,703-989-9065
Kenny Celestin,5810 New Osborne Tpk,Henrico,VA,23231,804-400-1350
Alpha Trucking Service,117 Adams Drive,Leesburg,VA,20176,703-771-8752
Miracle Trucking,Route 2 378 A,Ewing,VA,24248,276-861-8819
Lattin Trucking,10510 Bent Tree Dr,Fredricksburg,VA,22407,540-295-5954
Bobby E Seamster Trucking,1572 Honey Tree Road,Chase City,VA,23924,434-372-3788
"Moore's Trucking, Inc.",5802 West Rois Road,Richmond,VA,23227,804-683-7352
The Moving Man,45 Tom's Road,Barboursville,VA,22923,434-990-9990
Jerry W Harris Trucking,1140 Sylvan Ave,Martinsville,VA,24112,276-340-5930
"Dragon Transportation, Inc.",114 Olinda Drive,Charlottesville,VA,22903,434-244-4022
"Corporate Presentation Systems, Inc.",12353 Sunrise Valley Drive Ste A,Reston,VA,20191,703-391-2636
Crown Trucking,2760 Wakewater Way,Woodbridge,VA,22191,703-499-1101
C A Butt Trucking,2517 South Centerville Tpke,Chesapeake,VA,23322,757-421-0400
Tennessee Auto-mart,18 Kelsey Way,Fincastle,VA,24090,540-473-0104
Caribe Transport,10715 Greta Lynn Ct,Fredericksburg,VA,22407,540-898-4409
American Way Transport,4905 Strader Rd,Chatham,VA,24531,434-656-8446
Carrier,5309 Countryside Circle,Jeffersonton,VA,22724,254-220-8291
Van's Transport,6401 West Grace St,Richmond,VA,23226,804-288-1468
Dale Gates Trucking,128 Ridgeview Dr,Cana,VA,24317,276-755-2088
Mccoy's Logistic Services,5332 Halter Lane,Norfolk,VA,23502,757-842-3224
Danro Trucking,1029 Pine Creek Rd,Swords Creek,VA,24649,276-991-2204
Jkj Transportation Specialists,504 E Maple Ave,Sterling,VA,20164,571-277-3066
C E Staton Trucking,224 Walker Street,Lexington,VA,24450,540-463-6723
Mojo Trucking,2701 Mckann Avenue,Norfolk,VA,23509,757-321-1885
L & S Transportation Services,27541 Saxis Road,Temperanceville,VA,23442,757-824-5991
Johnson Trucking,151 Claymont Road,Colonial Beach,VA,22443,804-224-7461
R E Bright Hauling,17013 Germanna Highway,Culpeper,VA,22701,540-727-9444
Jeep Express,385 Dry Branch Road,Churchville,VA,24421,540-337-8304
R F Sturgill,9620 Gauge Drive,Fairfax Station,VA,22039,703-690-8148
"Cotman Hauling, Inc.",5503 Coxson Rd,Richmond,VA,23231,804-222-5898
City Transporting,102 Preston Circle,Fredericksburg,VA,22406,703-723-1891
Benitez Trucking,1525 Walnut Street,Woodbridge,VA,22191,703-897-1398
Jfr Trucking,5805 Camdridge Dr,Fredericksburg,VA,22407,703-987-1456
Standes Trucking,500 Fox Drive,Winchester,VA,22601,540-303-2771
Cold Air Products,2500 Almeda Ave #201,Norfolk,VA,23513,757-857-7247
E Flores Trucking,5004 King Richard Dr,Annandale,VA,22003,703-471-3900
Firth Hauling,93 Firth Lane,Poquoson,VA,23662,757-868-0831
J&j Trucking,1514 Tyler Circle Apt 115,Woodbridge,VA,22191,571-237-7104
Kellers Transport,6615 Bestwicke Rd ,Burke,VA,22015,703-357-2456
Arauz Transportation,891 8 Katherine Court,Newport News,VA,23601,757-715-0758
"White's Hauling, Inc.",2111 Rhudy St,Richmond,VA,23222,804-329-0746
Vinces Trucking,43474 Stukely Drive,Sterling,VA,20166,202-497-3768
Poor Boys Trucking,107 Sara Nora Lane,Hillsville,VA,24343,276-728-3718
Evan Trucking,7705 Suraci Ct Apt 203,Annandale,VA,22003,202-345-5365
Keith Garner & Son Transport,22708 Kings Highway,Warsaw,VA,22572,804-493-8284
"M C Transport, Inc.",3555 Fairview Church Rd,Christiansburg,VA,24073,540-381-2277
Tony Enterprise,2349 Breckenridge Ct,Harrisonburg,VA,22801,540-422-9896
Sim A & D Trucking,801 Merlins Way,Harrisonburg,VA,22801,540-432-6407
Ford Transport,335 Middle Fork Road,Marion,VA,24354,276-646-3368
"L & R Express, Inc.",570 Decatur Road,Stafford,VA,22554,540-288-1971
Monster Auto Transportation,636 Clearlake Road,Richmond,VA,23236,804-901-4487
Kiae Trucking,250 Whiting Street # 1016,Alexandria,VA,22304,202-445-7664
T R M Delivery Systems,2921 Wighton Drive,Richmond,VA,23235,804-303-2448
James Mink Trucking,26198 Beech Cr,Avingdon,VA,24211,276-628-9047
Marine Engine Sales,5898 Thurston Ave,Virginia Beach,VA,23455,757-460-0117
J R Trucking,3815 Burlingame Pl,Alexandria,VA,22309,703-379-7763
"G & C Trucking, Inc.",1900 Woodlyn Dr Apt 2,Fredericksburg,VA,22401,703-590-6796
Alb Carriers,2948 Broadingham Road,Richmond,VA,23234,405-283-0521
Village Wrecker Service,331 Hogan Drive,Newport News,VA,23606,757-249-8090
Gallo Trucking,10196 Winchester Ct,Manassas,VA,22109,703-393-8368
S & E Express,262 Rocky Hollow Road,Atkins,VA,24311,540-782-3517
Jireh Trucking,5108 Cedar Road,Alexandria,VA,22309,703-799-9225
P & S Trucking,751 South Street,Bedford,VA,24523,540-587-5632
Randy's Auto Recovery,1408 Nuckolls Curve Rd,Galax,VA,24333,540-238-8065
Twm Transport,13364 Warwick Springs Drive,Newport News,VA,23602,757-877-9290
See's Transportation,3543 Friedens Church Rd,Mount Crawford,VA,22841,540-249-5652
Ed Newsome Auto Transport,14811 Antler Rd,Fredericksburg,VA,22407,540-786-8984
S Y T Trucking,7403 Barley Walk,Falls Church,VA,22042,703-577-6851
M L Marshall Freight,4450 Old Auburn Road,Catlett,VA,20119,N/A
R And T Trucking,4541 South Meadows Road,Gretna,VA,24557,804-432-8903
Raven Truckin Co,13517 Riverside Dr,Oakwood,VA,24631,276-963-1008
Jln Transportation,3621 Cedar Lane,Roanoke,VA,24018,540-989-7025
C & N Trucking,1670 East Branch Loop,Roseland,VA,22967,434-277-5877
J V Transportation,4063 S Four Mile Round Dr #20,Arlington,VA,22204,703-892-1758
Maynard H Haymaker Transport,13042 North Old Moneta Road,Moneta,VA,24121,540-297-9284
Rts LLC,1070 Knights Bridge,Forest,VA,24551,434-525-3500
Duran Transport,1335 N Van Dorn Street,Alexandria,VA,22304,703-567-1647
A S K Truck Services,1600 Colonial Avenue,Smithfield,VA,23430,757-357-0709
Ab Trucking,Rt 352,St Charles,VA,24282,606-589-4497
Lmr Trucking,15302 Nevada Street,Woodbridge,VA,22191,703-497-6474
Kingfish Trucking,23166 Prince Henry Lane Apt 1,Onancock,VA,23417,757-787-2262
Martin Trucking,5711 Price Fork Rd,Radford,VA,24141,N/A
"D M S, Inc.",8406 New Ashcake Rd,Mechanicsville,VA,23116,804-746-0702
Star City Motor Express,3118 Courtland Road,Roanoke,VA,24012,540-366-5291
A & M Trucking,4791 Callaway St,Elliston,VA,24087,540-268-5501
"Tnt Trucking, Inc.",2120 Gravels Rd,Harrisonburg,VA,22802,540-246-1783
Dean Transport,5236 Tacoma Mtn Rd,Wise,VA,24293,540-328-5646
Lighthouse Transport,9440 Military Road,Amelia,VA,23002,804-399-8537
Old Dominion Transport,Po Box 831,Mechanicsville,VA,23111,804-347-3161
Rednex Express,14835 Marina Road #4,Lanexa,VA,23089,804-966-4290
P T Hauling & Delivery,2587 Sylvan Moor Lane,Woodbridge,VA,22191,703-221-8728
Freight Jockey,8328 Little Florida Road,Mechanicsville,VA,23111,804-779-7322
Gordon & Sons Hauling,Rt 641 Lampkinton Road,Burgess,VA,22432,804-453-3143
E W Perrigan Trucking,23054 Riverside Drive,Grundy,VA,24614,276-935-8790
Orndorff Trucking,2642 Swartz Rd,Woodstock,VA,22664,540-459-4992
Justice Trucking,Rt 83,Clintwood,VA,24228,276-926-8803
Larry Stump Trucking,267 Crafty Fox Dr,Rocky Mountain,VA,24151,540-819-9899
Melvin Harris Trucking,940 Geneva Avenue,Chesapeake,VA,23323,757-485-3294
"Larry Neal Trucking, Inc.",South Side Rd 676,Rose Hill,VA,24281,540-445-8452
B & A Express,4003 W Main Street,Salem,VA,24153,941-696-2446
"Lil' Darling Trucking, Inc.",Rt 2 Box 361,Nickelsville,VA,24271,540-479-3711
"Ocean Carriers Trucking, Inc.",5404 Carisbrooke Court,Virginia Beach,VA,23464,757-652-2742
Joyce Trucking,1761 Splendors Gate Rd,Axton,VA,24054,276-650-4038
Wallace's Trucking,647 Crowsnest Ct,Virginia Beach,VA,23462,757-724-5832
Atlantic Vehicle Transport,6316 Crags Causeway,Virginia Beach,VA,23457,757-432-8228
Dudley Trucking,336 Pine Brook Lane,Baskerville,VA,23915,434-955-7486
Sled Dog Trucking,2729 Briarpatch Lane,Powhatan,VA,23139,804-901-1620
Bit Trucking,4732 Kenmore Ave #102,Alexandria,VA,22304,703-629-0052
Iris Transport,1563 Mitchell's Crossroads,Hillsville,VA,24343,336-374-4387
Roger Conner Trucking,118 Fernbrook Dr,Alta Vista,VA,24517,804-369-5969
Mander Trucking,2262 Stone Wheel Dr #b,Reston,VA,20191,703-620-2946
Burroughs Auto Transport,13419 Dahlgren Rd,King George,VA,22485,540-663-0984
Eldridge Trucking,Rt 4 Box 515,Jonesville,VA,24263,540-346-1143
All Us Limo,5501 Cherokee Ave 205,Alexandria,VA,22312,703-988-1927
H Rowe Trucking,1844 Martz Road,Harrisonburg,VA,22802,540-574-4082
"Happy Day Tour, Inc.",4304 Evergreen Lane # 203,Annandale,VA,22003,703-333-2720
Mountain Springs Transport,1352 Freemason Run Rd,Mount Solon,VA,22843,540-350-4180
I D S,2401 High Street,Portsmouth,VA,23704,336-476-4700
S & S Trucking,24168 Church Road,Accomac,VA,23301,757-787-7828
B & T Trucking,586 Greenhill Road,Blackstone,VA,23824,804-292-4697
Three D Express,22566 Mini Road,Accomac,VA,23301,410-957-4643
Brocks Moving Service,3108 N Parham Rd,Richmond,VA,23294,804-730-1258
Guzman Trucking Co,Rt 2 Box 2810,Front Royal,VA,22630,703-989-2045
Upper South Distributors,100 Main St,Rocky Gap,VA,24366,276-228-3758
Herrera's Bros Trucking,8403 Oakgrove Ct,Manassas,VA,20110,703-967-7282
Nicholson Trucking,203 Marshall Drive,Fredericksburg,VA,22408,540-891-4353
Cuzcatlans Trucking LLC,225 Bell Lane,Louisa,VA,23093,703-335-9651
Cornejo Trucking,14359 Watery Mountain Ct,Centerville,VA,20120,703-266-7537
Lloyd L Smith Trucking,480 Meadow Mills Rd,Middletown,VA,22645,540-539-0148
M & M Parker Trucking,6429 Grand Brooks Rd,Spotsylvania,VA,22553,301-899-1571
Rose Trucking,2716 Bowles Lane,Glen Allen,VA,23060,804-553-8763
Hernandez Trucking,Rt 2 Box 2810,Front Royal,VA,22630,571-237-7974
Duke Trucking,Rt 3 Box 266,Lebanon,VA,24266,276-794-7186
Freight Dog Express,19920 Perkinson Road,Jetersville,VA,23083,804-561-6272
Joe Christian & Son,696 Heavens View Lane,Gate City,VA,24251,276-452-4393
Clarke Trucking,508 S Trellis Ct,Newport News,VA,23608,N/A
Church Van,4196 Windflower Court,Dale City,VA,22193,703-878-3086
M C F Trucking,7280 Stokes Dr,Hayes,VA,23072,757-345-8789
Outlaw And Sons Trucking,Rt 3 Box 289,Topping,VA,23169,804-758-4027
Butch's Transport,11283 Claiborne Crossing Road,Fredericksburg,VA,22408,804-633-5775
Campbell's Trucking Co,10112 East High Street,Wakefield,VA,23888,757-899-3733
Terry Ramsey Trucking,Box 597,Saint Paul,VA,24283,540-762-0012
A & P Transportation,944 Sudbury St,Staunton,VA,24401,540-885-8085
"Moving On Up, Inc.",506 Shaw Rd #312,Sterling,VA,20166,703-464-8088
Sassy Express,836 Stones Dairy Road,Fieldale,VA,24089,540-673-1596
L A Shelton Jr Trucking,8063 Fredericks Hall Road,Mineral,VA,23117,540-967-5253
Bullhead Truck'n,16064 Providence Road,Abingdon,VA,24210,423-586-1076
Robert Doyle Trucking,Highway 58,Rose Hill,VA,24281,276-445-5548
Perkins Trucking,5112 Tiffany Woods Court,Richmond,VA,23223,804-328-1996
Martz Moving & Storage,14120 Gabrielle Way,Centreville,VA,20121,703-815-0338
United Sedan Service,500 A East Bellefonte Ave,Alexandria,VA,22301,703-684-5668
K & M Express,1951 Gableridge Turn # 401,Woodbridge,VA,22191,703-497-8666
Tomas Transport,3515 Old Williamsburg Road,Yorktown,VA,23690,757-820-0818
Elmer Morris Trucking,1003 Rougemont Ave,Charlottesville,VA,22902,540-949-4188
Cyndi's Auction Service,4876 118 Princess Anne Rd #174,Virginia Beach,VA,23462,757-435-2266
Mc Trucking,6130 Koiner Ford Road,Mount Crawford,VA,22841,540-478-5612
Tarleton Trucking,Po Box 153,Hague,VA,22469,804-472-5828
K & W Trucking,10138 Brightwood Ave,Richmond,VA,23237,804-586-0843
Sullivans Auto Sales,476 Cambridge Street,Fredericksburg,VA,22405,540-373-9553
H T Huffman Trucking,13209 Thornton Dr,Gainesville,VA,20155,703-753-9255
Phillip C Mcgee Trucking LLC,18263 Old Branchville Rd,Boykins,VA,23827,757-654-0914
Parks Trucking,600 I Settlers Point,Damascus,VA,24236,540-475-3743
Jam Express,4100 Hoffman Drive,Woodbridge,VA,22193,N/A
V & A Transport,113 Wreck Shoal Dr,Newport News,VA,23606,757-344-3209
J R Tolson Trucking,9317 Nancy Street,Manassas,VA,20111,703-330-0285
Fat Mac's Automotive Enterprises,1225 N George Washington Hwy,Chesapeake,VA,23323,757-487-0035
Navarro Trucking,2262 Berger Pl,Herndon,VA,20170,703-926-2403
Callaghan Express Trucking,4226 Johnson Creek Rd,Covington,VA,24426,540-965-0733
Flatwoods Express,Rt 2 Box 175 Stoots Mtn Road,Austinville,VA,24312,540-699-1910
Morris Trucking,248 Old Bethel Church Road,Winchester,VA,22603,540-667-9225
M A G Hauling,16 Tom Jenkins Rd,Fredericksburg,VA,22406,540-286-6481
Cougar Mountain Transport,200 Schickle Lane,Gore,VA,22637,540-888-3636
B & K Hauling,10131 Statesboro Ct,Manasas,VA,20109,703-369-3201
Bayline Transport,4838 Geo Wash Mem Hwy #11,Gloucester Point,VA,23062,804-694-4333
Paradise Trucking,6950 East River Road,King William,VA,23086,804-769-9410
Parm Trucking,2504 Parkside Ave,Richmond,VA,23228,804-264-3362
Robbins Hauling,4928 Narragansett Dr,Virginia Beach,VA,23462,757-499-0968
Uzeda Transport,6104 Hibbling Ave,Springfield,VA,22150,703-913-5489
Ratcliffs Auto Clinic,310 Trigg Street,Abingdon,VA,24210,276-628-8771
James River Moving & Storage,3317 Venture Ln,Williamsburg,VA,23188,757-229-8118
Larmer Trucking Company,173 Deerfield Ln,Seven Mile Ford,VA,24354,276-646-8528
K&m Transportation,9293 Springs Rd,Warrenton,VA,20186,540-349-9470
Windy Hill Trucking,3 Raliegh Court,Winchester,VA,22601,304-947-7556
Clas Hauling,503 Romayne Dr,Newport News,VA,23601,757-599-7570
"Vansid Trucking, Inc.orporation",2905 Brook Dr,Falls Church,VA,22042,703-237-0631
Green's Contract Hauling,3900 Lamplishten Drive,Richmond,VA,23234,804-231-3535
Woodard Transport,4210 Sheperds Road,Partlow,VA,22534,540-582-3809
Jamie Blankenship Trucking,Route 646,Buchanan,VA,24658,540-566-4539
Hayden's Auto Transport LLC,312 Madison St,Colonial Beach,VA,22443,804-224-2374
M G C V Trucking,8465 Diablo Court,Alexandria,VA,22309,703-799-4288
Jenkins Trucking,13812 Hopkins Gap Road,Fulks Run,VA,22830,540-896-1065
Franklin's Transport,1095 Bill Tuck Hwy,South Boston,VA,24592,434-572-2814
"Interstate Equipment Services, Inc.",710 Randolph Avenue Extension,Cape Charles,VA,23310,757-331-2442
Us Fast Transport,1215 Springtide Place,Herndon,VA,20170,703-868-5098
Cook's Auto Sales,1819 W Main St,Danville,VA,24541,434-793-3665
Corbin's Trucking,9996 Kentucky Springs Rd,Mineral,VA,23117,540-894-8898
Ely Trucking,Highway A 58 Rt 1,Dryden,VA,24243,N/A
Logan Trucking,Route 2 Box 54,Bluefield,VA,24605,540-322-1949
East River Safety And Transport,110 Graham Ave,Bluefield,VA,24605,540-322-1327
Quinn Transport Services,5737 Newgate Tavern Ct,Centreville,VA,20120,703-803-6393
Smith Trucking,Silver Spur Mhp Lot 20 Rt 67,Doran,VA,24612,540-963-8382
T And T Trucking Virginia,3205 Apex Circle,Falls Church,VA,22044,703-538-5565
Robert E Healey Trucking,Rt 630 Box 26 G 1,King And Queen Court,VA,23085,804-769-9330
Greci Transport,10081 Cool Spring Road,Mechanicsville,VA,23116,804-559-3576
Jason Dotson Trucking,Po Box 204,Nickelsville,VA,24271,540-479-2555
"Dd Express, Inc.",848 32nd Street,Newport News,VA,23607,757-344-4444
Boat Lovers Transport,4809 Cole Pt Rd,Hague,VA,22469,804-472-9223
J & L Trucking,448 Fishlake Road,Cana,VA,24317,540-755-4061
"Stone Cold Transportation, Inc.",6651 E Indian River Road,Virginia Beach,VA,23523,757-404-9404
C&e Jones Trucking,1106 Chapmons Ford Rd,Emporia,VA,23847,804-634-2641
W T Trucking,765 Riverside Road,Chilhowie,VA,24319,540-646-8666
"Brother's Trucking, Inc.",5601 Seminary Rd #405 N,Falls Church,VA,22041,703-671-9776
J F Redman Trucking Co,20701 Genito Rd,Amelia,VA,23002,804-389-4578
Britt Trucking,10035 New Road,Ivor,VA,23866,757-859-6268
Robert And Son's Moving,957 Pollard Road,Christiansburg,VA,24073,540-381-3738
Sunshine Star Trucking,Rt 1 Box 199,Raven,VA,24639,540-498-7141
Circle G Trucking,12170 Lindell Road,Meadowview,VA,24361,540-944-5887
F&j Trucking,611 Halleck St,Fredericksburg,VA,22407,540-373-9793
K R N Trucking,289 Preston Road,Martinsville,VA,24112,276-957-1487
Best Buy Auto Sales,3902 Jefferson Davis Hwy,Stafford,VA,22554,703-441-8799
Positive Auto Express,2033 Shilleagh Road,Chesapeake,VA,23323,757-547-7511
Stan Trucking,36 Piedmont Dr,Stafford,VA,22554,540-220-1844
"R & D Trucking, Inc.",P O Box 504,Melfa,VA,23410,757-789-3475
Right-a-way Transport,4817 Greenbranch St,Partlow,VA,22534,540-582-2910
H P Trucking,259 Bowen Road,Emporia,VA,23847,804-348-3169
Star Lite Transport,2177 Daywood Lane,Marion,VA,24354,540-783-2343
"Meredith Trucking, Inc.",5030 New Kent Hwy,Quinton,VA,23141,804-932-4557
Joan L Statzer Trucking,1675 Cross Roads,Lebanon,VA,24266,276-794-7338
Arnette Transport,1533 Jordan Store Road,Kents Store,VA,23084,804-589-3723
Carrier Midatlantic Roanoke,3517 Aerialway Drive 24018,Roanoke,VA,24018,540-343-8054
Red Jenkins Auto Center,8500 Brook Rd,Glen Allen,VA,23060,N/A
Planrite Delivery Service,721 Brandermill Dr,Chesapeake,VA,23322,N/A
P Com Network Services,45472 Holiday Drive Suite 1,Dulles,VA,20166,703-226-2600
R L R Trucking,3042 Terry's Mill Rd,Meadows Of Dan,VA,24120,N/A
Automedix,3901 Walworth Drive,Richmond,VA,23237,804-366-6916
S T W Trucking,13011 Lindell Road,Meadowview,VA,24361,540-944-3584
Hargrove Trucking,2662 Tobacco Hill Rd,Red Oak,VA,23964,434-735-8317
Double D Trucking,19001 Lankford Hwy,Eastville,VA,23347,757-678-7181
Mhh Trucking,7908 Poplar Camp Road,Austinville,VA,24312,540-728-2194
Mark 1 Transport,2458 Merry Pt Road,Lancaster,VA,22503,804-462-3118
Food Express,945 Beverly Hills Drive,North Tazewell,VA,24630,276-322-5231
W H Jones Hauling,6041 Camellia Dr,Suffolk,VA,23435,757-686-2319
L L Davis Hauling,4413 Trigger Ct,Virginia Beach,VA,23456,757-471-3862
"Doris Trucking, Inc.",1007 S Rolf Street,Arlington,VA,22204,703-920-8333
Verona Car Care Center,15 Locust Street,Verona,VA,24482,540-248-7354
Full Sail Cargo Express,3492 Gamage Dr,Norfolk,VA,23518,757-615-3734
Rcw Trucking,8053 Adams Creek Road,Gloucester,VA,23061,N/A
M & D Trucking,506 Tazewell Ave,Bluefield,VA,24605,276-322-0131
"Pinolero Trucking, Inc.",14800 Thompson Rd Lot G,Chantilly,VA,20151,N/A
"La Nica Trucking, Inc.",14800 Thompson Rd Lot G,Chantilly,VA,20151,240-372-4977
Tweedy's Trucking,586 Bruner Rd,Monroe,VA,24574,804-929-1515
Gillespie Trucking,1187 Layman St,Goodview,VA,24095,540-890-5641
Wilbert Allen Hauling,2213 Second Ave,Richmond,VA,23222,804-228-1648
Mam Express Delivery,5431 Remuda Dr Apt 3,Richmond,VA,23234,804-279-0477
Forbes Transfer Company,6004 Sugarbush Drive,Richmond,VA,23225,804-421-3083
R & T Trucking,432 Pearson Dr,Brodnax,VA,23920,434-577-2019
John White Trucking,7972 Christanna Hwy,Gasburg,VA,23857,434-577-9078
Wj Cannon Hauling,28685 Round Hill Rd,Sedley,VA,23878,757-653-9087
K B Trucking,327 Village Road,Shipman,VA,22971,N/A
Emker Transportation,2966 Layman Trestle Rd,Harrisonburg,VA,22802,540-433-3161
A & J Trucking,Po Box 251,Atlantic,VA,23303,757-824-6251
"Monkey's Transport, Inc.",1206 Marengo Rd,Lacrosse,VA,23950,804-636-2815
Kelly's Welding & Services & Advanced Excavations,5812 Three Penny Dr,Fairfax Station,VA,22039,703-249-8042
Sargent Trucking,206 Hollybrook St,Cedar Bluff,VA,24609,540-964-1040
Footloose Trucking,1145 Canterbury Road,Stephens City,VA,22655,540-869-4879
Ridley Trucking,29320 Bayside Dr,New Church,VA,23415,757-824-9804
Theo Trucking,301 Appalachian Dr,Stafford,VA,22554,703-494-7243
V J S Hauling,755 Shell Rd,Chesapeake,VA,23323,757-485-5980
J & M Trucking,Rt 1 Box 64c,Nickelsville,VA,24271,540-479-3109
C B L Hauling,313 Ellery Court,Fredericksburg,VA,22408,540-710-6257
"Elohim Trucking, Inc.",4824 Kenmore Ave Apt 304,Alexandria,VA,22304,703-212-7594
Helping Hands,4254 Lankford Hwy,New Church,VA,23412,757-694-7460
J A Trucking,P O Box 4032,Alexandria,VA,22303,571-220-9901
W M Perkins Hauling,P O Box 833,Ruther Glen,VA,22546,804-366-1042
Jackson Trucking,39762 Lovettsville Road,Lovettsville,VA,20180,540-822-9008
Kennon Bowen Trucking,333 E Darl Avenue,Colonial Beach,VA,22443,804-214-9744
C J Holland Trucking,2496 The Great Rd,Fieldale,VA,24089,540-673-1593
R C A T,207 E Holly Ave #206,Sterling,VA,20164,571-436-4031
L Jones & Son Trucking LLC,5259 Simpkins Dr,Eastville,VA,23347,757-678-7514
Black Kat Trucking,403a County St,Suffolk,VA,23434,757-418-7155
Bennett Moving & Delivery Company,2623 Huntington Avenue,Alexandria,VA,22303,703-960-9359
"Rlt Trucking, Inc.",Po Box 166,Charlotte Court House,VA,23923,804-542-5183
Hayes Co Logistics,4836 Burtwood Lane,Richmond,VA,23224,804-562-7389
Pro-haulers,34 Loch Drive,Staunton,VA,24401,540-886-1646
S & N Hauling,2339 Locks Landing,Chesapeake,VA,23323,757-558-0235
"Courtney's Trucking, Inc.",10008 Tidewater Trail,Fredericksburg,VA,22408,540-371-0088
Pillow Trucking,201 Hill Avenue,Keysville,VA,23947,804-736-2146
Vannoy Trucking,16076 Lee Hwy,Bristol,VA,24202,540-466-5451
Lawless Tire Removal Service,127 Fayerdale Drive,Stuart,VA,24171,N/A
Dbl Trucking,22306 Highway 47,South Hill,VA,23970,804-447-5008
"South Hauling, Inc.",Hcr 67-1240 Warner,Middlesex,VA,23179,804-758-3672
Joe Harris Trucking,308 Meadows Creek Rd,Chesapeake,VA,23323,757-558-8340
J S Lewis Transportation,8647 Richmond Highway #620,Alexandria,VA,22309,877-895-2656
L & B Trucking,201 Blackwater Dr,Petersburg,VA,23805,804-733-7381
Kenneth Weaver Hauling,9515 15th Bay,Norfolk,VA,23518,757-362-2118
Crescent Transportation Group,5309 Franconia Rd,Alexandria,VA,22310,703-971-4900
R & A Parrish Trucking,2986 Brodnax Road,Brodnax,VA,23920,434-636-4259
"Barry D Riddick Hauling, Inc.",1200 Tarington Landing,Virginia Beach,VA,23464,757-404-9163
Vasquez Trucking,4115 A S Four Mile Run Dr,Arlington,VA,22204,N/A
J & R Trucking,1026 Chilton Road,Montross,VA,22520,804-493-9671
"Chontales Trucking, Inc.",14800 Thompson Rd Lot G,Chantilly,VA,20151,N/A
Villatoro Trucking,10178 Wilmington St,Manassas,VA,20109,703-530-9422
Custom Express,4035 Hunterstand Court,Charlottesville,VA,22911,434-973-8865
Duane Gill Trucking,Hwy 23 South 11 Miles Se,Big Stone Gap,VA,24219,540-546-3050
Four Star Trucking,21237 Fleetwood Heights Rd,Elkwood,VA,22718,540-727-8731
Rjh Trucking,248 Little Country Lane,Austinville,VA,24312,540-728-9576
Homestead Enterprises,355 Blue Spruce Drive,Martinsville,VA,24112,276-638-3458
Davis Trucking,19150 Church St,Parksley,VA,23421,757-709-1399
Covitta Trucking,2505 Carol Place,Falls Church,VA,22046,571-238-4856
B A Stoddard,8157 Old Cavalry Dr Ste 207,Mechanicsville,VA,23111,804-347-0250
A & D Trucking,5912 Old Giles Rd,Dublin,VA,24084,540-674-1325
Midnite Express,10976 John Kline Lane,Broadway,VA,22815,540-896-5329
Mountain Man Trucking,1523 Camp Roosevelt Road,Fort Valley,VA,22652,540-933-6174
Canada Trucking,448 Halifax St,Phenix,VA,23959,804-542-5646
A T Trucking,1312 N 34th,Richmond,VA,23223,804-307-8039
R L Trucking,188 Clinton Street,Harrisonburg,VA,22802,540-433-7862
Sdx Courier,9177 Pembridge Drive,Mechanicsville,VA,23116,877-795-1505
W A Reubush Trucking,1327 Keezletown Rd,Weyers Cave,VA,24486,540-234-8098
"Solomon Trucking, Inc.",13808 Rosewood Dr,Woodbridge,VA,22193,703-583-9448
T C S,14227 Savannah Drive,Woodbridge,VA,22193,703-670-0638
Haul It All Trucking,1 Meade Ct,Stafford,VA,22554,703-658-1003
M & M Trucking,8374 Bayford Road,Weirwood,VA,23413,757-710-5405
"Jensco Trucking, Inc.",23094 Clayman Valley Rd,Bristol,VA,24202,540-676-4320
"Goodson Trucking, Inc.orporated",24103 High Point Road,Bristol,VA,24202,276-591-7817
A-1 Auction Service,254 Swanson Ave,Danville,VA,24540,804-799-3979
Dr Trucking,1181 Old Sawmill Road,Harrisonburg,VA,22802,540-896-3060
Executive Courier Service,506 Shaw Road Suite #302,Sterling,VA,20166,703-707-6200
Trost Transport,106 Otterview Rd,Forest,VA,24551,434-610-8767
Four Crab Trucking,61 Hayrick Road,Waynesboro,VA,22980,540-942-5548
T E Hayes Trucking,25 Susan Lane,Stafford,VA,22554,540-288-1172
Mullins Trucking,Us 460,Mavisdale,VA,24627,540-498-4886
M & S Trucking,385 Greenwell Ct,Lynchburg,VA,24502,434-239-2450
Fm Watson Trucking,700 Mt Ararat Rd,Clarkesville,VA,23927,434-374-2478
Var Transport,404 Gallbush Rd,Chesapeake,VA,23322,757-421-2100
Ck Courier,219 Elliott Ave,Charlottesville,VA,22902,434-964-9000
Inova Heart Services,3300 Gallows Rd,Falls Church,VA,22042,703-698-2894
Military Newspapers Of Virginia,2509 Walmer Ave,Norfolk,VA,23513,757-857-1212
Fayne Owens Trucking,Rt 1 Box 214a,Clinchco,VA,24226,276-835-1395
P A Booker Hauling,143 Pheasant Run,Waynesboro,VA,22980,540-949-5457
"H B Enterprises, Inc.",2690 Penbury Court,Woodbridge,VA,22191,703-853-0999
Anchor Auto Sales,3464 Valley Pike,Winchester,VA,22602,540-869-2081
Eure Hauling,3321 Holland Road,Suffolk,VA,23434,757-539-0811
Uts Trucking,29 Potomac Creek Drive,Fredericksburg,VA,22405,240-876-2747
Gotta Go Trucking,Hc 2 Box 57,Blue Grass,VA,24413,540-474-3244
Kam Transport,271 Chelmsford Court,Sterling,VA,20165,703-675-4329
Dereck's Trucking,Hc 67 Box 66,Dante,VA,24237,276-275-6202
G & G Trucking,1161 Manning Dr,Valentines,VA,23887,434-577-2036
M S Chambers Trucking,Po Box 1053,Dillwyn,VA,23936,804-983-2411
J R Express,5520 N Morgan St #203,Alexandria,VA,22312,631-774-0439
M & W Trucking,339 Dawnridge Lane,Troutville,VA,24175,540-977-9717
R J D Trucking,1931 Kennedy Dr #101,Mclean,VA,22102,571-238-0004
American Weigh Trucking,908 E Cork Street,Winchester,VA,22601,540-662-5191
Smitty's Trucking,40 Lakemont Drive,Lancaster,VA,22503,804-462-7052
Lockhart Trucking,2316 Hunters Lane,Blairs,VA,24527,434-836-1936
Garland L Brown Truckin',8 Cloverdale Ave,Cloverdale,VA,24077,540-529-4012
Marshall Trucking,5049 Grassy Pond Road,Emporia,VA,23847,252-532-6663
Pb Trucking,3665 Stoney Creek Rd,Edinburg,VA,22824,540-984-3379
Ferguson Trucking & Excavating,21098 Lahore Road,Orange,VA,22960,540-661-5055
Ahyoka Trucking,216 Kent Dr,Ruther Glen,VA,22546,804-448-3964
Select Transport,1915 Cumberland Rd,Farmville,VA,23901,434-392-5482
"Oddball Transport, Inc.",87 Poplar Road,Front Royal,VA,22630,540-635-5131
Marbaker And Sons Transport Services,10301 Edenton Rd,Partlow,VA,22534,540-895-0382
Double L Trucking,265 Hanover Place,Ridgeway,VA,24148,704-435-6834
Branch Moving,4317 Appalachian Drive,Fieldale,VA,24089,276-673-2324
E Dickerson General Hauling,6470 Chartwell Drive,Virginia Beach,VA,23464,757-361-0112
King Of The Jungle Trucking,10904 Coverstone Dr #c2,Manassas,VA,20109,703-393-2567
Turner's Trucking,1013 Mt Zion Road,Luray,VA,22835,540-743-7765
Bonilla Trucking,3745 Madison Lane Aptb,Falls Church,VA,22041,703-845-7906
Janka & Sons Trucking Co,5720 Eunice Ct Apt D,Richmond,VA,23228,540-574-9945
R & T Horse Transport LLC,43011 Northlake Overlook Ter,Leesburg,VA,20176,703-667-3125
Short Trucking,6647 Flat Rock Rd,Warfield,VA,23889,434-949-6116
Owens Express,1610 Lakeview Dr,Colonial Beach,VA,22443,804-224-1099
T G M Transport,Star Rt 3 1,Honaker,VA,24260,276-883-4024
"Brisa Trucking, Inc.",1709 S Taylor St #4,Arlington,VA,22204,703-930-1804
Catron Trucking,4448 Cedar Springs Rd,Rural Retreat,VA,24368,276-686-6763
T & S Transport,286 Land-or Dr,Ruther Glen,VA,22546,804-448-9094
Gregory Mobile Home Service,34153 Seven Spring Rd,Glade Spring,VA,24340,276-429-5289
Reid Trucking,2900 Lansing Ave,Portsmouth,VA,23704,757-397-7527
All American Beverage Services,1629 E Oak Lake Blvd,Midlothian,VA,23112,804-744-6900
E & C Ramirez Trucking,1227 Old Furnace Road,Harrisonburg,VA,22802,540-664-2700
J A Woods Hauling,102 Smithtown Rd,Ashland,VA,23005,804-798-4717
Capital Buick Gmc,5500 South Laburnum Ave,Richmond,VA,23231,804-222-4600
Ballard Transporters LLC,326 Manassas Drive,Manassas Park,VA,20111,703-365-8248
Hillbilly Transportation,17188 Confederate Road,Glade Spring,VA,24340,276-475-5471
Double A Express,9424 Plank Road,Spotsylvania,VA,22553,540-287-8934
Aistrop Trucking,10 East 29th St North,Big Stone Gap,VA,24219,423-361-5791
R And J Brown Trucking,11114 Mitchell Road,Rapidan,VA,22733,301-574-0323
"J A Worley Trucking, Inc.",13106 Woolwine Hwy,Woolwine,VA,24185,276-930-1146
"Jm Trucking Of Northern Va, Inc.",8400 Leaf Rd,Alexandria,VA,22309,703-360-1355
C S A Trucking,1313 Old Ebenezer Road,Marion,VA,24354,276-783-5288
Fortune Hauling,2119 Rosemount Rd,Hustle,VA,22476,804-445-9326
G Guel Trucking,6154 Oak Lawn Lane,Woodbridge,VA,22193,571-244-8969
American Freight Masters,104 Stevens Drive,Stafford,VA,22554,703-403-9727
Potter's Tour Service,495 Wilson Ave,Martinsville,VA,24112,276-632-1496
Ccnb Trucking,9122 Verbena Ct,Manassas,VA,20110,703-393-7760
I R Kidd Transport,Rt 2 Box 481,Bluefield,VA,24605,276-322-4665
"Hana Distributor, Inc.",200 Yaukum Pkwy #906,Alexandria,VA,22304,718-672-0883
William A Sims Jr Trucking,706 Pine St,Cliftonforge,VA,24422,540-862-4716
Wes Reynolds Auto Transport,13538 Forest Road,Forest,VA,24551,434-444-9511
Meda Trucking,13204 Tree Top Court,Woodbridge,VA,22191,703-327-8143
Nyte Ryder Trucking,1741 Sunset Dr,Dryfork,VA,24549,434-724-6603
Bud's Trucking,8243 West Lee Hwy,Rural Retreat,VA,24368,276-686-5089
H & N Transportation,101 East 37th Street,Richmond,VA,23224,804-943-7358
J L Dean Trucking,7911 Beacon Hill Road,Harrisonburg,VA,22802,540-433-7984
Suarez Trucking,8112 Winter Blue Ct,Springfield,VA,22153,703-491-3563
C-ville Logistics,514 Pentons Shopping Center,Charlottesville,VA,22911,434-971-5913
V R A Trucking,3950 Persimmon Dr #102,Fairfax,VA,22031,N/A
Peerless Services,773 Island Road,Bristol,VA,24201,276-494-3155
T M E Trucking,6500 Deerskin Drive,Fredericksburg,VA,22407,N/A
Ra Napier Transport,11819 Woodland View Drive,Fredericksburg,VA,22407,540-786-8013
K & S Trucking,3032 Shawnee Dr,Winchester,VA,22601,540-545-8843
"Lj, Inc.",610 West Cove Ct,Norfolk,VA,23502,757-455-8801
Casse Transportation,3724 Stonecroft Blvd,Chantilly,VA,20152,N/A
Five G Trucking,10542 Old Indian Creek Rd R693,Pound,VA,24279,276-796-6006
"Claros Trucking, Inc.",466 Virginia Ave,Herndon,VA,20170,703-932-2809
Armada Transport,3219 Quail Hill Dr,Midlothian,VA,23112,804-744-5399
Crab And Lobster Distributors,4 Pinecrest Ct,Stafford,VA,22554,540-764-2722
"All-trucking, Inc.",1120 Crystalwood Circle,Chesapeake,VA,23320,757-549-2163
Mike Linthicum Trucking,2103 Florida Ave,Lynchburg,VA,24501,434-528-4704
Pea Ridge Trucking,218 Egg Lane,Kenbridge,VA,23944,434-480-0405
Dale A Price Trucking,12455 Harpers Run Rd,Bealeton,VA,22712,540-439-8603
Rg Alfaro Trucking,9912 Bethwood Drive,Fredericksburg,VA,22407,540-891-7361
Baker River Transport,407 5th St,Clarksville,VA,23927,434-738-7803
King Boy Trucking,Rt 628 Hc-1 Box 4,St Stephens Church,VA,23148,804-769-1908
Ctc,115f Windsor Pines Way,Newport News,VA,23608,757-303-6102
Richco Hauling,7936 Timber Drive,Quinton,VA,23141,804-932-8859
Ramiro's Trucking,16533 Sherwood Pl,Woodbridge,VA,22191,703-441-8532
Moreland Trucking,12700 South Middle Road,Edinburg,VA,22824,540-984-8239
H & S Trucking,31462 Big Pine Rd,Painter,VA,23420,757-442-4012
Oll Trucking,1127 Eygpt Rd,Ashland,VA,23005,804-305-2520
"Romoaldo Chavez Trucking, Inc.",6154 Oak Lawn Ln,Woodbridge,VA,22193,703-583-8211
"B A Sheen Trucking, Inc.",9108 Yorkshire Lane,Manassas,VA,20111,703-393-7540
A-anderson Trucking,6667 Artillery Rd,Port Republic,VA,24471,540-289-5001
C T Trucking,13283 Kenny Rd,Dale,VA,22193,301-270-3097
Tlc Trucking,9394 Kings Hwy,King George,VA,22485,540-220-3227
J L Trucking,500-2 Batts Dr,Emporia,VA,23847,774-688-9193
Cook Trucking,State Rt 616,Jewell Ridge,VA,24622,276-881-8216
Old Dixie Trucking,897 Pan Court,Newport News,VA,23601,757-599-5731
Eddy's Trucking,5235 Monroe Drive,Springfield,VA,22151,703-914-5684
Jch Truckings,8406 Cavalry Ln,Manassas,VA,20110,703-392-0552
W A Trucking,1729 Milton Street,Alexandria,VA,22303,703-660-1603
Overtime Trucking,39390 Rickard Rd,Lovesville,VA,20180,540-882-3403
Brent Shifflett Hauling,2321 Ruritan Road,Scottsville,VA,24590,434-589-8402
Direct Line Transportation LLC,11400 Glendevon Road,Chesterfield,VA,23838,804-717-5171
Lea Trucking,5924 Acosta Dr,Springfield,VA,22150,703-644-9195
Parker Hauling,1741 Back Creek Rd,York,VA,23696,757-877-2450
Mario Eguino Transport,7204 Oakland Ave,Falls Church,VA,22042,703-238-2068
Ih & Ch Trucking,2185 White Cornus Lane,Reston,VA,20191,703-860-5312
S S Trucking,7616 Mcworther Place #102,Annandale,VA,22003,703-941-7669
Randle Auto Transport,10510 Sunflower Ct,Fredericksburg,VA,22407,540-834-2484
Kidd Trucking,Rural Route 659,Scottsville,VA,24590,434-286-2049
Katie Marie Trucking LLC,Rr1 Box 71-g,Ewing,VA,24248,276-445-3901
T & S Trucking,22467 Bayside Road,Onacock,VA,23417,757-787-2047
Steffey Trucking Co,78 Flatrock Lane,Lebanon,VA,24266,276-698-4572
T & M Express LLC,80 Bonbrook Rd,Wirtz,VA,24184,540-494-9002
"Banks Auto Parts, Inc.",8901 Jeff Davis Hwy,Fredricksburg,VA,22407,540-898-0025
J F Boyd Trucking,10501 Harry Byrd Hwy,Berryville,VA,22611,540-955-2926
"Knox & Son Trucking, Inc.",260 Providence Rd,Chesapeake,VA,23325,757-420-4524
D & S Transportation,2541 Robertson Rd,Hurt,VA,24563,434-324-7814
Kenneth John Trucking,159 Louise Dr #2,Newport News,VA,23601,757-679-4486
Triple J Trucking,37360 Snickersville Turnpike,Purcellville,VA,20132,540-338-7519
Taylor Trucking,4331 Jacobs Bend Ter,Richmond,VA,23236,804-651-4823
Barlow Trucking,17943 Barlow Lane,Glade Spring,VA,24340,276-475-3650
Highlands Logistics,26373 Northridge Rd,Meadowview,VA,24361,276-944-0971
J & S Trucking,119 Sunset Drive,Madison Heights,VA,24572,804-845-6007
William Scott Trucking,7982 Porters Rd,Esmont,VA,22937,434-286-2838
"R L Green Hauling, Inc.",11240 Winterpock Rd,Chesterfield,VA,23838,804-378-5004
Murray Auto Transfer,12265 Ridge Road,King George,VA,22485,703-403-6804
Provident Transportation,2079 Commonwealth Drive,Charlottesville,VA,22901,N/A
Bagwell Trucking,27083 Red Wood Dr,Melfa,VA,23410,757-787-7222
Rw Trucking,3499 Peep Lane,Elkton,VA,22827,540-298-0639
Westbury & Sons Trucking,6400 Longdale Furnace Road,Clifton Forge,VA,24422,540-862-4295
J E Lawless Trucking,200 Triple Creek Drive,Axton,VA,24054,276-650-8597
Curly Transport,101 Targee Place,Stephens City,VA,22655,540-868-1562
All American Auto Express,927 Monacan Park Rd,Madison Heights,VA,24572,434-546-5227
Julio's Trucking,3900 Executive Avenue Apt #d2,Alexandria,VA,22305,703-684-1896
Kathy Tharpe & Son Trucking,2007 Reliance Road,Midletown,VA,22645,540-869-0342
Ricky Conner Trucking,502 Langhorn Mill Road,Meadows Of Dan,VA,24120,540-593-2236
Riggs Trucking,7827 Lewis Chapel Cir #102,Lorton,VA,22079,703-339-1159
Wb Trucking,5138 New Market Rd,Richmond,VA,23231,804-795-1419
Setser Trucking,Rt 2 Box 225h,Lebanon,VA,24266,276-794-7492
Winstons Trucking,5960 Golden Wheel Road,Providence,VA,23140,804-966-2245
G S Trucking,4931 Shen Lake Drive,Harrisonburg,VA,22801,540-578-1802
A & E Trucking,5392 Laura Belle Ln,Fairfax,VA,22032,703-856-7837
P&b Trucking,2076 Lennig Rd,Nathalie,VA,24577,434-349-9925
H Scruggs Trucking,Route 1 Box 19b,New Canton,VA,23123,N/A
Jojac's Truckin,2277 Oakland Rd,Louisa,VA,23093,540-967-0519
Tandal Transport,Route 2 Box 328c,Clintwood,VA,24228,276-926-5616
Chrome-a-holic Trucking,164 Comers Rock Road,Elk Creek,VA,24326,276-768-6881
Leonard G Stiltner Trucking,Rt 1 Box 420n,Bluefield,VA,24605,304-967-5748
G D Stine Trucking LLC,561 Orchard Dale Rd,Clear Brook,VA,22624,540-722-5250
Commercial Moving & Rigging,14700 Industry Court,Woodbridge,VA,22191,703-643-9300
Eastern Express,84 Executive Circle,Roanoke,VA,24012,540-353-3409
Bradley's Trucking,580 Stony Mill School Rd,Danville,VA,24541,434-685-3865
A Plus Van Service LLC,17280 Magic Mountain Drive,Round Hill,VA,20141,540-751-0135
"Dff, Inc.",208 North Pinetta Drive,Richmond,VA,23235,804-272-5577
Ronald Claytor Trucking,4030 Greenbay Rd,Greenbay,VA,23942,434-315-5637
Boyd Trucking,Rt 614 ,Lebanon,VA,24266,N/A
D & L Trucking,115 Cline Drive,Gore,VA,22637,540-858-3345
Lj's Consulting & Hauling,650 Hidden Falls Lane,Chesapeake,VA,23320,757-739-9926
H & H Truck Center,9920 Jefferson Avenue,Newport News,VA,23605,757-599-8421
Dennis R Staton Hauling,59 Windmill Lane,Eagle Rock,VA,24085,540-254-3109
Keith J Moyer Trucking,21136 Moyer Lane,Bergton,VA,22811,540-852-3231
White's Express,147 Monroe Bay Circle,Colonial Beach,VA,22443,202-543-2356
Solo Plus Trucking,5021 Seminary Rd Apt 810,Alexandia,VA,22311,703-566-9602
Newsome Trucking Co,909 48th St,Newport News,VA,23607,757-595-9935
D & B Trucking,25391 Calima Dr,Abingdon,VA,24212,276-628-9694
J C Transportation,6232 Mountain Rd.,Halifax,VA,24558,434-476-7992
"Jr's Trucking, Inc.orporated",Rt 727,Dillwyn,VA,22936,434-983-5504
"Potter Piano Movers, Inc.",11320 Henderson Rd,Fairfax Station,VA,22039,703-764-3353
B & B Trucking,Rt 2 Box 230,Castlewood,VA,24224,276-738-9629
E & D Trucking,8638 Lee Highway,Rural Retreat,VA,24368,276-686-8307
E&r Trucking,206 N Main St,Clover,VA,24534,N/A
"K & M Transport, Inc.",18687 Canby Rd,Leesburg,VA,20175,703-771-1905
W F Orndorff,106 South Timber Ridge Road,Cross Junction,VA,22625,540-888-4244
Wizard Trucking,Rt 1 Box 2347,Dillwyn,VA,23936,434-983-2614
S & B Trucking,215 Horseshoe Bend Road,Hillisville,VA,24343,276-398-4083
Bounds Trucking,3529 Partlow Rd,Partlow,VA,22534,804-448-4406
"J Turner Trucking Co, Inc.",1217 Leigh Ave,Pennington Gap,VA,24277,276-546-1908
3xl Express,2304 Malraux Dr,Vienna,VA,22182,703-798-0013
Nurline Express,8312 Uxbridge Ct,Springfield,VA,22151,703-566-0356
Phipps Bros Trucking,329 South Avenue,Independence,VA,24348,276-768-9625
Kdstrucking,1406cowroad,Buffalojct,VA,24529,N/A
Tarpley Trucking,736 Pleasant Gap Drive,Dry Fork,VA,24549,434-432-7067
Vaughan Trucking,556 East Pine Street,La Crosse,VA,23950,434-757-9907
"Cwd Transport, Inc.",8414 Robins Neck Rd,Gloucester,VA,23061,757-846-6410
D C Trucking,145 Greenwood Farms Road,Barboursville,VA,22923,434-589-7975
Classic Limo Service,1717 N 19th Street,Richmond,VA,23223,804-301-5690
Joan Taylor & Danny Rhoden,909 Willowstone Arch,Chesapeake,VA,23320,757-576-9056
"Kana Moving, Inc.",4231 Markham St # 226a,Annandale,VA,22003,703-626-8224
T F Polk Trucking,111 Jaybird Lane,Woodstock,VA,22664,540-984-8947
Ja Bradby Trucking,3706 Rochambeau Dr,Williamsburg,VA,23188,757-592-2651
Hutch Transportation,7887 Redlawn Rd,Bracey,VA,23919,804-943-5304
Rowley Trucking,10471 Bayside Rd,Birdnest,VA,23307,757-678-5665
C J Trucking,183 Crestway Drive,Chester,VA,23831,804-748-7463
Williams Trucking,1089 Wicklow Dr #202,Fredericksburg,VA,22401,703-371-8362
T B Hull Trucking,Hcr 02 Box 290,Bolar,VA,24484,703-839-5624
Tracy Mullins Trucking,Po Box 3452,Wise,VA,24293,703-328-5502
Jonco Delivery Services,214 Riverside Drive,Verona,VA,24482,N/A
Russo Trucking,3200 Commonwealth,Alexandria,VA,22305,703-683-0363
Ayala Trucking,15045 Sunny Ridge Ct Apt #204,Woodbridge,VA,22191,703-680-2921
J J R Trucking,3729 South 3rd St,Arlington,VA,22204,703-979-2359
Bootlegg Trucking,4416 Hamilton Dr,Woodbridge,VA,22193,703-590-6383
Hillbilly Trucking,Off Rt 460,Rich Creek,VA,24147,304-466-6134
Commercial Freight Service Co,505d West Main Street,Salem,VA,24153,703-387-3001
Timber Transportation,577 Jefferson Dr E,Palmyra,VA,22963,804-589-5588
R E M Trucking,P O Box 660,New Market,VA,22844,N/A
Transportation Centers,2800 Gallows Road,Vienna,VA,22180,703-573-0900
Baird Trucking,Rt 3 Box 374,Scottsville,VA,24590,804-983-2146
Kessler's General Hauling,28 N Curry St,Hampton,VA,23663,757-851-3984
Jimmy Ford Trucking,2154 Haverford Drive,Chesapeake,VA,23320,N/A
Ed Lacy Trucking,10027 Merryman Road,Fredricksburg,VA,22408,703-898-7120
Strange Trucking,5600 Old Cox Road,Chase City,VA,23924,804-372-5523
Stephens Trucking Co,Farmers Hall Rd,Champlain,VA,22438,800-536-3226
Wolfe Trucking,8047 Kimberling Rd,Bland,VA,24315,276-928-1462
T M H Trucking Co,12234 Harris Town Lane,Rockville,VA,23146,804-749-3258
Chris Knupp Trucking,2382 Shakesville Rd,Bristol,VA,24201,615-323-2734
G A Smith Sr Trucking,1712 Junction Road,Strasburg,VA,22657,703-465-9385
Alpha Freight & Mechanical,6963 Mid County Dr Ste B,White Marsh,VA,23183,804-694-8020
C W Wilson Hauling,12114 Paige Road,Woodford,VA,22580,804-448-1778
City Delivery Service,2020 Brucetown Road,Clearbrook,VA,22622,703-662-5311
Blue Moon Trucking Corp,9542 Tudor Oaks Dr,Manassas,VA,22110,703-335-2452
Ed Woolridge Trucking Line,7990 Cheathams Rd,Amelia,VA,23002,804-350-0141
R T Trucking,15175 Washington Street,Haymarket,VA,22069,703-536-0250
Bobby D's Trucking,239 Deacon Rd,Fredericksburg,VA,22405,540-752-7192
L B Dickerson Trucking,710 Laurel Park Ave,Martinsville,VA,24112,703-632-6071
Lady's Choice Auto Transport,6601 Hickory Ridge Road,Spotsylvania,VA,22553,540-582-8102
A And S Trucking,Rt 1 Box 665,Rockville,VA,23146,804-749-4326
Hap Hauling,306 Starview Lane,Gum Spring,VA,23065,804-556-2385
J & R Trucking,5717 N Washington Blvd #8,Arlington,VA,22205,703-534-9134
Mcgee Transport,Rd 753 North,Big Stone Gap,VA,24219,276-523-0912
Miti,528 Gibbon St,Alexandria,VA,22314,703-683-2248
Bey's Transport Service,P O Box 1858,Chesterfield,VA,23832,804-329-7204
Grizzle Trucking,Highway 67,Swords Creek,VA,24649,703-991-1325
Blue Tornado Transport,10036 Craigs Church Road,Spotsylvania,VA,22553,703-854-7502
B & R Trucking,102 Wynn St,Jonesville,VA,24263,N/A
Pike Trucking,1510 South Mountain Road,Pound,VA,24279,606-832-2895
Tates & Son Trucking,9203 Greengate Ct,Manassas,VA,22110,703-361-3947
Expansion Auto Service,Route 1 Box 621-a,Hillsville,VA,24343,703-728-4499
Talavera Trucking,4163 S 4 Mile Run Dr Apt 201,Arlington,VA,22204,703-920-7215
P And C Transport Services,12471 Dilling Ham Sq # 141,Woodbridge,VA,22192,703-296-8027
B & B Transport,1603 Holland Rd,Suffolk,VA,23434,804-539-8548
Rita Thompson Trucking,Rt 1 Box 433,Burkeville,VA,23922,804-767-2449
R Mark Hite Trucking,553 Seatons Lane,West Point,VA,23181,804-843-2329
"Trappers Trucking, Inc.",Hwy 611,Emporia,VA,23847,804-634-0879
C & R Trucking Co,2545 Moons Rd,Long Island,VA,24569,434-324-4484
C & W Seafood S & H Trucking,1635 Little Acres La,Richmond,VA,23231,804-795-1205
Danny Salyers Trucking,Rt 611 Box 166,Grassy Creek,VA,24245,N/A
S C Bailey Jr Trucking,341 Owl Rd,Brookneal,VA,24528,434-376-4253
J W Cook Trucking,28 Renee Road,Stafford,VA,22554,703-720-0092
Cliff's Trucking,7911 Belmont Stakes Dr,Midlothian,VA,23112,804-739-5690
J C Hogge Trucking,P O Box 23,Church View,VA,23032,804-758-2591
Demi Trucking,1123 Kenmore Dr,Mechanicsville,VA,23111,N/A
Golden Rule Enterprises,1246 Sterling Road,Herndon,VA,22070,703-435-6683
Jake Trucking,Rt 3 Box 250,Jonesville,VA,24263,703-346-1335
Golladay's Trucking,Rt 3 Box 129 - E,Broadway,VA,22815,703-896-7740
Wise Trucking,Po Box 1653,Abingdon,VA,24210,703-628-8694
J & A Express,4003 W Main St,Salem,VA,24153,N/A
Gregory Trucking,15692 Beacon Ct,Dumfries,VA,22026,703-670-6827
Stamp Transport Corp,Po Box 8373,Falls Church,VA,22041,703-354-8895
Atlantic Transport Service,4511 Colony Ct 1213,Alexandria,VA,22309,703-360-7005
A B Matthews Trucking Co,6477 Bayside Rd,Exmore,VA,23350,757-678-6337
Sunrise Transport,44880 Falcon Dr,Sterling,VA,20164,703-904-7953
J Harlan Wrenn Trucking,Rt 3 Box 71 F,Blackstone,VA,23824,N/A
Lemus Trucking,Rt 2 P O Box 2810,Front Royal,VA,22630,703-591-6709
James M Washington Trucking,14299 Shirley Rd,Unionville,VA,22567,703-854-6774
Mrm Trucking Co,6042 Edsall Rd #302,Alexandria,VA,22304,703-823-0356
T W Wilson Trucking,5585 County Line Rd,Cullen,VA,23934,804-542-5580
Adams Trucking,1775 Greenwich Rd,Galax,VA,24333,540-236-8169
Twh Limo Service,2112 S Shirlington Road,Arlington,VA,22204,703-892-5440
Shotgun Express,622 South 6th Ave,Hopewell,VA,23860,804-458-2212
Robertson Trucking,Rt 1,Hillsville,VA,24343,703-728-3270
Lilly's Moving Service,7779 Blue Jay Court,Alexandria,VA,22306,703-780-0505
S & S Trucking,2444 Brodnax Rd,Brodnax,VA,23920,434-636-5547
G & B Trucking,Rt 1 Box 2390,Fort Blackmore,VA,24250,703-995-2110
B E Vaughan Trucking,P O Box 1023,Gloucester,VA,23061,804-693-9843
Whitehead Contract Carriers,6111 Marilyn Dr,Alexandria,VA,22315,800-368-3785
Little Mack Trucking,Route 1 Box 94,Honaker,VA,24260,703-873-6755
Bethel Mobile Home Movers,513 Doe Street,Danville,VA,24541,N/A
Rayner Trucking,707 S Cabin Creek Dr,Hopewell,VA,23860,804-541-6121
R & B Express,Rt 2 Po Box 215,Aylett,VA,23009,804-769-4595
Taylor's Bus Service,4808 Station House Rd,Chesapeake,VA,23321,757-484-0855
Robert C Jones Sr And Sons Trucking,Rt 2 Box 230,Lawrenceville,VA,23868,804-848-2852
Quality Movers,256 Greenwich Circle,Danville,VA,24540,804-799-4167
Chess Trucking,30082 Lankford Hwy,Melfa,VA,23410,804-787-7541
Bundy Trucking Company,6517 Tidewater Trail,Chance,VA,22438,804-443-0420
David Hoover Trucking,9565 Congress Street Rt 11 S,New Market,VA,22844,703-740-8524
Matney Backhoe Service,21573 Ole Dominion Road,Bristol,VA,24202,703-669-2845
Steve Campbell Trucking,Star Rt #751,Nellysford,VA,22958,804-361-1620
J E Kelly Trucking,3228 County Br Rd,Warsaw,VA,22572,804-333-5578
Timberwolf Trucking,19255 Old Orange Road,Culpepper,VA,22701,703-825-4974
All American Angels Express,7419 Arlington Blvd 301,Falls Church,VA,22042,703-641-0015
Bjh Express,111 Riley Drive,Chilhowie,VA,24319,703-646-2970
Booher Auction Co,2703 Lee Highway,Bristol,VA,24201,276-591-1790
"Don Sparks Moving, Inc.",Rt 460,Thaxton,VA,24174,703-587-9130
Ray Cooper Trucking,Route 206 House #126,Gloucester,VA,23061,804-693-6588
D M C Transport,302 N James St,Ashland,VA,23005,N/A
Taylor And Harvell Hauling,17314 Fox Branch Rd,Carson,VA,23882,N/A
W C B Trucking,5503 Kingsland Road,Richmond,VA,23237,N/A
"Bise Trucking Company, Inc.",Rt 1 Box 236,Clintwood,VA,24228,703-796-5259
Lewis Tire Service,State Route 11,Rural Retreat,VA,24368,703-686-4126
E E Robertson Hauling,Rt 655,Prospect,VA,23960,804-574-2286
Tim Pride Trucking,440 Wright Rd,Keysville,VA,23947,434-736-8940
J & C Trucking,7830 Brookview Ct,Manassas,VA,22110,703-335-1849
J & B Trucking Co,2897 Chalet Ct,Woodbridge,VA,22192,703-491-2808
C & M Trucking,5350 Gasburg Rd,Gasburg,VA,23857,804-577-2784
Hampton Rhoads Hauling,9944 Gates Road,Suffolk,VA,23437,757-641-8037
B & Z Gish Trucking,7561 Hardy Rd,Hardy,VA,24101,703-890-4102
S N Transport,11871 Marsh Rd,Bealeton,VA,22712,703-273-2482
Wally Trucking,Carolina Rd Power Town,Coeburn,VA,24230,703-328-2756
M & L Transport,34 Homewood Drive,Lynchburg,VA,24502,804-239-2891
Four B Trucking,Rt 3 Box 146a,Castlewood,VA,24224,276-738-8525
Express Transport,3355 Duke Road,Powhatan,VA,23139,804-598-6378
Executive Sedan Express,3831 South George Mason Drive,Falls Church,VA,22041,703-820-0111
Mike Wilson Trucking,10231 Vinco Circle,Stony Creek,VA,23882,804-246-4507
Moon Shadows Express,236 Schoolhouse Rd,Madison,VA,22727,540-948-5000
Benton Transport,28058 Walters Hwy,Carrsville,VA,23315,804-562-0001
Coley Trucking,4254 Prestwood Road,Alberta,VA,23821,804-949-7251
"Winchester Auto Recyclers, Inc.",2372 Berryville Pike,Winchester,VA,22603,703-450-8598
Bridgewater Wrecker,5120 Stargazer Lane,Bridgewater,VA,22812,540-828-2939
Jerry Upton Jr Trucking,13042 Comans Well Rd,Jarratt,VA,23867,804-246-2346
Ward's Truck Center,15512 Neabsco Mills Rd,Woodbridge,VA,22191,703-670-7177
John's Freight Service,8446 Lee Hwy,Fairfax,VA,22031,703-698-0002
Jimmys Rollback Svc & Gen Hauling,3095 Old Route 100,Draper,VA,24324,540-980-9037
Tag Transport Services,7000 Bears Den Court,Manassas,VA,22111,703-257-0345
"O S Trucking, Inc.",4354-a Lee Hwy Apt G1,Arlington,VA,22207,703-465-9530
Tate Transport,Rt 14207,Machipongo,VA,23405,804-678-5790
G & G Enterprises,3904 Flat St,East Stone Gap,VA,24246,540-523-3390
Snd Trucking,4628 Spotswood Trail,Barboursville,VA,22923,540-226-5322
C H Morgan Truck Brokerage,724 Macon Road,Hampton,VA,23666,804-826-6032
Action Mobile Home Service,262 Henderson Rd,Gate City,VA,24251,540-225-8282
Genoa Trucking,296 Cherry Street,Timberville,VA,22853,540-432-5624
M & M Transport,Po Box 1266,Tazewell,VA,24630,540-988-8136
C E Gregory Trucking,5662 Hwy 58 West,Buffalo Junction,VA,24529,434-374-9609
Drummond Trucking,27255 Saxis Rd,Temperanceviile,VA,23442,757-824-4793
Southern Transportation,2271 Early Settlers Rd,Richmond,VA,23235,N/A
Raymond Shrewsberry Trucking,Rt 1 Box 178 B-2,Gladys,VA,24554,804-376-1329
Gary Dee's Spade Transport,Rt 1 Box 74,Ewing,VA,24248,276-861-4134
W L Trucking,3053 Hull Street,Richmond,VA,23224,804-233-7400
T & M Trucking,1401 Deep Creek Blvd Lot 24,Chesapeake,VA,23323,N/A
D And D Hauling,P O Box 153,South Hill,VA,23970,N/A
Ideal Transport,12704 Warrenton Rd,Nokesville,VA,20181,703-331-8081
Chandler's Trucking,Rfd Box 83,Onancock,VA,23417,804-787-7011
Freeman Motor Transit,8838 Blakeview Rd,Bena,VA,23018,804-642-2347
Fairways Transport And Trading,14792 Darby Dale Ave,Woodbridge,VA,22193,703-590-9527
A & A Automotive,24258 Tasley Rd,Tasley,VA,23441,804-787-3868
J H Franklin Trucking,Rt 3 Box 241,Amherst,VA,24521,804-946-2494
T & R Trucking,Rt 5 Box 130,Duffield,VA,24244,540-431-2624
Harris Hauling,3424 Macdonald Rd,Virginia Beach,VA,23464,804-424-1754
Lightning Trucking,7997 Kenmore Dr,Mechanicsville,VA,23111,804-559-3240
J & J Trucking,Rt 2 Box 1001 Willow Lake,Raphine,VA,24472,540-377-2374
Mr D's Trucking,13216 Delaney Road,Dale City,VA,22193,703-730-2044
Huffman Trucking,Rt 1 Box 268,Stanley,VA,22851,540-778-3777
Gsr Trevino Transport,3332 Lockheed Blvd #204,Alexandria,VA,22306,703-765-5670
W C Express,6412 Cosmic Rd,Richmond,VA,23234,804-743-2851
D & J Transportation Services,2028 Denise Circle,Roanoke,VA,24012,540-977-4029
Moses Trucking,12407 Machipongo Lane,Machipongo,VA,23405,804-678-5790
F T Corr Hauling,6603 Marye Road,Woodford,VA,22580,703-582-9127
Jimmy Turner Trucking,820 Gray's Park Road,Danville,VA,24541,804-685-2502
Valley Enterprises,214 Carroll Drive,Stephens City,VA,22655,540-869-1907
Dubrook Concrete,4215 Lafayette Center Dr Ste 1,Chantilly,VA,20151,703-222-6969
East Coast Specialized Hauling,2906 Elmhurst Lane,Portsmouth,VA,23701,757-465-2209
Oriun Transport,542 A Eleanor Ct,Newport News,VA,23602,804-833-7405
Sampson Trucking,Rt 3 Box 935,Big Stone Gap,VA,24219,540-523-7620
L Taylor Jr Trucking,18047 Boxley Road,Ruther Glen,VA,22546,804-448-4731
Ccs Industries,14091 Brightside Lane,Meadowview,VA,24361,540-944-5815
Adams Trucking,Rt 1 Box 799,Dry Den,VA,24243,540-546-3585
Lewis Trucking,5292 Flat Rock Rd,Alberta,VA,23821,434-949-6110
P & D Backhoe Service,6108 Dinwiddie St,Springfield,VA,22150,703-569-1993
Harmon Trucking,9330 Meetze Rd,Midland,VA,22728,540-270-5874
Classic Transport,725 E Fincastle St,Tazewell,VA,24651,540-988-8055
M C Bain Trucking,12728 Glebe Rd,Dewitt,VA,23840,804-265-8383
Hikmet's Auto Reamoval,4306 Hendricks Dr,Woodbridge,VA,22193,703-680-6372
U S Shot Blast,5906 Carrifex Ferry Rd,Fredericksburs,VA,22407,703-494-0183
Harper Trucking Company,Rt 9 Box 427,Martinsville,VA,24112,540-666-0280
Jr Mcclanahan Trucking,508 Old Three C Rd,Haysi,VA,24256,540-865-5720
Red Line Express,21466 Indian Woods Trail,Courtland,VA,23837,800-729-6083
R & A Trucking,May Branch Road,Hurley,VA,24620,540-566-4179
J R Stiltner Trucking,Po Box 1084,Abingdon,VA,24210,540-623-0145
J S Lawson & Sons Trucking,2621 Stoney Batteyy Rd,Troutville,VA,24175,540-966-3658
Woodbridge Auto Truck & Marine Salvage,15 Enterprise Ct,Frederickburg,VA,22405,703-221-2400
North Express,408 W Marcland Dr,Stephens City,VA,22655,240-582-1372
E C Trucking,Po Box 156,Big Rock,VA,24603,540-566-8843
Hamlett Hauling,Rt 6 Box 756,Danville,VA,24541,804-685-4663
Dct Trucking,11312 Scotts Mill Road,Culpepper,VA,22701,540-937-3402
"E R Trans, Inc.",7854 Glenister Drive,Springfield,VA,22152,703-866-5169
Renegade Trucking,St Rt 643,Hurley,VA,24620,540-566-2222
G L Spence Jr,98 Kenworth Lane,Harrisonburg,VA,22802,757-485-2185
Woods Trucking,Rt#1 Box 281-b,Pearisburg,VA,24134,540-921-3329
Curry Trucking,628 Belair Ave,Front Royal,VA,22630,N/A
Big Eagle Trucking,Rt 634,Whitewood,VA,24657,540-935-4851
Dscv Transports,7513 Ambergate Pl #6,Mclean,VA,22102,703-827-8553
Wilson's Contract Carriers,1207 Fernleaf Drive,Richmond,VA,23235,804-323-6227
Matthews Trucking,19240 Fisher Rd,Parksley,VA,23421,757-665-6238
Mw Carr Trucking,1418 Aiden Dr,Woodbridge,VA,22191,804-490-0973
"A Jones Hauling, Inc.",3688 Three Chopt Rd,Gum Spring,VA,23065,703-329-1016
Heintzelman's Drive-away Service,2008 Columbia Pike #1,Arlington,VA,22204,703-521-7921
Washington Trucking Co,8251 Vermont Pl,Manassas,VA,22111,703-335-9144
K & K Transport,1152 Laurel Creek Lane,Broadford,VA,24210,276-782-5001
B K & Sons Trucking,1133 Driver Pointe Court,Suffolk,VA,23435,757-538-2605
H&m Trucking,16076 Lee Highway,Bristol,VA,24202,540-466-0600
"B R S, Inc.",3275 Franklin St,Blacksburg,VA,24073,540-382-9335
T & T Mobile Homes Service,Sycamore Road,Saltville,VA,24370,540-496-3694
Ray Mcneal Trucking,6210 Fitzhugh Ave,Richmond,VA,23226,804-269-7770
J & M Trucking,Rt 3 Box 224,Pennington Gap,VA,24277,540-546-5792
Just Run Saints Trucking,6852 Smith Station Rd,Spotsylvania,VA,22553,540-898-2039
Old Towne Moving Co,6611 Oak Dr,Alexandria,VA,22306,703-370-0900
Jarratt Trucking,5559 Brunswick Rd,Emporia,VA,23847,804-634-0597
Rcr Trucking,12135 Grayson Ave,Exmore,VA,23350,804-442-5092
R & R Express,207 Green Arbor Drive,Fredericksburg,VA,22407,540-786-4704
Kermit T Newcomb Trucking,85 Marywood Drive,Brodnax,VA,23920,434-729-9221
Tfs,15012 Alaska Road,Woodbridge,VA,22191,703-497-4348
J-t Transport,2249 Old Ferrum Rd,Ferrum,VA,24088,540-483-8270
"Dynamic Sales & Service, Inc.",1120 E Brambleton Ave,Norfolk,VA,23504,757-624-1360
Save The Seed Trucking,1404 Caledon Rd,King George,VA,22485,540-775-4283
R C Green Trucking,311 Nottoway Drive,Stephens City,VA,22655,540-667-7550
Lacks & Moore Hauling,1049 Daniels Trail,Hailfax,VA,24558,804-572-1331
Pace's Transfer System,1 Hunter Branch Center,Troy,VA,22974,804-589-1067
Carter's Trucking,420 Deerwood Drive,Fredericksburg,VA,22401,N/A
Randy B Guy Trucking Co,1110 Mason Drive,Blairs,VA,24527,804-826-0285
Galax Auto Exchange,1109 East Stuart Dr,Galax,VA,24333,540-236-2233
Watford Trucking,6245 Edward St,Norfolk,VA,23513,757-855-0029
Butler Trucking,6710 Green Arbor Dr,Fredericksburg,VA,22407,540-786-2134
Cmw Trucking,58 Greenleaf Road,Ridgeway,VA,24148,540-638-6072
"Frank Lockhart Trucking, Inc.",Rt 609,Breaks,VA,24607,276-531-8553
Rtc Robinson Trucking Company,Rr 1 Box 190cc,Sperryville,VA,22740,540-987-9135
Kyle Trucking,10282 Tranquil Trail,Grottoes,VA,24441,540-249-3572
Special Interest Auto,1140 West Lee Hwy,Chilhowie,VA,24319,540-696-8416
M&s Trucking,Po Box 716,Jonesville,VA,24263,540-346-1426
Va Auto Recyclers,Route #3,Lancaster,VA,22503,804-438-5173
Wes Childress Trucking,Rt 2 Box 240,Vansant,VA,24656,540-597-8817
Jeffrey Myers Trucking,Glenbrook Park A-3,Rural Retreat,VA,24368,540-686-4784
Anchor Trucking,203 S King Street,Leesburg,VA,20175,703-589-1113
Robert Stepp Trucking,Rt 1 Box 440 A,Vansant,VA,24656,540-859-2550
Jeffrey W Childress Trucking,P O Box 189 Rt 609,Breaks,VA,24607,540-531-8187
Air Freight Expediters,506 Shaw Rd Unit 307,Sterling,VA,20166,703-481-9100
Convenience Transport,9145 Centreville Road,Manassas,VA,20110,703-330-2237
Ace's Auto Repair,103 Pembroke St,Pembroke,VA,24136,540-626-3785
"Jordan Transportation, Inc.",8734 Landmark Rd,Richmond,VA,23228,804-264-2800
T & S Transport,12265 Martinsville Hwy Apt21,Danville,VA,24541,804-822-6361
L & S Trucking,State Route 643 Maybranch Rd,Hurley,VA,24620,540-566-8159
Maslock Trucking,2980 Partlow Road,Partlow,VA,22534,804-448-4094
Michael Proffitt Trucking,311 Village Road,Shipman,VA,22971,804-263-8084
Kevin Bennett Trucking,State Rt 83 State Creek Rd,Grundy,VA,24614,540-935-7612
Sabre Trucking,Rd 646 Thompson Settlement Com,Jonesville,VA,24263,540-346-2325
D M Trucking,4600 Duke St # 801,Alexandria,VA,22304,703-370-7376
"Verna Ramey Trucking, Inc.",Hc 72 Box 90,Big Rock,VA,24603,276-530-7735
J Sejas Trucking,3222 Blundell Road,Falls Church,VA,22042,703-538-5070
Craven Tire & Auto,2728 Dorr Ave,Fairfax,VA,22031,708-698-8505
Cornett Trucking And Logging,Route 1 Box 752,Atkins,VA,24311,540-782-9251
B J & S Automotive,108 Greenland Dr,Bowling Green,VA,22427,804-633-1615
Freeman Trucking Company,Route 6 Box 117,Marion,VA,24354,540-783-7852
All State Trucking,1025 Cannons Ct #2,Woodbridge,VA,22191,703-680-4059
Doug Lester Trucking,State Route 650,Grundy,VA,24614,540-530-7721
Southwest Logistic Systems,909 4th St Se,Roanoke,VA,24013,N/A
Rife Trucking,16603 Lee Highway,Bristol,VA,24201,N/A
Pondexter Transportation Co,7332 Lee Highway #201,Falls Church,VA,22046,703-876-4809
Cheekco's Trucking,81 New Hope Church Road,Fredericksburg,VA,22405,540-899-0029
All-states Mobile Movers,1830 Richmond Ave,Staunton,VA,24401,540-885-3400
Porter Family Transport,3941 Fairfax Street,Dumfries,VA,22026,703-221-8065
Mid-nite Trucking,7808 Locklear Landing Dr,Spotsylvania,VA,22553,540-582-3731
C & C Trucking,Rt 1 Box 92,Appomattox,VA,24522,804-352-7711
Roy L Atkins Trucking,73 West Drive,Emporia,VA,23847,804-348-4039
S & M Trucking,9816 Duerson Ln,Spotsylvania,VA,22553,703-878-2212
Hawes Trucking,1 Donn Ave,Berryville,VA,22611,540-955-4473
Circle W Trucking,12380 Moneta Road,Moneta,VA,24121,540-297-7952
Trans-star Trucking,18 Sycolin Road Se,Leesburg,VA,20175,703-777-1450
J & R Trucking,16516 Happy Hill Road,Col Heights,VA,23834,804-520-5916
"Edens Distributing Co, Inc.",2100 Monte Vista Ext,Pulaski,VA,24301,540-980-6866
Carter Brothers Trucking,174 Oakridge Drive,Madison Heights,VA,24572,434-929-1934
B A Gray Trucking,217 Hilda Dr,Clear Brook,VA,22624,540-665-9786
Chrisco Trucking,St Rt 646 Guesses Fork Rd,Hurley,VA,24620,540-566-8748
Double Ll Trucking,5683 Derby Court,Alexandira,VA,22311,703-671-8021
Metro Airport Shuttle,6118 Franconia Rd Suite 208,Alexandria,VA,22310,703-313-4848
Zorin Transport,13265 Warwick Blvd # M,Newport News,VA,23602,N/A
Kelvin Lawrence Trucking,28070 Pretlow Rd,Franklin,VA,23851,757-562-2958
Rons Trucking,6000 Sturgeon Point Road,Providence Forge,VA,23140,804-966-5378
Byrd Truck Line,2694 Golden Hill Rd,Elberon,VA,23846,757-294-0025
Hill Trucking,Rt 1 Box 9,Vansant,VA,24656,540-597-7630
Whiskey River Transportation,120 Racetrack Road,Rural Retreat,VA,24368,276-686-8298
P L Davidson Transport,Rt 80 Council,Davenport,VA,24239,540-859-0712
George D Pugh Trucking,23019 Kidds Fork Dr,Milford,VA,22514,804-633-6846
Brown Eyed Express,3392 Old Liberty Rd,Axton,VA,24054,540-650-1665
Rkl Trucking,16155 Shephard Hill Rd,Bowling Green,VA,22427,804-633-5751
Drm & Son Trucking,516 Meadow Lane,Front Royal,VA,22630,540-636-8337
Eas,7014 Lombard Lane,Fredericksburg,VA,22407,540-785-4207
W N Johnson Trucking,424 Myrtle Street,Harrisonburg,VA,22801,540-434-1890
Chris Rowe Trucking,Rt 80 West,Honaker,VA,24260,540-873-7280
Fanta Fantasy Limousine & Sedan Service,8395j Euclid Avenue,Manassas,VA,20111,703-392-5466
Gator Trucking,9432 Abram Penn Hwy,Patrick Springs,VA,24133,276-694-7700
Crystal Trucking,5181 Cobb Station Rd,Eastville,VA,23347,757-678-5587
B & J Trucking & Excavation,1085 Highview Rd,Halifax,VA,24558,804-476-8608
Jr's Trucking,591 Oakwood Circle,Petersburg,VA,23805,804-862-2031
L P Steiger,29547 Burton Rd,Pungoteague,VA,23422,757-442-5518
Sns Trucking,805 Wilroy Road,Suffolk,VA,23434,757-934-8286
High Road Express & Affiliates,6907 Laughlin Drive,Chesterfield,VA,23832,804-745-3213
Jc Taylor Hauling,61 John Spencer Road,Martinsville,VA,24112,276-957-4169
Joe's Trucking Co,23196 Speckle St,Windsor,VA,23487,757-242-9774
Blackman Trucking,4906 George Washington Mem Hwy,Hayes,VA,23072,301-814-4763
Blue Boy Trucking,Rt 700,Hague,VA,22469,804-472-4458
Running Bear Trucking,400 1/2 N U Street,Narrows,VA,24124,540-726-2285
R & B Trucking,13 Bundick St,Onancock,VA,23417,757-665-1906
M D Trucking,102 Dixie Bell Drive,Winchester,VA,22602,540-667-6389
Silver Streak Transport,7900 Backlick Rd,Springfield,VA,22150,703-569-1020
Consolidated Logistics Center,4001 S Military Highway,Chesapeake,VA,23321,757-423-4200
Coalson's Backhoe Service,13900 Coalson's Lane,Spotsylvania,VA,22553,703-680-6806
T L Reynolds Trucking,5217 Daffodil Drive,Fredericksburg,VA,22407,540-226-3994
Dean Trucking,1337 Newtown Rd,Elkton,VA,22827,540-298-1417
Blanchard's Tire Road & Wrecker Service,4869 Bridge Road,Suffolk,VA,23435,757-484-1399
Rsp Trucking,829 Highland Farm Road,Callaway,VA,24067,540-483-2013
Blue Ridge Trucking,408 Vicar Road,Danville,VA,24540,434-836-5663
Allen Trucking,Rt 2 Box 102,Cedar Bluff,VA,24609,540-880-2246
Eddie Evans Trucking,65 Southland Dr,Martinsville,VA,24112,336-627-0767
H L Fleshman Jr Trucking,Rt 1 Box 262,Appomattox,VA,24522,434-352-8358
Yoni Freight Services,322 S Whiting St #22,Alexandria,VA,22304,703-370-7731
Sigmon Trucking,6940 Franklin St,Ferrum,VA,24088,540-483-1183
Agee's New And Used Auto Parts,1450 Radford Rd,Christiansburg,VA,24073,540-382-2477
Rex P Long Jr Trucking,Route 2 Box 274d,Rural Retreat,VA,24368,540-686-5464
Stewarts Mobile Home Service,6756 Rocksprings Road,Sutherlin,VA,24594,804-822-7352
W G Mcneill & Son Trucking,28110 Beacon Rd,Melfa,VA,23410,757-787-4590
B K Graham Trucking,11175 Kenmont Lane,Hanover,VA,23059,804-798-5645
"Cestco, Inc.",Route 2 Box 343,Pennington Gap,VA,24277,276-546-4498
Logan Dennis Keith,17 S Farmer Street,Richlands,VA,24641,540-963-0114
B M Trucking Co,425 Cornwall Dr,Ruther Glen,VA,22546,571-238-5794
Fisher Trucking Co,17659 Beaverdam Rd,Beaverdam,VA,23015,804-798-3104
R & R Trucking,State Route 650 Rock Lick Rd,Big Rock,VA,24603,540-530-7349
"Lone Star Trucking, Inc.",171 W F St,Purcellville,VA,22132,540-338-7083
Bartley's Hauling,34425 Christanna Hwy,Blackstone,VA,23824,804-676-2002
J B Transport,6060 Bayside Rd,Exmore,VA,23350,757-442-3119
Lta Trucking,9827 Nimitz Ct,Manassas,VA,20109,703-257-9961
Mls Trucking,Rt 3 Box 46a,Powhatan,VA,23139,804-845-4618
Ids,21515 Suite 100 Ridgetop Rd,Sterling,VA,20166,703-450-2133
Don Newman Transport,3074 Hampton Hall Rd,Callao,VA,22435,804-529-5607
Hart's Auto Transport,6801 Hanover Ct,Fredericksburg,VA,22407,540-786-4139
Watkins Trucking,Rt 4 Box 59 Hicks Street,Ridgeway,VA,24148,540-956-3251
J Paul Ligon Trucking LLC,1043 Zion Church Road,Emporia,VA,23847,434-634-2357
Cox Auto Sales,157 Wrong Ranch Ln,Galax,VA,24333,540-236-3002
Chisom Trucking,304 Stewart Street,Goodview,VA,24095,540-777-3870
Quality Plant Services,2407 B Ingleside Road,Norfolk,VA,23513,757-858-2300
Hiatt Mobile Home Transport,Route 1 Box 348,Cana,VA,24317,540-755-3675
L M Blanton Trucking,511 Holman Mill Road,Farmville,VA,23901,804-392-4303
Statzer Trucking,Rt 1 Box 430,Lebanon,VA,24266,540-889-1888
Matt Powers Trucking,Route 1 Box 233-c,Castlewood,VA,24224,540-762-7443
Gibbons Trucking,400 Clearview Drive,Martinsville,VA,24112,540-632-6698
C & C Trucking,13979 Mountain Road,Purcellville,VA,20132,540-668-6160
She & I Trucking,Rt 646,Wolford,VA,24658,540-566-4155
Coleman Enterprises,Rt 609 Kents Ridge Road,Richlands,VA,24641,276-963-2421
"Marion Radiator, Inc.",718 N Main Street,Marion,VA,24354,540-783-8851
Washington Express Sedan & Limo Service,313 N Glebe Rd,Arlington,VA,22203,N/A
Ray Sales Transport,155 Cives Rd,Winchester,VA,22604,540-667-6007
Certified Trucking Services,5465 N Morgan Street #507,Alexandria,VA,22312,703-855-3980
C J Dyer Hauling,2045 Kimrod,Richmond,VA,23224,804-745-7057
Gravley's Trucking,3687 Second Moorehead Lane,Pulaski,VA,24301,540-980-4371
Seven Hauling,2842 Ankum Rd,Gasburg,VA,23857,434-577-3018
M A Hockaday Trucking,Po Box 14,Ladysmith,VA,22501,804-448-1326
Double M Farms Lp,1386 River Bluff Road,Mount Crawford,VA,22841,540-234-8657
C & K Trucking Co,21079 Rich Valley Rd,Abingdon,VA,24210,276-628-7693
Apache Transport,Rt 2 Box 181,Castlewood,VA,24224,540-738-8992
Vanlandingham & Son General Hauling,Rt 614 Lake Road Box 145,Lottsburg,VA,22511,804-529-5137
Boardwine Distributing,14208 Porterfield Hwy,Abingdon,VA,24210,540-628-5741
Warren Trucking,18035 Line Pine Road,Franklin,VA,23851,757-562-4792
Stray Wolf's Trucking,15288 Grist Mill Terrace,Woodbridge,VA,22191,703-590-3190
H D Clark Trucking,4130 S 71,Castlewood,VA,24224,276-794-7098
Curtis Mason Hauling,1259a North Point Farm Rd,King William,VA,23086,804-769-0296
D & R Trucking,6145-c Edsall Road,Alexandria,VA,22304,703-823-3586
M & S Trucking,1735 Clark Store Rd,Caret,VA,22436,804-445-8903
Michael D Milton Trucking,Rt 2 Box 25h,Gladys,VA,24554,804-283-5421
Ritchie Trucking,6215 North Valley Pike,Harrisonburg,VA,22802,N/A
Worley Trucking,8324 Field Stream Dr,Meadowview,VA,24361,276-944-3034
P & J Trucking,10079 Buzzard Bottom Rd,Ruther Glen,VA,22546,804-448-4153
Father & Son Moving,1601 Mckinley Ave,Bristol,VA,24201,276-669-6472
M & M Trucking,1806 Avondale Drive,Altavista,VA,24517,804-369-4390
Narrow Way Trucking,6772 Horsepasture Price Rd,Ridgeway,VA,24148,276-957-4119
C And A Kenney Trucking,308 Wardensville Grade,Winchester,VA,22602,540-877-2692
Three Sisters Transport,P O Box 72 Hwy 717,Glaystone,VA,24553,804-933-8501
Talley Trucking,12444 Noel Road,Doswell,VA,23047,804-227-3859
E-z Express,10831 Coeburn Road,Coeburn,VA,24230,540-395-2945
T L Allen Trucking,13520 Mountain Rd,Glen Allen,VA,23059,804-752-2418
C R S Trucking,P O Box 204,Bristol,VA,24203,423-968-1694
L G Wilson Trucking,14841 Palmerston Square,Centerville,VA,20120,703-815-7060
Dls Trucking,185 Simmons Dr,Lawrenceville,VA,23868,434-848-0251
Lee's Trucking,5604 Brookland Rd,Alexandria,VA,22310,703-971-6284
End Of The Trail Transportation,Route 1 Box 451,Rustburg,VA,24588,804-821-8708
"Aalpha Environmental Services, Inc.",201 Stockton Street,Richmond,VA,23224,804-233-7727
Be-ds Trucking,1112 Jackson St,Lynchburg,VA,24504,804-846-6043
Danny Keller & Family Trucking Co,9528 Damascus Drive,Manasas,VA,20109,703-361-4974
1st Class Movers,716 Gun Club Rd,Stephenson,VA,22656,540-722-0470
J & A Trucking,Route 1 Box 153c,Duffield,VA,24244,540-546-1493
Dickerson Trucking,19461 Peacock Valley Drive,Bristol,VA,24202,540-669-8014
Abt Moving Services,2642 Glengyle Dr,Vienna,VA,22181,703-319-1338
Riedel Enterprises LLC,458-c Wythe Creek Road #148,Poquoson,VA,23662,757-813-4964
Hilltop Haulers,Rt 1 Box 67a,Cana,VA,24317,540-755-2707
Jerry White Trucking,Rt 2 Box 337,Nickelsville,VA,24271,276-479-3158
E T Johnson Trucking,2230 Wilburn Road,Virgilina,VA,24598,804-585-1257
David Knighton Trucking,823 Windyknight Rd,Montpelier,VA,23192,540-872-2852
Jerry Loyd Trucking,2002 Lee Sydnor Moore Rd,Scottsburg,VA,24589,434-454-4549
Rapid Transport,11026 Linderwood Dr,Mechanicsville,VA,23116,804-550-9569
West Falls Texaco,7399 Lee Hwy,Falls Church,VA,22042,703-698-7799
R & B Trucking,1065 Shiny Leaf Rd,Vansant,VA,24656,540-859-9447
D & W Trucking,10927 Stacy Run,Fredericksburg,VA,22408,540-371-6921
Rapp Auto Care,25577 A P Hill Blvd,Port Royal,VA,22535,804-742-5124
T & M Trucking,Rt 1 Box 140,Raven,VA,24639,540-498-3395
Penland & Sons Trucking,Rt 1 Box 326,Castlewood,VA,24224,540-762-7511
Phils Xpress,4032 Gaelic Lane Apt F,Glen Allen,VA,23060,804-217-9054
Michael S Shepherd's Trucking,1102 Woods Mill Rd,Stephenson,VA,22656,540-662-7786
Bradley Trucking,112 Pinehill Ct,Lawrenceville,VA,23868,804-848-4060
L D Trucking,Route 3 Box 300,Clintwood,VA,24228,540-926-5340
F E I,42 Mtn Creek Rd,Lebanon,VA,24266,276-596-4800
Louis O Kidd Transport,403 Marc Drive,Spotsylvania,VA,22553,540-582-5710
"Water Tap Service, Inc.",23153 Bass St Lot 20,Windsor,VA,23487,757-242-6384
Leath Transporters,246 North Woods Ln,Galax,VA,24333,540-236-4529
Trikar Auto Transport,8250 Silverbrook Road,Lorton,VA,22199,703-855-5005
B & W Trucking,Sandpaper Drive Box 937,Onley,VA,23418,757-787-5615
Jerry Wallace Amos Trucking,3608 Crymes Road,Meherrin,VA,23954,434-696-2931
"Cochran Industries, Inc.",8112 Riverside Drive,Oakwood,VA,24631,276-498-3836
Dodsons Auto Sales,157 Miskimon Road,Heathsville,VA,22473,804-580-7425
Hampton Hauling,4838 Fries Rd,Galax,VA,24333,276-744-3315
Road Service,6151 Hickory Ridge Rd,Spotsylvania,VA,22553,888-896-4882
R & R Trucking,207 Princess Anne Street,Fredericksburg,VA,22401,540-371-7830
Kessler Trucking,6 Cardinal Circle,Fairfield,VA,24435,540-377-9226
Steele Trucking,2309 Front St,Richlands,VA,24641,540-963-0333
H R Mcgee Jr Trucking,9263 Jessica Dr,Manassas Park,VA,20111,703-361-9168
Bad Dog Trucking,190 West Ridge Rd,Wytheville,VA,24382,540-223-0265
Jackson & Sons,P O Box 313,Tasley,VA,23441,N/A
High Country Transport,Hc 34 Box 162,New Castle,VA,24127,540-314-2922
T G Transport,8416 Dampier Ct,Springfield,VA,22153,703-914-8920
Carballo Express,1207 South Buchanan Street,Arlington,VA,22204,703-671-7093
R B Lafoon Hauling,31672 Christanna Highway,Dundas,VA,23938,N/A
Nitro Trucking,20593 Cornstalk Terr #201,Ashburn,VA,20147,703-729-1026
A G E S - Asphalt Grading Excavating Services,13428 Greenacre Dr,Woodbridge,VA,22191,703-491-0595
H & W Trucking,Rt 4 Box 75b,Rustburg,VA,24588,804-821-7332
Sparks Trucking Service,194 Shady Lane,North Tazewell,VA,24630,276-979-0551
Jetstream Express Transport Systems,837 Outerbridge Quay,Virginia Beach,VA,23464,704-875-3487
Rvm Transport,2309 Mosby Road,Powhatan,VA,23139,804-492-3198
Hope Trucking,Rt 737,Lebanon,VA,24266,540-889-0781
Atlantic Waste Services,801 Volvo Parkway Suite 109 Box 132,Chesapeake,VA,23320,757-497-6194
"Dwight Showalter Trucking, Inc.",399 E Lee Street,Broadway,VA,22853,540-901-9400
D G S Transport,906 Ellison St #433,Falls Church,VA,22046,703-532-0727
Raccoon Ford Trucking,5076 Zachary Taylor Hwy,Culpeper,VA,22701,540-423-1613
Simpson Trucking,16029 Pungo Teague Road,Painter,VA,23420,757-442-9138
"David F Ratliff Trucking, Inc.",P O Box 5,Maxie,VA,24628,540-531-8193
Bluegrass Trucking,402 Huger Dr,Sandston,VA,23150,804-737-1533
Sterling Transport Service,20328 Woodtrail Rd,Round Hill,VA,20141,540-554-2040
Hidden Acres Transport H A T,53 Jiggady Rd,New Market,VA,22844,540-740-8197
Chad M Wright Trucking,506-b Southampton St,Emporia,VA,23847,804-634-0243
Glo-dan Express,2913 Seibel Rd,Richmond,VA,23223,804-640-1677
L E Abbott Trucking Co,1408 Varnell St Ne,Roanoke,VA,24012,N/A
Whiteline Express,8454 Rippled Creek Court,Springfield,VA,22153,703-495-8700
Cupp Trucking,Route 1 Box 1390,Dryden,VA,24243,540-546-2441
"Carter's Transport, Inc.",266 Battery Rd,Caret,VA,22436,804-443-6883
J & M Dickens Trucking,223 Mansfield Street,Fredericksburg,VA,22408,540-455-9189
G's Trucking,3343 Summerbrook Drive,Richmond,VA,23235,804-745-8424
Tim's Transport,11283 Claiborne Crossing Rd,Fredericksburg,VA,22408,804-633-5775
Mullins Trucking,Rt 1 Box 110,Crimora,VA,24431,540-249-2475
Perry Trucking,7415 Ironhorse Rd,Mount Crawford,VA,22841,540-234-9731
Knight Transportation,5930 Havener House Way,Centreville,VA,20120,703-815-8081
M & M Trucking,3503 Robert E Lee Pl Apt T4,Alexandria,VA,22306,703-768-3574
J & C Trucking,1278 Pigeon Run Road,Gladys,VA,24554,804-283-1556
C-trans,9999 Brooks Mill Road,Wirtz,VA,24184,540-721-4722
J P Trucking,77 Hawes Road,Stephens,VA,22655,540-752-9755
D T Harris Trucking,4401 Crown Squire Rd,Richmond,VA,23231,804-222-5652
Twin Rivers Transport,616 Kenwood Rd,Montross,VA,22520,804-224-0684
Billy Jack Trucking,Route 1 Box 473,Tappahannock,VA,22560,804-769-4172
Luckys Transport Service,308 Daniels Park Road,Ruckerville,VA,22968,804-985-8262
Cordoba Trucking,7215 Quincy Ave,Falls Church,VA,22042,703-281-0225
M & D Trucking,9203 Baltimore Rd,Ford,VA,23850,804-732-9853
R L Cypress Trucking,8485 Sylvan Scene Dr,Machipongo,VA,23405,757-678-7327
Wpt & Sons Trucking,2258 Newman's Neck Road,Heathsville,VA,22473,804-580-9004
Cyndi's Recon & Transport Services,4916 Trade Center Drive,Fredericksburg,VA,22408,757-473-5737
Giles Trucking Co,74 Spruce Park Drive,Martinsville,VA,24112,540-638-3267
E G Johnson Trucking,22 Grandview Drive,Gladys,VA,24554,434-283-7671
Hale Trucking,337 Albany,Fredericksburg,VA,22407,540-786-2306
Pony Express Trucking,615 Third Street,Shenandoah,VA,22849,540-652-6564
Pw's Trucking,9179 Settle School Road,Rixeyville,VA,22737,540-937-5664
S Rutledge Trucking,Rt 1 Joslyn Street,Jonesville,VA,24263,N/A
J K Davis Trucking,283 Carlton's Corner Road,King And Queen C H,VA,23085,804-785-2569
Thunder Trucking,19094 Sparta Rd,Milford,VA,22514,804-633-1616
K L Crewe Trucking,6420 Church Lane,Charles City,VA,23030,804-829-5642
Tom's Trucking,8620 Quarry Rd,Manassas,VA,20110,703-392-7900
Lemarr Trucking,281 Chapel Road,Middletown,VA,22645,540-869-5944
Henkel Trucking,Route 603,Richlands,VA,24641,540-964-6911
"Aka, Inc.",4900 Whetstone Road,Richmond,VA,23234,253-302-6086
C B A Freightlines,5404 Menteith Ct,Virginia Beach,VA,23464,757-424-3531
Johnson Hauling,1000 Lawless Creek Rd,Blairs,VA,24527,N/A
L E Snead Trucking,1444 River Rd West,Crozier,VA,23039,804-222-2229
Boyds Excation,Rt #2 Box 246,Ararat,VA,24053,540-251-8364
"C & A Trucking, Inc.",10410 Atlantic Rd Rt 679,Atlantic,VA,23303,757-824-0904
Rouse Wrecker Service,Rt 58 West 1/8 Mile West Of,Rose Hill,VA,24281,540-445-3111
