Company Name,Street Address,Address Locality,Address Region,Postal Code,Telephone
Archey's Express,1603 Windsor Ave,Centraila,WA,98531,360-736-3651
Northwest Conveyance,6044 S Alder St,Tacoma,WA,98409,253-732-2603
Ga Transportation LLC,37208 34th Ave South,Auburn,WA,98001,253-275-7280
A & M Transport,3600 Ne 51st Street Apt C-4,Vancouver,WA,98661,N/A
Servicemaster By Jts,2305 Columbia Heights Rd,Longview,WA,98632,360-425-3331
Thind Trucking,23724 43nd Ave S,Kent,WA,98032,206-391-9340
Global Travel,659 S Weller St,Seattle,WA,98104,206-381-9888
Rcr Express,1191 Old Prosser Rd,Grandview,WA,98930,509-305-2424
Ctl Trans,1300 Boblett Street Suite E,Blaine,WA,98230,N/A
Ltv Trucking,300 Wilson Hwy #2,Grandview,WA,98930,509-882-2371
Bjf Trucking,295 North Iowa Ave,East Wenatchee,WA,98802,509-886-5037
Top Gear Trucking,11619 Se 219th Place,Kent,WA,98031,253-217-2075
A Boys Trucking,27024 Meridian Ave E,Graham,WA,98338,425-246-8831
Mcbride Delivery,18702 196th Ave Se,Renton,WA,98056,206-214-5325
Nw Auto Appraisal,3021 Ne 72nd Dr Ste 9#517,Vancouver,WA,98661,360-696-0544
I & B Transport,2601 Ne 166th Place,Vancouver,WA,98684,360-254-0304
F V M Express,245 Lavander Pl,Othello,WA,99344,509-431-4547
New Beginning Transport,48 Mercury Dr,Richland,WA,99352,509-989-6096
Yetneberk Transportation,34516 Se Jay Ct,Snoqualmie,WA,98065,425-766-7474
Premier Transport,6020 50th St Ne,Marysville,WA,98270,360-691-9498
A G Transport,1727 S 45th,Tacoma,WA,98418,253-267-5145
Ocean Express,1911-apt#b W J St,Pasco,WA,99301,509-845-3190
No Limit Transport,5537 34th Street Loop Ne,Tacoma,WA,98422,253-227-5327
Benavides Trucking,512 W 11 Street,Warden,WA,98857,509-349-9949
Joseph Lee Kasper Hulk Hauler,5015 Ne 40th Ave,Vancouver,WA,98661,360-694-2726
Barragan Trucking,1010 Sylvan Dr,Othello,WA,99344,509-855-3908
Rainey Bros,638 Sunset Park Drive Suite 215,Sedro Wooley,WA,98237,360-856-5825
Jf Contracting LLC,30611 70th Ave E,Graham,WA,98338,253-846-0879
Adam's Trucking,808 N 43rd Way,Pasco,WA,99301,509-547-3349
Speakman Auto Transport,554 Evans Rd,Toledo,WA,98591,360-864-6750
Big T Express,18702 W Bernhill Rd,Nine Mile Falls,WA,99026,509-434-4355
Mar Jul Express,656 S Saddle Road,Othello,WA,99344,956-624-0284
Excavation Service,4213 Ginnett Road,Anacortes,WA,98221,360-299-9519
Singh Trucking,2307 E Meadow Blvd,Mount Vernon,WA,98273,360-982-2197
L A U Trucking,1101 West Darland,Goldendale,WA,98620,541-910-1990
Crab Creek Trucking,205 E Birch Apt 13,Ritzville,WA,99169,253-307-2744
Ua Trucking,36809 4th Ave Sw,Federal Way,WA,98023,206-371-2727
American Lenders Service Company,403 E Kennewick Ave,Kennewick,WA,99336,509-586-3650
O Valdez Trucking,5104 Arthur Ln,Pasco,WA,99301,509-546-0523
Light Star Transport,3808 I Pl Ne,Auburn,WA,98002,253-205-0210
Yalta Express,500 Nw 29th Ave,Battle Ground,WA,98604,503-998-6803
Tino's Transport,802 N 11th Avenue,Yakima,WA,98903,509-457-8404
Eagle One Express,716 Railroad Ave S,Kent,WA,98032,206-355-8564
N B A Express,507 So Steele Rd,Othello,WA,99344,509-760-3533
Izaac's Trucking,710 W Yakima St,Pasco,WA,99301,509-531-8109
Pr Transport And Repair,511 Salmon Creek Road,Toledo,WA,98591,360-864-6968
Ad Delivery,14004 N Peone Rd,Mead,WA,99021,509-990-3562
Hernandez Trucking,4207 Dartmoor Ln,Pasco,WA,99301,805-310-0925
Usa Logistics,4300 N E 55th Place,Vancouver,WA,98661,503-380-0892
Legacy Logistics,507 N 13th St,Selah,WA,98942,509-969-8565
Sam & Dari Trucking,2917 E Decatur Avenue,Spokane,WA,99208,509-228-2761
Diamond D Trucking,19406 W Four Mound Rd,Nine Mile Falls,WA,99026,509-796-5965
Mts,7432 207th Ave E,Bonny Lake,WA,98391,253-862-4801
Coast To Coast Hulk Hauling,342 North Pekin Road,Woodland,WA,98674,360-609-8278
Vitaliys Trucking Company,1604 S 257th Pl,Des Moines,WA,98198,206-403-3278
Macias Trucking,2267 Se S Street,Warden,WA,98857,509-737-4410
Baze Trucking,2370 Waneta Road,Grandview,WA,98930,509-303-0100
P J R Express,702 Firing Center Rd,Yakima,WA,98901,509-453-5741
Gbtg Trucking LLC,10115 Holly Drive J-207,Everett,WA,98203,360-888-7873
Pacific Northwest Diesel Service,3301 W Hallett,Spokane,WA,99224,509-413-8308
Msb Truck Line,3521 227th St Sw,Brier,WA,98038,206-391-9340
Cmw Trucking,425 8th Ave Ne,Puyallup,WA,98372,253-222-2747
Olyrose Trucking,8816 13th Ne,Olympia,WA,98516,360-438-1055
M & F Trucking,1623 W Yakima St,Pasco,WA,99301,509-547-1867
Tri-haul,2803 S Wilbur,Spokane Valley,WA,99206,509-893-3889
A Licona Trucking,131 Parkland Dr Trl 177,Sunnyside,WA,98944,509-305-0462
Daniboy Mega Transport,9041 17th Ave Sw,Seattle,WA,98106,206-579-2046
"L Wibbelman Company, Inc.",147 S Ann St,Monroe,WA,98272,360-794-0411
Carlson Scale Service,5630 Nature Shores Dr,Rock Island,WA,98850,509-884-1330
Further Trucking,1816 Crystal Lane Loop Se,Puyallup,WA,98372,253-227-9738
P N Express,348 Balsam Street,Royal City,WA,99357,509-760-5494
Wcl,3930 Guide Meridian Ste 107,Bellingham,WA,98226,360-922-0733
Kwt,29814 125th Place South East,Auburn,WA,98092,206-327-2177
B & G Trucking,1806 Madison St,Everett,WA,98203,425-353-4914
Jim Johnson Trucking,8508 Iron Mountain View Lane,Concrete,WA,98237,360-826-4124
Ak49 Trucking,93 S Jackson St Apt 32445,Seattle,WA,98104,907-444-5969
Dew Acres Transport,64 Geissler Rd,Montesano,WA,98563,360-249-5086
Mechanical Services,4165 B Jackson Hwy,Chehalis,WA,98532,253-208-7142
Voltz Oil,1401 N Park,Chewelah,WA,99109,509-935-8095
Bigg Nutz Trucking,2231 V St Nw,Auburn,WA,98001,253-232-5133
Born To Truck Trucking,606 N 39th St,Yakima,WA,98901,509-930-4477
E M Jr Trucking,1403 Husky Dr,Moses Lake,WA,98837,509-855-4161
Mesfin Trucking,15106 Stone Lane N G301,Shoreline,WA,98133,206-829-9188
H M P Express,408 7th St,Mattawa,WA,99349,509-932-5526
G & A Express,31809 53rd Pl South,Auburn,WA,98001,N/A
Atf Trucking,650 South Vanwell,East Wenatchee,WA,98802,509-886-8689
Galaxy Trucking,914ne 172nd Place,Shoreline,WA,98155,206-723-7627
Azteca Trucking,74280 Us Hwy 97,Wapato,WA,98951,509-877-7199
Barajas Trucking,221 E 4th St,Mattawa,WA,99349,509-305-8946
Peanut Express,6930 N Cincinnati,Spokane,WA,99208,509-710-0125
Universal Moving Systems,2912 69th Ave West # D11,University Place,WA,98466,253-564-7000
Premier Auto,15904 Bear Creek Pkwy,Redmond,WA,98052,806-669-6514
Black Eagle Limousine,259 Bryant Hill Rd,Woodland,WA,98674,360-225-9655
Zumwalt Transport,13009 Ne 95th Street,Vancouver,WA,98682,360-896-3956
Tumwater Trucking,1949 91st Ave Sw,Olympia,WA,98512,360-878-8459
Marin Trucking,15152 65th Ave S 817,Tukwila,WA,98188,206-694-9806
Nomadic Northwest Transportation,6348 Blackfoot Pl,Maple Falls,WA,98266,360-599-2489
Usnw Express,5150 Village Park Drive Suite 100,Bellevue,WA,98006,425-401-7147
"Drs Trucking, Inc.",25806 179th Pl Se,Covington,WA,98042,206-406-0820
Hi-rev Express,103 W Chuckie Lane,Moses Lake,WA,98837,509-750-9918
S Martinez Trucking,76 N Nevada Ave,East Wenatchee,WA,98802,509-387-7192
Bilyeu Trucking,2503 Hidden Way,Vancouver,WA,98661,417-722-4030
B K Trucking Company,4914 Shattuck Pl S Unit #ee103,Renton,WA,98055,206-251-6330
Terry Rooney Trucking,154 Wallace Road,Woodland,WA,98674,360-225-9973
Steve Berry Trucking,145 Sunflower Ln,Onalaska,WA,98570,360-219-3988
Urias & Son Trucking,305 Spruce Ave,Warden,WA,98857,509-989-9582
Gene Tripp Trucking,1041 Clemans Dr,Naches,WA,98937,509-653-1387
D&c Trucking,701 W 6th Street,Warden,WA,98857,509-349-2356
R & L Trucking,213 E St,Granger,WA,98932,509-854-1490
Mc Logistics,3842 East I Street,Tacoma,WA,98404,253-200-8852
Viking Concrete Pumping,1711 1st St,Snohomish,WA,98290,360-563-9300
Parson Transport,34604 114 Prnw,Benton City,WA,99320,509-453-2476
Polynesian Auto Transport,2627 South Ferdinand St,Seattle,WA,98108,206-852-7761
R Cervantes Trucking,197208 593 Pr Sw,Paterson,WA,99345,541-571-0093
Joe's Septic Tank Service,17420 N Hiway 101,Shelton,WA,98584,360-426-2442
B Money Trucking,927 Keller St,Kennewick,WA,99336,509-750-1223
Stress Free Trucking,7607 158th Street Ct E,Puyallup,WA,98375,253-536-2556
Jpp Trucking LLC,2630 S 256th St Apt L 101,Kent,WA,98032,206-793-8698
R & N Trucking,3150 Valley Rd Ne,Moses Lake,WA,98837,509-855-2244
Hedstrom Transportation,1905 151 St Ct S,Spanaway,WA,98387,253-535-2078
Howard Trucking,1673 S Market Blvd,Centralia,WA,98532,360-269-1552
Racing Limos Of Tri Cities,89109 Badger View Drive,Kennnewick,WA,99338,509-628-1593
Ots Trucking,2890 Sheller Rd,Sunnyside,WA,98944,509-453-3936
Md Express,2408 Sw 352nd St Apt B,Federal Way,WA,98023,253-874-3304
Alpine Transportation,10163 40th Avenue West,Tacoma,WA,98446,253-537-3124
Stephens Transport,409 W Cameron,Dayton,WA,99328,509-629-1290
Dollar Guys Transport,1114 W 10th Ave N205,Kennewick,WA,99336,509-438-9558
Anup Express Way,12833 Se 208th St,Kent,WA,98031,253-630-9989
Roger Thompson Trucking,3315 So Alaska St,Tacoma,WA,98418,253-472-2175
Transamerica Express,9606 Ne 104th Ave,Vancouver,WA,98662,360-314-6869
N W Warehouse,5813 S Mullen St,Tacoma,WA,98409,253-475-6909
Select Independent Delivery,202 30th Ave Sw,Puyallup,WA,98373,253-228-2983
Iniguez Trucking,3001 S 288th St Trlr 396,Federal Way,WA,98003,209-466-7721
Holst Transportation,11613 122nd Ave Kpn,Gig Harbor,WA,98329,253-225-8202
Kaza Truking,17341 32av S #n210,Seatac,WA,98188,206-696-3342
Laws Trucking,423 Sears Rd,Winlock,WA,98596,360-520-7303
S & S Webster Trucking,1005 Lincoln Ave E,Tenino,WA,98589,360-264-5815
Alex Trucking,17210 30th Ave S Apt# H-5,Seatac,WA,98188,206-366-5355
Party Transport,1519 E Central Ave,Spokane,WA,99208,509-701-3392
Jco Trucking,103 S Main St,Kittitas,WA,98934,509-881-5677
Soto's Trucking,2209 Rd 32,Pasco,WA,99301,509-453-5413
"The Propertydoctor Ent, Inc.",297 Englert Rd,Woodland,WA,98674,360-225-6912
Lambero Trucking,15119 Stone Lane North Apt J 101,Shorelane,WA,98133,206-407-8451
Tj's Express,3114 W Agate St,Pasco,WA,99301,509-531-8279
Angel Trucking,6243 S Montgomery St,Tacoma,WA,98409,253-719-5607
Sea Land Trucking,5731 S 152nd St #322,Tukwila,WA,98188,206-313-9643
Izzat Delivery & Installation Services,4909 L Court Ne,Auburn,WA,98002,253-394-8811
Snortn Boar Transport,3807 Serene Way,Lynnwood,WA,98087,425-742-8979
Washington State Trucking,14701 120 Court Ne,Kirkland,WA,98034,206-229-3040
Guma Trucking,4519 Ne 98th Circle,Vancouver,WA,98665,360-546-1827
Metro Moving And Storage,18862 72nd Ave S,Kent,WA,98032,425-251-4917
Thornhill Construction,127 Park Place,Buckley,WA,98321,503-607-1088
Dbt Trucking,16632 Se 262th Pl,Covington,WA,98003,206-391-9340
Olympic Sign Services,2702 12th Ave Ne,Olympia,WA,98506,360-753-1664
Seattle Party Bus - Your Party Bus,407 South 23rd St,Reston,WA,98055,206-914-5324
Royal Jr Hauling,1146 8th Ave,Longview,WA,98632,360-703-2171
Asr,404 N Grant Ave,Medical Lake,WA,99022,509-979-7354
Jazz Hauling,22611 286th Ave Se,Maple Valley,WA,98038,425-413-2898
Criswell Trucking LLC,5750 C0ve Rd,Ellensburg,WA,98926,541-324-4034
Household Movers,19925 68th Ave W,Wynnwood,WA,98036,208-218-8641
Spiritual Journeys Charters And Tours,3507 South 9th Street,Tacoma,WA,98405,000-000-0000
R&j Enterprises,12945 Se 305th Pl,Auburn,WA,98092,253-929-6666
Aaa Transport,24816 Pacific Hwy,Kent,WA,98032,206-391-9340
Dustin Hines Trucking,205 Holcomb Rd,Chehalis,WA,98532,360-748-6564
Flores Trucking,2072 East Lake Ave,Soap Lake,WA,98851,800-226-3696
Edwards Trucking,901 194th St E,Spanaway,WA,98387,253-846-5991
Kevin's Hauling Service,7016 N Colton D204,Spokane,WA,99208,509-489-6423
Yelm Recycling,109 93rd Ave Se,Yelm,WA,98597,360-970-9869
N B Trucking,14522 127ave Ne #w80,Kirkland,WA,98034,916-529-9583
Hicks Truckin',6040 Se Arcadia Rd,Shelton,WA,98584,360-427-5951
Seattle Logistics,1403 34th Ave East Suite H,Fife,WA,98424,253-778-8118
Milano Auto LLC,12522 8th Ave Apt B201,Everett,WA,98204,203-249-3815
Megaton Trucking,12712 232nd Ave E,Buckley,WA,98321,253-000-0000
Holbert Trucking,200 W Darland Dr,Goldendale,WA,98620,509-261-2661
Clarks Trucking,253 9th St,Goldbar,WA,98251,360-793-0458
J F S Trucking,10414 47th Avenue Sw,Lakewood,WA,98499,253-678-7646
Rgt Transport,27422 Se 236th St,Maple Valley,WA,98038,425-413-8444
Key Peninsula Trucking,15933 Glenwood Rd Sw,Port Orchard,WA,98367,253-327-8590
Little Transportation,1522 Harvest Place,Sunnyside,WA,98944,509-837-8766
Northwest Truck Line,4171 Sheller Road,Sunnyside,WA,98944,208-503-9249
Tbr Trucking,2260 Road 5 Ne,Moses Lake,WA,98837,509-765-1162
Tom Stewart And Son,536 106th Street S,Tacoma,WA,98444,253-592-8504
Ellis Transportation Services,1133 Wells Street,Enumclaw,WA,98022,N/A
West Coast Transport,526 105th St Sw,Everett,WA,98204,253-344-1502
Kiger Transport,114 Robarge Rd,Metaline Falls,WA,99153,509-589-1003
Ledbetter Distributing,613 E Ash,Waterville,WA,98858,N/A
Premier Transport,3848 165th Pl Se,Bellevue,WA,98008,425-449-8855
J M Transport,5514 Jackson Hwy Unit N,Toledo,WA,98591,360-827-5156
Contractors Trucking,7611 Ne 251 St Street,Vancouver,WA,98604,360-721-1927
A & N Delgado's Delivery,24038 62nd Way South,Kent,WA,98032,206-650-2655
Inland Movers,21824 121st Pl Se,Kent,WA,98031,N/A
Barber Fast Freight,127 Mashell Ave,Eatonville,WA,98373,253-377-6131
Private Carrier,115 Balch Road,Lyle,WA,98635,509-637-5869
E & J Trucking,101 N 6th Ave,Mabton,WA,98935,509-416-2333
Wings On Wheels Transport,22304 51st Ave W,Mt Lake Terrace,WA,98043,907-980-4179
Pirana,6005 S Cedar St,Tacoma,WA,98409,253-431-6286
Az Trucking,9225 178th St Ct E,Puyallup,WA,98375,253-255-3112
Nri,10011 Ne 86th Ct,Vancouver,WA,98662,503-607-1088
Papa's Big Truck & Transport,1904 Nw 4th St,Battle Ground,WA,98604,360-909-6932
Streamline Custom Transport,8630 Double Ditch Road,Lynden,WA,98264,360-815-4877
Wood Trucking,6811 Ne 121 Ave Apt 68,Vancouver,WA,98682,360-635-2332
Jog Transport,110 Abby Lane,Zillah,WA,98953,509-453-2476
Joseph Courier,1101 S 92nd Street,Tacoma,WA,98444,253-306-9143
Auto Purchase And Transport,11301 Ne 7th St Apt V7,Vancouver,WA,98684,503-917-1347
Luna Trucking,1115 N 183rd St # 110,Shoreline,WA,98133,206-778-5539
Daddy Bear Express,2524 W Sylvester St Apt #17,Pasco,WA,99301,509-380-1732
Npt,1300 Boblett St Ste E,Blaine,WA,98230,425-656-0295
Cat,5285 Patrick Lane,Cashmere,WA,98815,253-520-3630
Integrity Transport,2927 S Windom St,Tacoma,WA,98409,253-520-3630
Sst,164 Heritage Pl # 157,Burlington,WA,98233,360-270-1075
V & N Delivery Service,6705 S 239th Apt E203,Kent,WA,98032,253-569-4995
Clarkston Care Center-the Orchards,1242 11th St,Clarkston,WA,99403,208-660-4241
K A R S,108 Spokane St,Garfield,WA,99130,509-592-8269
Bambinos Deliveries,28116 18th Ave S,Federal Way,WA,98003,206-249-1893
"Asia Truckig, Inc.",1330 Sw Dash Point Road,Federal Way,WA,98023,253-941-3766
Dndzz Trucking,8220 134th St Ne,Arlington,WA,98223,360-657-7810
Lb Ridaz,207507 E Terril Rd,Kennewick,WA,99337,509-851-4886
Mor Transport,1320 S 1st Ave,Yakima,WA,98902,509-480-2838
Bukovina & Kan,5024 S Mullen St,Tacoma,WA,98409,253-230-1401
Jfg Trucking,4510 S Beech St,Kennewick,WA,99336,509-585-4887
Perry Distributing,11504 Ne 26th Ave,Vancouver,WA,98686,360-576-5006
Summit Trucking,4024 E 11th Ave,Spokane,WA,99202,509-533-6930
Double R Trucking,3245 Jeri Drive Ne,Lacey,WA,98516,360-491-6525
Aamco Transmissions,12006 Pacific Highway Sw,Lakewood,WA,98499,253-581-2725
Cr Trucking,4135 Nw 16th Ave,Camas,WA,98607,360-213-5744
Mclemore's Horse Transport,31727 N Austin Road,Deer Park,WA,99006,509-995-1621
L S O Express,620 Adams Ave,Warden,WA,98857,509-349-2341
Dj Erickson Trucking,18507 Ne 139th Street,Brush Prairie,WA,98606,503-434-3601
Salad Express,14621 E 13th Ave ,Veradale,WA,99037,509-435-7454
Rotchars Auto Transport,13301 Se 79th Place Unit C414,Newcastle,WA,98059,425-443-9796
Troy Hixon Trucking,513 Blueberry Street Sw,Pacific,WA,98047,253-632-3408
Tom Blair Transport,732 Summitview,Yakima,WA,98902,509-833-6134
"Pacific Rigging And Heavy Haul, Inc.",3610 Cedardale Road Suite D,Mount Vernon,WA,98274,360-424-8665
West Point Transport,6520 Fisher Rd,Edmonds,WA,98026,206-819-1599
R&l Express,1419 S Husky Dr,Moses Lake,WA,98837,509-331-8265
Us Express,6517 Ne 79th Avenue,Vancouver,WA,98662,360-773-8879
West Coast Forest Products,19406 68th Dr Ne,Arlington,WA,98223,360-435-2175
Sanchez Brothers Transport,1008 S 8th St,Yakima,WA,98901,509-406-0170
Hanley Trucking,612 Frayne Pl,Yakima,WA,98901,509-961-7260
Sidhu Trucking,1601 Park Avenue,Puyallup,WA,98372,253-232-4678
Party Medics,6840 187th Ave Sw,Rochester,WA,98579,360-704-8310
Auburn Valley Xpress,31061 117th Pl Se,Auburn,WA,98092,253-351-2993
Hov Sound And Lighting,16308 Se 7th Street,Bellevue,WA,98008,425-408-2468
Russ's Transport & Service,1002 S Shirley,Tacoma,WA,98465,253-307-9189
Ricoo Transport,149403 W 138 Pr Nw,Prosser,WA,99350,509-786-1857
Jc Enterprise,300 Wilson Hwy #96,Grandview,WA,98930,530-567-5086
Freedom Transport,11513 W Luke Rd,Cheney,WA,99004,509-253-4744
Miss Js,1423 E 29th Street Suite 210,Tacoma,WA,98404,253-722-5852
West States Trucking,706 S 44th Ave Apt A,Yakima,WA,98908,N/A
Fred Turner Trucking,158 Hawthorne,Kelso,WA,98626,360-751-3730
Jmm Trucking LLC,13481 Rd Hw Sw,Royal City,WA,99357,509-346-9647
Mta Trucking,515 N Shelley Ave,Othello,WA,99344,509-488-2558
Silver Lake Logistics,225 Industrial Way,Longview,WA,98632,360-578-1010
"S1 Trucking, Inc.",11128 Se 266th Street,Kent,WA,98030,916-402-7778
Us Transportation,6215 160 Th St E,Puyallup,WA,98375,253-468-3766
D And M Freight,509 Nw 25th Place,Battle Ground,WA,98604,360-991-9051
Sraon Trucking,11927 Se 236th Pl,Kent,WA,98031,253-856-0914
Macias Express,912 S County Rd Apt B-2,Warden,WA,98857,509-760-1464
"Jts Trucking, Inc.orporated",14015 50th Drive Southeast,Snohomish,WA,98296,425-379-8530
Husky Nationalease,11222 E Marginal Way S,Seattle,WA,98168,206-384-1000
Cms,1498 Pacific Ave Suite 525,Tacoma,WA,98402,253-875-5113
Rainbow International Of The Tri Cities,100 Abby Avenue,Benton City,WA,99320,509-737-9379
Semenko Transport,7811 Rd E Ne,Moses Lake,WA,98837,509-771-0573
Lhgs Transport,11208 Ne 266th Street,Battle Ground,WA,98604,360-687-9837
Ocampo Trucking,506 Crescent Drive,Grandview,WA,98930,509-882-4213
Tds Express,804 N Cedar Ave,Pasco,WA,99301,509-845-0032
A & G Transport,931 S 9th Ave,Pasco,WA,99301,509-302-5814
R H Trucking,1827 W Park St ,Pasco,WA,99301,480-600-2051
Freemans Express,8618 Nw Lower River Rd,Vancouver,WA,98668,503-607-1088
Muleskinner Trucking And Transportation,443 West Alder Drive,Sedro Wooley,WA,98284,360-303-9580
Whiteside Transport,10719 Ne 86th Ave,Vancouver,WA,98662,503-735-0540
Pfz Transport,18113 Ne 30th Cir,Vancouver,WA,98682,360-896-3455
4c Ranch,10633 Airport Rd,Wilbur,WA,99185,509-647-2723
Borderview Trucking,4927 Jones Road,Sumas,WA,98295,360-988-2313
Anything Goes Delivery,6312 Camden Drive,Pasco,WA,99301,509-544-8064
Rai Trucking,9620 S 242 Ct,Kent,WA,98030,206-280-6478
Devin Bouchey Trucking,8213 Branch Rd,Harrah,WA,98933,509-848-2444
Pmtrucking,309 S Front St,Oakesdale,WA,99158,509-285-6361
Tigers Express,1310 M St Se # C,Auburn,WA,98002,206-852-7160
Coast Line,3610 Nw 166th St,Ridgefield,WA,98642,503-740-5925
Sp Trucking,2556 Nw 22nd Ave,Camas,WA,98607,360-713-8693
Legitimate Transport,3031 South 204th St Apartment 99,Seatac,WA,98198,253-561-3407
P V M Express,649 S First Ave,Connell,WA,99326,509-234-6515
Gold Digger Xpress,900 South 3rd Ave,Othello,WA,99344,509-331-4852
R&b Hays Enterprises,1731 W Huntzinger Rd,Selah,WA,98942,509-697-3774
Peters Trucking,12731 Brooks St Sw,Olympia,WA,98512,360-943-9833
La Blanka Transportation,44504 228th Ave Se,Enumclaw,WA,98022,360-802-6932
D & Lp Trucking Co,15117 Ne 26th St,Vancouver,WA,98684,360-892-5608
Knittle Trucking,101 Pacific Ave Spur,Kelso,WA,98626,360-636-1836
Roe Trasport LLC,755 Nw St Helens,Chehalis,WA,98532,509-301-8816
Mau Trucking,11309 Se 260th St Apt#a202,Kent,WA,98030,253-217-6178
Rodriguez & Son,7322 West Bonnie Ave #31,Kennewick,WA,99336,509-438-1871
Rkd Trucking,172 Wind Mountain Road,Stevenson,WA,98648,509-427-7073
Cw Transport,3850 Klahanie Dr Se #17-201,Issaquah,WA,98029,425-392-2297
Sams Material Handling,1724 W Irving,Pasco,WA,99301,504-845-3500
D&s Transport,3916 Main Street,Vancouver,WA,98663,360-694-9723
Ads Express,4351 E R St,Tacoma,WA,98404,253-227-6898
A & D Trucking,1942 Trigg Rd #20,Ferndale,WA,98248,360-393-6161
Smith Moving,751 N Colony Surf Drive,Lilliwaup,WA,98555,360-877-2038
Best Bark Blowing,2527 Ne 3rd Ave,Camas,WA,98607,360-907-5949
R L Gibbs Transport,9918 240th St Sw,Edmonds,WA,98020,206-542-5908
Comfort Delivery,4821 Ne 110 Ave 2,Vancouver,WA,98682,360-448-7445
Greenline Transport,6202 164th Street Se,Snohomish,WA,98296,425-773-3738
Rodan Express,5402 Ne 60th Ct,Vancouver,WA,98661,360-696-8496
Michael's Transport,35845 57th Ave S,Auburn,WA,98001,253-735-2655
Tjc S Moving,407 M Street,Hoquiam,WA,98550,360-500-5468
Newsom Bros,6516 211th Pl Ne,Arlington,WA,98223,425-754-7283
Shabel Trucking,11100 Se Petrovitsky Rd,Renton,WA,98055,253-218-5653
Jmnt Trucking,1411 S 26th Ave,Yakima,WA,98902,509-469-3374
Max Transport,6220 70th Ave Ct W 203,University Place,WA,98467,253-359-3367
Valley Sand & Gravel,1133 Smith Road,Walla Walla,WA,99362,509-526-7625
T And R,6852 Sr 270,Pullman,WA,99163,509-872-0116
Lb Trucking,704 87th Ave Ne #30,Lake Stevens,WA,98258,425-442-3440
Valencia Transport,7315 Rd 44,Pasco,WA,99301,509-845-4556
Macken Ag Transport,1621 W. Pheasant ,Moses Lake,WA,98837,509-431-1093
Ramirez Trucking,530 Forsell Rd,Grandview,WA,98930,509-882-5709
M L P Trucking,271 S Welcome Slough,Cathlamet,WA,98612,360-849-4112
Spl Trucking,4502 S 301st Dr,Auburn,WA,98001,206-786-2631
G E Brown Refrigerated Express,144 Railroad Ave #109,Edmonds,WA,98020,208-777-9714
Molokai Trucking,19005 Se 19th Way,Vancouver,WA,98683,360-256-2984
Ok Transport,4029 E 23rd Ave,Spokane,WA,99223,509-534-0601
Dale Hollingsworth Trucking,3716 Searles Rd,Malage,WA,98828,509-860-6317
Tata Transport,313 Adams St,Grandview,WA,98930,509-882-5591
Ap Trucking,317 Se 18th Way,Battle Ground,WA,98604,360-607-6627
Meresse Trucking LLC,512 Cooper Ave,Underwood,WA,98651,509-493-2604
In Line Logistics,9518 Ne 134 Street,Vancouver,WA,98662,360-606-6014
Randy Reifenstahl Trucking,4104 W Larch Ave,Yakima,WA,98903,509-972-2058
Five Stones Trucking,707 23rd St S E,Auburn,WA,98002,253-224-8355
A & A Trucking,5823 North Drumheller Rd,Spokane,WA,99205,509-590-3319
Contreras And Sons Trucking,402 N Matson Dr,Moses Lake,WA,98837,509-989-6369
Sjm Transport,12112 S Hatch Rd,Spokane,WA,99224,509-448-4880
Summit Transport,1304 East Stanley Drive,Medical Lake,WA,99022,509-951-1250
Mesa Trucking,1368 54th St,Washougal,WA,98671,360-835-7257
Double Down Distributing,334 Ivy St,Kalama,WA,98625,360-423-6888
M L Carrier,4220 Archer Dr,Bellingham,WA,98226,360-483-8987
Reggie Trucking,2141 S Vancouver St,Kennewick,WA,99337,509-439-0326
Blitz Transportation Services Ltd,4251 W Shelton-matlock Rd,Shelton,WA,98584,360-426-4337
Lion Auto Transporting,51615 157th Ave Se,Renton,WA,98058,425-255-1256
Active Carriers,383 Meadowbrook Ct #234,Bellingham,WA,98226,360-510-9600
G V N G R Trucking,4815 Airway Dr #8,Moses Lake,WA,98837,509-855-1342
K A T,8128 200 St Sw,Edmonds,WA,98026,425-697-5888
Smogzat Transportation,4432 83rd Pl Nw,Marysville,WA,98271,360-659-2124
Avalon Transport,20417 Se 198th,Renton,WA,98058,425-432-6565
Gcg Transport,5510 Mieras Rd,Yakima,WA,98901,509-248-0943
John Nelson Trucking,16418 Littlerock Rd Sw,Rochester,WA,98579,360-273-4781
Rivera Trucking,3010 West Arlington,Yakima,WA,98902,509-406-8303
Sanchez Trucking,203 Riverview,Mattawa,WA,99349,509-830-4080
Mc Trucking,637 Bennett Street,Sedro Woolley,WA,98284,360-855-2301
Moonlighting Express Transportation,905 10th St Ne,Auburn,WA,98002,253-737-5212
Chavez Trucking,9 North L St,Toppenish,WA,98948,509-901-0805
Scott Bybee Trucking,47901 Sw Anderson Rd,Prosser,WA,99350,509-453-2476
Lafon Transport,1403 34th Ave East Suite I,Fife,WA,98424,253-922-8301
Raja Trucking,12102 4th Ave W#26-107,Everett,WA,98204,206-391-9340
Sol Trans,12601 Ne 27th Way,Vancouver,WA,98684,360-944-6709
J-a-g Trucking,6011 Westside Hwy,Castle Rock,WA,98611,360-274-8324
Barnes Trucking,319 Tooley Road,Toledo,WA,98591,360-864-6625
Eagle Express,702 Della Ave,Benton City,WA,99320,509-588-4491
A & W Trucking,824 N Elm Ave,Pasco,WA,99301,209-918-5629
M & M Enterprise,2769 Maryland St,Longvew,WA,98632,360-425-5917
Reflecting G Trucking,2267 W Cunningham Rd,Othello,WA,99344,509-488-6260
Vrj Transport,305 N G St,Toppenish,WA,98948,408-646-5039
Hamberlin Trucking & Excavating,20227 Menzel Lake Rd,Granite Falls,WA,98252,425-508-8269
Cheyenne Trucking,10412 133rd St Nw,Gig Harbor,WA,98329,253-857-1070
"Catlow Professional Movers, Inc.",1625 S Ridgemont Dr,Spokane Valley,WA,99037,509-922-2229
Ok's Trucking,3242 Ohio Street,Longview,WA,98632,360-636-1796
G & G Truck Line,12137 Se 260th Pl,Kent,WA,98030,206-396-5544
Agate Pass Transportation,6221 Lincoln Pl Ne,Poulsbo,WA,98370,360-598-3938
Mesmay-transport,11904 Renton Ave #110,Seattle,WA,98178,206-380-6040
Saroay Trans,2232 Se 3rd St,Renton,WA,98056,206-330-7214
C Avelar Trucking,3523 W Hood Apt D105,Kennewick,WA,99336,509-205-5584
"Northwest Sawdust, Inc.",19819 67th Ave N E,Arlington,WA,98223,360-435-0945
Juan Jimenez Trucking,602 Government Rd,Mattawa,WA,99349,509-932-6437
Best Way Transport,13220 42nd Ave,Tacoma,WA,98446,253-737-3332
Jimenez Trucking,24445 Boundary Ave Sw,Mattawa,WA,99349,509-542-1613
Rd Atwood Transport,140 Noble Fir,Goldendale,WA,98620,509-773-6671
Fortuna Express,3325 134th Pl Se,Mill Creek,WA,98012,206-778-0390
Zhogan Transport,3300 Ne 57th Ave Apt 40,Vancouver,WA,98661,360-521-2758
Tow Express,413 E 80th St,Tacoma,WA,98404,253-651-0767
Logan Trucking,502 E Magnolia St,Centralia,WA,98531,360-330-9093
Ena Trucking,36015 52nd Ave S,Auburn,WA,98001,253-740-5457
Alma's Trucking,1331 Wine Country Rd,Prosser,WA,99350,509-416-2333
Voy Express,15226 N Bonnett St,Mead,WA,99021,509-465-2593
Second Chances Transport,1012 South Belfair Court,Kennewick,WA,99338,509-396-5494
"Smith & Smith Excavation, Inc.",100 E 19th St Suite 500,Vancouver,WA,98663,360-258-0440
Mdq Fast Freight & Courier,5737 Radiance Blvd E,Fife,WA,98424,206-391-9058
C And D Trucking,34090 Hwy 12,Naches,WA,98942,509-672-2251
Ed's Auto Transport,15615 157th Avenue Se,Renton,WA,98058,425-531-1175
A & T Trucking,2005 Briar Ct,Grandview,WA,98930,509-882-3590
Seattle Bc Transportation,7906 Rainier Dr,Everett,WA,98203,425-530-8671
Pol Logistics,11900 Ne 18th Street #198,Vancouver,WA,98684,360-604-3036
Northwest Transport,1602 W Panorama Ave,Spokane,WA,99208,509-532-0300
Hard Rock Trucking,8511 North Garfield Road,Spokane,WA,99224,509-464-3601
Roll On Trucking,134 Bruce Street,Waitsburg,WA,99361,509-337-6220
Mo-dane Trucking,25610 50th Ave E,Graham,WA,98338,253-847-5621
Circle P Transport,29514 Ne Hammond Ct,Battle Ground,WA,98604,360-607-6686
Ez Express,820 N Elm Ave,Pasco,WA,99301,509-230-7535
Kysar Trucking,209 Adams Drive,Kelso,WA,98626,360-501-4229
Rose Transport,19529 W Snoqualmie Valley Rd Ne,Duvall,WA,98019,509-670-5442
Rp Trucking,2025 S 372nd St,Federal Way,WA,98003,253-347-5089
Rop Auto Sales,8519 Freya,Spokane,WA,99218,509-953-1707
Karim G Delivery,2111 Sw 352nd,Federal Way,WA,98023,253-985-5705
Amarillas Delivery,4816 S 124th Street,Tukwila,WA,98178,206-510-5435
Point Roberts Auto Freight,1825 Franklin St,Bellingham,WA,98225,360-676-1174
Max Trucking,5006 S Mullen St,Tacoma,WA,98409,253-579-3717
Pavel Transport,4915 Sonora Dr,Pasco,WA,99301,509-430-5578
Hole Shot Hauling,1165 W Cone Way,Kettle Falls,WA,99141,509-738-4886
Get'r Done Transport,3881 Hendricks Rd,Connell,WA,99326,509-234-0507
"Pedro Quintero Trucking, Inc.",9002 N Bunn Road,Prosser,WA,99350,509-973-2848
Korea Seattle Express,2331 190th St Sw,Lynnwood,WA,98036,425-971-5628
Sweetwater Trucking,1531 Sunlight Drive,Cle Elum,WA,98922,509-643-5365
Sawyer Trucking,192 Cole Road,Kelso,WA,98626,360-423-1326
Flatbed Solutions,16611 Ne 137th Ave,Brush Prairie,WA,98606,360-883-5511
R Thomas Trucking,13717 Nw 2nd Ave Apt H95,Vancouver,WA,98685,360-771-7735
Germain Trucking,15310 84th Ave E,Puyallup,WA,98375,253-446-7138
Andy Philpot Trucking,7849 Lewis River Road,Ariel,WA,98603,360-225-3976
Gravely Transportation,37404 Allen Road,Roy,WA,98580,360-458-0608
American Line Trucking LLC,29734 129th Pl Se,Auburn,WA,98002,253-397-9973
Northwest Equine Transport Services,12610 Blowers St Sw,Olympia,WA,98512,360-956-1838
Te Trucking,17400 Heather Lane Se,Yelm,WA,98597,360-400-1805
Porcupine Bay Transport,43326 Quill Dr North,Davenport,WA,99122,509-969-8030
Lucas W Davis Contracting LLC,3608 W 4th Place,Kennewick,WA,99336,509-947-1706
Eims & Son Contracting,8106 Ahtanum Rd,Yakima,WA,98903,509-985-9616
Pm Transport,26719 115th Ave Se,Kent,WA,98030,951-214-0073
Ecologic Excavation,2218 Ne 397th Place,Washougal,WA,98671,360-837-1617
Storm Transportation,1801 Maplewood Ave,West Richland,WA,99353,509-531-2786
Tc Trucking,16215 83rd Ave E,Puyallup,WA,98375,253-370-0641
Hawk Trucking,17160 Avondale Way Apt 6,Redmond,WA,98052,206-786-9911
Nm Express,30332 165th Ave Se,Kent,WA,98042,253-347-0373
Jy Trucking,17007 135th Ave E,Puyallup,WA,98374,360-872-0206
Lesmeister Trucking,1500 Fourth Street,Wenatchee,WA,98801,509-663-1785
Prado M & B Trucking,201 Estella Dr,Basin City,WA,99343,509-845-4369
Borders Trucking,125 N Empire Creek,Malo,WA,99150,509-779-4736
Raj Trucking Services,333 Cascade Place #306,Burlington,WA,98233,206-391-9340
Somal Enterprise,20926 109th Place Se #1707,Kent,WA,98031,209-323-9201
Do-rite Transportation,208 South Central Ave,Kent,WA,98032,253-854-1185
"Korea Express Usa, Inc.",6858 S 220th Street,Kent,WA,98032,253-872-6700
Raybob Trucking,332 Russells Timber Ln,Carson,WA,98610,503-314-8046
V S Transport,8422 Ash Ln,Maple Falls,WA,98266,360-961-6504
Opsahl Contract Cutting,120 Cutters Spur Rd,Castle Rock,WA,98611,360-274-7594
Ramirez Trucking,907 Ismo Loop,Sunnyside,WA,98944,509-837-4345
Top Dawg Trucking,1120 Fir Road,El Topia,WA,99330,509-297-4540
"Eastern Washington Logistics, Inc. Ewal",6324 22nd Ave Ne,Moses Lake,WA,98337,509-764-2462
C & G Trucking,6716 243rd St E,Graham,WA,98338,253-847-9713
V O Transport,8118 Ne 155th Ave,Vancouver,WA,98682,360-281-0649
Bussolher Trucking,527 Terry Street,Sunnyside,WA,98944,509-837-8455
Rod Cicelski Trucking,565 Stellar Ridge,Sequim,WA,98382,360-683-6799
Pj S Express,1135 Kalama River Rd,Kalama,WA,98625,360-673-1996
G E T E,8903 Ne 21st Ave,Vancouver,WA,98665,503-504-0728
Vt Transport,25108 112 Ave Se Apt 3,Kent,WA,98030,253-859-1579
A Treemasters Service,7810 Fisher Ave Se,Snoqualmie,WA,98065,800-676-2176
Holland Freight,3202 S 36th St,Tacoma,WA,98409,253-471-0948
S T L,1437 Colony Court,Lynden,WA,98264,360-354-7542
Pavel Max Transport,15703 Ne 76th St,Vancouver,WA,98682,360-882-4048
Timberline Trucking,7100 Streif Lane,Yakima,WA,98908,509-961-5546
Ankers Away Trucking,9954 Peace Road,Blaine,WA,98230,360-961-3400
Bassi Transportation,25007 38th Ave S,Kent,WA,98032,253-946-1177
Gray Trucking,2022 E 172nd St,Spanaway,WA,98387,253-548-7191
I Ramirez Trucking,230 Calla Loop Nw,Royal City,WA,99357,509-728-1029
Alpha Express,26411 Ne 52nd Way,Vancouver,WA,98682,360-892-3906
M Z Trucking,11810 Se 265th Ct,Kent,WA,98030,206-850-1354
Denis Trucking,7617 Lakewood Dr W,Lakewood,WA,98499,253-381-9597
Morales Express,1918 North 13th Ave,Pasco,WA,99301,509-547-9415
The Buckboard,7409 Henderson Ct Se,Olympia,WA,98501,425-736-7925
Triple Seven Transport,124 Barbara Lane ,Everett,WA,98203,425-530-0163
J & L Trucking,6629 E Mckinley Ave,Tacoma,WA,98404,253-475-2881
Baltic Logistics,202 124th Street Sw A,Everett,WA,98204,425-290-8337
Pinto Express,2829 S 152nd Street,Sea Tac,WA,98188,206-246-5111
L C Trucking,161 Burns St,Wenatchee,WA,98801,509-264-1135
Hooter Transport,46920 S E Middle Fork Road,North Bend,WA,98045,425-330-3535
Parsel Hay And Transportation,1043 Cascade Way,Ellensburg,WA,98926,509-962-4707
Steve Trucking,22802 Ne 72nd Ave,Battle Ground,WA,98604,360-666-8965
A & H Trucking,2246 W Shelly Rd,Othello,WA,99344,509-488-2693
Small Flatbed Service,2006 N Dick Rd,Spokane Valley,WA,99212,509-999-3486
J D Trucking,3704 W Leola St,Pasco,WA,99301,509-543-7726
Time Transport,9520 Ne 101st St,Vancouver,WA,98662,360-891-7167
T P Transport,2209 28 Ave Se,Puyallup,WA,98374,253-770-1711
Double L Transportation,708 Dooley Rd,Centerville,WA,98613,406-579-0007
A & L Transport,4717 118th Pl Se,Everett,WA,98208,425-337-7321
Magnum Express,21624 103rd St E,Bonney Lake,WA,98390,253-862-9299
Bp National Express,13016 Se 234st,Kent,WA,98031,206-723-8744
C & M Auto Transport,6015 Ne 289st,Battleground,WA,98604,360-624-0296
Glenn Myers Trucking,2771 Squaw Rd,Rosalia,WA,99170,509-523-3498
Hunter Trucking,4902 Ne 49th St,Vancouver,WA,98661,360-907-7075
Peterson Trucking,7405 S Hayford Rd,Cheney,WA,99004,509-623-4000
Dan Dilley Trucking,1218 West Wakefield Street,Elma,WA,98541,360-482-8349
Rv Haulers,6102 Ne 94th Ave,Vancouver,WA,98662,360-936-5812
Acrtnt,8908 Ne 54th Street,Vancouver,WA,98682,503-310-4513
Alex Trucking Company,11412 Se 304th St,Auburn,WA,98092,206-255-7382
Salvador's Trucking,1821 N 21 Apt E,Pasco,WA,99301,509-547-8880
Ml Snapp Trucking,3012 Ne Cherry,Vancouver,WA,98663,360-258-8625
Desmarais Service Supply,P O Box 102,Connell,WA,99326,509-234-3081
Kellies Express,1224 S 12th,Pasco,WA,99301,509-547-2470
Coalcoman-mich-express,291 Graver,Selah,WA,98942,509-678-1060
Emerald Medical Services,19407 144 Ave Ne St,Woodinville,WA,98072,425-485-2010
Cervantes Express,1631 W Clark St,Pasco,WA,99301,509-991-3380
Howell Trucking,17917 Dubuque Rd,Snohomish,WA,98290,360-568-7472
Richard E York Trucking,15926 Vail Loop Road,Rainier,WA,98576,707-704-3986
Bald Eagle Trucking,2802 Beaudry Rd Space 2,Yakima,WA,98901,509-575-5744
Donny's Truck'n,1009 Benson Lane,Lynden,WA,98264,360-354-5904
Leader Express,16412 Ne 44 St,Vancouver,WA,98682,360-253-2380
S V A Transport,14397 Dodson Rd Nw,Ephrata,WA,98823,405-283-0521
H & H Trucking,510 Commercial Street,Raymond,WA,98577,360-934-5588
Ken Jones Trucking,3309 Viewridge Lane,Valley,WA,99181,509-937-2162
Alvarez Trucking,108 North Beach,Pasco,WA,99302,509-539-3447
John Savage Trucking,375 Enyeart,Goldendale,WA,98620,509-480-9020
Usa Transport Express,2224 97th Street Court #60,Tacoma,WA,98444,360-348-3272
Dc Trucking,5792 Rd K Ne,Moses Lake,WA,98837,509-766-0294
Tiger Transport,1446 Nw 63rd St,Seattle,WA,98107,206-784-9116
Vinland Trucking,344 Parrish Road,Sequim,WA,98382,360-582-9851
Dnipro Transport,8714 Ne 55th Ave #6,Vancouver,WA,98665,253-312-6611
Hearthbake Distributor,3201 Mcneilly Road,Colfax,WA,99111,509-397-4011
Dhillon Enterprise,9811 134th St E Apt 207,Puyallup,WA,98373,253-389-0729
Daniels Moving And Storage,3816 Cedardale Road,Mt Vernon,WA,98274,360-435-8900
Tom & Lorrita Harper,4294 Grote Rd,Clayton,WA,99110,509-220-1294
Nanamkin Trucking,South 1035 Pine St,Kettle Falls,WA,99141,360-270-7597
Ingersoll Enterprises,22503 102nd Ave S E,Woodinville,WA,98077,360-668-1628
Wright-way Transfer,22257 68th Ave S,Kent,WA,98032,253-872-6808
Supr Trucking,12646 Se 42nd St Apt 3,Bellevue,WA,98006,425-531-2432
Lone Wolf Trucking,327 Knappton,Naselle,WA,98638,360-484-7882
Gmtrucking,626 Highland Dr,Wenatchee,WA,98801,509-630-0169
Gkn Transport,423532 Hwy 20,Usk,WA,99180,509-671-0582
Neva Trucking,3500 Ne 50th Ct Apt 20,Vancouver,WA,98661,360-695-9814
Cano's Hauling Service,564 Ridgeway Loop,Sunnyside,WA,98944,509-839-2016
Dolphins Express,10490 W Hwy#124,Prescott,WA,99348,509-749-2402
Jtc Motor Freight,23512 Ne 10th Ave,Ridgefield,WA,98642,360-281-7788
Sb Trucking,4431 Priest Point Dr Nw,Marysville,WA,98271,425-931-5418
J L S Trucking,1214 S 40th Ave #b,Yakima,WA,98908,509-728-0154
Thind Trucking Co,20104 111th Way Se,Kent,WA,98031,206-383-9100
Nnw Trucking,14101 Ne 319th Street,Battle Ground,WA,98604,360-666-3049
G & G Transport,3610 Sunnyside Mabton Highway911,Sunnyside,WA,98944,509-836-1211
4 Ward Trucking,2010 Sunrise St,Kelso,WA,98626,360-501-6537
Drue Kearsley Trucking,6611 Nw 304th Street,Ridgefield,WA,98642,360-887-4819
Agri-service Northwest,12731 Glade North Road,Eltopia,WA,99330,509-297-4272
E S G Trucking,913 So 8th St,Yakima,WA,98901,509-452-1380
Ml Trucking,2900 Canyon Rd #108,Ellensburg,WA,98926,509-855-6327
Southwest Transport,702 So Palouse Street,Ritzville,WA,99169,509-659-0855
Eazy Money Express,513 E Railroad,Cle Elum,WA,98922,509-304-6023
Trans Asia,4114 Ne 64th Ave,Vancouver,WA,98661,360-253-2515
Tilley Trucking,1901 Broadway Ave,Hoquiam,WA,98550,360-532-3737
Allied Ice,615 Bright Street,Seattle,WA,98107,206-783-5152
Adam's View Hauling,230 Little Mtn Rd,Troutlake,WA,98650,509-395-2487
Hawkins Trucking,823 Glass Ave Ne,Olympia,WA,98506,360-570-8744
Barber Trucking,35916 52nd Ave East,Eatonville,WA,98328,405-283-0521
Wrightway Trucking,13114 223rd Ave E,Bonney Lake,WA,98391,253-350-8981
Lc Trucking,407 N 4th Street,Grandview,WA,98930,509-882-6338
Cool Jatt Trucking,20919 109th Pl Se Apt # 2123,Kent,WA,98031,120-635-9060
Allstot Trucking,4145 Luebber Lane,Malaga,WA,98828,509-663-7025
Prymevil Transportation,832 Fletcher Ln,Selah,WA,98942,509-698-4504
Odessa Trucking,13821 Ash Way,Lynnwood,WA,98087,425-678-8203
Pease Transportation,439 Dutterow Rd Se Unit 13,Olympia,WA,98513,360-951-1782
My Wave Transport,4408 Nw 127th Street,Vancouver,WA,98685,360-518-7094
S&s Trucking,404 Spencer Lane,Laconner,WA,98257,425-772-6237
Ytb Express,17520 14dr Se,Bothell,WA,98012,206-550-1150
Grantham & Sons Trucking,130 6th St,Morton,WA,98356,360-646-6118
Banwer Transfer,1111 Andover Park W,Tukwila,WA,98188,206-812-2218
S & C Trucking,112 Kennebeck Ave So,Kent,WA,98030,253-852-2607
Buechler Trucking,24208 Ne 72nd Ave,Battleground,WA,98604,360-666-1476
Sunstar Enterprises,7120 St Rt 410,Naches,WA,98937,509-658-2290
M & T Transport,154 Jordan Rd,Salkun,WA,98582,360-508-1488
Vic F Uznayet Trucking,3315 Louise St West,Univesity Place,WA,98466,253-278-2262
Hd Trucking,West 41 Shadow Valley Court,Shelton,WA,98584,405-210-3811
Yau's Trucking,10627 Se 213th Ct,Kent,WA,98031,206-446-2172
Seattle Charter Express,20924 8th Ave S,Des Moines,WA,98198,206-824-1112
Evolution Rock Transport,8115 185th St Ct E,Puyallup,WA,98375,915-539-2967
Alex Transportation Of Seattle,6721 Monte Vista Drive Se,Auburn,WA,98092,253-333-2877
Amos And Andrew Transport,602 29th St S E #-59,Auburn,WA,98002,901-288-0436
Servin Trucking,200 Valley View Dr,Sequim,WA,98382,360-681-7744
Cjs Transport,4114 Gibbons St,Vancouver,WA,98661,503-607-1088
J & A Express,919 N Douglas,Pasco,WA,99301,509-547-9042
Anastasia Trucking,2403 Nw 119th St,Vancouver,WA,98685,503-998-0590
Sputnik,16100 Ne 72nd Circle,Vancouver,WA,98682,360-891-1853
Rsn Trucking,3513 48th Ave Ct Ne,Tacoma,WA,98422,253-678-3121
Doty Trucking,24521 Neadham Rd E,Orting,WA,98360,360-893-4278
Skyway Transport,723 E B St,Pasco,WA,99301,509-543-9714
Matharu Transport,949 9th St Se Apt 5,Puyallup,WA,98372,252-435-1882
Ec Express,7617 Elaine Street,Ford,WA,99013,509-258-4043
D & B Trucking,444 Finnridge Rd,Centerville,WA,98613,509-773-3855
Eagle Pick-up & Delivery,33762 Sr 14,Skamania,WA,98684,509-427-4856
Pomeroy Transportation,700 N Reed St # 79,Sedro Wooley,WA,98284,360-560-1844
Dependable Cargo Express,10108 Portland Ave E,Tacoma,WA,98445,360-635-1456
Kooy Truckin,10918 227th Ave Se,Monroe,WA,98272,360-794-1820
Mbe Trucking,1795 Marker St,Wenatchee,WA,98801,509-662-1771
Nienow Trucking,23025 102nd Avenue Se,Woodinville,WA,98072,866-859-9637
Primary Carriers,Hwy 20 E,Tonasket,WA,98855,509-486-1234
Fast Transport,4310 N Silas Road,Spokane Valley,WA,99216,509-922-7024
Brett Maddox Trucking,29725 N Ruby Ln,Deer Park,WA,99006,509-276-9750
Aa And J Trucking Express,23623 101st Ave Se #b-202,Kent,WA,98031,253-852-1800
Naggi Trucking Company,925 9th St Se #5,Puyallup,WA,98372,253-606-8270
Benny's Trucking,2048 B W Bench Rd,Othello,WA,99344,509-488-5979
Charles Seaman Trucking,30 Hawk Lane,Connell,WA,99326,509-234-1122
Madison Trucking,1354 Mox Chehalis Road,Mccleary,WA,98557,360-495-3402
T D F Express,8415 Ne 85th Drive,Vancouver,WA,98662,360-254-3935
Rusonia Transport,12009 Ne 75th Circle,Vancouver,WA,98682,503-607-1088
De La Luz Trucking,108 Westridge Dr,Grandview,WA,98930,509-945-7148
Horse & Mares Hnt Trucking,4241 Coyan Road,Connell,WA,99326,509-760-0455
Hei,8143 Orchard Ave Se,Port Orchard,WA,98367,253-514-4091
R&m Trucking,213 M St Sw,Quincy,WA,98848,509-787-4384
S&j Trucking,11304 Se 10th St W11,Vancouver,WA,98664,360-885-3871
Ccd Consulting,10404 Ne 43rd Avenue,Vancouver,WA,98686,360-573-7516
G Bohanan Transport,6241 Ne 259th Street,Battle Ground,WA,98604,360-666-6119
Aaron Koehn Trucking,929 S Schaake Rd,Othello,WA,99344,509-488-2755
Transportes Colima,1320 N 4th Avenue,Pasco,WA,99301,509-545-3938
J & M Trucking,30618 Webster Rd E,Graham,WA,98338,360-391-5534
Walking Tall Trucking,18511 E 9th Ct,Spokane Valley,WA,99016,509-844-2647
New Star Way,9824 Holly Dr,Everett,WA,98204,425-931-2187
"Jerry's Dump Truck Service, Inc.",1815 Bergeron Court,Vancouver,WA,98661,360-608-1174
Nsd Transport,3393 Shadden Ln Nw Apt # 301,Bremerton,WA,98312,425-478-8199
Act,2981 Griffin Ave,Enumclaw,WA,98022,360-825-0764
Xl Freight Pro,33309 1st Way S Suite A202,Federal Way,WA,98003,253-405-1609
Mjh Trucking,17916 Silver Creek Ave E,Puyallup,WA,98375,253-807-8003
Green Valley Trucking,707 Sharon Lane,Granger,WA,98932,509-854-6225
Rhino Refrigerated Express,10914 Ne 124th Ave,Vancouver,WA,98682,360-892-5392
Tm Day Trucking,20017 Ne Yacolt Mountai Road,Yacolt,WA,98675,360-686-3787
Tillers Water Transport,250 Baese Rd,Tieton,WA,98947,509-678-1020
M & M Transport,9625 South 242nd Court,Kent,WA,98030,253-850-1533
Jeff Kollman Trucking,2696 Us Hwy 101,Hoquiam,WA,98550,360-987-2395
Owens Enterprises,700 S 1 St,Selah,WA,98942,509-575-3943
Bolgrad Transport,25427 109th Court Se #p304,Kent,WA,98030,253-266-0639
M- Truckin,1411 S 11th Ave,Yakima,WA,98902,509-453-8386
Box Five Transportation,704 228th Ave Ne # 825,Sammamish,WA,98074,425-830-7947
M R Express,400 N Pierce St,Kittitas,WA,98943,509-306-9078
Lukes Trucking,1841 Front #g,Lynden,WA,98264,360-354-2971
Troy Fewkes Trucking,4 Orchard Loop Rd South,Tonasket,WA,98855,509-486-0670
Vb Transport,5709 52nd Ave Ne,Marysville,WA,98270,425-387-7655
J & S Express,252 - 20th Ave,Longview,WA,98632,360-270-2523
J L P Transport,305 E Goodlander Rd,Selah,WA,98942,509-728-6326
Savich Trucking,4112 145th Place S E,Snohomish,WA,98296,425-923-8592
Dragon Brothers Trucking,1115 W 31st St,Vancouver,WA,98660,360-606-3769
K & K Trucking,930 N 2nd,Pe Ell,WA,98572,360-291-3963
Sd Transport,2076 New Haven Loop,Richland,WA,99352,509-760-5833
Diamond Transport,11102 36th Ave Ct E,Tacoma,WA,98446,253-376-3359
M & M Transportation,9551 Rainier Ave S #213,Seattle,WA,98188,206-551-1049
C Bruce Shawgo Trucking,115 Brumfield Drive,Chehalis,WA,98565,360-262-3206
High Sierra Enterprises,807 Nw 78 St,Vancouver,WA,98665,503-607-1088
Byrd's Nest Trucking,3250 Selah Loop Rd,Selah,WA,98942,509-698-6989
Makena Trucking,112 Ne 16th Court,Battle Ground,WA,98604,360-907-6624
Roy Charvet Trucking,4340 Independence Rd,Sunnyside,WA,98944,509-833-4932
Msr Trucking,300 Wilson Highway #115b,Grandview,WA,98930,509-882-5112
Gps Trucking,25902 177th Pl Se,Covington,WA,98042,206-786-1067
Otx,10939 Se 211th Place Apt 1322,Kent,WA,98031,425-656-0295
Ets,6515 55th Dr Ne,Marysville,WA,98270,425-737-7272
Hunter Brydges Trucking,6511 South Robin Lane,Clinton,WA,98236,360-341-4397
Jc Contreras Express,4502 Sinai Drive,Pasco,WA,99301,509-547-4681
Rubik's Trucking,9111 Ne 117th Street,Vancouver,WA,98662,360-892-3906
Robert Shapansky Trucking,18 Mccleary St,Mccleary,WA,98557,360-495-3060
Griffin Enterprises,102 Grover St Ste 207,Lynden,WA,98264,360-733-3550
Z Way Trucking & Z Construction,140 Michelle,Pasco,WA,99301,509-545-1260
Mcintire Trucking,650 Cedar Avenue,Richland,WA,99352,509-946-6552
Northwest Timber Transport,N 4206 Kenney Road,Otis Orchards,WA,99027,509-924-4147
John Swiger Trucking,5448 Newhouse Ln,Ford,WA,99013,509-258-7068
Payne Brothers Trucking,4718 Ray Nash Drive,Gig Harbor,WA,98335,253-380-4397
Tee Mason Trucking,2171 Nw Mulholland Blvd,Poulsbo,WA,98370,360-779-7187
Trans American Freight,9705 18th Avenue South # G6,Tacoma,WA,98444,253-548-2378
Giddings Trucking,40 East Torrence Ln,Oak Harbor,WA,98277,360-279-0690
Cascade Excavation,7535 Ne 25th St,Vancouver,WA,98661,360-885-1120
Moldtransauto Trucking,33518 39th Ave S,Federal Way,WA,98001,253-927-2263
Siberian Express,26200 Ne 216 Ave,Battle Ground,WA,98604,360-241-6024
Iet Trucking,2922 Heights Drive,Bellingham,WA,98226,360-676-1810
Psp Transport,7864 Chisholm Trail,Maple Falls,WA,98266,360-892-3906
Tri Cities Transport,4613 Campolino Ln,Pasco,WA,99301,509-999-7626
F & C Trucking,7610 159th St E #150,Puyallup,WA,98375,253-536-0610
Wj Wentz,2006 Nile Road,Naches,WA,98937,509-658-1022
Backnine Trucking,315 East 4th Apt #2,Arlington,WA,98223,360-435-3151
Reilly Trucking,15312 E Lincoln,Spokane,WA,99217,509-927-5824
Light Load Transportation,41206 Ne 21st Ave,Woodland,WA,98674,360-931-9798
Duran Trucking,702 Della Avenue,Benton City,WA,99320,509-531-6488
Eagle One Trucking,4521 C Hwy 25 S,Hunters,WA,99137,509-722-4443
Pete's Trucking Company,8003 Ne 136th Ave,Vancouver,WA,98682,360-604-1311
Bad Boyz Trucking,70 East Juniper #124,Othello,WA,99344,509-488-0423
D N A Trucking,6741 Independence Road,Sunnyside,WA,98944,509-391-9498
C And B Trucking,3640 Vantage Hwy,Ellensburg,WA,98926,509-929-0210
J & M Express,425 S 14th Ave,Othello,WA,99344,509-488-6657
M & H Trucking,406 4th St S,Brewster,WA,98812,509-449-1580
Dnipro Transport LLC,11120 132nd Street Court East,Puyallup,WA,98374,253-228-8381
I-5 Auto And Truck Parts,190 Estep Rd,Chehalis,WA,98532,360-262-3550
Alanis Trucking,14505 Ne 91 St,Vancouver,WA,98682,360-254-3152
Transmex Trucking,185 Birch Drive,Enumclaw,WA,98022,360-802-1893
Eg International,9211 Ne 104th St,Vancouver,WA,98662,360-909-2961
Barwick Trucking,443 Hwy 7 S,Tonasket,WA,98855,509-868-2234
2 Men & A Truck,19804 141st Place Ne,Woodinville,WA,98072,425-485-6683
Reyes Bros,115 Se Fifth Cir,Battle Ground,WA,98604,360-666-3514
Cdy Trucking,3327 E 26th Ave,Spokane,WA,99223,707-338-2389
T V Express,631 Wagon Rd,Othello,WA,99344,509-488-4280
Bunch Trucking,35014 57th Avenue S,Auburn,WA,98001,253-351-6517
Patrick's Trucking,32214 Sunny Lane,Black Diamond,WA,98010,626-627-4101
Mag Express,210 Hull Rd,Selah,WA,98942,509-698-6501
Jb Express,212 I St Se,Quincy,WA,98848,509-398-0406
J F W Transport,802 N Owen Ave,Pasco,WA,99301,509-539-0368
Silverstar Lane,205 E Casino Road Unit B 16-69,Everett,WA,98208,425-712-8740
Emmac,656 Ferndale Ct Ne,Renton,WA,98056,425-572-0199
C & C Trucking,1014 Ne 98th #l,Seattle,WA,98115,206-769-8247
B & W Trucking,1463 Pritchard Road,Evans,WA,99126,509-684-5513
Wc Transport,3809 S 337 Str,Federal Way,WA,98001,253-661-1316
Contreras Transport,1536 N 18th Ave,Pasco,WA,99343,509-430-1885
Sami Transport,16403 Ne 66th Way,Vancouver,WA,98682,360-241-8788
Hosanna Trucking,14404 Military Rd,Seattle,WA,98168,206-755-4848
Parah Trucking,3402 Yeoman Ave,Vancouver,WA,98660,360-521-0690
A M A Trucking,50 Buena Loop Rd,Zillah,WA,98953,509-865-5268
Kavkaz Express,1013 Pomona St,Walla Walla,WA,99362,509-475-5644
Madison Trucking,400 Gupster Rd #3,Sequim,WA,98382,509-307-4145
Star Trucking,110 Harrison Avenue,Centralia,WA,98531,360-736-3100
Kings Trucking,1207 Ne 2nd Circle,Battle Ground,WA,98604,360-687-6078
Gregorio De Leon Trucking,209 N Chestnut St,Toppenish,WA,98948,509-627-0567
Mclean Trucking,5683 Connor Rd,Fruitland,WA,99129,509-722-3049
Dusty Road Trucking,291 Adobe Way,Selah,WA,98942,509-575-8616
Logan Trucking,6309 Ne Hazel Dale Ave,Vancouver,WA,98663,N/A
Dba Polar Service Centers Dba Tank Master Northwest,3710 E Trent,Spokane,WA,99202,509-534-2076
Joes Mobile Service,41 Lava Rd,Trout Lake,WA,98650,509-395-9306
Teets Trucking,26222 196th Plc Se,Covington,WA,98042,253-639-2725
Claudio Cruz Trucking,8003-86th St E,Puyallup,WA,98375,530-586-2733
E & M Trucking,2010 Ne 111th Ct,Vancouver,WA,98684,360-896-9687
Yuriy's Trucking Co,769 Oakhurst Dr,Pacific,WA,98047,253-804-4168
K & F Transport,14212 Woodland Ave E,Puyallup,WA,98373,253-209-8288
Hymark Trucking,136 W Cedar Loop,Colville,WA,99114,509-684-3814
Khalsa Trucking,3726 S 180 St #f202,Seatac,WA,98188,206-244-8362
Hall & Mcarter Trucking,P O Box 2860,Battle Ground,WA,98604,360-687-4875
2 B Truckin,1090 A Street Space #56,Woodland,WA,98674,360-225-6883
Singbeil Trucking,1026 10th St,Vader,WA,98593,360-295-3065
Dos Silva's Transportation,1011 Houghton Rd,Zillah,WA,98953,562-233-1482
Mr Breeze Express,Po Box 4631,Vancouver,WA,98662,360-263-2058
"Door Accessory Distributors, Inc.",16140 Woodinville-redmond Rd,Woodinville,WA,98072,425-415-1214
Pacific Ridge Transport,1250 Koontz Rd,Chehalis,WA,98532,360-262-9418
Perkins Transport,352 Larson Road,Silvercreek,WA,98585,360-983-8433
Nicks Transportation,1207 112th St E,Tacoma,WA,98445,253-531-2349
Barajas Trucking,1296 Hwy 141,White Salmon,WA,98672,509-493-8327
"Reo Truck N Auto Transport, Inc.",510 Nw 134th Circle,Vancouver,WA,98685,360-574-7661
Lenhard Ranch,988 Twelve Mile Rd,Colville,WA,99114,509-684-2928
Michael's Fast Freight,12109 Vail Cut Off Se,Rainier,WA,98576,253-229-9974
R & B Transport,468 Ross Road,Kelso,WA,98626,360-636-7751
Pcs,2839 W Kennewick Ave,Kennewick,WA,99336,509-539-5663
Transportes Interestatales Aguilar,411 W Clark St Suite A,Pasco,WA,99301,509-543-4115
Miracle Express,17216 Heather Ln S E,Yelm,WA,98597,360-458-9005
Steve Bros Trucking,26214 33rd Ave South,Kent,WA,98032,253-856-3957
Donald Companie's Transportation,4734 Stratford Rd Ne,Moses Lake,WA,98837,509-766-3984
Daniel Montejano Trucking,3700 Frontier Rd,Pasco,WA,99301,509-297-4530
Dj Raye Trucking,190 Overland Dr,Selah,WA,98942,509-494-2908
Emery Winters Trucking,3818 S Airport Rd,Port Angeles,WA,98363,360-457-3260
R C Logistics,291 Adobe Way,Selah,WA,98942,509-575-4699
Orca Moving Systems,2824 - 142nd Avenue East,Sumner,WA,98390,253-512-0700
Rhp Trucking,1109 W Garland Ave,Spokane,WA,99205,509-326-4568
"Joni's Hauling, Inc.",11518 Ne 70 Ave,Vancouver,WA,98686,360-573-4185
Robert Ryan Trucking,2514 171st Pl Se,Bothell,WA,98012,425-806-0116
Fdr Trucking,7300 Rd N2 Ne #3,Moses Lake,WA,98837,509-793-8246
Mk Trucking,12124 E Portland Ave,Spokane Valley,WA,99206,509-991-7648
One Good Car Co,6912 220th Sw Suite 208,Mountlake Terrace,WA,98043,253-437-0976
Dew-val Express,2008 Ne 98th,Vancouver,WA,98664,360-260-7807
Sonora Express,507 E Spruce St,Yakima,WA,98901,509-469-3698
Rel Transport,24319 42nd Avenue East,Spanaway,WA,98387,253-847-8249
Reynolds Custom Hauling,2760 Cook Road,Yakima,WA,98908,509-965-4141
Mike Tardif Trucking,236 Bell Plain Rd,Pomeroy,WA,99347,509-843-1584
L Garcia Trucking,919 S 7th Ave #a,Pasco,WA,99301,509-545-6823
Pacific Western Express,736 S Elm Ave,Pasco,WA,99301,323-252-6296
Cox Trucking Company,76 Oakmeadow Ln,Oakville,WA,98568,360-273-0913
Stepp Trucking,727 Jackson Ave,Raymond,WA,98577,360-942-3318
Bryan Conerly Trucking,1271 Merchants Rd,Forks,WA,98331,360-374-4110
Craig Dowdy Trucking,152 Mccammon Rd,Elk,WA,99009,509-292-2952
Glaesemann Transfer,Po Box 528,Kahlotus,WA,99335,509-282-3326
Samson Trucking,302 N Wykoff,Bremerton,WA,98312,503-703-8046
Jerry Kopp Trucking,2211 Sw 346th Street,Federal Way,WA,98023,253-815-9786
D Bar L Ranches,155601 W Johnson Rd,Prosser,WA,99350,509-781-0213
Wadel Trucking,12404 E Gibson Rd Apt F232,Everett,WA,98204,425-347-7731
Mark's Service LLC,814 S 96th Ave,Yakima,WA,98908,509-966-8069
J L B Trucking,30 Ne Firwood Pl,Tahuya,WA,98588,360-277-0286
Baze Transport,29015 Forest Dr E,Carbonado,WA,98323,360-829-2578
K-pac Logistic Services,2602 Port Of Tacoma Road,Tacoma,WA,98401,253-922-2373
Appletea Trucking,449 Washington Blvd,Algona,WA,98001,253-333-9197
Jeff Furney Trucking,4908 245th Street E,Graham,WA,98338,253-875-9357
Ed's Handyman Service,3923 N Ashton Rd,Otis Orchards,WA,99027,509-921-9904
Hauling Produce Van,1389 Bradley Ln #d,Bellingham,WA,98225,360-752-9500
Christines Trucking Company,514 S 78th St,Tacoma,WA,98408,253-380-1899
Pacific Auto Store,824 N Pacific,Kelso,WA,98626,360-425-4736
Kriebel's Truck & Hoe,510 10th St,Garfield,WA,99130,509-635-1574
Schmidt Transport,13009 Ne 12th Ave,Vancouver,WA,98685,360-573-7674
C R Spencer,14002 136th Street Court East,Orting,WA,98360,253-435-1251
J C Trucking,336 N 9th St,Sunnyside,WA,98944,509-837-7180
Mendez Transport,7400 Ne 101 Ave,Vancouver,WA,98662,360-896-5594
Freedom Freightliner,10310 W Westbow Blvd,Spokane,WA,99224,509-744-0390
Joe Perez Trucking,1306 E Spruce St,Othello,WA,99344,956-212-2372
S & G Trucking,5981 Brockdale Rd,Shelton,WA,98584,360-426-6003
Steve Coyner Trucking,16820 1/2 W Hwy 902,Medical Lake,WA,99022,509-299-6652
Evergreen Transport,P O Box 4623,Pasco,WA,99302,509-727-5972
Hernandez Trucking,105 Jackson St,Mabton,WA,98935,509-894-4503
B G Trucking,1608 S 8th Ave,Yakima,WA,98903,509-576-3607
Roy's Trucking,721 N Fisher Street,Kennewick,WA,99336,509-734-4874
K & D Rv Transport,7122 310thst E,Graham,WA,98338,253-535-9592
Cascade Container Transport,P O Box 131,Thorp,WA,98946,509-964-9181
Castellanos Trucking,110 South Beech #32,Toppenish,WA,98948,509-985-5209
Vazquez Trucking,1403 N 15th #a,Pasco,WA,99301,N/A
Hidden Valley Truckin Co,128 Ross Way,Wallula,WA,99363,509-545-4005
Tim Edal Trucking,244 Klondike Rd,Republic,WA,99166,N/A
Golden Stone Transport,24415 N Elk Chattaroy,Chattaroy,WA,99003,509-209-4631
Bk Trucking,27427 - 114th Ave Se,Kent,WA,98031,206-396-6801
Ramirez Trucking,303 Mauren Ave,Mattawa,WA,99349,509-932-4927
Free Bird Express,17650 134th Ave Se K-108,Renton,WA,98058,425-988-3127
G Mejia Trucking,2570 W Bench,Othello,WA,99344,956-781-6007
Nicks Trucking,3115 S 135th,Seattle,WA,98168,253-318-5287
Phillip Gurule Trucking,15102 Se 5th St,Vancouver,WA,98684,360-991-6633
Denny's Construction,10655 3rd Avenue S W,Seattle,WA,98146,206-241-4828
W & R Trucking,104302 W Oie Hwy,Prosser,WA,99350,509-973-2565
S Murray Trucking,3422 Alyson Dr,Granite Falls,WA,98252,360-691-7704
D Fox Trucking,151 Toutle Ridge,Toutle,WA,98649,360-274-7005
Loudon Trucking,393 Buffalo Road,Selah,WA,98942,509-952-1383
G & G Transportation,9930 Beacon Avenue,Seattle,WA,98118,202-853-3200
R & T Transport,1522 So 55th,Tacoma,WA,98408,253-475-2755
Road Samaritan Road Service & Transport,728 South Lander Street,Seattle,WA,98134,206-767-6184
Desert Sun Mobile Home Transport & Service,61901 West O I E Hwy,Prosser,WA,99350,509-973-2333
John L Johnson Trucking,201 S 5th,Toledo,WA,98591,360-864-4271
Mike Johnson Trucking,5316 Ne 24th Ave,Vancouver,WA,98663,360-772-4592
Right On Time,12623 E Broadway #137,Spokane,WA,99216,509-928-7420
C & P Trucking,1476 W Sunset Drive,Moses Lake,WA,98837,509-764-2101
Brito's Trucking,17602 N 1385 Pr Nw,Prosser,WA,99350,509-786-4518
Roller Skate Transport,3933 Se Broken Arrow Ln,Olalla,WA,98359,360-874-6680
B-g Hauling,120 Emerson Rd,Zillah,WA,98953,509-865-3031
Leading Edge Transport,17456 Ne 40th Place,Redmond,WA,98052,406-758-6070
Wild Logistic's,15636 203rd Ave Se,Renton,WA,98059,425-306-9604
M J Trucking,621 21st Street,Longview,WA,98632,360-577-5981
Ta Transport,5711 100th St Ne #61,Marysville,WA,98270,360-659-5724
Raptor Trucking,1806 Rd 14 Ne,Coulee City,WA,99115,509-632-5217
Polar Trucking & Excavating,7011 Ne 209 St,Battleground,WA,98604,360-573-1644
Truck Temps,1104 S 9th,Kelso,WA,98626,360-270-3001
Joel A Olsen Trucking,4093 Yakima Valley,Wapato,WA,98951,509-575-3943
Harold A Boyer Trucking,1524w Lakeside,Mosses Lake,WA,98837,509-766-0026
Lobry's Longhaul,18418 Sandridge Rd,Long Beach,WA,98631,503-791-6631
S & J Trucking,225 E 13th Ave,Ellensburg,WA,98926,509-933-3016
Cns Transport,3215 South Tacoma Way,Tacoma,WA,98409,253-862-8082
R G Campbell Transport,1323 N 57th Ct,Ridgefield,WA,98642,360-901-8044
Otilia Truck,2524 Sw 334th Pl,Federal Way,WA,98023,253-529-0359
Otillia Truck,2624 Sw 334th Pl,Federal Way,WA,98023,253-347-3505
Top-notch Transportation,1209 22nd Avenue,Longview,WA,98632,360-423-6400
Bhkj Transport,10702 N E 44th St,Vancouver,WA,98682,503-702-1698
Sprint Moving & Storage,18624 72nd Ave S,Kent,WA,98032,425-277-7416
Timberwolf Transportation,31813 21st Ave Sw #17,Federal Way,WA,98023,206-499-3333
Lonny Johnson Trucking,503 West I St #16,Yakima,WA,98902,509-698-5911
Hoekstra Trucking,6373 Old Guide,Bellingham,WA,98226,360-398-9105
I B Trucking,3402 Viewpoint Circle Ne,Tacoma,WA,98422,253-952-3220
Alligator Trucking,2215 Ne 194th St,Ridgefield,WA,98642,360-887-5232
D & K Trucking,690 S Hill Rd,Sunnyside,WA,98944,509-837-7857
Randolph Trucking,1000 Deeringhoff Road,Moxee,WA,98936,509-952-6352
Bird Dog Trucking,612 Stilla Guamish Lane,Darrington,WA,98241,360-436-1274
Four Points Trucking,3625 1st Ave South,Seattle,WA,98124,206-767-2182
L & R Trucking,2216 97th St E,Tacoma,WA,98445,253-538-5276
Andy T Feil Trucking,420 S Lyle,E Wenatchee,WA,98802,509-884-3323
E D Trucking,2400 Tacoma Ave Lot 7,Bridgeport,WA,98813,509-686-0371
Griffeth Trucking,18313 N E 29th Ave,Ridgefield,WA,98642,503-735-0540
Mo Dog Truckingq,928-a Logan Hill Rd,Chehalis,WA,98532,360-748-7991
Fdt Transport,5101 Ne 121 Ave #36,Vancouver,WA,98682,360-921-2871
"R S P Trucking, Inc.",250 N Baker,Port Angeles,WA,98362,360-452-1665
Garcia Trucking,23210 Sw H R,Mattawa,WA,99349,509-932-3541
Jbw Transport,2911 E Bridgeport,Spokane,WA,99207,509-487-8339
Cherny Trucking,23229 Hwy 99 Apt D207,Edmonds,WA,98026,503-762-0623
Freight Train Express,922 E 1st St,Cle Elum,WA,98922,509-766-8012
Jim Heltemes Trucking,7520 Old Pacific Hwy,Castle Rock,WA,98611,360-274-7278
Rafael A Castillo Trucking,215 W 2nd Ave,Kennewick,WA,99336,509-582-9438
V & G Logistics,512 3rd Ave Se,Soap Lake,WA,98851,509-246-1142
Two Bee's Hauling,32817 54 Ave S,Roy,WA,98580,253-843-9252
Jones Brothers Logistics,22618 E Nebraska,Newman Lake,WA,99025,509-226-2821
Stewart's Trucking,P O Box 1242,Kalama,WA,98625,360-903-3259
Classic Movers,712 145th Street Sw,Lynnwood,WA,98037,425-343-8889
Sunshine Delivery,18209 - 80th Ave S Bldg B,Kent,WA,98032,253-872-4787
Girard Logistics,802 East Main,Puyallup,WA,98371,253-845-0505
T & C Trucking,45 Ridge Dr,Ephrata,WA,98823,509-750-9147
Troy Norris Construction,193 Loop Road,Grays River,WA,98621,360-465-2794
Alfredo Madrid Trucking,321 Greentree Ct #4,Richland,WA,99352,509-942-9760
Buckman Transport,9425 Tacoma Ave S,Tacoma,WA,98444,253-537-2126
Yeah-hey Trucking,31309 Nw 20th Ave,Ridgefield,WA,98642,360-263-2190
Donbass Transport,127 115th St Se,Everett,WA,98208,425-513-2038
Canyon Transport,3926 Tripp Canyon,Cashmere,WA,98815,509-782-1702
Bockman Trucking Co,9515 Burnham Dr,Gig Harbor,WA,98332,253-853-6728
Peterson Transportaiton,1321 S Puget Drive #e-15,Renton,WA,98055,425-255-4179
R C B Trucking,21113 120th St Ct East,Bonney Lake,WA,98390,509-575-3943
Al Whitehurst Corp Services,4050 So 296th Pl,Auburn,WA,98001,253-941-0238
"D M Pacific Transport, Inc.",19319 74th Ave E,Spanaway,WA,98387,253-841-1489
Dow Trucking,20711 Sr 706 E,Ashford,WA,98304,360-569-0931
Iron Horse Express,620 Mill Rd,Napavine,WA,98565,360-561-7102
Holman Transport,1503 S Gold St,Centralia,WA,98531,360-508-1363
B Eduardo Trucking,24841 Rd T6 Sw,Mattawa,WA,99349,509-932-5796
Nolan Trucking,124 Old Lake Merro,Cougar,WA,98616,N/A
R C R Trucking,205 South Oak Street,Kennewick,WA,99337,509-582-6072
Steve Leonard Transport,2009 5th St Sw #a6,Puyallup,WA,98371,253-435-9499
Darek Bielec Trucking,1101 Hill Rd,Aberdeen,WA,98520,360-537-9435
Mock Trucking,19221 Se 207th St,Renton,WA,98058,425-413-1379
Express Enterprise,11012 Rutherford,Yakima,WA,98903,509-966-1851
Ramiro G Guerra Trucking,2173 June St,Othello,WA,99344,509-488-5174
Millennium Auto Sales,206 W Columbia Dr,Kennewick,WA,99336,509-582-9929
Jack Chandler Trucking,1653 Bonnie Ln,Camino Island,WA,98282,360-387-8152
Darren Clark Trucking,3156 Harris St Rd,Kelso,WA,98626,360-578-0457
All-northwest Moving LLC,5419 M Jalia,Spokane,WA,99217,509-482-2757
A & B Moving Co,26904 171st Ave Se I308,Covington,WA,98042,253-653-7985
Red Fox Trucking,137 Kelly Lane,Randle,WA,98366,360-520-1179
J L Hauling & Transport,3005 P St Apt B,Vancouver,WA,98663,401-696-9591
C B Trucking,2251 W Hy 26 Lot 50,Othello,WA,99344,509-488-2640
Stan's Semi Service,2259 W Cunningham Rd,Othello,WA,99344,509-488-3785
Lynn Transportation,106 Alderbrook Ln,Chehalis,WA,98532,253-219-1155
Tcb Trucking,129 Debbie St,Longview,WA,98632,360-261-4431
Bayside Transportation,9612 Ne 113th Ave,Vancouver,WA,98662,503-589-1817
C A L Transport,15502 Ne 182nd Ave,Brush Prairie,WA,98606,360-891-5574
Ebenezer Trucking,2276 W Rainier Rd,Othello,WA,99344,509-488-3137
La Express,24330 130th Ave Se,Kent,WA,98030,206-396-2484
Ed Trucking,5913 S Cheyenne St,Tacoma,WA,98409,253-405-6680
Nikolay Kravchur,35606 2nd Ave S,Federal Way,WA,98003,253-661-2886
Jaycee Harmony Hauls And,21911 58th Ave W,Mountlake Terrace,WA,98043,206-619-0884
M Tec Mccray Trucking & Equipment Comp,1339 Sw 323rd St,Federal Way,WA,98023,253-661-7676
"Mobile Service, Inc.",11309 E Fairview,Spokane,WA,99206,509-922-3541
Adan Trucking Co,61000 Hwy 97,Toppenish,WA,98948,509-865-3341
T C Trucking,208 Algona Blvd #n,Algona,WA,98001,253-735-6512
Chris Bennett Trucking,501 Holly St,Walla Walla,WA,99362,509-529-8414
Jvh Trucking LLC,16220 43rd St East,Sumner,WA,98390,253-740-0674
C & S Childers & Son Transport,5818 140th Nw,Stanwood,WA,98292,425-280-7191
D & J Trucking,1105 Sw Neal Rd,White Salmon,WA,98672,509-493-3702
Black Dog Delivery,118 Se Fairgrounds Avenue,Battle Ground,WA,98604,360-991-3813
Batumi,20702 Ne 89th Ave,Battle Ground,WA,98604,904-696-0686
Juan Miguel Francisco Arteaga,21 Canal Drive,Basin City,WA,99343,509-269-4076
Eugene's Transport,15715 Ne 34th St,Vancouver,WA,98682,503-735-0540
Dave Ruth Trucking,1512 Mabee Mines Rd,Washougal,WA,98671,360-608-7242
Jl Transport,1416 N 1st Street Trl 23,Pasco,WA,99301,509-492-1955
Skf Trucking,100 W Baileysburg Ln,Dayton,WA,99328,509-520-4539
Gilbert Transport,14121 122nd Ave E,Puyallup,WA,98374,253-435-7743
Yk Services,20809 114th Ave E,Graham,WA,98338,253-875-4888
K & B Trucking Co,19621 70th Ave Ct E,Spanaway,WA,98387,253-846-5502
Fricke Trucking,23404 Ne Weakley Road,Camas,WA,98607,360-834-2686
A & B Trucking,1109 W Nixon St,Pasco,WA,99301,509-575-3943
Uribe Trucking,802 E A Street,Pasco,WA,99301,509-542-1230
J B Transportation Co,20106 2nd Ave E #3,Spanaway,WA,98387,253-846-3875
T & S Express,4903 N Railroad Ave,Pasco,WA,99301,509-547-7758
Britin Transfer-britin Moving & Storage,606 W Reynolds Ave Suite #1,Centralia,WA,98531,360-330-2600
Longmire Express,10617 N. Wenas Rd,Selah,WA,98942,509-697-6766
Aurora Trucking,2003 S 16th Dr,Ridgefield,WA,98642,360-882-3747
Castro Trucking,911 Guzman Rd,Granger,WA,98932,509-854-6373
Rtd Transportation Service,16621 Meridian E,Puyallup,WA,98375,209-678-3065
Davis Express,53202 S Lincoln Rd,Prosser,WA,99350,509-539-8086
Transport Leasing And Rental,6420 E Broadway,Spokane,WA,99212,509-535-5753
Ray's Trucking,5802 Sandridge Road,Long Beach,WA,98631,360-642-5734
All Hers Auto Transport,14609 Ne 20th Ave,Vancouver,WA,98686,360-573-3920
E & R Express,214 E 5th Street,Warden,WA,98857,509-349-7038
Jesse Auto Express,211 Roberry Way,Toppenish,WA,98948,509-961-2612
I 90-rv Sales Service,658 Rd L Ne,Moses Lake,WA,98837,509-765-6567
T & C Transportation,2524 E 5th Ave,Spokane,WA,99202,509-532-0576
Freedom Transportation & Recycling,6800 Enterprise #35,Ferndale,WA,98248,360-961-9507
Joe's Truck,773 S Almira,Connell,WA,99326,509-234-8546
Patriot's Truck Line,4775 No King Mtn Rd,Bellingham,WA,98226,360-398-7372
Triple G Trucking,9174 W Yellowstone Ave,Kennewick,WA,99336,623-210-0104
C & T Transport,Pmb 282 13619 Mukilteo Speedwa,Lynnwood,WA,98037,425-787-0850
T J Saofaigaalli Truckin' Co,11202 2nd Ln Sw # C204,Seattle,WA,98146,206-241-1654
H & S Freight,242 Baker Road,Selah,WA,98942,509-961-2724
Velocity Transport,444 Boxley Pl Ne,North Bend,WA,98045,425-888-1565
Always Great Care Transp,4560 33rd Ave So,Seattle,WA,98118,206-725-8331
Maid 4 U Trucking,714 W Illinois,Bellingham,WA,98225,360-441-0848
J R Transport,4011 Ne 62nd Avenue,Vancouver,WA,98663,360-693-5342
Armstrong Truck Service,5303 Pacific Hwy E,Fife,WA,98424,253-906-1041
Colorado River Truck,617 E South Hill Rd,Sunnyside,WA,98944,N/A
Mettler & Son Trucking LLC,20965 Dahlstedt Rd,Burlington,WA,98233,360-757-2336
H And S Carriers,14 East Intercity Ave,Everett,WA,98208,360-951-0174
T L N Trucking,9233 Skokomish Way Ne Apt 6,Olympia,WA,98516,360-456-0418
D E Roasane Trucking,3168 Hanson Loop Rd,Burbank,WA,99323,509-302-1759
Robin Taylor Trucking,4408 Ne 97th St,Vancouver,WA,98665,360-513-2314
Ashton Executive Services,13451 Se 27th Place,Bellevue,WA,98005,425-455-4008
Cradle Transportation,18618 E 9th Ct,Greenacres,WA,99016,509-921-7312
Dj's Trucking,6744 Se Lynch Rd,Shelton,WA,98584,360-426-1443
Dream Come True Trucking,435 North Wehe Ave,Pasco,WA,99301,509-547-6528
Eliseos Auto Express,401 N 6th Street,Yakima,WA,98901,509-469-7274
Jim Jam Trucking,2045 Glenwood Highway,Goldendale,WA,98620,509-773-6066
H K Transport,23928 109th Ave Seapt 2d 202,Kent,WA,98031,253-813-1949
John Phithavong Trucking,9916 Ne 130th Ave,Vancouver,WA,98682,360-253-3736
Dlr Hulk Hauling,1409 E 39th St,Vancouver,WA,98663,360-991-2224
Best Furniture Freight,1403 E 34th Avenue Suite C,Fife,WA,98424,206-396-0396
Us And I Trans,23317 61st Ave So #dd-104,Kent,WA,98032,206-850-0902
Bcc,3975 Irongate St #200,Bellingham,WA,98226,360-647-0142
Rivera Trucking,420 N 2nd Ave,Pasco,WA,99301,509-727-4234
P V Trucking,24211 36th Ave So,Kent,WA,98032,206-910-9607
W F C Transportation,16801 Ne 10th Avenue,Ridgefield,WA,98642,360-574-5208
Scudder Transportation,10101 332nd Street South,Roy,WA,98580,360-458-7821
Pony Express,409 E Gettysburg Dr,Spokane,WA,99208,509-939-2075
U T Transport,14839 Foxhill Rd Se,Yelm,WA,98597,360-458-8527
Junior Trucking,405 Garrett Street,Yakima,WA,98902,509-574-8588
Ron & Dee New Trucking,724 Nw 189th St,Ridgefield,WA,98642,360-887-1398
Tkl Trucking,7402 Ne 72nd Ave,Vancouver,WA,98661,360-258-1633
Tempus Fugit Express,1401 S Sprague Ave,Tacoma,WA,98405,253-627-8228
Guerrero & Sons Trucking,371 Pleasant Ave,Grandview,WA,98930,509-840-1296
Hilley's Trucking,4606 Leverich Parkway,Vancouver,WA,98663,360-258-4067
Lower Columbia Basin Transport LLC,25704 S 1005 Pr Se,Kennewick,WA,99338,N/A
Angel Trucking,616 S Washington Ave,Warden,WA,98857,509-349-7797
Double Wing Trucking,9041 Holman Rd N W,Seattle,WA,98117,206-372-0586
Wholesale Food Service Dist,919 E Trent,Spokane,WA,99202,509-482-2032
E B Trucking,1107 N Water St,Ellensburg,WA,98926,509-899-0589
Tgds Trucking,18604 71st Ave Ct East,Puyallup,WA,98375,253-677-3052
Tri Star Trucking,1309 39th St,Everett,WA,98201,425-259-4797
Lily Dana Transportation,12435 Se 208th St,Kent,WA,98031,253-638-0485
Interline Courier Service,5823 S 232nd Pl,Kent,WA,98032,253-854-0427
Web Transport,#63 1107 S 18th St,Yakima,WA,98901,509-260-0057
Spence Trucking,15921 Gold Bar Dr,Gold Bar,WA,98251,206-799-5944
Sna Trucking,314 Road 34,Pasco,WA,99301,509-543-9885
White Capps Trucking,9607 E 4th,Spokane,WA,99206,509-893-9497
S Jake Jacobson Trucking,28101 11th Ave,Roy,WA,98580,253-843-2260
Shady Grove Trucking,12406 Ne 117th Avenue,Vancouver,WA,98662,360-254-3182
Pacific Star Transport,17148 Old Hwy 99,Tenino,WA,98589,360-264-7867
Emerald Package Express,20233 80 Th Ave S,Kent,WA,98032,800-395-9585
Doaba Carrier,9611 S 242nd Ct,Kent,WA,98030,206-349-3344
Ga Express,15600 Ne 8th St Ste B1,Bellevue,WA,98008,206-369-5170
Mccann Transportation,14638 Lawrence Lake Rd Se,Yelm,WA,98597,360-894-3720
Kelley Trucking,15087 Cottonwood Cyn Rd,Yakima,WA,98908,509-575-3943
Durbiano Transport,21659 Se 271st Pl,Maple Valley,WA,98038,425-432-2680
Alan Day Trucking,5249 Hubert Rd,Ford,WA,99013,509-258-7394
Palominos Trucking,1319 S 12th Ave,Yakima,WA,98902,509-833-0713
T & B Trucking,19601 Hwy 97,Cle Elum,WA,98922,509-857-2026
Exec Services,1500 A E Collegwy Ste 564,Mt Vernon,WA,98273,360-856-4099
R & K's Maui Dream Express,178 Vista Dr,Woodland,WA,98674,360-225-2258
Cawthorne Enterprises,1634 E Heroy St,Spokane,WA,99207,509-484-5029
Rose City Rapid Transport,33115 Elk Holm Dr Se,Auburn,WA,98092,253-735-1370
Chavez Trucking,120720 W Heck Rd,Prosser,WA,99350,505-788-0863
Alvarez Trucking,810 S Highway 24 Unit E-7,Othello,WA,99344,509-488-0353
Valley Transport,3306 S St Apt 4,Vancouver,WA,98663,360-281-1744
Viking Transport,2450 Bakerview Park Drive,Ferndale,WA,98248,360-384-8182
Four Star Express,3601 W Washington Ave Ste 1,Yakima,WA,98903,509-837-7527
Mccrea Trucking,6904 Wynecoop Cayuse Mtn,Wellpinit,WA,99040,509-258-7142
Fassbind Trucking,5220 Kersey Way Se,Auburn,WA,98092,253-833-1946
C M K Trucking,20071 S E 290th Pl,Kent,WA,98042,253-638-1462
Sun's Up Trucking,291 Adobe Way,Selah,WA,98942,509-575-8616
J West Transportation,204 Corrin Ave Nw #292,Orting,WA,98360,360-893-4240
Go-day Express,125th Ave Se,New Castle,WA,98056,425-228-7600
Trujillo Trucking,908 S2nd Ave,Yakima,WA,98901,509-457-2045
Dependable Refrigerated Transports,334 Port Hadlock Heights,Port Hadlock,WA,98339,360-379-1893
Barrett Transportation,246 N Garrison Rd,Vancouver,WA,98664,360-699-7102
Btb Trucking,17501 3rd Ave Ne,Arlington,WA,98223,306-708-5872
Hagen's Faster Freight,5465 Market Rd,Bellingham,WA,98226,360-398-1624
Bill Rider Trucking,550 N 4th St,Kalama,WA,98625,360-673-5482
Hdr Trucking,98 Sawtells Rd,Oroville,WA,98844,509-476-4110
Affordable Auto Transport,521 E 1st St,Aberdeen,WA,98520,360-538-9786
Seoma Trucking,8620 Holly Drive Suite 210,Everett,WA,98208,425-423-9929
A G Garcia Trucking,7970 Mabton-sunnyside Hwy,Mabton,WA,98935,509-894-5145
Lemus Trucking,811 S 8th St,Yakima,WA,98901,509-453-6977
Tally 2 Trucking,4120 324 Ste,Eatonville,WA,98328,253-846-7783
Alvarez Transport,511 South Waldemar,Pasco,WA,99301,509-545-3906
Paul Lemonidis Transport,3937 N Mayfair,Spokane,WA,99207,509-981-7520
Radio Flyer,9513 Ne Burton Rd,Vancouver,WA,98662,360-606-9185
V & L Transportation,1424 148th Ave Se #e-8,Bellevue,WA,98007,425-443-2785
John G Birchard Trucking,510 Duterrow Rd 18,Olympia,WA,98513,360-491-4088
Pachyderm Enterprises,1035 Lehigh Hill Road,Metaline Falls,WA,99153,509-446-3921
Rick Adams Livestock Transportation,684 Rd M Se,Moses,WA,98837,541-998-8017
Morning Mist Trucking,5710 Swan Creek Dr E,Tacoma,WA,98404,253-297-4092
R W Jones Trucking,820 S Burns Road,Veradale,WA,99037,509-710-2508
Bear Gulch Trucking,486 Oceanbeach Road,Hoquiam,WA,98550,360-532-3518
Clayton L Emery Trucking,158 Bowes Rd,Hoquiam,WA,98550,360-987-9994
M Beyzerman,1417 220 Place Sw,Bothell,WA,98021,425-482-6046
Richard Larson Trucking,294 Lawrence Rd,Port Angeles,WA,98363,360-928-9661
Mac Frey Trucking,1703 Eastside St Ne,Olympia,WA,98506,360-534-9510
Don Garrett Trucking,900 Meridian East 19426,Milton,WA,98354,253-927-1322
Flores Transport,31 Dayton Rd,Grandview,WA,98930,509-305-8070
Helen Transport,4701 Ne 77th Ave H-32,Vancouver,WA,98662,360-891-7827
G & P Trucking,530 Valley Mall Parkway,East Wenatchee,WA,98802,509-886-8482
Triple T And Sons Trucking,9226 Space St,Moses Lake,WA,98837,509-765-0131
Aaa Pump Service,17 South Willow,Spokane,WA,99206,509-926-4462
George's Trucking,317 W 7 Th,Rosalia,WA,99170,509-523-6123
Blackjack West,6311 State Route 2,Baring,WA,98224,360-793-3682
E & S Farms,100 S County Line Road,Grandview,WA,98930,509-882-5244
Crazy J Trucking,3700 Caribou Rd,Ellensburg,WA,98926,509-968-4362
Garcia Trucking,1327 N 24th Ave Apt 5 E,Pasco,WA,99302,509-547-8945
S & T Trucking,6716 Ne 88th Street,Vancouver,WA,98687,360-993-2588
West Star Trucking Company,12522 8th Ave W,Everett,WA,98204,425-286-7529
Big Foot Express,14141 Ambaum Blvd Sw Ste B,Seattle,WA,98166,206-444-5101
Arturo Huerta Trucking,1827 West Marey Street,Pasco,WA,99301,509-543-7640
George Lembcke Trucking,19005 Ne Stratford Rd,Moses Lake,WA,98837,509-750-2588
Evergreen State Auto Transport,8323 20th Avenue East,Tacoma,WA,98404,253-537-0164
Klmci Logisitics,15406 Meridian E Ste 200,Puyallup,WA,98375,253-444-5168
D& W Trucking,612 Sw 139th,Seattle,WA,98166,N/A
Arroz Trucking LLC,205 E 5th Street,Lind,WA,99341,509-677-3443
Huesca Trucking,120 N 10th Ave #136,Pasco,WA,99301,509-366-2303
Joey's Trucking,412 N Elm Avenue,Pasco,WA,99301,509-547-3365
Ac Trucking,8615 W Skagit Ave,Kennewick,WA,99336,509-734-1211
Dragon Transport,1412 Kristen Ave,Sunnyside,WA,98944,509-391-0466
Ams Relocation Nw,3800 Se Columbia Way #190,Vancouver,WA,98661,360-694-9090
Ron Emery Trucking,168 Bowes Rd,Hoquiam,WA,98550,360-987-2340
Robbie's Home Service,1201 N Dennis Court,East Wenatchee,WA,98802,509-886-7296
Fritex Trucking,20607 86th Pl W,Edmonds,WA,98026,206-240-5932
Mountain Top Transport,6625 S 190th St B106,Kent,WA,98032,253-381-6117
Columbia River Auto Transport,5107 Ne 76th Street,Vancouver,WA,98661,360-907-9877
Peter Ladunskiy Trucking,24600 Ne 123rd Circle,Brush Prairie,WA,98606,503-830-4855
Sampson Transport,2530 10th St Sw,Puyallup,WA,98373,253-864-0183
Frias Trucking,1408 N 15th Ave,Pasco,WA,99301,509-544-9167
Paul Halbach Truck Repair,8614 Ne 55 Ave Bld A,Vancouver,WA,98665,N/A
T-bone Trucking,12719 A St So,Tacoma,WA,98444,253-535-1905
Chaco Transportation,1405 Garrett Street,Yakima,WA,98902,509-574-8588
Black River Logistics,15925 Littlerock Rd Sw,Rochester,WA,98579,360-858-0204
Horsefeathers Logistics,291 Adobe Way,Selah,WA,98942,509-575-8616
Ap Transport,4471 Castlerock Drive,Blaine,WA,98230,360-588-6348
A&a Trucking,2111 W Hatton Road,Othello,WA,99344,509-855-3011
K & M Logistics,507 Cascade Ave,Moxee,WA,98936,509-961-3629
Westside Transport LLC,4502 Country Club Drive Ne,Tacoma,WA,98422,253-941-4400
Startup Logistics,291 Adobe Way,Selah,WA,98942,509-575-8616
Stevens Trucking,2719 Aberdeen Avenue,Hoquiam,WA,98550,360-538-4331
Morning Star Transport,5140 North 30th Street,Tacoma,WA,98047,263-376-2641
Nu-west Transport,8858 Road U Nw,Quincy,WA,98848,509-787-3354
A & M Transport,371 Willow Tree #24,Toppenish,WA,98948,509-575-3943
A & H Trucking,1679 W Gillis Rd,Othello,WA,99344,509-488-9543
Malwa Doaba Transport,3611 19th Ave Court Se,Puyallup,WA,98372,800-377-2748
Jtk Transport,291 Adobe Way,Selah,WA,98942,509-575-8616
K Bailey,160 Nw Gilman Blvd Ste A,Issaquah,WA,98027,425-746-2777
Bee Freight,6111 72nd Dr Ne,Marysville,WA,98270,425-870-6979
Von Borstel Freight,6000 Clair St,Vancouver,WA,98661,360-772-3678
R & B Trucking,9941 Rd M.3 Ne,Moses Lake,WA,98837,509-760-9837
Harrison Trucking,15200 Se 326th Street,Auburn,WA,98092,253-227-4558
Valle Express,936 N Owen Ave,Pasco,WA,99301,509-492-1471
David's Trucking,601 W Mead Ave,Yakima,WA,98902,509-865-2545
Drina Trucking,22430 84th Ave W,Edmonds,WA,98026,425-501-2180
C & A Transport,1916 W Atkinson Rd,Othello,WA,99344,509-428-2261
J & B Trucking,911 N 4th Ave A,Yakima,WA,98902,509-453-0935
Justin Gregor Trucking,722 Wheeler St,Longview,WA,98632,360-577-0229
B&c Trucking,N 12913 Chronicle St,Mead,WA,99021,509-466-6197
Pacific Transport,24224 - 115 Pl Se,Kent,WA,98031,206-383-8001
D & D Transport,11302 203 Ave E,Bonney Lake,WA,98391,253-862-3524
Mtr Western,1501 Fourth Avenue Suite #1900,Seattle,WA,98101,206-838-8125
3 B's Trucking,P O Box 24,Winlock,WA,98596,360-720-7738
Rowe Logistics,2608 Port Of Tacoma Road,Tacoma,WA,98421,253-722-2500
Blue Sky Transport,3909 107th Ave S W,Olympia,WA,98512,206-705-3143
Dljr Trucking,115 Yakima Valley Hwy,Sunnyside,WA,98944,509-391-9855
Lacrosse Trucking,204 Main Street,Lacrosse,WA,99143,509-549-3400
B P Trucking,703 Ne 189th Street,Seattle,WA,98155,206-361-8299
Centralia -seatac Airport Express,415 E Pine,Oakville,WA,98568,N/A
Defoer Trucking,8153 Tilly Lane,Wenatchee,WA,98801,509-679-1708
Emilio's Trucking,209 Elder Street,Warden,WA,98857,509-349-2243
B Smith & Sons Trucking,308 Colony Mtn Dr,Bow,WA,98232,206-766-8108
J B Trucking,1003 Vista Road,Ellensburg,WA,98926,509-962-4537
H Garza Trucking,642 Wagon Road,Othello,WA,99344,509-488-6385
G & D Trucking,2653 Broadmoore Rd,Camano Island,WA,98292,360-387-7014
S B Trucking,5608 Tigner Rd,Cashmere,WA,98815,N/A
Margarito Guzman Trucking,2188 W April,Othello,WA,99344,509-750-9080
Kat Trucking,205 E Spring St,Dayton,WA,99328,509-382-4740
Miller Trucking,105 Noble Estates Drive,Winlock,WA,98596,360-785-4988
Martin Saldana Jr Trucking,622 E Adams Street,Grandview,WA,98930,509-643-1375
M & Cr Trucking,6224 S Prospect,Tacoma,WA,98409,206-473-4029
Ron Johnson Transport,W 1200 Rock Creek Rd,Shelton,WA,98584,360-427-5865
Big Foot Trucking,8910 Ne 15th Ave Ste 8,Vancouver,WA,98665,360-576-9022
Rodrigo Ozuna Trucking,610 S Andes Rd,Othello,WA,99344,509-488-3150
"Drr, Inc. Seattle Express",706 South Homer Street,Seattle,WA,98108,206-763-2444
H M Trucking,206 Jackson Rd,Grandview,WA,98930,509-840-3299
Zacarias M Garza Trucking,2270 West Bench,Othello,WA,99344,509-488-9933
Robert Clayton Trucking,1301 Canal Street,Tieton,WA,98947,509-673-5501
Ted Hartman Trucking,16904 85th Avenue E,Puyallup,WA,98375,253-840-2844
Tamarack Ridge Trucking,1006 Malaga St,Wenatchee,WA,98801,N/A
Vits,9237 Autumn Line Loop Se,Olympia,WA,98513,360-491-3676
Verns Moses Lake Meats,3089 West Shore Drive,Moses Lake,WA,98837,509-764-0533
J R Locke,8517 Ne St Johns Rd,Vancouver,WA,98665,503-607-1088
Guzman Trucking,1505 Rd 40 East #306,Pasco,WA,99301,509-547-1252
Hoyt Trucking,915 N 15th Ave,Yakima,WA,98902,509-249-0318
Tyler Trucking,9819 Grove Road,Yelm,WA,98597,206-458-2918
R W Davis Trucking,7817 N E 107th Ave,Vancouver,WA,98662,206-892-8131
Sundee Trucking Co,693 Sunnyside Road,Troutlake,WA,98650,509-395-2966
Garza Trucking,723 W Court Apt C,Pasco,WA,99301,509-545-0717
R & R Trucking,3706 Ne 135th Avenue,Vancouver,WA,98682,206-254-7958
Express Transport,21320 84th Ave S,Kent,WA,98032,800-595-9654
Big Truck,150 Jorgenson Rd,Onalaska,WA,98570,253-906-2706
Carlos Marichalar Trucking,342 Grape St,Royal City,WA,99357,509-346-9367
Waldron Trucking LLC,234 Sutter Rd,Port Angeles,WA,98362,360-452-6902
R C Heck Trucking,2326 Victory Way,Aberdeen,WA,98520,206-533-0851
J D Trucking,7003 S 216th St,Kent,WA,98032,206-872-4883
Ruben Guerrero Trucking,201 Lake Dr,Othello,WA,99344,509-488-2460
Lcs Trucking,7817 Cirque Dr W,University Place,WA,98467,253-405-0139
Transportes 4 Estrellas,2094 4th St,Pasco,WA,99301,509-248-8261
All-ways Moving And Storage,1520 5th Ave Sw,Olympia,WA,98502,510-412-9191
Don Anderson Trucking,261 River Rd,Sequim,WA,98382,206-683-3279
Terry Christensen Trucking,12709 North Gap Road,Prosser,WA,99350,509-832-8966
Paul Dragoo Trucking,455 Maple St,Aberdeen,WA,98520,360-533-6910
Gypsy Trucking,1006 Springwater,Wenatchee,WA,98801,509-662-7984
"Largent Trucking, Inc.",Rt 2 Box 31-c,Odessa,WA,99159,509-982-2347
Premier Northwest Trucking,19846 Maxwell Rd Se,Maple Valley,WA,98038,206-432-7618
H M Gonzalez Trucking,4319 Sahara Dr,Pasco,WA,99301,509-545-5880
Phoenix Transport,36928 Pacific Hwy South,Federal Way,WA,98003,206-925-0784
J & M Transport,608 Cindy Ct E,Wenatchee,WA,98802,509-884-8277
J & M Trucking,3000 S E Royal Hills Dr Apt 7d,Renton,WA,98958,206-277-2318
K & S Trucking,23240 88th Ave S Apt Ww203,Kent,WA,98031,206-854-9490
Z-man Trucking,608 Wallace Ave,Enumclaw,WA,98022,N/A
Schaffner Trucking,8515 Ne 37th Ave,Vancouver,WA,98665,N/A
R & K Transport,4051 Reeves Rd,Sunnyside,WA,98944,509-837-8735
Mike Berry Trucking,7193 Fruitdale Road,Sedro Woolley,WA,98284,360-854-9377
Sunset Transport,River Terrace #29,Granite Falls,WA,98252,360-691-4465
Don Key Trucking Co,12560 69th Ave S,Seattle,WA,98178,206-772-1612
Kratos Transport Services,3756 Jackson Ave,Port Orchard,WA,98366,360-769-8561
B & A Garza Trucking,2268 W Bench Road,Othello,WA,99344,509-989-3311
Ivan Trucking Co,1805 W Boone,Spokane,WA,99201,509-327-4194
Wallys Trucking,1709 E 168th St,Spanaway,WA,98387,206-537-7856
Earl D Roberson Trucking,2002 B Englewood,Yakima,WA,98902,N/A
K & K Trucking,15611 Sperr,Orting,WA,98360,206-954-3995
Healy Trucking,2429 S 135th St,Seattle,WA,98168,206-242-1953
Oakland Bay Trucking,423 Fir Street,Shelton,WA,98584,360-427-6132
K K Trucking,911 70th Ave E,Tacoma,WA,98424,206-926-1813
A & G Trucking,3705 136th Avenue Se,Bellevue,WA,98006,253-740-4217
B & K Trucking,40-b Alpha Drive,Longview,WA,98632,360-577-2993
Cedar River Transport,20005 Se Jones Rd,Renton,WA,98058,503-526-6499
Capitol Forest Service,550 Halliday Road,Centralia,WA,98531,360-736-3608
Western Refrigerated Service,7446 State Hwy 12f,Oakville,WA,98568,360-273-1333
Spokane Refrigerated Express,W 405 Bellwood Dr Apt 81,Spokane,WA,99218,509-468-1021
Douglas Trucking,16803 Broadway,Snohomish,WA,98296,360-668-6951
Delao Trucking,16832 11th Pl Ne,Shoreline,WA,98155,206-368-0059
Dreiske Trucking,P O Box 822,Greenacres,WA,99016,509-891-6371
J R International Transportation,5943 Road J Se #44,Moses Lake,WA,98837,509-765-6726
Vis Trucking,1724 S 117th St,Tacoma,WA,98444,206-536-1299
Lewis Johnson Trucking,234 Old St 9 Rd,Hoquiam,WA,98550,360-532-7327
Waldron Trucking,254 Pelikan Rd,Port Angeles,WA,98362,360-452-1763
Doug Opsahl Trucking,1631 Tower Road,Castle Rock,WA,98611,360-274-7346
Moving Manufactured Homes,11515 Ne 71street #51,Vancouver,WA,98662,360-944-0241
"Tre Trucking International, Inc.",29723 Helmer Rd,Arlington,WA,98223,360-435-5160
"Ajh, Inc. Fire Services Division",81 Brayton Rd,Pullman,WA,99163,509-339-2113
A V Trucking,24854 96th Ave S,Kent,WA,98031,206-850-7016
Ken May Trucking,P O Box 623,Moses Lake,WA,98837,N/A
Mark L Chloupek Trucking,112 Bazinet Dr,Chehalis,WA,98532,360-748-6974
C A Wolf Trucking,412 4th St Se #a,Auburn,WA,98002,206-351-0659
Irwin Trucking,1842 Eastgate Way,Burlington,WA,98233,360-757-3675
B & L Trucking,20618 115th Ave E,Graham,WA,98338,206-846-6441
Floral Express,17454 Ne 95th Street Bldg 7,Redmond,WA,98052,360-805-0607
D & S Trucking Co,13217 Ne 59th St #115,Vancouver,WA,98682,360-260-1904
Horizon Transports,32513 20th Ct Sw,Federal Way,WA,98012,206-661-6953
Hanson Trucking,835 Higdon Rd # 47,Prosser,WA,99350,509-786-6794
Triple E's Trucking,1115 Washington Ave,Toppenish,WA,98948,509-594-3005
Gregg Transport,17917 Rd 7 Nw,Quincy,WA,98848,509-787-5122
K M Trucking,3520 54th Ave E,Tacoma,WA,98424,206-922-0588
Alvarado Trucking,409 South G St,Toppenish,WA,98948,509-865-2243
Conleys Trucking,1711 S Columbian Way,Seattle,WA,98108,206-387-5044
Pacific Northwest Trucking,25911 Old Lawson Rd,Black Diamond,WA,98010,360-886-1753
J D Trucking,8627 Semiahmoo Drive,Blaine,WA,98230,360-371-9009
V Gassner Trucking,319 Big Boulder,Tonasket,WA,98855,509-322-2801
United Trucking,17117 141st St Kpn,Gig Harbor,WA,98329,N/A
Jim Pence Trucking,159 Young Road,Randle,WA,98377,360-497-5457
D M Souza,19815 Jowsey Ct,Rochester,WA,98579,360-273-8625
C L Brownell Trucking,14725 133rd Ave Se,Yelm,WA,98597,360-458-4551
Willis Trucking,31906 Tisch Rd S,Roy,WA,98580,206-843-1142
Benavides Trucking,918 Madison Ave,Toppenish,WA,98948,509-865-7065
Salick Brothers Trucking,323 N 'f' St,Aberdeen,WA,98520,360-532-7917
Carpe Diem Trucking,1836 Sw 345 Pl,Federal Way,WA,98023,808-221-6408
D & R Trucking,401 N Lybarger St,Olympia,WA,98506,360-956-9428
John Green Trucking,19614 47th Ave Ne,Arlington,WA,98223,360-435-0397
Spur Transport,11803 North Foster Rd,Spokane,WA,99217,509-893-9296
Hyde Trucking LLC,208 W 9th Ave Suite #3,Ellensburg,WA,98926,509-962-3917
B & J Trucking,710 W Walnut Apt D,Yakima,WA,98902,509-453-3316
Williams Express,9642 Lundeen Rd S W,Rochester,WA,98579,360-280-4488
Round Robin Transportation,1807 147th St Ct E,Tacoma,WA,98445,206-537-5855
Meyer Trucking,11617 128th St E,Puyallup,WA,98374,206-848-8681
Lite Freight Northwest,6619 Fairview Rd Sw,Olympia,WA,98512,360-786-9215
Montgomery Trucking,5316 292nd St E,Graham,WA,98338,253-847-0655
Hayen & Associates,421 S 47th Street,Renton,WA,98055,206-200-3830
Bill Snodderly Trucking,816 Tipsoo Loops,Rainier,WA,98576,N/A
Milton Nadgwick Trucking,13100 Ne 39th Ave,Vancouver,WA,98686,360-513-8572
B & M Transport,9520 Ne 65th Street,Vancouver,WA,98662,360-256-6953
James Barton Trucking,776 St Rt 409,Cathlamet,WA,98612,360-849-4111
Scott Hamilton Trucking,9904 46th Ave E,Tacoma,WA,98446,253-535-8896
Two M Transport,2101 Columbia View Circle,Wenatchee,WA,98801,509-662-7486
Campbell & Sons Carriers,21937 Old Hwy 99 Sw,Centralia,WA,98531,360-736-4885
Gary Lebon Trucking,2205 Pacific Ave,Aberdeen,WA,98520,360-249-5491
H & D Trucking,11304 Se 10th Street # E-5,Vancouver,WA,98664,N/A
Asap Delivery,149 S Normandy Road,Burien,WA,98148,206-241-3154
C J Trucking,9967 Morgan Rd Ne,Moses Lake,WA,98837,509-766-8032
D T Trucking,Box 120-b West Side Osoyoos Rd,Oroville,WA,98844,509-476-2613
Judy's Trucking,15720 83rd Ave E,Puyallup,WA,98373,206-770-4135
Double G Trucking,877 S 4th,Othello,WA,99344,509-488-6526
J Garza Trucking,815 S Taylor Rd #c44,Othello,WA,99344,509-488-0535
Flying A Transportation,41 Charlotte Rd,Cowiche,WA,98923,509-678-4329
Juarez Trucking,1134 Lakeside Dr,Moses Lake,WA,98837,509-765-8949
L G V Trucking,610 S Wagon Rd,Othello,WA,99344,509-488-3272
Murray Transportation,3930 Midvale,Mabton,WA,98935,509-307-0233
Lyles Trucking,6103 St Albion Way Apt I-305,Mountlake Terrace,WA,98043,425-744-1179
Apartment Movers,Po Box 3592,Seattle,WA,98124,N/A
Absolute Trucking,25236 Se 357th St,Auburn,WA,98092,N/A
Stafford Transfer Company,6035 State Rt 12,Oakville,WA,98568,360-273-5993
Desert Auto Transport,615 W Columbia Dr,Kennewick,WA,99336,509-586-3377
United Trucking,748 S 3rd Ave,Othello,WA,99344,509-488-0499
Wild Rose Trucking,1073-35 King Rd,Winlock,WA,98596,360-785-3371
Garden Arts,4209 Ocean Beach Highway,Longview,WA,98632,360-636-5047
Peterson Trucking,202 Richmond Road #b,George,WA,98824,509-785-9009
B & N Transport,103 N 56th Ave,Yakima,WA,98908,509-965-4822
Rolando Rodriguez Trucking,417 S Ash St,Warden,WA,98857,509-750-0710
C & K Trucking,46444 Highway 112,Pt Angeles,WA,98363,360-928-3216
Lawrance Eder Trucking,4 Mi So County Rd 7,Oroville,WA,98844,509-476-3827
B G Trucking,2114 W Bench Rd,Othello,WA,99344,509-431-3006
W G's Trucking,11503 Ne 9th St,Vancouver,WA,98684,360-892-6395
A & D Trucking,501 First,Odessa,WA,99159,509-982-2469
Lions Trucking,2175 W Cunningham,Othello,WA,99344,509-989-0708
Steve's Service & Repair,142b Burn Street,Spokane,WA,99204,509-624-6489
Viktor's Trucking,12833 Se 232nd Street,Kent,WA,98031,206-630-2295
John C Haukom Hauling,6109 Shady Lane,Olympia,WA,98503,360-456-3583
Erickson Trucking,301 First Street,Farmington,WA,99128,509-287-2502
Esteban P Martinez Trucking,914 W 6th Street,Warden,WA,98857,509-431-1434
Patrick Motor Service,109 S 42nd Street,Yakima,WA,98901,509-453-8904
Rtm Trucking LLC,2527 Delameter Road,Castle Rock,WA,98611,360-274-7298
Dixon Trucking,12912 Se 317th Ct,Auburn,WA,98092,253-288-0973
Gutierrez Transports,517 East 4th,Warden,WA,98857,509-750-2970
Willie Rice Trucking,72905 E 811 Pr N E,West Richland,WA,99353,509-967-7220
J & L Transport,16413 74th Avenue N W,Stanwood,WA,98292,360-652-7148
Minett Trucking,35210 S Drake Road,Rosalia,WA,99170,509-523-6222
Daughtrey Trucking,928 9th Ave #4,Longview,WA,98632,360-425-7097
Transport West,7 Grandview Drive,Dallesport,WA,98617,772-720-4303
Alan Lamb Trucking,149 Mineral Hill Rd,Mineral,WA,98355,360-492-5377
Castagna Trucking,11606 West Fleming Lane,Cheney,WA,99004,509-235-1972
Woods Trucking,E 14918 16th,Veradale,WA,99037,509-927-0782
Ken Miller Trucking,11229 46th Avenue N E,Marysville,WA,98270,360-659-1706
Worley Trucking,2388 N Deal Rd,Odessa,WA,99159,509-982-2020
Express Finishing,7720 E Valleyway Ave,Spokane,WA,99212,509-922-2297
Slingshot,35663 State Route 20,Sedro Woolley,WA,98284,360-333-5572
Rodriguez Trucking,1010 N 24th Ave,Pasco,WA,99301,509-543-2040
E W Express,109 Belair Drive,Moses Lake,WA,98837,509-765-5583
Bryan Timm Trucking,151 Crumbacher Road #10,Tonasket,WA,98855,509-826-2440
Mike Bond Trucking,185 Holcomb Road,Chehalis,WA,98532,360-740-0815
Christensen Trucking,7520 Icicle Rd,Leavenworth,WA,98826,509-548-7758
Vyp Trucking,11029 Se 223rd Place Apt #a,Kent,WA,98031,206-852-8794
Mclaughlin Enterprises,611 Lincoln Place,Mattawa,WA,99344,509-932-5526
Ballinger Trucking,138 Hicks Rd,Castle Rock,WA,98611,360-274-0292
Tomaway Express,503 E 2nd Ave,Kennewick,WA,99336,509-727-9179
Scenic Nw Loop Trucking,1418 Hathaway #26,Yakima,WA,98902,509-575-3943
H & L Trucking,112 West Elizabeth St,Wapato,WA,98951,509-833-3292
J & B Trucking,530 N Edison #l107,Kennewick,WA,99336,509-734-2290
Western Moving Company,3011 South Fife Street,Tacoma,WA,98409,253-589-2424
Mct Farms,South 25925 Rupp Road,Cheney,WA,99004,509-235-6072
"Zti, Inc.",2155 Robertson Dr,Richland,WA,99354,509-943-6333
D Garza Jr Trucking,705 E Elm Street,Othello,WA,99344,509-760-1121
D & L Trucking,11613 Ne 16th Street,Vancouver,WA,98684,360-253-7269
Judy's Shuttle Service,356 North 61 Street,West Richland,WA,99353,509-967-4701
Genie Tours,1846 Terminal Drive Suite 101,Richland,WA,99352,509-946-1400
Don Huether Trucking,1718 South 3rd Avenue,Sequim,WA,98382,360-683-9217
O Connor Trucking,92 Humptulips Valley Road,Hoquiam,WA,98550,360-533-8580
David Gabriel Trucking,313 Se 159th Ave,Vancouver,WA,98684,360-518-7826
M & L Express Trucking,3759 S 172nd St,Seattle,WA,98188,541-262-3523
Otter Creek Transport,115 Cougar Ln,Toledo,WA,98591,360-864-8218
Ramirez Trucking,1047 S Division St,Moses Lake,WA,98837,509-766-7607
J M Trucking,8223 153rd St Nw,Gig Harbor,WA,98329,253-853-4238
Bayes Trucking,5702 B Withorpe Road,Spokane,WA,99228,N/A
Alpine Trucking,1599 Ocean Beach Road,Hoquiam,WA,98550,360-289-0565
B & P Trucking,1411 Nw 109th St,Vancouver,WA,98685,360-573-0712
V M Trucking,2122 S 272nd Street #b-208,Kent,WA,98032,206-839-8286
Krusow Trucking,2410 South Roosevelt,Goldendale,WA,98620,360-607-2563
Kaajac Transportation,Po Box 847,Monroe,WA,98272,360-568-9778
L & B Rock Sales & Trucking,5602 Channel Dr,Yakima,WA,98901,509-452-7387
M & M Trucking,324 West 8th Street,Warden,WA,98857,509-349-8723
B & K Trucking,8619 180th Way Sw,Rochester,WA,98579,360-273-8098
Walker Family Transportation,607 Madison Avenue,South Cle Elum,WA,98943,509-674-5296
Fifo Trucking,16515 14th Ave Ct E Ste B,Spanaway,WA,98387,253-537-6154
R & R Transport,24014 64th Avenue East,Graham,WA,98338,206-846-3713
R P M Express,505 10th Street,Warden,WA,98857,509-349-8077
D And J Trucking,301 Hagana Street,Aberdeen,WA,98520,360-533-8023
Intercoastal Transportation,P O Box 365,Davenport,WA,99122,509-725-0717
Apple Transport,63006 E Solar Pr Ne,Benton City,WA,99320,509-627-0771
Jim Dempsey Trucking,146 Norton Rd,Oakville,WA,98568,360-273-6820
Triple J Trucking,North 4515 Mayhew Rd,Spokane,WA,99216,509-891-7213
Gutierrez Trucking,936 W Leola,Pasco,WA,99301,509-545-8079
T & T Trucking,16101 Reichel Rd,Rainier,WA,98576,360-446-0066
N & P Trucking,29624 132nd Ave Se,Auburn,WA,98092,N/A
Kenco Transport,10054 West Marginal Place So,Tukwila,WA,98168,206-763-7646
Excell Trucking,4610 224th Pe S W,Mountlake Terrace,WA,98043,206-776-9703
N & S Rock,10708 Ne 90th St,Vancouver,WA,98662,360-882-1330
Kaba Trucking,23240 88th Ave #ff 201,Kent,WA,98031,206-854-8516
Knm Trucking & Excavation,5620 S Savannah Ln,Spokane,WA,99223,509-448-2780
C E S Trucking,Po Box 483,Odesa,WA,99159,N/A
Ozuna Trucking,416 Washington Street,Warden,WA,98857,509-349-8247
C D R Trucking,181 Van Hoy Rd,Goldendale,WA,98620,509-773-2236
Integrity Services Trucking,15407 Ne 44th St,Vancouver,WA,98682,360-944-9926
Kevin Christensen Trucking,101 Ne 1st Ave #203,Battle Ground,WA,98604,360-666-1850
Cole Transport,13210 State Route 2,East Wenatchee,WA,98802,509-782-4127
Lone Wolf Trucking,508 Cedar Creek Road,Toledo,WA,98591,360-864-6652
D & H Courier,10119 Ne 76 St,Vancouver,WA,98662,360-254-1301
E & N Trucking,76 Sonova Place,Prosser,WA,99350,509-894-4261
T K Shearer Transport,4304 West Opal,Pasco,WA,99301,509-545-8631
K & M Transport,20011 64th Ave E,Spanaway,WA,98387,253-847-8793
Sterling Pacific Transportation And Events,1237 S Director St Ste 200,Seattle,WA,98108,206-767-6793
Scott Rambo Trucking,N 903 Summer,Colfax,WA,99111,509-397-2320
T J Seekins Trucking,1212 Se Blair Road,Washougal,WA,98671,360-835-7535
C And H Trucking,9002 219th Street Court East,Graham,WA,98338,253-847-6121
Johal Trucking,10931 Meridian Dr Se,Everett,WA,98208,916-416-7721
P & G Transportation,804 Ne 104 Th Avenue,Vancouver,WA,98664,360-256-6522
Kelsey Morse Trucking,1750 Clerf Rd,Ellensburg,WA,98926,509-968-3241
Cheema Trucking,11101 Se 208th Street #1011,Kent,WA,98031,253-852-2136
Tony's Trucking,2170 May Street,Othello,WA,99344,509-488-4347
T R Transport,103 Old River Rd,Okanogan,WA,98840,509-826-9225
Delta Volga Trucking,10 841 Kent Kangley Rd #1-7,Kent,WA,98031,206-859-1311
James L Rathbone Trucking,14121 93rd Ave Se,Yelm,WA,98597,360-458-5782
Roger Tesch Trucking,5616 Northfork Rd,Deming,WA,98244,360-592-1180
J P Transprt,11301 Ne 7th St #z5,Vancouver,WA,98684,360-604-8714
R-factor,3800 136 Th St Ne,Manysrille,WA,98271,360-651-2060
Al Arnold Trucking,331 Sunlight Drive,Cle Elum,WA,98922,509-674-0529
Weissenfluh Trucking,607 Walker Road,Kelso,WA,98626,360-425-3833
Jordan Trucking,14621 244th Dr S E,Monroe,WA,98272,360-794-8056
Daniel Cantv Gomez Trucking,1628 Lee Road,Othello,WA,99344,509-488-2575
Jimmie R Dixon,2020 Coal Cr Road,Longview,WA,98632,360-636-5599
Morales Trucking,2416 E Alvina St,Pasco,WA,99301,509-544-9192
Sunset Transport,9308 210th Avenue East,Bonney Lake,WA,98390,206-891-0616
R Perez Trucking,696 South 2nd Ave,Othello,WA,99344,509-488-6057
Johnny's Autos & Trucks,4305 Main St,Union Gap,WA,98903,509-452-9317
Oscar M Garza Trucking,705 S 18th Ave,Othello,WA,99344,509-488-5606
Checkered Flag Trucking,1306 So 44th Ave,Yakima,WA,98908,509-965-7283
Mike The Mover,22744 Highway 99,Edmonds,WA,98026,206-546-9545
Mike The Mover,22744 Highway 99,Edmonds,WA,98026,206-546-9545
Don Horst Trucking,16421-123rd Ave Se,Yelm,WA,98597,360-458-7688
Kimble Transportation,170 Sudeabaker Road Spur 2,Castle Rock,WA,98611,360-274-7118
Spirit Express Trucking,6412 Fairlawn Drive Sw,Lakewood,WA,98499,253-984-6257
R & W Trucking,109 West 4th Street,Cle Elum,WA,98922,509-674-3930
Z & H Trucking,2124 W Yeisley Rd,Othello,WA,99344,509-488-0691
Northwest Mobile Home Transport,161 Catherine Drive,Woodland,WA,98674,360-225-7396
Major Petroleum Service Co,1675 West 36th Avenue,Kennewick,WA,99337,509-586-1861
Roscoe's Transport,216 South Tobin Street,Renton,WA,98055,425-227-5500
Rich Holbert Trucking,30 Berge Rd,Stevenson,WA,98648,509-427-4360
Ventura Trucking,728 South Chelan,Wenatchee,WA,98801,509-662-0863
Friendly Auto Transport,East 1003 Francis,Spokane,WA,99207,509-489-2441
Vincent Larson Trucking,5307 4th Avenue South,Seattle,WA,98108,206-375-1859
Lance Anderson Trucking,18110 Deschutes Dr Se,Yelm,WA,98597,253-472-0461
Island Hot Shot Services,9615 Otso Point Road,Anderson Island,WA,98303,253-884-1236
Mv Transport,1788 Sw 345 Pl,Federal Way,WA,98023,206-375-3355
Anker Transport,8586 Depot Road,Lynden,WA,98284,360-254-3383
Woods Express Transportation,2881 H Street Road,Blaine,WA,98230,360-366-4914
White Owl Transport,1250 N Bauer Rd,Ritzville,WA,99169,509-750-0449
Bond Trucking,306 Rosebrook Road,Chehalis,WA,98532,360-262-3271
J W Ritter Trucking,2511 Carroll,Ellensburg,WA,98926,509-968-4582
E & P Transportation,845 Woodard Ave Ne,Castle Rock,WA,98611,360-274-9860
Dark Star Trucking LLC,5650 Riverside Drive,Rock Island,WA,98850,509-884-9197
Freight Express Trucking,7520 16th Avenue Sw,Seattle,WA,98106,206-762-0556
Worldwide Courier,21837 7t Aveneu South,Des Moines,WA,98198,206-870-3270
Hudson Transportation Co,9219 24th Ave S W,Seattle,WA,98106,206-763-1281
Bogachov Trucking,33 140th St Se,Everett,WA,98208,206-300-9159
Scotts Transport,624 South 200th,Des Moines,WA,98198,206-824-3418
Magic Trucking,3905 W Larch Ave,Yakima,WA,98902,509-965-8302
Somerville Transport Service,2500 East 4th Plain Blv #161,Vencouver,WA,98661,360-518-1000
Canda Express,12601 W Lincoln Ave,Yakima,WA,98908,509-961-1007
Roger W Dick Trucking,21 - 117th Pl Se,Everett,WA,98208,425-353-4780
Holaday Trucking,8201 Ne 19th Ave,Vancouver,WA,98665,360-690-4224
Quinton Express LLC,1071 Basin Hill Rd,Basin City,WA,99343,509-269-4077
Segovia Trucking,1700 Cross Street,Wenatchee,WA,98801,509-264-2993
Aaa Family Trucking,13915 229th St E Ct,Graham,WA,98338,360-893-1726
All-ways Affordable Moving & Delivery,6806 Ne 69 Ave,Vancouver,WA,98661,360-798-0626
Calvillo Trucking,1719 150th Street South,Spanaway,WA,98387,253-535-5873
R & K Express,403 S 88th Ave,Yakima,WA,98908,509-965-5096
D M Auto Wrecking,1115 N 12th,Walla Walla,WA,99362,509-522-1281
Gutierrez Trucking,1804 Sage Street,Grandview,WA,98930,509-882-3052
K Howes Transporting,5314 W Sunset Highway #15,Spokane,WA,99224,509-838-6988
Hagan Transport,E 100 -4th Street,Spangle,WA,99031,509-283-2150
Cartwright Farms,6257 Springdale Hunters Rd,Hunters,WA,99137,509-722-3166
Long Riders Transportation Specialist,2002 Park Road,Spokane,WA,99212,509-892-5736
Johnson Contracting,380 Forest Napavine Rd E,Chehalis,WA,98532,360-266-8141
Alan Handy Trucking,12208 - 160th Ave Kpn,Gig Harbor,WA,98329,253-884-5607
Dpc Trucking,110 Riverview,Selah,WA,98942,509-698-5168
Martinson Trucking,305 Mc Ginnis Avenue,Pend Oreille,WA,99139,509-442-3446
Voorn Import Export,2501 21st Avenue Sw,Tumwater,WA,98512,360-352-9400
Koss Trucking,15400 S E 155th Place Lot 95,Renton,WA,98058,425-277-0255
Integrity Trucking,16515 E Wellesley,Spokane,WA,99216,509-928-4924
Farias Transport,343 N 14th St,Sunnyside,WA,98944,509-837-7393
Independent Truck Enterprises,1414 E Carlisle,Spokane,WA,99207,509-487-0757
Carlo Luse Trucking,1919 South 13th Street,Yakima,WA,98903,580-515-1616
Juan A Gomez Trucking,206004 E Sr 397,Kennewick,WA,99337,509-586-6010
Tim Luchau Trucking,3148 Oak St,Longview,WA,98632,360-577-4406
Moonlight Express,#4 Pinecrest Rd S,Tonasket,WA,98855,509-826-5965
"First Class Transit, Inc.",6410 Tralee Dr Nw,Olympia,WA,98502,360-866-0262
K W Transport,6807 E 7th,Spokane,WA,99212,509-924-7790
Harlan Smith Trucking,6733 Munson Dr Sw,Olympia,WA,98512,360-866-6733
Ocean Pacific Express,24501 41st Ave Ct E,Spanaway,WA,98387,253-875-4563
Prestige Horse Transportation,27520 96th Street East,Buckley,WA,98321,360-829-2467
Harry Nelson Trucking,191 1rst Street,Ronald,WA,98940,509-649-2552
Bender Trucking,26525 36th Ave Nw,Stanwood,WA,98292,360-939-0129
Casas Trucking,698 S Sara Lane,Othello,WA,99344,509-488-2806
National Transportation Driver Training Centers,4300 Giegier Blvd,Spokane,WA,99219,206-436-4402
Integrated Health Services,3260 Nw 2nd Avenue,Camas,WA,98607,360-834-0562
Northwest Express Trucking Company,2326 Kinnikinnick Drive,Leavenworth,WA,98826,509-782-9071
Storm Trucking,1077 Main Street,Buckley,WA,98321,360-829-0381
Bob Hyde Trucking,516 West 10th,Ellensburg,WA,98926,509-925-1711
Newberry Trucking,1317 Airport Road,Cle Elum,WA,98922,509-674-2900
Winterhawk Trucking,4425 Meridian Ave N Unit 6,Marysville,WA,98271,425-239-5461
D & H Trucking,3509 East Sanson,Spokane,WA,99217,509-489-2994
Highway King Transport,1127 Charleston Beach Road,Bremerton,WA,98312,360-377-5639
Troy Osborn Trucking,2200 Ne 88th # 3,Seattle,WA,98115,206-985-1378
Pat Creager Trucking,10833 Se 173rd Street,Renton,WA,98055,425-254-1833
Blue Jay Transport,25915 East Olympic Avenue,Newman Lake,WA,99025,509-226-3268
Wally's Trucking,129 Rachel Road,Kennewick,WA,99338,509-628-1963
Dick Hodges Trucking,514 Germany Creek Road,Longview,WA,98632,360-578-9572
Apple Jack Trucking,323 West Twisp Avenue,Twisp,WA,98856,N/A
D R Trucking,1401 110th St S,Tacoma,WA,98444,253-732-0897
Border Line Stage Express Freight,127 East Astor,Colville,WA,99114,509-684-3950
Gracia Trucking,10002 West Argent Road,Pasco,WA,99301,509-547-9696
Marv Elliott Trucking,408 S Diamond,Centralia,WA,98531,360-736-7958
Transilvania Truck Line,663 Ne Blaine Avenue,Renton,WA,98056,425-254-1799
North West Express,511 S Van Well,E Wenatchee,WA,98802,509-884-5144
Horsman Transportation,3709 Wallingford Avenue N,Seattle,WA,98103,206-633-4816
Get Away Express,2628 34th Avenue,Longview,WA,98632,360-636-5656
Watermark Transport,24039 110th Place Se #m301,Kent,WA,98031,253-856-2897
M R Trucking Service,610 North Avenue,Sunnyside,WA,98944,509-836-2971
Naillon Trucking,10410 Ne 73rd St,Vancouver,WA,98662,360-772-6719
Espinoza Trucking,3198 West Malaga Road,Malaga,WA,98828,509-662-2827
Shane Wefer Trucking,4135 Hannegen Rd,Belllingham,WA,98226,360-671-4794
Cascadia Idealease Pacific Coast Truck Co Alaska Idealease Pacific Coast Leasing,2312 Milwaukee Way,Tacoma,WA,98421,253-272-8401
Anderson Trucking,329 Railroad Ave,Acme,WA,98220,360-595-1173
J A G Transport,8411 Ne 132nd Place,Kirkland,WA,98034,425-820-2850
Dennis Flint Trucking,345 Bickleton Hwy,Goldendale,WA,98620,509-773-4901
Turtle Express,14300 Ne 52nd St,Vancouver,WA,98682,360-604-1337
Charles R Peppard Trucking,14435 S E 263rd Street,Kent,WA,98042,253-630-8911
Hector Trucking,1233 Arlington,Moses Lake,WA,98837,503-514-9567
Northwest Transfer,7012-256th St Ct E,Graham,WA,98338,253-847-5620
Fochtman And Sons Trucking,13914 140th Ave E,Orting,WA,98360,253-841-2116
Flying Transport,17516 31 St Pl W,Lynnwood,WA,98051,208-859-9857
Cristobal Gomez Jr Trucking,370 South Reynolds Road Lot 52,Othello,WA,99344,509-488-3092
Express Enterprise,11012 Rutherford,Yakima,WA,98903,509-966-1851
Construction Express,27615 Ne 434th Street,Amboy,WA,98601,360-247-7008
Jacobs Transportation,6801 Occidental Ave,Yakima,WA,98903,509-575-3943
Andys Carpeting & Mobil Transportation Services,21405 Road 247 Sw,Mattawa,WA,99349,509-932-5799
Josh Sanaski Trucking,510 Commercial Street,Raymond,WA,98577,360-942-5747
Mel Taylor Trucking,2311 E 29th St,Vancouver,WA,98661,360-607-6322
Rolling Hills Transportation,7614 Ne 147th Ave,Vancouver,WA,98682,N/A
Delgado Trucking & Trading Company,211 North Johnson St Suite #4,Kennewick,WA,99336,509-734-2767
Luca Trucking,15402 Ne 50th St,Vancouver,WA,98682,360-256-8747
Noordman Trucking,42924 Se 208th Street,Enumclaw,WA,98022,360-825-1112
Chuck Daggett Trucking,160 Shanghai Rd,Kelso,WA,98626,360-425-7494
J & J Transport,415 North Sullivan Road,Verndale,WA,99037,509-999-2929
S A S,159 Brockway Rd,Chehalis,WA,98532,360-748-1000
Hott Shott Express,4000 Longview St Nw #26,Moses Lake,WA,98837,509-765-5016
"Mike Hadaller Trucking, Inc.",163 Jean Road,Chehalis,WA,98582,360-262-3975
Mr B's Mobile Home Service,W 112 First St,Deer Park,WA,99006,509-276-2086
J & J Trucking,311 South Beech Street,Toppenish,WA,98948,509-865-2397
Rocha Trucking Ii,1111 S 1st,Sunnyside,WA,98944,509-839-7358
Embassy Transfer,202 White Rd,Castle Rock,WA,98611,360-274-8661
Bri-lin Trucking Co,Po Box 477,Naches,WA,98937,509-949-5172
Grant E Antilla Dump Trucking,205 Coyote Lane,Castle Rock,WA,98611,360-274-6518
Cardoza Trucking,436 N Owen Avenue,Pasco,WA,99301,509-544-0149
Garcia Trucking,1221 S 4th Avenue,Pasco,WA,99301,509-544-7832
1 Truck,19808 Ne 137th Court,Battle Ground,WA,98604,360-666-9505
Tomlis Trucking,12007 Ne 122nd Avenue,Brush Prairie,WA,98606,360-891-5549
R & C Trucking,91 Adrian St N W,Soap Lake,WA,98851,509-246-0603
Bill Trucking,14626 Se 16th Pl,Bellevue,WA,98007,360-961-6530
Wee Bee Trucking,9212 Portland Ave,Tacoma,WA,98445,253-539-0504
Mclemore Trucking,325 Washington Ave So #91,Kent,WA,98032,206-601-8881
R And R Trucking Company,35358 10th Pl Sw,Federal Way,WA,98023,253-815-8700
Kent Noel Trucking,5410 Marine View Dr #27,Tacoma,WA,98422,253-209-9933
Jorgenson Trucking,9709 238th St E,Graham,WA,98338,253-846-7944
Mario Garza Trucking,604 S Wagon Road,Othello,WA,99344,509-750-4400
Silver Mountain Logging,234 Kelso Drive Pmb # 220,Toutle,WA,98626,360-274-5284
Wilbur Trucking,3616 Landau Ave Ne,Olympia,WA,98506,360-459-2559
Rb Transport,855 Trosper Rd Ste 108-212,Tumwater,WA,98512,714-809-4109
Harrington Trucking,3604 S E 144th Ct,Vancouver,WA,98683,360-882-4375
Roger Truck Lines,2604 E 62nd Ave #d,Fife,WA,98424,253-926-0982
"Simcoe Mountain Trucking, Inc.",625 N E 2nd Street,Goldendale,WA,98620,509-773-5484
Bvm Trucking,718 203rd Street Se,Bothell,WA,98012,425-489-0493
Olsen's Hot Shots,171 Phillips Lake Lp Rd,Shelton,WA,98584,360-426-4108
Charlie Church Trucking,2215 Hampton Rd,Wenatchee,WA,98801,509-665-0231
Empire Drilling,2240 W Broadway #25,Moses Lake,WA,98837,509-760-3434
Badger Mt Trucking Co,29214 8th Avenue South,Roy,WA,98580,253-843-1763
Affordable Moving Services LLC,10522 Mullen Road Se,Olympia,WA,98503,360-456-0969
Lone Wolf Trucking,15140 Marion Drain Road,White Swan,WA,98952,509-848-2895
Triple R Transport,340 East Fir,Othello,WA,99344,N/A
Van Dalen Trucking,1542 Main St,Lynden,WA,98264,360-354-3968
Harold D Kuhnhausen Trucking,110 Lakeside Rd,Glenwood,WA,98619,509-364-3343
Hoist & Haul,5414 Ernestine Ln,Deming,WA,98244,360-592-5668
Concours Transport Systems,5114 Point Fosdick Dr Nw E-163,Gig Harbor,WA,98335,253-973-3987
Straight & Narrow Trucking,9636 Highway 507 Se,Rainier,WA,98576,360-446-0901
R & S Load N Haul,944 Beverly Burk Rd,Quincy,WA,98848,509-989-5836
Mike Bivins Trucking,1879 Old Highway 97,Okanogan,WA,98840,509-422-6197
Jr Cantu Transport,1762 Langford Road,Eltopia,WA,99330,509-297-4500
Leibelt Trucking,217 E Montmorency Blvd,George,WA,98824,509-785-3712
R W Trucking,31581 N Tramm Rd,Rearden,WA,99029,509-922-1497
"Mcneal Express, Inc.",12629 69th Avenue So #15,Seattle,WA,98178,206-772-3011
V R & Sons Trucking,295 W Lee Road,Lind,WA,99341,509-488-6032
"Executive Trucking, Inc.",4529 185th Place Sw,Lynnwood,WA,98037,425-778-0761
Columbia Valley M G & Ex,9118 Frost Road,Sumas,WA,98295,360-988-8592
T & K Engelbretson Trucking,111 3rd St,Riverside,WA,98849,509-826-0947
"Westruck Transport, Inc.",P O Box 345,Everson,WA,98247,360-966-3826
Hutson & Sons Moving & Packing,2025 Lotze Creek Rd # D,Colville,WA,99114,509-732-8942
Gimlin Trucking,9 Pine Vista,Glenwood,WA,98619,509-364-4158
Sa & E Transportation,14800 Ne 15th Street,Bellevue,WA,98007,425-746-4355
L P Trucking,33110 82 Ave S,Roy,WA,98580,253-255-5625
Kc Transportation,15733 84th Ne,Lake Stevens,WA,98258,360-691-6357
D H Transport Service,357 Cottonwood Drive,Camano Island,WA,98292,360-387-6551
M J Trucking,5638 May Valley Rd Ne,Moses Lake,WA,98837,509-766-9482
D Schroeder Trucking,1024 North Central Avenue Apartment L15,Kent,WA,98032,253-350-8731
Vip Transportation,12515 Bel-red Road #103,Bellevue,WA,98005,206-423-6362
R D A Trucking,1090 A St,Woodland,WA,98674,360-673-7499
Midnight Express,520 Desdemona,Othello,WA,99344,509-488-3904
Homer Trailor Movers,1041 Hwy 395 N #12,Kettle Falls,WA,99141,509-738-4105
B Flight Transportation,4715 53rd Street E,Tacoma,WA,98443,253-517-7402
D & J Trucking,12427 Ave 104th Ct E F301,Puyallup,WA,98374,559-270-7829
Cope Housemoving,20621 Haney Road,Kennewick,WA,99337,509-582-2591
Sense Line Transport,13106 Harbour Heights Dr,Mukilteo,WA,98275,425-743-9807
Stateline Trucking School,1814 Terminal Drive,Richland,WA,99352,509-554-3102
Larson Trucking,114 Railroad Avenue,Goldendale,WA,98620,503-735-0540
Adler Transport,8516 Ne Sunnyside Dr,Vancouver,WA,98662,503-607-1088
Mgn Trucking,12406 Ahtanum Rd,Yakima,WA,98903,509-972-8692
Jasmin Trucking,1437 Riche Court,Richland,WA,99352,509-946-6254
Old Dogs Trucking,1209 East Alder Street,Yakima,WA,98901,509-594-7153
Dnt Enterprizes Auto Rv Transport,2520 Hazeldel Rd,Castle Rock,WA,98611,360-274-8315
S & S Express,257 Basin Drive,Burbank,WA,99323,509-545-1033
Triple R,271 Herlou Drive,Selah,WA,98942,509-930-2727
True Van Lines,21506 86th Ave S,Kent,WA,98031,206-444-9000
Karry's Trucking,E 774 Dawn Dr,Allyn,WA,98524,360-275-7947
Dallas 1 Trucking,31505 Ne Healy Rd,Amboy,WA,98601,360-247-5504
Sa & Transportation,14800 Ne 15th St,Belleuve,WA,98007,425-746-4355
Snowball Express,427 Mission Ave,Cashmere,WA,98815,509-782-8183
Jbj Driving Service,1422 Rainier Drive #11,Fircrest,WA,98466,253-566-1591
James W Peters Log Trucking,119 Alta Dr,Packwood,WA,98361,360-494-7411
Hoard Power Transport,723 E Baldwin,Spokane,WA,99207,509-487-2297
Remis Trucking,1805 Rd 56,Pasco,WA,99301,509-547-5405
G&m Trucking,604 S Wagon Rd,Othello,WA,99344,509-488-9716
Juan Ramirez Trucking,205 Saddle Mt Dr,Mattawa,WA,99349,509-932-5070
F & G Express,201 S Jackson,Warden,WA,98857,509-349-8541
Oziel Pruneda & Sons Trucking,601 Jackson Street,Warden,WA,98857,509-349-8850
F & T Trucking,241 South Bank Road,Elma,WA,98541,360-482-2291
C & C Trucking,619 Beech Ave,Royal City,WA,99357,509-346-9675
Bilyeu Trucking,611 Se Kaiser Ave Suite 110,Vancouver,WA,98661,360-314-8843
Garys Trucking,707 Montgomery Street,Steilacoom,WA,98388,253-588-5929
Sz Trucking,744 Nw Valley Street,Camas,WA,98607,360-695-1719
Casillas Trucking,2049 West Bench Road,Othello,WA,99344,509-488-4131
Crim Trucking,1990 Reecer Creek Rd,Ellensburg,WA,98926,509-607-1553
All West Transport,223 C East Reserve,Vancouver,WA,98661,360-694-2174
Bill Dahlstrom Log Trucking,14200 1st Ave S Ste E,Burien,WA,98168,360-330-8065
Castillo Trucking,632 N Cedar,Pasco,WA,99301,509-547-3360
Rodroguez & Son Trucking,1491 Progressive Road,Wapato,WA,98951,509-877-4692
West-east Transportation,4717 118th Pl Se,Everett,WA,98208,916-295-7379
Mcknight Trucking,S 806 Lundstrom St,Airway Hts,WA,99001,N/A
Bhan's Trucking,814 Sw Langston Rd,Renton,WA,98057,425-577-0252
Pm Enterprises,18015 S Spangle Creek Rd,Valleyford,WA,99036,509-245-9202
Jimenez Hauling,520 Strong Rd,Granger,WA,98932,509-854-2507
Deloney Trucking,19624 12th Pkl S,Seattle,WA,98148,206-878-1256
Aa Transport,14723 62nd Ave E,Puyallup,WA,98375,253-380-0742
Cliffs Classic Enterprises,1712 Birchfield Rd,Yakima,WA,98901,509-453-6028
C And C Logging,15010 N Neptune Lane,Mead,WA,99021,509-466-9098
Vik Trucking,3409 Alderwood Ave,Bellingham,WA,98225,360-676-5113
Isidro Valdez Trucking,1720 W Clark,Pasco,WA,99301,N/A
Tubbs Auto & Salvage,P O Box 2013 Hy 141,White Salmon,WA,98672,509-493-4016
Vms Trucking,1210 1/2 Rock Ave,Yakima,WA,98902,509-574-0623
Columbia River Sand And Gravel,3101 Nw Gateway Ave,Vancouver,WA,98666,360-694-1627
Epicurus Freight Forwarders,2716 Fleming Ln,Pasco,WA,99301,509-302-1922
L T S Trucking,801 E 26th Street,Tacoma,WA,98421,253-272-2929
"Bellingham Transfer, Inc.",1260 Van Wyck Rd,Bellingham,WA,98226,360-676-0220
Dudley Boat Transportation,2100 Marine View Drive,Tacoma,WA,98422,800-426-8120
Thompson Distributing Co,Po Box 621,Walla Walla,WA,99362,N/A
Ben's Distributing Co,1623 E Glass Ave,Spokane,WA,99207,N/A
K & S Transport,Po Box 681,Wenatchee,WA,98801,N/A
Kloss Photo Service,4 1/2 W Main,Walla Walla,WA,99362,N/A
Pacific Rim Distributors,1534 1st Ave South,Seattle,WA,98134,N/A
Danny Weese Trucking,2378 Highway 142,Goldendale,WA,98620,509-773-2214
Philip Services Northwest,1806 Baker Way,Kelso,WA,98626,360-423-0260
Northwest Piano Movers,20730 72nd Avenue South,Kent,WA,98032,206-872-3640
Ott Trucking,472 Leighland Ave Trailer 21,Port Angeles,WA,98362,360-417-1321
Tinkham Trucking,2518 S 52nd Ave,Yakima,WA,98903,N/A
Bill Sheeley Trucking,440 Snipes Canal Rd,Sunnyside,WA,98944,509-830-4455
Gm Heavy Haul,2020 N Dollar Rd,Spokane Valley,WA,99212,509-536-7538
The Navajo Trucking Dh,1908 S Oak St,Kennewick,WA,99337,509-585-8257
Midland Trucking,3420 Chelan Hwy North,Wenatchee,WA,98807,509-663-3131
Leonard Trucking,1717 Delameter Road,Castle Rock,WA,98611,360-274-0957
Zacarias Martinez Trucking,240 North 12th Avenue,Othello,WA,99344,509-488-7227
Spokane Ford Motor Freight,E 3927 Grace Ave,Spokane,WA,99207,N/A
Taylor Trailer Transportation,West 10914 Sunset Hwy 2,Spokane,WA,99204,509-244-2505
"Miller Truck, Inc.",1161 West Pine,Walla Walla,WA,99362,509-525-9410
Nobach Trucking,7404 44th Ave Ne,Marysville,WA,98270,360-659-6415
D & L Trucking,1400 Franklin Dr,Cosmopolis,WA,98537,360-533-0557
Hauler 4u,1041 N E Old Belfair Hwy,Belfair,WA,98528,360-271-9108
Franck Trucking,5320 N Frontage Rd W,Ephrata,WA,98823,509-787-3074
J W Trucking,140 Riverview Rd,E Wenatchee,WA,98802,509-884-1660
Gti,407 A Porter Way,Milton,WA,98354,253-922-1150
"Tuttle & Tuttle, Inc.",14420 468th S E,North Bend,WA,98045,206-888-0970
Triple C Trucking,U S Hwy 24 - Mp 22,Moxee,WA,98936,509-930-1826
Terry Andersen Trucking,5102 70th Avenue Ne,Olympia,WA,98516,360-456-7035
Robinson Excavating & Trucking,301 Lehigh Circle,Metaline Falls,WA,99153,509-446-2011
Drake Transportation Systems,3602 S Pine St,Tacoma,WA,98409,206-627-9175
M L Blankenship Trking,40 E Gosser Rd,Shelton,WA,98584,360-427-7105
C J Trucking,4902 S Sherman Ln,Spokane,WA,99224,509-624-2370
Bob Mckune Trucking,138 Military Road,Castle Rock,WA,98611,360-274-6540
Puget Willamett Express,2903 W Main,Battle Ground,WA,98604,360-608-6982
"Sound Transportation, Inc.",10910 26th Ave S,Lakewood,WA,98499,253-582-2822
J & S Enterprises,221 Forest Dr,Brinnon,WA,98320,360-796-0217
K & M Transportation,5409 58th Ave Se,Olympia,WA,98503,N/A
Nuchem Limited Partnership,13 Sr 27,Pullman,WA,99163,509-334-2591
John Morrow Trucking,4106 Garden Spot Rd,Loon Lake,WA,99148,509-233-8414
All Out Trucking,6408 Postma Rd,Yakima,WA,98901,509-452-4216
Dale Curfman Trucking,1204 16th Avenue,Clarkston,WA,99403,509-758-9651
Interstate Battery Systems Of Spokane,5417 E Trent Ave,Spokane,WA,99212,509-534-0676
Carter Trucking Co,Mp 1 6 Wind River Hwy,Carson,WA,98610,N/A
J & J Trucking,1500 State St North,Bellingham,WA,98227,206-671-3331
Lazy E Transportation,7720 Locust Ave E,Sumner,WA,98390,253-863-0434
Whirlwind Express,P O Box 818,White Salmon,WA,98652,509-493-1319
Tag Trucking,1607 Lower Elwha Rd,Port Angeles,WA,98363,360-452-2501
Hawk Trucking,1241 E Valley Rd,Skamokawa,WA,98647,360-795-8037
Pacific Breeze Transport,816 N 10th Ave,Yakima,WA,98902,N/A
E R S Trucking,2108 E 99th St,Tacoma,WA,98445,253-535-8947
Jack Wohl Trucking,1706 South Pacific Avenue,Kelso,WA,98626,206-425-9999
James Conant Trucking,Pob 195,Kelso,WA,98626,206-695-7177
M & M Transportation,712 Guiberson,Kent,WA,98031,N/A
Olson Trucking,230 Taylor Loop,Selah,WA,98942,509-697-6931
D R Jepson Logging & Trucking,645 California Wa,Longview,WA,98632,360-425-7810
Bob Burns Trucking,W 111 4th Ave,Odessa,WA,99159,509-982-0162
J&l Trucking,5958 Gamblewood Drive Ne,Kingston,WA,98346,N/A
Mike Boucher Trucking,8507 Tieton Dr,Yakima,WA,98908,509-952-1218
J & B Transport,10014 10th Ave Sw,Seattle,WA,98146,N/A
J & C Moore Trucking,35620 Mann Rd,Sultan,WA,98294,360-793-0245
Bud Zetter Trucking,512 Ne High St,Goldendale,WA,98620,509-773-4788
Car-go Auto Transport,1321 S 2nd St,Mount Vernon,WA,98273,360-419-9981
R & K Trucking,3404 Ne 57th St,Seattle,WA,98105,N/A
Lil'g,4512 Luther Rd,Springdale,WA,99173,509-258-7791
D & T Trucking,9917 153rd St Ct E,Puyallup,WA,98373,206-893-5540
Mel's Trucking,634 Clover Drive,Moses Lake,WA,98832,509-765-7614
John Bear Trucking,15125 131st Ave Ct,Gig Harbor,WA,98335,253-549-5511
Cliff Nickols,919 Ne Hayes Rd,Woodland,WA,98674,360-225-7431
Don Moser Trucking,Old Detour Road,Carson,WA,98610,509-427-8248
R J's Backhoe Service,Rt 1 Box 288a,Walla Walla,WA,99362,509-529-9168
Pacific States Industrial,339 Hazel St,Kelso,WA,98626,360-425-1449
M L Trucking,1818 3rd Avenue,Longview,WA,98632,206-636-1703
Red Baron Blue Max Trucking,22201 Ne 2nd St,Redmond,WA,98053,206-392-7666
H P H Trucking,334 Lambert Road,Walla Walla,WA,99362,509-525-0348
Transportation Systems,P O 2055,Walla Walla,WA,99362,N/A
C & J Trucking Co,30611 N Perry Rd,Deer Park,WA,99006,360-941-1438
H&r Distributing,911 East Moore,Sedro Woolley,WA,98284,N/A
Juan Ozuna Trucking,2174 W May,Othello,WA,99344,509-488-3237
