Company Name,Street Address,Address Locality,Address Region,Postal Code,Telephone
Satows Residential Gutler Service,469 Dutch Ridge Rd,Parkersburg,WV,26104,304-488-0279
Roach Contracting Services,46 Burdette Addition Road,Point Pleasant,WV,25550,304-593-6949
Burns Auto Care,Hc 60 Box 54 Coketon Rd,Thomas,WV,26292,304-463-4147
4 Seasons Trucking,Route 1 Box 301,Thornton,WV,26440,304-265-5291
Oakland Wayne Trucking,19676 Pond Fork Road,Van,WV,25206,304-245-8423
Tkm Hauling,Rr 3 Box 301 Patterson Ck Rd,Ridgeley,WV,26753,304-813-6610
Rahoo Trucking,Rt 83,Paynesville,WV,24873,304-967-7481
Kaylee Trucking,Rt 83,Paynesville,WV,24873,304-967-5561
Stephenson Trucking,2294 Backus Branch Road,Summersville,WV,26651,304-872-2370
Bickford Transport,201 Maggie Road,Summersville,WV,26651,304-872-4995
Guardian Contracting Services,2162 Derricks Ck Road,Sissonville,WV,25320,304-610-6723
Poor Joe's Transportation And Hauling,366 Longview Road,Evans,WV,25271,304-532-2679
Kiser Trucking & Equipment,4365 Lick Fork,Gandeeville,WV,25243,304-577-6875
Stephens Welding Service,Rt 3 Box 2298,Wayne,WV,25570,304-523-7210
Lohr Excavator Service,1425 Elm City Road,Jane Lew,WV,26378,304-884-7412
Mcalpine Services,1463 Glen View Rd,Crab Orchard,WV,25921,304-250-3928
G & H Trucking,158 Van High School Road,Madison,WV,25130,304-245-8560
Ej&g Services,1602 Mccanns Run Road,Jane Lew,WV,26378,304-884-7379
Nanna's Mail Service,323 Joes Creek Rd,Comfort,WV,25049,304-837-3782
Boyds Mobile Home Movers,Rt 1 Box 181-a,Crum,WV,25669,304-393-4248
J&j Trucking,129b Estep Ridge,Jolo,WV,24850,304-967-7447
Brent's Repair Service,230 Jefferson Street,Moorefield,WV,26836,304-538-7699
Dustin Edwards Trucking,148 Chase Lane,Princeton,WV,24740,130-489-0708
Road Hog Trucking,Hc 84 Box 47b,Frametown,WV,26623,304-364-4362
Cam Cole Trucking,Rt2 Mill Creek Rd,Fort Gay,WV,25514,304-648-8447
T & L Services,2538 Little Coal River,Alum Creek,WV,25003,304-756-1244
Geological Observation Drilling And Environmental Services,Hc 80 Box 229,Ripley,WV,25271,304-595-1081
Crc Custom Farming & Hauling,4941 Sulphur Springs Rd,Kearneysville,WV,25430,304-671-6315
Jet Transport,Rr 1 Box 216,Ellenboro,WV,26346,304-869-3362
Tri State Delivery Service,142 Sayer Circle,Logan,WV,25601,304-752-8076
Dan's Hauling,Route 2 Box 83,West Union,WV,26456,304-873-2728
Erc Trucking,80 Sumac St,Bayard,WV,26707,304-813-2506
Russell Distributing,1312 Clyde St,Parkersburg,WV,26101,304-424-5277
Ftl Trucking,1358 Berkeley Station Road,Martinsburg,WV,25404,304-433-5835
Cross Lanes Trucking,15 Stewart Park,Cross Lanes,WV,25313,304-755-1522
B&m Transport,House 31 Yuma Road,Wilkinson,WV,25653,304-752-5971
Snyder Mobile Home Mover,4504 Winfield Road,Winfield,WV,25252,304-807-6252
Little Dog Man Trucking,623 Frederick Street,Bluefield,WV,24701,304-320-5568
Bsm Heavy Hauling,3403 4th Ave,Belle,WV,25015,304-881-4694
Everytime Shot Shot Delivery,781 Pettyville Road,Mineral Wells,WV,26150,304-481-0884
Tim Friedel Trucking,507 Snake Run Rd,Alderson,WV,24910,304-392-5271
Hurshel Jr's Trucking,1095 Sutton Lane,Sutton,WV,26601,304-644-5695
Jumps Recycled Auto Parts,Rt 3 Box 418,Ridgeley,WV,26753,304-738-1582
Mc Excavating & Hauling,Rr 1 Box 370 B,New Martinsville,WV,26155,304-337-9191
Genesis Transport LLC,495 Old Gardner Rd,Princeton,WV,24740,304-320-4422
Mike Lambert Trucking,2355 Herndon Heights Road,Herndon,WV,24726,304-294-6536
Tire And Auto Plus,Rt 2 Bx 193-b,Jane Lew,WV,26378,304-745-4589
Drake's Restoration,814 Market St,Parkersburg,WV,26101,304-428-5917
Farley Transportation,7 Townridge Acres,Mullens,WV,25882,304-890-0733
T & A Trucking,Rt 16 Welch Pinerville Rd,Pineville,WV,24874,304-732-7832
Bill Boggess Trucking,Route 3 Box 285,Ripley,WV,25271,304-372-6043
Gibson Transport,777 Bethel Church Rd,Maidsville,WV,26541,304-599-5624
Hampton's Fresh Express,3236 Bluefield Ave,Bluefield,WV,24701,304-327-8781
Pro Hauling,686 Westview Ave,Morgantown,WV,26505,304-685-9938
Napa Auto Parts,614 Viand Street,Point Pleasant,WV,25550,304-675-2218
Lamberts Auto,Rt 1 Box 105a,Ridgeley,WV,26753,304-738-0430
Brandon Scott Trucking,# 5 Hollow Rd,Caretta,WV,24892,304-875-2312
Slm Transport,211 Redbud Drive,Beckley,WV,25801,304-663-1477
Grandchamp Service,House 1 Shabby Run Rd,Roderfield,WV,24881,304-436-3703
K V Auto Sales,2553 Warmsprings Rd,Shenandoah Jct,WV,25442,304-671-5300
Lanam Foundry,320 Pike Street,New Martinsville,WV,26155,304-455-1630
Lpg Trucking,6015 Webster Road,Upper Glade,WV,26266,304-226-0528
D&r Hauling,312a Thornton Ave,Princeton,WV,24740,304-920-8379
Hillbilly Hauling,#1 Frederick Lane,Rivesville,WV,26588,304-278-9934
Dc Trucking,Forest Hill Rd,Forest Hill,WV,24935,304-466-4062
C M Iser Trucking LLC,Hickory Lane,Augusta,WV,26704,304-496-9226
Creamers Wrecker Service,208 East North Street,Charles Town,WV,25414,304-725-7500
Cnc Express,138 Davis Street,Charlestown,WV,25414,301-706-2527
Northern West Virginia Trucking,740 Washington Pike,Wellsburg,WV,26070,304-737-2303
S & W Used Auto Sales & J & H Wdr,173 Meadow Mountain Rd,Clintonville,WV,24931,304-392-5132
T & L Trucking,Dunmore Ridge Road,Augusta,WV,26704,304-496-9672
Carr Trucking,Route 92,Bartow,WV,24920,304-456-3100
Prestige Cleaning Service,500 Betson Rd,Ridgeley,WV,26753,304-726-4125
Elliott Trucking,1594 Saint Joe Road,Albright,WV,26519,304-329-1928
Dnat Trucking,Route 2 Box 82aa,French Creek,WV,26218,304-924-5405
C & K Trucking,Hc 61 Box 45f1,Coalton,WV,26257,304-636-7088
Tom Auxier Trucking,800 Payne Road,Indore,WV,25111,304-587-7293
Daniels Transport,3328 Apple Harvest Drive,Hedgesville,WV,25427,304-229-6546
Smith Trucking,11 Monongalia Street,Buckhannon,WV,26201,304-460-2182
Anita Cox Trucking,220 Cox Lane,Flat Top,WV,25841,304-787-4615
Snake Hill Trucking,Snake Hill Road,Masontown,WV,26542,304-864-2873
Ksi,241 Edmond Road,Kearneysville,WV,25430,304-724-5744
Shuman's Trucking,Route 1 Box 64-2,West Union,WV,26426,304-873-2438
Neals Distributing,401 New Life Road,Princeton,WV,24740,000-000-0000
J & S Trucking,Hc 67 Box 15,Valley Head,WV,26294,304-339-6366
Saddle Mt Trucking & Excavating,Hc 72 Box 171-a,New Creek,WV,26743,304-788-5591
J Vandevender Trucking,Star Route 1 Box 2 A,Bartow,WV,24920,304-456-3088
Smith Trucking,22a Weber Street,Richwood,WV,26261,304-846-2718
Commercial Services,331 Lutz Avenue,Martinsburg,WV,25401,304-262-4330
Logistics,601 Hayes Road,Ashford,WV,25009,304-836-5646
Vienna Wrecker Service,1057 Summit Road,Vienna,WV,26105,304-295-3336
Cherokee Trucking,Rt 16 Welch Pineville,Welch,WV,24801,304-732-7832
David Noel Trucking,253 Wind Acres Pl,Princeton,WV,24740,304-320-3108
S Wilson Services,Knobley Road,Keyser,WV,26726,304-726-4623
Reds Transport & General Repair,Hc 32 Box 59,Rock Cave,WV,26234,304-924-5702
J & A Trucking,210 Dapper Road Rt 20,Leivasy,WV,26676,304-846-4977
Smith Well Service,Route 1 Box 235,West Hamlin,WV,25571,304-824-5967
Jamz Trucking,St Rt 52 Johnnycake Rd,Iaeger,WV,24844,304-938-2549
River Cities Limo Service,245 Washington Ave,Huntington,WV,25701,304-525-0999
Jcs Trucking,Rt 1 Box 368,Marlinton,WV,24954,304-799-6993
Ball Trucking,4514 Pisqah Road,Princeton,WV,24740,304-384-9193
Sheppards Trucking,Anjean Road,Rupert,WV,25984,804-852-9637
D & B Trucking,Rural Route 6 Box 497,Clarksburg,WV,26301,304-622-8784
B & R Service,Route 1 Box 251,Ripley,WV,25271,304-372-7736
Almost Heaven Trucking,69 Goose Hollow Road,Morgantown,WV,26505,304-594-2152
W J Wills,364 Willey Ln,Great Cacapon,WV,25422,304-258-4988
A & E Service Center,1975 Penn Avenue,St Albans,WV,25177,304-727-4601
Pdf Trucking,471 Parkinson Road,Glengary,WV,25421,304-229-9345
On Demand Hot Shotters,Hc 71 Box 119c,Ellamore,WV,26267,304-472-0894
Ron's Bobcat Service,2295 Springfield Grade Road,Springfield,WV,26763,304-492-4046
Life's Welding Service,900 Chesterville Road,Mineral Wells,WV,26150,304-489-1944
Donald May Transporting,9630 Clay Road,Left Hand,WV,25251,304-565-7301
Greg's Welding Service,325 Harmony Road,Gandeeville,WV,25243,304-577-9062
Knight Transport,Rt 1 Box 245-c,French Creek,WV,26218,304-838-4566
Rodes Auto Service,Route 1 Box 269-c,Fayetteville,WV,25840,304-469-2713
James Reynolds Trucking Co,158 Basin Lane,Seth,WV,25181,304-837-3339
L T Trucking,Bmhc Lot 502,Beverly,WV,26241,304-636-3459
Bobs Salvage & Hauling,695 Henry W Miller Blvd,Paw Paw,WV,25434,304-947-5992
Goode's Auto Repair,Route 1 Box 279a,Fayetteville,WV,25840,304-469-2625
Rebohn Delivery Service,Court Street,Fayetteville,WV,25840,304-574-0056
Harper Valley Delivery,163 Donald Street,Harper,WV,25851,304-255-2434
J R Stone & Sons Trucking,84 Dundon Road,Clay,WV,25043,304-587-7005
Haulaway Trucking,1561 Old Athens Rd,Princeton,WV,24740,304-888-1260
Reputation Services,Hc 71 Box 700,Augusta,WV,26704,304-496-9722
Ike's Trucking,655 Poplar Ridge,Sutton,WV,26601,130-467-8303
Pk Trucking,Rr 1 Box 206,Thornton,WV,26440,304-265-4546
J C Goldizen Trucking,Hc 59 Box 188,Cabins,WV,26855,304-257-2568
Holland Truck'n,Hc 74 Box64,Sandstone,WV,25985,304-466-0003
Mountain State Trucking,203 Bryan Ave,Clarksburg,WV,26301,304-566-7108
Tyler Moutain Transport,5206 Big Tyler Rd,Cross Lane,WV,25313,304-769-5015
Smc Transport,129 E Rt 2,Fayetteville,WV,25840,304-465-9663
Joe's Wrecker Service,Route 10 Cooke Prky,Oceana,WV,24870,304-682-6469
Blankleys Auction & Tent Service,3315 Swinging Bridge Rd,Hedgesville,WV,25427,304-671-7921
Hillsboro Auto Care,Rt 219 North,Hillsboro,WV,24946,304-653-4562
C W & J Trucking Co,State Route 83 Garland,Avondale,WV,24811,304-938-5794
C & J Trucking,305 Logan Street,Rupert,WV,25984,304-767-1667
East Coast Auto Express,107 Huffman Street,Beckley,WV,25801,304-578-6655
Little Debbie,4731 Doss Hill Rd,Barboursville,WV,25504,304-544-2233
Jimmy's Hot Shot,Rr 2 Box 181a,Rivesville,WV,26588,304-278-5955
David And Son's Transport,Kitchen 26,Chapmanville,WV,25508,304-855-7405
Bandit Golf Liquidation,4301 Robert C Byrd Dr,Beckley,WV,25801,304-255-1121
City Cab And City Van Services,1200 Fayette Pike,Montgomery,WV,25136,304-442-2231
Sherrie's Transport,530 Lost Pavement Rd,Parkersburg,WV,26101,304-422-1614
Johnson Trucking,Rt 1-152,Dunlow,WV,25511,304-385-4104
D & R Well Service,6290 Procious Maysel Road,Procious,WV,25164,304-577-6364
Turner Trucking,Manheim Rd,Rowlesburg,WV,26425,304-454-2090
A-1 Trailer Sales And Distribution,99 Savannah Oaks,Ripley,WV,25271,304-372-9500
American Mobile Home Movers,7 Putney St,Charleston,WV,25306,N/A
Fike Trucking,Rr 1 Box 404,Terra Alta,WV,26764,304-789-2309
Last Chance Trucking,Vegan Road,Ellamore,WV,26267,304-472-6607
M & P Transport,Rt 3 Box 635b Henry Hollow Road,Bluefield,WV,24701,304-589-6820
Bolte Farm,1333 Ripley Road,Spencer,WV,25276-8749,304-674-6869
Circle T Trucking,Rt 1 Box 737,Peterstown,WV,24963,304-753-4238
Becker's Service Company,Hc 72 Box 66,New Creek,WV,26743,304-788-6313
Arbogast Livestock Hauling,1334 Middle Run,Weston,WV,26452,304-269-5004
Big D Trucking,Litwar Hollow Road,Iaeger,WV,24844,304-938-3680
Johnny Clark Trucking,101 Cherry Lane,Glasgow,WV,25086,304-595-4528
Little Larry Trucking,444 Kellys Creek Road,Mammoth,WV,25132,304-595-5184
D & L Trucking,Route 65,North Matewan,WV,25688,304-426-4509
B & A Trucking,Us Route 52,Roderfield,WV,24881,304-436-2955
S M C Trucking,93 Beech Branch Rd,Davin,WV,25617,304-583-3745
Addair Trucking Co,Route 16,Caretta,WV,24821,304-875-2445
Stevenson Trucking,Route 1 Box 11-c,Squire,WV,24884,276-988-2088
D And S Trucking,Rr2 Box 319,Belington,WV,26250,304-823-1261
D & P Trucking,Route 129,Drennen,WV,26667,304-872-1345
Rt 94 Preowned Auto Sales,Rt 94 South,Hernshawn,WV,25107,304-949-4460
Mcl Trucking,Route 1 Box 139,Kermit,WV,25674,304-393-4591
R Harvey Trucking,Route 97,Clear Fork,WV,24822,304-682-4094
Morton Trucking,Lizemore Road,Lizemore,WV,25125,304-587-4901
J R Trucking,Route 2 Box 476,Summersville,WV,26651,304-872-4623
C & A Trucking,Box 166,Avondale,WV,24811,304-938-3238
B D & J Trucking,Jefferson Street,Roderfield,WV,24881,304-436-4345
Rocky's Rollback & Delivery Service,1946 Horsepen Road,Hampden,WV,25621,304-664-9738
Brandon Trucking,Route 10,Cyclone,WV,24827,304-583-9464
C & L Trucking Co,Route 20 Box 193,Quinwood,WV,25981,304-438-7839
Buffalo Construction Co,305 Chestnut Hill Road,Summersville,WV,26651,304-872-6700
Hancock Garbage Service,2030 E Dupont Ave,Belle,WV,25015,304-949-2921
Rose Trucking,173 W Main Street,Ansted,WV,25812,304-658-9165
B Dry Systems,1951w 5th Avenue,Huntington,WV,25704,304-522-2379
Chase Trucking,Horse Creek Road,Panther,WV,24872,304-938-2458
Gooden Trucking Co,Route 2 Box 175,Buckhannon,WV,26201,304-472-5661
R D S Trucking,134 Stringtown Road,Hico,WV,25854,304-658-4116
Walker Trucking,Route 16,Dixie,WV,25059,304-632-2526
Boggs Trucking,1016 Cleveland Road,Hacker Valley,WV,26222,304-493-9441
T & G Trucking,Hc 61 Box 19,Paynesville,WV,24873,304-967-7122
C & T Trucking,Hc 68 Box 939,Hanover,WV,24839,304-664-9497
Ec Services,1400 Aviation Way,Bridgeport,WV,26330,304-842-9560
Ace Trucking,Route 2 Box 47a,Danville,WV,25053,304-369-5488
Vannest Used Auto Sales,Rt 1 Box 74 Aa,Ravenswood,WV,26164,304-273-9450
Central Service Station,Route 5 East,Burnsville,WV,26335,304-853-2411
D & C Trucking,220 North,Moorefield,WV,26845,304-538-8060
Upshur Automotive Service,Route 5 Box 197,Buckhannon,WV,26201,304-472-4333
Blankenship Trucking,Hc 83 Box 617,Rainelle,WV,25962,304-438-6252
Moore Trucking Ltd,Rd#3 97c,New Cumberland,WV,26047,304-723-3438
Mathias Garage,13903 Sr 259,Mathias,WV,26812,304-897-5009
J & J Trucking,Wikel Road,Lindside,WV,24951,304-832-6210
Freeman Trucking,1046 Cunningham Road,Kenna,WV,25248,304-988-0315
Moe's Hauling & Excavating,Route 1 Box 176-a,Fayetteville,WV,25840,304-574-1317
Mike Lilley Trucking,Rd3 Box 217-a,Wheeling,WV,26003,304-232-4603
Hitt Trucking,Route 2 Box 182,Jane Lew,WV,26378,304-745-4188
Kcy Trucking,Sharps Turn Road,Princeton,WV,24740,304-487-3667
Plaza Service Center,109 Lodgeville Road,Bridgeport,WV,26330,304-842-4619
Hope Vance Trucking,Rt 83,Jolo,WV,24850,304-967-7369
James Stone Trucking,6620 Summersville Lake Road,Summersville,WV,26651,304-872-6393
Dbs Trucking,Hc 62 Box 59-b,Upper Tract,WV,26866,304-358-7567
Cox's Wrecker Service,State Route 65,North Matewan,WV,25688,304-426-6608
Chaston Trucking,Route 99 Maple Meadow Mining Rd,Fairdale,WV,25839,304-934-6722
Russell Trucking,502 Lyn Creek Rd,Lavaltte,WV,25535,304-522-6174
Farris Transport,Route 119 Dog Fork Road,Chapmanville,WV,25508,304-855-7937
Shivley Trucking,7533 Hughart Drive,Sissonville,WV,25320,304-984-0503
N J R Transport,237 River Bend Drive,Birch River,WV,26610,304-649-8725
Emil Vance Trucking,Pack Fork Road,Lizemores,WV,25125,304-587-4125
Bleigh Trucking,510 Simpson Run Road,Weston,WV,26452,304-269-1286
R & S Trucking,617 Armstrong Road,Summersville,WV,26651,304-872-6557
J S Trucking,Route 3 Box 49,Belington,WV,26250,304-823-3733
Mike's Automotive Center,Route 10 Main St,Oceana,WV,24870,304-682-5853
Shoestring Trucking,Hc 66 Box 37a,Dryfork,WV,26263,304-866-6209
Greg's Discount Tire & Auto Repair,6746 Webster Road,Cowen,WV,26206,304-226-5522
L & P Services,12645 Dupont Road,Washington,WV,26181,304-863-9217
3r Trucking,Knob Road,Petersburg,WV,26847,304-358-7310
Taylor Truck & Equipment Co,5 Packing Shed Rd,Berkeley Springs,WV,25411,304-258-6820
Roger Mccoy Trucking,605 Bennett Avenue,Webster Springs,WV,26288,304-847-7601
Mill Creek Truck Repair,685 Henshaw Road,Bunker Hill,WV,25413,304-229-5898
Harmon Trucking,Route 1 Box 115,Chapmanville,WV,25508,304-855-3731
What Trucking,303 Blue Knob Road,Maysel,WV,25133,304-587-7392
Bubby's Flatbed Service,Hc 64 Box 560,Romney,WV,26757,304-822-8528
Hatfield Trucking,100 W Bridge St Lot 8,New Martinsville,WV,26155,304-455-2003
Spangler Trucking,Rr 1 Box 81 N,Poca,WV,25159,304-444-6764
Mcdonald's Wood Hauling,Rt 2 Rogers Road,Burlington,WV,26726,304-289-3561
Shields Trucking,Route 2 Box 270,Salem,WV,26426,304-782-4551
F & J Trucking,Route 219,Valley Head,WV,26294,304-339-6241
Big T Trucking,76 Walnut Street,Webster Springs,WV,26288,304-847-7373
Holmes Trucking,Box 466 Jim Ridge Road,Leon,WV,25123,304-586-4048
C & G Trucking Co,2 Goff Road,Hilltop,WV,25855,304-469-6425
Crystal Trucking,974 Wills Creek Road,Elkview,WV,25071,304-965-0715
Es&k Trucking,Rt 1 Box 199,Farmington,WV,26571,304-287-2225
Aj's Trucking,Hc 71 Box 49,Orma,WV,25268,304-655-8514
Mountain Movers,Route 123 Airport Road,Bluefield,WV,24701,304-327-7427
R M C Trucking,99 Valley Street,Romney,WV,26757,304-822-4170
C S T Trucking,1656 Missouri Run Road,Cowen,WV,26206,304-226-5173
Satterfield Trucking,Route 20 Brush Run Road,Reader,WV,26167,304-386-4223
J & S Trucking,60 B Erbacon Road,Cowen,WV,26206,304-226-8612
Butcher's Motor Service,Hc 73 Box 16,Riverton,WV,26814,304-567-2330
R & S Trucking,581 Pack Fork Road,Lizemore,WV,25125,304-587-2904
Chad A Ryder Trucking,Route 2 Box 119a,Buckeye,WV,24924,304-653-2007
Gp Service & Sales,216 Seneca Trail,Ronceverte,WV,24970,304-645-7378
J D Trucking,Hc 67 Box 50,West Union,WV,26456,304-873-1145
Dacota Trucking,Us 60 West,Ansted,WV,25812,304-658-5095
Tom's Taxi Service,528 Philippi Pike,Clarksburg,WV,26301,304-622-0590
Wise Transportation Services,604 6th Street,Moundsville,WV,26041,304-843-1995
J P Auto Service,Lochgelly Road,Lochgelly,WV,25866,304-640-2310
Collins Trucking,Route 82 East,Birch River,WV,26610,304-649-5909
Randall Marsh Trucking,Unknown,Tunnelton,WV,26444,304-568-2076
Prince Trucking,66 Old Homestead Lane,Heaters,WV,26627,304-765-7085
Ron Evans Trucking,Hc 80 Box 156,Maysville,WV,26833,304-749-7324
J S Trucking,293 Edna Gas Road,Morgantown,WV,26501,304-282-7786
B & J Trucking,266 Pumpkin Ridge Road,Procious,WV,25164,304-587-2663
A J Trucking,Bull Creek Road,Mohawk,WV,24862,304-938-3680
Browns Quality Transport,294 Rada Avenue Pobx 492,Weston,WV,26452,304-269-1920
K & V Trucking,Route 3 Box 147,Elkins,WV,26241,304-636-5178
Sizemore Trucking,457 Samples Road,Bomont,WV,25030,304-548-5831
Haneys Transport,542 Cedar Road,Crab Orchard,WV,25827,304-253-6895
Hornor Water Well Drilling,147 Lunsford St,Weston,WV,26452,304-269-6069
E & L Trucking,Brier Branch Road,Mohawk,WV,24862,304-938-5063
Gordon Trucking,Rr 1 Box 127-b5,Dunmore,WV,24934,304-799-6218
Express Cab Co,5267 Route 60 East,Huntington,WV,25705,304-736-0717
Harris Transfer,2012 N 20th Street,Clarksburg,WV,26301,304-622-0502
Bronzel Cottrill Trucking,Laurel Run Road,Rosedale,WV,26636,304-364-8155
Powers Welding & Trucking,Rt 1 Box343-a,Fort Gay,WV,25514,304-648-7377
Rook & Girls Transport,Route 2 Box 154-a,Harts,WV,25524,304-855-3734
Double B Trucking,Route 1 Box 337,Ronceverte,WV,24970,304-667-2046
Economy Used Auto Parts,Rd 3 Box 238 B,Moundsville,WV,26041,304-845-6651
Real Tree Trucking,Hc 64,Gallagher,WV,25083,304-595-5144
Nichols Mobile Home Movers,General Delivery,Victor,WV,25938,304-658-4555
Crigler Trucking,9318 South Fork Rd,Moorefield,WV,26836,304-434-2512
R L Rife & Sons Auto Repair,702 Clark Street,Shinnston,WV,26431,304-592-1560
Shelton Trucking,4952 Coal River Rd,Arnett,WV,25007,304-934-7851
J Rods Vending Service,Route 250 / 219,Valley Bend,WV,26293,304-338-4151
Daves Auto Repair,Rt 1 Box 244 - Kasson Road Rte 93,Moatsville,WV,26405,304-457-1205
Custom Mobile Home Service & Set Up,Route 219 N,Montrose,WV,26283,304-636-0398
T And C Trucking,143 Brown Church Road,Van,WV,25206,304-245-8140
Goods Electrical Service,872 Airport Rd,Martinsburg,WV,25401,304-263-7709
J & M Transport,Rr # 3 Box 213a,Wheeling,WV,26003,304-280-5500
General Labor Services,9434 Winchester Avenue,Bunker Hill,WV,25413,304-229-4794
Yellow Cab,125 8th Avenue,Huntington,WV,25701,304-529-2544
Hamrick Transport,156 Forest Park,Webster Springs,WV,26288,304-847-7229
Ransom's Trucking,135 Trace Ct,Ghent,WV,25843,304-787-3733
Burner Trucking,Hc 63 Box 100,Arbovale,WV,24915,304-456-5515
D & D Trans,3406 34th St,Nitro,WV,25143,304-755-8962
Frankfort Electrical Services,Route 2 Box 478f,Ridgeley,WV,26753,304-726-7199
Dave's Auto,State Route 14,Elizabeth,WV,26143,304-275-1000
J & K Services,Bluestone Hills,Flat Top,WV,25841,304-787-9814
Rick's Trucking,137 Edna Gas Road,Morgantown,WV,26501,304-983-8019
Samuels Transport,512 D Street,South Charleston,WV,25303,304-720-7261
Snow's Sanitation Service,Main Street,Osage,WV,26543,304-599-8855
Buckshot Farm,Hc 69 Box 10,Valley Head,WV,26294,304-339-6695
Cline & Cline Steam Jenny Service,Route 13,Baisden,WV,25608,304-664-3473
J P's Hauling,1213 Mike Ashton Road,Hedgesville,WV,25427,304-754-7229
P & C Trucking,57 Maitland Circle,Welch,WV,24801,304-436-5240
Williams Trucking,Box 98 Latimer Street,Reedy,WV,25270,304-927-4490
Jm Auto Repair,Route 4 Box 40a,Ripley,WV,25271,304-372-7023
City Van Service,319 Ferry Street,Montgomery,WV,25136,304-442-2231
Skid Steer Services,1980 Quarry Road,Bunker Hill,WV,25413,304-229-0829
D & S Hauling,322 Sycamore St,Gassaway,WV,26624,304-765-5115
Xat Trucking,141 Mallard Way,Princeton,WV,24740,304-952-9231
Jackie Walls Trucking,Rt 10,Lyburn,WV,25632,304-752-5976
Skip's Transport,588 Point Mountain Rd,Webster Springs,WV,26288,304-644-5292
J & T Hauling,162 Wilson Avenue,Lumberport,WV,26386,304-584-4566
Tri County Pre-owned Auto Sales,Kanawha Avenue,Reinelle,WV,25962,304-392-5767
T & S Trucking,32 Baxter Street,Elkins,WV,26241,304-637-0023
J & J Pool Service,Hc 81 Box 36a Pine Grove Road,Lindside,WV,24951,304-753-9081
K & A Trucking,Rt 52 Walnut Street,Justice,WV,24851,304-664-3337
Tam Tam Trucking,142 Diana Drive,Webster Springs,WV,26288,304-847-7553
J M Trucking,Route 52,Premier,WV,24878,304-436-3250
C & C Trucking,154 Paynesville Road,Webster Springs,WV,26288,304-847-5177
John's Auto Sales,Rt 1 Box 152,Griffithsville,WV,25523,304-524-7900
K&b Trucking,Rt 52 Trail Hollow,Iaeger,WV,24844,304-938-3243
Purgatory Ranch Trucking,1043 Spielman Road,Berkeley Springs,WV,25411,304-258-9750
Hillbilly Haulin,Hc 63 Box 1014,Panther,WV,24872,304-938-0077
Brt Trucking,Rt 2 Box 30,Burlington,WV,26710,304-289-3395
Family Trucking,8 Cooper Street,Rock Cave,WV,26234,304-924-5693
K M L Trucking,Route 6 Box 659,Clarksburg,WV,26301,304-623-2626
M & H Trucking,Rt 1 Box 171,New Martinsville,WV,26155,304-455-5188
B-j Used Auto Sales,4097 Dixie Highway,Lizemore,WV,25125,304-632-0112
Bostic Trucking,Hc 66 Box 238,Renick,WV,24966,304-661-1838
S E Trucking,Hc 81 Box 328,Hernshaw,WV,25107,304-949-4768
C&m Carriers,161 N Ridge Rd,Ripley,WV,25271,304-532-4797
Cmb Transport,H C 69 Box 255,Ft Segbert,WV,26802,304-249-5377
K&d Trucking,Route 16,Lizemore,WV,25125,302-629-5090
Bolens Trucking,1335 N Sandbranch Rd,Mount Hope,WV,25880,304-877-0593
Parsons Trucking,285 Trace Fork Road,Branchland,WV,25506,304-778-3804
R A Express,Rt 2 Box 382,Fairmont,WV,26554,304-363-5608
Jerry E Campbell Trucking,Box 713 Long View Drive,Union,WV,24983,304-772-5524
J A M - 1 Trucking And Excavating,Rt 3 Box 281h,Hurricane,WV,25526,304-722-1238
Chase Trucking,Route 52,Kimball,WV,24853,304-585-7995
Ba Berg Trucking,Hc 30 Box 2021,Maysville,WV,26833,304-749-8607
D & R Trucking,904 Mel Street,Charleston,WV,25312,304-346-8006
Kool Water Hauling,6 Megan Lane,Apple Grove,WV,25502,304-576-2919
J & J Trucking,Hinkle Hollow Rd,Dorcas,WV,26847,304-257-9700
Acf Trucking,5701 Starling Dr,Charleston,WV,25306,304-925-6242
Gorbey Trucking,1659 Hillcrest Road,Fairmont,WV,26554,304-368-1220
Dobbins Trucking,401 North Hill Rd,Sutton,WV,26601,304-765-5512
B & J Autosales,Rt 1 Box 129,Tunnelton,WV,26444,304-568-2915
Fred's Auto Sales,P O Box 982,Summersville,WV,26651,N/A
Dorothys Trucking,1433 Chaplin Road,Morgantown,WV,26501,304-983-2308
Mountain Home Group,P O Box 2151,Beaver,WV,25813,540-322-1858
"K L Trucking, Inc.orporated",3997 Amma Road,Amma,WV,25005,304-565-3069
Michael Jozwick Trucking,Rt #1 Box 420 Long Run Road,Salem,WV,26426,304-782-4887
Gsd Trucking,Route 41,Maplewood,WV,25874,304-438-8854
George Brothers Trucking,Hc 69 Box 256d,Fort Seybert,WV,26802,304-249-5034
J P Transport,Rt 3 Box 1409,Wayne,WV,25570,304-272-6616
Charlie's Auto Repair,115 Selman Road,Cowen,WV,26206,304-226-3423
Ruth Trucking,5 Gibson Street,Masontown,WV,26542,304-864-3032
Jennings Trucking,P O Box 3298,Bluewell,WV,24701,304-589-7208
D&d Trucking,Po Box 263,Cowen,WV,26206,304-226-3886
D & L Trucking,Rt 3 Box 1010 Poole Rd,Hedgesville,WV,25427,304-258-9387
R B M Express,515 Hazelwood Ave,Stonewood,WV,26301,304-622-0562
Ecf Trucking,31 Damron Dr Ste 1,Williamson,WV,25661,304-235-0944
J&p Trucking,Hc 85 Box 58 A,Fisher,WV,26818,304-434-2744
Tycor Distributions,R 301 Buffalo Road,Kenova,WV,25530,304-429-2008
Jacob's Harvest Hauling,Stony Run Road,Keyser,WV,26726,304-788-0343
Tomago Trucking,39 Craigs Run Road,Rivesville,WV,26588,304-278-9857
Rajj Trucking,2008 Oak Hill Park,Harpers Ferry,WV,25425,304-725-1451
Premier Express,3650 Grant Street,Weirton,WV,26062,304-748-5949
A & P Trucking,Route 20,Craigsville,WV,26205,304-742-6411
K A D Truckin,Rt 1 Box 296,Bluefield,WV,24701,304-487-2614
G&g Trucking,Fran 15 Ave,Reynoldsville,WV,26422,304-622-6521
Mcgowan Trucking & Excavation,109 Hermoor Dr ,Weiston,WV,26062,304-564-3667
Rowlett Trucking,258 Cemetery Road,Ripley,WV,25271,304-273-0328
L & F Septic Service,39 Honey Suckle Lane,Hamlin,WV,25523,304-824-7039
Mills Trucking,Rt 2 Box 2405-a,Wayne,WV,25570,N/A
Mtv Trucking,Rt 55 Persinger,Summersville,WV,26651,304-872-2781
Re Smith Trucking,R1 Box 306,Charles Town,WV,25425,304-725-6176
R A Robertson Trucking,H C 86 Rt 28 South,Springfield,WV,26763,304-788-1808
Cress Trucking,Route # 1 Box 144,Masontown,WV,26542,304-864-4002
Williams Truck Leasing,113 Cranberry Pointe Way,Beckley,WV,25801,585-534-9492
Swisher's Trucking,Rr #1 Box 39d,Baker,WV,26801,304-897-7117
"Mountain Brake And Service, Inc.",Rt 3 Box 479,Bluefield,WV,24701,304-589-7536
L And J Mobile Home Movers,Rt 1 Box 410,Genoa,WV,25517,304-272-6710
Mac's Hauling,Pink Dogwood Ave Lot 24 C,Hedgesville,WV,25427,304-754-9090
T & A Trucking,P O Box 383,Powellton,WV,25161,304-442-6198
Hd's Mobile Home Movers,William Pokey Road,Warriormine,WV,24894,304-875-3088
Gary Mowery Trucking,Hc 30 Box 217,Maysville,WV,26833,304-749-8567
Hinger Trucking,378 Stump Lane,Moorefield,WV,26836,304-434-2481
C S Shade Trucking,1166 Douglas Grove Island,Martinsburg,WV,25401,304-262-8571
Mobile Container Service,4458 20th Ave,Parkersburg,WV,26103,304-422-5286
E T Trucking,Hc 74 Box 3041-g,Chapmanville,WV,25508,304-855-9590
A C Phillips Trucking,5752 Specks Run Road,Bunker Hill,WV,25413,540-336-6127
Woodfairie Trucking,1286 Peachtree Rd,Naoma,WV,25140,304-854-1920
Dandy Services,640 Beechlick Rd,Horner,WV,26372,304-269-5958
A & L Trucking,322 Hall St,Wayne,WV,25570,304-272-3184
4-j Trucking,Old N&w Ailroad Rd Rt 152,Dunlow,WV,25511,304-385-4999
Mancuso Trucking,81 Arthur Road,Reedsville,WV,26547,304-864-4607
J & J Trucking,Vaughn Route,Gauley Bridge,WV,25085,304-632-2517
L & L Trucking,Hcr 68 Box 58,Iaeger,WV,24844,304-938-2105
Davis Trucking,Route 18 South,West Union,WV,26456,304-873-2659
Chandler Hauling & Transport,5301 Keith Dr,Charleston,WV,25313,352-486-6438
Smalley Transport,634-b Cross Lanes Dr,Nitro,WV,25143,304-755-1494
J & P Trucking,8034 Valley Rd,Berkeley Springs,WV,25411,304-258-6427
Mountain State Transport,117 S Main St,Moorefield,WV,26836,N/A
D & K Trucking,Hc 78 Box 168,Augusta,WV,26704,304-822-7741
Triple T Trucking,185 Camden Ave,Buckhannon,WV,26201,304-473-0701
Donahue Trucking,42 Valley View Dr,Huntington,WV,25704,304-429-6659
J L Trucking,46 Overlook Dr,Parsons,WV,26287,304-478-8667
Ras Trucking Company,Rt 1 Box 402,Fort Gay,WV,25514,304-648-8396
Ramey's Auto Repair,4360 Sulphur Springs Road,Kearneysville,WV,25430,304-728-9519
R & M Trucking,Rd 1 Box 56 Golden Ridge Rd,Dallas,WV,26036,N/A
Campbell Wrecker Service,Rt 612,Scarbro,WV,25917,304-465-0652
Willis Trucking,Hc 84 Box 57-d,Keyser,WV,26726,304-813-0470
C & G Hauling,487 Thoreau Dr,Inwood,WV,25428,304-229-6818
Lindsey's Transport,Rt 1 Box 373,Peterstown,WV,24963,304-753-5655
Luttrell's Trucking,319 Spring Ave,Moorefield,WV,26836,304-538-3747
Fisher's Trucking,Rd #3 Box 222 Aaa Sorhgum Rd,Wheeling,WV,26003,304-233-9631
Sirk Trucking,Little Capon Mountain Road,Augusta,WV,26704,304-496-1648
Fifth Wheel Express,114 File Drive,Beckley,WV,25801,304-252-9923
Village Auto Sales,5133 Rt 10,Barbousville,WV,25504,304-736-0809
Big G Trucking,Cabin Creek Road,Cabin Creek,WV,25035,304-595-1951
Donlin Trucking,Highland Park Road,Second Creek,WV,24974,304-647-9964
Fortner Trucking,Rt 1 Off Rt 52,North Spring,WV,24869,304-664-2556
Hillbilly Auto,Rt 1 Box 132,Hinton,WV,25951,304-573-3838
Breeze Trucking,Mccomas Creek Road,Dunlow,WV,25511,304-385-4253
Miracle Trucking,184 Warm Hollow Road,Morgantown,WV,26508,304-599-7062
Marty's Truck Repair,Rt 2 Box 197,Bluefield,WV,24701,803-210-6450
Giddy Up's Trucking,Hc 32 Box 10,Birch River,WV,26610,304-649-2727
T-n-t Hauling,1890 Myerstown Rd,Charles Town,WV,25414,304-728-3926
Frazier Trucking,P O Box 58,Greenviile,WV,24945,304-832-6080
Curts Hauling & Excavatng,1078 Hardins Run Road,New Cumberland,WV,26047,304-564-3901
Double B Hauling,Rt 5,Burning Springs,WV,26141,304-275-0444
Boyd Trucking,207 Dunbar Ave,Dunbar,WV,25064,N/A
Roach Auto Parts,3654 Caville Cr Rd,Barboursville,WV,25504,304-824-5252
John Shafer Trucking,Route 2 - Box 304,Morgantown,WV,26505,304-983-8340
"Robco Mine Service, Inc.",Rt 10 Stollings Road,Stollings,WV,25646,304-752-7101
Watkins Hauling & Contracting,Rt 1 Box 594,Princeton,WV,24740,304-325-8251
D & A Trucking,Rt 3 Box 122aa,Morgantown,WV,26505,304-296-2938
Freeland's Auto Center,2127 Dupont Road,Parkersburg,WV,26103,304-463-5310
Buckland Trucking Co,Rt 1 Box 54a,Shady Springs,WV,25918,304-763-4096
Rankay Trucking,Rt 2 Box 230,Fort Gay,WV,25514,304-648-5115
Eddie's Service Center Wrecker Service,Route 219 North,Marlinton,WV,24954,304-799-6651
Jack Rabbit Trucking,Box 66,Coal Mountain,WV,24823,304-583-7521
R V Trucking,Box 419,Iaeger,WV,24844,304-938-2002
Dale's Auto Repair,1 Estill Street,Princeton,WV,24740,304-487-1291
Highway Sales & Service,Rt 2 Box 383 Ef,Morgantown,WV,26505,304-983-2132
Scamp Trucking Company,Bailes Rd,Nettie,WV,26681,N/A
Ercoline Nissan,Rt 6 Box 11-d,Princeton,WV,24740,304-327-0511
William R Vance Trucking,137 Bratton Ave Apt 10 H,Princeton,WV,24740,304-487-2757
Hulloc Enterprise LLC,Rr 9 Box 342a,Buckhannon,WV,26201,304-472-2856
A And W Trucking,Rt 1 Box 278,Worthington,WV,26591,304-287-2213
T & C Refrigeration Service,132 Cemetary Drive,Beaver,WV,25801,304-255-4341
Williamson Transportation Services,Rt 6 Box 6356,Keyser,WV,26726,304-788-5631
Poole's Auto Repair Service & Rebuilders,Cannonhill Rd,Hedgesville,WV,25427,304-754-9554
B C K Trucking,1335 Stewardstown Rd Office N7,Morgantown,WV,26505,N/A
James Prunest Trucking,Rt 1 Box 162-a,Beckley,WV,25880,304-877-3717
Fred Bett Trucking,Rt 2 Box 246,Fort Gay,WV,25514,304-648-7026
Deming Trucking,14 Wilson St,Ravenswood,WV,26164,304-273-0505
"Robert W Bateman Trucking, Inc.",2002 Mt Vernon Ave,Point Pleasant,WV,25550,304-675-3669
Shrewsbury Trucking,106 Middlesex Ave,Princeton,WV,24740,304-425-4329
Cly Trucking Company,Route 50 Box K,Burlington,WV,26710,304-289-6009
Harts Auto Wrecking,21 Salvage Ln,Parkersburg,WV,26105,304-295-8887
Amos Trucking,Rt 2,Bridgeport,WV,26330,304-592-1952
A & C Carriers,366 Gilmore Street,Morgantown,WV,26505,304-296-4407
Fikes Trucking,310 Park Dr,Pennsboro,WV,26415,304-659-2374
D & C Trucking,Arrons Creek Road,Morgantown,WV,26505,304-292-0673
D A T Wrecker Service,4621 Midland Trail W,Charmco,WV,25958,304-438-7395
D P Trucking,Easton Road,Morgantown,WV,26505,304-284-8696
Hays Trucking,115 Elk Drive,Elkview,WV,25071,304-965-6753
M & M Trucking,Laurel Point Rt 19,Morgantown,WV,26505,304-983-2598
B & D Trucking,4097 Fairmont Road,Morgantown,WV,26501,304-278-7866
D & N Trucking,1013 Davy Dr,Falling Waters,WV,25419,304-274-3695
Blacks Auto Repair,Rt 19 North At Pursglove,Pursglove,WV,26546,304-599-5239
"E & K Trucking, Inc.",P O Box 816,Ft Gay,WV,25514,304-393-1130
J&b Trucking Company,P O Box 15255,Marmet,WV,25365,N/A
Robbie Trucking,County Route 6,Meador,WV,25682,304-426-6057
Aaa Appliance Sales & Service,Rd #3 Box 31,Moundsville,WV,26041,304-845-9079
D And P Trucking,Po Box 4065,Clarksburg,WV,26301,N/A
Trini-ty Trucking,287 Seneca Trail,Ronceverte,WV,24970,304-645-1415
K & T Hauling,Box 235 Deerfield Lane,Bunkerhill,WV,25413,304-229-3541
Moonlight Trucking,Rt 1 Box 146,Dunmore,WV,24934,304-456-4959
Haines Truckin,Green Spring Valley Rd,Springfield,WV,26763,304-822-5666
Chase Trucking,92 Davison Route,Gassaway,WV,26624,304-364-4455
Foster Trucking Co,104 Route 19,Hurricane,WV,25526,304-562-6732
Morris Trucking Co,89 Davison Rt,Gassaway,WV,26624,304-364-4444
Dew Trucking Ptr,Rt 38 Nestorville,Nestorville,WV,26405,304-457-3765
Gene's Auto & Trailer Sales,Hc 88 Bx 121,Ripley,WV,25271,304-372-3478
W Koontz Jr General Hauling,400 Maple Ave,Moorefield,WV,26836,304-538-7608
Liston Trucking,P O Box 484,Reedsville,WV,26547,304-864-6895
Morris Mail Service,Rt 1 Box 234,Flemington,WV,26347,304-842-7242
Buckley's Auto,Hc 63 Box 310,Romney,WV,26757,304-822-5555
Bpb Transport,Genral Delivery,Calvin,WV,26660,616-467-7150
D & R Trucking,Taplin Wv Route 10,Lyburn,WV,25632,304-583-2299
Smoot Trucking,Hc 78 Box 1910,Shanks,WV,26761,304-496-8819
T C B Trucking,148 Riverview Dr,Saint Albans,WV,25177,304-727-1126
B&o Trucking,Po Box 69 Thaeker Hollow,Edgarton,WV,25672,606-456-4811
Marc's Auto & Machine Desperado Race Engineer,16 Cleveland Ave,Westover,WV,26505,304-292-8310
M D Taylor Heavy Hauling,P O Box 81,Rippon,WV,25441,304-728-9845
Jorell Trucking Co,St Rt 85,Kopperston,WV,24854,304-682-4998
Little T Trucking,Hc 68 Box 931 Rt 97,Hanover,WV,24839,304-664-9647
Hardly Nuthin Trucking,Dry Branch,Wharton,WV,25208,304-247-6341
Toney Trucking,Exit 54 Off I 77,Pax,WV,25904,304-877-5177
Mccallister Trucking,3189 Straight Fk,Alkol,WV,25501,304-524-2991
Dreamchaser Transportation,4873 Sissonville Dr,Charleston,WV,25312,304-342-0395
R & W Trucking,9753 St Rt 10,Midkiff,WV,25540,304-778-3561
Jaspers Wrecker Service,Rt 16 Box 90,Warriormine,WV,24894,304-875-4402
Wiley Trucking,8711 Oregon Ave,Marmet,WV,25315,304-949-4458
Tom Cool Trucking,1800 Airport Road,Sutton,WV,26601,304-765-7222
Shagaroo Trucking,Coon Branch Road,Iaeger,WV,24844,304-938-5267
G & L Trucking,Route 1 Box 73a,Tunnelton,WV,26444,304-892-3312
Cb Rollback & Delivery Service,Rt 10,Oceana,WV,24870,304-682-8383
R & J Trucking,3701 Norwood Road,Huntington,WV,25705,304-523-0743
P J Transport,Rt 129,Drennen,WV,26667,304-872-1345
B & S Trucking,Route# 1 Box 128 A,Newburg,WV,26410,304-892-3288
J&m Trucking,540 Burlington Road,Huntington,WV,25704,304-522-0909
Tommie Mullins Trucking,Rt 10 3 Mile Curve,Stollings,WV,25646,304-239-2792
"Smith Transport, Inc.",5315 Big Sandy Road,Prichard,WV,25555,304-486-5108
R E K Trucking,Rt 50,Mount Storm,WV,26739,304-693-7416
A & M Distributors,Hc 63 Box 460,Romney,WV,26757,800-280-4869
Highs Don't Cuss Call Us Car & Truck Removal,Nestles Quarry Road,Falling Waters,WV,25419,304-274-0239
K-m Trucking,Hc 32 Box 285,Petersburg,WV,26847,304-257-1757
Phillips Trucking,Rt 85,Bob White,WV,25028,304-245-6025
Dll Heavy Hauling,Rt 5 Box 173,Morgantown,WV,26505,304-284-9544
Gauley Mountain Freight,Pine Street Us Rte 60 East,Ansted,WV,25812,304-658-4509
Franco Transpsort,Rt 10,Oceana,WV,24870,304-682-8136
Stagecoach Trucking,Lot 36 Ahalt Dr,Skyline Orchards,WV,25414,304-725-8068
Jeffrey Excavating & Septic Service,Rt 17,Jeffrey,WV,25114,304-369-3990
Tom's Auto Sales,Rt 11 N,Martinsburg,WV,25401,304-263-7887
Stairweld Trucking,Hc-83 Box 45-f,Union,WV,24983,304-772-3511
Ben's Auto Sales,4220 Mason Dixon Hwy,Core,WV,26541,304-879-5213
R A M Trucking,51 Byrd Lane,Sweetland,WV,25523,304-524-7397
D And D Transport,Shen Jct Rd20 Lot 30/wtc Hzl,Shenandoah Jct,WV,25442,304-728-3113
Mcclurg Trucking,Lawles Road,Morgantown,WV,26505,304-278-9890
Field Mechanic,Route 1 Box 76,Greenville,WV,24945,304-832-6868
Price Trucking,446 3rd Avenue W,Madison,WV,25130,304-369-2872
Mountain State Flatbed,154 Stonewall Rd,Piney View,WV,25906,304-253-1865
Randy Rohrbaugh Trucking,8906 Hwy 42 South,Maysville,WV,26833,304-749-8170
Jim S Trucking,34 Camden Ave,Sutton,WV,26601,304-765-2456
Clay's Auto Transport,3171 West Dupont Ave,Belle,WV,25015,304-926-6411
James T Haynes Trucking,123 Airport Rd,Bluefield,WV,24701,304-325-7185
Van Clief's Trucking,2624 Henderson Ave Apt 12,Hurricane,WV,25526,304-562-0426
Too Tall Trucking,Hc 33 Box 3945,Petersburg,WV,26847,304-257-2305
Dwayne Kerns Trucking,Rt 5 Box 371 A,Buckhannon,WV,26201,304-472-0339
Stormy's Trucking,865 Hurricane Ridge Rd,Bluefield,WV,24701,304-589-5136
Caveman Trucking Co,Bratton Ave,Princeton,WV,24740,304-487-6456
Chris Whetzel Trucking,Rr 28 Quaill Hill Subdivision,Petersburg,WV,26847,304-257-9447
C & C Trucking,119 Regal Court,Princeton,WV,24740,304-487-0569
Tri State Transport,129 Yeager Drive,Williamson,WV,25661,304-235-3522
Frank Sinclair Trucking,Rt 1 Box 199a,Newburg,WV,26410,304-892-3813
Cecil Trucking,Route 2 Box 406a,St Marys,WV,26170,304-684-9446
4-j Trucking,225 Old Bluefield Rd,Princeton,WV,24740,N/A
C & D Walker Trucking,124 Cass Lane,Cool Ridge,WV,25825,304-228-5230
D & W Trucking,Wilfong Road,Rosemont,WV,26424,304-739-2391
Summers Trucking,Cherry Run Rd,Grafton,WV,26354,304-265-0348
General Truck Leasing Co,3100 Maccorkle Avenue Sw,South Charleston,WV,25303,304-744-1321
Adkins Delivery Service,Rt 10-s Midway Plaza Mall,Wilkinson,WV,25653,304-752-6663
Colonial Court Service Station,43 So Randolph Ave,Elkins,WV,26241,304-636-0447
J N T Trucking,Hc 66 Box 291 C,Renick,WV,24966,304-497-0842
Ratliff Trucking,Rt 49 Sulfer Creek Rd,Matewan,WV,25678,304-426-6576
Donna Kay Trucking,Justice Subdivision,Varney,WV,25696,304-426-8335
Four A's Trucking,Rt 1 Box 158,Meadow Bridge,WV,25976,304-484-7889
J & H Trucking Co,5 Majestic Acres,Independence,WV,26374,304-892-3813
Debbie White Trucking,Chenoweth Creek Road,Elkins,WV,26241,304-636-9792
A & J Trucking Company,3735 Thorofare Road,Clendenin,WV,25045,304-548-5837
Suthard Transport,Hc 30 Box 733,Maysville,WV,26833,304-693-7288
Damron Trucking Co,5383 Mt Vernon Ridge Rd,Huntington,WV,25704,304-523-0636
Hard Times Trucking,102 South Stonewall St,Sutton,WV,26601,304-765-3255
J & J Trucking,Old Monongah Road,Fairmont,WV,26554,304-534-3396
Sanders Trucking,Rt # 2 Wilson Creek Road,Wayne,WV,25570,304-272-5346
E - Z Moving Co,Hc 64 Box 1425,Romney,WV,26757,304-822-7514
Guardian Auto Glass,100 Plaza Drive,Beckley,WV,25801,304-255-7195
Tri-state Mobile Home Movers,5136-a Lower Heath Creek Rd,Barboursville,WV,25504,304-733-4346
Tiffany Trucking Ii,Rt 2 Box 110f,Danville,WV,25053,304-369-3620
Sexton Services,Rt 1 Box 441-a,Bluefield,WV,24701,304-589-7682
Waugh's Mobile Home Moving Sales & Service,3720 Valley Road,Berkeley Springs,WV,25411,304-258-5001
J & K Trucking Co,650 Main St,West Milford,WV,26451,N/A
C & D Wrecker Service,205 Peck St,Clarksburg,WV,26302,304-622-8685
Little C Trucking,Route 85,Cazy,WV,25208,304-245-8566
B & D Trucking,Herndon Heights,Herndon,WV,24726,304-294-4325
J D Belcher & Son Trucking,Route 97,Brenton,WV,24818,304-732-9498
Automotive Engineering,Rt 1 Box 298-a,Washington,WV,26181,304-863-9156
River Ridge Trucking,Hc 78 Box 384,Pipestem,WV,25979,304-466-1416
Diversified Pro Delivery,Hc 75 Box 95a,New Creek,WV,26743,304-749-7757
Jls Transport,Route 28,Cabins,WV,26855,304-257-9281
Leedy Trucking,Rt 85 S,Wharton,WV,25208,304-247-6414
Small Town Trucking,105 Clay Street,Harpers Ferry,WV,25425,304-535-1286
Collins Trucking Co,Box 415,Bradshaw,WV,24817,304-967-7904
W & J Trucking,4011 Adams Street,Weirton,WV,26062,304-748-1218
Usa Raft And Appalachian Wildwaters,Buffalo And Catherine Streets,Rowlesburg,WV,26425,304-454-2475
Trinity Industries,Rt 35 Morgans Landing,Winfield,WV,25213,304-755-0183
Michael Trucking,Po Box 269,Arthurdale,WV,26520,304-864-7887
Tom Rule Trucking,Ballard St,Webster Springs,WV,26288,304-847-2315
Mike's Automotive,Rt 2 Box 308-8,Elkins,WV,26241,304-636-3868
Johnson Trucking,Rt 52,Gilbert,WV,25621,304-664-3090
Long's Transport,Rt 28 S Corner's Rd Sky Valley,Cabins,WV,26855,304-257-9382
Jackson & Sons Trucking,Hc 81 Box 62,Peterstown,WV,24963,304-753-5614
Bennett Trucking,Rt 28-33 2nd House From P O,Riverton,WV,26814,304-567-4000
Ours Auto Sales,474 Waugh Road,Berkeley Springs,WV,25411,304-358-1857
Ronnie W Smith Trucking,Pennroil Rd,New Creek,WV,26743,304-289-3048
Kanawha Valley Air Freight,219 Virginia St E 202,Charleston,WV,25301,304-343-4544
Swim Trucking,Old Oakdale Rd Rt 4 Bx 719,Princeton,WV,24740,304-425-3493
Sims Trucking Co,General Deliver,Spring Dale,WV,25986,N/A
Fred Bane Trucking,Rd #1 Box 119,Glen Easton,WV,26039,304-686-2484
Pentoney Trucking,Rt 2 Box 64,Berkeley Springs,WV,25411,304-258-1146
Magnolia Distributing Co,249 N State Route 2,N Martinsvlle,WV,26155,N/A
Maphis Distributing Co,455 Center St,Romney,WV,26757,N/A
Floyd Sexton Trucking,Rt 1 Box 626,Fort Gay,WV,25514,304-648-8237
Widener Trucking,151 Snake Fork Rd,Duck,WV,25063,304-286-5802
Grahams Concrete Service And Supply,2530 Main St,Hurricane,WV,25526,304-562-6772
"Raines Lumber Company Trucking, Inc.",Rt 1,Fort Gay,WV,25514,N/A
Walker Trucking,2007 Ridgelawn Drive,Kenova,WV,25530,304-453-1705
Fifty-two Transit Co,Po Box 336,Kermit,WV,25674,N/A
D & J Trucking,Box 50 Camp Harmison Dr,Berkeley Springs,WV,25411,304-258-2765
B B & T Auto Crushers,Rt 1 Box 79 B,Tunnelton,WV,26444,304-892-4490
R L Bender Trucking,Hc 69 Box 3a,Frametown,WV,26623,304-364-4070
W C Trucking,1888 Kelly Island Road,Martinsburg,WV,25405,304-264-8640
Gwc Trucking,Box 130,Mount Storm,WV,26739,304-693-7404
Morrison Trucking Co LLC,Walmart Drive,Ripley,WV,25271,304-273-5859
Hamrick Block&brick,822 Broad St,Summersville,WV,26651,304-872-3324
Kile Trucking,U S Route 220 South,Petersburg,WV,26847,304-257-5298
Ralph E Miller Trucking,Parker Hollow Road,Baker,WV,26801,304-897-5786
Jane Lew Hot Shot Co,6610 Main Street,Jane Lew,WV,26378,304-884-7038
Dale Dunn Trucking,Rt 7 Box 210,Morgantown,WV,26505,304-594-1508
David Nestor Trucking,Rt 270 Grant View Acres,Lost Creek,WV,26385,405-283-0698
Panther Trucking,781 Lower Glade Creek Road,Summersville,WV,26651,304-872-6132
Mountain Top Hauling,Rt 1 Box 140-4,Elkins,WV,26241,304-940-2635
Clay Trucking,1407 West Riverview Drive,Belle,WV,25015,304-949-2362
C & W Trucking,Rt 1 Box 157b,Beckley,WV,25801,304-877-3284
M & J Trucking Co,Box 42 Toney's Branch,Bloomingrose,WV,25024,304-837-8633
Arbogast Trucking,Buckhannon Mt Rd,Horner,WV,26372,304-472-3358
Blackburn Trucking,Old Eccles Road,Beckley,WV,25801,304-252-9040
Mountaineer Transportation,One Sedgewick St,Buckhannon,WV,26201,N/A
Jack Jochum Truck Service,29 Ruby Avenue,Wheeling,WV,26003,304-232-5031
Buckskin Trucking,Route 2 Box 73b Wikel Road,Greenville,WV,24945,304-832-6414
Peerless Mining & Industrial Services,Rt 219 South,Dailey,WV,26259,304-338-6218
Van Meter Trucking,Hc 59 Box 161,Cabins,WV,26855,304-257-1978
L T D Trucking,Us Rt 50,Augusta,WV,26704,304-496-8528
R W Trucking,Route 5 Box 20b,Franklin,WV,26807,304-358-7870
Jordan Trucking & Backhoe Service,18 Mile Creek Rd,Buffalo,WV,25033,304-937-2557
Martin's Backhoe Service,Hc 78 Box 233,Pipestem,WV,25979,304-384-7126
R & E Wrecker Service,Arnold Mine Rd,Elk Garden,WV,26717,304-446-5178
Bruce's Wrecker Service,103 Euclid Ave,Charlestown,WV,25414,304-725-1890
Keith Barker,Po Box 129,Foster,WV,25081,N/A
Jerry's Auto Repair & Welding,516 Jacob St,Charleston,WV,25305,304-344-1094
Electric Motor Service Company,Zona Road,Gandeeville,WV,25243,304-577-6438
Sypolt Services Excavating,Route 1 Box 3-a,Terra Alta,WV,26764,304-789-2820
Pierce Food Company,Rt 47 & I-77,Parkersburg,WV,26102,304-428-3187
Frontier Transport Ltd,1920 7th St,Parkersburg,WV,26101,N/A
Floyd F Hillery Jr Trucking,500 Pleasantdale Rd,Kingwood,WV,26537,304-329-1262
Jerr Trucking,Pine Street Box 576,Ansted,WV,25812,304-658-4030
Tim's Trucking,280 Wertville Road,Princeton,WV,24740,304-425-7180
Dotson Auto Sales,Rt 83 Main Street,Bradshaw,WV,24817,304-967-7453
Mccomas Sewer Service,9912 Huntington Road,Gallipolis Ferry,WV,25515,304-675-7445
Duncan Trucking Co,P O Box 219,Hanover,WV,24839,304-664-8508
Larrys Wrecker Service,5 B Fairground Rd,Milton,WV,25541,304-743-9946
Earl Davis Trucking,201 Bagwell Ave,Clarksburg,WV,26301,304-622-0847
Farley's Trucking,General Delivery,Shady Spring,WV,25918,304-255-6538
Southern Transport,Box 863,Iaeger,WV,24844,304-938-3392
R & R Wrecker Service,Quail Ridge Road & Route 32,Thomas,WV,26292,N/A
Jim's Distributing Co,Hurricane Ridge Rd,Bluefield,WV,24701,304-325-7065
M & R Trucking,Rte 15,Valley Head,WV,26294,304-339-2072
"Hensley Trucking, Inc.",Rte 9 New Center Camp,Red Jacket,WV,25692,304-426-8285
Ratliff Trucking,P O Box 55,Gilmer,WV,26350,304-853-2307
D & F Trucking Co,Ingleside Rd,Princeton,WV,24740,304-487-0004
Fdm Trucking,Box 127,Russelville,WV,26680,304-438-5104
Jody Shannon Trucking,P O Box 675,Hanover,WV,24839,304-664-3431
Blankenship Horse Transport,P O Box 154,Charles Town,WV,25414,304-725-0155
L & K Trucking,Rt 1 Bx 618,Milton,WV,25541,304-743-3955
Flesher Trucking,Rt 19 South,Clarksburg,WV,26301,304-623-6327
Larrys Welding & Backhoe Service,219 Woodyard Creek Rd,Washington,WV,26181,304-863-3044
J & R Trucking,Rt 37,East Lynn,WV,25512,304-849-5935
C & S Distributors,Rt 3 352b,Princeton,WV,24740,304-425-7632
W W Trucking,7 Locust St,Richwood,WV,26261,304-846-6672
"Hardman's Wrecker Service, Inc.",627 Fairmont Avenue,Fairmont,WV,26554,304-366-5555
Dog Patch Farm Mj & B Transport,Rt 2 Box 273b,Albright,WV,26519,304-329-2205
J & D's Auto Parts & Salvage,1705 Lieving Rd,West Columbia,WV,25287,304-773-5343
Twin Rivers Hauling,1799 Engle Switch Road,Harpers Ferry,WV,25425,304-725-4587
Shaw Transport,1217 Washington Ave,Parkersburg,WV,26101,304-424-6898
Jim's Trucking,1241 Chapel Road,Gassaway,WV,26624,304-364-8063
T & M Trucking,Rt 20 Green Valley,Leivasy,WV,26676,304-645-4546
Eddy's Express Deliery,Rt 1 Box 114 B,Morgantown,WV,26505,304-983-8215
Jerry's Auto Sales,319 E 5th Ave,Ranson,WV,25438,304-725-6824
Appletowne Auto Sales,Route 1 Bx 323a,Bunker Hill,WV,25413,304-229-0927
Michael R Feller Trucking,Hc 60 Box 39-3,Levels,WV,25431,304-492-5164
Ken Reckart Trucking,4th St,Terra Alta,WV,26764,304-789-6453
Stimmell Trucking,Rt 10 Box 38,Morgantown,WV,26505,304-292-6428
Tiller Trucking,Box 25,Sarah Ann,WV,25644,304-946-2482
"Eagle Trucking, Inc.",Box 941,Gilbert,WV,25621,304-664-8100
Haynes Service Center & Wrecker Ser,Rt 1 Box 205b,Williamson,WV,25661,304-235-6781
Shep's Auto Haul,1004 1/2 Broadway Ave,Parkersburg,WV,26101,304-744-6160
Egnon Trucking,Rt 1 Box 267a,Danville,WV,25053,304-369-5366
"Solar Busters, Inc.",Rt 3 Box 406,Buckhannon,WV,26201,304-472-5555
Jmr Trucking,375 North Grafton Street,Romney,WV,26757,304-822-4572
B & W Trucking,Rt 2 Box 204-a,Buckhannon,WV,26201,304-474-3922
Jerry R Johnson Trucking,Rt 13 Box 142-c,Morgantown,WV,26505,412-324-2796
K & M Trucking,65 Hickory Flat Rd,Buckhannon,WV,26201,304-472-0686
Rogers Recovery Services R R S,Rt 5 Grapevine Road,Martinsburg,WV,25401,304-263-6894
Aa Auto,Rt 3 Box 165c,Spencer,WV,25276,304-927-2971
R B Scott Trucking,Rt 1 Box 175-a,Middlebourne,WV,26149,304-758-4548
T & L Trucking,Rt 71 Box 24,Josephine,WV,25857,304-683-5570
Zannino Trucking,Rt 2 Box 769e,Clarksburg,WV,26301,304-745-4094
Mountaineer Medical Prima Care - Home I V,6810 Maccorkle Ave S E,Charleston,WV,25304,304-925-6675
R J's Auto Repair,Rt 5 Box 385-b11,Martinsburg,WV,25401,304-263-0002
J & G Trucking,Star Rt 83 Box 83a,Ellenboro,WV,26346,304-684-2325
Greenbrier Moving Serice,Glen Ray Road,Alderson,WV,24910,304-445-2586
J & L Transport,Box 33 Rt 80,Bruno,WV,25611,304-583-2044
J W Sowards Trucking,3007 Putnam Avnue,Hurricane,WV,25526,304-562-1811
C & F Trucking & Co,Rt 52 3 Miles Of N Laeger,Laeger,WV,24844,N/A
R & S Transport,132 Chipley Lane,Moorefield,WV,26836,304-538-7159
"C & S Transport, Inc.",1922 Jennings Run Road,Weston,WV,26452,304-704-9076
"Devonian Industries Leasing Co, Inc.",297 Boy Scout Camp Road,Morgantown,WV,26508,304-291-0807
Darryl Palmer's Trucking,726 Middleway Pike,Inwood,WV,25428,304-229-2444
Globe Trotter Transportation LLC,Po Box 1459,Elkins,WV,26241,304-591-4510
"Appalachian Flats, Inc.",1705 Chestnut St,Kenova,WV,25530,304-453-6995
Ga Resources,32 Mountain Drive,Mount Clare,WV,26408,304-677-2164
Elite Pressure Washing,398 Meetinghouse Rd,Fort Gay,WV,25514,304-648-5865
Ferrell,64 Valley St,Salem,WV,26426,304-677-9223
Timbrook Trucking,Heide Cooper Road,Shanks,WV,26761,304-496-8822
Barnes Hauling,2408 B Lynn St,Parkersburg,WV,26101,304-834-3076
Estep Logging,Hc 83 Box 82ac,Gap Mills,WV,24941,304-536-1524
Dh Hauling,4218 Kanawha Tpke,South Charleston,WV,25309,304-768-1624
Merrywood Lane,162 Holland Ave,Westover,WV,26501,304-296-6400
Norman''s Trucking,716 Jackson''s Mill Road,Jane Lew,WV,26378,304-269-1919
K & B Gravel & Sand,202 Kellary Lane,Vulcan,WV,25672,304-426-4022
J&e Excavating,177 Pinecone Dr,Mallory,WV,25634,304-583-5502
"Mcintosh Holdings, Inc.",5 Riviera Way,Barboursville,WV,25504,304-736-6246
Shirley C Trucking,1165 Pumpkin Ridge Road,Procious,WV,25164,304-587-2192
T R Walker Construction,4123 16th Street Road,Huntington,WV,25701,304-733-3705
Ricks Towing,2261 Harper Road,Beckley,WV,25801,304-923-4553
Sls Carpet Outlet,778 Route 60,Smithers,WV,25186,304-442-4882
S & S Contracting,309-a Hermanson Ave,Keystone,WV,24868,304-862-3223
Mitchell Trucking,Rte 16 House 1,Warriormine,WV,24894,304-875-3088
B&l Distributors,202 Stiles Tpk,Glen Daniel,WV,25844,304-934-7904
Dn Trucking,709 Coopers Creek Rd,Charleston,WV,25312,304-935-1029
Anderson Trucking,Rt2 Box488,Ronceverte,WV,24970,304-645-1113
J Hope Shakes Trucking,610 Leivasy Road,Nettie,WV,26681,304-651-5921
Dan's Hauling Service,792 Upper Gore Addition Rd,Tornado,WV,25202,304-722-6221
Tm Farms,502 Country Club Rd,Fairmont,WV,26554,616-307-3052
A-1 Cab Service,1148 Berkley Station Rd,Martinsburg,WV,25404,304-844-0321
D & S Salvage & Recovery,99 U Road,Arthurdale,WV,26520,304-864-3507
P And M Pallets,1713 Chapps Fork Rd,Charleston,WV,25312,304-965-0938
Teller Auto Hauling,510 Bentley Ave,Newell,WV,26050,304-559-4995
Morgantown Maintainers,265 Estate Dr,Morgantown,WV,26508,304-216-9891
Mr Taxi LLC,1675 Alice Street,Fairmont,WV,26554,N/A
Roberts Family Transport,28 Warriormine Road,Warriormine,WV,24894,304-875-2542
Monarch Transport Services,18 Millbrook Road,Bridgeport,WV,26330,304-842-6116
William L James Trucking,Rt1 Box 56a,Frametown,WV,26623,304-364-4193
Pat Hart Leasing LLC,888 Baier Street,St Albans,WV,25177,304-727-5266
Dba Stewart Transportation,1150 Herold Rd,Sutton,WV,26601,304-765-7406
A1 Towing,283 Mt Breeze Drive,Cool Ridge,WV,25825,304-673-6182
Maximum Enterprieses,Rr 83 Main Street,War,WV,24892,304-875-4616
J & K Farmes,Rt 1 Box 660,Mt Clare,WV,26408,130-483-8060
Providence Farm,Hc 66 Box 294,Renick,WV,24966,304-497-2792
Palumbo Preowned,89 Holland Ave,Westover,WV,26501,304-284-0707
Roofing,9176 Harris Hwy,Belleville,WV,26133,304-863-8063
Frieda's Country Kitchen,211 Barbeque Drive,Berkeley Springs,WV,25411,304-258-1639
Black Sheep Carrier,29 Hovermale Ct,Martinsburg,WV,25405,304-851-5848
M & D Trucking,509 Maple Meadow Mine Rd,Bolt,WV,25817,304-923-8433
Dr Property Preservation,3912 Jordan Creek Road,Elkview,WV,25071,304-410-8374
Bittinger Logistics,120 Cleveland Road,Weirton,WV,26062,412-706-2142
D & H Trucking,119 Main Street,Fairview,WV,26570,304-449-1246
Kb Trucking,122 Strawberry Lane,Morgantown,WV,26501,304-983-2098
Renners Contracting,484 Cemetry Road,Martisnburg,WV,25401,304-264-4576
B & B Enterprise,204 Railroad Street,Glen Jean,WV,25846,304-719-1973
Dunkard Valley Development,331 Behlar Rd,Fairview,WV,26570,304-290-0497
Desiree L Davidson Fine Gardens,553 Alta Vista Drive,Harpers Ferry,WV,25425,703-898-6904
David Crowe Trucking,914 Circle Ave,Rainelle,WV,25962,304-575-7095
Mdb Transport,4729 Altizer Avenue,Huntington,WV,25705,304-710-0767
Circle C Farm,3557 Clay Road,Spencer,WV,25276,304-927-3778
J & J Logging,Wikel Road,Lindside,WV,24951,304-646-6051
Doug Kirk Racing,217 Kirk Ridge Road,Lenore,WV,25676,304-475-2308
Dent Tech,250 Lantern Lane,Berkeley Springs,WV,25411,304-839-3352
Parsons Logging,1713 Staunton Avenue,Parkersburg,WV,26101,304-422-4763
Greg Brown Trucking,5338 Raders Valley Rd,Williamsburg,WV,24991,304-645-5498
Lonely Owl Acres,Rt 1 Box 319,Ribceverte,WV,24970,304-647-5865
Kasey Transportation,2018 Honaker Avenue,Princeton,WV,24740,304-952-2133
Meadows Transport,379 Butternut Rd,Glen Daniel,WV,25844,304-890-6472
Pentoney Hauling,51 Tolley Lane,Berkeley Springs,WV,25411,304-676-4574
Berrys Hauling,137 Hollow Tree Drive,Summit Point,WV,25446,304-279-3438
Brightside Landscape Design,371 Posting Way,Charles Town,WV,25414,304-728-8557
V V Trucking,Route 16 Welch Pineville Rd,Pineville,WV,24801,304-732-0037
Weirton Recycling,3924 Main Street Rear,Weirton,WV,26062,304-748-1407
Reed's Welding,3370 Valley Road,Berkeley Springs,WV,25411,304-258-9206
Dove's Firewood And Excavating,Hc 61 Box 13b,Franklin,WV,26807,304-358-7119
Mountaineer Express Delivery,614 First Avenue South,Nitro,WV,25143,304-722-1022
Bills Truck Service,Hc 65 Box 8200,Springfield,WV,26763,304-822-4749
Margie Dolin Trucking,2813 Fairlawn Ave,Dunbar,WV,25064,304-776-1631
West Virginia Auto Shipping,1207 State St,Gassaway,WV,26624,304-364-4363
Servpro Of Huntington,4938 Waverly Road,Huntington,WV,25704,304-429-2233
West Star Management,3575 Robert C Byrd Drive,Beckley,WV,25801,304-222-4422
Quicken Farm,Hc 78 Box 41 D,Shanks,WV,26761,304-822-7403
Diamond Driveway And Lawncare Services,1454 Springfield Grade Pike,Springfield,WV,26763,304-997-6736
Bracken & Sons Trucking,556 Quarry Lane,Reedsville,WV,26547,304-692-4399
Wis Equipment Repair,54 Cherokee Ashland Rd Rt17,Northfork,WV,24868,304-887-8384
All The Time Road Service,3882 Specks Run Rd,Bunker Hill,WV,25413,304-820-2939
Red Hill Farm,540 Frosty Hollow Rd,Fisher,WV,26818,304-434-2265
Whitmer's Welding Service,1445 Melvin Rd,Shenandoah Jct,WV,25442,304-876-2137
Sub Contractor Burying Underground Cable,150-8 Woodcrest Rd,Follansbee,WV,26037,304-670-2263
Rowe Trucking,231 Meadow Ln,Berkeley Springs,WV,25411,304-258-5845
Lowe Logging,Rt 1 Box 96,Elizabeth,WV,26143,304-588-2758
Dba Camp-k Trucking,179 Bricktown Rd,Nellis,WV,25142,304-833-6345
Got Bales,Rr 5 Box 960,Salem,WV,26426,304-783-4793
Snyders Farm And Timber,10309 Trout Run Road,Wardensville,WV,26851,304-874-4493
Transpec,4215 5th St Rd,Huntington,WV,25701,304-525-2523
Bst Trucking LLC,307 Archer Hill Road,Colliers,WV,26035,740-535-2071
"Jrb Trucking, Inc.",Hc 71 Box 206a,Augusta,WV,26704,304-856-2692
Tjm Trucking,316 Hillcrest Drive,Holden,WV,25625,304-784-0149
Cynthia L Edwards,Hc 65 Box 3000,Springfield,WV,26763,304-492-5360
Dwaine A Acord Dixie Trucking,521 Central St,Lester,WV,25865,304-934-6381
Vance's Trucking,Sulphur Springs Rd,Inwood,WV,25428,304-229-5826
Paul's Used Cars,Route 5 Box 125,Grafton,WV,26354,304-739-4640
Dixon's Mobile Home Movers,38222 Midland Trail East,White Sulphur Springs,WV,24986,304-536-1888
Dennis R Hugart & Sons Delivery Service,Route 5 Box 352,Charleston,WV,25312,N/A
Jimmie Crabtree Trucking Company,1050 Asbury Road Lot 11,Wayne,WV,25570,304-521-5070
Tomlin Trucking,190 Lekan Lane,Oak Hill,WV,25901,304-469-6452
Mark's Towing,2395 White Hall Blvd,White Hall,WV,26554,304-366-5765
Webb Trucking,Rt 2 Box 310,Mannington,WV,26582,304-592-5445
Parrish Delivery Service,134 Dairy Lane,Belle,WV,25015,304-925-9055
Hot Rod's Roll Back & Towing,274 Bedington Rd,Martinsburg,WV,25404,304-274-0266
T B A,507 Emerson Drive,Falling Waters,WV,25419,304-274-0453
Marrone's Building Supply,Rr 1 Box 7,Summit Point,WV,25446,304-725-2347
Chance Enterprises,Rt 1 Box 136b,Montrose,WV,26283,304-636-4224
Wilt's Trucking,351 Wright Farm Road,Old Fields,WV,26845,304-668-1119
Howard Gump Transport,4700 River Road,Morgantown,WV,26501,304-278-7006
Khoury Trucking,2706 Harrison Avenue,Parkersburg,WV,26104,304-485-0740
John's Hot Shot Service,Pine Bluff Route 1,Shinnston,WV,26431,304-592-3319
Duraseal,170 W Wylie Ridge Road,Weirton,WV,26062,304-797-8667
Ailstock Trucking,212 Stadium Dr,Rupert,WV,25984,304-392-5112
Infinity,131 Perkins Avenue,Dunbar,WV,25064,304-776-0088
Bugs Xpress,Rt 2 Box 86d,Procter,WV,26055,304-455-3405
Wagoner Trucking,Rt 1 Box 171 C,Lost Creek,WV,26385,304-745-5676
Thomas Trucking,607 98th St,Marmet,WV,25315,304-687-9154
Tcb Trucking,216 Bluestone Rd,Mt Hope,WV,25880,304-877-5177
Moore Brothers Towing And Recovery,Rt 1 Box 212m,Buckhannon,WV,26201,304-472-4730
A & A Excavating,Gerby Addition,Reader,WV,26167,304-386-5038
Edwards Auto Transporting,Route 1 Box 348,Independence,WV,26374,304-265-3975
Simons Trucking,1432 River Front Rd,Jodie,WV,26690,304-632-2521
V M Butcher Trucking,Hc 60 Box 75a,Clintonville,WV,24931,304-392-5219
Bryson Transport,13398 Ingleside Road,Princeton,WV,24739,304-898-5008
Watkins Trucking Co,Rt 4 Box 69,Grafton,WV,26354,304-265-2744
L & D Enterprises,1858 Cleveland Rd,Hacker Valley,WV,26222,304-493-6549
Bruce's 24 Hr Wrecker Service,321 N Mildred St,Ranson,WV,25438,304-725-1890
Gump Transport,4750 River Rd,Morgantown,WV,26501,304-278-5884
Upshur Towing,Rt 1 Box 163 B,French Creek,WV,26218,304-924-6958
M&m Mobile Home Service,53 Murphys Lane,Delbarton,WV,25670,304-475-0667
Mark's Hot Shot Service,131 & 707 Saltwell Road,Bridgeport,WV,26330,304-592-2220
Brady's Towing,Route 2 Box 1300,Fairmont,WV,26554,304-366-5555
Double D Towing,144 Middleway Pike,Inwood,WV,25428,304-229-8057
Rodney Bartram Trucking,5965 Camp Rd,Lavalette,WV,25535,304-416-1963
Weimer Chevrolet Buick Gmc,1151 Us Rt 220 North,Moorefield,WV,26836,800-931-3230
Howard Byrley Trucking,Rr2 Box 52-a,West Hamlin,WV,25571,304-824-3053
Tds Hauling,264 First Street,Shenandoah Junction,WV,25442,304-279-2216
Kincaid Trucking,256 Campbell Road,Quinwood,WV,25981,304-667-9714
B B T Enterprises,Route 39,Belva,WV,26656,304-632-1519
Pierce Towing,5517 Midland Ave,Rand,WV,25306,304-926-0185
All American Towing,301 Wilson Street,Martinsburg,WV,25401,304-267-2596
Joy's Disposal,Rt 1 Box 168,Cairo,WV,26337,304-869-3751
City Wrecker,1700 E Main Street,Oak Hill,WV,25901,304-465-3252
Motor Medic,East Main St,Salem,WV,26426,304-782-1212
Mountain State Towing,124 Suds Run Road,Mt Clare,WV,26408,304-623-6303
Nicky's Towing And Recovery,8 Cherry Lane,Levels,WV,25431,304-492-5244
Freedom Towing,100 Broadway Ave,Parkersburg,WV,26101,304-485-8100
Greathouse & Son Garage,364 Nicholas Run,Gassaway,WV,26624,304-364-8860
R & D Trucking,High Top Estates Lot 20,Capon Springs,WV,26823,304-874-4464
Winchcable Towing,Route 1 Box 137c,Kermit,WV,25674,304-393-3063
Davis Timber,Route 1 Box 226,West Hamlin,WV,25571,304-824-2285
Adams Towing,1346 Philippi Pike,Eastview,WV,26301,304-623-6258
Swe Trucking,4875 Whites Ck Rd,Wayne,WV,25570,304-486-5486
Tom's Service Center And 24 Hour Towing,528 Philippi Pike,Clarksburg,WV,26301,304-622-7408
Mary's Home Improvements,Route 9 Box 521,Charleston,WV,25311,304-347-0029
Johnson's Towing,Mill Creek Road,Fort Gay,WV,25514,304-648-8524
R & D Sawmill,Route 1 Box 105b,Belington,WV,26250,304-823-2009
Joe Mogyoros Trucking,60 Lynch Rd,Morgantown,WV,26501,304-685-6868
Ray's Towing,Hc 60 Box 10,New Martinsville,WV,26155,304-455-3921
Gene's Towing Service,Route Hc Box 37,Pipestem,WV,25979,304-466-0811
Charlies Used Cars,Route 3 Box 155,Philippi,WV,26416,304-457-3151
Payne Body Shop,General Delivery,Bolair,WV,26288,304-847-5725
E D Dunbar Trucking,Hc 83 Box 11,Union,WV,24983,304-772-3426
Diamond Manufactured Homes,175d Elk Creek Road,Mt Clare,WV,26346,304-622-3646
Hinkle Motor Lines,Hc 76 Box 311,Mt Storm,WV,26739,304-693-7036
Sandlick Garage,Route 1 Box 307,Bluefield,WV,24701,304-589-5064
Parkersburg Wrecker And Recovery,1025 Gihon Road,Parkersburg,WV,26103,304-422-7929
Hedra Wheatley Logging,309 Claypool Hollow Road,Glen Daniel,WV,25844,304-934-6426
D M T Towing,Route 33,Leatherbark,WV,25234,304-655-9901
T K & J Trucking,Hc 61 Box 46a,Paynesville,WV,24873,304-967-5946
Towmaster,Main Street,West Milford,WV,26451,304-745-3373
Minor Home Repair,910 Sheridan Avenue,Martinsburg,WV,25401,304-267-4063
Iron Horse Trucking,Route 1 Box 402,Leon,WV,25123,304-377-2503
S & L Transporters,867 Charlotte Dr,Leon,WV,25123,304-949-4957
Boggs Transport,Route 60,Caldwell,WV,24925,304-536-3772
Olympic Hauling,495 Olympic Drive,Martinsburg,WV,25404,304-264-2088
Dave's Transport,697 Boy Scout Road,Hedgesville,WV,25427,304-261-6658
Barbwire Trucking,94 Blennerhassett Hts Rd,Parkersburg,WV,26181,304-481-5250
Owens Trucking,Rt 88 North,Bethany,WV,26032,304-914-5697
Wine's Towing,Route 2 Box 45,Burlington,WV,26710,304-289-3919
Kaci Trucking,Rt 1 Us 52 3579,Genoa,WV,25517,304-385-4037
R & G Budget Towing,120 Little Glade Run Road,Cowen,WV,26206,304-226-3656
Jenkins Delivery Service,532 Teel Road,Beckley,WV,25801,304-573-8468
A Street Logging,Hc 83 Box 85b,Union,WV,24983,304-536-3264
Express Towing,Us Route 250 N,Hundred,WV,26575,304-775-4600
Honeycutt Towing & Recovery,600 Main Avenue,Logan,WV,25601,304-752-7745
Mt Top Recovery,Route 1 Box 289,Elk Garden,WV,26717,304-446-5444
Glen's Heavy Hauling LLC,320 C & O Shop Road,Beaver,WV,25813,304-465-8380
Daybrook Service Center,2738 Daybrook Road,Fairview,WV,26570,304-798-3452
Hurricane Transport,1066 Lower Collison Road,Mount Nebo,WV,26679,304-872-8141
Ace's & 8's Trucking,776 Old Gardner Rd,Princeton,WV,24740,304-920-4231
Miller Trucking,Rt 5 Box 724,Bridgeport,WV,26330,304-695-0788
Detamore Repairs And Logging,Route 9 Box 515,Buckhannon,WV,26201,304-927-9181
Caribe Shop And Towing Services,512 B Wilson St,Martinsburg,WV,25401,304-263-0247
Lyons Trucking & Towing,500 Wolf Pen Drive,Charleston,WV,25312,304-984-3516
Packing Blues Packing Company,1736 Maple Acres Rd,Princeton,WV,24740,304-952-8749
D & D Logging,Rr 1 Box 207c,Fort Gay,WV,25514,304-648-8374
J B Trucking,556 Meadowbrooke Drive,Follansbee,WV,26037,304-527-4565
T & K Towing,248 Hickory Ridge Rd,Salt Rock,WV,25559,304-733-4166
Matthew Pratt Trucking,181 Elkins Avenue,Masontown,WV,26547,304-376-4587
Mayfield's Towing,Route 3 Box 87 Flaggymeadow Road,Mannington,WV,26582,304-986-1342
M & D Enterprises,Route 5 Box 416,Tuppers Creek,WV,25312,304-552-0275
Call's Paving,3210 Walters Avenue,Bluefield,WV,24701,304-327-0247
Dantes Towing,Rr 1 Box 204 D Headsville Road,Keyser,WV,26726,304-289-3949
Mavety Logging,380 Virginia St,New Martinsville,WV,26155,304-455-3502
Britton,2223 Fairmont Rd,Morgantown,WV,26501,304-983-8005
Elk Branch Farms,209 Bell Place,Charles Town,WV,25414,304-725-0110
B & D Towing And Hauling,134 Shire Hill,Mcgraws,WV,25875,304-688-8155
K & C Steam Cleaning,6/2 Sheephollow Road,Coal Mountain,WV,24823,304-583-8785
West Virginia Tree Co,1567 Edgewood Drive,Huntington,WV,25701,N/A
M Light,393 Cutright Run Rd,Buckhannon,WV,26201,304-472-2910
R & M Trucking,194 Arnold Road,Weston,WV,26452,304-269-1396
Hardman's Towing,816 Philippi Pike,Clarksburg,WV,26301,304-623-9800
B & L Transport,296 Hassam Dr,Princeton,WV,24740,304-922-1734
Cook's Towing And Recovery,803 1st Avenue South,Nitro,WV,25143,304-419-0305
A-1 Auto Towing,297 Rural Acres Drive,Beckley,WV,25802,304-222-2712
Wrenches & Wreckers,4590 Williamsport Pike,Martinsburg,WV,25404,304-274-3500
Tolands Automotive And Truck Repair,2640 Glenwood Lane Ritter Dr,Shady Spring,WV,25918,304-255-7901
B & B Enterprises,115 S Smith Ave,Mt Hope,WV,25880,304-250-5089
K & D Transport,386 Thousand Oaks Dr,Shady Spring,WV,25918,304-894-6908
The Pinnacle Group,1 West Main St,White Sulphur Springs,WV,24986,304-536-3100
Ram Excavating,95 Private Pointe,Branchland,WV,25506,304-360-2022
460 Auto Sales,4865 East Cumberland Road,Bluefield,WV,24701,304-327-7575
Sb Xpress,922 W 2nd Street,Charleston,WV,25302,304-546-1263
Top Notch Logging,365 Elery Lloyd Rd,Union,WV,24983,304-772-4699
Bebo's Tow,406 Crescent Road,Beckley,WV,25801,304-575-3706
Double D Farm,349 Linden Road,Looneyville,WV,25259,304-927-4704
Robert's Firewood,Box 2 Stinking Lick Road,Ballard,WV,24918,304-660-6338
Welder,5034 Gassaway Rd,Normantown,WV,25267,304-462-5950
Lee Goldizen Trucking,171 Poca Circle,Poca,WV,25159,304-541-0446
Tincher's Trucking,142 Lester Way Tunnel Hill Road,Caldwell,WV,24925,304-661-5841
Custom Auto Trim,376 Sewell Creek Road,Rainelle,WV,25962,304-438-6139
Bash,Hc 81 Box 1 J,Ballard,WV,24918,517-507-0612
Synergy Transport,4258 Mccomas Rd,Salt Rock,WV,25559,304-733-9754
Allen Excavating,Rr1 Box 353a,Buffalo,WV,25033,304-586-0814
We Serve You,1006 Fair Oaks Dr,Fairmont,WV,26554,724-825-5084
Big A Trucking,2183 Jimtown Road,Coalton,WV,26257,304-636-5295
By His Hand Transport,2612 Rohr Road,Masontown,WV,26542,304-980-2101
Parkers Logging,2347 Sugar Camp Road,Gassaway,WV,26624,304-364-9093
Blue Diamond Taxi,Lawson Lane,Lyburn,WV,25646,304-601-2495
Notta Chance Contrcting & Transporting,162 Quad Hollow Lane,Berkeley Springs,WV,25411,304-258-6631
Material Handling Headquarters,47 S Lenhart Dr,Albright,WV,26519,304-376-9113
Linger Sales And Servie,1205 Fleming Avenue,Fairmont,WV,26554,304-363-4064
John S Melvin Siding & Window Co,1307 Roy Ave,Bluefield,WV,24701,304-327-3981
Perry's Limousin,7168 Beech Fork Road,East Lynn,WV,25512,304-849-2305
Mojo Trucking,7236 Armstrong Creek Road,Powellton,WV,25161,304-719-7836
Brackett Boys Express,778 St Johns Road,Colliers,WV,26035,304-975-1567
Statewide Transport,804 Maple Ave,Philippi,WV,26416,130-445-7114
Hidden Trails Atv,3014 East Dupont Ave,Belle,WV,25015,304-595-1979
Dallison Logging Ptr,Route 1 Box 41,Folsom,WV,26348,304-334-3683
Kens Delivery Service,19a Laurel Commons,Ravenswood,WV,26164,304-916-0958
Country Roads Preowned Auto LLC,11425 Veterans Memorial Highway,Masontown,WV,26542,304-864-3050
Genteck Power Solutions,195 Winding Woods Lane,Kenna,WV,25248,304-988-1316
Fine Edge Deliveries,50 Stonewall Drive Unit 4,Summersville,WV,26651,304-880-5950
Rockin H,Hc 83 Box 83f,Union,WV,24983,304-536-4245
Harms Mobile Welding,2470 Eldersville Rd,Follansbee,WV,26037,304-527-1151
Butler Team Transport,159 Butler Drive,Rupert,WV,25984,304-392-5417
Elite Transport,702 N Eisenhower Dr,Beckley,WV,25801-3136,304-250-0230
Skeens Trucking,5280 Clayburn Drive Lot 203,Cross Lanes,WV,25313-1298,304-545-4726
Smyser Transport,5314 Robert Road,Cross Lanes,WV,25313,304-533-1808
Mathes Trucking,1101 Dennison Run Road,Cowen,WV,26206-8520,304-619-8957
Nelsons Transport,140 Heath Street,Charleston,WV,25311,304-881-2082
Napier Farming,46 Nursery Gap Road,Fort Gay,WV,25514,304-208-5676
At Your Pace,313 Rear West Burke St,Martinsburg,WV,25401-7498,540-974-5598
C & A Excavating,780 Reed Fork Rd,Procious,WV,25164,304-587-7895
Mitchell Morgan's Welding,3911 Altizer Road,Arnoldsburg,WV,25234,304-655-8867
Super Sport Transport,2177-c First St,Culloden,WV,25510,304-932-9202
Jimmy's Hot Shot,796 Mccurdysville Pike,Rivesville,WV,26588,304-203-3771
Five Star Rig & Supply,31 Rodeo Drive,Fairmont,WV,26554,817-458-1497
Back Country Trucking,Route 1 Box 16,Karens,WV,26276-9708,304-940-9317
Sk Smith Trucking,316 Pratt Avenue,Pratt,WV,25162,304-237-8694
Pool Safety Services,199 Diamante Drive,Inwood,WV,25428,304-820-4798
Concrete & More,123 Dumpling Dr,Martinsburg,WV,25404,304-274-4028
M E Trucking,45 Shady Brooke Ln #3,Milton,WV,25541,304-654-5713
T J Trucking,4431 15th Avenue,Parkersburg,WV,26101-7062,304-481-7828
Fatt Matt's Towing & Recovery,2208 Leon Street,Charleston,WV,25387-1648,304-437-6288
A&l Concrete,69 Dogwood Trail,Harpers Ferry,WV,25425,301-748-7637
West Virginia Lightning Football,317 Sunset Drive,Hurricane,WV,25526,304-543-3198
Dennys Auto Repair,375 Jewel Lane,Berkeley Springs,WV,25411,304-582-0261
S & A Mower Repair And Logging,304 South Street,Union,WV,24983,304-667-3863
Billy Baker,Hc 61 Box 510,Wileyville,WV,26581,304-889-2807
The Ringmaster,Hc 37 Box 217,Lewisburg,WV,24901,304-646-6917
American Lenders Service Company Of Martinsburg Wv,425 South Raleigh Street,Martinsburg,WV,25401,304-264-8233
Alloy Wheel Repair Specialist,1220 Enslow Boulvard,Huntington,WV,25701,304-860-0128
Two Bro's Transport,24 Destiny Drive,Barboursvile,WV,25504,304-730-3274
Rodney's Pool Care & Repair,134 Hallies Ln,Berkeley Springs,WV,25411-5438,304-676-5389
Bubba's Concessions,149 Norway Loop Rd,Fairmont,WV,26554-8028,304-365-1883
B & H Mobile Home Mover,668 Summers Fork Rd,Crum,WV,25669,304-393-4248
Miller Family Delivery,1175 Range Rd,Wana,WV,26590,304-276-6876
Hollywood Motor Freight,Hc 83 Box 103a,Union,WV,24983,304-772-5103
Mike Mac Distributing,359 Beech Hollow Road,Flemington,WV,26347,304-518-9115
Baker Lawn Service,1168 46th Street,Vienna,WV,26105-9409,304-295-5849
Morris Welding,476 Hidden Valley Rd,Morgantown,WV,26501,304-278-7749
Burnside Logging,370 Jr Burnside Road,Rock Cave,WV,26234-5701,304-924-9307
Cowboy's Truck,6677 Gassaway Rd,Normantown,WV,25267,304-354-0177
Ty Enterprises,147 Jason Avenue,Princeton,WV,24740,304-922-4464
Shotwell Farm,1237 Earle Road,Charles Town,WV,25414,202-817-2012
Triple B Trucking,2 B Pups Creek Rd,Clendenin,WV,25045,304-548-6461
Jfs Hauling,632 Wiltshire Road,Kearneysville,WV,25430-2751,304-725-1553
Arnold Continuous Gutters,2035 Charleston Avenue,Huntington,WV,25703,304-525-7551
Dana Adkins Excavating,268 Riverside Drive,Logan,WV,25601,304-687-5159
Centre Foundry,74 Warwood Avenue,Wheeling,WV,26003,304-277-3600
Gray Area Tranportation,66 Bright Cherry Ct,Martinsburg,WV,25403,304-629-1262
Superior,Rt Box 390b,Ridgeley,WV,26753,240-920-7277
Mule Train Racing,1189 Hudson Valley Rd,South Charleston,WV,25309,304-768-2567
V Dog Trucking,622 Dogwood Lane,Franklin,WV,26807,304-703-2947
Clear Creek Transport,420 Rockcliff Road,Rupert,WV,25984,304-646-9320
Coonskin Transfer,523 20th Street,Dunbar,WV,25064-1703,304-206-8476
Rays Transporting,3353 Lick Fork Rd,Spencer,WV,25276-9003,304-531-3097
Ridge Field Farm,388 Warfield Road,Baker,WV,26801,304-258-8434
Hillbilly Hawlerz,124 Mayapple Lane,Fairmont,WV,26554,304-612-8885
J & J Transport,126 Janesa Drive,Martinsburg,WV,25403,304-995-4842
Patriot Truck And Transport,121 N Main St,Keyser,WV,26726,304-788-6679
Taylor Transporting,5857 Airport Road,Bluefield,WV,24701,304-325-6754
Tri State Transport,2 Scotts Lake Rd,Beverly,WV,26253,304-338-2076
Dragon Hauling,810 Q Rd,Arthurdale,WV,26520,304-864-6432
Prg,289 Sunny Drive,Princeton,WV,24740,304-952-1401
Scottys Mobile Home Transport,80 Bine St,Fairmont,WV,26554,304-612-2205
Johns Auto Repair,1102 7th St,Parkersburg,WV,26101-4910,304-917-4858
Quality Mulch And Topsoil,111 Stilwell Farm Lane,Falling Waters,WV,25419,304-274-3329
Adams Logging,1372 Park View Road,Wheeling,WV,26003,304-242-6868
Shaelee Trucking,5 Mccallister St,Capels,WV,24820,304-308-9332
El Puente Family Mexican Restaurant,Hc 61 Box Box 2a,Capon Bridge,WV,26711,304-856-1171
Gill Trucking,10681 Widen Ridge Road,Clay,WV,25043,304-332-5379
Circle C Transport,3246 Summerlee Road,Oak Hill,WV,25901,202-521-1493
Arrowsmith Fabrication,67 43rd Street,Wheeling,WV,26003,304-905-0399
S&l Simmons Trucking LLC,361 Wv Hwy 74,Coxs Mills,WV,26342,304-462-4039
Acl Trucking,67 Trailer Loop Road,Summersville,WV,26651,304-618-0151
Harvey Trucking,179 Raven Lane Rr 1 Box 163 E,Keyser,WV,26726,304-209-2335
K & G Transport,412 Left Fork Ben Creek Road,Wharncliffe,WV,25651,304-923-4085
Way 2 Heat,Rt 2 Box 108aa,Keyser,WV,26726,301-268-5183
Jeremiah James,3274 Meathouse Fork Rd,Ravenswood,WV,26164,304-532-9529
Stotelmyer Distributors,274 Barrel Horse Dr,Charles Town,WV,25414-9312,304-283-5221
Windinthe Sail Transport,5317 Nelson Drive,Cross Lanes,WV,25313,304-776-7321
Scott Transportation Services,207 Rimcrest Ave,Princeton,WV,24739,304-888-2119
R L L Transport,176 High Point Ln,Ronceverte,WV,24970,304-667-7456
Shaffer Amusement Co,140 E Pike St,Clarksburg,WV,26301,304-622-8020
Wildcat Farm,181 Cogles Fields Lane,Harpers Ferry,WV,25425-4595,304-728-1010
Rose Logistics And Transport,855 Turner Road,Grafton,WV,26354,304-265-3727
Storybook Farm,96 Memory Lane,Sugar Grove,WV,26815,304-249-5653
Ltzrl Delivery,370 Gapview Drive,Charleston,WV,25306,304-395-6534
Hogfishshipping,292 Hawks Nest Trl,Gerrardstown,WV,25420,703-728-6015
Appliance Barn,4888 Waverly Road,Huntington,WV,25704,304-429-1280
A & K Hartsell Farm,81 Gnegy Church Road,Eglon,WV,26716,304-290-4263
B & M Transporting,Route 1 Box 391,Lake,WV,25121-9702,304-369-0713
Backwoods Transporting,1861 Pack Fork Rd,Lizemores,WV,25125,304-587-4482
Hauling,483 Dug Hill Road,Morgantown,WV,26508,304-376-9286
Fabrication & Welding,Caleb Ln,Keyser,WV,26726,301-707-8295
Belford's Timber And Firewood,152 Belford Lane,Paw Paw,WV,25434,202-521-1493
R F Combs,4537 Rig Road,Moorefield,WV,26836,304-851-1909
Hackney Distributing,566 Big Coal Fork Drive,Charleston,WV,25306,304-926-6262
Falk Logging LLC,332 Hill St,Mt Hope,WV,25880,304-877-3122
Jack's Trucking,121 Carter Ave,Philippi,WV,26416,304-457-4150
Mike Pentoney Trucking,15 Little Creek Lane,Berkeley Springs,WV,25411,304-258-1648
Wayne Zirkle,852 Pike Street,Hartford,WV,25247-0143,304-882-2314
Strawberry Hill Farm,3155 Middleway Pike,Bunker Hill,WV,25413-3174,304-492-4273
Michael Weaver Trucking,1603 Michael Avenue,Petersburg,WV,26847,304-788-8064
John Boy Trucking,1208 Fish Hatchery Road,Berkeley Springs,WV,25411,304-258-1640
Foster & Son LLC,Rt 4 Box 106,Keyser,WV,26726,304-788-9252
J D Swett,Midway Drive,Augusta,WV,26704,304-496-8482
Trace Transport Company,State Rt 3,Sylvester,WV,25193,304-846-6600
Dlc Transportation,2887 Jordan Run Rd,Maysville,WV,26833-8566,304-749-8278
G A Metheny Transport,22043 N Preston Hwy,Bruceton Mills,WV,26525,304-379-7551
Brad Starkey Trucking,4134 Mannington Road,Smithfield,WV,26437,304-334-5829
J & S Enterprises,657 Pennsylvania Ave,Morgantown,WV,26501,304-641-8059
"Bullets, Inc.",21 East Fork Ave,Harts,WV,25524,304-855-9211
Iron Horse Transport,23 Iron Horse Lane,Drennen,WV,26651-0000,304-651-2766
Arnett Logging,6301 Lantz Ridge Road,Aurora,WV,26705-8601,301-616-5782
Bd Logging,800 3rd Street Apt B,St Marys,WV,26170,304-210-2917
Windy Point Farm,Hc 72,Maysville,WV,26833,304-749-7004
Holcomb Resources,3195 Holcomb Ridge Road,Lizemores,WV,25125,304-587-7156
I Got Wood,Hc 69 Box 168b,Herndon,WV,24726,304-294-6961
Brad Comer Logging,Route 1 Box 184 A,Lindside,WV,24951,304-646-2296
Soto Trucking,Rt 103 Havaco Dr,Welch,WV,24841,304-887-1547
S&p Transport,211a Campfire Road,Salt Rock,WV,25559,304-654-0703
Mack Transport,407 Weimer Avenue,St Albans,WV,25177,304-380-8270
Boyer Trucking,160 Laurel Drive,Weirton,WV,26062,304-748-4721
Kdl Freight Agency,501 Artisan Way,Martinsburg,WV,25401,517-507-0612
Cale's Trucking,2289 Upper Pecks Run Rd,Buckhannon,WV,26201,304-472-1352
R & S Trucking,120 Mccellen St,West Hamlin,WV,25571,304-972-1602
Amish Boutique,5309 Stoneybrook Road,Charleston,WV,25313,800-445-0686
A To Z Appliance Service,815 Ruffner Br,Elkview,WV,25071-7110,304-421-5084
Field And Sons,946 Main St,Follansbee,WV,26062,304-479-5283
Backwoods Trucking,726 Pleasant Ridge Road,French Creek,WV,26218,304-476-2186
Bc Energy,2216 Jennies Creek Road,Kermit,WV,25674,304-945-8480
Got'em Recovery Services,104 Lincoln St,Scott Depot,WV,25560-9610,304-962-4074
Bridge Street Ashland,125 Bridge St,Hinton,WV,25951-2410,304-466-4500
Ron,197 North Hice Street,Belington,WV,26250,304-823-2716
Chancelors Store & Auction,106 Carberry Fork Road,Mannington,WV,26582,304-816-7496
Tinkerbell Trucking,4 Meadow Rd,Charleston,WV,25314,304-533-5225
Lawrence Nelson Transportation,2960 4th Ave,Huntington,WV,25702,304-237-0399
Trt Trucking,690 Central Station Rd,West Union,WV,26456,304-873-1949
Spencer Hot Shot Services,49 River Knoll Ct,Buckhannon,WV,26201,304-472-2166
Gamblin Trucking,Rt1 Box 1351 B,Kingwood,WV,26537,304-864-3030
Hess Enterprizes,37 Lennox Ave,Grafton,WV,26354,304-265-0640
Talkington Trucking LLC,319 Water St,Bridgeport,WV,26330,304-838-9239
Little Jack Truckin,Us Rt 52 North,Iaeger,WV,24844,304-938-5204
R & S Trucking,120 Mccellen St,West Hamlin,WV,25571,304-972-1602
Stilwell Trucking,206 Pikeview Drive,Princeton,WV,24740,304-487-2549
J And P Transport,162 Christian St,Princeton,WV,24740,304-425-1750
Mark Fletcher Transport,191 Meda Lane,Elkview,WV,25071,304-965-5676
Scarecrow Trucking,3030 Charley Ballard Rd,Lindside,WV,24951,304-832-6750
Slick Lizard Trucking,6901 Eads Mill Road,Princeton,WV,24739,304-809-8109
Eric Mogyoros Trucking LLC,67 Caterpillar Rd,Morgantown,WV,26508-0000,304-282-1762
Reg Trucking,181 Betts Way,Martinsburg,WV,25404,443-546-6860
Barnett Trucking,170 Sassafrass Road,West Columbia,WV,25287-8630,304-882-2074
Matco Truck,95 Compound Circle,Martinsburg,WV,25403,304-268-4034
Williams Trucking,1157 Long Run Rd,Bethany,WV,26032,304-231-4902
Wej Transport,15973 Clay Highway,Lizemores,WV,25125-8207,304-632-0042
Frank's Pullin,273 N Meadowlark Dr,Williamstown,WV,26187,540-966-2171
Ksa Hauling,593 Nurses Holw,Center Point,WV,26339-8072,304-782-3841
Hilltop Transport,550 Prudence Rd,Oak Hill,WV,25901-9310,304-719-7547
Bob Shifflett & Son Trucking,268 Mount Pleasant Rd,Summit Point,WV,25446,304-725-1582
L&s Transportation,1239 Bloody Run Rd,Jane Lew,WV,26378-8241,817-729-4915
Beetle's Hot Shot Trucking,1843 Charley Ballard Rd,Lindside,WV,24951,304-890-9036
Faber Trucking,3000 Emma Rd,Given,WV,25245-8262,304-543-7810
B & B Trucking,70 Overlook Dr,Flatwoods,WV,26621,304-765-5275
Ram Logging,80 Endless Mountain Road,Maysville,WV,26833,304-749-8714
Herron's Cash And Carry Feed Store,451 Middle Run Rd,Chester,WV,26034,304-387-1591
G & G Auto Sales,906 Lubeck Avenue,Parkersburg,WV,26101-9662,304-485-1164
Winter Enterprises,Pleasant Valley Road,Given,WV,25245,304-372-9614
John's Junk Removal & Clean Up,109 Gussie Avenue,Martinsburg,WV,25401,304-263-7294
Boggess Performance,1495 Spicewood Road,Kenna,WV,25248,304-988-3278
Arbogast Livestock,Hc 67 Box 51a,Valley Head,WV,26294-9701,304-704-9319
Hensley Enterprises,300 Victory Ln Dr,Williamson,WV,25661,304-235-0281
Tims Hoof Trimming,677 Tree Farm Rd,Eglon,WV,26716-8761,304-735-6808
Griffiths Produce,1198 Smoot Avenue,Danville,WV,25053,304-369-6980
Dillsworth Wilbert Vault Company,122 W Sioux Lane,Romney,WV,26757,304-822-7798
R & S Excavation,Route 2 Box 71 B,Pennsboro,WV,26415,304-659-3942
Beverly Jean Smith Trucking,Box 133-1 Maxwell Hill Rd,Wheeling,WV,26003,304-243-8899
Markco,Box 179 Main Street,Charmco,WV,25958,304-438-5788
Redd Farm,13241 Waynesburg Pike Rd,Cameron,WV,26033,304-686-3294
Garretts Welding,9096 S Calhoun Hwy,Mt Zion,WV,26151,304-655-7623
B & B Outdoor Furnaces,108 Grant Street,Petersburg,WV,26847,304-257-1105
R & C Farm,860 Howard Sions Road,Moorefield,WV,26836,304-434-3025
John Pingley Farm,2331 Germany Valley Rd,Riverton,WV,26814-8560,304-567-3075
L B Ranch And Tack,Hc 71 Box 165,Augusta,WV,26704-9531,304-496-9888
Wallace Country Boy Market,18651 Route 152 Road,Genoa,WV,25517,304-272-5994
Sunset Memories Gardens Mausoleums,1934 Dupont Road,Parkersburg,WV,26103,304-863-6011
Tug Hollow Farm,Route 1 Box 68-aa,Tunnelton,WV,26444,304-892-3994
Little D Farm,Hc 79 Box 30,Jacksonburg,WV,26377,304-889-2552
Evans Timber,Route 2 Box 44,West Union,WV,26456,304-873-3770
Jatze Excavation,Route 3 Box 207c,Grafton,WV,26354,304-265-5448
High Pockets Welding,5721 South Calhoun Hwy,Grantsville,WV,26147,304-354-6640
Suder Welding And Fabricating,183 Randolph St,Buckhannon,WV,26201-2327,304-472-4660
Freedom Used Cars,4950 Elk River Road,Elkview,WV,25071,304-965-6544
Murray's Sawmill,6800 Parkersburg Road,Sandyville,WV,25275,304-273-4914
Brannon Oil Co,249 S Pinch Road,Elkview,WV,25071,304-965-6838
The Intelligencer-wheeling News Register,1500 Main St,Wheeling,WV,26003-2826,304-233-0100
Ward Farm,5029 Thomas Ridge Farm,Leon,WV,25123,304-895-3092
Tech Tools,74 Contessa Court,Inwood,WV,25428,304-433-2789
Doin' Er All,2366 Grandview Road,Moundsville,WV,26041,304-312-5857
Lloyd Trailer Sales,691 Big Laurel Rd,Branchland,WV,25506,304-778-3635
Wendy's Old Fashioned Hamburgers,44 South Kanawha Street,Buckhannon,WV,26201,304-472-7563
Premier Auto & Transport,452 Deer Creek Rd,Canvas,WV,26662,304-651-4021
Mills Farm,605 Near Bethels Way,Martinsburg,WV,25405,304-676-5150
L And L Services,428 Mighty Oak Ln ,Hedgesville,WV,25427,304-582-2540
Triple J's Hauling,401 Overlook Dr ,Beckley,WV,25801,304-763-7168
Electrical Control Systems,195 Davis Street Suite 129,Princeton,WV,24740-5099,304-716-9160
Griffith Used Cars,1351 Athens Rd,Princeton,WV,24740-9096,304-425-6100
Travis Hinkle Trucking,261 Germany Valley Limestone Rd ,Riverton,WV,26814-8578,304-567-2901
R H Autobody,5812 Glady Fork Rd,Buckhannon,WV,26201-6564,304-472-6643
H&h Auto,8034 Valley Rd ,Berkeley Spgs,WV,25411,304-616-0902
Buckeye Sign Company,301 Viand St ,Pt Pleasant,WV,25550-1140,304-812-2699
Lewis Dowdy,Hc 83 Box 85a,Union,WV,24942,304-536-2193
Rustiques,2151 Beverly Pike,Elkins,WV,26241,304-636-8890
Allstate - Liqui-sol,11978 Coal River Road,Whitesville,WV,25209,304-854-1007
Aqua Green Trout Farm,5830 Middleway Pike,Kearneysville,WV,25430-9801,304-725-6518
Mouser Charolais Farm,2030 Independence Road,Independence,WV,26374,304-892-3991
Town & Country Homes Center Of Kingwood,435 E Main Street,Kingwood,WV,26537,304-329-2407
Hennen's Livestock,3553 Sanoma Rd,Palestine,WV,26160,304-275-8707
Shultz Logging,Rt 1 Box 279-e1,Lindside,WV,24951-9638,304-753-5949
Morgans Farm,25160 Winfield Road,Fraziers Bottom,WV,25082,304-937-2998
Grove Excavating,896 Hyslip Ford Rd,Bunker Hill,WV,25413-2972,304-229-8941
Locust Grove Farm,169 Douglas Dairy Rd,Bridgeport,WV,26330,304-842-8856
Trinity Farm,15319 Derricks Creek Rd,Sissonville,WV,25320-7907,304-984-3238
Miller's Pizza,2367 Williams River Rd,Cowen,WV,26206-8026,304-226-5216
See's Welding,1108 Funkhouser Road,Baker,WV,26801-8739,304-897-6176
Ginos Pizza Tudors Biscuit World,209 1st Ave South,Nitro,WV,25143,304-722-3511
Hyperhook,7 Jenkins St,Buckhannon,WV,26201,304-613-9839
Timco Auto Transport,76 Cloverleaf Circle,Charleston,WV,25306-6542,304-949-2323
Gibson Transport,777 Bethel Church Rd,Maidsville,WV,26541-8028,304-599-5624
Smiley Trucking,16 Sunshine Dr,Gilbert,WV,25621-1520,304-664-9099
Lawson Trucking,16550 Rt 152,Genoa,WV,25517,304-272-9046
B&b Services,2274 Scotch Hill Rd,Thornton,WV,26440,304-290-9142
J E Miller Transfer & Storage,420 Fulton Street,Wheeling,WV,26003,304-232-8820
1 For 10 Trucking,Will Dodd Rd,Jumping Branch,WV,25969,304-466-4090
19dz Trucking LLC,100 Opal Rd,Parkersburg,WV,26104,601-297-8167
1st Choice Transport LLC,3408 Emerson Ct,Parkersburg,WV,26104-1919,304-483-8910
1st Response Towing And Recovery LLC,33086 Charleston Rd,Leon,WV,25123,304-415-9401
2 Guys Trucking LLC,307 Fenway Dr,Charles Town,WV,25414-5278,304-995-5572
Star Weld,124 Vandale Avenue,Spencer,WV,25276,304-927-2520
20 20 Enterprises LLC,138 Purdue Street,Bluefield,WV,24701-7278,304-325-2081
Krise Trucking,212 20 Mile Creek,Belva,WV,26656,304-632-1513
Taz Excavating And Trucking,21 Hidden Valley,Chapmanville,WV,25508,304-784-8454
24hr Freight LLC,802 Desota Way,Martinsburg,WV,25401,412-498-2463
2j Trucking LLC,2581 Stevensburg Rd,Tunnelton,WV,26444,304-892-4445
3 B S LLC,64 Ho Ho Lane,Levels,WV,25431,304-790-0774
3 Distributing LLC,3707 Staunton Avenue,Charleston,WV,25304,304-444-6657
3 M Trucking LLC,146 Rainbow Ranch Rd,Salem,WV,26426,304-782-1877
3 Rivers Towing LLC,316 Main St,Gauley Bridge,WV,25085,304-595-2850
3-a Enterprises LLC,1441 Wilkie Dr,Charleston,WV,25314,304-342-3463
"3-d Management Services, Inc.",1576 Smoot Avenue,Danville,WV,25053,304-369-9286
304 Bins,446 Settlers Ln,Capon Bridge,WV,26711-4518,855-988-2937
304 Trucking LLC,307 Wise Acres Dr,Charleston,WV,25311-9635,304-962-0909
304logistics,6400 E Pea Ridge Rd,Huntington,WV,25705-2570,616-808-5407
3g's Hauling,3415 Chapline St,Wheeling,WV,26003,304-281-0760
3m Enterprises LLC,167 G Rd,Reedsville,WV,26547,304-276-9392
3rd Time Trucking LLC,5353 Specks Run Rd,Bunker Hill,WV,25413-3164,304-229-9593
"4 B Services, Inc.",2252 St Fork Road,Griffithsville,WV,25521,304-524-7569
4 C's Enterprises LLC,2831 Rohr Road,Masontown,WV,26542,304-864-4612
"4 D Trucking Company, Inc.orporated",106 Monterey Lane,Cross Lanes,WV,25313,304-776-1631
4 Ls,564 Ridge Rd,Masontown,WV,26542,172-471-0787
4 Star Excavating LLC,667 Shirley Road,Summit Point,WV,25446,304-725-3719
"4-way Trucking, Inc.",Route 60,Boomer,WV,25031,304-779-2220
4k Transport LLC,459 Macedonia,Buckhannon,WV,26201,304-704-8415
4k's Logistics LLC,13 Revere Ct,Bunker Hill,WV,25413,540-395-1697
4m Excavating LLC,297 Appaloosa Dr,Elkview,WV,25071,304-395-1943
Superior Plating & Hydraulics,70 Ventura Drive,Fairmont,WV,26554,304-534-4801
4u 2u LLC,186 Curve Bridge Rd,Grafton,WV,26354,304-677-3603
8eighteen Logistics LLC,124 Albert Barnes Rd,Romney,WV,26757,540-692-3812
9 East Auto Sales LLC,39 Slonaker Lane,Martinsburg,WV,25405,304-267-1652
9 East Auto Sales LLC,39 Slonaker Lane,Martinsburg,WV,25405,304-267-1652
A & A Electric & Hvac LLC,3344 Laurel Dale Rd,Scherr,WV,26726-8859,304-749-7082
"A & A Equipment Enterprises, Inc.",Hcr 80 Box 494,Davin,WV,25617,304-294-5257
"A & A Pools And Supplies, Inc.",30 Monroe Street,Martinsburg,WV,25404-3386,304-263-1300
A & A Services LLC,Route 76 East,Bridgeport,WV,26330,304-848-2077
"A & B United Freight Management, Inc.",211 Colorado St,Mount Hope,WV,25880,681-249-1988
A & E Transport LLC,64 Meadow Street,Verner,WV,25650,304-664-9828
A & H Storage,5775 Spruce River Rd,Danville,WV,25053,304-369-5333
"A & J Heating And Cooling, Inc.",Route 1 Box 96a,New Milton,WV,26411,304-349-4932
"A & M Wrecker Svc, Inc.",137 Golden Gate Ln,Pool,WV,26684-9738,304-872-6130
A & N Truck Service,673 George Washington Hwy,Thornton,WV,26440,304-892-3306
A & P Truck Lines LLC,19741 Webster Rd,Craigsville,WV,26205,304-742-6411
"A & P Trucking Heavy Hauling & Rigging, Inc.",629 Fairchance Rd,Morgantown,WV,26508,304-594-9302
A & S Heating & Cooling LLC,Route 4 Box 333a,Hurricane,WV,25526,304-757-8533
A & S Trucking,Rt 17 Blair,Blair,WV,25022,304-369-7116
A & S Trucking LLC,295 Laurel St,Shady Spring,WV,25918,304-237-1639
"A & T Trucking, Inc.",General Delivery,Panther,WV,24872,304-938-3946
A & W Industries Corp,488 Ward Road,Canvas,WV,26662,304-872-9535
"A & W Logistics, Inc.",1165 Ritter Drive,Daniels,WV,25832-9440,304-865-0260
"A & W Sanitation, Inc.",142 E Main Street,Ansted,WV,25812,304-658-5813
A 1 Computers,500 W King St ,Martinsburg,WV,25401-2602,304-267-8269
A 1 Lawn Care Services LLC,235 Darke Lane,Kearneysville,WV,25430,304-728-4353
"A 1 Service Shop, Inc.",Rt 17 North,Stollings,WV,25646,304-752-7315
A 1 Towing,Po Box 61,Wheeling,WV,26003,304-242-5555
A A A Glass & Awning Company,1003 Webster Rd,Summersville,WV,26651,304-872-4241
A A E Farms LLC,1426 Hastings Run Road,Mt Clare,WV,26408,304-669-9028
"A A Transport, Inc.",Rt 52 Sharon Heights,Gilbert,WV,25621,304-664-9639
A A Tree Movers,12319 Leetown Rd,Kearneysville,WV,25430,304-725-3723
"A A Trucking, Inc.",Route 8,Hanover,WV,24845,304-938-3069
A And E Construction,407 Prosperity Road,Prosperity,WV,25909,304-252-7400
"A And M Of Logan, Inc.",4969 Jerry West Hwy,Switzer,WV,25647,304-945-9118
A B Repair Service LLC,106 Sanford Street,Oak Hill,WV,25901,304-860-0565
A B Tools LLC,Hc 75 Box 147c,New Creek,WV,26743-9713,304-289-3387
A B Z Transport LLC,300 Dents Run Rd,Morgantown,WV,26501,304-296-7501
"A D Baker Homes, Inc.",112 19th Street,Wheeling,WV,26003-3704,304-233-8800
A D T Trucking LLC,1397 Silas-kanawha 2 Mile Road,Charleston,WV,25312-7477,304-400-9344
A F C Electric LLC,155 Green Acres Dr,Hurricane,WV,25526,304-389-9708
Wendlings Food Service,100 Wendling Plaza,Buckhannon,WV,26201,304-742-5500
A Hs Trucking LLC,352-a Darkhollow Rd,Alderson,WV,24910,540-752-5437
A J Enterprises,5273 Upper Heath Creek Road,Barboursville,WV,25504,304-736-9810
A J Logging LLC,Rt 1 Box 64 A,Greenbank,WV,24944,304-456-4820
A J Pancake Trucking LLC,136 N Burgess Hollow Rd,Elk Garden,WV,26717,304-790-0627
Dirtcon,Rt 1 Box 30-a,Enterprise,WV,26568,304-592-5818
A K Trucking LLC,235 Center Street,Iaeger,WV,24844,304-938-3680
A L Lee Corp,Route 54 South,Lester,WV,25865,304-934-5361
A L Nottingham Trucking LLC,92 Hannah Road,Mineral Wells,WV,26150,304-489-3028
A M Trucking,728 Dry Hill Rd,Beckley,WV,25801,304-255-6971
"A M Trucking, Inc.",Us Route 52,Varney,WV,25696,304-426-7994
Bob's Sanitary Service,924 Independence Road,Sophia,WV,25921,304-683-5790
A N L Davis Trucking LLC,217 Achilla Terrace,Augusta,WV,26704,304-813-0547
A+ Towing,157 Abbyville Ct. ,Ghent,WV,25843,304-228-2564
"Ar Rush Trucking, Inc.",77 Doe Run Road,Whitehall,WV,26554,304-677-9931
A R Walters Trucking LLC,Route 2 Box 38f,Sandyville,WV,25275,N/A
"A S Able Power Co, Inc.",497 High Street,West Milford,WV,26451-0000,304-745-5445
A Squared Transportation LLC,1027 Patch St,Beckley,WV,25801,304-731-1666
A Step Above Grease Rack LLC,420 Fulton St Ste A,Wheeling,WV,26003,423-307-6533
A Step Above Logistics LLC,675 Fort Henry Road Unit# 277,Triadelphia,WV,26059,423-307-6533
"A To Z Delivery, Inc.",511 N Highland Dr,Beckley,WV,25801,304-890-6290
"A To Z Delivery, Inc.",511 N Highland Dr,Beckley,WV,25801-2731,304-890-6290
"A To Z Dozer Service, Inc.",Route 3 Box 543,Philippi,WV,26416,304-457-5602
A To Z Services Of Wv LLC,1084 Aspen Dr,Bunker Hill,WV,25413-2626,304-676-8490
Lauttamus Communications,1344 Cove Road,Weirton,WV,26062,304-723-5555
A&a Trucking LLC,1698 Thornwood Road,Bartow,WV,24920,304-456-3054
A&b Trucking LLC,Hc 69 Box 45a,Frametown,WV,26623,304-364-2403
A&e Trucking LLC,514 Matheny Hill Rd,Enterprise,WV,26568,304-841-2621
A&j Trucking LLC,132 Bell Dr,Walker,WV,26180-5559,304-588-2655
A&m Ortega Transport LLC,281 Woodbury Ave,Martinsburg,WV,25404,304-350-0773
A-1 Auto Shop,39928 Midland Trail,Rainelle,WV,25962,304-438-3721
A-1 Equipment Corporation,3279 Cyrus Creek Road,Barboursville,WV,25504,304-736-6111
"A-1 Excavating Co, Inc.",Rd 3 Box 414,Moundsville,WV,26041,304-845-8761
A-1 Transport And Services,7272 Bug Ridge Rd,Sutton,WV,26601,304-678-9410
A-1 Truck Center LLC,5330 Point Pleasant Road,Ravenswood,WV,26164,304-273-5226
A-1 Used Toppers,125 Bluemont Ln,Beckley,WV,25801,304-253-9894
"A-a Homes, Inc.",7768 Winchester Ave,Inwood,WV,25428,304-229-9277
A-l Concrete,Shenango Run Route 20,Pine Grove,WV,26419,304-889-2576
A-tomic Trucking LLC,1524 Lake Floyd Cir,Bristol,WV,26426,832-277-4576
"A-z Logistics, Inc.",1710 Wayne St,Bluefield,WV,24701,304-800-4497
A-zone Environmental Services LLC,600 S Mildred Street,Charles Town,WV,25414,304-724-6458
A1 Used Auto Sales,Rt 3 716a,Bluefield,WV,24701,304-589-6238
Aa Truck Repair,160 Skeeter Trail,Berkeleysprings,WV,25411,304-820-4938
Aa Trucking,Rt 1 Box 121,Red House,WV,25168,304-586-3235
Aaa Portable Toilets,Rr 2 Box 184 Aa,Bluefield,WV,24701,304-425-5329
"Aaaa Auto Transport, Inc.",140a Carolina Ave,Chester,WV,26034,724-573-4400
Groundspro,119 E Smith St,Bridgeport,WV,26330,304-629-6990
Agl,8000 Pisgah Rd,Princeton,WV,24739-6686,304-888-3048
Aaron Street Logging LLC,Hc 83 Box 82a,Union,WV,24983,304-536-1568
"Aaron's Products, Inc.",1041 8th Avenue,Huntington,WV,25701,304-522-7022
Abarnes Trucking LLC,320 S 23rd St,Clarksburg,WV,26301-2404,304-669-2200
"Abatement Insulation Services, Inc.",511 29th Street,Parkersburg,WV,26101,304-422-0200
Abbott's Garage And Wrecker Service LLC,506 1st Avenue,Nitro,WV,25143,304-768-2070
Abc Fire Services LLC,4502 Rt 152,Lavalette,WV,25535,304-781-5618
Abc Holding LLC,107 Westwood Ave,Bridgeport,WV,26330,304-844-1887
Abc Towing & Recovery LLC,Route 2 Box 1300,Fairmont,WV,26554,304-363-5311
Abco Hauling And Hot Shots LLC,9421 Slate Creed Rd,Rockport,WV,26169,304-580-1613
Abe Transport LLC,37 Kaitlyn Ave,Lenore,WV,25676,304-688-9107
Abel's Lawn And Garden Service L L C,107 Mulberry Drive,Hurricane,WV,25526,304-562-3003
Abraham Land Design LLC,1430 Dixons Run Rd,Triadelphia,WV,26059,304-547-0037
Abshire Trucking LLC,312 Clyde Borum Road,Inwood,WV,25428,304-262-0015
Als,Rt 4 Box 42,Elkins,WV,26241,304-636-5474
"Absolute Maintenance And Repair, Inc.",1504 Main Street,Milton,WV,25541,304-390-5716
Absolute Quality Transportation LLC,606 River Downs Dr,Logan,WV,25601,304-941-3045
Absten Trucking LLC,13465 Winfield Road,Winfield,WV,25213-7116,304-757-2864
Accedia Moving Services LLC,1952 Foley Drive,Parkersburg,WV,26104,304-422-2287
Accelerated Tow LLC,796 Mccurdysville Pike,Rivesville,WV,26588-8034,304-203-3771
Accucut Lawn,3425 Teays Valley Rd ,Hurricane,WV,25526-9321,304-400-9986
"Accurate Surveying, Inc.",Rt 7 Box 294,South Charleston,WV,25309,304-756-5100
"Acd Wood Products, Inc.",3922 Villa Nova Rdg Rd,Duck,WV,25063,304-286-4545
Ace Energy Holdings LLC,423 Kelley Drive,Bridgeport,WV,26330,304-844-1887
Ace Moreland,419 Powers Hollow Road,Slanesville,WV,25444-3345,304-492-5327
Ace Hauling LLC,35 Waterside Drive,Morgantown,WV,26508,304-216-8881
"Ace Pipeline, Inc.",412 Meadows Branch Road,Hamlin,WV,25523,304-455-4255
Ace Services LLC,283 Newhouse Drive,Charleston,WV,25302-4204,304-205-4218
Baker Truck Equipment,Rt 60 At Mynes Rd,Hurricane,WV,25526,304-722-3814
"Ace Trucking, Inc.",Box 84 Route 80,Bruno,WV,25611,304-583-2050
"Acg Delivery Construction, Inc.",Park Street,Pineville,WV,24874,304-732-6066
Achieve Trucking LLC,822 Half Crest Drive,Charleston,WV,25311,304-344-2484
J & M Trucking,Hc 77 Box 116,Ballard,WV,24918,304-660-6042
Acire Transport LLC,622 W Mcdonald Ave,Man,WV,25635,304-583-8598
Acme Delivery LLC,200 25th Street,Dunbar,WV,25064,304-541-0007
Acme-ventures Company LLC,138 Renee Drive,Petona,WV,25154,304-932-0721
Acord Excavation,429 Gasplant Rd,Bolt,WV,25817,304-934-0289
Rt 28 Excavators & Equipment,106 Cement Mill Road,Ridgeley,WV,26753,304-738-0439
Act Enterprises LLC,41065 Us Rt 52,Crum,WV,25669,304-393-4233
Action Food Services,511 29th St Parkersburg,Parkersburg,WV,26142,304-422-1865
"Action Gaming, Inc.",68 18th St,Wheeling,WV,26003,304-232-5100
Active Air Production LLC,2239 Stewartstown Road,Morgantown,WV,26508,304-290-1001
Adam Cole Snider,Rt 1 Box 118,Cario,WV,26337,304-991-7237
Kd Excavation An Dirtworks Co,6143 Reuben Branch Rd,Salt Rock,WV,25559,304-733-9299
Adam E Hatfield,1230 Horsepen Road,Gilbert,WV,25621,304-664-2690
Adam H Bourne,612 Fredrick Street,Bluefield,WV,24701,304-960-1065
Adam's Trucking,Glade Creek Road,Danese,WV,25831,304-438-8940
Adam Helmick,1273 Zion Ridge,Gay,WV,25244-9659,304-377-7873
Adam Huffman LLC,Hc 80 Box 291 M,Maysville,WV,26833,304-749-8819
Adam James Hose,89rockylane,Moorefield,WV,26836,304-434-2347
Adam L Cutright,Route 1 Straight Fork,Crawford,WV,26234-0000,304-924-5861
Linzy Septic Tank Service,327 Newhouse Dr,Charleston,WV,25302,304-342-0902
A M Bragg Trucking,2374 Sandstone Road,Green Sulphur Springs,WV,25966,304-466-5216
Lindsay Trucking,215 N 7th Street,Clarksburg,WV,26301,304-672-5302
Adam Newhouse,87 Skyview Lane,Clendenin,WV,25045,304-548-7701
Adam Ryan Rock,779 Blue Jay Drive,Beaver,WV,25813,304-712-8823
Adam Whanger,410 Greenbrier Avenue,Ronceverte,WV,24970,304-992-2127
Adams Asphalt LLC,8858 River Road,Hedgesville,WV,25427-3356,304-258-9697
Adams Enterprises,166 Brockett Drive,Springfield,WV,26763,304-492-5866
Adams Equipment Company,Route 28 South,Fort Ashby,WV,26719-1130,304-298-3726
Adams Logging,Rt 1 Box 166,West Union,WV,26456,304-349-5726
Adams Logging LLC,Hc 65 Box 2300,Springfield,WV,26763,304-492-5910
Adams Trucking,212 Parson Road,Aurora,WV,26705,304-735-5855
"Adams Trucking & Supply, Inc.",3700 U S Route 60 East,Barboursville,WV,25504,N/A
Addair Transport LLC,483 North Springs Rd,Hanover,WV,24839,304-785-3906
Adkins Distribution Delivery Svc,Rt 44 South,Wilkinson,WV,25653,304-752-6663
Adkins Family Rv Center LLC,120 Outdoor Plaza Drive,Ripley,WV,25271-5558,304-372-1323
"Adkins Home Center, Inc.",Route 72 N,Parsons,WV,26287,304-478-2241
Adkins Pre Owned Cars Limited Liability Company,1100 Oak St,Kenova,WV,25530,304-453-2404
Adkins Transportation LLC,257 Sue Dr,Saint Albans,WV,25177-1662,304-590-7582
Adt Trucking LLC,62 Front St,Salem,WV,26426,304-695-9677
"Advanced Electric, Inc.",8241 Frame Road,Elkview,WV,25071,304-345-5530
Advanced Hauling LLC,44 High Street,Morgantown,WV,26505,304-225-0940
"Advanced Refrigeration, Inc.",689 Fairchance Rd,Morgantown,WV,26508,304-598-9030
Advantage Precision Products LLC,651 Phillips Run Rd,Summersville,WV,26651-4681,304-872-2448
Adventure Rv Sales,371 Airport Rd,Beaver,WV,25813,304-255-2734
Adventure Wv,78 Ames Heights Rd,Lansing,WV,25862,304-673-6266
Adwen Paye LLC,48 Marion Dr,Bridgeport,WV,26330,304-503-3115
"Aerial Parts, Inc.",265 Rustic Tavern Rd,Hedgesville,WV,25427,304-754-8222
Aes Transport LLC,3632 Browning Lambert Mountain Rd,Rock,WV,24747,304-887-5534
"Aesop Trucking, Inc.",Route 2 Box 68 D,Philippi,WV,26416,304-457-3095
Afa Transporting LLC,807 Karl St,Weston,WV,26452,813-763-5348
Noe Office Equipment,610 Green Street,Parkersburg,WV,26101,304-428-0121
Ag Enterprises LLC,72 Frontier Lane,Hurricane,WV,25526,304-743-0404
Agape Trucking LLC,406 1/2 Jordan St,Dunbar,WV,25064-1504,304-982-4712
Age Transportation LLC,31 Mornings Circle,New Martinsvlle,WV,26155-1853,304-844-3443
"Agnew Distribution, Inc.",559 Conservation Dr,Hedgesville,WV,25427,304-676-2526
Agp Enterprise LLC,3420 Northwest Turnpike,Pennsboro,WV,26415,304-873-1222
Agri Spreading LLC,Grassy Lick Rd,Romney,WV,26757,304-822-3612
"Aide's Discount Store, Inc.",8956 Seneca Trail S,Ronceverte,WV,24970-8374,304-645-2415
"Air Flow Supply, Inc.",806 Philippi Pike,Clarksburg,WV,26301,304-624-4363
"Airxperts, Inc.",6379 Rt 34 South,Hurricane,WV,25526,304-562-7300
Aj Scrap Haulers LLC,146 Honeysuckle Rd,Horner,WV,26372,860-815-0728
Aj Transport LLC,1676 Gallia Rd,Glenwood,WV,25520,304-634-1647
A J Trucking,Bear Run Road,Philippi,WV,26416,304-457-3660
"Ajax Trucking, Inc.",751 Bruce Rd,Mount Nebo,WV,26679,304-618-0634
Ajm Corporation,Chapwood Drive,Summersville,WV,26651,304-651-0215
Rhodes Trailer & Truck Bodies,28 South First Street,Parkersburg,WV,26101,304-863-8078
Ak Transport LLC,103 Lee Street,Petersburg,WV,26847,304-257-4887
Ak Trucking LLC,5547 Lee Creek Rd,Belleville,WV,26133,304-863-3882
Bent Willeys,471 Chestnut Street,Morgantown,WV,26505,304-292-9590
J&h Greenhouse,53 Cherry Fork Rd,Montrose,WV,26283,304-636-9191
Al Business Solutions LLC,22 Riparian Ln,Ranson,WV,25438,304-240-0097
Al Do Right Shipping,1577 Hyatt Ave,Morgantown,WV,26505,304-685-7350
"Al Marino, Inc.",1653 4th Avenue,Charleston,WV,25387,304-345-9000
Al Nottingham Trucking LLC,92 Hannah Rd,Mineral Wells,WV,26150,304-489-2122
"Al's Auto Service, Inc.",421 Commerce Street,Wellsburg,WV,26070,304-737-2271
H & B Home Improvement,257 Pine Street,Gassaway,WV,26624-1319,304-678-3005
Taylor's Trash Removal,806 Broadway Ave,Parkersburg,WV,26101,304-422-3803
Amr Farm,119 Johnstown Rd,Lost Creek,WV,26385,860-815-0728
Alan's Pool Service LLC,70 Cherry Street,West Hamlin,WV,25571,304-939-1027
One Chance,1022 Broad St,Summersville,WV,26651,304-872-1568
Albert E Crites,2540 Walnut Bottom Road,Fisher,WV,26818,304-434-2247
Mick Equipment,3130 Enterprise Road,Palestine,WV,26160,304-275-0383
Albert Hugh Hartman,1182 Reeds Creek Rd,Franklin,WV,26807-5595,304-358-7417
Midnight Special Transfer,Hc 71 Box 118,Augusta,WV,26704,304-496-1043
A-1 Septic Tank Cleaning Service,Route 4 Box 272e,Philippi,WV,26416,304-457-2821
A And L Trucking,5515 North River Rd,Baker,WV,26801,405-576-3188
A C D Trucking,Sheets Road,Green Bank,WV,24944,304-456-4106
Albright Hauling LLC,683 Cumbo Rd,Martinsburg,WV,25403,540-931-7994
Alc Transport,Hc 30 Box 76,Maysville,WV,26833,304-749-8221
Alco Fence Company Of The Mid-ohio Valley,31 Cory Road,Whitehall,WV,26554,304-366-2626
Alcon Trucking Company,Us Rt 33 West Red Rock Road,Buckhannon,WV,26201,304-472-8890
Alcor Trucking LLC,3 Lyon Street,Ridgeley,WV,26753,304-738-9074
Ald Enterprises LLC,107 Marie Lane,Morgantown,WV,26508,304-296-7301
Alderson Broaddus University,101 College Hill Dr,Philippi,WV,26416,304-457-6247
A & S Trucking,50 Just Debsue St,Bunker Hill,WV,25413,540-433-6470
Twlight Towing & Recovery,2423 7th Avenue,Charleston,WV,25387-1813,304-395-2236
Alexander Barnes,Route 5 Jersey Mt Road,Romney,WV,26757,304-822-4639
Alfab Pre-owned Trucks And Trailers,Route 16 North,Smithville,WV,26178,304-477-3356
"Alford Home Solutions, Inc.",600 First Avenue S,Nitro,WV,25143-2318,304-768-2135
Alford Brown Trucking,Hc 67 Box 555 B,Renick,WV,24966,304-497-3143
A & L Logging,Hc 69 Box 168 A,Herndon,WV,24726,304-294-6961
Mountaineer Kitchens And Baths,967 Hedgesville Rd,Martinsburg,WV,25403-2280,304-267-6262
Mountain State Honey Company,334 Pennsylvania Ave,Parsons,WV,26287,304-478-4004
"Alkon, Inc.",1007 Ridgeview Dr,Mt Lookout,WV,26678,304-872-6898
"All - Pumps Sales & Service, Inc.",2182 Rt 75,Kenova,WV,25530-9576,304-453-5610
All 4 Excavating LLC,10742 Cold Stream Rd N/a,Capon Bridge,WV,26711,304-359-0310
All About Glass LLC,95 Mere Dr,Clarksburg,WV,26301-5706,304-844-0121
All American Auto Transport LLC,170 Crestview Dr,Romney,WV,26757,540-247-6332
"All American Industrial Supply, Inc.",6171 Childers Road,Barboursville,WV,25504,304-733-9011
All American Recovery Service LLC,3128 Earl L Core Rd,Morgantown,WV,26508,304-376-7739
All American Well Service LLC,1748 Us Hwy 33 W,Weston,WV,26452,304-269-8413
Aawc,484 Williamsport Pike 125,Martinsburg,WV,25404,540-931-4065
All Fence Company LLC,729 Lynn Camp Rd,Pennsboro,WV,26415,304-904-8663
All His Transport,3677 Robert C Byrd Dr,Beckley,WV,25801,865-839-2546
All In 1one Logistics LLC,41 Chapman Ct,Summit Point,WV,25446,208-457-7515
All Med LLC,406 New Goff Mountain Road,Cross Lanes,WV,25313,304-721-0775
All Out With Ja,2027 Mountaineer Highway,Newburg,WV,26410,304-698-5899
All Quality LLC,162 Linestone Road,Cross Lanes,WV,25356,304-776-9473
"All Season Logistics, Inc.",508 N Highland Dr,Beckley,WV,25801,304-222-1067
All Terrain Excavating LLC,1337 Ridge Rd N,Hedgesville,WV,25427-4950,304-754-9000
All-4-haulin LLC,3860 Rush Run Rd.,Burton,WV,26562-6227,304-775-4038
All-con LLC,124 Philpott Lane,Beaver,WV,25813,304-255-0491
"All-in-one Construction, Inc.",203 J W Hughes Dr,Mt Nebo,WV,26679,304-872-1847
Allan D Strawser,68 Deere Drive,Aurora,WV,26705,304-735-5448
Alleghany Investments LLC,1240 Power Station Hwy,Mount Storm,WV,26739,304-693-7131
Allegheny Environmental Services LLC,176 Old Cheat Road,Morgantown,WV,26505,304-692-8630
Allegheny Excavating LLC,40 Briarwood Drive,Elkins,WV,26241-8646,304-642-7654
Allegheny Lodge Enterprises LLC,Route 39,Minnehaha Springs,WV,24954,304-799-4256
Allegheny Treenware LLC,1922 S Evansville Pike,Thornton,WV,26440-7036,304-892-5008
"Allegheny Wood Products, Inc.",240 Airport Road,Petersburg,WV,26847,304-257-1082
Allen Albert,92 Ours Dr,Martinsburg,WV,25405,304-579-9719
Allen Burt Calhoun,Hc 62 Box 64-m,Upper Tract,WV,26866-9706,304-358-3211
Allen C Shaffer,1715 Lakeland Circle,Sissonville,WV,25320,304-352-7336
Northern Lite,1 5 Mile On Turkey Run,Bucklannon,WV,26201,304-472-3431
Allen Edward Boyce,3970 Bug Ridge,Sutton,WV,26601,304-765-2358
Duckworth Trucking,Route 3 Box 605 C,Philippi,WV,26416,304-457-3904
Allen M Nelson,11 Stonegate Estates,Sandyville,WV,25275,304-777-0715
One-a Trucking,Hc 70 Box 1432,Breeden,WV,25666,304-393-3124
Walnut Ridge Farm,2430 Smokey Branch Road,Danese,WV,25831-7732,304-484-7766
Allen Smith Sales & Service LLC,11493 Altizer Rd,Arnoldsburg,WV,25234-7553,304-377-3240
Allen Trucking & Excavation LLC,576 Table Rock Road,Beaver,WV,25813,304-573-9440
"Allens Distribution, Inc.",312 Randolph Street,Martinsburg,WV,25401,304-374-8879
Allens Scrap Service LLC,3865 Sissonville Drive,Charleston,WV,25312,304-552-6778
Alley Cat Trucking LLC,73 Alley Drive,Rainelle,WV,25962,304-575-0282
"Alliance Auto Auction, Inc.",614 1st Ave South,Nitro,WV,25143,304-722-2886
West Virginia United Linen Services,2100 Rail Street,Morgantown,WV,26501,304-598-6398
"Allied Transportation Brokerage Company, Inc.",20 26th Street,Huntington,WV,25703,304-525-9125
Allied Transportation Services Company,20 26th St,Huntington,WV,25703-1233,304-523-2144
Allied Truck Leasing LLC,50 Matheny Ln,Mineral Wells,WV,26150,304-485-4418
Allstar Ecology LLC,1580 Mckinney Cave Road,Reedsville,WV,26547,304-816-3490
Allstate Gutters LLC,424 2nd Ave N,Saint Albans,WV,25177,202-521-1493
Ally Equipment LLC,2481 River Rd,Beechbottom,WV,26030,817-522-2342
Alpha & Omega Logistics LLC,Po Box 1791,Elkins,WV,26241,304-637-8885
Alpha Omega Trucking Co LLC,292 Right Fork Laurel Crk,Lenore,WV,25676-7088,304-784-0270
"Alpine Lake Property Owners Association, Inc.",700 West Alpine Drive,Terra Alta,WV,26764,304-789-2481
Alt Logistics,Rt 52,Kermit,WV,25674,304-752-6453
Alty Enterprises,2580 Rte75,Kenova,WV,25530,304-710-0701
"Aluminum Service Center, Inc.",Washington Avenue,Ellenboro,WV,26346,304-869-3261
"Alvarez Contractors, Inc.",R3 Box 103 On Us 19,Clarksburg,WV,26301-9535,301-334-1410
Alvarez Enterprises LLC,57 Eldersville Rd,Colliers,WV,26035,304-527-3302
Alvin Hensley,500 Riverview,Logan,WV,25601,304-752-9382
Creston Well Service,444 Richardsonville Rd,Creston,WV,26141,304-275-3578
Alvin R Good,Route 1 Box 5,Advent,WV,25231,304-988-3950
Alvin W Cox,8545 Sewell Cr Rd,Meadow Bridge,WV,25976,304-484-7610
Whetzel's Back-hoe,Old Martinsburg Grade Road,Augusta,WV,26704,304-304-3043
"Alyeska, Inc.",450 Big Bear Lake Rd,Bruceton Mills,WV,26525-6065,304-379-4382
"Am Trucking, Inc.",Rt 1 Box 643,Delbarton,WV,25670,304-475-2323
"Amalgamated Logistics, Inc.orporated",213 3rd Avenue,Glasgow,WV,25086,304-767-9143
Amax Trucking LLC,176 Renee Dr,Peytona,WV,25154,304-543-2946
Amberlynn LLC,897 Dollar Lane,Bunker Hill,WV,25413,N/A
Amc Transport LLC,207 East High Street,Kingwood,WV,26537,304-328-3583
American Associates LLC,155 Aryandale Drive,Williamson,WV,25661,304-475-8312
American Billiards LLC,312 Lee St W,Charleston Wv,WV,25302,304-344-1977
"American Blasting Consumables, Inc.",1262b Greenbrier St,Charleston,WV,25311,681-265-9123
"American Clean Air, Inc.",3158 Elm St,Parkersburg,WV,26104-1921,800-321-6233
Allied Waste Services Of Wheeling,548 Cherry Hill Road,Wheeling,WV,26003,304-277-2088
"Control Products, Inc.",150 Dixieland Dr,Stanaford,WV,25927,304-255-7438
American Electric Services,11065 Middleway Pike ,Charles Town,WV,25414-4366,304-728-2651
American Energy Contractors LLC,100 Price Indusrtrial Lane,Huntington,WV,25705,304-529-4771
American Excavating LLC,Us Rte 33,Franklin,WV,26807,304-358-7338
"American Geotech, Inc.",601 Ohio Ave,Charleston,WV,25302-1314,304-340-4277
American Hauling,1311 Mill Street,Farmington,WV,26571,304-694-1768
American Logistics LLC,4392 First Ave,Nitro,WV,25143,304-755-0222
American Muscle Docks & Fabrication LLC,141 Sunset Ave,Wellsburg,WV,26070,304-737-2411
"American Plate Glass, Inc.",75 Heiskell Avenue,Wheeling,WV,26003-6091,304-242-7800
American Recovery And Transport,7412 Keeney Mountain Rd,Sandstone,WV,25985,304-466-1293
"American Recycling, Inc.",280 Elk Road,Webster Springs,WV,26288,304-847-5551
American Refractory Company LLC,103 Martin Dr,Mount Hope,WV,25880,304-877-6730
American Soda & Media Blasting LLC,922 Upton Drive,South Charleston,WV,25309,304-546-4686
Wilderness Wood Company,8960 Wilderness Highway,Nallen,WV,25840,304-574-9663
"American Tourist Travel Agency, Inc.",P O Box 1323,Bluefield,WV,24701,N/A
American Trailers LLC And Used Auto,30 Middletown Rd,Fairmont,WV,26554,304-363-1920
American Transfer LLC,2255 Main Drive,Saint Albans,WV,25177,304-545-3245
American Trucking Company,3078 Point Marion Rd,Morgantown,WV,26505,304-292-8725
"American Well Service, Inc.",5677 Us Route 152,Lavalette,WV,25535,304-272-9966
Amerigold Express LLC,161 Squirrel Dr,Hedgesville,WV,25427,443-301-6693
Ames Backhoe Service LLC,Leading Creek Rd,Glenville,WV,26351,304-462-4393
"Amherst Madison, Inc.",2 Port Amherst Drive,Charleston,WV,25306,304-926-1131
Amicks Welding,331 Leivasy Road,Nettie,WV,26681,304-846-6030
Ams At Your Door,269 Harperella Lane,Berkeley Springs,WV,25411,304-258-0007
Napa Auto & Truck Parts,I-79 Exit 125,Bridgeport,WV,26330,304-592-2001
Abs Limeing,16 Calvary Road,Buckhannon,WV,26201,304-473-0397
Ancanco LLC,7721 Parsons Rd,Montrose,WV,26283,304-591-4799
"Anchor Longwall & Rebuild, Inc.",1 Industrial Park Dr,Wheeling,WV,26003,304-232-2530
"Anchor Supply Company, Inc.orporated",1330 Ohio Ave,Dunbar,WV,25064,304-720-4992
Andar Equipment Leasing,Rt 52 Main Street,Gilbert,WV,25621-0000,304-664-8115
Anderson Excavating LLC,343 Williams Road,Morgantown,WV,26501,304-983-2296
Anderson Wholesale Company,98 Riverview Avenue,Logan,WV,25601,304-752-5766
Andrew D Hott,Rr 1 Box 92 A 20,Augusta,WV,26704-9730,304-496-9173
Andrew H Dudley Sr,515 Fox Run Rd,Wardensville,WV,26851,304-874-4303
Andrew J Finch,168 Canterbury Drive,Beckley,WV,25801,304-252-1352
Andrew J Varner,8 Chestnut Lane,Wheeling,WV,26003,304-232-8490
Morton Logging,543 Pack Fork Rd,Lizemores,WV,25125,304-587-7935
Andrew P Woodson,610 Crooked Curve Rd,Pawpaw,WV,25434,540-336-4144
"Andy & Abby Leasing, Inc.",General Delivery,New Richmond,WV,24867,304-294-5257
Andy Asbury,Rr4 Box 69a,Fayetteville,WV,25840,304-574-2414
Aeb Logging,Hc 67 Box 578a,Renick,WV,24966,304-497-2559
Anemoi LLC,3078 Point Marion Rd,Morgantown,WV,26505,304-276-5227
Angel Eyes Enterprises LLC,3752 Moyers Rd,Bruceton Mills,WV,26525-7274,304-379-3805
Angel Tree & Handyman Service LLC,364 Reservation Drive,Alum Creek,WV,25003,304-545-1955
Cogar Trucking,125 White Oaks Estates,Sutton,WV,26601,304-765-2123
Givens Farm,Rt 1 Box 99a,Palestine,WV,26181,304-275-3338
Angelic Sisters Enterprise LLC,37 Appalachian Ct,Falling Wtrs,WV,25419,240-483-1270
Angels Auto Transport LLC,1003 Lynn Oaks Drive,Cross Lanes,WV,25313,304-741-2086
Angie Wells,493 Eagle School Rd,Martinsburg,WV,25404,202-521-1493
Tap Vending,3 Congressional Way,Huntington,WV,25705-2109,304-733-5027
Anonymous Transportation Logistics LLC,138 Harper Ln,Seth,WV,25181,304-837-8297
Anp Transport LLC,126 Augustine Ct,Kearneysville,WV,25430,330-974-3406
Movira Trucking Company,287 Coal Run,Albright,WV,26519,304-379-4223
Tony Mccoy Trucking,3458 Point Mountain Road,Webster Springs,WV,26288,304-847-7454
T&m Distributing,135 Yaweh Lane,Mount Nebo,WV,26679,304-872-5377
Anthony Erwin,1422 Calvary Hill Rd,Hedgesville,WV,25427,304-754-6642
Eugene's Trucking,1926 Berryville Pike,Charles Town,WV,25414,304-724-8020
Anthony Gall,39 Sonya Lane,Bunker Hill,WV,25413,304-839-2394
Anthony Graham,2946 Brush Creek Falls Rd,Princeton,WV,24739,304-425-4999
Hannah's Paint & Body Shop,12182 Coal River Rd,Whitesville,WV,25209-9310,304-854-2300
Anthony Lewis Garrett,Rt 2 Box 104a,Ravenswood,WV,26164,304-273-2016
Jabb Trucking,4206 Matoaka Rd,Rock,WV,24747,304-467-7604
Spag's Service Center,208 So Chestnut Street,Clarksburg,WV,26301,304-622-9253
Xtreme Welding,959 N Springs Rd,Hanover,WV,24839,304-664-2671
Anthony Thomas Trucking LLC,129 Packs Branch Rd,Mount Hope,WV,25880,304-640-8355
"Anthony X Enterprises, Inc.",225 Lubbuck Ln,Morgantown,WV,26508-2704,304-906-6464
Anthony's Truck Repair Ltd Co,Rt 1 Box 178,Alderson,WV,24910,304-445-2858
Antique Cabins And Barns LLC,574 West Main St,White Sulphur Springs,WV,24986,304-667-7612
Antler Welding LLC,25 Pinnacle Creek Road,Pineville,WV,24874,304-732-9520
Stubblefield Transportation,2580 3rd Ave,Huntington,WV,25703-1615,304-840-8228
Anytime Anywhere Hotshot Trucking LLC,Rr1 95a1,Belington,WV,26250,304-376-2497
Anytime Trucking LLC,92 Apache Dr,Elkins,WV,26241,304-997-2544
Ape Yard Trucking LLC,1750 E Dupont Ave Apt 5,Belle,WV,25015,304-881-7308
"Apex Pipeline Services, Inc.",503 River Rd Hub Indl Park,Nitro,WV,25143,304-204-0080
Apex Transport LLC,22 Fleetwood Ct,Martinsburg,WV,25404,301-573-2287
"Aplicare, Inc.",280 Prichard Industrial Park Rd,Prichard,WV,25555,304-486-5656
Herb's Quality Used Cars & Trucks,2976 Valley Rd,Berkeley Springs,WV,25411,304-258-1312
Awx,543 Mcclung Rd,Hurricane,WV,25526,304-549-0573
Appalachian Coal Services LLC,116 S 7th Street,Princeton,WV,24740,304-931-4247
Appalachian Delivery Service,110 Firestone Dr,Ansted,WV,25812,304-651-7359
Appalachian Express LLC,290 Patricia Ave,Elkins,WV,26241-3992,304-621-1875
"Appalachian Leasing, Inc.",159 Davis St,Princeton,WV,24740-7429,276-326-2600
"Appalachian Log Structures, Inc.",252 Brush Creek Rd,Princeton,WV,24740,304-372-6410
"Appalachian Machine, Inc.",5393 State Route 10,Salt Rock,WV,25559,304-733-2625
"Appalachian Office Products And Services, Inc.",714 Ridgeview Dr,Mount Lookout,WV,26678,304-872-0090
"Appalachian Outreach, Inc.",1012 Grandview Road,Glen Dale,WV,26038,304-845-2762
Appalachian Pipe Inspection Oil Field Services LLC,170 Old Cheat Road,Morgantown,WV,26508-4107,304-241-5970
"Appalachian Piping Products, Inc.",1152 Wv Hwy 5 E,Glenville,WV,26351-7608,304-462-5157
"Appalachian Railcar Services, Inc.",737 Eleanor Industrial Park,Eleanor,WV,25070,304-755-7083
Appalachian Roof Company LLC,5222 Lancaster Ave,Charleston,WV,25304-2132,304-410-6642
Appalachian Shredding Company LLC,Rr 2 Box 72b,Secondcreek,WV,24974,304-772-4429
Appalachian Stone LLC,1103 George Kostas Dr,Logan,WV,25601,606-835-4355
Appalachian Stream Restoration LLC,48 Wandling Road,Sumerco,WV,25567,304-756-3066
"Appalachian Teen Challenge, Inc.",1651 Unity Rd,Princeton,WV,24739,304-384-9074
Appalachian Timber Services LLC,393 Edgar Given Parkway,Sutton,WV,26601,304-766-3109
Appalachian Timber Transport LLC,14 Bean Ridge Road,Charleston,WV,25312,304-984-9578
App Transfer,737 Eleanor Industrial Park,Eleanor,WV,25070,304-755-7083
"Apple Valley Glass And Doors Co, Inc.",89 Gideon Lane,Falling Waters,WV,25419,304-274-0456
"Apple Valley Waste Service, Inc.",362 W Burr Blvd,Kearneysville,WV,25430,N/A
"Apple Valley Waste Services Of Maryland, Inc.",362 W Burr Blvd,Kearneysville,WV,25430,304-724-1834
Applewood Motorcar Transport,210 Mcguire Lane,Gerrardstown,WV,25420,304-229-3784
Appliance Discounters,109 Lawless Road,Morgantown,WV,26505,304-292-1348
Applied Mechanics Corp,Route 1 Box 41-j,Bridgeport,WV,26330,304-622-9599
Cam-chan Trucking,Rt 13 Gilbert Creek Rd,Baisden,WV,25608,304-664-8973
Aqua Ryderz,1053b Arbuckle Rd,Summersville,WV,26651,304-619-1128
Aqua Transfer & Oilfield Solutions Corp,272 Development Lane,Buckhannon,WV,26201,304-460-7370
A M Ward Stock Farm,Route 2 Box 208,Lost Creek,WV,26385,304-622-4394
Ar Consulting Services LLC,63 Hickory Flat Rd,Buckhannon,WV,26201,304-677-5455
Ara Logging,Rt 2 Box 446a,Elkins,WV,26241,304-621-7230
Arcelormittal Mining Equipment LLC,640 Clover Dew Dairy Rd,Princeton,WV,24740,304-325-5719
"Arch Transport, Inc.",Howard Rd,Clarksburg,WV,26301,304-623-2499
Archie Adkins,2333 Lynn Camp Road,Palestine,WV,26160-9708,304-275-0973
Bassham Truckiing,438 Sandlick Road,Seth,WV,25181,304-837-7545
Takz Trucking,85 Martin Ave,Masontown,WV,26542,304-376-4314
"Archive Services, Inc.",1545 Hansford Street,Charleston,WV,25311,304-346-8878
Arden E Cogar,945 Bennett Ave,Webster Springs,WV,26288,304-847-2353
Areago Oilfield Services LLC,621 Hayfield St,Morgantown,WV,26508,304-413-5501
Argil D Jones Sr,Leading Creek Road,Big Springs,WV,26137,304-354-0327
Argo Trucking LLC,584 Frog Level Rd,Welch,WV,24801,405-576-3188
R & R Farms,1395 Chapel Road,Gassaway,WV,26624-9511,304-364-5301
Arh Transport LLC,72 Truman Road,Inwood,WV,25428,304-283-6600
"Aria Hauling & Excavating, Inc.",1800 County Rd Rt 2,Weirton,WV,26062,304-748-0880
Ohio Valley Delivery Service,7497 Harris Hwy,Washington,WV,26181,304-863-0622
Armstrong Telephone Company,311 Main Street,Hamlin,WV,25523,724-283-0925
Armstrong Telephone Company Northern Division,600 East North Street,Harrisville,WV,26362,724-283-0925
A A Walker Iii,Route 4 Box 432 C,Clarksburg,WV,26301,304-838-0696
Dhi Trucking,66 Canyon Village,Morgantown,WV,26508,304-319-0945
"Arnold Moore Logging, Inc.",Wilmouth Run Road,Montrose,WV,26283,304-636-2675
Arnold Wayne Merryman,Route 3 Box 74-a,Salem,WV,26426,304-782-1893
Arnold Zirk,Rt 2 Box 300,Ridgeley,WV,26753,304-726-4733
Arrel Transportation LLC,347 Quail Ridge Rd,Thomas,WV,26292,304-290-8005
Arrow Surplus & Storage LLC,344 Farm Rd,Lewisburg,WV,24901-5513,304-989-2706
Art Transport LLC,Hc 78 Box 26,Shanks,WV,26761,304-813-7650
Hescht Trucking Co,3690 Winfield Road,Winfield,WV,25213,304-586-3156
Arthur J Lambert,12089 Dupont Road,Washington,WV,26181,304-863-9387
Arthur L Nose,2976 Morgantown Pike,Belington,WV,26250,352-476-5986
Arthur L Weese,4016 Erbacon Road,Cowen,WV,26206,304-226-3094
Arthur Lovejoy,Rt 2 Box 322-b,Ona,WV,25545-9665,307-762-2370
Art Jerin's Windows & Siding,1097 Tice Rd,Falling Waters,WV,25419-7074,304-274-6873
"Articulated Services, Inc.",1793 Springwood Circle,Sissonville,WV,25320,304-984-2962
Arvil Ward,565 Davys Run,Harrisville,WV,26362-7809,304-643-2082
Arvilla LLC,9176 S Pleasants Hwy,Saint Marys,WV,26170,304-665-7167
Arvilla Oilfield Services LLC,7994 South Pleasant Hwy,St Marys,WV,26170,N/A
"Arvilla Pipeline Construction Co, Inc.",7994 South Pleasant Hwy,St Marys,WV,26170,304-665-2652
As Auto Mart,5409 Charles Town Road,Kearneysville,WV,25430,304-876-1006
Asa Davison,414 Maple Avenue,Fairmont,WV,26554,304-363-9158
Ascend Transport LLC,115 Dead End Rd,S Charleston,WV,25309,304-543-7665
Ashcraft Hauling,Rt 3 Box 232-b,Mannington,WV,26582,304-825-1213
Ashley Eye,516 Spring Avenue,Moorefield,WV,26836,304-530-6179
Ashley's Recycling LLC,119 Commercial St,Mineral Wells,WV,26150-0965,304-489-2338
Ashworth's Mobile Home Movers LLC,1792 Silas Kanawha 2 Mile Rd,Charleston,WV,25312,304-343-1725
Asl Trucking LLC,50 Lane St,Morgantown,WV,26501-4391,304-813-9003
Asphalt Contractors & Site Work,20 Dickson Dam Road,Lavalette,WV,25535,304-697-2510
"Associated Tire Distributors, Inc.",Rt 51,Inwood,WV,25428,304-229-8408
"Associated Wines & Spirits, Inc.",905 7th Avenue,Charleston,WV,25302-1467,304-342-5200
"Astar Abatement, Inc.",49 Honeywell Dr,Charleston,WV,25312,304-984-4030
Stephen D Atha,Po Box 381,Shinnston,WV,26431,304-592-5288
"Atha Trucking, Inc.",Route 131,Bridgeport,WV,26330-7196,304-842-6844
Atl Logistics LLC,1223 2nd Ave,Marlinton,WV,24954,304-642-7076
Atlantis Trucking LLC,244 Morlatt Ln,Martinsburg,WV,25404,240-500-7734
Atlas Group LLC,718 Industrial Park Rd,Buckhannon,WV,26201,304-460-7300
"Atlas Scaffold & Supply, Inc.",4234 Kanawha Turnpike,So Charleston,WV,25309-9406,304-768-0102
Atomic Distributing Co,435 7th Ave,Huntington,WV,25701,304-523-7866
Atr Trucking LLC,179 Norwood Dr,Falling Wtrs,WV,25419,301-305-2146
Ats Transporting LLC,360 Mallard Way,Falling Wtrs,WV,25419,304-279-4723
Smith Auto Repair,9 Hawks Nest Drive,Summersville,WV,26651,304-872-5286
Bennett Trucking,Route 1 Box 95,Wallace,WV,26448,304-796-4622
Ault Swimming Pool Company LLC,565 Harris Highway,Parkersburg,WV,26101,304-863-3301
Austin Gunner Trucking,Rt 1 Box 123,Palestine,WV,26160,304-275-3712
"Authentic Trucking, Inc.",Us 52,Gilbert,WV,25621,304-664-3478
Auto Depot Of Charles Town LLC,3557 Berryville Pike,Charles Town,WV,25414,304-725-7050
Ami,192 Vista Del Rio Dr,Morgantown,WV,26508,304-292-1659
"Auto Options, Inc.",1754 Second Street,Mason,WV,25260,304-773-5759
Automated Packaging Systems,Rt 5 Box 846,Keyser,WV,26726,304-788-5191
Automotive Specialties LLC,1111 N Queen St,Martinsburg,WV,25404,304-820-9287
Automotive Trailer Sales LLC,3455 Blue Sulphur Gardens,Ona,WV,25545,304-412-6455
"Auxier Welding, Inc.",Rt 39,Belva,WV,26656,304-632-1201
Avalanche Services LLC,113 Mcgarry Blvd,Kearnysville,WV,25430,304-724-6700
Avalon Freight LLC,455 Avalon Trl,Hedgesville,WV,25427,240-550-5908
Avfek Logistics LLC,420 Fulton St Ste A,Wheeling,WV,26003-6578,609-510-5376
"Aviagen Turkeys, Inc.",31186 Midland Trail East,Lewisburg,WV,24901,304-793-2680
"Avmac Services, Inc.",712 Caney Br Road,Chapmanville,WV,25508,304-752-2958
Aw Keesler Trucking LLC,19 Pendleton Street,New Creek,WV,26743,304-790-0392
Aw-saw Trucking,341 Cove Branch Road,Princeton,WV,24740,304-384-4210
Awk Trucking LLC,144 Arrowwood Creek Rd,Hico,WV,25854,304-663-9258
Awm Trucking LLC,11 Austin Way,Morgantown,WV,26508,202-521-1493
Axle Trucking LLC,31 Adams Street,Westover,WV,26501,304-291-7133
Ayers Excavating,Route 3 Box 575,Elkins,WV,26241,304-636-8408
"Azzon Well Service, Inc.",160 Route 6,Kimberly,WV,25118,304-442-2773
B & A Well Service LLC,118 East Main Street,Bridgeport,WV,26330,304-842-5192
B & B Production Co LLC,4790 Churchville Rd,Camden,WV,26338,832-203-8858
"B & B Transit, Inc.",127 Canyon Lane,Raleigh,WV,25911,304-253-4533
B And B Energy Services,1925 Lincoln Hwy,Chester,WV,26047,304-459-3681
B & C Transport LLC,299 Rock House Rd,Lester,WV,25865,304-250-5842
B & C Trucking LLC,439 Fair St,Lewisburg,WV,24901,941-584-9868
B & D Transport LLC,1615 Little Indian Creek Rd,Morgantown,WV,26501,304-983-2508
"B & G Orchards, Inc.",1784 Thatcher Rd,Martinsburg,WV,25403-0913,304-263-9241
B & J Transport LLC,97 Sparrow Loop,Whitman,WV,25652,304-752-2006
B & J Trucking & Excavation LLC,Coal Heritage Road,Premier,WV,24878,304-436-2707
"B & L Excavating Co, Inc.",Route 971,Lynco,WV,24857,304-682-5963
B & N Pipe LLC,6770 Webster Road,Summersville,WV,26651,304-872-5904
B & S Pyles Trucking LLC,1621 Lost River State Park Rd,Moorefield,WV,26836,304-434-2968
B & S Transport LLC,1955 Annon Road,Newburg,WV,26410,304-892-2847
"B & S Well Services, Inc.",Route 2 Box 81-b,Buckhannon,WV,26201,304-472-4581
B A Martin Certified Welding LLC,1552 Apple Harvest Dr,Hedgesville,WV,25428,304-821-1269
"B A Trucking, Inc.",Us Rt 219n Frankford,Frankford,WV,24938,304-497-3763
"B And C Trucking, Inc.",Hc 70 Box 166,Lenore,WV,25676,N/A
B And D Hotshot LLC,545 Simpson Run Rd,Weston,WV,26452,304-269-4684
B And G Transportation LLC,13041 Wolf Creek Rd,Alderson,WV,24910,304-667-3420
"B Armstrong Electrical Services, Inc.",612 Mckenna Drive,Williamstown,WV,26187,304-481-6424
B B Hotshotting LLC,403 Church Street,Burnsville,WV,26335,681-533-7561
Bb Garage & Wrecker Service,3537 Greenhills Road,Ravenswood,WV,26164,304-273-9858
B B Trucking Company,Rt 65 North,Delbarton,WV,25670,304-475-3589
"B B Trucking, Inc.",209 Hughes Street,Lanark,WV,25860,304-255-5242
B B Trucking LLC,2300 Coleman Cliff Rd,Frankford,WV,24938-7027,304-661-3869
B Barrett Trucking LLC,971 Crown Ct,Martinsburg,WV,25401,443-298-1118
B C Construction & Development LLC,916 Adams Avenue,Huntington,WV,25704,304-529-1447
B E Smith Hauling & Snow Removal,189 Tyler Highway,Sistersville,WV,26175,304-652-2329
B F Trucking,Rt 1,Philippi,WV,26416,N/A
B H Trucking,307 Louise Ave,West Union,WV,26456,304-873-3362
B H Trucking LLC,198 Oakvale Rd,Webster Springs,WV,26288,304-847-5358
"B J A Trucking, Inc.",Us Rt 52 Bromley Ridge Junctio,Fort Gay,WV,25514,N/A
B K Bias Logistics LLC,102 Parkwood Dr,Beckley,WV,25801,281-844-1625
B K Delivery Service LLC,159 Heather Ave,Princeton,WV,24739,304-425-1087
B M Trucking LLC,208 Pinewood Drive,Shady Spring,WV,25918,304-763-0193
B N D Services,62 Primitive Lane,Saint Albans,WV,25177,304-437-5050
B N Trucking,Rr 1 Box 34 B,Glenwood,WV,25520,304-634-1647
B P M Specialty Service,283 Hemlock Lane,Reedsville,WV,26547,304-864-2874
"B R Finley General Contractor, Inc.",5368 Mcclellan Hwy,Branchland,WV,25506,304-824-7798
B R Trucking,4424 16th Ave,Parkersburg,WV,26101,304-422-1409
"B S Trucking, Inc.",Route 39 West,Summersville,WV,26651,304-872-5406
B T Energy Transport LLC,Hattie Stacy Street,Justice,WV,24851,304-228-9872
