Company Name,Street Address,Address Locality,Address Region,Postal Code,Telephone
Archer Cleaning & Restoration Services,2088 E Us Hwy 8,Saint Croix Falls,WI,54024,715-483-9922
Ml Custom Hauling,S2012 Hickory Ln,Alma,WI,54610,608-685-3584
Swat Fleet,1137 N Wisconsin Ave,Muscoda,WI,53573,608-739-3222
Stenner Property Services,S14185 County Rd Z,Mondovi,WI,54755,715-926-4215
A&a Services,1314 Matheson St,Janesville,WI,53545,608-754-4168
"P & B Construction Services, Inc.",3670 Rivers End Rd,Rhinelander,WI,54501,715-369-3060
Cook Distributing LLC,E6493 210 Th Ave,Menomonie,WI,54751,715-664-8441
Badger Express,2625 Violet Ct,Racine,WI,53402,414-217-6100
Charles Whitten,3266 N 44th Street,Milwaukee,WI,53216,414-467-5677
Gary's Cutting Service,N8074 Rolling Hills Drive,Fond Du Lac,WI,54935,192-092-2676
T&d Trucking,3057 S 50th St,Milwaukee,WI,53219,414-303-5512
Koller Express,32 W Mcwilliams St,Fond Du Lac,WI,54935,800-557-9813
Steady Freight Transportation,4519 Pennington Lane,Racine,WI,53403,262-598-9850
Lake Superior Limo Service,5724 E Hwy Z,South Range,WI,54874,715-398-9943
Luke S Schraufnugel Trucking,811 Chapple Ave,Ashland,WI,54806,715-209-7527
Silverstreak Express,W8792 Scenic Dr,Plymouth,WI,53073,920-528-7627
Oblewski Trucking,1516 Villa Park Drive,Oshkosh,WI,54904,920-203-6422
Ldh Transportation,205 W Hidden Trail,Elkhorn,WI,53121,262-723-7703
Let's Go Convienient Travel,285 Highway 61 North,Lancaster,WI,53813,608-723-7465
Mrc Trucking,N7689 808th St,Colfax,WI,54730,715-962-4439
J Geroux Trucking,2457 86th Street,Eau Claire,WI,54703,715-834-3115
Victory Movers,630 E Walnut St,Green Bay,WI,54301,920-437-3110
Keen Trucking,N66w24048 Champeny Rd,Sussex,WI,53089,262-246-3948
Ws Transfer,1175 Main Street,Plain,WI,53577,608-574-7442
Bill Gile Trucking LLC,4502 Onaway Pass,Madison,WI,53711,608-217-8719
Giexpress,10262 W College Ave,Hales Corners,WI,53130,414-304-0442
Mast Farm Service,4784 Cemetary Avenue,Abbotsford,WI,54405,715-223-2525
K&e Trucking,63946 Hangard Road,Ashland,WI,54806,715-413-0703
Davis Auto Sales & Service,912 North Central Ave,Marshfield,WI,54449,715-384-9858
C H S Express,26572 230th Ave,Cornell,WI,54732,715-562-0262
Management Services Company,615 South Broadway Street,Stanley,WI,54768,715-318-4813
Jeff Brown Trucking,2235 North Dewey Avenue,Reedsburg,WI,53959,608-524-6280
Eccs,2525 Advance Road,Madison,WI,53718,608-221-8700
Diamond Movers,W1087 Lewis Lane #8,Ixonia,WI,53036,920-261-6606
Ferguson Transportation,111 E Frederick Street,Prairie Du Chien,WI,53821,608-412-0554
Skyhawk Trucking,541 Skyhawk Court,Eau Claire,WI,54703,715-577-8517
Mercedes Benz Of Wausau,2950 N 20th Ave,Wausau,WI,54401,715-675-9500
Dh Gravel Trucking,1603 Pinewood Lane #3,Hudson,WI,54016,651-274-2102
R & R Custom Transport,N909 Hwy120,Lk Geneva,WI,53147,262-248-1968
On Time Transportation,7939 West Kathryn Avenue,Milwukee,WI,53218,414-236-1425
Hkl Trucking,W2090 Hwy 63,Springbrook,WI,54875,715-558-5230
Craiger Trucking,725 N Oakhill Avenue,Janesville,WI,53548,262-510-7686
Moving Unlimited,3731 Main Av,Sheboygan,WI,53083,920-451-9590
Delivery Central,1253 250th Street,Glenwood City,WI,54013,715-688-6158
Waak Trucking,304 Chestnut Street,Knapp,WI,54749,715-665-2895
Connor Trucking,S10332 Skunk Valley Rd,Sauk City,WI,53583,608-393-9491
Johnson Overland Motor Freight,214 Jackson Street,Madison,WI,53704,608-957-3678
Tim Oconnor,N5311 Hwy 45,Fond Du Lac,WI,54937,920-251-4461
Vander Kinter Trucking,4807 Hwy P,Denmark,WI,54208,920-863-6686
Oberholtzers Dozing & Hauling,W10572 State Hwy33,Hillsboro,WI,54634,608-489-2997
B & R Express,3456 Townhall Rd,Kewaskum,WI,53040,262-338-6887
Scotts' Hauling,1312 Hamilton Av #103,Janesville,WI,53548,608-312-3149
Adrian Wesoloski Trucking,N589 Highway T,Waterloo,WI,53594,920-342-6480
Mid-states Recovery,6508 Ryan St,Weston,WI,54476,715-571-9557
Grosklaus Custom Hauling,S4199 Grosklaus Road,Baraboo,WI,53913,608-393-4544
Garcia Trucking,11450 S County Road K,Merrill,WI,54452,715-432-7769
4j's Delivery,N6537 Wick Road,Black Creek,WI,54106,920-984-3608
Stephani Transport,1798 Grant Street,Depere,WI,54115,920-983-2324
Bahl Moving,N4962 Briarcliffe Court,West Salem,WI,54669,608-769-2988
Clifford Johnson's Trucking,1417 W Cherry Street,Milwaukee,WI,53205,414-344-3437
Diamond Auto Repair LLC,7033 W National Ave,West Allis,WI,53214,414-778-0365
Savanh Express,510 Pennsylvania Ave,Sheboygan,WI,53081,920-889-4811
Redbeards Express,10132 28th Ave,Pleasant Prairie,WI,53158,937-241-5631
Klawitter Trucking,408 Koro Rd,Ripon,WI,54971,920-229-9242
Jls Medicaltransport,W2045 County Highway M,Rib Lake,WI,54470,715-560-0305
Superior Auto Sales,327 Tower Ave,Superior,WI,54880,715-395-2886
Del's Service & Equipment,124 E 5th Street,Owen,WI,54460,715-229-4740
Chief Fire Extinguisher Sales And Service,2365 7 Th Ave,Chetek,WI,54728,715-924-3168
Huntmore Transport,N4148z Hutchinson Rd,Weyerhaeuser,WI,54895,805-440-9045
J & S Transport,2847 Harding St,Marinette,WI,54143,715-732-1047
Stone Coach Trucking,N140 W18117 Cedar Lane,Richfield,WI,53076,262-677-2212
Jurgerson Trucking,W3152 Pardeeville Rd,Cambria,WI,53923,920-210-5985
Fasco Appliance Sales And Service,1975 West Snell Rd,Oshkosh,WI,54901,920-235-4177
Nejedlo Trucking,2628 Greenwald Street,Green Bay,WI,54301,920-437-3495
Jca Transport,2310 Parkmeadow Drive,Beloit,WI,53511,608-362-6621
Springville Trucking,12252 Sales Barn Rd,Cuba City,WI,53807,608-642-1037
James Stone Trucking,N 9177juniper St,East Troy,WI,53120,262-363-4923
P M T Trucking,4408n 56 St,Milwaukee,WI,53218,414-455-3933
Jrl Dist,220 E Gates St,Rice Lake,WI,54868,715-790-1901
Shipler Transport,1938 Saint Lawrence Ave,Beloit,WI,53511,608-368-9721
D Griffin Hauling,5125 N 65th St,Milwaukee,WI,53218,414-372-3449
R Burton Trucking,5863 N 77th Street,Milwaukee,WI,53218,414-573-2003
Gambia Transportation,2413 Calypso Road,Madison,WI,53704,608-242-1000
Cooler Water,W6836 Shadybrook Circle,Fond Du Lac,WI,54937,920-744-5319
Moltzan Trucking,1845 8 1/2 Avenue,Chetek,WI,54728,715-764-0706
Panchos Auto Repair,1773 S Muskego Ave,Milwaukee,WI,53215,414-588-4355
Smoking Joe's Trucking,S 4828 Porterville Rd,Eau Claire,WI,54701,715-864-6293
Christan Hauling,9707 W Metcalf Pl,Milwaukee,WI,53222,414-553-8595
Spaulding Transport,441 Mead Circle,Wisconsin Rapids,WI,54494,608-449-0409
Advanced Vehicle Transport,114 S 2nd St,Delavan,WI,53115,262-745-5175
Jsf Trucking LLC,1214 Prospect Ave,Wausau,WI,54403,715-842-1538
Anna Trucking LLC,14256 Radlinger Road,Butternut,WI,54514,715-769-3425
Cool Runnings Express,N11630 S Moore Rd,Humbird,WI,54746,715-964-1903
Durango Xpress,112 1/2 Harrison Street,Delavan,WI,53115,262-745-5417
Cde Trucking,693 Buttercup Court,Hudson,WI,54016,171-538-1286
M W Olson Trucking Co,1610 Holly St,Holmen,WI,54636,608-399-1311
Establish Trucking LLC,7972a West Appleton Avenue,Milwaukee,WI,53218,414-520-9635
Sprague Trucking,1666 10th Avenue,Barron,WI,54812,715-418-0619
Ken Schweitzer Trucking,33300 Washington Ave,Burlington,WI,53105,262-534-6016
Easy Come Easy Go Trucking,500 Romayne Avenue,Racine,WI,53402,262-909-9028
Integrity Fuel Transport,3070 S Wentworth Ave,Milwaukee,WI,53207,414-412-6537
Professional Contracting Services,19075 W Cleveland Ave,New Berlin,WI,53146,414-234-6320
I-haul Custom Hauling,1928 Valmont Ave,Eau Claire,WI,54701,715-836-7521
County Electric Motor Service,W7895 County Road X,Wausaukee,WI,54177,715-854-2275
J & K Transportation,10628 Gretz Drive,Denmark,WI,54208,920-265-8581
I Mover,1412 W Armour Ave Unit B,Milwaukee,WI,53221,414-312-7747
D&m Transport,4425 Tower Avenue,Superior,WI,54880,218-590-3700
Morton Moving,230 Shore Circle,Oconomowoc,WI,53066,414-313-2720
Chuck's V-twins,W4761 County Highway F,Springbrook,WI,54875,715-466-2751
Dwa Logistics LLC,3349 E Ramsey Ave,Cudahy,WI,53110,414-305-4800
Fixit Automotive LLC,4029 N County Rd F,Janesville,WI,53545,608-563-0866
Iron Fox Mobile Welding & Services,1656 Georgia St,Oshkosh,WI,54902,920-216-9493
C And T Hauling,6020 E Way Rd,South Range,WI,54874,715-398-5638
Edwards Transport,210 Prospect St,Dorchester,WI,54425,715-654-7008
Lisowski Transport,S1345 Cty Rd Nn,Alma,WI,54610,715-495-4629
Musial Trucking,4270 Upland Dr,Colgate,WI,53017,262-628-1406
Jerrys Services,1942 Us Hwy 8,St Croix Falls,WI,54027,651-343-2865
Clearview Transport,N 3564 Ridge R,Argyle,WI,53504,608-966-3492
2 Time Transport,N 6904 County Road X,Watertown,WI,53094,920-699-2037
Grandpa Frank's Motorcar Transport,N52w34538 Peterson Dr,Okauchee,WI,53069,262-567-2040
Stocks Trucking,113 N Bean St,Benton,WI,53803,608-732-3951
Schuler's Manufactured Home Service,1846 Pine Bluff Rd,Stevens Point,WI,54481,715-345-1671
Norquist Trucking,W 2402 Snyder Rd,Wausaukee,WI,54177,715-732-6117
Larry's Trucking,7090 Druid Lake Rd,Hartford,WI,53027,262-224-4307
Bm Transport,2152 Hwy 14 W,Janesville,WI,53545,608-756-3931
Vetrans Movers,1306 Jewel Ct #3,Madison,WI,53711,608-334-6363
Kealey Pharmacy And Homecare,21 S Jackson St,Janesville,WI,53548,608-752-7869
Rdh Bus Service,W4072 50th,Mauston,WI,53948,608-548-1412
D J Trucking,E11122 Breezy Knoll Ln,Baraboo,WI,53913,608-393-9500
Chaz's All Ways Moving,8606 Cty Hwy I,Sparta,WI,54656,608-272-3960
Jamie's Truck & Trailer Painting LLC,N174w21390 Alcan Dr,Jackson,WI,53037,262-707-9981
Transit Care,7402 W Derby Place Suite C,Milwaukee,WI,53218,888-818-0515
Jay Heidersdorf Trucking,R21422 Hilltop Rd,Hatley,WI,54440,715-216-8091
Allen Cook Trucking,625 Skyview Pl Apt 12,Madison,WI,53713,608-443-6149
S M Priebe Transport,120 Mccall St,Waukesha,WI,53186,920-740-5541
Bayland Sealcoat And Services LLC,6811 Allen Rd,Sobieski,WI,54171,920-373-7770
Diesel Engine Distributor,3250 South Fox Ranch Road,Rhinelander,WI,54501,715-365-0500
W B Trucking LLC,N80 W15017 Appleton Ave Ste 101,Menomonee Falls,WI,53051,414-520-4867
Carrier,780 Chapman Dr,River Falls,WI,54022,715-222-1545
A Better Movers,1628 Indiana Avenue,Sheboygan,WI,53081,920-254-6635
Epic Transport,11450 Emerson Rd,Tomah,WI,54660,608-372-7884
Rpm Trucking,1456 1 1/2 Street,Turtle Lake,WI,54889,715-986-2242
Garage Door Express,118 E Liberty St,Lone Rock,WI,53556,608-583-2511
Trucking,120 Maple St,Clear Lake,WI,54005,715-263-3167
Smith Logistics,1212 Clark St,Janesville,WI,53545,608-921-9381
"Thal Express, Inc.orporated",925 A Vine Street,Wisconsin Dells,WI,53965,608-617-7307
"Larrys Tire Service, Inc.",121 Market St,Oregon,WI,53575,608-835-3001
Parkinson Transport,120 Colina Verde Ct,Darlington,WI,53530,608-176-4602
Sawdeydistributing,2209 14th St,Monroe,WI,53566,160-832-5797
Arndts Delivery Service,2001 Lawrence Dr,Depere,WI,54115,920-339-8326
Strong Tower Trucking,405 Saratoga Ave,Osceola,WI,54020,715-294-2080
Johnson Enterprises,3835 Us Hwy 12,Warrens,WI,54666,608-378-4423
Sasquatch Services,920 North 10th Street,Sheboygan,WI,53081,920-331-0014
Stark Automotive Group,N259 Brandenburg Avenue,Merrill,WI,54452,715-536-1200
Tim Stamper Trucking Company,39430 104th Street,Genoa City,WI,53128,262-269-6232
Unwrecked By Les,N1142 Newman Lane,Fremont,WI,54940,920-667-4968
Cdm Transport,W10906 Cty Rd N,Stanley,WI,54768,715-669-3897
Morgal Trucking,27328 155 Ave,Cadott,WI,54727,715-289-3822
Krause Automotive,115 W Decorah Rd,West Bend,WI,53095,262-335-2277
Ex Ex Transport,9230 Antioch Road,Salem,WI,53168,262-843-1323
A & H Hauling Service,1409 W Granada St,Milwaukee,WI,53221,441-762-2602
Miller Trucking,4193 Westimayer Road,Crandon,WI,54520,715-478-2721
R Peterson Distribution,317 Superior Avenue,Centuria,WI,54824,715-646-9315
Jjf Trucking,406 N Seventh St,Madison,WI,53704,608-239-1837
Kuhn Gravel & Concrete Service,W4873 Winkelman Avenue,Irma,WI,54442,715-536-4035
Springer Transport,1278 Cnty Rd G,Coloma,WI,54930,715-228-5069
Lud's Trucking,E 5161 County Rd Y,Menomonie,WI,54751,715-664-8109
Adam Salem Sand And Gravel,29128 52nd Street,Salem,WI,53168,262-537-2049
Bookmytruck Com,414 Wisconsin Avenue,Centuria,WI,54824,877-791-1973
Zopp Trucking,N9519 Zopp Rd,Hayward,WI,54843,715-634-0640
Mid-state Intl Trucks Of Wisconsin,2100 E 29th St,Marshfield,WI,54449,715-591-2591
Dan Casey Trucking,N 13067 12th Ave,Necedah,WI,54646,608-565-2885
J A L Transport,1867 Sun Valley Dr,Beloit,WI,53511,608-201-6349
F & S Repair Service,W5243 Faro Springs Rd,Hilbert,WI,54129,920-989-2442
Strom Trucking,1341 W Decorah Rd,West Bend,WI,53095,920-994-2020
American Style Logistics,1663 S Pine St,Grafton,WI,53024,414-213-4802
Mal,209 Limestone Pass,Cottage Grove,WI,53527,608-839-9050
G Bunnell Trucking,6195 S Degerman Road,Lake Nebagamon,WI,54849,715-374-2452
Schoonover Trucking,1304 Eagle St,Rhinelander,WI,54501,715-369-4586
Blue Heeler Express Transportation,3285 Olson Rd,Dodgeville,WI,53533,608-574-3296
Custom Moving,105 N. Bristol St,Sun Prairie,WI,53590,608-834-0001
G & R Truck Repair,3994 State Highway 32,Laona,WI,54541,715-674-2059
Thomson Distributing,3338 Newcastle Dr,Janesville,WI,53546,608-758-0596
All My Sons Moving & Storage Of Milwaukee,6204 Ace Industrial Dr,Cudahy,WI,53110,414-747-2435
Asap Freight Expediters,N 3879 Jennings Rd,New London,WI,54961,920-359-0301
Rsl,209 Limestone Pass,Cottage Grove,WI,53527,608-839-9050
North Side Container,187 Townsvalley Road,River Falls,WI,54022,715-425-8892
Kobernick Trucking,1923 Kane St,La Crosse,WI,54603,608-781-9276
Krueger Trucking,539 S Water St,Wautoma,WI,54982,920-787-0573
Pbl Trucking,44780 St Hwy 13,Ashland,WI,54806,715-209-0984
D & B Transport LLC,6535 Glacier Dr,West Bend,WI,53090,262-629-5658
Lakeview Transport,W4745 Meadow Road,Bonduel,WI,54107,715-745-4155
Pines On Paddock Tree Nursery & Transplant Service,1497 South Paddock Road,Beloit,WI,53511,608-365-3519
Roettger Bus Service,592 232nd Ave,Somerset,WI,54025,715-247-3333
Wiscale,7157 185th Street,Chippewa Falls,WI,54729,715-723-5719
Jv Auto Transport,N3076 State Road 67,Campbellsport,WI,53010,262-893-2755
Kno Trucking Service,W7702 Prospect Road,Beaver Dam,WI,53916,920-887-8543
Klabon Transport,N14257 County Road O,Withee,WI,54498,715-229-4893
Bohlinger Trucking,343 Miller Rd,Eau Claire,WI,54703,715-577-3688
C & J Trucking,7820 Hwy 77,Iron Belt,WI,54536,715-561-3388
Four Star Limousine & Coach Service,904 E Rawson,Oak Creek,WI,53154,414-769-1173
Quik Movers,3737 E Underwood Ave,Cudahy,WI,53110,414-747-1646
"Bredan Mechanical Systems, Inc.",W229 N2494 Redford Blvd Suite 100,Waukesha,WI,53186,262-521-9919
Red Nation Transport,North 1305 Old South Branch Road,Keshena,WI,54135,715-799-3930
Shaneabraun,1116 212th Ave,New Richmond,WI,54017,715-248-7583
Automated Access Systems,1701 Pearl St Unit 6,Waukesha,WI,53186,262-896-6668
Cya Express,518 Park Ave,Twin Lakes,WI,53181,262-514-4434
Musky Trucking,W 7387 Townline Cir,Van Dyne,WI,54979,920-203-3735
Shalom Valley Tire Service,1825 11th Ave,Baldwin,WI,54002,715-684-3878
Smith Express,N5157 Lueck Lane,Princeton,WI,54968,920-295-4931
Fred Brooks Blacktop Service,1080 Edgewood Dr,Adams,WI,53910,608-354-7445
Grove Trucking,1795 Main St,Union Grove,WI,53182,262-994-3020
"Btt Services, Inc.",2118 N Sylvania Ave,Sturtevant,WI,53177,262-551-8565
Strebel Trucking,3155 S Holland Road,New Franken,WI,54229,920-866-1466
P & H Transport,2805 14th St,Monroe,WI,53566,608-328-3389
Ztv Enterprises,7528 Pershing Blvd # 151 Suite B,Kenosha,WI,53142,262-260-8865
Chuck's Auto Sales,447 East Kickapoo Street,Readstown,WI,54652,608-629-5650
Spx,209 Limestone Pass,Cottage Grove,WI,53527,608-839-9050
Buckboard Logistics & Transportation,925 West River Street,Chippewa Falls,WI,54729,715-720-5922
Ronald Kelley & Paul Atwood,9151 184th Avenue,Bristol,WI,53104,262-857-7275
Roof Services,910 Third Street,Kiel,WI,53042,920-894-2922
Melvins Trucking,8670 225th Ave,Bloomer,WI,54724,715-568-4084
Tigt,10522 W Lancaster Ave,Milwaukee,WI,53225,414-364-2707
1-800-got-junk,4230 N Oakland Avenue #121,Milwaukee,WI,53222,414-795-4053
Hauling Grain,N 1809 Ida Lane,Adell,WI,53001,920-994-2231
Ts Trucking,W4692 Cty Rd Cw,Watertown,WI,53098,920-261-5469
Private Prop Carrier,11177 County Road A,Suring,WI,54174,920-842-4090
Cjb Distributing,5530 Pinewood Drive,Stevens Point,WI,54481,715-341-7189
James E Perry Trucking,8009 County Rd U,Potosi,WI,53820,608-794-2374
Jeff B Waelti Trucking,395 County Highway D,Belleville,WI,53508,608-354-3851
Cowboy Trucking,44153 Jeff's Drive,Gays Mills,WI,54631,608-498-9590
Wisconsin Dry Ice Blasting LLC,7709 Carbon Rd,Whitelaw,WI,54247,920-683-3938
Barron Ag Lime,307 E Lasalle Ave Suite C,Barron,WI,54812,715-637-5463
La Trucking,215 S Schaefer St,Appleton,WI,54915,920-313-3313
Fire N Ice,2746 E River Drive,Green Bay,WI,54301,920-883-2347
Church,1808 W Chambers,Milwaukee,WI,53208,414-760-9239
Bracy Trucking,9124 Riverwoods Drive,Milwaukee,WI,53224,414-406-5419
Tracy & Sons,N1585 Poplar Grove Rd,Watertown,WI,53098,920-925-3537
Move It Now Of Southern Wisconsin,402 Travis Lane Unit 63,Waukesha,WI,53186,262-542-9050
Essential Imaging Services LLC,209 Limestone Pass,Cottage Grove,WI,53527,608-839-9050
Jp Auto Transport,520 East River Drive,Omro,WI,54963,920-685-2455
Bone Yard Express,4509 E Pleasant View Rd,Superior,WI,54880,715-399-0822
F & G Trucking,1011 West Walker Street,Milwaukee,WI,53204,414-647-1747
Re Mellem,159 S Main,Potosi,WI,53820,608-780-1255
Bob Fort Trucking,S 2845 State Road 35,Fountain City,WI,54629,608-687-6584
Glenn H Adams Jr Trucking,1017 W 8th Street,Appleton,WI,54914,920-882-5379
Motorcycle Sales And Service,1925 South Moorland Road,New Berlin,WI,53151,262-860-2060
Short Haul Trucking,2009 Harrison Ave,Beloit,WI,53511,608-931-7721
Karschney Transport,337 17th Street,Fond Du Lac,WI,54935,920-517-0507
Raymond Bobber,2515 W Rogers St,Milwaukee,WI,53204,414-460-1682
Av Trucking,1220 S 31st Street,Milwaukee,WI,53215,414-336-4005
Peters Construction Service,6156 S Racine Pl,New Berlin,WI,53146,414-640-5213
Hotterville Express,8845 Sheridan Rd,Kenosha,WI,53143,262-705-3927
Ajm Trucking,1112 Bonnie Court,Plymouth,WI,53073,920-892-4450
Lee's Hauling,2528 W Becher St,Milwaukee,WI,53215,414-645-8715
Moira's Home Services LLC,1400 W Klein Ave,Milwaukee,WI,53221,414-817-8951
Akn Trucking,N3689 County Road N,Florence,WI,54121,715-528-3531
White Dove Logistics,416 S Walnut Street,Reedsburg,WI,53959,608-524-2020
Servicemaster Of Rock County,3208 Hwy 51 South,Janesville,WI,53546,608-752-6717
James Brown Trucking,W8030 Highway 64,Antigo,WI,54409,715-627-0729
Lowe Transportation,7354 N 86th Street,Milwaukee,WI,53224,414-202-0354
Green Family Trucking,N56w19289 Spencers Court,Menomonee Falls,WI,53051,414-405-6045
Stelse Farms & Trucking,W6795 Kiesling Road,Jefferson,WI,53549,920-674-5623
Juniors Transport,E20264 Cty Hwy Gg,Augusta,WI,54722,715-456-3413
Fairview Trucking,S5180 Cty Rd Ss,Viola,WI,54664,608-627-2045
Karschney Trucking,5084 State Highway 44,Oshkosh,WI,54904,920-379-1158
J&d Services,E18240,Augusta,WI,54722,715-286-2944
Janis E Jablenski,276814th Ave,Rice Lake,WI,54868,715-651-8789
"Chippewa Valley Str Lah Service, Inc.",3219 Pleasant Street,Altoona,WI,54720,715-831-9939
Pitzka Services,1007 N Bel-ayr Drive,Waukesha,WI,53188,262-524-9193
Vsl,209 Limestone Pass,Cottage Grove,WI,53527,608-839-9050
Arctic Moving,609 19th Ave East,Ashland,WI,54806,715-682-9186
Rhd Trucking,9204 East Creek Road Lot 59,Clinton,WI,53525,262-903-4772
Jemick Trucking,508 Morris Street,Fond Du Lac,WI,54935,920-251-5842
Luxury Limo Services,1849 30th Ave,Baldwin,WI,54002,715-688-2820
Dobbs Dd Express,33831 Highway 14,Lone Rock,WI,53556,608-647-2869
Nery Trucking,W7165 Territorial Road,Elkhorn,WI,53121,262-495-2301
Hml,209 Limestone Pass,Cottage Grove,WI,53527,608-839-9050
Lt Hauling,3000 Skaar Rd,Deforest,WI,53532,608-846-7049
Jt& L Trucking,1325 South Britton Road,Kansasville,WI,53139,262-878-1140
Lugen Trucking,4136 Lakeshore Dr,Sheboygan,WI,53081,920-457-7720
Vanepern Trucking,13761 N Defer Road,Hurley,WI,54534,906-932-0244
Pml,209 Limestone Pass,Cottage Grove,WI,53527,608-839-9050
Tb Trucking,1005 Cty B,Pelican Lake,WI,54463,715-487-5881
Obc Transport,N5973 Summit Lane,Manawa,WI,54949,920-572-6230
Glenn Day Trucking,951 Highland Ave,Beloit,WI,53511,608-289-1648
Curt Patnode Trucking,W7390 Us Hwy 10,Arkansaw,WI,54721,715-495-9383
Cis,209 Limestone Pass,Cottage Grove,WI,53527,608-839-9050
Jp Moving,1505 S 31st St,Milwaukee,WI,53215,414-643-0142
Ascential,2200 South Street,Racine,WI,53404,800-280-7383
Motor Carrier,9190 North Main Street,Hiles,WI,54511,715-649-3235
Thommen Trucking,2511 Bluff Rd,Cuba City,WI,53807,608-568-3751
Fischer Trucking,511 3rd St,Clear Lake,WI,54005,715-554-2126
Easy Duz It Trucking,416 Pine St,Tomah,WI,54660,608-372-5152
Baylors Boys Express,2575 N 91st Street,Wauwatosa,WI,53226,414-406-1244
"A & Jc Services, Inc.",1033 Scott Rd,Hudson,WI,54016,715-781-0782
Dustin's Trucking,107 Forest St,Kendall,WI,54638,608-463-7740
Eagle Express,303 N Jones St,Barneveld,WI,53507,608-924-1688
Krueger Trucking 2 Lazy 2 P,16380 Kellogg Ave,Norwalk,WI,54648,608-343-1719
Your Way Moving,102 William Street,Avoca,WI,53506,608-532-6065
Northside Service,N4904 Lound Rd,Prentice,WI,54556,715-428-2452
It-ecycle,10 Liberty St,Deerfield,WI,53531,608-205-4254
Jml,209 Limestone Pass,Cottage Grove,WI,53527,608-839-9050
Nite Train Express,E6426 Hwy 22,Bear Creek,WI,54922,920-596-1855
Out There Distributing LLC,218 13 Th Avenue East,Ashland,WI,54806,715-682-5076
Von Holzen Auto & Truck Center,1606 Hwy 2 East,Ashland,WI,54806,715-682-8141
Woodys,111 Packer Drive,Francis Creek,WI,54214,920-682-2634
A&c Trucking LLC,17112 West State Rd 59,Evansville,WI,53536,608-882-6046
S & J Transport,W4412 Cumberland Rd,Redgranite,WI,54970,920-621-1875
Behnke Trucking,R5436 Cty Road H,Edgar,WI,54426,715-581-5380
Oak Ridge Trucking,N6222 Lawson Dr,Green Lake,WI,54941,920-229-4808
Auto Parts El Pollo,2510 W Orchard St,Milwaukee,WI,53204,414-385-0821
Galen's Tag Service LLC,37260 Sand Burr Ln,Prairie Du Chien,WI,53821,608-326-6346
Mcci,31307 270th Ave,Holcombe,WI,54745,715-595-6133
C And Z Hauling,S4226 Duck Egg Lane,Viroqua,WI,54665,608-632-0648
Elzen Trucking,219 W Wisconsin Ave,Monticello,WI,53570,608-938-1007
Verhoef Enterprises,711 W Tomah Rd,Tomah,WI,54660,608-387-0767
Two Men And A Truck,W6483 A Design Dr,Greenville,WI,54942,920-757-4040
Thunder Valley,4269 Molitor Rd,Oconto,WI,54153,920-834-3938
Rae Trucking,510 22nd Ave E Ste C,Superior,WI,54880,715-398-3882
Lloyd Firkus Trucking,2501 Kennedy Avenue,Plover,WI,54467,715-342-1985
L-n-m Trucking & Farms,1615 Oaks Ave # 4,Superior,WI,54880,715-395-0087
Superior Express,11020 W Rogers,West Allis,WI,53227,414-771-2777
Dei Trucking & Construction,11980 E Us Hwy 2,Maple,WI,54854,715-363-2122
Wood Trucking,N2152 River Oaks Rd,Reeseville,WI,53579,920-342-2270
Bruce Spencer Trucking,5323 Beech Street,Laona,WI,54541,715-674-6700
Mortensen Trucking,N6896 Schaub Rd,Trego,WI,54888,715-635-6006
W P S Trucking,317 W North Water St,Neenah,WI,54956,920-969-9540
American Mobile Home Service And Supply,1201 Hoeschler Drive,Sparta,WI,54656,608-269-2179
Chava & Sons,4866 Durango Trl,Nekoosa,WI,54457,715-886-4442
Buck's Moving & Storage,2490 Jackson Street,Oshkosh,WI,54901,920-231-3710
Pw Transport,994 Parkview Rd,Green Bay,WI,54304,920-347-9440
D & D Transport,110 Sandy Hill Dr,Augusta,WI,54722,715-286-5602
Adams Distributing,15922 Kanton Road,Muscoda,WI,53573,608-536-3414
Suzys Auto,532 S 2nd Street,Delavan,WI,53115,262-728-1578
Chris Rudolph Trucking,576 W17815 Janesville Road,Muskego,WI,53150,262-971-0128
Rural Sanitary Service Ltd,242 Quail Drive,Genoa City,WI,53128,262-279-5420
Mickelson Trucking,S394 Mickelson Dr,Cashton,WI,54619,608-634-4554
Little How's Trucking LLC,1901 Taylor Avenue,Racine,WI,53403,414-989-7295
Lawrence Trucking,S 403 Hwy G,Wonewoc,WI,53968,608-464-3559
Mvlee Trucking Trans,9636 W Capitol Dr 3,Milwaukee,WI,53222,414-393-1213
Beacon Transport,21224 7 Mile Road,Franksville,WI,53126,414-899-7688
Robert D Magnin Trucking,6280 County Road B,Oconto Falls,WI,54154,920-846-3372
J & R Kuhle Transport,2441 Sunshine Lane,Beloit,WI,53511,608-361-0151
Dms Trucking,24718 Apple Road ,Waterford,WI,53185,N/A
Great Lakes Distribution,134 E Richmond St,Shawano,WI,54166,715-524-4822
A & D Enterprises,N16407 County Road G,Nekoosa,WI,54457,715-886-5951
Bailey Trucking,8584 B West Appleton Ave,Milwaukee,WI,53225,414-463-8960
Sanders Trucking,24897 Haney Ridge Rd,Boscobel,WI,53805,608-872-2180
Steves Trucking,3230 Meachem,Racine,WI,53405,262-554-5065
Cool Breeze Transfer,W12790 Nw Joos Road,Alma Center,WI,54611,715-964-1235
Andy Hill Trucking,1106 Winter Street,Superior,WI,54880,218-780-3682
T Griffin Trucking,N6620 Cty Hwy O,Manawa,WI,54949,715-359-8725
J R Logistics Ltd,7805 West Hayes,West Allis,WI,53219,414-321-6097
Carlson,2205 Rimrock Road,Madison,WI,53713,608-255-7110
A J Barden Trucking,N7874 Sommers Rd,Cambria,WI,53923,608-429-9235
Wilke Trucking,W7841 Hwy Cc,Tomahawk,WI,54487,715-453-4963
B & S Auto Transport,1815 S Layton Blvd,Milwaukee,WI,53215,414-507-7123
Willie Freight Lines,8372 W Medford Avenue,Milwaukee,WI,53210,414-839-2413
Chad's Auto And Light Truck Repair LLC,403 N Main St,Stoddard,WI,54658,608-457-2128
Dog Gone Trucking,W2711 Grass Road,Glen Flora,WI,54526,715-312-0028
Apex World Services,5313 Voges Road,Madison,WI,53718,608-628-7973
Eight Second Truckin,3441a South 13th Street,Milwaukee,WI,53215,414-672-2057
Double E Transport,N2251 Hwy 45,New London,WI,54961,920-982-4504
Jrs Moving,4350 North 65th Street,Milwaukee,WI,53216,414-536-4814
"Magnum Truck & Equipment, Inc.",14520 50th Rd,Sturtevant,WI,53177,262-835-2609
Js Schreiber Trucking,N 6980 N Branch Rd,Bowler,WI,54416,920-680-4479
Klabon Trucking,802 Eastwood St,Withee,WI,54498,715-229-4466
Ronald J Grulkowski Trucking,N29588 Andre Lane,Arcadia,WI,54612,608-323-3524
D & S Trucking & Hoof Trimming,E9202 230th Avenue,Elk Mound,WI,54739,715-833-1873
Elite Energy Distribution,4700 North 124 Street,Milwaukee,WI,53225,414-461-4271
Environmental Recovery Services,60 Highway 51 South,Manitowish Waters,WI,54545,715-543-2703
Durham Delivery Service,8114 North 55th Street,Brown Deer,WI,53223,414-975-7514
Mike Joski Trucking,3861 N Holland Rd,New Franken,WI,54229,920-866-3491
Holtet Transport Co,18010 Nickie Ave,Norwalk,WI,54648,507-280-8429
Jason Sikma Trucking,3553 Oak Orchard,Little Suamico,WI,54141,920-834-4347
Nix,209 Limestone Pass,Cottage Grove,WI,53527,608-839-9050
Pit Road Auto And Truck,25357 Old 35,Webster,WI,54893,715-866-5036
Next Generation Transportation,819 Parkridge Drive,Eau Claire,WI,54703,715-838-2012
Houle Trucking LLC,5985 Cty S,Crandon,WI,54520,715-478-2804
Renegade,2320 Zinga Drive,Reedsburg,WI,53959,608-534-0204
Weber Trucking,1251 17th Ave,Arkdale,WI,54613,608-564-7414
Headings Acres,396 State Road 80 And 133,Muscoda,WI,53573,608-604-0669
Kjendlie Transport,S4243 County Road H,Hillsboro,WI,54634,608-528-4099
Wisniewski Trucking,N5244 Cty Hwy-b,Glen Flora,WI,54526,715-322-5662
Parker's Service,613 Hwy H,Genoa City,WI,53128,262-279-3055
Sjuggerud Coulee Express,W15170 Sjuggerud Coulee Road,Whitehall,WI,54773,715-579-8592
Carter Trucking,S7115 Bluff Road,Merrimac,WI,53561,608-493-2069
G And G Trucking,9 Westbrook Drive,Bloomer,WI,54724,715-568-5212
Eric Rice Trucking,13090 Silver Rd,Suring,WI,54174,920-842-2775
"M&d Trucking, Inc.",W9935 Mcgowan Road,Lodi,WI,53555,214-679-3926
Weckz Transport,S 2353 Highway 42,Sturgeon Bay,WI,54235,920-825-7457
Curvos Trucking,N12643 490th St,Wheeler,WI,54772,715-949-1884
"Wild Oat Audio Services, Inc.",101 West Bayfield Street,Washburn,WI,54891,715-373-2930
"Astle Trucking, Inc.",5-3188 Ableman Rd,Reedsburg,WI,53959,608-524-6919
Peaster Trucking,694 11 1/2 Ave,Almena,WI,54805,715-357-6423
R A Transport,E9001 Olson Road,Westby,WI,54667,608-634-4683
Fargen Trucking,S11689 Cty G,Spring Green,WI,53588,608-341-8588
Island Movers Scheppele Transfer,2302 18th Ave,Monroe,WI,53566,608-220-0007
K&v Transport,6608 103rd Ave,Kenosha,WI,53142,262-344-3262
Psn,209 Limestone Pass,Cottage Grove,WI,53527,608-839-9050
Motor Contract Carrier,10205 West Denis Avenue,Hales Corners,WI,53130,414-807-6053
Jaws Trucking LLC,25404 Apple Rd,Waterford,WI,53185,262-534-5494
Kl Transit LLC,420 S Water Division Rd,Green Bay,WI,54311,920-863-3216
Lucky 7 Transport,N3026 Hwy 47,Bonduel,WI,54107,715-758-7942
Northland Lawn Sport & Equipment,63750 Us Highway 63,Mason,WI,54856,715-746-2323
King Richards Trucking,W182 S6581 Garret Dr,Muskego,WI,53150,414-254-4771
J C Transport,548 Park St,Glidden,WI,54527,715-264-6516
Reinhardt Transport,161 Old 16 Rd Apt 1,Rio,WI,53960,608-429-4713
Fox Valley Auto,N4594 County Rd E,Kaukauna,WI,54130,920-427-5888
Star Distributing,729 Stow Street,Horicon,WI,53032,920-485-2531
R D R Transportation,2200 South Muskego Ave,Milwaukee,WI,53215,414-379-6582
Lemke's Horse Drawn Limo & Trolley Service,N202 Vickerman Road,Fort Atkinson,WI,53538,920-563-7345
Margjorie A Shafman Transport,12617 Waupee River Dr,Suring,WI,54174,405-283-0521
King Services,W1647 560th Avenue,Elmwood,WI,54740,715-307-9803
Langel Trucking,33728 Cnty Hwy M,Holcombe,WI,54745,715-452-5128
Andys Truck & Auto,22 Thorton,Madison,WI,53714,608-347-0805
Raven Express,3417 15th St Apt 2b,Kenosha,WI,53144,414-304-0953
Miller Auto Wrecking,S6690 State Highwa 131,Viola,WI,54664,608-627-1741
Apl,209 Limestone Pass,Cottage Grove,WI,53527,608-839-9050
Iml,209 Limestone Pass,Cottage Grove,WI,53527,608-839-9050
J C Gillespie Trucking,14026 Sth 35,Ferryville,WI,54628,608-734-3458
Denny Bessa Trucking,1566 Mary Lane E,Arbor Vite,WI,54568,715-356-6484
Real Deal Moving,6200 22nd Ave,Kenosha,WI,53143,262-564-0301
Trans Tech,2114 Eagle Drive ,Middleton,WI,53562,608-826-0199
Marchiando's Moving Service,622 South 27th Srteet,Sheboygan,WI,53081,920-457-7601
J & J Trucking,2020 Elmira Ave,Superior,WI,54880,715-398-6830
Sheldon & Sons Trucking,711 S Lake Ave,Crandon,WI,54520,715-478-0488
Anew Transportation,N6981 Hwy 180,Porterfield,WI,54159,715-735-9001
S & J Trucking,7926 S Wildwood Dr Apt 8,Oak Creek,WI,53154,414-570-7399
S & D Auto,1430 Lakehurst Rd,Mosinee,WI,54455,715-457-2816
Brent Fuchs Trucking LLC,N8216hills Ln,Westboro,WI,54490,715-427-0124
Dieck Trucking,N2577 County Road Aa,Antigo,WI,54409,715-623-2582
Boggess Trucking,311 2nd Ave North,Dallas,WI,54733,715-205-1497
Bcl Eagle Transport,422 E Montgomery St,Sparta,WI,54656,608-269-8442
Dun X Delivery,3619a E Underwood Av,Cudahy,WI,53110,414-581-3751
Maland Transfer,815 West Park Ave #14,Chippewa Falls,WI,54729,715-720-0803
Paulsen Auto Transport,1517 Deton Street,La Crosse,WI,54601,608-784-1782
Auto Tech Slinger LLC,113 W Washington St,Slinger,WI,53086,262-644-9335
M & A Trucking,325 Santa Maria,Arlington,WI,53911,608-635-4591
Lake View Trucking,N10861 Hwy 151,Malone,WI,53049,920-517-2897
Gwl,209 Limestone Pass,Cottage Grove,WI,53527,608-839-9050
Schuh Trucking,N5569 330 Th St,Menomonie,WI,54751,715-233-6216
Ma Biddle's Trucking,8647 S 76th Street,Franklin,WI,53132,414-427-9366
S S Transport,1226 80th Ave,Kenosha,WI,53144,262-764-1408
John's Snow Plowing & Hauling,6428 West State Road 11,Janesville,WI,53548,608-757-1208
Kc Delivery LLC,2453 Waukesha Road,Caledonia,WI,53108,262-835-4564
Burrows Transportation,15624 Westwood Lane,Newton,WI,53063,920-629-8505
Tommy Bs Trucking,189 Riverside Drive,Waterford,WI,53185,414-550-5707
On Time Express,834 Bridlewood Dr,Hartford,WI,53027,262-670-6495
Chief Auto Transport,North Seventy Third,Wausau,WI,54403,715-551-7047
Grizzlys Hauling And Disposal,24835 Kruger Road,Webster,WI,54893,715-566-0122
Steels Soil Service,1699 150th St,New Richmond,WI,54017,715-760-0347
Sg Transport,8 Commerce Street,Holmen,WI,54636,608-399-1037
Nigbur Trucking,N632 Poeppel,Fort Atkinson,WI,53538,920-563-1416
Trapp's Refridgerated Transport,15466 West Lindholm Drive,Hayward,WI,54843,715-215-1525
Birch Trucking,1913 N 12th Street,Superior,WI,54880,715-392-6754
Tim's Truck Shop,24546 County Hwy D,Richland Center,WI,53581,608-604-2882
Talbert Transport,9 Ponderosa Dr,Mauston,WI,53948,608-847-9079
In Motion Movers LLC,S83 W18360 Saturn Dr,Muskego,WI,53150,262-679-5403
P & Y Trucking,738 W County Rd E,Livingston,WI,53554,608-341-9198
Things That Grow,W1150 Statehighway 98,Loyal,WI,54446,715-255-8090
Race Movers,1610 S 59th St,West Allis,WI,53214,414-604-2287
National Machinery Transport,3403 Royal Rd,Janesville,WI,53546,608-359-3902
Dusel Trucking,7192 County Road A,Amherst,WI,54406,715-824-2043
Kim Distributing,5590 S 110th St,Hales Corners,WI,53130,414-529-2328
Don Brooks Trucking,W5625 Cty Rd X,Tony,WI,54563,715-532-4923
River Valley Transportation,135 William Avenue,Praire Du Chien,WI,53821,608-509-8636
"Boscobel Auto Clinic, Inc.",1520 Elm Street,Boscobel,WI,53805,608-375-5550
Efficient Moving & Cleaning,2821 North 4th Street Suite 207,Milwaukee,WI,53212,414-535-7764
Fendryk Trucking,1961 Hall Road,Oconto,WI,54153,920-834-0239
Edgeway Moving,815 Country Club Ct,Platteville,WI,53818,608-348-7968
Weidman Transport,2331 3rd Street South,Wisconsin Rapids,WI,54494,715-459-7064
Vr Trucking,1509 Rapids Drive,Racine,WI,53404,262-637-4416
All Roads Transport,2137 So 54th Street,West Allis,WI,53219,414-672-9171
Kauffman's Trucking,1654 N Blomberg Rd,Exeland,WI,54835,715-943-2374
Valley View Trucking,452 233rd Street,Baldwin,WI,54002,651-491-0637
Main Creek Trucking,N4117 County Road B,Glen Flora,WI,54526,715-322-4473
Hahn Trucking,111 N Peters Avenue Apartment 1,Fond Du Lac,WI,54935,920-539-9121
Td Trucking,N8769 Lakeside Road,Willard,WI,54493,715-267-3193
Carolina Furniture Carriers,13255 10th Street,Osseo,WI,54758,715-597-6734
T W Transfer,305 S Fountain,Monfort,WI,53569,608-732-7559
Stockwell Trucking,N6324 740th Street,Beldenville,WI,54003,715-273-3586
Rgs Services,8576 Hwy 13 S,Marshfield,WI,54449,715-676-3607
Finks Delivery Service,407 East Second Street,Fond Du Lac,WI,54935,920-922-6205
Richards Transport,W2750 County Road D,Tomahawk,WI,54487,715-453-1360
Harmony Transport LLC,957 Harmony Ln,Amery,WI,54001,715-268-7403
Household Goods Moving,304 North Kenzie,Barneveld,WI,53507,608-924-1191
Richard A Page Trucking,19 Auburn Dr,Beloit,WI,53511,608-362-2723
Sobieski Express,5973 County Highway S,Sobieski,WI,54171,920-826-2039
Sunroom Services,1237 W Marquette St,Appleton,WI,54914,920-858-7955
Bristol Tire & Service,8335 200th Ave,Bristol,WI,53104,262-857-2661
Dahls Bus Service,904 Allen Street,Athens,WI,54411,715-257-7171
Tdl Trucking,1722 Main Street,Bloomer,WI,54724,715-568-2667
Al's Auto Service,210 E Main St,Platteville,WI,53818,608-348-2221
Olympic Beef Trucking,8880 Stairview Dr,Campbellsport,WI,53010,262-626-4569
Motorsport Auto Sales,667 West State Street,Burlington,WI,53105,262-767-9700
Private Carrier,5427 Superior St,Boscobel,WI,53805,608-375-5909
Bobcat Services & Repair LLC,7801 County Road N,South Wayne,WI,53587,608-439-5708
Eagle Services,18158 Anderson St,Whitehall,WI,54773,715-538-2174
Mac Tools Distributor,105 N Watson St,Livingston,WI,53554,608-943-6455
T And J Farms Trucking,6224 S Eastman Road,South Range,WI,54874,715-399-8994
Lj Linsmeyer & Son's,323 Morrow Street,Seymour,WI,54165,920-570-1585
Nbs Trucking,813 Otter Ave,Oshkosh,WI,54901,920-303-1759
Circle W Transport,6019 Spring Brook Rd,South Wayne,WI,53587,608-558-9869
Gordon Wegner Trucking,Route 1 Box 1 Bb,Glidden,WI,54527,715-264-2206
Napa Auto Center,725 Industrial Blvd,New Richmond,WI,54017,715-246-5695
"Pats Auto, Inc.",1302 S 3rd Ave,Wausau,WI,54401,715-848-9153
M Canada & Son Moving Co,3209a North 14th,Milwaukee,WI,53206,414-264-5164
Wray's Transport,2022 16th St South,Wisconsin Rapids,WI,54495,717-761-2791
Malsin's Moo-haul,8041 State Hwy13/73 E,Pittsville,WI,54466,715-884-6632
D & S Trucking,N775 Hwy C,Deforest,WI,53532,608-846-4341
Swan Transport,10262 Metcalf Rd,Hayward,WI,54843,715-634-3834
Ryan Zach Trucking,N6452 Hwy 73,Gilman,WI,54433,715-668-5465
South Mound Food Service,N8030 Gorman Ave,Willard,WI,54493,715-267-4747
Erics Trucking,514 Baders Ave,New Lisbon,WI,53950,608-562-3831
Transportation Services,20866 Johnson Hill Rd,Hillsboro,WI,54634,608-475-0899
D R G Trucking,N12797 Meridian Ave,Colby,WI,54421,715-223-2202
Dnr Auto Repair,5505 Geano Beach Rd,Little Suamico,WI,54141,920-826-5007
Milwaukee Express Moving Company,7425 Harwood Avenue,Wauwatosa,WI,53213,414-475-7755
Sunshine Distribution,625 East Center Street,Shawano,WI,54166,715-526-1752
Nottestad Trucking,217 West Main Street,La Farge,WI,54639,608-606-0245
C&g Delivery,1215 Elm Street,Wausau,WI,54401,715-298-1133
Blue Moose Transport,351 Walnut St,Manawa,WI,54949,715-252-3235
Nenneman Trucking,N 4731 Zebro Road,Bruce,WI,54819,715-868-5477
Otteman Trucking,324 Church,Linden,WI,53553,608-574-1947
Wallos Auto Service LLC,Hwy 32,Howards Grove,WI,53083,920-565-3123
Hobies Services,1895 Smart Road,Gordon,WI,54838,715-795-2042
Jk Trucks,1925 Spring Valley Road,Jackson,WI,53037,262-677-3872
Kingdom Transfer Co,W9650 Creek Rd,Darien,WI,53114,608-328-1000
Olave Transport,N10484 150th Street,Boyceville,WI,54725,715-931-9345
C J Bernier Transport,13726 Hwy Q,Maribel,WI,54227,920-755-2856
Mechanical Services And Equipment Mse,6408 East State Road 13,South Range,WI,54874,715-398-7777
Cc's Underground Service LLC,618 Mulberry Dr,Cassville,WI,53806,608-725-5612
M&b Distributing,600 Topaz Ln,Hudson,WI,54016,651-274-6409
Hauser Trucking,21484 Keel Rd,Sparta,WI,54656,608-366-1511
B & B Automotive,208 Main St,Norwalk,WI,54648,608-823-7475
J T Salb Transport,5048 Menominee Line Rd,Gillett,WI,54124,920-855-1435
Spooner Auto And Truck Repair,322 North River St,Spooner,WI,54801,715-635-9264
Funches Enterprises,5700 North Teutonia Avenue,Milwaukee,WI,53209,414-527-1533
Balentine Tire Service,N1008 Salt Box Road,Sharon,WI,53585,262-736-4677
Lorenz Trucking,N7590 145th St,Knapp,WI,54749,715-665-2468
Goltz Trucking,220 Pine Ave,Crivitz,WI,54114,715-854-3168
D & R Diggers,1041 22 St,Chetek,WI,54728,715-925-2034
Black Cloud Enterprises,N191 East St,Waterloo,WI,53594,608-334-0993
We Recycle,7599 East County Road E,South Range,WI,54874,715-392-2046
Great American Transport,213 Turtle Creek #7,Delavan,WI,53115,847-271-6006
Bierman Transfer,215 N Main St,Dickeyville,WI,53808,608-568-3307
Karen's Trucking,8678 Wozniak Road,Armstong Creek,WI,54103,715-336-2725
Interstate Tire & Auto,3094 Mid Valley Drive,De Pere,WI,54115,920-336-0731
Stuffy's Trucking,6412 S Tuff Road,Superior,WI,54880,715-399-0854
Moonen Trucking,N2252 French Ridge Road,Merrill,WI,54452,715-536-6019
Elmers Service Station,2501 Lathrop Avenue,Racine,WI,53405,262-634-9455
D N R Truckin,621 N 4th St,Readstown,WI,54652,608-629-5646
Collector Auto,14402 650th Street,Ridgeland,WI,54763,715-949-2217
Pal's Express,W204 Madison Avenue,Oconomowoc,WI,53066,262-567-9674
Lisney Transfer,15582 Hwy 14,Richland Center,WI,53581,608-536-3094
Porters Triplet Transportation,3612 N 50th Street,Milwaukee,WI,53216,414-871-4642
Ron's Trucking,E2230 County Road K,Boyceville,WI,54725,715-643-2489
Y2k Transportation Systems,107 Eddy Rd,Edgar,WI,54426,715-352-3278
Dave's Trucking,510 Pearl St,Prescott,WI,54021,715-262-5453
Sprange Transport Services,20 So Cth W,Collins,WI,54207,920-772-4199
Quality Transport,2238 16 3/4 Ave,Rice Lake,WI,54868,715-234-4453
Jbt,1617 North 1st Street,Superior,WI,54880,218-348-3777
Sunrise Septic Service,19090 Dayton Ridge Rd,Richland Center,WI,53581,608-647-6904
Construction Services Unlimited,1210 S Percnal,Hazel Green,WI,53811,608-854-2674
D L Holland Trucking,216 North Franklin Street,Stoughton,WI,53589,608-877-4225
Runnings Bus Service,3861 King Road,Rhinelander,WI,54501,715-272-1498
R C W Express,59 South Main Street,Markesan,WI,53946,920-398-3829
P T W Trucking,261 S 6th St,Winneconne,WI,54986,920-582-7940
D N D Express,3767 Glen Arye Lane,Oshkosh,WI,54904,920-420-1584
Meyers Transport Co,808 Mc Henry St,Burlington,WI,53105,262-767-9383
Highsees Trucking,W1485 County Road D,Nelson,WI,54756,715-946-3456
Daville Transportation,104 N Boardman,Thorp,WI,54771,715-669-3939
North Country Transport,13318 41st Avenue,Chippewafalls,WI,54729,715-720-1123
Robert Leick Trucking,P O Box 349,Stoughton,WI,53589,608-873-5807
Edjoten Trucking,N 1178 Cth Dd,Withee,WI,54498,715-678-2626
Ahrendt's Trucking,3000 State Rd 161,Nelsonville,WI,54458,071-582-4292
Voldberg Trucking,N6220 Hanson Road,Hawkins,WI,54530,715-585-6625
Tucker Trucking,Rt 1 Box 650,Wabeno,WI,54566,715-473-5202
Weslaw Trucking,N1012 Cypress Rd,Neshkoro,WI,54960,920-293-8591
Straight Shot Express,N5554 Abbey Rd,Onalaska,WI,54650,608-783-9220
Hopkins Trucking,107 S 3rd St,Waterford,WI,53185,262-534-6538
4 Point Trucking,1608 Holley Street,Holmen,WI,54636,608-526-6190
Berger Trucking,Rt 1 Box176,Schofield,WI,54476,715-359-8122
Straight Shot Express,426 South Central Ave,Marshfield,WI,54449,715-389-8988
Michael Michaelis Trucking,N4109 Neubauer Lane,Tigerton,WI,54486,715-535-2437
Als Trucking,302 N Military Rd,Dane,WI,53529,608-592-3139
Ace Freight Systems,Rt 2 Box 199-b,Iron River,WI,54847,715-372-5586
R & T Transport,7518 S 82nd Street,Franklin,WI,53132,414-858-1282
Rs Bockenhauer Trucking,W2709 Hwy T,Mindoro,WI,54644,608-857-3354
Kempen Distributing,14219 Artishon Ln,Lac Du Flambeau,WI,54538,715-248-7206
James C Ticker Trucking,W524 Cty Uu,Kaukauna,WI,54130,920-766-1239
Rush Auto Transport,732 Murray,Appleton,WI,54915,920-450-5060
Schuh Express,216 Prairie Dr,Walworth,WI,53184,262-498-9451
Ajp Motor Carriers,6345 Pheasant Ln,Middleton,WI,53562,608-824-0235
Oakley Transportation,716 Glen St,Janesville,WI,53545,608-757-9276
Saunders Trucking,498 Albion Road,Edgerton,WI,53534,N/A
Jg Delivery Service,2004 Cottonwood Dr,Janesville,WI,53545,608-752-7051
Bowman Trucking,W14326 First Ave,Gleason,WI,54435,715-873-4960
Brewster Trucking,2153 Cty Road C,New Richmond,WI,54017,715-248-3542
Moores Trucking,E10880a E Bloomingdale Rd,Westby,WI,54667,608-625-2133
Hopkins Trucking,4865 S Katelyn Cir #103,Greenfield,WI,53220,414-282-7803
Twirl Sewer Service Co,1833 Sal St,Green Bay,WI,53401,920-468-9919
Glover Farms & Trucking,W5458 Cty Hh,Dalton,WI,53926,920-394-2005
Don Meulemans Trucking,924 Park St,Wrightstown,WI,54180,920-532-4782
Maple View Trucking,W9834 Maple Road,Bear Creek,WI,54922,715-823-5493
Doose Trucking,W6567 Oak Hill Rd,Bay City,WI,54723,715-792-2945
Clipper Transport,22765 County Rd M Box 462,Augusta,WI,54722,715-286-5446
S C S Trucking,400 Lake St,Beaver Dam,WI,53916,920-887-9925
Feliciano Trucking,1509 S 33rd Street,Milwaukee,WI,53215,414-383-1303
D & H Transport,722 Lewis Street,Depere,WI,54115,920-737-2121
Mavco Trucking,4209 S 90th St,Greenfield,WI,53228,262-894-3773
Silverstone Transport,20207 Freedon Drive,Frederic,WI,54837,715-327-4567
Strasser Trucking,1541 A 120th Avenue,Amery,WI,54001,715-483-5744
Volden Trucking,Box E10422 Miller Rd,La Farge,WI,54639,608-625-2052
Marks Trucking,334 Ofallon Court,West Salem,WI,54669,608-612-0150
Tisdale Transport,439 S Newman Rd,Racine,WI,53406,262-886-8865
Pittman Trucking,903 Moore St Lot 193,Baraboo,WI,53913,608-355-9663
Vsp Distributing,1509 Mc Kenna Blvd #5,Madison,WI,53711,608-278-8622
Blue Star Freight,1111 Lockwood Ave,Racine,WI,53403,414-861-8767
D W Demler Trucking Ii,Po Box 510338,New Berlin,WI,53151,262-422-1886
Gps Express,W10408 Bear Lake Rd,Antigo,WI,54409,715-623-6059
Bw Distributing,5158 S Maple Dr,Poplar,WI,54864,715-364-8528
Jims Auto,N4161 Cty Rd E,Bruce,WI,54819,715-868-4209
Berry Trucking,S10510 Kelly Road,Augusta,WI,54722,715-286-2467
R E Mccoy Hauling,3757 N 42nd St,Milwaukee,WI,53216,414-442-0595
Badger Energy Services LLC,720 N Main St,Oconto Falls,WI,54154,920-848-5000
Boo Boos Trucking,1260 Lake Terrace Dr,Three Lakes,WI,54562,715-546-4144
Schultz Trucking,M142 Highway T,Marshfield,WI,54449,715-498-5205
D C Trucking,518 S Washington St,Shawno,WI,54166,715-524-5187
Lejeune Transportation,7450 E Ramel Road,Solon Springs,WI,54873,715-378-2120
Bacons Hauling,W9594 Hwy 8,Ladysmith,WI,54848,715-532-7295
Truckwise,1125 6th Street,Racine,WI,53403,877-253-3761
Djc Transit,E8610 575th Ave,Elkwood,WI,54739,715-379-6020
Cervera Trasportation,1321 S 29 St,Milwaukee,WI,53215,414-467-6170
Welke Trucking,20845 Cty X,Chippewa Falls,WI,54729,715-830-1005
Grimes Trucking,1520 Cornell Rd,Green Bay,WI,54313,920-661-0840
Go-4 Express International Couriers,5110 Hwy 51 S,Janesville,WI,53547,608-743-0000
Gold Dust Carriers,2119 County Rd Cc,New Richmond,WI,54017,602-501-7699
Steve's Recycling,4986 Pleasant View Rd,Mineral Point,WI,53565,608-574-2350
Bob Larson Trucking,10575 Gresylon Dr,Hayward,WI,54843,715-634-6401
Sauers Transportation,531 S Stone St,Augusta,WI,54722,715-286-2866
Middleman Trucking,71595 Hooverline,Iron River,WI,54847,715-372-5210
Jeff Finley Trucking,N10376 Timber Lane,Necedah,WI,54646,608-565-2890
Lilla Trucking,N19583 County Rd F,Trempealeau,WI,54661,608-539-3776
Ttt,19104 Cty Hwy Ee,Richland Center,WI,53581,608-538-3213
Nelson Transport Service,W126 State Hwy 121,Independence,WI,54747,715-946-3817
Paladin Transportation,N 7844 Hwy 73,Randolph,WI,53956,N/A
Mckinley Pitts Trucking,2130 N 41st St,Milwaukee,WI,53208,414-444-7397
Quality Transport,27383 50th Ave,Cadott,WI,54727,715-289-3028
Psl,209 Limestone Pass,Cottage Grove,WI,53527,608-839-9050
Adams Milk Transport,W5126 Cty D,Holmen,WI,54636,608-857-3213
Swamp Chicken Transport,N12139 N Alma Center Rd,Humbird,WI,54746,715-964-8234
Marion Transport,27108 Cty Hwy S,Cadott,WI,54727,N/A
Heartland Auto,23516 Hwy 27,Holcombe,WI,54745,715-239-6403
Advanced Moving Systems LLC,N935 State Hwy 26,Watertown,WI,53098,920-261-3325
Tim Peterson Trucking,1014 Cedar,Superior,WI,54880,N/A
Skop Trucking Service,N7249 Co Rd Q,Wittenberg,WI,54499,715-253-2822
Oak Tree Express,N15342 Cr D,Owen,WI,54460,715-229-4546
Uil,209 Limestone Pass,Cottage Grove,WI,53527,608-839-9050
Kurszewski Trucking,539 Highland Avenue,Eland,WI,54427,715-454-6298
Steve Schuh Trucking,5127 Gehring Rd,Racine,WI,53402,262-639-8100
Anderson Ag Enterprises,W3732 Hwy F,Monticello,WI,53570,608-328-8030
Tsw Express,526 Shah Ave,Ft Atkinson,WI,53538,920-568-0907
R S M Trucking,W311 Strucker Rd,Ogema,WI,54459,715-564-3167
Bird Transport,27798 266th Ave,Holcombe,WI,54745,715-595-6278
James Lucius & Son Trucking,65980 County Hwy E,Mason,WI,54856,715-746-2093
Buchholz Trucking LLC,1006 Lowell St,Two Rivers,WI,54241,920-793-5740
Haul Frys,874 Rock Cut Rd,Hazel Green,WI,53811,608-748-4843
Moonbeam Transport,25 Primrose Lane,Tigerton,WI,54486,N/A
Heimbruch Trucking,E9574 Hoffman Rd,New London,WI,54961,715-752-3859
Telstar Trucking,7071 So 13th Street Ste 203,Oak Creek,WI,53154,414-764-8001
Henry Miller Trucking,104 Walnut St,North Freedom,WI,53951,507-269-4976
Rollette Bros Transport,1747 Center Ave,Janesville,WI,53546,608-752-6317
Bratsven Trucking,W13688 Cty F,Lublin,WI,54447,715-669-3787
Wls Transport,424 Mill St,Suring,WI,54174,920-842-2500
Allan Kegley Trucking,7774 Highway 32 And 55,Argonne,WI,54511,715-478-1153
Salb Transport,W6323 Highway J,Jefferson,WI,53549,920-674-3134
Buttercup Trails,945 Willow Street,Lomira,WI,53048,920-269-4443
Lil Big Truck Express,5104 Taylor Ave #4,Racine,WI,53406,262-308-8883
Mc Cahill Trucking,W494 Potter Rd,Burlington,WI,53105,262-763-5588
Neefe Autos,29563 Cty Hwy B,Lone Rock,WI,53556,608-647-8451
Phantom Express,654 Park Ridge Drive,Eau Claire,WI,54703,715-833-0671
Lili Dump Trucking,1691 150th St,New Richmond,WI,54017,715-246-5648
Asap Expedited Courier,237 S Curtis,Milwaukee,WI,53214,414-456-0200
Hornby Transport,216 S Wagoner Ave,Viola,WI,54664,N/A
Ort Trucking,775 Industrial Loop Road,New London,WI,54961,920-982-7690
Gill Transport,8711 Woodcreek Dr Apt #2,Oak Creek,WI,53154,414-762-0911
Kmk Transfer,7692 265th St,Holcombe,WI,54745,715-595-6405
Double E Trucking,E12690 Dobbs Valley Rd,Ontario,WI,54651,608-625-2505
Larrys Rv Transport,5090 E Line Rd,Gillett,WI,54124,920-855-1955
Stillman Creek Service,W6226 Hwy 00,Marion,WI,54950,715-754-4869
Bolden Transportation,7277 W Marine Dr,Milwaukee,WI,53223,414-365-2710
G & M Courier,2407 Nicholson Ave,South Milwaukee,WI,53172,414-762-1602
R J Trucking,5527 Sedgemeadow Rd,Middleton,WI,53562,800-381-7887
Discount Auto,7542 Hwy 57,Sturgeon Bay,WI,54235,920-743-6559
Setzer Trucking,7844 Cty Hwy G,Stanley,WI,54768,715-644-5654
Rcn Trucking Ser,2751 S Greeley St,Milwaukee,WI,53207,414-617-8389
Ctc Express,7339 Church St,Custer,WI,54423,715-592-5150
Broxton Universal Services,3021 W Auer Ave,Milwaukee,WI,53216,414-871-1887
Mellon Distributing,3317 Dewey St,Manitowoc,WI,54221,920-683-3423
Eagle Trucking,225 W Oak St,Viroqua,WI,54665,608-637-2363
Lees Fuel Service,210 Park Ave,Chippewa Falls,WI,54729,715-723-6938
A Complete Automobile Transfer,W9285 Ripley Rd,Cambridge,WI,53523,612-619-5475
Dubay Specialized Transportation,4723 Bridge Rd,Junction City,WI,54443,715-457-6773
Rapid Service Oil LLC,1504 Hwy 64,New Richmond,WI,54017,715-246-4905
Childerbuilt Trucking,206 N Hazeldell Ave,Crandon,WI,54520,715-478-2273
Hajos Distributing,N5891 Lake Drive,Shawano,WI,54166,715-524-3222
Daves Trucking,26893 Co Hwy V,Kendall,WI,54638,608-463-7789
Jaeger Trucking,503a Union Street,Manawa,WI,54949,920-596-2754
"Wagner Gas & Electric, Inc.",116 East Main Street,Gillett,WI,54124,920-855-2431
Miller Transport,607 N Cleveland St,Merrill,WI,54452,715-536-3167
Black Trucking,4548 Hwy 39,Mineral Point,WI,53565,608-987-3413
Pnp Septic Service,W2865 Ross Road,Cambria,WI,53923,920-348-5556
Orion Truck,W1785 56th Street,Lyndon Station,WI,53944,708-203-0599
Olson Transport,1211 S 16th,Manitowoc,WI,54220,920-683-1453
Beck Trucking,411 Lynn Street,Horicon,WI,53032,920-485-0821
Lee Evanson Trucking,W175 Hwy 121,Gilmanton,WI,54743,715-946-3717
Moonlight Professional Services,820 Tenny Avenue,Hartland,WI,53029,262-352-8000
S & A Trucking,3450 Hwy 54 West,Nekoosa,WI,54457,715-887-4189
Strander's Sanitary Service LLC,N2535 Hwy V,Lodi,WI,53555,608-592-5808
Basic Transport LLC,323 North Rogers Road,Coloma,WI,54930,715-228-2146
Dave Herrmann Trucking,10420 Reifs Mills Road,Whitelaw,WI,54247,920-732-3263
Daves Auto Recycling,2026 Cty A,West Bend,WI,53090,262-334-4653
Wagner Delivery,N6410 Hillview Road,Saint Cloud,WI,53079,920-999-2801
F C A Transport,3816 N 53rd St,Milwaukee,WI,53216,414-442-7922
Wester Trucking,W12141 Hwy 8,Bruce,WI,54819,715-868-3953
W C Trucking,12176 223 Avenue,Salem,WI,53164,262-862-6198
Key Motor Freight,2810 Hwy 116,Omro,WI,54963,330-242-4119
D & T Leasing,1016 Derby Lane,Neenah,WI,54956,920-722-7134
Ernies Fule Service,W7203 North Rd,Mauston,WI,53948,608-847-7645
Paul H Dean Phd Trucking,E9974 370 Ave,Eau Claire,WI,54703,715-577-2879
Martinez Trucking,W 9642 Bonnin Rd,New London,WI,54961,920-982-9858
Mark's Auto Transport,1042 Wells St,Darlington,WI,53530,608-776-2050
Laube Trucking,346 Janesville Street,Footville,WI,53537,608-876-4152
Breaver Creek Express,239 N Main St,Fall River,WI,53932,920-484-6422
Dale Wahl Trucking,W7730 Hwy J,Watertown,WI,53098,920-927-3690
Eds Service Center,3607 Mormon Coulee Rd,La Crosse,WI,54601,608-788-8039
"Always Moving, Inc.",4841 Souh 26 St,Milwaukee,WI,53221,414-281-2622
R D Roberson Trucking,234 E. Reservoir Ave. # 103,Milwaukee,WI,53212,414-349-2686
Wampler Transport,489 Gillette Avenue,Wisconsin Dells,WI,53965,612-840-2266
Quality Resource Services,N4176 Cth E,Kewaunee,WI,54216,920-388-4358
Russ'es Trucking,1379 Cty Trk C,Big Flats,WI,54613,608-564-7568
Keller Trucking,N9042 Zimmerman Rd,Westboro,WI,54490,715-427-0505
Bulls Trucking,2751 E Milchesky Rd,Foxboro,WI,54836,715-399-8432
R&d Trucking,30174 10th Ave,Cadott,WI,54727,715-667-5322
Eggers Gravel Service,1413 Willow Springs Road,Cobb,WI,53526,608-623-2297
Climate Services,One Bardon Pl,Superior,WI,54880,715-398-7772
Scottay's Trucking,1471 210th Ave,Milltown,WI,54858,715-825-2366
Talons & Teeth Transportation,3272 County Hwy P,Marathon,WI,54448,715-443-3115
Carlson Construction Services,1504 Hidden Valley Circle,Houlton,WI,54082,715-549-5985
Rasmussen Trucking,21421 Cty Hwy E,Cornell,WI,54732,715-288-6912
Starwood Transportation,W10032 Bonnin Rd,New London,WI,54961,920-982-0681
Tatrow Transportation,21040 W Lincoln Ave,New Berlin,WI,54136,N/A
Meyer Trucking,506 16 St,Dallas,WI,54733,612-308-7448
Dans Trucking,4130 Golelys Lane,Caledonia,WI,53404,262-639-4995
Nicks Trucking,N3496 Highview Road,Cascade,WI,53011,414-545-6700
Jim Peterson Trucking,990 Hillcrest St #103,Baldwin,WI,54002,715-688-2609
J M L Transport,N 6f155 Hwy 180,Marinette,WI,54143,715-582-3911
John D Wangen Trucking,S4097a Bakkom Road,Viroqua,WI,54665,608-637-7223
Mc Cullick Trucking,14296 Millville Hollow Road,Mount Hope,WI,53816,608-988-4561
B & B Movers,327 E Kent St,Wausau,WI,54403,715-842-4418
Tim Elliott Trucking,W6446 County Rd D,Sarona,WI,54870,951-764-3275
Crabb Grass Express,2339 Hwy 80,Wisconsin Rapids,WI,54495,715-884-2431
C & J Livestock Hauling,N2916 Hwy 110,Weyauwega,WI,54983,920-867-2121
J Chown Trucking,N 10730 Murphy Road,Crivitz,WI,54114,715-856-6342
Pioneer Trucking,W9315 Cty B,Clinton,WI,53525,262-736-9195
Jakes Trucking,6353 Cth N,South Wayne,WI,53587,608-439-1111
Smooth Customs,8200 N Bowers Lake Rd,Milton,WI,53563,608-346-9156
Pals Septic Service,3855 Norway Woods Lane,Abrams,WI,54101,920-826-5844
Wiederin Trucking,613 220th Avenue,Somerset,WI,54125,715-247-5191
Bloomer Truck & Auto,8831 State Hwy 64,Bloomer,WI,54724,715-568-1915
N K P Trucking,14556 Rainbow Dr,Merrill,WI,54452,715-539-1665
Steve Kornaus Trucking,3011 Glendale Avenue,Green Bay,WI,54313,920-434-7832
Meagaco,312 N Watertown St,Johnson Creek,WI,53038,920-699-3355
M & K Trucking,6997 Memorial Drive,Egg Harbor,WI,54209,920-823-2190
Kc's Express,230 Mill Rd,Blair,WI,54616,608-864-0176
J K Trucking,8415 Decker Road,Whitelaw,WI,54247,920-732-3287
Ederer Trucking,N13670 Koser Avenue,Thorp,WI,54771,715-512-0473
Vip Transports LLC,West 300 North 7784 Christine Lane Unit 600,Hartland,WI,53029,262-567-5462
Lqqken Limo Service,238 Welsch Street,Rewey,WI,53580,N/A
Purgett Trucking,W3865 Eddy Lane,Owen,WI,54460,715-748-0286
Bob Woods Trucking,2122 Buckhorn Lane,Rhinelander,WI,54501,715-362-4648
Wc Delivery Service LLC,909 Canterbury Lane,Waukesha,WI,53188,262-844-2221
Steiner Auto Transport,W6637 Birchwood Road,Crivitz,WI,54114,715-854-7567
E Z Mobile Home Transport,9873 3rd Avenue,Almond,WI,54909,715-366-7481
La Crosse Municipal Transit,2000 Marco Drive,La Crosse,WI,54601,608-785-1221
The O'rourkes-transportation Division,106 Forest Street,Kendall,WI,54638,608-343-7755
Rjb Trucking,N7923 Hwy B,Westfield,WI,53964,608-296-2145
Jim Bosdech Trucking,2431 1/2 N New Franken Road,New Franken,WI,54229,920-866-9611
A 1 Septic Service & Pumping,6502 E Co Rd X,Clinton,WI,53525,608-676-5961
Weiler Trucking,2211 E 5th Street,Marshfield,WI,54449,715-384-4752
Chips Home Service,28727 Cty Rd Et,Tomah,WI,54660,608-343-4966
T & J Trucking,296 County Road G,Nekoosa,WI,54457,715-886-5877
Casperson Specialty Services,436 190th Ave,Somerset,WI,54025,715-247-3439
R G H Express,1012 9th Street,Reedsburg,WI,53959,608-524-3816
Turner TruckingLLC,W8080 Forest Dr,Onalaska,WI,54650,608-526-4901
Town & Country Trucking,B2883 Hwy Aa,Waupaca,WI,54981,715-258-6053
Nordic Transport LLC,120 Grove St,Westby,WI,54667,608-634-2608
Don Brightbill Auto & Racing,592 High Ridge Drive,Hudson,WI,54016,715-386-1834
M & M Trucking,4491 Koppen Road,Pittsville,WI,54466,715-572-2350
Cnc Transport,3621 Aspen Lane,Pittsville,WI,54466,N/A
Aerial Septic Service,12521 Timber Ridge Dr,Pleasent Prairie,WI,53158,262-697-9305
C R Melton Trucking,W8524 Jellen Road,Spooner,WI,54801,715-635-3350
R Russell Trucking,West Fritz Ave,Ladysmith,WI,54848,715-532-9021
Accola Trucking,S12565 Donald Road,Spring Green,WI,53588,608-583-0049
Rdi Trucking,112 4th St,Montello,WI,53949,608-566-9862
Skipperliner Service,127 Marina Drive,La Crosse,WI,54603,608-784-5110
Andy Balcsik Trucking,12038 East Mail Rd,Gordon,WI,54838,715-376-4121
Aggerholm Trucking,10789 Hwy 48,Frederic,WI,54837,715-327-8651
Radtke Transport,S12584 Donald Rd,Spring Green,WI,53588,608-588-7957
"Moving Express, Inc. North Milwaukee",10269 N Cedarburg Rd,Mequon,WI,53092,262-242-9715
Gpl,209 Limestone Pass,Cottage Grove,WI,53527,608-839-9050
Flagship Trucking LLC,1736 Ferry St,La Crosse,WI,54601,N/A
Ej And K Transport,W15477 Cth D,Wittenberg,WI,54499,715-793-3898
Gustman Automotive Group,3415 Gallagher Rd,Marinette,WI,54143,715-735-7483
Montgomery Trucking,15412 Syresville Ln,Richland Center,WI,53581,608-549-2914
Freedom Transfer,153 Fieldstone Drive #304,Wisconsin,WI,53965,360-202-8097
Adams Automotive,816 Railroad Ave,Prentice,WI,54556,715-428-2331
M L Dickinsen Trucking,4313 W Cameron St,Eau Claire,WI,54703,715-552-0032
Hillestad Trucking,E2450 Hageness Road,Eleva,WI,54738,715-287-3181
Garys Transport,W542 Myrt Lane,Brodhead,WI,53520,608-897-3733
"Eastern Iowa Forestry And Conservation Services, Inc.",973 Rock Cut Road,Hazel Green,WI,53811,608-748-0323
Mager's Trucking,E8865 Cth X,Westby,WI,54667,608-634-4754
Dj Transportation,W2375 Hwy 64,White Lake,WI,54491,715-212-6494
Charlies Express,E 6228 1090th Ave,Whecler,WI,54772,715-632-2266
Hershey Trucking,N6628 Metcalf Road,Stonelake,WI,54876,715-865-6075
Brubacker Livestock Hauling,W2182 Colby Factory Road,Colby,WI,54421,715-223-0445
Mike's Trucking,4091 Woodview Drive,Hubertus,WI,53033,262-628-0338
Trail Towne Delivery Service,W7394 Highway 106,Fort Atkinson,WI,53538,920-568-1806
Big Valley Trucking,18335 W Avon North Townline Rd,Brodhead,WI,53520,608-879-2951
Midwest Coffee Distributors,9807 Roble Ln,Schofield,WI,54476,715-359-2228
Chaplinski Trucking,W16419 Little Ave,Gilman,WI,54433,715-447-5436
J&m Trucking,34233 Oak Knoll Rd,Burlington,WI,53105,414-534-2601
Allhours Transportation,509 Park Ave,Wausau,WI,54403,715-849-6002
Admiral Refrigerator Lines,7868 N Pennsylvania Street,Oconomowoc,WI,53066,920-474-7284
Jet Fast Freight,1546 Layard Avenue,Racine,WI,53404,414-639-2024
North States Transport,2763 South State Rd 13,Maple,WI,54854,715-364-2315
Lp Trucking,2930 W Mercer Lake Cir,Mercer,WI,54547,715-476-3737
Lee's Service,W 7411 Hwy 151 South,Fon Du Lac,WI,54937,414-921-8435
Dianco Auto Sales,5000 W Greenview Dr,Appleton,WI,54915,414-954-5755
Kg Trucking,2865 Stonebridge Dr,Racine,WI,53404,414-639-8830
A & A Express,1540 31/2 Ave,Dallas,WI,54733,715-837-1986
Steves Limo Service,85 E Field Stone Circle #2,Oak Creek,WI,53154,414-881-5556
B M B Trucking,3723 S Chicago Ave Apt 14,South Milwaukee,WI,53172,414-481-5256
Everything Goes Limo Service,1200 South Memorial Drive,Racine,WI,53403,414-633-6109
Robert G Busch Trucking,180 2nd St,Dickeyville,WI,53808,608-568-3248
Buffalo Valley Trucking,130 N Franklin St,Mondovi,WI,54755,715-926-3801
Fdr Corporate Express,1204 County Rd V,Fond Du Lac,WI,54935,414-921-1029
S & S Ranch & Trucking,E27564 Cty Rd M,Fairchild,WI,54741,715-286-5507
Mark E Trucking,3803 Hwy 161,Amherst,WI,54407,715-824-5095
Timberland Trucking,605 Spring St,Fox Lake,WI,53933,414-928-6255
Probst Probst & Probst,3610 Atwood Ave,Madison,WI,53714,608-249-8298
J L A Trucking,E3673 Knutson Lake Road,Ogdensburg,WI,54962,920-244-7379
Madtson Trucking,B784 State Hwy 153,Spencer,WI,54479,715-652-3393
Mikies Justa Trucking,23770 County Hwy F,Benoit,WI,54816,715-746-2302
D & A Express,1024 22 3/16 St,Chetek,WI,54728,715-924-2313
Thomas Trucking Lines,340 N Shore Dr,New Richmond,WI,54017,715-246-2453
Schreiber Transportation,9236 Radtke Road,Maribel,WI,54227,920-629-1530
Fred Honkamp Specialized Carriers,W 140 N 5761 Lilly Rd,Memomonee Falls,WI,53051,262-783-5000
Djm Hauling,1750 Dublin Trail,Neenah,WI,54956,218-349-5024
Kufahl Transit,4805 N 55th Ave,Wausau,WI,54401,715-675-6009
Detaege Trucking,3814 Airport Rd,Oconto,WI,54153,414-834-5884
Thompson Son Trucking,N9643 Hutch Ct,Mindoro,WI,54644,608-857-3933
Robert Frank Truck & Trailer Transport,405 S Main St,Oconto Falls,WI,54154,414-846-2811
Mts Feed Transport,126 Randall Court Apt 8,Green Bay,WI,54302,920-498-0557
Gm Trucking,12620 Wilmot Rd,Kenosha,WI,53142,262-857-7212
Arries Trucking,6601 Hwy V,Caledonia,WI,53108,414-835-4023
Charles C Hirsch Trucking,W310 S749 Maple Ave,Waukesha,WI,53188,262-968-9613
Mancl Trucking,W7762 Hwy Co O,Wautoma,WI,54982,920-622-3730
"E & H Transportation, Inc.",627 Main Street,Darlington,WI,53530,608-776-4888
Loppnow Trucking,7393 Liberty School Rd,Omro,WI,54963,414-685-5347
L & L Trucking,Po Box 346,Sparta,WI,54656,608-269-2976
Darrells Auto Repair,W5893 City Rd D,Princeton,WI,54968,414-295-6992
St Paul Transportation,1120 Grand Avenue,Racine,WI,53403,262-632-8495
Gary Shampo Trucking,2651 Hwy 32 N,Wabeno,WI,54566,N/A
T & S Express,N11605 County Road S,Marion,WI,54950,715-754-4880
Tayfert Trucking,614 1/2 Marshall Ave,South Milwaukee,WI,53172,414-762-9177
P & W Tar-rail,2862 Cty D East,Chetek,WI,54728,715-924-2117
Custom Combining Trucking,209 Lake St Apt 8,Beaverdam,WI,53916,414-885-3265
Petersen Trucking,1817 Burns Ave,Green Bay,WI,54303,414-496-0621
Malinowski Trucking,8977 170th Ave,Bloomer,WI,54724,715-568-1384
Drea Trucking,12879 Bunker Hill Drive,Cazenovia,WI,53924,608-983-2797
J & K Enterprises,528 College St,Lake Mills,WI,53551,920-648-5208
T N L Transport,22915 Immes Road,Siren,WI,54872,715-349-2497
P & G Trucking,N5462 Cnty Rd B,Mauston,WI,53948,815-289-2589
David Wood Trucking,12311 Hidden Valley Road,Maribel,WI,54227,920-863-8158
G & S Transport,Rt 1 Box 283,Durand,WI,54736,715-672-8508
Transport Service,W1754 Hwy 41,Marinette,WI,54143,906-863-6663
Ken's Auto Repair,1716 Gillette Pl,La Crosse,WI,54603,608-782-6151
Self Employed Trucker,40217 Stricker Road,Mellen,WI,54546,715-274-2157
Dondlinger Trucking,W9677 Goatback Rd,Pepin,WI,54759,715-442-2435
Scott Koberle Trucking LLC,190 E Richards Rd,Oregon,WI,53575,608-835-8368
Donn's Auto Transport,3228 Wood Rd Unit 2,Racine,WI,53406,800-934-1655
Red's Express,1032 West Main,Hilbert,WI,54129,414-853-3297
Pocian Trucking,884 S 18th Ave,West Bend,WI,53095,414-338-1183
Valley Equipment Service,N5603 Hwy 151,Fond Du Lac,WI,54935,920-921-2440
R E S Trucking,549 Union Rd,Brooklyn,WI,53521,608-835-5118
Versa Cold Logistics Services,230 Collins Road,Jefferson,WI,53549,920-674-3035
Larry Beck Trucking,1342 Highway C,Arkdale,WI,54613,608-564-2508
Caelwaerts Trucking,10373 Hwy 139,Newald,WI,54511,715-674-4702
Ads Christianson Trucking,W599 Highway 10,Mondovi,WI,54755,715-926-5230
Lucas Trucking,3550 E Tesch Avenue #5,St Francis,WI,53235,414-769-2075
Dave Larson Trucking LLC,4901 240th Ave,Salem,WI,53168,262-537-2202
Bresser's Trucking,3106 Hampshire Road,Janesville,WI,53546,608-757-9245
R & F Trucking,139 Hwy 35,River Falls,WI,54022,715-425-1108
Faber & Son Trucking,N5261 Hillcrest Dr,Plymouth,WI,53073,920-892-6205
James Diemel Trucking,N353 Lessor Navarino Rd,Bonduel,WI,54107,414-525-4313
Fuerst Transport,7310 Seven Mile Road,Racine,WI,53402,262-835-2439
Kay's Trucking,9072 Hwy 13 South,Marshfield,WI,54449,715-676-3201
White Pine Trucking,N7504 Cty Q Box 407,Wittenberg,WI,54499,715-253-2756
M&r Trucking,10481 3rd Avenue,Almond,WI,54909,715-366-2537
Erickson Transport,808 Kent St,Sparta,WI,54656,608-269-3197
Deluxe Trucking Service,136 Cross St,Oconto,WI,54153,414-834-9914
Senn Trucking,7130 Evergreen Aave,Wisconsin Rapids,WI,54494,715-325-5175
C & B Trucking,Lot 108 Green Acres,Colby,WI,54421,715-223-8102
Speedboat Cafe Express Shrimp Co,P O Box 431,Slinger,WI,53086,414-644-8123
P & H Trucking,W 1658 Willow Avenue,Medford,WI,54451,715-785-1387
Da Auto Trucking,4805 Curtis Rd,Doddgeville,WI,53533,608-935-1311
K Hill Farms,N2764 Hwy K,Watertown,WI,53098,920-261-5787
Warner Creek Transfer,E14896 Warner Ave,Hillsboro,WI,54634,608-489-3761
Jerrys Auto Sales,304 Hwy 12,Knapp,WI,54749,715-665-2102
Dick Lein Transport,P O Box 149,Tomah,WI,54660,608-372-7652
Wilburs Services,18410 119th St,Bristol,WI,53104,414-857-2962
Trucks N Such,Hwy 14 & 60,Gotham,WI,53540,608-583-2285
T Kelly Steele Express,Po Box 166b,Gays Mills,WI,54655,608-872-2594
Shiloh Trucking,548 E Water St,Shullsburg,WI,53586,608-965-4563
Citgo Auto Truck Plaza,611 S Sylvania Ave,Sturtevant,WI,53177,414-886-2738
Reichwald Trucking,1541 David Lane # 2,Waukesha,WI,53186,414-548-9872
Trails Transport,N97 W15817 Burr Oak Road,Germantown,WI,53022,262-255-3758
Ron Krumrei Trucking,W3512 Cty X,Wausaukee,WI,54177,715-732-6645
Four T's Trucking,116 Primrose Lane,Green Bay,WI,54306,414-469-2206
Madl Trucking,1480 Lake Terrace Dr,Three Lakes,WI,54562,715-546-2793
Creger Transportation,1809 N 11th Ave #10,Wausau,WI,54401,715-675-4214
Helgerson Trucking,W 5585 Cty Rd Mm Lot 116,La Crosse,WI,54601,N/A
Brads Trucking,401 W Factory St#1,Seymour,WI,54165,920-833-9397
Quade Trucking,14 125th Ave,Turtle Lake,WI,54889,715-986-3008
R & A Loduha Trucking,Route 1 Box 8l,Argonne,WI,54511,715-649-3660
Whirljet Carwash & Moving,801 Pioneer Ave,Waupun,WI,53963,414-324-2391
Mickey's Express,N11898 Helgeson Rd,Iola,WI,54945,715-445-4853
Steven Linnerud Trucking,2152 Colladay Point Rd,Stoughton,WI,53589,608-873-3036
Northwoods Transfer,3003 Germond Rd,Rhinelander,WI,54501,715-362-4025
Reinhardt Trucking,W1230 County Rd A,Mondovi,WI,54755,715-926-3651
Douglas Transfer,W5239 Chesebra Lane ,Monticello,WI,53570,608-329-4275
Carl Hawks Trucking,609 S Grandview,Crandon,WI,54520,715-478-2248
E & P Trucking,Rt 1 Box 91,Hancock,WI,54943,715-228-2791
Albrecht Trucking,10315 Hwy 139,Newald,WI,54511,715-674-3735
Lueck Trucking,1810 Swartz Dr,Waukesha,WI,53188,262-521-1349
Bruyette Transport,4376 Forest Lane,Rhinelander,WI,54501,715-369-3360
Kevilus Trucking,5352 Harris St,Laona,WI,54541,715-674-3781
J M Faber Transportation,7489 Friendly Dr,Kewaskom,WI,53040,262-338-2297
Arthurs Transportation,4111 Kruschke Avenue,Sheboygan,WI,53081,414-452-4136
W R Wolfe Trucking,N7258 John St,Holmen,WI,54636,608-526-3737
F & L Trucking,N4520 Hwy E,Waupaca,WI,54981,715-256-9199
Puccio Trowing Service,1621 Beld,Madison,WI,53715,608-250-2356
Keith Schellin Trucking,W541 Hwy 16,Ixonia,WI,53036,414-567-2923
Wolf River Hot Shots,W10198 Liberty Hall Rd,New London,WI,54961,920-982-7812
Teresas Trucking,982 Cty H,Cuba City,WI,53807,608-744-8463
Jeff Miller Trucking,W5422 Garton Rd,Plymouth,WI,53073,414-876-2281
Re-pete Carriers,2807 Raven Ave,Wausau,WI,54402,715-848-1024
J & S Enterprises,1120 Page Rd,Hatley,WI,54440,715-446-2068
Reuter Trucking,868 Rockcut Road,Hazel Green,WI,53811,608-748-4284
Certified Auto Service & Sales,S83 W2070 Janesville Rd,Muskego,WI,53150,414-679-9460
Manos Auto Transport,902 W Lorain,Appleton,WI,54914,414-730-1003
Atkins Trucking,904 South Main St,Horicon,WI,53032,414-485-0103
B & L Trucking,115 Second Street,Oconto,WI,54153,414-834-2401
Wms,1593 140th St,New Richmond,WI,54017,715-246-4451
Napa Auto Parts,47 Copeland Ave,La Crosse,WI,54603,608-784-9249
B&r Express,Po Box 337,Whitehall,WI,54773,N/A
Ott Trucking,N4764 Martin Road,Fon Du Lac,WI,54935,414-922-1655
G G M G Trucking,2511 Spooner Avenue,Altoona,WI,54720,715-335-7430
Versacold Logistics Services,W 8876 County Hwy X,Darien,WI,53114,262-724-5413
Hoff Transport,20 Menhall Drive,Edgerton,WI,53534,608-844-9265
Cargo In Transit Co,5000 N 39 St,Milwaukee,WI,53209,414-263-6772
M & B Trucking,N4420 East Rd,Kennan,WI,54537,715-474-6624
Kings Express,174 S Main St,Potosi,WI,53820,608-988-4621
"Wj Trucking, Inc.",W4618 Old Green Lake Rd,Princeton,WI,54968,920-295-2385
Clements Trucking,10750 Madson Road,Woodruff,WI,54568,715-358-2270
Potaczek Trucking,21548 176th St,Cornell,WI,54732,715-288-6687
Rv Trucking,2571 Cty Z,Friendship,WI,53934,608-339-9186
Oak Avenue Trucking,419 Oak Ave So,Onalaska,WI,54650,008-781-6490
Kr Trucking,4852 Sampson Road,Abrams,WI,54101,920-826-2611
R&d Trucking,2 World Packaging Circle,Franlin,WI,53132,414-855-9200
Transit Service,P O Box 255,Oregon,WI,53575,608-770-2583
The Moving Crew,152 W Wisconsin Ave,Milwaukee,WI,53204,414-548-1863
Iron Horse Express,126 Lighthouse Ct,Sheboygan,WI,53081,414-208-0975
Riverview Mobile Home Services,280 N Northern Ave,Bagley,WI,53801,608-996-2702
N E W Transporation Group,6625 Northwest Highway,Waterford,WI,53185,262-534-4252
Jw Hauling,6526 So Co Rd E,Hawthorne,WI,54842,715-374-3383
Manthey Trucking,W5370 Urban Ln,Johnson Creek,WI,53038,414-699-2782
Bennings Frozen Foods,135 Hwy 00,Cochrane,WI,54622,608-248-2790
D & V Transportation,125 N Oak St Po Box 322,Adams,WI,53910,608-339-6709
Paulsrud Trucking,N4404 Oriole Dr,Medford,WI,54451,715-748-6430
Ritchie Trucking,327 Washington Street,Sauk City,WI,53583,608-566-3570
Krumpen Transport,2491 Crest Drive,Lake Geneva,WI,53147,414-249-9890
Maloney Trucking,N 29445 Boberg Lane,Arcadia,WI,54612,608-323-8585
Richland County Express,236 E Haseltine,Richland Center,WI,53581,608-647-4144
All Star Transport,1740 Bonow Ave,Wisconsin Rapids,WI,54495,715-421-5800
Franzen Transportation Systems,401 North Johnson,Dodgeville,WI,53533,608-935-9561
Reynolds Transportation Services,553 Seminole Way,De Forest,WI,53532,608-846-8803
Ben Jam In Truckin,1126 Knapp St,Menomonie,WI,54751,715-235-6922
Leon's Trucking,1382b State Road 48,Luck,WI,54853,715-472-1676
Betker Trucking,188 Apache Lane,Plainfield,WI,54966,715-335-4994
Rick Erdmann Trucking,Rt 1 Box 1440,Crandon,WI,54520,715-478-2779
Jim Goeser Trucking,W9065 Hwy 23,El Dorado,WI,54932,920-898-5925
Industrial Construction & Associates,1718 Layard Ave,Racine,WI,53404,262-884-0661
Rick Von Arx Trucking,2604 Fanta Reed Rd,La Crosse,WI,54603,608-781-1114
City Express,11723 West Van Beck Avenue,Greenfield,WI,53228,414-546-0839
Brad Elness Trucking,7252 S Ibsen Road,Lake Nebagmon,WI,54849,715-374-2335
Wantoch Trucking,W399 Plattes Valley Rd,Fountain City,WI,54629,608-687-6062
Hipsher Trucking,23845 Cty Rf F,Benoit,WI,54816,715-746-2600
Schiffman Moving & Storage,4520 W Lisbon Ave,Milwaukee,WI,53210,414-445-9888
Gtk Service,1348 140th Street,New Richmond,WI,54017,715-246-3434
Ben Trucking,2631 N 33rd Street,Milwaukee,WI,53210,414-444-3607
Walker Express,187 Vincent Circle,Beaver Dam,WI,53916,920-885-3641
Ron's Transportation Service,136 West Grand Avenue Ste 306,Beloit,WI,53511,608-362-9718
D&s Distributing,7575 Hilbert Road,Sobieski,WI,54171,920-822-4380
Ringer Trucking,N544 County G,Sheldon,WI,54766,715-452-5470
Tim Haiden Trucking,Route 1 Box 157,Marengo,WI,54855,715-278-3423
Van Treese Transport,Lot 27 Badersvilla West,New Lisbon,WI,53950,608-547-4833
Fryars Trucking,Box 224,Wabeno,WI,54566,715-473-4841
B & B Moving LLC,W18676 Leonard Rd,Osseo,WI,54758,715-694-2344
Steve Olson Trucking,819 Hwy D,Chetek,WI,54728,715-924-2769
Aurora Casting Services,1099 County Rd B,Aurora,WI,54151,715-589-2604
M&f Trucking,2124 8th Ave,Chetek,WI,54728,715-924-1805
Nu Line Carriers,5613 Beaver Court,Greendale,WI,53129,414-423-0664
Mark Mallek Trucking,163 River Drive,Plover,WI,54467,715-346-0444
Primetime Trucking,W28729 Hawthorne Rd,Hartland,WI,53029,414-617-4427
C&t Trucking Co,2679 154th Ave,Emerald,WI,54012,715-265-7410
Bill Bursten & Sons,W7500 Sylvester Rd,Holmen,WI,54636,608-526-2788
Scott Williamson Trucking,309 Woodlawn Ave,Frederic,WI,54837,715-553-0241
Harelstad Trucking,1861 12 3/4 Ave,Cameron,WI,54822,715-458-4641
D & L Trucking,3515 N 57th Street,Milwaukee,WI,53216,414-442-5380
Joe Gerken Trucking,11931 W Townsend Road,Janesville,WI,53545,608-876-6740
Jeff Schmidt Trucking,Hwy 53 & County F,Coral City,WI,54773,015-538-4087
Hochstetler Logging & Trucking,P O Box 274,Siren,WI,54872,715-349-2926
R W Hardy Trucking,708 South 140th Ave,Fall Creek,WI,54742,715-877-3800
Sunrise Movers,2628 Pomona Dr,Eau Claire,WI,54701,N/A
Flaig Trucking,5059 Hwy M,Junction City,WI,54443,715-435-4200
"Green Valley Disposal Co, Inc.",300 Raemisch Road,Waunakee,WI,53597,608-251-7878
J M P Company,2301 S Memorial Dr,Racine,WI,53403,262-633-7775
J Line Transport,1679 Cty H,Adams,WI,53910,608-339-6055
D & P Express,N6295 Hillcres #13,Pardeeville,WI,53954,608-745-4351
Too Much Fun Trucking,W1911 Eagle Rd,Neshkoro,WI,54960,920-293-8259
Brooks Trucking,5572 Strawberry Lane,Pittsville,WI,54466,715-252-1216
Mirr Transfer,276th 37th Ave,Ripon,WI,54971,920-748-8860
Pullman Trucking,813 Boldt St,Fort Atkinson,WI,53538,920-563-5808
Speedy's Transport,313 Winter Street,Superior,WI,54880,715-394-5266
Valley Auto Sales,N2096 Cth M,La Crosse,WI,54601,608-786-2998
Rogers Express,6630 W Kinnickinnic Rvr Pk,Milwaukee,WI,53219,414-543-5117
Roger W Kubly Trucking,3057 15th St,Monroe,WI,53566,608-325-9766
Chris Johnson Trucking Unlimited,75576 Chippewa Lake Rd,Butternut,WI,54514,715-769-9473
K & K Trucking & Excavating,W966 Cty B,Marinette,WI,54143,715-735-9020
A-1 Lift Truck Trucking,1949 S 53rd St,West Allis,WI,53219,414-384-7331
Jrl Trucking,5307 176th St,Chippewa Falls,WI,54729,715-720-0602
D&l Transport,1826 85th St,Kenosha,WI,53143,414-652-3094
Ken Atkinson Trucking Service,2670 Columbus Rd,Eagle River,WI,54521,715-479-2698
Appleton Auto Wrecking,1130 Wheeler Rd,Appleton,WI,54915,920-733-0979
Lbs Expediting Service,E8539 N Reedsburg Rd,Reedsburg,WI,53959,608-524-4611
Beebe Express,1312 S Grand Ave,Waukesha,WI,53185,414-544-6141
Lincoln Express,1422 S 92nd Street,West Allis,WI,53214,414-259-8958
Gary E Smith Trucking,W1827 Cty K,Durand,WI,54736,715-673-4425
Rindy Trucking,115 West Hill Street,Blanchardville,WI,53516,608-924-1007
G Zais Trucking,312a S Main St,Westfield,WI,53964,608-296-2403
Eds Country Service LLC,10001 County Highway F,Milladore,WI,54454,715-652-2283
Peggy's Trucking,105 Main St,De Pere,WI,54115,800-236-1044
Right Now Trucking,385 1/2 Doty St,Fond Du Lac,WI,54935,920-926-0608
Straight Shot Express,2841 Index Road,Madison,WI,53713,608-276-7913
George Leedle Sales & Service,N474 Armsby Rd,Lake Geneva,WI,53147,414-275-6631
Childs Trucking,12527 Garth Waite Lane,Mount Hope,WI,53816,608-988-4876
De Vooght House And Building Movers,13003 Highway 151,Valders,WI,54245,920-775-9212
Shang Berry Trucking,15590 County Hwy H,Stanley,WI,54768,715-644-2279
Schofield Trucking,894 South Eau Claire Street,Mondovi,WI,54755,715-926-3128
Gorder Bros Trucking,1663 Cottonville Drive,Arkdale,WI,54613,608-564-7175
Shackleton Trucking,27697 20070th Avenue,Holcombe,WI,54745,715-595-6600
Carter Machine Crane Service LLC,1217 12th Ave,Monroe,WI,53566,608-325-4568
Dunns Trucking,Rte 1 Box 44a,Bayfield,WI,54814,715-359-8122
Bumpski Trucking,133 S Mane St Apt#4,Elmwood,WI,54740,715-283-4975
Lee Hahn Transportation,200 Maple Avenue,Clinton,WI,53525,608-676-4117
L W Foth Trucking,W6995 State Road 64,Polar,WI,54418,715-359-8122
Twisted Palms Transfer,1040 River Pl Blvd #3 Blvd,Waukesha,WI,53189,262-510-7427
Bollmeier Transport,S22w35402 Parry Rd,Oconomowoc,WI,53066,262-431-4057
"Cramer Excavating & Hauling, Inc.",W3985 Highway B,Peshtigo,WI,54157,715-582-4025
Manketrucking,N3886 Highway W,Jefferson,WI,53549,920-674-3030
Blechinger Trucking,123 210th Ave,Comstock,WI,54826,715-822-2533
Langdon Trucking,7498 Woodland Estates Rd,Siren,WI,54872,715-349-5069
Ryan Trucking,1010 E Main St,Arcadia,WI,54612,608-323-7878
Larry Babick Trucking,2327 Creek Drive,West Bend,WI,53090,262-338-3358
S & J Trucking,W16969 Tamarack Lane,Wittenberg,WI,54499,715-253-3094
Thomas R Bickel Trucking,2999 Hwy 22,Oconto,WI,54153,920-834-2729
Dlc Trucking,4930 Benley Ct #3,Manitowoc,WI,54220,920-682-0791
Jim Donaldson Trucking,1620 Priddy Street,Bloomer,WI,54724,715-568-5702
Brit Dee Trucking,4227 E Alton Rd,Oak Creek,WI,53154,414-762-0262
Ray Schwanebeck Trucking,8917 Wood Richield Road,Pittsville,WI,54466,715-884-2733
Garlow Trucking,203 N Main Street,Hancock,WI,54943,715-249-5180
Schreiber Mobile Home Transport Sales & Service,P O Box 128,Gresham,WI,54128,715-524-3260
Rick Lisowe Transport,N1749 Lakeshore Drive,Malone,WI,53049,920-849-2238
Woods Trucking,109 Lakecrest,Beaver Dam,WI,53916,920-885-3625
Wisconsin Whey Trucking,N2689 Cty S,Juda,WI,53550,608-934-1400
B & K Trucking,Rr3,Cashton,WI,54619,608-625-2489
Bullfrog Express,3985 Patricia Lane,Richfield,WI,53076,414-644-9995
Chapman Hauling,29772 Co Rd,Danbury,WI,54830,715-259-4553
Suburban Services,11101 W Layton Ave,Greenfield,WI,53228,414-529-2010
Sunnyside Express,N529 Sunnyside Road,Ogema,WI,54459,715-767-5809
Emmert Expedited Freight,102 Revere Drive,Manitowoc,WI,54220,920-686-9250
Gale Jerome Trucking,W1248 Cty U,Bangor,WI,54614,608-486-2041
Grube Logging Transfer,9804 E Middle River Rd,Poplar,WI,54864,715-364-2594
Quartullo Transport Services,21660 W National Ave,New Berlin,WI,53146,414-679-2043
Pastime Trucking,W6907 Cedar Street,Medford,WI,54451,715-748-9554
Blomquist Auto Repair,2002 Ward Ave,Lacrosse,WI,54601,608-788-2190
Terry Schiller Trucking,6605 Polish Road,Pittsville,WI,54466,715-884-2375
Thor Enterprises,165 N Pioneer Road,Fond Du Lac,WI,54937,906-265-9565
Witmer Transport,N14579 Badger Ave,Abbortsford,WI,54405,715-223-4450
"Dci Cheese Company, Inc.",119 S Main St,Mayville,WI,53050,920-387-5740
Tom Giesen Trucking,5682 City Limits Road,Lancaster,WI,53825,608-723-2072
Thomas Trucking,215 Spruce St,Spooner,WI,54801,715-635-7971
Baumann Transport,8760 385th Ave,Burlington,WI,53105,262-877-4776
Olde Tyme Trucking Co,4598 W Rutland Rd,Brooklyn,WI,53521,608-455-1021
Stone Services,4816 Cty T,Chippewa Falls,WI,54729,715-874-6657
Knoll Trucking,1018 John Ave,Superior,WI,54880,715-392-8706
F White Services,412 E Cook St,Portage,WI,53901,608-697-6002
Morshead Trucking,6491 B West Rd,Potosi,WI,53820,608-763-2654
Bryan Bayer Trucking,W5846 Town Hall Rd,Peshtigo,WI,54157,715-582-9064
Spielman Trucking,Po Box 10,Wilson,WI,54027,715-425-6320
Kieler's Custom Hauling,317 S Main St,Cuba City,WI,53807,608-642-3710
R Mac Trucking,1441 S 10th St,Sheboygan,WI,53081,920-459-7024
Feyensa Aavark Pumping Service,W12564 Cty M,Galesville,WI,54630,160-858-2115
Palmer Transit,N4152 Polar Rd,Bryant,WI,54418,715-627-7179
Sugar Camp Trucking,7719 Marquard Rd,Eagle River,WI,54521,715-477-1617
G Menke Trucking,1007 W Main St Apt 214,Watertown,WI,53094,920-923-4230
Keehns Auto,10644 N Wilder Rd,Evansville,WI,53536,608-444-3951
Tom Bangart Trucking,D3356 Bangart Rd,Stratford,WI,54484,715-384-8034
"Young Guns Trucking, Inc.",W 7110 Wolfe Rd,Holmen,WI,54636,715-559-6439
Gorke Bus Service,213 E Center Ave,Dorchester,WI,54425,715-654-1147
Fredrick Bus Service,W6778 Grouse Dr,Endeavor,WI,53930,608-981-2168
Patty J Fendryk LLC,N5408 Riverview Road,Porterfield,WI,54159,715-789-2430
Otter Express,127 East Moore Street,Berlin,WI,54923,920-361-9012
C&l Transportation,2328 N State Road 104,Evansville,WI,53536,608-862-3952
Johns Bus Service,W8351 Taubel Rd,Clintonville,WI,54929,715-823-4033
Bartelt Bus Service,W2703 County Highway M,Medford,WI,54451,N/A
Northend Auto Sales,401 Banks Ave,Superior,WI,54880,715-392-4323
Janis Enterprise,7489 Friendly Drive,Kewaskum,WI,53040,414-338-2297
Inez Transport,Hcr 64 Box 67,Bayfield,WI,54814,715-779-3498
Larry Thurston Trucking,109 S Holmen Dr,Holmen,WI,54636,608-792-6000
Knapp Bus Service,W7706 Oak St,Shiocton,WI,54170,920-986-3977
Chris Noth Trucking,5578 Birch Drive,Plover,WI,54467,715-344-0087
Saf Trucking,W250 S6695 Center Rd,Waukesha,WI,53189,262-662-3061
Daniels Trucking,10300 W Laird Rd,Beloit,WI,53511,608-921-7080
H & A Trucking,3213 Wisconsin St,Racine,WI,53402,262-639-1718
Rmc Transport,N7722 Lake Shore Dr,Rib Lake,WI,54470,715-427-3165
Ridgman Trucking,4960 Highway Z,Dousman,WI,53118,262-495-4175
Scott Cleereman Trucking,Rt 2 Box 1345,Cavour,WI,54511,715-674-4046
Mpg Express,1025 Lochiynridge Rd,Wales,WI,53183,262-968-4421
Kinney Enterprises,N138 Hopkins Rd,Sheldon,WI,54766,715-452-5297
E & R Trucking,608 Cherry Circle N,Hudson,WI,54016,N/A
Larson & Associates,W 4122 Vista Dr,Mauston,WI,53948,608-354-6511
Foster Trucking,N2177 County Road V,Coloma,WI,54930,715-228-3230
Badger Transfer Lines,N8227 N Mckinley Beach,Beaver Dam,WI,53916,414-885-5678
Stadium Wrecher Service,505 Catlin Ave,Superior,WI,54880,715-394-7377
Langer Transfer,General Delivery,Ellsworth,WI,54011,715-273-5154
"W-h Transportation Co, Inc.",10805 Business Hwy 51 South,Rothschild,WI,54474,715-359-7272
Union Transfer And Storage Co,155 E Wilson St,Madison,WI,53703,608-257-2571
Don Bushke Trucking Service,101 Spring Rd,Fox Lake,WI,53933,920-928-3102
Nature's Nook Garden Centers,16980 W National Ave,New Berlin,WI,53151,414-786-7300
Mory Trucking,306 East Mary St,Black Creek,WI,54106,920-984-3676
Meske Trucking,807 Maple Grove,Jefferson,WI,53549,920-674-3065
Palash Beer Distributor,4535 N 92nd St Apt E207,Milwaukee,WI,53225,N/A
M & J Auto Transport,10 Sherman Ter Apt 4,Madison,WI,53704,N/A
Ray Richardson Mail Service,34717 Oak Knoll Rd,Burlington,WI,53105,414-534-2601
Krug's West Side Truck & Bus Service,549 Billings Ave,Medford,WI,54451,715-748-3194
"Tomah Coop Services, Inc.",711 Fair St,Tomah,WI,54660,608-372-2458
"Neesvig's, Inc.",4350 Duraform Ln,Windsor,WI,53598,608-846-1150
Larson Trucking & Transfer,400 Jewett St,Platteville,WI,53818,608-348-3616
"Shedivy's Agri- Service, Inc.",111 Shanghai Ridge Road,Eastman,WI,54626,608-874-4644
Goldberg's Trucking,N5455 Grandwood Drive,Fond Du Lac,WI,54937,904-797-6642
Auto Glass Specialists,5225 Verona Rd Bldg 3,Fitchburg,WI,53711,608-216-7002
Schmidt Moving & Storage Co,7528 N Teutonia,Milwaukee,WI,53209,414-351-9000
Auto Truck & Industrial Warehouse,2153 S Hastings Way Box 753,Eau Claire,WI,54701,715-834-7278
Dc Trucking,542 Wauwatosa Rd,Cedarburg,WI,53102,262-377-2909
Swanson Heavy Moving,2400 Hauser St,La Crosse,WI,54603,608-781-0377
Bollinger Trucking,2524 Wesley Ave,Janesville,WI,53545,715-878-4226
Potter Sales And Service,1117 S Adams St,New Lisbon,WI,53950,608-847-5884
Sell Even Building Products,927 S Grider St,Appleton,WI,54914,920-738-4242
Carlson Fuel & Trucking Co,617 Catlin Ave,Superior,WI,54880,715-394-9413
Son Auto Co,235 Hwy 63a,Clear Lake,WI,54005,715-263-2295
Donovans Livestock Trucking,525 Logan Road,Hazel Green,WI,53811,608-748-4225
Johnson Livestock Trucking,610 N Johnson Road,Bruce,WI,54819,715-868-2920
Siren Feed & Supply,Route 2,Frederic,WI,54837,715-349-5126
James Taylor Trucking,3718 Gass Lake Rd,Manitowoc,WI,54220,414-758-2274
Block Transfer,2008 7th St,Monroe,WI,53566,608-325-7294
Lipska Trucking,6854 Moundview Road,Platteville,WI,53818,608-348-8308
Silver Lake Store,1144 1/4 Avenue,Cumberland,WI,54829,715-822-2503
Funk's Trucking Excavating & Bulldozing,W6692 State Road 35,Bay City,WI,54723,715-594-3520
Kelly Irish Motor Service,2121 Harold St,Green Bay,WI,54302,414-391-0271
Collins Refrigerated Trucking,5438 Hwy 26 North,Janesville,WI,53545,608-882-4453
J & J Trucking,W680 Deerview Rd,Brillion,WI,54110,920-756-3225
Phil Landphier Trucking,5496 S Bird St,Sun Prairie,WI,53590,608-837-9471
Jim Ritter Trucking,N13545 West Prairie Road,Trempealeau,WI,54661,608-534-6140
Mccoy Mail Service,Rt 2 Box 109,Richland Center,WI,53581,608-585-4655
Dick`s Feed Service,Box A Railroad St,South Wayne,WI,53587,608-439-5426
E D F Trucking,10469 Hwy B,Amherst,WI,54406,715-824-2150
Gapinski Trucking,W367s4765 State Road 67,Dousman,WI,53118,414-965-5774
R B Trucking,W156 N11385 Pilgrim Road,Germantown,WI,53022,262-253-1707
Steven Kell Transport,2810 E Wausau Ave,Wausau,WI,54403,715-842-9998
C & C Marketing,2532 E Bottsford Ave,St Francis,WI,53235,414-769-8087
G E P Enterprises,2401 South 133rd Street,New Berlin,WI,53151,262-782-3421
Chittamo Truck Lines,2410 Huggitt Ave,Superior,WI,54801,715-466-2555
G & J Automotive Services,2278 Highway 69 South,Verona,WI,53593,608-845-9513
Jacobson Trucking,2856 Vinburn Road,Sun Prairie,WI,53590,608-837-5497
A & L Transit,N53 W23774 Ervin Place,Sussex,WI,53089,414-246-3587
Jains Trucking Service,Route 1 4100 Lasalle St,Eau Claire,WI,54703,715-835-9190
Burkart Trucking,3418 Delahaut Street,Green Bay,WI,54301,920-337-6335
Deuel Trucking,312 Valley View Dr,Wautoma,WI,54982,414-566-4534
Miller Trucking Company,W3755 St Hwy 64,Merrill,WI,54452,715-536-7119
Rouse Trucking,7466 West State Road 81,Beloit,WI,53511,608-363-8558
Wisconsin Expedite Freight Carrier,9565 South 20th Street,Oak Creek,WI,53154,414-761-1989
Russ Kell Transport,3930 Alpine Road,Marathon,WI,54448,715-443-9938
Artie L Hamm Trucking,E1076 Nottleson Rd,Scandinavia,WI,54977,715-467-2251
Konitzer Trucking,5366 Golden Corners Rd,Oconto Falls,WI,54154,414-846-2964
Charliies Charter Service,1956 Woolever Ct,Oregon,WI,53575,608-873-9172
Anco Trucking,W611 Center Rd,Dorchester,WI,54425,715-654-5515
Badgerland Movers,1107 W Avalon Rd,Janesville,WI,53545,608-752-0710
Rjs Mobile Modular Transports,W5445 Cty Hwy F #39,La Crosse,WI,54601,608-788-6392
Joe Larson Trucking,1718 19th Ave,Bloomer,WI,54724,715-568-1640
K L Trucking,1817 19th Avenue,Rice Lake,WI,54868,715-234-1647
Horvat Transportation,W 7098 Twenty-six Road,Greenwood,WI,54437,715-252-8280
Thornton Custom Farming,150 Poeden Pl,Mondovi,WI,54755,651-764-0321
Timmerman Trucking,3573 West Lane,Cuba City,WI,53807,608-568-7940
"Comdata, Inc.",2122 Luann Ln Ste 108,Madison,WI,53713,608-238-7311
D W Demler Trucking,16370 W Small Rd,New Berlin,WI,53151,414-422-1159
Debner Transport,N2671 Log Cabin Road,Chetek,WI,54728,715-353-2715
Kohlmann Transfer,Rt 1 Box 222 Hwy T,Saint Cloud,WI,53079,414-922-6067
Johnson Trucking,219 Boyle Circle,Delavan,WI,53115,414-728-9286
Door County Express,5720 Carlsville Rd,Sturgeon Bay,WI,54235,414-743-1209
Menzel Crane & Transport,12501 N Island Drive ,Mequon,WI,53092-2615,262-613-2527
R & R Transport,N7498 Menomonee River Dr,Porterfield,WI,54159,715-732-0066
O'keefe Trucking,4631 Evergreen Ave,Wisc Rapids,WI,54494,715-325-3644
Pias Service Company,W243s8220 Evergreen Drive,Big Bend,WI,53103,262-662-1189
Kenosha Truck And Equipment,3610 120th Ave,Kenosha,WI,53142,414-552-9244
Kortbein Trucking,960 Mac Arthur Trail,Wabeno,WI,54566,715-473-4494
Rockdale Services,6308 E Rockdale Road,South Range,WI,54874,715-399-8835
Henning Trucking,6774 W Us Hwy 2,Hurley,WI,54534,715-561-5013
Plzak Truck Service,2604 Klondike Rd,Green Bay,WI,54308,414-469-1476
Kriescher Trucking,2035 Hilltop Dr,Green Bay,WI,54313,414-499-5046
General Trucking,18253 Cty Hwy Gg,Bloomer,WI,54724,715-879-4620
Milton Sedlacek Trucking,14682 County K,Cadott,WI,54727,715-382-4576
Mcgee Trucking,Route 2 Box 2,Turtle Lake,WI,54889,715-986-4330
Bodendorfer Trucking,S 2744 Eagle Rd,Marshfield,WI,54449,715-384-2779
Brothers Trucking,56130 Ondrik Road,Mason,WI,54856,715-765-4587
"A Cisneros, Inc.",Po Box 320702,Franklin,WI,53132,414-304-0953
Mccarthy Trucking,7130 State Hwy 19,Waunakee,WI,53597,414-662-2068
Murphy Auto & Truck,1824 Old Hwy Rd,Hazel Green,WI,53811,608-568-7603
Steinhaus Casket,21231 8 Mile Rd,Muskego,WI,53150,414-529-9420
Gruenewald Trucking,1745 Chateau Drive,Green Bay,WI,54304,414-497-0888
R & B Enterprises,W226 S9455 Big Bend Dr,Big Bend,WI,53103,262-662-0730
J Nordrum Trucking,3902 East 3rd St,Superior,WI,54880,715-398-7344
Lorenz Tire Service,1023 Townline Road,Tomah,WI,54660,608-372-9543
Jimmy Z Express,276 Palace Street,Hatley,WI,54440,715-454-7095
Warner Trucking,P O Box 1146,Hayward,WI,54043,N/A
Olson Trucking,W2209 Grady Rd,Fall River,WI,53932,920-484-3737
J H Fischer Transfer,5181 Mccarthy Rd,Lena,WI,54139,920-834-4499
Paper Transport Of Denmark,17914 Kvitek Rd,Denmark,WI,54208,920-497-6222
Les Lindstrom Sod Service,1353 State Street,Houlton,WI,54082,715-549-6318
Krueger Transport,718 Farnsworth Ave,Oconto,WI,54153,920-835-1227
J M Trucking,5301 Old So-white Road,Plover,WI,54467,715-341-1453
Cb Mobile Truck Wash,1201 N 3rd Street,Superior,WI,54880,715-392-1635
Bartelt Trucking,14955 Pershing Dr,Brookfield,WI,53003,414-783-6062
Bayer Bus Service,W3530 Hwy 41,Peshtigo,WI,54157,715-582-3524
Richard Bahr Trucking,Rt 3 Box 96,Markesan,WI,53946,414-398-2707
Bennetts Trucking,Rt 2,Luck,WI,54853,715-857-5796
Ace Van Service,1719 140th St,New Richmond,WI,54017,715-246-5794
J & H Trucking,Rt 1 Box 60,Genoa,WI,54632,608-689-2198
Oakridge Trucking,5042 Shady Lane,Trego,WI,54888,715-635-2671
Mckays Blacktop & Services,423 Winter,Superior,WI,54880,715-394-5818
Jeff Moore Trucking,Rt 2,Shell Lake,WI,54871,715-468-7332
First Class Coach Service,631 West Briar Lane Apt 103,Green Bay,WI,54301,414-337-9634
C W Lavasseur Trucking,47581 State Hwy 112,Ashland,WI,54806,715-682-3137
Hahne Trucking,N3489 County Rd J,Poynette,WI,53955,608-635-2388
Richwood Transportation,8589 Cty B,Lena,WI,54139,920-829-5672
R L B Transportation,2182 Carstensen Lane #114,Green Bay,WI,54304,414-863-8536
Boelter Transit,40 N Main St,Markesan,WI,53946,920-398-1039
Kenneth Anderson Trucking,2536 County Hwy N,Colfax,WI,54730,715-962-3254
Veolia Environmental Services,125 S 84th Street Suite 200,Milwaukee,WI,53214,414-479-7800
Hillendale Distributing,W 5859 O'nelson Road,Holmen,WI,54636,608-526-9027
La Crosse Premium Water,2967 Airport Rd,La Crosse,WI,54602,606-781-5401
Hildebrandt Trucking,1417 County Road S,Manitowoc,WI,54220,414-775-4231
Erickson Distributing,W702 Iowa Rd,Hartford,WI,53027,414-629-9797
Prairie Truck & Auto Sales,1617 W Main St,Sun Prairie,WI,53590,608-837-8828
Parkview Auto Sales,1641 Ft Howard Ave,De Pere,WI,54115,920-621-3074
Advanced Auto,2501 University Ave,Green Bay,WI,54302,920-465-8905
Happel Trucking & Logging,W5694 Baker Rd,Holmen,WI,54636,608-857-3526
Midway Standard Service,917 Harris St,Eau Claire,WI,54701,715-834-9233
2196708664,5939 S Honey Creek Dr,Greenfield,WI,53221,219-670-8664
Conner Trucking Co,836 4th Ave N,Onalaska,WI,54650,608-783-4714
Heidtke Trucking Service,236 E Tyrena Park Rd # E,Lake Mills,WI,53551,920-648-5143
John's Farm And Home,441 W Estey Street,Shullsburg,WI,53586,608-965-8913
G&g Service,4073 Hubertus Rd,Hubertus,WI,53033,262-628-1716
Meyer Distributors,622 S 8th St & Hall St,Cornell,WI,54732,715-239-6239
Arrowhead Boom And Crane Service,83280 Quarry Road,Port Wing,WI,54865,715-774-3609
Pardun Trucking,5331 Autin Lake Rd,Webster,WI,54893,715-866-8297
Classic Limo And Bus Transport Services,E10652 Terrytown Rd,Baraboo,WI,53913,608-356-7595
Rons Auto Clinic,6915 30th Ave,Kenosha,WI,53142,414-658-8383
Joiners Transport,817 Central Ave,Beloit,WI,53511,N/A
Son Shine Express,N6328 830th St,Elk Mound,WI,54739,715-879-5442
Rays Trucking,Route 1 Box 580,Green Lake,WI,54941,414-294-3262
Southern Cross Express,1250 Indiana St,Racine,WI,53405,262-632-9781
Halvorsen Farms,N3101 County M,Monroe,WI,53566,608-996-1059
Donaway Trucking,1012 Menasha Street,New London,WI,54961,920-982-4326
Wiza Trucking,143 W Main St,Hixton,WI,54635,715-963-3030
Jeff Rothbauer Trucking Co,Rt 5 Box 294,Chippewa Falls,WI,54729,715-288-6385
A Bear Moving & Storage,750 Chaplin Ct,Plymouth,WI,53073,414-892-6671
Hdl Moving & Storage,W4191 State Hwy 11,Elkhorn,WI,53121,262-723-5774
Davis Trucking,Route 1 Box 66,Bloomer,WI,54724,715-568-2619
Moonlighter Express,12924 37th Ave,Chippewa Falls,WI,54729,715-726-2060
Winder's Transit,N 9426 20th Ave,Necedah,WI,54646,608-565-3492
Stones Crane Service,16300 15th Ave,Chippewa Falls,WI,54729,715-723-2078
Skop Trucking Co,H 12711 County Road J,Wausau,WI,54403,715-845-7877
Woodworth Garage,8230 160th Ave,Woodworth,WI,53194,262-857-2653
Menor Trucking,North 11875 Hwy 141,Wausaukee,WI,54177,N/A
Michael E Kane Trucking,905 Main St,De Pere,WI,54115,920-339-0572
Ken Reilley Trucking,W 12671 Chicago Ave,Hancock,WI,54943,715-228-3831
S&s Xpress,W7755 Wears Rd,Catawba,WI,54515,715-474-6796
G E T Trucking,5218 Us Hwy 70,Webster,WI,54893,715-349-5003
Elma Truck Co,S 3107 Hwy 136,Reedsburg,WI,53959,608-524-6642
"Chick's Custom Haulers, Inc.",3220 Drier Rd,Eau Claire,WI,54701,715-834-1200
Schmitt Transport,720 E South St,Beaver Dam,WI,53916,920-887-1171
R & T Trucking,522 16th Ave W,Ashland,WI,54806,715-682-5120
Fred's Hauling &,1699 Golf Bridge Dr # 4,Neenah,WI,54956,920-716-0219
Ed Carlsen Trucking Co,W2888 Loveland Rd,Elkhorn,WI,53121,414-723-6798
Snowbird Carriers,P O Box 131,Mauston,WI,53948,608-847-6625
James Jeske Trucking,2990 Beth Dr,Green Bay,WI,54311,414-468-3461
Gieseke Trucking,19300-116th Street,Bristol,WI,53104,262-857-7266
G L B Transport,3202 Debra Lane,Racine,WI,53403,414-637-9326
Green County Trucking,615 Terrace Court,Monticello,WI,53570,608-938-1281
"R-d Trucking, Inc.",W-2205 Hwy 64,Marinette,WI,54143,715-732-9266
3m Mobile Homes Service,W4448 Port Arthur Rd,Ladysmith,WI,54848,715-532-6409
Edwin Hubbell Jr Trucking,Lincoln St,Spooner,WI,54801,715-349-7409
Thomas Transport,234 Gillett St,Fond Du Lac,WI,54935,920-923-4675
Werner Dairy Express,860 W Main Street,Twin Lakes,WI,53181,262-613-6000
Molzahn Auto Transport,1010 S 13th St,La Crosse,WI,54601,608-782-8659
Mckinney Trucking,2047 220th Ave,Luck,WI,54853,715-825-4438
Kenneth J Burtard Service,W3881 Oak Road,Owen,WI,54460,920-251-2726
Martinson's Auto Sales,5103 32nd Ave,Kenosha,WI,53144,414-654-3812
J R 's Transfer,411 St Lawrence Ave,Beloit,WI,53511,608-365-6942
Waynes Septic Tank Sewer & Drain Service,2248 Old Hwy 69,Florence,WI,54121,715-696-3302
Leo Wondrash Trucking,W2250 Amie Drive,Brownsville,WI,53006,920-583-4633
Sommerfeld Trucking,3514 65th St,Frederic,WI,54837,715-653-2601
Pellinen Trucking,8533 W Us Hwy 2,Saxon,WI,54559,715-893-2470
"Dave & Jamie Leinon Trucking, Inc.",6914 Jackson St,Iron Belt,WI,54536,715-561-2739
Bob Crawford Trucking,P O Box 715,Marinette,WI,54143,414-485-8535
Dresel's Service Center,346 E Park Avenue,Chippewa Falls,WI,54729,715-723-7109
"Dp Trucking, Inc.",W194 N11095 Kleinmann Dr,Germantown,WI,53022,N/A
R K Transport,9730 B Granville Rd,Mequon,WI,53097,772-713-6695
Schmitt Livestock Transfer,1280 Plainview Drive Apt11,Plain,WI,53577,608-546-2524
Paperland Auto Transport,223 Meadow Grove Blvd,Appleton,WI,54915,041-430-0280
Sk Trucking,1645 200th St,New Richmond,WI,54017,715-246-2025
Storchs Trucking Service,709 W Center,Dorchester,WI,54425,715-654-5209
Adrian Trucking,Rt 1,Prairie Du Chien,WI,53821,608-326-4809
Jess Edinger Trucking,W10999 Pine Rd,Kennan,WI,54537,715-474-2443
K & K Trucking,1303 178th Ave,Bloomer,WI,54724,715-568-1603
Richard's Trucking,281 Mallard Ln,Madison,WI,53704,608-244-1778
R & D Bus Transport LLC,12391 Cty D,Grantsburg,WI,54840,715-463-5474
"M D C Delivery, Inc.",1632 Livingston Rd,Hudson,WI,54016,651-451-1943
Hayward Transfer,Rr 10 Box 248a,Hayward,WI,54843,N/A
Baneck Transport,N1719 Cree Ave,Wautoma,WI,54982,920-787-7310
Earl Hale Trucking,Classic Lane 5366,Platteville,WI,53818,608-348-4099
East Side Trucking,4641 Cty M,Evansville,WI,53536,608-882-5565
C M Trucking,N1 W25810 Northview Rd,Waukesha,WI,53188,414-544-5067
Equine Attire And Express,W3495 Springfield Rd,Lake Geneva,WI,53147,414-248-0131
Rose Of Sharon Trucking,8501 Pike Lake Rd,Eland,WI,54427,715-454-6671
Robert E Lee Trucking,318 S Front St,Coloma,WI,54930,715-228-5411
Cherek Transport Services,399 S Highland Ave,Elderon,WI,54429,715-454-7100
Remrey Trucking,904 Fountain St,Mineral Point,WI,53565,608-987-3963
Wisconsin Armored Transport,625-57th Street Suite 600,Kenosha,WI,53140,414-658-9322
Kevin B Kent Trucking,2227 Hwy 45 N,Eagle River,WI,54521,715-479-6125
Barbian Mail Service,345 Woodlawn Ave,Burlington,WI,53105,N/A
Np Automotive,3540 S 46th St,Greenfield,WI,53220,414-327-1897
Joseph Hursh,4636 South 22 Road,South Range,WI,54874,715-364-2745
Charles William Bresina,13902 40th Ave,Chippewa Falls,WI,54729,715-723-9424
"Aardvark Express, LLC",7541 Carter Circle South,Franklin,WI,53132,414-759-6887
Sapphire Transport LLC,12919 Thomas St,Osseo,WI,54758,715-597-2179
"Sam Transportation, Inc.",Po Box 320702,Franklin,WI,53132,414-304-0953
Guardian Transport LLC,S3418 Burnamwood Street,Reedsburg,WI,53959,608-963-1004
Dennis Nelson Trucking,30 320th St,Spring Valley,WI,54767,715-864-9375
C E LLC,N781 Clark Rd,Browntown,WI,53522,608-966-1255
C B Olson Transport,W15931 N Levis Road,Osseo,WI,54758,715-597-2798
"Blue Diamond Express, Inc.",Po Box 320702,Franklin,WI,53132,414-304-0953
Vern's Auto Transport,164 Garfield Ave,Clintonville,WI,54929,920-639-5880
Goin Broke Trucking LLC,221 Elm Street,Slinger,WI,53086,262-483-8317
Bus 2 Move LLC,1071 40th Avenue,Amery,WI,54001,715-268-7824
Spring Creek Cattle Co,2003 23rd Street,Rice Lake,WI,54868,715-236-7998
Bond Trucking,7419 W Burleigh St,Milwaukee,WI,53210,414-897-7761
Reliable Transport,5903 N 79st,Milwaukee,WI,53218,414-419-1224
Cutsforth Construction,1959 28th Ave,Rice Lake,WI,54868,715-236-7562
Gargar Towing,8878h N 95th Street,Milwaukee,WI,53224,414-837-9847
Hyke Transit,310 W Tarr Rd,New Auburn,WI,54757,715-379-4222
Bn Services,W192s6346 Regency Court Unit D,Muskego,WI,53150,262-327-6800
Jazzy Auto,1008 W Greenfield Ave,Miluakee,WI,53214,414-803-8026
Plunkett Family Farm,1590 S Windy Lane,Maple,WI,54854,715-364-2419
Halama Farms,N40457 Cty Rd E,Independance,WI,54747,715-985-3909
M & N Enterprises,863 Shoni Bottom Road,Montfort,WI,53569,608-943-9418
Gideon Trucking,2755 N 59th Street,Milwaukee,WI,53210,414-628-9030
Coyote Creek Cattle Co,E9837 Hwy W,North Freedom,WI,53951,262-949-4264
Sundancin Enterprises,7312 Karen Ln,Sobieski,WI,54171,920-737-8811
Statewide Paving,6843 Joles Rd,Arena,WI,53503,309-857-1569
Unique Appeal,412 Manley Ln,Cottage Grove,WI,53527,608-291-2045
Scott Johnson Trucking,4701 E 2nd St,Superior,WI,54880,715-398-3386
Racing,W7776 Katie Ln,Phillips,WI,54555,715-339-7142
Yada Express,5426 Katie Lane,Madison,WI,53704,608-695-3269
Bf Trasportation,1481 W Redwing Ln Apt G13,Oakcreek,WI,53154,414-243-2286
Milwaukee's Asian Market,6300 N 76 St,Milwaukee,WI,53218,414-760-3771
Jp Enterprises,6554 East County Road C,South Range,WI,54874,715-399-0556
Rolling Hills Landscaping Service LLC,W331s626 Erin Way,Delafield,WI,53018,262-646-4021
Valley Pools & Spas Of Hudson,1500 Crestview Drive,Hudson,WI,54016,715-381-0111
"Ktf Transport, Inc.",7501 N Teutonia Ave Apt 1,Milwaukee,WI,53209,414-527-1533
Ta Computer Solutions,329 Grand Ave,Superior,WI,54880,715-392-8101
Advanced Restoration,1751 30th Ave,Rice Lake,WI,54868,715-234-1822
Trinity Transport,W 5544 Sagert Rd,Winter,WI,54896,702-340-4737
Schultz Trucking,2343 20 1/2 St,Rice Lake,WI,54868,715-205-0370
Mcknight Bus Co Or Mcknight Transportation,808 Mound,Baraboo,WI,53913,608-617-8987
Foley Transport,1021 S 21st Avenue,Wisconsin Rapids,WI,54495,715-570-0269
Autumn Creek Nursery & Landscape Supply,1263 105th Avenue,Amery,WI,54001,715-268-6118
Cybros The Healthy Bake House,417 Barney Street,Waukesah,WI,53187,262-547-1821
Geraets Farms,W432 Cty Rd Pp,Elmwood,WI,54740,715-639-9254
Pauls Used Appliance,N1435 810th Street,Hager City,WI,54014,651-380-0684
Cnb Company,224 Haglin Avenue,Cameron,WI,54822,715-458-0168
M M San Juan LLC,306 West Main St,Arcadia,WI,54612,608-323-3832
"Foxwalk Log & Timber Builders, Inc.",E2107 570th Ave,Menomonie,WI,54751,715-231-5647
Darin Smugala Logging,N6372 Hwy 111,Catawba,WI,54515,715-820-0180
Olesiak Trucking,N5774 Dearhamer Road,Bruce,WI,54819,715-790-6124
Diamond Woodworks,6200 W Donges Bay Rd,Mequon,WI,53092,262-242-6400
Sears Of Antigo,445 Hwy 64,Antigo,WI,54409,715-627-4407
Jordan Industrial Lumber Company LLC,2921 Kennedy Road,Janesville,WI,53545,608-314-1700
Servicio De Grua,1531 S 29th St,Milwaukee,WI,53204,414-305-0571
Clapper Family Farm,722 Center Street,Lake Geneva,WI,53147,262-248-0103
Mb Skidsteer Services,W4525 Maple Ridge Road,Mondovi,WI,54755,715-579-0887
Aqua Pro,7700 Sheridan Rd,Kenosha,WI,53143,262-620-6779
Chestnut Hill Farm,W389n8640 Pennsylvania St,Oconomowoc,WI,53066,262-488-8286
Cr Transporting,205 Smith Circle,River Falls,WI,54022,715-629-7258
Mark Toyota,1765 Park Ave,Plover,WI,54467,715-342-5040
Diversified Truck Services,W224 S8515 Industrial Ave,Big Bend,WI,53103,262-662-9651
Stratton's Custom Sawmilling,N12302 170th St,Boyceville,WI,54725,715-643-7222
Dells Cab Company,911 Gillette Lane,Dells,WI,53965,160-825-3772
Clayton Towing,354 Tompkins St,Fond Du Lac,WI,54935,843-864-0813
Main Line Haulers,749 Hemphill Ave,Edgerton,WI,53534,608-884-9521
Northland Logging,11984 E Us Hwy 2,Maple,WI,54854,715-363-2553
Tnt Trucking,1710 S Beaumont Ave,Kansasville,WI,53139,262-206-2283
J & J Fireworks,N9560 Highway 92,Belleville,WI,53508,608-217-9137
Garcia's Tow Service,5616 W National Ave,West Allis,WI,53214,414-453-4999
Mdr,3454 E Layton Ave Ste 5,Cudahy,WI,53110,414-762-2568
Ludtke Acres,N10952 County Road Q,Downing,WI,54734,715-928-2833
Dba Deere Country Acres,W19890 Manka Stuve Ln,Whitehall,WI,54773,715-538-2381
Ideal Trucking,4404 Ideal Rd,Fennimore,WI,53809,608-778-3187
Scottys Fast Freight,1606 - 20th St,Two Rivers,WI,54241,920-901-2811
Dancing Oak Farm,592 7 1/2 Street,Prairie Farm,WI,54762,715-455-1757
Square Seal Dairy Systems LLC,3594 Cty Hwy A,Bloomer,WI,54724,715-568-4229
Victor Carfor Repair,1543 S 29th St,Milwaukee,WI,53215,414-460-4836
A & M Charters,1293 Home Avenue,Menasha,WI,54952,920-722-2951
Helland Hauling,3169 Kilbourne Ave,Eau Claire,WI,54703,715-839-7397
Tai Transport,1228 Michigan Avenue,South Milwaukee,WI,53172,414-301-9034
The Lords Way Trucking LLC Ceo,1140 Harrison St,Kaukauna,WI,54130,920-636-8433
Personal,N3631 Bluffview Trail,Poynette,WI,53955,608-635-7716
Pmr,11808 Gresham Rd,Woodrfuff,WI,54568,715-385-3208
Chu-ean Construction,W365 S8267 Hwy 67,Eagle,WI,53119,414-531-4954
All Pro Maintenance,1884 Pioneer Rd,Cedarburg,WI,53012,262-377-7778
Arbes Express,W1178 Jahn Road,Alma,WI,54610,507-458-3661
Collision Clinic Ltd,W7477 State Road 21 & 73,Wautoma,WI,54982,920-787-7432
Nabar Sealcoating,604 E Dells Rd,Silver Lake,WI,53170,847-223-6396
Ol Guy Relocators,312 South Andrews Ave,Greenwood,WI,54437,608-780-8872
Formiller Farms,W 3407 Highway E,Berlin,WI,54923,920-229-2693
Stateline Pumping,W8178 Stateline Rd,Sharon,WI,53585,608-295-5907
Sterzing Wood Products,W 7990 Cty Road X,Middle Inlet,WI,54114,715-854-2873
Rides With Respect,775 Wisconsin Street,Fennimore,WI,53809,608-778-1060
Economy Buildings,N2687 Raymond Dr,Lodi,WI,53555,608-592-7533
T & D Trucking,N1701 15th Ave,Wautoma,WI,54982,920-765-0281
"Gt Trucking, Inc.",116 Madison Ave,Niagara,WI,54151,715-251-1930
Market & Restaurant,1464 University Ave,Green Bay,WI,54302,920-430-1013
Smokeys Distributing LLC,1370 S Bobolink Dr,Brookfield,WI,53005,414-399-7964
All Phase Electric&control LLC,28057 Center Drive Road,Cuba City,WI,53807,608-348-3439
Ots,7503 Feith Ave,Weston,WI,54476,715-359-8122
Heritage Acres,N2645 10th Rd,Montello,WI,53949,608-297-7856
Enhanced Transportation,13079 40th Ave,Chippewa Falls,WI,54729,715-523-0532
Badger Short Bus Brigade,405 N Frances St Apt H,Madison,WI,53703,608-556-5335
Hubs Distribution,210 Church St,Theresa,WI,53091,920-276-2022
John Paul Ii Academy,12146 120th Ave,Chippewa Falls,WI,54729,715-288-5968
Ems-usa Insulated Doors,311 East Monroe,Cuba City,WI,53807,608-744-3145
Hms,209 Limestone Pass,Cottage Grove,WI,53527,608-839-9050
"C A B Underground Services, Inc.",N40 W26638 Overhill Lm,Pewaukee,WI,53072,262-361-2518
Micoley Trucking,351 Falcon Dr,Pulaski,WI,54162,920-265-4390
Shadow Hills Transportation,4952 N 25th Street,Milwaukee,WI,53209,414-687-6002
Wismont Farm,6602 N Vickerman Rd,Milton,WI,53561,802-343-9265
Wild Rose Dairy LLC,N9593 Sidney Ave,Greenwood,WI,54437,715-937-5330
Top Tier Transport And Logistics Company,5025 West Custer Avenue,Milwaukee,WI,53218,414-630-8860
Sleepy Hollow Trucking,7405 Sleepy Hollow Road,West Bend,WI,53090,262-306-2953
Schueller Transport LLC,S 606 Tanner Dr,Marshfield,WI,54449,715-387-3504
Galaxie Skate Center LLC,1215 E Haseltine Street,Richland Center,WI,53581,608-647-4515
V & A Storage,800 Eleventh Ave,Baldwin,WI,54002,715-684-4333
Slims Transport,6285 Cty A West,Lena,WI,54139,920-599-0291
Ym Transport,1236 Racine Street,Delavan,WI,53115,262-581-3137
Mtc,W7908 Lake Rd,Medford,WI,54451,715-977-2482
Max,209 Limestone Pass,Cottage Grove,WI,53527,608-839-9050
Mark's Heating And Cooling,280 13 1/2-14th Av,Turtle Lake,WI,54889,715-986-2710
Trout Brook Electric,1216 Trout Brook Road North,Hudson,WI,54016,715-410-1163
Harder Built,313 Hewett St,Neillsville,WI,54456,715-743-2428
Reed Trucking,6717 S Boice Creek Rd,Lancaster,WI,53813,608-778-4118
Frenchman Express,736 Westhaven Rd.,Chippewa Falls,WI,54729,715-861-3343
Supreme Allied Trucking,N8503 Sunset Beach Rd,Beaver Dam,WI,53916,414-292-9319
Greg Miller Trucking,6102 Jacquelyn Drive,Lancaster,WI,53813,608-778-8785
"Lz Transport, Inc.",2264 Pine Dr,Frendship,WI,53934,630-852-6352
Ddt,E502 State Rd 54,Waupaca,WI,54981,417-531-3523
Martin Schommer,556 11th St,Prarie Farm,WI,54762,612-655-3412
New Pterodactyl Leather,2120 200th Ave,Centuria,WI,54824,715-646-9333
Martin Trucking,3873 N 18th St,Milwaukee,WI,53206,414-444-1444
Spahr Shipping,7225 Hammarstrom Rd,Sturgeon Bay,WI,54235,920-217-5648
Gp Trucking,444 28th St,New Auburn,WI,54757,715-642-1432
D Jerome,18338 Icebox Rd,Sparta,WI,54656,608-269-0947
Schley Exteriors LLC,646 County Road E,Hudson,WI,54016,715-220-6833
Nordic Quarry Services,500 N Spring Street,Port Washington,WI,53074,414-940-8982
Demolition Logging Recycling,13405 Hwy 61 North,Fennimore,WI,53809,608-732-6740
Kaiser Farms,1558 Louisburg Rd,Cuba City,WI,53807,608-744-7356
Pbs,209 Limestone Pass,Cottage Grove,WI,53527,608-839-9050
Wholesale & Retail Beer And Liquor,919 N Barstow St,Waukesha,WI,53186,414-545-2175
Richardson Trucking,153 Barber St,Stanley,WI,54768,920-471-7961
Wolf Trucking,1002 Oregon Str,Racine,WI,53405,262-619-4007
Corning Trucking,W2572 Greenbush Rd,Juda,WI,53550,608-214-5662
Kusilek Properties LLC,W10175 690th Ave,River Falls,WI,54022,715-425-5069
Wiltzius Trucking,1614 S 14th Street,Sheboygan,WI,53081,770-205-0218
Claire's Insulation Service,419 Brazeau Ave,Oconto,WI,54153,920-834-2003
Jewett Appliance Repair,W3334 Hwy 180,Wausaukee,WI,54177,715-923-2409
Abelene Building Remodeling Co,442 Red Brick Rd,Hudson,WI,54016,651-261-7457
Drc Trucking,1501 E Nebraska St,Muscoda,WI,53573,608-215-7585
Sailing Tools,28836 Wild Root Lane,Lone Rock,WI,53556,608-604-3684
Wm R Sebero,W3775 County X,Wausaukee,WI,54177,715-732-2062
Wilcox Recycling,604 Joes Lane,Platteville,WI,53818,608-348-9176
Interstate Towing Service,11809 Burlington Rd,Kenosha,WI,53144,414-652-0011
D & L Towing,56 E 5th,Superior,WI,54880,715-394-9298
Smith Oil Co,701 Broadway,Baraboo,WI,53913,608-356-5375
Dawn Marie Enterprises,2478 18th Avenue,Friendship,WI,53934,608-293-1485
Mitierra Food Market,1333 Cedar St,Green Bay,WI,54302,920-435-6179
"Schaetzl Oil, Inc.",425 Mueller,Athens,WI,54411,715-257-7588
Ah Fiddle Stix Xpress,1971 16 1/2 Avenue,Cameron,WI,54822,715-736-1161
Crosby Towing & Recovery,91 W Deere Rd,Elkhorn,WI,53121,262-723-6263
Ernie's Auto Body,15995 W Nursery Rd,Hayward,WI,54843,715-634-3904
Nelson Forestry,1718 Cty Hwy H,Stanley,WI,54768,715-644-5576
Geterdone Towin,8412 124th,Franksville,WI,53126,414-731-2424
D & D Enterprise,1150 Florence,Baldwin,WI,54002,651-592-8574
Phil Fuenger,137 Marble Ave,Cashton,WI,54619,562-716-3890
Logistics On Demand,N77 W31144 Hartman Ct Unit F,Hartland,WI,53029,262-424-0803
Aaa Cartage,1777 120th Ave,St Croix Falls,WI,54024,715-483-9671
The Brathol Co LLC,S66w27885 River Road,Waukesha,WI,53189,262-549-0969
Banker Transport,309 Filard Ct,Mineral Point,WI,53565,608-574-4887
Nelson Forestry,N2104 County Highway H,Stanley,WI,54768,715-644-0440
B & B Transport,5800 Cnty Hwy Ms,Elk Mound,WI,54739,715-874-5526
President,Melz Road,Glidden,WI,54527,715-264-3705
Ttc,2326 Reinhart Court,Reedsburg,WI,53959,608-524-0871
Performance Fabrication And Towing,933 Hwy 17 South,Eagle River,WI,54521,715-479-7007
Tom Finch Trucking,N 9175 Hwy 12,Merrillan,WI,54754,715-896-3965
Doug Hall Sales,2648 State Road 64,Glenwood City,WI,54013,715-263-2740
Mikkelson Towing Recovery LLC,2600 Mercantile Drive,Eau Claire,WI,54703,715-832-7773
City Towing,1017 Division Street,Beloit,WI,53511,608-289-3699
Luke Busker Masonry,1196 60th Ave,Roberts,WI,54023,612-490-1037
Pringle Enterprises,251 E Main,Chilton,WI,53014,920-898-5881
Bakkestuen Backhoe & Tilling,E8421 County Rd Ss,Viroqua,WI,54665,608-637-2458
Tri State Scale,4902 Rivercrest Dr N,La Crosse,WI,54601,608-788-1305
Bakkestuen Home And Yard Repair,E6699 Larson Lane,Westby,WI,54667,608-634-2318
Pamperin Enterprises,3838 Sandpiper Way,Green Bay,WI,54311,920-468-1283
Hickey Bros Fisheries LLC,8099 Ridges Rd,Baileys Harbor,WI,54202,920-839-2136
Cardinal Lumber,15245 Spruce Tree Dr,Herbster,WI,54844,715-774-3394
Little Brook Performance Horses,5708 Carstens Lake Rd,Manitowoc,WI,54220,920-758-2447
Midwest Machine Repair,24 Bridge St,Mayville,WI,53050,920-387-3303
"Save On Furniture, Inc.",N3165 County Road Qq,Waupaca,WI,54981,715-258-0700
Atomic Towing,1061 Highway 12,Elk Mound,WI,54739,715-879-5799
K R A Lines,509 E Cornelia St,Darlington,WI,53530,608-213-1924
Ronca Construction,2602 Hwy 63,Cumberland,WI,54829,715-671-9702
Gregs Restorations & Flaming Tows,9356-n Anderson Rd,Hayward,WI,54843,715-634-7777
Old Oak Locomotive,N8576 Sidney Ave,Greenwood,WI,54437,715-965-2206
Roys Tree Service,2033 60th St,Somerset,WI,54025,715-247-3034
U Bake,213 East Pearl Street,Belleville,WI,53508,160-842-4340
"Total Construction Resource, Inc.",916 Valley Hill Drive,Waukesha,WI,53189,262-544-4349
Lou & Sons Towing,4546 N 50th Street,Milwaukee,WI,53218,414-526-9735
Rusty's 24 Hour Towing,S12965 Cty Rd U,Strum,WI,54770,715-878-4556
Have Tools Will Travel LLC,N8152 Willow Dr,Algoma,WI,54201,192-048-7512
K& M Concrete Construction,3713 W Tripp Rd,Janesville,WI,53548,608-757-0673
Stedi Transport,502 9th Ave South,Onalaska,WI,54650,608-779-5381
Zimmer Construction,W2350 Old Hwy 22,Cecil,WI,54111,715-745-4997
Metzger Racing,10598 North Town Industrial Park Rd,Hayward,WI,54843,715-634-1492
Gordon Enterprises,3133 Jefferson Street,Stevens Point,WI,54481,715-342-4056
Wfo Xpress,N8746 610th St,Colfax,WI,54730,715-308-2733
Tc Reclaimers,928 S 18 Th,Manitowoc,WI,54220,920-242-5500
Mad Dash Delivery,1088 Union Rd,Oregon,WI,53575,608-719-8498
Life Without Junk,4310 Commerce Valley Rd,Eau Claire,WI,54701,715-855-9005
Northland Custom Builders,165 Country Rd Dd,Pickerel,WI,54465,715-484-7168
Custom Lawn Care,W3094 Highway 82e,Mauston,WI,53948,608-847-7801
Perrigo Enterprises,W1512 County Road E,Neshkoro,WI,54960,920-293-5009
Rocket Towing,1617 Racine Road,Menasha,WI,54952,920-722-1142
Show-n-sell,W6893 Forest Ave,Fond Du Lac,WI,54937,920-921-2001
Billy Thompson Trucking,31650 County Highway A,Camp Douglas,WI,54618,608-427-6482
All American Towing & Recovery LLC,2246 N 44th Street,Milwaukee,WI,53208,414-659-2144
Wayne Forest Management,E5780 689th Ave,Menomonie,WI,54751,715-231-1022
America's Mattress,3001 Rib Mountain Dr,Wausau,WI,54401,715-298-0690
Advanced Cleaning LLC,1442 9th St N,Park Falls,WI,54552,715-762-5000
Affordable Movers,4584 S 22 Rd,Southrange,WI,54874,715-817-5229
S & S Haulers,S10370 County Road Hh / I,Eleva,WI,54738,715-514-8832
Nmp Solutions LLC,516 N Bennett St,Appleton,WI,54914,920-530-4600
B Z Delivery,201 Mound Park Dr,Elk Mound,WI,54739,715-450-2125
Mr Plantfood,602 Union Street,Manawa,WI,54949,920-596-2842
Rolling Thunder Brokerage,1834 11th Avenue,Edgar,WI,54426,715-352-2721
Property Advancement,230 Smith St,Neenah,WI,54956,920-707-4666
Elandt Farms,N4997 Otto Rd,New London,WI,54961,920-982-5179
Nomad Trucking LLC,N50222 Jacks Ln,Strum,WI,54770,715-695-2773
Mark Smith Racing,8780 E Leusman Rd,Solon Springs,WI,54873,218-341-8689
Carriage Company,W10495 Bell Rd,Camp Douglas,WI,54618,608-572-1117
Bailie Ag Services LLC,859 South Adams Street,Lancaster,WI,53813,608-723-5170
Gordondale Farms,Pobox 126,Nelsonville,WI,54458,715-570-1886
Meagher Express,W10514 Hwy P,Randolph,WI,53956,920-382-3415
Hidden Valley Transport,E502 State Road 54,Waupaca,WI,54981,715-342-5831
Red Tie Ride,18305 Astor Dr Unit 101,Brookfield,WI,53045,262-754-1436
Zila Industrial Repairs,9909 Caddy Lane,Caledonia,WI,53108,414-779-4303
Deneys Trucking & Livestock,2623 Dumke Lane,Abrams,WI,54101,920-604-3098
Fedtech,492 Prairie Lane,Hudson,WI,54016,612-805-4014
Noble Casting,240 S State St,Fall Creek,WI,54742,715-577-5495
Kl Enterprise,5637 N 79th St,Milwaukee,WI,53218,414-464-2375
Sluga Farms,W26021 County Road X,Independence,WI,54747,715-985-3796
Precise,N9640 Eagle Rd,Eagle,WI,53119,262-227-9444
A&p Hauling LLC,312 North Milwaukee Street 7,Waterford,WI,53185,262-664-9851
Rudys Trucking,1952 S 59th Street,West Allis,WI,53219,414-704-1936
Jr Trucking,706 9th Street,Chetek,WI,54728,715-642-3929
S&m Transport,E7522 770th Street,Colfax,WI,54730,715-309-9148
Ewo,3623 North 60th,Milwaukee,WI,53216,517-507-0612
Emelias Grotto Mollicas Pub,5501 W National Ave,West Milwaukee,WI,53214,414-988-9642
Mac Tools,N2112 Sleepyhollow Dr,Kaukauna,WI,54130,920-687-1929
Barnburner Transport,2921 4th St,Cumberland,WI,54829,715-822-3099
Slo,1102 Adams Ave,Oshkosh,WI,54902,920-410-4507
Evans Academy Of Excellence,2451,Milwaukee,WI,53205,414-344-9420
Feyen Machinery LLC,19901 W Mound Rd,Platteville,WI,53818,608-348-6539
Weavers' Trading Comany LLC,N13729 Hwy E,Curtiss,WI,54422,171-589-7615
J W Express,3137 Grandview Road,Stitzer,WI,53825,608-642-0048
Hid'nn Valley Farm,W897 100th Ave,Plum City,WI,54761,715-647-3513
Slumberland,700 East Blackhawk Ave Ste 6,Prairie Du Chien,WI,53821,608-326-1500
B & D Trucking,5632 West Center Drive,Hurley,WI,54534,715-561-2908
Dan Verhalen,S65w17860 Martin Drive,Muskego,WI,53150,262-679-0154
Jl All Cover Delivery,7409 Timberlake Trail 102,Madison,WI,53719,608-575-2721
Polylock All Star LLC,N494 Zendra Rd,Zanda,WI,53195,262-272-2415
Herricks Trucking,W1373 County Road Hh Lot 14,New Holstein,WI,53061,920-522-2274
Gillette's Livestock,1184 10th Ave,Elk Mound,WI,54739,715-874-4407
A&t Transportation,8622 Westbrook Dr,Sturtevant,WI,53177,262-456-4434
Jl Transport LLC,633 76th St,Franksville,WI,53126,414-835-2949
Carroll's Asphalt,3825 E Calumet St #192,Appleton,WI,54915,920-205-2839
Federated Transportation,3714 N 50th St,Sheboygan,WI,53083,440-554-1445
Burkes Irish Castle,5328 W Blue Mound Rd,Milwaukee,WI,53154,414-453-6088
Arrow Expedite Delivery Services,753 Swallow Tail Dr,Oregon,WI,53575,608-957-9268
Rock Trucking,135 Maria Lane,Cottage Grove,WI,53527,608-443-9484
Ddj Suffolks,N8443 Marty Rd,New Glarus,WI,53574,608-527-2610
Immediate Transportation,227 Lake Ave,Montello,WI,53949,262-573-9314
Craig Metz LLC,2833 Boyce Drive,Rhinelander,WI,54501,715-362-5560
Riedland Farm,W5478 Cnty Dr,Monroe,WI,53566,608-325-6390
P&d Express,1038 S Terrace Street,Janesville,WI,53546,608-931-5368
Gs Trucking,W3848 State Rd 33,Cambria,WI,53923,920-210-8356
Torque Transportation,11560 N Solar Ave,Mequon,WI,53097,414-702-0802
Yeee Hawlll,23917 Gopher Ave,Tomah,WI,54660,608-387-1471
Wil-haul,8700 Richardson Plat Road # 3,Minocqua,WI,54548,715-218-5811
H&h Wind Energy,818 Post Road,Madison,WI,53713,608-273-4464
Allways Trucking 4 You,E23465 Cty Rd C/f,Augusta,WI,54722,715-532-0558
Annabell's Catering,216 First Street,Plum City,WI,54761,715-647-4490
Rdw Transport,815 Milton Rd,Janesville,WI,53545,773-981-1888
Onalaska Transport,W 7936 Cty Rd Z,Onalaska,WI,54650,608-780-5559
Steph's Transport,4696 River Road,Rhinelander,WI,54501,715-369-9124
Hidden Hills Farm LLC,W8121 Ss,Adell,WI,53001,800-528-7900
Second Chance Electronics Re-cycling LLC,50582 State Hwy 13,Ashland,WI,54806,715-682-0132
Richard Martin,30373 Cth E,Muscoda,WI,53573,608-957-1480
S & K Snowplowing,N1539 715th St,Bay City,WI,54723,715-821-2733
Amy Orvis,S5164 Kohlmeyer Rd,North Freedom,WI,53951,608-212-6636
Fin N Feather,4060 W Loomis Rd,Greenfield,WI,53221,414-282-4410
Sr Ac & Repair,W2920 Silver Lane,Pulaski,WI,54162,920-833-0424
Mjb LLC,956 Riverview Dr,Little Suamico,WI,54141,920-826-2173
Tony's Pizza,2204 Washington St,Manitowoc,WI,54220,920-682-8669
Jb Trucking,11803 Olson Drive,Chippewa Falls,WI,54729,505-250-8904
New Age Siding And Windows LLC,1571 Ames Street,Neenah,WI,54956,516-650-7772
Lundy Trucking,1530 South 56th St,West Milwaukee,WI,53214,414-545-6700
Heintz Oil Co,110 Arthur,Turtle Lake,WI,54889,715-986-4545
Fink Express,15941 Durand #62c,Union Grove,WI,53182,262-994-7221
Individual Owner,2006 Springbrook North,Waukesha,WI,53186,262-650-9402
Oconnors Perfect Pint,8423 W Greenfield Ave,West Allis,WI,53214,414-257-1898
Private,3347 Mcivor St,Eau Claire,WI,54701,715-797-0747
Woosley & Son,258 85th Avenue,Clayton,WI,54004,715-501-4257
Tracy Turben,200 Church St,Soldiers Grove,WI,54655,608-606-1113
Post Farm Of Hammond Wi,1176 160th Street,Hammond,WI,54015,612-418-2816
Kris Houle Trucking,7665 Old Hwy 8,Cavour,WI,54511,100-555-1000
North Est Wisconsin Towing Company,704 Main Ave,Kaukauna,WI,54130,920-277-3935
Pedley Farms,26402 Hwy 11,Shullsburg,WI,53586,608-759-2081
Celebration Assembly,825 Fond Du Lac Ave,Fond Du Lac Ave,WI,54935,920-922-3990
R&r Overhead Door LLC,N3193 840th St,Hager City,WI,54014,715-792-2416
Caboose Transport,39630 State Hwy 13,High Bridge,WI,54846,715-274-4197
Wilkins Transport Services,W1187 Spleas Skoney Rd,East Troy,WI,53120,262-.44-1.30
Gnt Logistics,1112 Spruce St,Wausau,WI,54401,715-573-1636
Northland Overhead Doors,4791 Lakewood Rd,Harshaw,WI,54529,715-367-0610
Kenneth Schmidt Trucking,300 11th Ave East,Ashland,WI,54806,715-661-0272
Css Power,319 Yard Drive,Verona,WI,53593,608-827-1146
Chuggy's Transportation,1622 W Mitchell St,Milwaukee,WI,53204,414-645-4247
Hutjens Masonry,5422 Morrison Rd,De Pere,WI,54115,920-864-7421
Snyder Trucking,E5355 Cty Rd S,Tigerton,WI,54486,715-754-5647
Chris' Auto Transport,14162 Waters Way,New Berlin,WI,53151,262-210-6709
Total Home Exteriors,4622 Sunburst Dr,Deforest,WI,53532,608-212-0068
Willy's Delivery Service,S2924 Sun Ridge Dr,Spencer,WI,54479,715-659-2724
Tlc Sales,7535 Lily Lake Rd,Burlington,WI,53105,262-537-2110
Edelweiss,16081 W Park Rd,Hayward,WI,54843,715-634-4679
Langdon Lectric,1832 Oconto Ave,Wabeno,WI,54566-9050,715-927-3502
"Ksm Builders, Inc.",N84w18693 Menomonee Ave,Menomonee Falls,WI,53051,414-688-0825
Gillespie Enterprises,E540 Wolf River Rd,Iola,WI,54945,715-432-1753
Anytime Moving Solutions,619 E South River St,Appleton,WI,54915,920-915-8671
Jim- Specialist LLC,11126 W Maple Ln,Wauwatosa,WI,53225,414-466-7385
"Helgestad Trucking, Inc.",9317 N Arrowhead Shores,Edgerton,WI,53534,608-884-8238
Total Restoration,2247 71st Street,Somerset,WI,54025,715-247-2539
Storage Authority,303 Rimrock Rd,Wausau,WI,54401,715-370-1267
Jon Lancaster Toyota,3501 Lancaster Drive,Madison,WI,53718,608-243-5500
Lexus Of Madison,8000 Airport Road,Middleton,WI,53562,608-821-6000
Sather Farms,1687 Hwy 12,Hammond,WI,54015,715-796-5414
Asphalt Services LLC,35510 Ravine Dr,Rochester,WI,53167,262-534-7703
Bh Logistics,W1600 Hwy B,Genoa City,WI,53128,262-279-6282
"Fur Harvesters Auction, Inc.",400 England Street,Cambridge,WI,53523,608-423-4814
Goeden Trucking,W11672 Olden Rd,Ripon,WI,54971,920-748-9407
Barthman Services,1922 140th Ave,Saint Croix Falls,WI,54024,715-557-1566
Kain Express,7162 Garbrecht Rd,Oconto Falls,WI,54154,920-671-4184
Ship With Trust,413 Rockport Rd,Janesville,WI,53548,608-322-7362
Sunrise Trucking,W 9702 Hwy 33,Wonewoc,WI,53968,608-377-1170
Custom Plating Specialist,W 797 Cr-k,Brillion,WI,54110,920-756-3284
Tornos Towing,736 S 26th Str,Milwaukee,WI,53204,414-235-6010
Hickory Ridge Trucking LLC,N9198 Mohheconnuck Road,Bowler,WI,54416,715-881-1924
K&m Transport,E15901 County Road Z,Ringle,WI,54471,715-302-3488
D And S Ministries,357 180th Street,Osceola,WI,54020,715-248-3499
Pichler Trucking,214 W Riverview Dr,Jefferson,WI,53549,715-892-7198
Diesel Automotive Mechanical Doctors,324 William St,Watertown,WI,53094,920-206-9875
Stage Pro Entertainment,23085 Milwaukee Ave,Big Bend,WI,53103,414-477-6000
Plain Folks Livery,9365 State Road 80,Platteville,WI,53818,608-348-3955
Thunder Hill Registered Jerseys,19398 Cty Q,Bloomer,WI,54724,715-579-8946
Trucking,1020 Melody Dr,Green Bay,WI,54303,920-713-0042
Buechler's Lawn And Snowplowing,1208 Oakes Street,Marinette,WI,54143,715-330-8544
Four Seasons Transport,13102 187th St,Chippewa Falls,WI,54729,715-271-2082
Big E Outfitters,914 S 18th Ave,Wausau,WI,54401,920-765-2510
Dash Transport,W16093 Larsen Rd,Hixton,WI,54635,715-533-0338
B & K Trucking,E2799 Bags Hill Rd,Waupaca,WI,54981,920-539-6067
Janke Limited,604 Kreutzer St,Athens,WI,54411,715-257-7786
6088542045,804 State Road 11,Hazel Green,WI,53811,563-513-7476
J&s Transport,403 Putnam St,Tomahawk,WI,54487,715-622-0584
La Fiesta Mexican,425 S Main St,Janesville,WI,53545,608-757-1088
S & S Transports,1266 Winston Dr Apt # 8,Edgerton,WI,53534,517-507-0612
