Company Name,Street Address,Address Locality,Address Region,Postal Code,Telephone
Rbg Express,157 Vista Circle,Sundance,WY,82729,307-283-2573
Dexter's Automotive,600 N Hampton,Moorcroft,WY,82721,307-756-3259
Juan Garay & Sons Trucking,733 South 6th Street,Greybull,WY,82426,307-388-0226
Britton Trucking,2060 Kingsbury,Casper,WY,82601,307-686-6616
Double L Trucking,7 Amsden Rd,Dayton,WY,82836,307-751-1820
A & M Trucking,290 Swanson #9,Wamsutter,WY,82336,801-829-8990
T Lazy D Trucking,209 N Paige,Glendo,WY,82213,307-351-5793
Hardesty Trucking LLC,2666 Hwy 241,Afton,WY,83110,307-713-0287
Jhj Trucking,1089 Rd 15,Lovell,WY,82431,307-272-5807
Flat Creek Truckin,580 Latham,Wamsutter,WY,82336,775-777-8949
Blue Streak Express,1621 Cheyenne Street,Douglas,WY,82633,307-359-2759
Mercado Trucking,245 Pole Ck Rd,Pinedale,WY,82941,307-367-4781
Dsa Hot Shot,39 Frontage Dr,Boulder,WY,82923,307-537-3030
Countertop Distributing Div Babcock Construction,1523 Kelly Dr,Casper,WY,82609,307-237-2023
J & C Trucking,408 E 9th Street,Pine Bluffs,WY,82082,970-356-5883
Flat Express,619 Obie Sue,Worland,WY,82401,307-431-2648
Braddock Trucking,199 Murphy Gulch,Banner,WY,82832,307-737-2451
Wagner Hot Shot Transportation LLC,2875 Bishop Rd,Gillette,WY,82718,307-686-8159
Rocky Mountain Rock & Trucking,1205 Rd 15,Powell,WY,82435,307-754-0777
T & G Trucking & Land,122 Burma Rd,Riverton,WY,82501,307-856-1108
Noud Trucking,1429 Gilchrist Rd,Cheyenne,WY,82009,307-632-8792
Whiskey Coulee Rock Company,1213 La Lane,Gillette,WY,82716,307-660-4626
Big Horn Lake Transport,507 N Ash,Frannie,WY,82423,307-664-2220
Mdj Trucking,1305 Orchid Lane,Gillette,WY,82716,307-299-5416
R & J Service,1003 Santee Dr,Gillette,WY,82716,307-257-7117
Smith Cattle,604 Apache Dr,Buffalo,WY,82834,307-684-9236
Adams Transporters,3 Ridge Way Rd,Gillette,WY,82716,618-779-3836
Kar,88 Fairway Drive,Douglas,WY,82633,307-359-1554
Harmony Express,1010 S Front St,Opal,WY,83124,307-679-3054
Country Folk Hot Shots,1950 Blairtown Rd #4,Rock Springs,WY,82901,307-362-3320
Miller Trucking,238 Lefthand Ditch Rd,Arapahoe,WY,82510,307-856-3674
M W Transport,1098 Wagner Rd,Moorcroft,WY,82721,307-660-3810
Reliable Transport,730 Yates Street,Green River,WY,82935,307-870-7367
Legacy Classic Trucks,555 Deer Dr Unit 104,Jackson,WY,83001,307-734-7500
Nine Mile Trucking,124 Tipperary Rd,Pavillion,WY,82523,406-992-0823
Howeboy Trucking,5115 Rd 66s,Torrington,WY,82240,307-534-5104
Raymond Transport,200 Goes In Lodge Rd,Riverton,WY,82501,307-349-5922
Adams Transport,612 West Willow St,Lyman,WY,82939,307-787-6342
Sandberg Trucking,3728 Hwy 14-16,Clearmont,WY,82835,307-758-4384
M&m Welding Service,1308 Crestway,Worland,WY,82401,307-388-2207
Rjm Trucking,212 Pine Haven Rd,Pine Haven,WY,82721,307-756-2537
Shortys Hotshot Service,180 Hillcrest Ln,Rock Springs,WY,82901,307-705-1347
Thomason Transport,672 Lane 6,Cowley,WY,82420,303-936-3534
T3 Energy Services,61 Chimuza,Rock Springs,WY,82901,307-362-1320
Cold Creek Transport,84 Sunbeam Drive,Alpine,WY,83128,307-413-1780
Iron Dog Trucking,428 N Cheyenne St,Powell,WY,82435,307-202-2308
On The Move,3113 O Neil Apt C,Cheyenne,WY,82001,307-287-6595
Raisinfive Distributing,1066 Cardiff,Casper,WY,82609,307-258-6381
Mwd Transportation Service,2710 Thomes Avenue,Cheyenne,WY,82001,928-255-0987
Collingwood Trucking,801 N 3rd St,Greybull,WY,82426,307-272-0328
Salt Creek Material Transport,884 Road 22-1/2,Powell,WY,82435,307-254-1911
Dave's Hotshot,232 Second St,Chugwater,WY,82210,830-265-1413
Akerson Trucking,584 Diamond Basin Rd,Cody,WY,82414,307-899-7257
Golden Transport Service,2617 Cutty Sark,Rawlins,WY,82301,307-321-0197
Brittains Farming & Hauling,3537 Cooper Lane,Cody,WY,82414,307-587-5196
Double K Hotshot Service,1114 13th Street,Rawlins,WY,82301,307-324-5057
Teichert & Associates,365 Taylor Lane,Cokeville,WY,83114,307-279-3032
"Action Hot Shot Service,LLC",4500 Tepee St.,Gillette,WY,82718,307-257-0320
Stan's Catering Service,1519 East J Street,Torrington,WY,82240,307-532-6595
Basset Hound,1221 Cosgriff Ct,Cheyenne,WY,82001,307-632-1743
Caruso Trucking,724 Front Street Suite 512,Evanston,WY,82930,307-677-4085
T & C Trucking,4525 Mckenna Rd,Torrington,WY,82240,307-532-6349
Bilbrey Trucking,2735 Beaver Creek Rd,Shell,WY,82441,307-765-9319
Dave Morris Trucking,677 East 6th Ave,Torrington,WY,82240,307-532-7612
Cheryl Rapue Trucking,30 Irvine Rd Lot 9,Douglas,WY,82633,970-380-2123
There & Back Hot Shot Services,2312 Big Sky Trail,Rock Springs,WY,82901,307-922-3167
Tyler Trucking,315 Chestnut,Pine Bluffs,WY,82082,307-245-9229
2 J's Construction,1516 22nd St,Cody,WY,82414,307-899-1912
Sweet Freedom Trucking,25 Foothills Dr,Newcastle,WY,82701,307-746-9694
Baer Trucking,530 Beaufort St #5,Laramie,WY,82072,307-703-4020
Anderson Construction,319 Park Street,Sheridan,WY,82801,307-673-5351
Aa Transport,38 Curtis Street,Evansville,WY,82636,307-265-0083
The Auto Merchant Exchange,717 Storey Blvd,Cheyenne,WY,82009,307-640-4876
Bootstrap Transportation,927 8th St,Rocksprings,WY,82901,307-389-7453
L H Trucking,502 Gallup Drive,Etna,WY,83118,307-883-3224
Stewart Trucking,97 Longhorn Dr,Buffalo,WY,82834,307-684-5690
Diamond S Trucking,8728 Hwy 150 South,Evanston,WY,82930,307-679-6185
Noel Meeks Trucking,167 Hall Road,Riverton,WY,82501,307-856-8608
Ron Cole Trucking,150 Irvine Bridge Road,Douglas,WY,82633,307-358-3030
Pentz Boyz Trucking,101 Lincoln Ave,Evanston,WY,82930,307-679-3370
Whitney & Whitney,25 Sequoia Drive,Casper,WY,82604,307-259-0625
Brb Trucking,1221 Ritter Street,Rawlins,WY,82301,307-321-4421
Chantz Poulsen Trucking,485 Connecticut Place,Green River,WY,82935,307-707-0404
Phillips Trucking,2140 Forbes Road,Casper,WY,82601,307-333-4350
Riddle Trucking,2326 Dry Fork Drive,Gillette,WY,82718,307-685-4414
Seeley Transfer,100 Seeley Rd,Osage,WY,82723,307-465-2204
Red Baron Express,140 Sioux,Green River,WY,82935,307-389-2454
Aspen Creek,424 North Birch,Mountain View,WY,82939,307-677-2679
Mix Trucking,518 Peake St,Midwest,WY,82643,307-315-5905
Osmotherly Trucking,342 W 23rd Avenue,Torrington,WY,82240,307-575-2246
Coastal Hotshots,2510 Warren Ave Suite 3435,Cheyenne,WY,82001,714-624-5471
Jr Lee Transportation,232 Prairie Hills Dr,Cheyenne,WY,82009,307-575-5655
Affordable Hot Shots,700 Hereford Lane,Casper,WY,82604,307-265-4670
D & B Trucking,3345 Highway 156,Lingle,WY,82223,307-575-0001
Dugan's Hot Shot,603 S 4j,Gillette,WY,82716,307-299-6231
Rocking Td Livestock,75 County Ln,Moorcroft,WY,82721,307-689-6368
M Spear Cattle Co,543 North County Line Road 1,Chugwater,WY,82210,307-322-4340
Ritchie's Trucking,499 W Hesse Street,Buffalo,WY,82834,307-684-9275
Hackamore Ranch,15 Hackamore Lane,Pavillion,WY,82523,530-503-5303
Jobsite Services,6 Roberts Drive,Sheridan,WY,82801,307-752-0326
J T Sheehan Trucking,702 County Rd,Dixon,WY,82323,970-218-1682
West State Transportation,1941 Schoonover,Gillette,WY,82718,307-682-0187
Powder River Transportation Services,1700 E Us Highway 14/16,Gillette,WY,82716,307-682-0960
T Bar J Transportation,106 E Madison,Riverton,WY,82501,307-851-9603
C And F Trucking,1084 Saint James Road,Cheyenne,WY,82009,307-640-5950
D N G Express,725 E Cedar St,Rawlins,WY,82301,307-324-6666
Trailhead Trucking,402 Highway 133,Riverton,WY,82501,307-856-0397
Ghost Town Transport,1535 S Kenwood St,Casper,WY,82601,307-237-8940
Green River Auto Sales,1000 W Flaming Gorge Way,Green River,WY,82935,307-875-2111
Redneck Truckin,147 Folsom,Rock Springs,WY,82901,307-362-1265
Ken Allen Transportation,27 Lost Wells ,Riverton,WY,82501,801-599-9505
Cr Wells Trucking,144 N 6th St,Thermopolis,WY,82443,307-864-3681
Roseno Trucking,47 Sunnyside Ave,Riverton,WY,82501,307-856-3843
K And B Distributing,5 Valley Vista Lane,Banner,WY,82832,307-672-1771
Shipp Trucking,5557 Rd 118,Torrington,WY,82240,307-534-5337
B-on-tract,1116 N Federal Blvd,Riverton,WY,82501,307-857-7447
Ghents Trucking,Deer Haven Rv Park,Saratoga,WY,82331,928-713-8456
"Carter Pcikup & Delivery, Inc.",960 Road 20,Powell,WY,82435,307-754-5365
Adt Services,816 Holly Ave,Upton,WY,82730,307-468-2602
Rusty Williams Trucking,2158 Century Blvd,Rock Springs,WY,82901,307-354-8989
Advance Truck & Auto,810 Ez Street,Gillette,WY,82718,307-682-2277
R & E Trucking,1025 Road 8 1/2,Powell,WY,82435,307-272-8825
Jd Express,1319 Diamond Avenue,Cheyenne,WY,82001,307-630-2843
Active Hot Shot Service,2855 Coulter Dr,Casper,WY,82604,307-472-5542
A&m Transport,8815 Hopi Road,Casper,WY,82601,307-237-6833
Degney Trucking Co,2115 Co Rd 237a,Cheyenne,WY,82009,307-422-3232
Jb Buck,132 Cole St,Hulett,WY,82720,307-680-9449
Wtl LLC,875 West Road,Carpenter,WY,82054,307-778-7854
Klindt Trucking,458a Adon Road,Rozet,WY,82727,307-687-3179
Marty Davies Trucking,281 Hwy 59,Douglas,WY,82633,307-358-8343
Mcpherson Transport,372 Lyons Valley Rd,Lander,WY,82520,307-335-7150
Curtis Transport,63 Loop Rd,Bear River,WY,82930,307-789-2497
Field Services,7507 Ridge Road,Cheyenne,WY,82009,307-634-9980
Dfi,608 Winton Circle,Rock Springs,WY,82901,307-382-3570
Rock's Hot Shot,1124 N Federal Blvd,Riverton,WY,82501,307-856-6758
Peters Trucking,311 W 4th Street,Pine Bluffs,WY,82082,307-421-0307
West Star Transport,204 W Frontage Rd,Wheatland,WY,82201,307-331-8923
Boots And Coots Services,509 Mitchelson Street,Rock Springs,WY,82901,307-362-0106
Shepppard Trucking & Son,39 Burma Rd,Riverton,WY,82501,307-857-2737
Mulligan Trailer Sales,3800 Wigwam Blvd,Gillette,WY,82718,307-682-0025
Inca Trucking,1228 Affirmed Road,Cheyenne,WY,82009,307-631-1112
Selfour Ranch,1836 E Kilgeorge Drive,Rawlins,WY,82301,307-328-0660
Triple C Trucking LLC,6089 Old West Yellowstone Hwy,Casper,WY,82604,307-472-2122
M And M Transport,109 C Skyline Dr,Rock Springs,WY,82901,307-389-8422
Blue Creek Trucking,376 Paradise Valley Rd,Riverton,WY,82501,307-857-3787
A & A Hot Shot Service And Trucking,1643 Elk Street,Rock Springs,WY,82901,307-382-5433
B & S Hotshot LLC,44 Lakota Dr,Rock Springs,WY,82901,307-382-7139
C & T Hauling,813 Ridgewood,Gillette,WY,82716,307-689-5810
Karst Trucking,1295 Ln 11,Powell,WY,82435,307-754-3897
Mad Trucking,572 Grange Rd,Wheatland,WY,82201,307-322-5737
Rock Unlimited Ship& Handle Transportation,112 Sequoia,Gillette,WY,82716,307-687-7320
Jennings Livestock Transport,139 Stone Rd,Riverton,WY,82501,307-851-5115
Childers Services,6439 Chalk Bluffs Rd,Cheyenne,WY,82007,307-635-1846
Drag N Fly Transportation,295 N Nebraska St,Guernsey,WY,82214,307-836-2244
R & L Methane & Water Well Service LLC,205 Newton Rd,Gillette,WY,82716,307-685-6465
Naan Taan Trucking,2003 Del Rio,Kemmerer,WY,83101,307-828-9985
Ayers Trucking,52 Patrick Henry Rd,Gillette,WY,82718,307-682-2427
K Davis & Sons Trucking,5350 State Highway 216,Albin,WY,82050,307-246-3280
Oedekoven Ranch,179 Oedekoven Rd,Gillette,WY,82716,307-682-3252
Nelson Brothers Transport,301 Thelma Dr,Casper,WY,82636,307-267-3030
Terry Bailey,205 E Ball Lane,Big Piney,WY,83113,307-276-3701
Cmc Transport,301 Iris,Bairoil,WY,82322,307-324-9329
Joe Day Trucking,54 Chad Rd,Wright,WY,82732,307-464-1310
R J Trucking,527 Warren,Thermopolis,WY,82443,307-864-5454
Loren Ricks Backhoe Service,Box 155,Smoot,WY,83126,307-885-0467
Jones Trucking,34 Mi S 191,Rock Springs,WY,82902,307-350-3030
D & R Trucking,65 Constitution Dr Apt C,Gillette,WY,82716,307-682-5878
Loya Trucking,496 E 6th Ave Box 10,Torrington,WY,82240,307-532-3719
Bennett Transport,3314 Barbell Ct,Cheyenne,WY,82001,307-638-6449
Peak Distributing,3535 S Park Dr,Jackson,WY,83007,307-739-8797
C & D Transportation,3079 Yellow Creek Road #328,Evanston,WY,82930,907-789-0520
A & E Trucking,4706 Rd 70y,Torrington,WY,82240,307-532-2979
"American Auto, Inc.",284 South Ingalls St,Powell,WY,82435,307-754-4141
"Alvey Trucking, Inc.",318 Bugas,Wamsutter,WY,82336,307-324-3255
Pb&j Cattle Cruisers,1233 S Oak,Casper,WY,82601,307-315-7478
Oge N Di Livestock Trucking,250 2nd W,Auburn,WY,83111,307-886-9276
S&j Trucking,1927 S Poplar St,Casper,WY,82601,307-436-9323
Green Acres Trucking,1520 Hwy 32,Powell,WY,82435,307-754-9296
Kb Trucking & Hotshot Service,6705 Braehill Rd #5,Cheyenne,WY,82001,307-389-1459
Barrett Trucking,935 Walnut Sp 17,Rock Springs,WY,82901,641-220-4742
Chambers Trucking,604 Elon Ave,Gillette,WY,82716,307-687-1741
Bob's Production Service,229 N Lennox,Casper,WY,82601,307-234-2549
Myers Trucking,34 Beaver Crk Rd,Sheridan,WY,82801,307-672-6704
Manor Trucking,1194 Bay Horse Rd,Recluse,WY,82725,307-686-3803
Shooty's Trucking,731 Ridgeland St,Cheyenne,WY,82009,307-634-0216
Cactus Pete Trucking,300 Sweetwater Dr,Rock Springs,WY,82901,307-389-2711
J & E Enterprises,3084 Rd 37,Yoder,WY,82244,307-532-3346
Bear Enterprises,10 Kelli,Rozet,WY,82727,307-640-0876
Bk Truck Sales,90 Hwy 20 S,Greybull,WY,82426,307-765-9494
Burnett Trucking,402 Oak St,Medicine Bow,WY,82329,307-379-2230
G & L Water Service,48 Saddle Hill Rd,Meeteetse,WY,82433,307-868-9202
Bet Trucking,191 Haystack Butte Rd,Farson,WY,82932,307-273-5001
L & M Farms,2959 Road 54,Veteran,WY,82243,307-837-2560
Robert Logan Truck Repair,7 Mi S Tie Siding Hwy 287,Laramie,WY,82070,307-650-0961
Triple T Hotshot Service,19 N Bobcat,Rolling Hills,WY,82637,307-436-5436
Royal Transportation,27 Lost Wells Dr,Riverton,WY,82501,307-856-7211
H & H Trucking,335 Nogales Ln,Gillette,WY,82716,307-682-8858
Haas Trucking,6517 Whistler Drive,Cheyenne,WY,82009,307-432-0887
R J Classic Trucking,546 S 2nd,Bighorn,WY,82833,307-752-4018
T N T Transport,305 Bridger Ave,Ralston,WY,82440,307-272-1628
Outlaw Trucking,815 Valley St,Rock Spring,WY,82901,307-352-3718
"Wild West Auto Sales, Inc.",1623 E Lincolnway,Cheyenne,WY,82001,307-433-9378
Leo Ranch,11298 Van Tassell Rd,Torrington,WY,82240,307-532-5763
Rw Trucking,Highway 789 Two Miles North Of Baggs Wyoming,Baggs,WY,82321,307-383-2024
Buckboard Transportation,430 South Jackson St,Jackson,WY,83001,307-733-7372
"Sinister Transportation, Inc.",Po Box 51187,Casper,WY,82605,307-333-3452
B & L Trucking,601 E Parmalee,Buffalo,WY,82834,307-217-0282
Five J Trucking,74 River Blf Rd,Kinnear,WY,82516,307-857-6051
R & D Trucking,515 E 7th St,Cheyenne,WY,82009,N/A
Darlington Services,263 Esterbrook Road,Douglas,WY,82633,307-351-3475
Krell Truck Service,Pmb 123 24695 Us Hwy 585,Four Corners,WY,82715,307-746-4754
"B K Trucking, Inc.",201 Bobcat Trl,Rozet,WY,82717,307-682-8590
Rocky Mountain Pipeline Trucking,85 A Crook's Gap Rd,Wamsutter,WY,82336,307-324-2888
Northern Edge Trucking,830 Road 4,Powell,WY,82435,307-527-7025
Grizzly Trucking,1512 Idaho Street,Rawlins,WY,82301,307-324-4066
Ripsted Transport,4804 Ontario Ave,Cheyenne,WY,82009,307-640-1280
Rsc Trucking,405 Gladstone,Sheridan,WY,82801,307-673-0112
Maddison Transport,5865 Hwy 14,Beulah,WY,82712,307-643-2151
S J Trucking,1755 Hwy 390,Wilson,WY,83014,307-690-0541
Howdy's Trucking,1140 Meadowlark Ln,Jackson,WY,83001,307-699-0047
Lariat Trucking,253 Bighorn Dr,Wright,WY,82732,307-680-3952
Basic Energy Services,907 N Poplar Suite 210,Casper,WY,82601,307-266-9283
Mishler Trucking,1502 Plum,Cheyenne,WY,82007,480-262-6399
Cms Pet Products & Services,2550 Higby Rd,Sheridan,WY,82801,307-672-9611
Oliver Trucking,Rr 1 Box 37,Lingle,WY,82223,307-761-0175
T & J Services,527 Warren St,Thermopolis,WY,82443,307-864-5454
Hunter Trucking,204 Worley Drive,Gillette,WY,82716,307-682-3428
Kci,7559 W Yellowstone,Casper,WY,82604,307-262-2880
Travis R Engel Trucking,875 West Rd,Carpenter,WY,82054,307-547-3960
Red Desert Delivery,Box 4192,Marbleton,WY,83113,307-276-4061
Wyoming Hay Haulers,575 Ln 9,Powell,WY,82435,307-754-0725
Odds & Ends Handyman Service,1200 E 2nd Ave,Cheyenne,WY,82001,307-631-2447
Mccleery Trucking,2155 County Road 162,Pine Bluffs,WY,82082,307-245-3060
Red Tape Trucking Services,1502 Plum St,Cheyenne,WY,82007,307-421-0919
Ory Trucking,4559 County Rd 122,Torrington,WY,82240,307-532-9979
Pro-trans,1500 Desmet Ave Th3d,Sheridan,WY,82801,307-272-6177
Ht Services LLC,601 Commercial Drive,Gillette,WY,82716,307-682-1512
Paquime Trucking,107 8 St,Sinclair,WY,82334,307-321-8221
Backwards R5 Trucking,2841 W A St,Torrington,WY,82240,307-837-0196
Howard Trucking,702 S Linn,Lusk,WY,82225,307-340-0165
Lone Palm Distributing,5312 Seslar Ave,Cheyenne,WY,82009,N/A
Paradise Auto,5555 Cy,Casper,WY,82602,307-265-7777
Barrett Trucking,850 No Lane,Lander,WY,82520,307-349-2409
Elkhorn Services,916 So. Third Ave.,Casper,WY,82601,307-247-3697
Berdahl Trucking,413 Spruce,Newcastle,WY,82701,307-746-8285
Williams Auto Repair,90 Country Lane,Moorcroft,WY,82721,307-756-9753
J Dooley Trucking,1419 Fetterman Dr,Laramie,WY,82070,307-684-2906
Kimzey Trucking,212 Country West Rd #c,Cheyenne,WY,82007,307-245-3779
Tom Smith Trucking,60 Lakeview,Kinnear,WY,82516,307-856-8237
Clark Ranch,347 Boner Rd,Lusk,WY,82225,307-334-3747
Strong Trucking,98 S Wheatland Hwy,Wheatland,WY,82201,307-322-4538
C A & S Trucking,614 N 1st St,Riverton,WY,82501,307-856-9715
Running W Trucking,6214 East Pershing Boulevard,Cheyenne,WY,82001,307-638-4468
Grizzly Trucking,45 Purple Sage Rd #137,Rock Springs,WY,82901,307-382-4429
Howdy Nimick Trucking,57 Prairie Dr,Buffalo,WY,82834,N/A
Allen & Sons Trucking,4232 Johnson Way Lot B,Green River,WY,82935,307-875-9518
Superior Truck Equipment,1457 N Cedar,Laramie,WY,82070,307-742-3708
5-d Trucing,563 Duffin Circle,Thayne,WY,83127,307-883-2129
Jensen Trucking,698 Adams St,Afton,WY,83110,307-885-3660
Jim's Trucking,634 1st St,Upton,WY,82730,307-468-2747
Tanner Trucking,1120 W 19th,Casper,WY,82604,N/A
J & J Hot Shot Service,1924 Imperial Dr #i-14,Rock Springs,WY,82902,307-362-5091
Wyldoming Express,3521 Partridge Lane,Casper,WY,82604,307-473-7238
Dunham Trucking,1505 Penland,Baggs,WY,82321,307-471-1954
High Plains Moving Systems,2500 E Mountain View Dr,Cody,WY,82414,307-587-2643
Wild Horse Trucking,750 Upper Cache Creek #12,Jackson,WY,83001,307-733-4908
Naylor Trucking,2725 Colorado Dr,Green River,WY,82935,307-875-3267
Whitecastle Transportation Services,3588 Cody Ln,Cheyenne,WY,82009,N/A
Whelchel Trucking,400 S Brooks,Gillette,WY,82716,307-682-3045
W David Williams Trucking,506 White Mountain Rd,Rock Springs,WY,82901,307-362-9463
Red Streak Trucking,47 S Coyote,Glenrock,WY,82637,307-436-9560
J & V Trucking,496 E 6th Ave,Torrington,WY,82240,N/A
Xpress Services,4300 Pathfinder Ave,Cheyenne,WY,82001,307-259-6844
Lane Trucking,19 Kleiber St,Dayton,WY,82836,307-655-0133
Jimmie Killion Trucking,52 Antelope Dr,Wheatland,WY,82201,307-322-5055
Grizzmo Trucking,County Rd 263,Robertson,WY,82944,307-782-6945
April Trucking,10407 Hwy 189 #39,Big Piney,WY,83113,208-219-2975
Mcdaniel Trucking,700 Park St,Worland,WY,82401,307-347-8629
Wurtz Trucking,4086 Salt Creek Hwy,Casper,WY,82601,307-234-6160
Tbm Trucking,485 Antelope,Rock Springs,WY,82901,307-362-4047
Don's Service,1005 Pine Ave,Kemmerer,WY,83101,307-877-4526
Lamb Chop Express,P O Box 1563,Evanston,WY,82931,307-789-2389
Bison Acid & Frac,2211 Bluffs Ridge Drive,Gillette,WY,82718,307-686-8292
M & W Sales & Service,35 Spackman Rd Hwy 238,Afton,WY,83110,307-886-5695
Anderson Trucking,204 B Orin Way,Douglas,WY,82633,307-358-2873
J A A K Transportation,9023 S Lodgepole Rd,Casper,WY,82601,307-577-5030
Timber Transports,713 Oregon St,Medicine Bow,WY,82329,307-379-2534
Spear Trucking,88 12th St,Wheatland,WY,82201,307-322-3884
D C Henderson Trucking,95 Roberts Wolfley County Road 109,Etna,WY,83118,903-238-6083
Brown's Trucking,258 Twin Crk Cr 342,Kemmerer,WY,83101,307-877-3145
A-m Transportation,50 W 2nd St,Lovell,WY,82431,307-548-2794
A & A Auto Service,260 Bear River Dr,Evanston,WY,82930,307-789-9011
Excel Logistical Services,288 Scrub Oak Dr,Thayne,WY,83120,307-883-4535
Nemitz Cattle Co Trucking,216 Connelly Ave,Lingle,WY,82223,307-837-3003
Laris Auto Sales,1235 Raintree Drive,Riverton,WY,82501,307-857-2420
Hall Cattle Co Trucking LLC,6641 Road 27,Lingle,WY,82223,307-837-0121
"White Trucking, Inc.",161 Canfield,Sheridan,WY,82801,307-674-7822
J W Morrison Trucking,8020 Rd 31,Lingle,WY,82223,307-837-2058
Windy Hills Trucking,320 Lily Lane,Casper,WY,82604,307-234-9363
Burke Moving & Storage,6450 East Yellowstone,Evansville,WY,82636,307-234-6948
Dennis L Voegele & Son Trucking,3805 Tepee St,Gillette,WY,82717,N/A
Ben Garman Trucking,666 Us Hwy 212,Colony,WY,82720,406-828-4460
Cochrun Trucking,1913 Cardinal,Worland,WY,82401,307-347-6331
A & A Transportation Co,709 Kearney St,Laramie,WY,82070,307-742-0173
Grandpa & Framma Trucking,1714 Utah St,Rock Springs,WY,82901,307-371-5614
B & J Trucking,404 Obie Sue,Worland,WY,82401,307-347-3957
Fishtail Trucking,3rd & Main Sts,Dixon,WY,82323,970-326-7031
Hill Trucking,500 Robin Ln,Douglas,WY,82633,307-358-4873
Sutton Trucking,4344 Johnson Way,Green River,WY,82935,307-875-5165
M A Smith Trucking,357 Riverview Dr,Alpine,WY,83128,307-654-7150
Double A Trucking,51 S Monkey Rd,Glenrock,WY,82637,307-436-8935
Roberts Company,302 N Custer,Sheridan,WY,82801,307-674-2492
A S R,4457 Fitzhugh,Casper,WY,82604,307-235-4619
J & D Trucking,1117 Ashford Dr,Cheyenne,WY,82007,970-590-3417
Kevin Ringdahl Trucking,185 Clearview,Green River,WY,82935,307-875-2250
Bear Mountain Service Station,W Rt 77,Lagrange,WY,82221,307-834-2294
Gillham Transportation,5593 Old Yellowstone,Mills,WY,82644,307-259-9545
Wyoming Tire And Service,80 Allegiance Cir,Evanston,WY,82930,307-789-5040
Barry Matney Trucking,170 Clarke St,Hawk Springs,WY,82217,307-245-3064
Gerome Trucking,2214 W Spruce St,Rawlins,WY,82301,307-324-9472
D A M Transportation,172 N Curtis,Evansville,WY,82636,307-234-3144
C & D Transportation,182 No Burritt,Buffalo,WY,82834,307-266-3020
Wyoming Building Movers,830 Cache Crk Dr,Jackson,WY,83001,307-733-6949
Southside Moving Co,609 W Lincolnway,Cheyenne,WY,82001,307-635-1185
Precision Electric Services,1133 Ln 13,Powell,WY,82435,307-754-5689
William Daniels Trucking,1821 Mctavish Ct # 23,Rawlins,WY,82301,307-324-2488
Deckers A1 Auto & Truck Service,3525 Myers Ct,Cheyenne,WY,82001,307-778-7488
E & W Trucking,338 S Carlin,Sheridan,WY,82801,307-673-1809
Central Implement Service,135 W 14th,Torrington,WY,82240,307-532-5626
"Suloff's Auto Repair, Inc.",420 N Washington St,Afton,WY,83110,307-886-9748
Mckinney Trucking,1461 Silver Fox Ln,Cheyenne,WY,82003,307-432-9502
K & J Trucking,136 Citation Ln,Evanston,WY,82930,307-789-6608
Transpacific Investments,250 China Mary Rd,Evanston,WY,82930,307-789-1800
Rhamy Hot Oil Service,299 Spring Canyon Rd,Douglas,WY,82633,307-358-9493
Robbins Trucking,1556 Coughlin,Laramie,WY,82072,307-742-6496
Smock Trucking LLC,1067 Cr 162,Pine Bluff,WY,82082,307-245-3145
Transport West,660 Rd 6,Powell,WY,82435,307-754-2588
Percifield Dirt Service,270 Bertha Rd,Moorcroft,WY,82721,307-756-3309
Wrtc Trucking,3310 Stagecoach Dr #b,Casper,WY,82604,307-237-3654
Green Mountain Transport,440 Grn Mtn Rd,Jeffrey City,WY,82310,970-396-0363
Zerbst Pumping Service,1980 Cheyenne River Rd,Newcastle,WY,82701,307-334-2270
Mac's Moving,219 Broadway,Sheridan,WY,82801,307-674-9602
Milton Daniels Trucking,11774 Hwy 789,Shoshoni,WY,82649,307-857-6061
Bassett Trucking,985 Rd 17,Lovell,WY,82431,307-548-7650
Jackson Hole Crates Work & Ace Delivery,1200 S Gregory Ln,Jackson,WY,83002,307-733-0433
D R Trucking,1122 Barlow Cyn Rd,Hulett,WY,82720,307-467-5957
A J Osborne Trucking,1104 N 2nd #80,Lander,WY,82520,307-332-6472
Dwain Peay Trucking,122 Burma Rd,Riverton,WY,82501,307-856-6019
Taylor Automotive,74 Quigley Road,Lusk,WY,82225,307-340-0434
Better Auto Transport,3338 Georgia Cir,Gillette,WY,82717,307-687-2072
J & D Hauling,# 7 Maxine Pl,Sheridan,WY,82801,307-673-5258
Smith Trucking,96 Davis Tee,Sheridan,WY,82801,307-674-9647
Niday Trucking,501 W Owen,Lyman,WY,82937,307-787-6716
Robert B Morris Transport,423 N Main,Sheridan,WY,82801,307-672-6136
Caldwell Trucking,1614 Crook Ave,Cheyenne,WY,82001,307-632-3970
Little Shell Trucking,508 Teton Dr,Wright,WY,82732,307-464-1488
Outlaw Red Transport,46 Beaver Dr,Sheridan,WY,82801,307-674-9759
B N T Trucking,Tenke Trlr Ct Lt 3,Sundance,WY,82729,307-283-2520
Sand Creek Trucking,53 Negley Rd,Glenrock,WY,82637,307-436-5418
Strohschein Trucking,11 Ridenour Rd,Rozet,WY,82727,307-682-6296
Bear Creek Station Specialized Freighters,Cabin G Fox Park Cir,Fox Park,WY,82070,307-745-8604
D R Wilson Trucking,5816 County Rd 25,Veteran,WY,82243,307-837-0154
Jay Dugan Trucking,530 West Washington,Pinedale,WY,82941,307-367-2010
Dove Creek Livestock & Machinery Transport,1903 Tunnel Rd,Wheatland,WY,82201,307-322-1830
Muletrain Express,3245 Acacia Dr,Cheyenne,WY,82009,307-638-0356
K Bar J Trucking,203 N Oak,Lusk,WY,82225,307-334-3080
Arts Pumping Service,306 Mcmicken,Rawlins,WY,82301,307-324-5155
Runyan Trucking,1303 Lane 43,Burlington,WY,82411,307-762-3678
B & R Trucking,222 N 5th Street Apt #10,Sundance,WY,82729,307-283-1798
Home Pride Trucking,407 N Walsh,Casper,WY,82609,307-234-8600
M Hng K Trucking,6613 County Road 535,Torrington,WY,82240,307-532-8932
Hytrek Trucking,211 W Hickory Ave,Saratoga,WY,82331,307-326-3188
A Z Trucking,460 Pickenpaugh Rd,Shawnee,WY,82229,307-358-3739
Reilly Trucking,1528 Missouri Vly Rd,Riverton,WY,82501,307-856-0182
Rock Creek Trucking,250 N Pennsylvania Ave,Casper,WY,82609,307-378-2366
Timberline Trucking,1511 Mydland Rd #186,Sheridan,WY,82801,307-674-8677
Grimm Trucking,4712 Laramie St,Cheyenne,WY,82001,307-637-3008
Kk Carrier,703 E Railroad,Gillette,WY,82716,307-685-2878
Cowboy Pride Trucking,605 Little Valley Trl,Cheyenne,WY,82007,307-638-6400
Get-auto Transport,2740 Coutter Lane,Gillette,WY,82717,307-682-5971
B P Halleran Trucking,253 Lake Hattie Road,Laramie,WY,82070,970-227-0414
Robert Scherf Trucking,97 Ray Lake Rd,Lander,WY,82520,307-332-4109
Garro Trucking,417 Ritter Ave,Kaycee,WY,82639,307-738-2305
Wyoming Automotive And Industrial Supply,721 Pilot Butte Ave,Rock Springs,WY,82901,307-362-3749
Double A Trucking,124 Hwy 14a,Byron,WY,82412,307-548-6662
"Joe Good Transportation, Inc.",8 E Main,Lovell,WY,82431,307-548-6465
Sherman Trailer Transportation,4212 Whitney Rd,Cheyenne,WY,82001,307-634-3811
Snf Transportation,1911 South Chestnut,Casper,WY,82601,307-237-4075
Bell Transportation,1303 S 2nd St,Laramie,WY,82070,307-742-8251
Carlson Trucking,5710 Osage Ave,Cheyenne,WY,82009,307-632-2128
York Enterprises,94 Calipso P O Box 1117,Mills,WY,82644,307-235-2828
Quinn Hot Shot Service,805 Mckeehan,Rock Springs,WY,82901,307-382-2434
Taylor Trucking,Hwy 414 2 Mi East,Lonetree,WY,82936,307-782-3732
Keller Mobile Home Transport,2723 Renauna Ave,Casper,WY,82601,307-237-0908
M & R Mobile Home Service,226 N Nebraska Ave,Casper,WY,82601,307-265-5545
Denny's Oilfield Rentals Trucking,2932 Wasatch Rd,Evanston,WY,82930,307-789-2800
Bar Vs Trucking,924 River Dale Rd,Evanston,WY,82930,307-789-3511
Double T Trucking,48 South Wheatland Hwy,Wheatland,WY,82201,307-322-9432
R K Trucking,4498 W Highway St,Casper,WY,82604,307-234-0290
Dj Trucking,1827 Skykine Rd,Laramie,WY,82070,605-341-2919
Sheridan Express,81 Decker Rd,Sheridan,WY,82801,307-672-5461
Heward`s Hotshot Service,635 Almy Road 107,Evanston,WY,82930,307-789-4026
Pinks Trucking,105 Mesa Road,Baggs,WY,82321,307-383-6877
Northern Wyoming Trucking Co,132 Rock Creek Rd,Buffalo,WY,82834,307-467-5450
M & M Livestock Services,Southwest Drive,Cheyenne,WY,82003,307-632-6687
Banzhaf Trkg,Lot 22 Block 2 Mountain View Estates,Saratoga,WY,82331,307-326-8533
Hemphill Speedy,1921 Yellowstone Rd,Rock Springs,WY,82901,307-382-5650
Team Drilling,521 E Main St,Riverton,WY,82501,307-857-7098
Redden Trucking,1333 Mckinley Ave,Rock Springs,WY,82902,307-362-8594
Jerry Anderson Trkg,177 Wildcat Road,Sheridan,WY,82801,307-737-2511
J Bar D Transportation,64 Red Fox Road,Wheatland,WY,82201,N/A
Balcaen's Auto Parts & Body Shop,3001 S Greeley Hwy,Cheyenne,WY,82007,307-634-5859
William Lloyd Malli Trucking,5521 Hwy 14-66,Arvada,WY,82831,307-736-2423
P W Marriott,213 Jared Ln,Evanston,WY,82930,307-789-8266
Auto Hospital,304 N Grant,Casper,WY,82601,307-234-8265
Jons Trucking,244 Beaver Creek Rd,Newcastle,WY,82701,307-746-9327
D & C Transport,118 Bar 2 Dr,Douglas,WY,82633,307-358-2748
Maz's House & Mobile Home Movers,420 Fremont,Lander,WY,82520,307-332-4997
Ullrich Trucking,1213 Fetterman Dr,Laramie,WY,82070,307-265-4146
Richardson Trucking,7 Mi S Of Elk Mtn Cnty Rd 402,Elk Mountain,WY,82324,307-348-7361
A & J Trucking,411 1st,Riverside,WY,82325,307-327-5171
Country Lane Trucking,Gen Delivery,Mountain View,WY,82939,307-782-7300
Metco,Gas Hills Road #19,Riverton,WY,82501,307-856-5511
Briese Trucking,195 Lupine Dr,Evanston,WY,82930,307-789-0196
M & D Trucking,13288 Hwy 51,Rozet,WY,82727,307-682-1149
Mark's Trucking,5901 Coffeen #17,Sheridan,WY,82801,307-673-4612
Hackett Transport,1049 Bittercreek Rd,Recluse,WY,82725,307-682-0614
Irene Ranch,2020 Hwy 59,Douglas,WY,82633,970-396-8412
Ralph's Backhoe Services,1267 North 9th,Laramie,WY,82072,307-745-8446
Farmer's Trucking & Excavating,325 E Foxfarm Rd,Cheyenne,WY,82007,307-632-4040
B & S Company,16 Round Up Drive,Green River,WY,82935,307-870-2128
R C Distributing,1029 Hwy 14a,Powell,WY,82435,307-754-5800
Tripple Bar K Service,715 Mctee Street,Rock Springs,WY,82901,307-362-6483
Larry J Harmer Trucking,3530 Sh 154,Torrington,WY,82240,303-981-2298
Jbm Hotshot Trucking,450 Idaho,Lovell,WY,82431,000-000-0307
Riker Trucking,Gen Delivery,Dubois,WY,82513,307-455-2915
Flying S Transportation,79 Antelope Gap Rd,Wheatland,WY,82201,307-322-4565
Sedman Services,6 Mi S Of Huntley,Huntley,WY,82218,307-788-1390
Welfl Trucking,721 Wagner Rd,Moorcroft,WY,82721,307-351-6854
White Trucking,151 1/2 Hay Creek Rd,Aladdin,WY,82710,307-896-3777
Big John Truck & Blade,2058 Frackelton St ,Sheridan,WY,82801,000-000-0307
Mid-west House Movers,101 Warchant,Gillette,WY,82716,307-687-1391
Evans Trucking,530 Oregon Ave Apt 1,Gillette,WY,82718,307-467-5406
Wells Trucking,170 South Loban,Buffalo,WY,82834,N/A
"D & S Casing Service, Inc.",409 Industrial Pk Dr,Gillette,WY,82717,307-682-9764
Freedom Seekers Transportation,1610 Webbwood Rd,Riverton,WY,82501,307-856-0235
Jets Trucking Co,4 Sage Dr,Riverton,WY,82501,N/A
Red Eagle Transport,53 County Road 2ab,Cody,WY,82414,307-527-7575
Rasmussen Tree Moving,1411 Edinburgh St Apt 317,Rawlins,WY,82301,402-426-8474
D&t Trucking,116 Thompson,Sundance,WY,82729,307-283-1224
A & J Edwards Trucking,18117 Us Hwy 14,Sundance,WY,82729,N/A
T-k Trucking,1927 Piney Cheek Road,Casper,WY,82604,307-266-0101
S E Roberts Transportation Ltd Liability Co,4225 Boles Rd,Casper,WY,82604,307-237-2122
Frontier Backhoe Service,3359 Campstool Rd,Cheyenne,WY,82007,307-637-6833
Mcrann Trucking,General Delivery,Hulett,WY,82720,307-467-5493
Grass Creek Water Service,General Delivery,Grass Creek,WY,82443,307-867-2488
A M Williamson Trucking,108 W Sunset Dr,Gillette,WY,82716,307-467-5300
Wyoming Department Of Transportation,5300 Bishop Blvd,Cheyenne,WY,82009,307-777-4460
Stewart Trucking,31 Pierce Road,Sheridan,WY,82801,307-674-8624
Post Agri Service,R R 3 Box 61 F East Hwy 26,Torrington,WY,82240,307-532-8442
Courtesy Automotive,220 W 20th Ave,Torrington,WY,82240,307-532-7366
B & H Trucking,251 Adon Rd #4,Rozet,WY,82727,605-332-7916
Cockrell House Moving,200 Goodturn Dr,Cody,WY,82414,307-587-6656
S & L Trucking,139 West Hill Loop,Gillette,WY,82716,307-682-8306
D & L Trucking,273 N Adams,Laramie,WY,82070,307-745-6296
Snowy Range Snowmovers,122 County Rd 108,Evanston,WY,82931,307-789-6556
Ray Mccoy Trucking,217 Thorne Divide,Hulett,WY,82720,307-756-9677
Fowler Trucking,3513 Quail Lane,Casper,WY,82604,307-234-1153
H Nickle,26 Sawmill Rd,Wheatland,WY,82201,307-322-4511
Vitto Trucking,236 Cnty Rd,Hulett,WY,82720,307-467-5311
D A D Trucking,301 S 1st St,Dubois,WY,82513,307-455-2613
Bob's Water Service,248 North Piney Rd,Big Piney,WY,83113,307-276-3235
Waugh's Transport,Po Box 443,Hulett,WY,82720,307-290-0152
Budget Express,700 Hereford Lane,Casper,WY,82609,307-234-6910
"Lee Excavation, Inc.",Pobox 587,Lander,WY,82520,307-332-2666
Tatooine Electronic Systems,6520 Hinesley Rd,Cheyenne,WY,82001,307-632-0054
M & N Equipment LLC,Po Box 2490,Casper,WY,82602,307-234-0583
Nas Hot Shot,613 Gobel Street,Rock Springs,WY,82901,307-922-2041
C Bar M Trucking LLC,46 Riverview Rd,Wheatland,WY,82201,307-331-0934
Sonesen Trucking,1023 Esterbrock Rd,Douglas,WY,82633,307-351-1344
Rightway Trucking,11034 Pantheon,Evansville,WY,82636,307-237-6612
Lazy Horse Transportation LLC,A28 Cottonwood St,Lyman,WY,82937,307-679-8973
Tree Wurx & Fr8 Wurx,100 Railroad Street,Lingle,WY,82223,307-460-4706
Boudreault''s Truck Club,252 Polk Street,Rock Springs,WY,82901,307-389-2531
A & W Services Hot Shot,919 Woodhaven Drive,Rock Springs,WY,82901,307-354-6072
Pvc Trucking,1238 Taft Avenue Apartment D,Cheyenne,WY,82001,520-732-9863
Habeck Salvage & Recycling,977 Rd 18,Lovell,WY,82431,307-272-6719
Huggans Trucking,420 Nwashington,Casper,WY,82601,307-258-9894
Jordan Creek,152 Big Sandy Circle,Cheyenne,WY,82001,307-637-5709
Hooper Tree Services,317 North West Street,Sundance,WY,82729,307-629-1155
Graves Harvesting And Trucking,515 E 3rd Street,Pine Bluffs,WY,82082,970-381-5139
Fitzgerald's Bicycles,245 W Hansen St,Jackson,WY,83001,307-734-6886
Wyd Transportation,2929 Pheasant Dr,Casper,WY,82604,307-277-4968
Rocky Mountain Hotshot,355 Oregon Trail,Casper,WY,82604,307-235-8037
R & R Hotshot,2022 Mandan Trail,Casper,WY,82601,307-247-4353
Gs Transport,4559 Hwy 26,Dubois,WY,82513,817-287-1958
Double B Welding,800 Fir Court,Gillette,WY,82716,307-660-0922
Rockstar Transport,2 Marlatt Rd,Shoshoni,WY,82649,307-851-9691
Ole Cruff,938 19th #17,Cody,WY,82414,307-578-8633
Tazzmainy Trucking,9north 2 East,Farson,WY,82932,307-705-6295
All Seasons Home Inspection,3511 Carla Dr,Cheyenne,WY,82009,307-426-4140
A J Starkey Trucking,5350 State Highway 216,Albin,WY,82050,307-246-3280
Mcfall Family Drivin Trucking,608 West Cedar Street,Rawlins,WY,82301,307-321-7154
Rocky Mountain Hotshots,635 South Smith Road,Riverton,WY,82501,307-856-3000
Hardcore Concrete LLC,610 Jonah Dr,Rock Springs,WY,82901,385-204-2310
Lurz Enterprises,Pobox 263,Wamsutter,WY,82336,307-707-1084
Trinity Transport,126 W Bell,Riverton,WY,82501,307-857-7265
307 Trucking,144 Boxelder Road,Glenrock,WY,82637,307-267-7538
Rocking D Trucking,9 Timm Drive,Sheridan,WY,82801,307-684-5333
Mead Ranch Beef,1200 Spring Gulch Rd,Jackson,WY,83001,307-733-0166
Lovell Building Center,143 East Main St,Lovell,WY,82431,307-548-2231
Deep Root Trucking,138 Silver Sage # D,Evanston,WY,82930,307-679-7470
Tysdal Wheat Farm,182 Mallord Road,Newcastle,WY,82701,307-746-4387
Bruce G Hubbell Trucking,139 East 5th Street,Lovell,WY,82431,509-995-9795
Riggs Trucking,252 Hillcrest,Torrington,WY,82240,307-575-0073
Snow Creek Energy Services,135 Us Hwy 20 S,Thermopolis,WY,82443,405-283-0698
"Sep, Inc.",1085 Indian Hills Dr,Green River,WY,82935,307-707-2574
Western Wyoming Warehouse,167 Twin Spruce Lane,Afton,WY,83110,307-885-9999
Sands Trans,1603 Capitol Ave,Cheyenne,WY,82001,970-222-3465
A J And L Transport,617 Kirk Ave,Casper,WY,82601,307-797-0184
Wyo Line,4034 W 39th,Casper,WY,82604,307-349-1847
Bull Caynon Crude Carriers,1201 Dodge Ct,Cheyenne,WY,82001,307-287-6924
Wind Drinker Transport,1629 32nd Street,Cody,WY,82414,307-752-0106
Phat Foam Insulation,191 Tweed Lane #3,Lander,WY,82520,307-714-4806
Cross Land And Livestock,5561 Cr 64,Torrington,WY,82240,307-575-5133
Haul Or Nothing Hot Shot LLC,850 Trigood Dr,Casper,WY,82609,307-359-3762
Wmc Industrial Power Washing And Painting LLC,71 Zuber Road,Riverton,WY,82501,307-851-8998
4 Points,451 Big Horn,Evansville,WY,82644,307-337-2660
Allen Transport,1962 Hiway 130,Saratoga,WY,82331,307-326-5344
Asphalt Paving,421 Boswell Dr Apt 13,Laramie,WY,82070,602-718-9001
Wild Card Trucking,2401 Pine Ave,Cheyenne,WY,82007,307-514-1526
T-5 Water Service,577 N Burritt,Buffalo,WY,82834,307-684-5969
C R Schatz Co,1510 Road 13,Worland,WY,82401,307-347-2442
Rocket Sanitation,158 Valley View Av,Evanston,WY,82930,307-789-9202
Chugwater Hawk Springs Towing & Recovery,1704 Rd 28,Chugwater,WY,82210,307-422-3329
West Wind,4705 University Rd,Gillette,WY,82718,307-682-6822
Roadhogs,301 Thelma Drive # 254,Casper,WY,82609,951-704-6439
A C Hotshot,885 South Smith Rd,Riverton,WY,82501,307-856-1190
Elite Towing,118 Elm St,Pine Bluffs,WY,82082,307-245-3102
Sprys Trucking,5871 Mustang Draw,Torrington,WY,82240,307-217-1514
7l Bar,4487 Orchard Bench Rd,Basin,WY,82410,307-431-2152
Aquila Enterprises,126 Dickinson Hill Road,Wheatland,WY,82201,307-322-3428
Air Slide,2009 Fir Drive,Rock Springs,WY,82901,402-450-6986
4 Heart Cattle,215 Rd 148,Carpenter,WY,82054,307-421-4538
Tromble Land And Livestock,619 Adon Rd,Rozet,WY,82727,307-670-5316
Gps Tours,302 North 7th Street,Greybull,WY,82426,307-921-0751
Hansen'scapes,7650 Robertson Lane,Jackson,WY,83001,307-734-9161
M W Trucking,10823 Red Sky Loop,Cheyenne,WY,82009,720-207-1346
Tp & L Management Solutions,1551 Three Crowns Dr Ste 104,Casper,WY,82604,307-337-2672
High Plains Transport,1720 Carey Ave,Cheyenne,WY,82001,800-937-5966
C-c Ranch,3230 W Main St,Riverton,WY,82501,307-321-7934
R N D Trucking,2004 E Lincolnway #24,Cheyenne,WY,82001,720-281-7141
Ryan Apiary,424 Rifle Pit Rd,Beulah,WY,82712,307-283-1022
Rick Lundin Trucking,1664 N Cedar #25,Laramie,WY,82072,970-599-0486
Martin's Welding,326 Holmes,Evansville,WY,82636,307-265-1019
Where's The Fire Hotshot,7 Greve Circle,Rock Springs,WY,82901,307-389-6651
Klein Trucking,185 Main St,Jay Em,WY,82219,307-532-2456
17 Transport,876 North Lakeview Lane,Casper,WY,82604,307-472-2110
J&d Trucking,290 Roberts Rd,Lander,WY,82520,307-349-5254
High Park Transport,18 Beartooth Drive,Sheridan,WY,82801,307-752-5579
Photographic Edge,325 Evans Drive,Green River,WY,82935,130-787-5471
Silver Creek Station,563 Cooney Hills Rd,Wheatland,WY,82201,307-331-9161
Sutherland Sheep Co,1679 County Road 143,Hillsdale,WY,82060,307-547-3845
Vince Greenough Trucking,1112 Hwy 14,Banner,WY,82832,307-763-2000
Tod Korell,2775 Wyncote Rd,Lingle,WY,82223,307-575-0222
Jk Enterprise LLC,2752 Torrington Rd,Cheyenne,WY,82009,307-286-1807
Kemmerer Senior Center,105 Jc Penny Dr,Kemmerer,WY,83101,307-877-3806
3j Ranch,1498 County Rd 241,Cheyenne,WY,82009,307-421-2610
Outlaw Oilfield Services,688 Antelope Dr #17,Rock Springs,WY,82901,307-705-1733
Rim Rock Trucking,400 N 8th St,Sinclair,WY,82334,307-389-6665
Wytrans,157 W Brundage,Sheridan,WY,82801,307-751-4357
Trinity Transport,7098 Rd 47,Torrington,WY,82240,307-534-6449
Bsl Transport,4086 Summerset Dr,Burns,WY,82053,717-823-8260
Bilbrey Trucking,2735 Beaver Creek Rd,Shell,WY,82441,307-765-9319
Greener Grass Equine Transport LLC,6345 Main Street,Cheyenne,WY,82009,307-421-8656
Vogel,1425 E Murray St,Rawlins,WY,82301,701-621-1967
Skymax Trucking,19 Gas Hills Rd,Riverton,WY,82501,307-856-5511
"Cme, Inc.",2556 South Street,Wheatland,WY,82201,307-322-1803
Kb Transport,86 Emigrant Rd,Lyman,WY,82937,307-677-4103
High Country Welding LLC,266 Production Drive,Rock Springs,WY,82901,307-382-5510
Wyowindrydr,1103 Mill St,Laramie,WY,82072,307-343-3480
"Sawtooth, Inc.",161 Sauk Trail,Boulder,WY,82923,208-312-3478
Midnight Hotshot Services,2023 South Poplar Street,Casper,WY,82601,307-797-0039
Eagle Towing,1585 Berger Lane,Jackson,WY,83001,307-733-3927
Wyoming Trucking Service LLC,P.o Box 235,Mills,WY,82644,307-259-4263
Bill's Trucking,140 Escheta Lane Pob 4399,Gillette,WY,82717,307-689-7762
Trucking Daly,814 Esterbrook Rd,Douglas,WY,82633,307-351-0405
Dick's Place,2200 S 5th Avenue,Cheyenne,WY,82007,307-640-1124
Epic Trucking,517 K & P Industrial Drive,Rock Springs,WY,82901,307-382-3677
Bowman Trucking,91 East Main St,Cowley,WY,82420,307-899-1237
T&r Enterprises,222 W Farm Street,Saratoga,WY,82331,702-539-7454
Dusty Trails Trucking,4019 Summerset Drive,Burns,WY,82053,970-222-4524
D & S Trucking,1563 Road 136,Cheyenne,WY,82009,303-579-8838
Smokey Mark Hotshots,325 Ertman Rd,Newcastle,WY,82701,307-746-5869
Perfect Touch Delivery,2300 Oneil Ave,Cheyenne,WY,82001,307-256-9142
Sharps Rifle Company,1195 Highway 20-26-87,Glenrock,WY,82637,307-233-8440
R & L Transport,222 Colorado St,Medicine Bow,WY,82329,307-389-5599
Legacy Trucking,85 A Farrar Rd,Glenrock,WY,82637,307-436-8730
Mathew Edwards,221 Platte Ave,Mills,WY,82644,903-676-8505
Carmeg LLC,5935 Stonewood Dr,Cheyenne,WY,82001,307-287-1115
Road Runner Trucking,212 East Clark St,Lyman,WY,82937,307-780-6206
Future Investment Co,1865 Johnson Rd Spc 7,Casper,WY,82604,307-265-7905
W5 Trucking,4515 Rawhide Dr,Torrington,WY,82240,307-532-7414
Jw Equipment,1192 Cr 140,Hillsdale,WY,82060,307-547-2381
Cazier Ranch,6969 Bittercreek Rd,Afton,WY,83110,307-887-2008
R&r Trucking,724 S 12th,Worland,WY,82401,405-576-3186
Aft,4900 Phoenix Drive,Cheyenne,WY,82001,307-635-3273
J & E Services LLC,1013 Canyon View Ave Apt 1,Cody,WY,82414,307-578-6868
Cronks Trucking,825 Atlantic Dr,Cheyenne,WY,82001,307-369-1761
Sq Trucking,468 W 11th St,Sheridan,WY,82801,307-761-7293
D & S Transport,180 Hillcrest Ln,Rock Springs,WY,82901,307-705-1346
A 307 Resolution,420 Washington Street,Casper,WY,82601,307-251-2865
High Caliber Transportation,2341 Trojan Drive,Casper,WY,82609,307-797-6986
Rig Freight,111 Wilson St 224,Casper,WY,82601,307-751-7135
Energy Exposition,6011 S Spruce St,Casper,WY,82601,307-234-1868
Redline Contruction LLC,6723 Robin Drive,Gillette,WY,82718,202-521-1493
Terri Curtis,3808 Victoria Dr,Cheyenne,WY,82009,307-575-5005
Hws Trucking LLC,1437 West Beaver Drive,Gillette,WY,82718,307-689-0447
Wyoming Transportation,157 W Brundage Street,Sheridan,WY,82801,307-655-7600
All Star,5345 Road 66 X,Torrington,WY,82240,307-532-8643
Rail Loading Services,301 Lexington Ave,Cheyenne,WY,82007,307-369-2242
Dcs Woodworking,4000 Rangeview Drive,Cheyenne,WY,82001,307-631-8072
Brandon Vanhorn Logging,14 Prairie Wind Road,Sundance,WY,82729,307-281-0424
Parrish Trucking,1795 Newton Drive,Cheyenne,WY,82001-1649,314-305-2651
Edwards Transport LLC,88 Edwards Rd Hcr 83,Gillette,WY,82718,307-680-2747
Double Horse Shoe Trucking,5422 County Road 212,Fort Bridger,WY,82933,307-679-3316
Double Horse Shoe Trucking,5422 County Road 212,Fort Bridger,WY,82933,307-679-3316
Geis Ranch,261 Geis Road,Aladdin,WY,82710,307-896-3146
Freds Trucking,12561 Highway 26,Riverton,WY,82501,307-709-0355
The Shop,5882 Old Hwy 14,Beulah,WY,82712,307-643-2254
Jp's Delivery,1673 N Gould Street,Sheridan,WY,82801,307-640-6976
B&d Transport,2817 Henderson Dr,Cheyenne,WY,82001,307-638-8570
Kemerling Brothers,700 Sioux Avenue,Gillette,WY,82718,307-682-4819
Barnett Ranch Limited Partnership,3236 Rd 34,Greybull,WY,82426,307-765-4393
D-diamond Ranch,186 Cedar Top Road,Glendo,WY,82213,307-358-5449
Oilfield Maintenance Company,6300 Oilfield Ct,Gillette,WY,82717,307-680-7741
Crow Creek Wood Products,4050 Summerset Dr,Burns,WY,82053,307-630-3211
Larry's Excavation,6872 Nugget,Casper,WY,82609,307-262-2441
Holdbrook Trucking,4905b State Hwy 161,Torrington,WY,82240,307-216-0368
Tnt,674 W Sunnyside,Thermopolis,WY,82443,307-864-5335
Voyles Trucking,2502 Wrangler Rd,Gillette,WY,82718,307-670-8617
Shownee Trucking And Ranching,1517 E Antelope,Douglas,WY,82633,307-358-4879
"Highlander Enterprises, Inc.",2916 Indian Springs Dr,Casper,WY,82604,307-351-4136
Martinez Grinding,118 Arrowhead Road,Torrington,WY,82240,307-532-7779
J & J Land And Livestock,213 Prueit Rd,Wheatland,WY,82201,307-322-9115
Rb Enterprises,#1 Skyview Circle,Newcastle,WY,82701,307-746-4511
Norstegaard Ranch,90 Milne Valley Road,Gillette,WY,82718,307-686-7705
Mitchell's Trucking,12561 Hwy 26,Riverton,WY,82501,530-533-6698
Pilgrim,1421 Main Street,Reliance,WY,82943,814-692-4076
Quarterturn,445 Indian Paintbrush,Casper,WY,82604,307-333-4145
Rollin Z Trucking,63 Freedom Road,Gillette,WY,82716,307-660-4776
Dwyer Trucking,276 Burma Road,Riverton,WY,82501,307-240-1270
Cowboy Country Hot Shot,371 North 8 Mile Road,Casper,WY,82604,307-259-1120
D & R Excavating LLC,187 Shooting Star Dr,Bedford,WY,83112,307-883-0711
Trusted National Transport,808 County Road 238,Lyman,WY,82937,801-808-8716
Jody's Scrap And Auto Salvage,2619 Ln 34,Greybull,WY,82426,307-851-7847
K&j Welding,211 S Wheatland Hwy,Wheatland,WY,82201,307-322-9143
Rideout Express,719 Obie Sue,Worland,WY,82401,307-431-0986
Ayling Logistics,174 N King St,Jackson,WY,83001,307-669-1546
Amdahl Cattle Company,662 Park Avenue,Osage,WY,82723,307-465-2384
Fat Girl Express LLC,3808 Victoria Dr,Cheyenne,WY,82009,720-448-3917
Mountain View Recycling,6288 N Hwy 89,Evanston,WY,82930,307-679-1337
Triple V Trucking,23 Snowmobile Lane,Cora,WY,82925,307-859-8619
Willits Co,2333 Old Happy Jack Rd,Cheyenne,WY,82001-1047,307-634-2300
Tls Transport,1675 17 Mile Road,Riverton,WY,82501,307-922-2195
Hcci Transport,700 W 4th St,Gillette,WY,82716,760-608-7313
Pax-xton Transport,3513 Quail Lane,Casper,WY,82604,307-258-0426
Evergreen Custom Haying,114 Dayton East Road,Dayton,WY,82836,307-655-9355
Gladiators,388 Eden Ryepatch Road,Farson,WY,82932,307-360-7383
Gladiators,388 Eden Ryepatch Road,Farson,WY,82932,307-360-7383
Dj Industries LLC,12700 I-80 Serves Road,Cheyenne,WY,82009,307-823-3318
Iron Horse Transport,17 Stassinos Ranch Road,Rock Springs,WY,82901,307-321-8811
Couriers Of The West,512 Culbertson Ave,Worland,WY,82401,307-431-4693
Howard's Inspection,2045 Oil Dr,Casper,WY,82604-1510,307-265-6327
S&m Transport,1021 Riverbend Dr,Douglas,WY,82633,307-359-2388
Beachler's Transport,681 Upton Fairview Rd,Upton,WY,82730,307-949-0818
Victory Mountain Ministries,560 Coal Mine Road,Lander,WY,82520,307-345-3377
Double A Transport LLC,804 No Rawhide Rd,Evansville,WY,82636,307-265-0497
Abc Container,1090 County Rd 110,Cheyenne,WY,82009,307-635-8334
Perino Ranch,4310 Us 16,Newcastle,WY,82701,307-746-3555
Wyoming Tribune Eagle,702 West Lincolnway,Cheyenne,WY,82001,307-634-3361
Schofield Appliance,941 Front Street,Evanston,WY,82930,307-789-2505
Cowboy Structures,780 Dipilla Lane,Powell,WY,82435,307-202-0175
Rocky Mountain Rathole,309 North American Road Number 18,Cheyenne,WY,82007,307-638-5083
Bath Bros Ranch,935 Herrick Lane,Laramie,WY,82070,307-742-4669
Browder Ranch,120 S-bar Road,Lusk,WY,82225,307-334-3638
"Dave Newton Drilling, Inc.",1253 Lane 14,Worland,WY,82401,307-347-4877
Morgan Ranch,952 Hwy 50,Gillette,WY,82717-3211,307-682-7355
O H Company,1737 Hillcrest Dr,Sheridan,WY,82801,307-674-7045
Envisage,420 Irvine Rd,Douglas,WY,82633,307-358-0850
"Asmus Auto Sales, Inc.",510 West Valley Road,Torrington,WY,82240,307-534-2080
Whites Sprinklers & Softeners,2903 Boxwood St,Gillette,WY,82718,307-682-1534
Castle Rock Chevrolet,624 Front St,Evanston,WY,82930,307-789-2681
Baily Trucking,2805 Highway 120 ,Cody,WY,82414-9679,307-250-0699
Cm Transport,6 Greve Cir,Rock Springs,WY,82901,307-350-6687
007 Autotrans LLC,204 E 3rd Ave,Cheyenne,WY,82001,307-460-4567
12th Street Auto,2205 E 12th Street,Casper,WY,82609,307-232-1212
1776 Logistics LLC,47 S Bobcat Rd,Rolling Hills,WY,82637-9629,620-388-3252
1a & J Transportation LLC,203 E Clark St,Lyman,WY,82937,307-679-4116
1up Transport LLC,30 N Gould St Ste R,Sheridan,WY,82801,862-250-9665
2 E Couriers LLC,No 57 Shober Rd,Gillette,WY,82717,307-680-7795
Hot Shot,333 S Jones St Lot 1,Powell,WY,82435,307-250-9358
"24-7 Hot Shot Services, Inc.",99 Griffinsville Loop,Farson,WY,82932,307-273-3022
254 Heavy Haul LLC,30 N Gould St Ste 10066,Sheridan,WY,82801,509-768-2249
2bz Transport LLC,2073 Monroe St,Laramie,WY,82070,307-742-7190
2g Trucking LLC,2691 Melodi Ln,Casper,WY,82601,307-258-4576
2krt Trucking LLC,30 N Gould St Ste R,Sheridan,WY,82801,541-823-2937
3 Creek Ranch Golf Club,2800 Ranch House Circle,Jackson,WY,83001,307-732-8966
"3 Fingers Ranch, Inc.",4269 Highway 450,Newcastle,WY,82701,307-746-5987
"3 Spur Trucking, Inc.",940 W Broadway Ave,Jackson,WY,83002,307-733-8248
3 T's Construction LLC,2399a Us Hwy 26,Lingle,WY,82223,307-837-2207
307 Agricultural Transportation LLC,1209 Green Ave Apt 221,Gillette,WY,82716,307-670-2196
307 Express LLC,2410 Highway 116 2410 North Hwy 116,Upton,WY,82730-8306,307-468-2520
307 Field Services LLC,168 Cold Springs Rd #34,Douglas,WY,82633,307-331-1754
307 Hot Shot LLC,73 Cherokee Trl,Douglas,WY,82633,307-351-3585
"307, Inc.",12118 Deike Ct,Cheyenne,WY,82009,307-632-9030
"307 Resources, Inc.",360 Signal Dr,Rock Springs,WY,82901,402-741-3878
Houston Gibson,3745 Burd Rd ,Casper,WY,82604,307-351-1889
307 Transports,4263 County Road 231,Lyman,WY,82937-9006,307-780-6186
307 Trucking LLC,110 S Gould St Ste A,Sheridan,WY,82801,307-752-5123
307cowboy Country LLC,5351 West Yellowstone Hwy,Casper,WY,82604,307-441-1815
33 Mile LLC,12300 Engberg Rd,Casper,WY,82604,307-277-2750
3d Enterprises LLC,46 Daisy St,Gillette,WY,82716,307-682-7654
"3d Equipment Services, Inc.",6506 Hendrich Ct,Gillette,WY,82718,307-685-3051
3j Trucking LLC,2108 Kerper Blvd S,Cody,WY,82414-4905,775-544-7374
3m Services LLC,2230 Rosecreek Dr,Gillette,WY,82718,307-680-8698
4 Mile Truking,1563 Sussex Rd,Kaycee,WY,82639,307-738-2289
4 P Trucking LLC,2629 State Hwy 585,Sundance,WY,82729,307-283-2182
4 Patriots Transport LLC,101 Airport Road,Buffalo,WY,82834,303-906-7902
4 Up Transportation LLC,82 County Rd 15,Arlington,WY,82083,307-343-2485
4-d Fencing Company,1705 E Monroe #30,Riverton,WY,82501,307-856-7844
444 Trucking LLC,4276 Us Hwy 20,Lusk,WY,82225,307-216-0033
4e Ranch LLC,102 St Hwy 290,Meeteetse,WY,82433,307-868-2331
4e Trucking LLC,80 First North Road,Big Piney,WY,83113,307-749-6114
4g Equipment & Services LLC,531 Sussex Rd,Kaycee,WY,82639,307-751-5386
4j Trucking LLC,1069 Prairie View Rd,Cheyenne,WY,82009,307-996-6527
"4n Trucking, Inc.",855 Kansas Ave,Lovell,WY,82431,307-548-6419
"5 Star Production Services, Inc.",6300b Swandon Road,Gillette,WY,82717,307-685-6672
50points LLC,5830 E 2nd St # St,Casper,WY,82609,407-305-1314
5150 Services LLC,4417 Alison Ave,Gillette,WY,82718-6751,605-517-1876
56 Enterprise LLC,1603 Capitol Avenue,Cheyenne,WY,82001,817-550-4158
5f Vending LLC,4772 Hilltop Ave,Cheyenne,WY,82009,307-421-7703
"A-2 Field Services, Inc.",1411 Thomas Drive,Sheridan,WY,82801,307-751-1587
A-diamond Trucking LLC,639 N 4th St,Douglas,WY,82633,307-359-0795
"A-one Mobile Home Movers, Inc.",203 Rendezvous Rd,Riverton,WY,82501,307-856-2887
A-plus Services LLC,71 East Ridge Road,Sheridan,WY,82801,307-674-9764
A2b Distribution LLC,412 N Main St Ste 100,Buffalo,WY,82834,303-800-8188
A3 Services LLC,11 Youngs Creek Rd,Sheridan,WY,82801,406-757-2544
Aa Trucking LLC,49 Saulk Trail,Boulder,WY,82923,307-537-3339
Aaa Hot Shot LLC,3416 Everton Dr,Cheyenne,WY,82009,307-214-6964
Aaa Hotshotters,7600 East Lake Drive,Evansville,WY,82636,307-577-1634
Double D Hauling And Trucking,1095 Sugarview Dr Ste 500,Sheridan,WY,82801,425-551-9825
Aaa Transport LLC,5685 1/2 Hanly St,Mills,WY,82644,307-745-9264
Aaaaa Reliable Transport Logistics LLC,975 E Broadway Ave Ste E,Jackson,WY,83001,209-204-0475
Aaabco Trucking LLC,1309 Coffeen Ave Ste 1200,Sheriden,WY,82801,225-444-7897
"Aabalon Moving Services, Inc.",310 N American Rd,Cheyenne,WY,82007,307-635-2401
Aam Logistics LLC,5830 E 2nd St Ste 7000,Casper,WY,82609,818-288-1810
"Aarmco, Inc.",736 Paradise Valley Rd,Riverton,WY,82501,307-851-9824
Double A Hauling,1435 Thaxton Ct Apt C,Laramie,WY,82072,620-212-0343
Aaron Matthew Courtney,4721a Hope Rd,Torrington,WY,82240,307-338-7499
"Aaron's Water Service, Inc.",76 Eden Rye Patch Road,Farson,WY,82932,307-273-9191
"Aavon Moving & Storage, Inc.",1900 Wyott Dr,Cheyenne,WY,82007,307-634-4439
"Ab Services, Inc.",60 Haystack Butte Rd,Farson,WY,82932,307-273-5033
"Abl Services, Inc.",13126 B Highway 51,Gillette,WY,82718,307-686-0636
Above Ground Level Services LLC,1205 Alaska Dr ,Green River,WY,82935-6153,307-448-7052
Semifr8,30 North Gould St Suite R,Sheridan,WY,82801,646-806-1663
Absolute Auto LLC,402 West 1st Street,Gillette,WY,82716,307-670-0919
Accent Trucking,4350 W Mountain View Drive,Riverton,WY,82501,307-413-0051
Black Hills Sleep Center & Spas And Jobsite Services,1020 Coffeen Ave,Sheridan,WY,82801,307-672-7991
Ace Hotshot LLC,1549 South Spruce,Casper,WY,82601,605-920-3952
Ace Leasing Corp,30 N Gould St Ste 24777,Sheridan,WY,82801,307-241-5827
Ace Radiator Service,410 East Fifth Street,Sheridan,WY,82801,307-674-4773
"Ace Salvage Enterprises, Inc.",2724 Ft Sanders Dr,Laramie,WY,82070,307-745-8068
"Ace Sandblasting And Coating, Inc.",3289 Prospector Dr,Casper,WY,82604,307-237-8802
Ace Trucking LLC,700 Warren Ave,Gillette,WY,82716,307-299-5140
"Ace's Wild Truck'n, Inc.",1064 Happy Jack Rd,Cheyenne,WY,82009,307-632-6184
Acg Transport LLC,30 N Gould St Ste R,Sheridan,WY,82801,908-708-0134
"Acme Brands, Inc.orporated",1603 Capitol Ave #303,Cheyenne,WY,82001,307-701-0888
Action Cargo Corporation,666 East C Street,Casper,WY,82602,307-266-2229
Action Hotshot Service LLC,4500 Tepee St,Gillette,WY,82718,307-689-1536
"Action Plus Services, Inc.",3877 Ron Don Rd,Gillette,WY,82716,307-682-1208
Active Nation Logistics LLC,5830 E 2nd St Unit 6100,Casper,WY,82609,516-727-5066
Ada Trucking,325 No. Ingalls St. #6,Powell,WY,82435,N/A
Adam Boswell,29 Kasey Court,Alpine,WY,83128,208-240-5862
Adam Cargo LLC,1503 E 19th St,Cheyenne,WY,82001,307-224-2522
Adam Harker,1660 Blair Ave #63,Rocksprings,WY,82901,307-321-0161
Adam Warner,215 Rd148,Carpenter,WY,82054,307-214-1849
Adam West Trucking,95 Roberts Wolfley Co Rd 109,Etna,WY,83118,307-883-1331
Adaptable Logistics LLC,1201 Dalton Dr,Worland,WY,82401,307-431-8109
"Adco Welding, Inc.",991 Hwy 414 North,Mountain View,WY,82939,307-677-6644
Old Faithful Beverages,Po Box 726,Worland,WY,82401,307-347-4201
Admiral Transport Corporation,921 Pulliam,Worland,WY,82401,307-347-8266
Adobe Butte Ranch LLC,5149 Road 31,Manderson,WY,82432,307-568-9310
Adrian Johnson,806 Vista W,Sundance,WY,82729,307-283-3230
"Advance Cargo, Inc.",1660 N 4th St Ste M,Laramie,WY,82072,307-257-2112
Krypton Trailers,5192 Panorama Dr,Cheyenne,WY,82009,307-421-8224
Advanced Logistics Corp,30 N Gould St Ste 24836,Sheridan,WY,82801-6317,307-202-8368
"Advanced Piling Services, Inc.",809 S 9th Street Suite A,Douglas,WY,82633,307-358-0981
Advanced Project Solutions LLC,369 Inyan Kara Road,Moorcroft,WY,82721,386-433-6077
Advent Logistics LLC,30 N Gould St,Sheridan,WY,82801,307-222-8840
Ae Flow Testing LLC,78 Purple Sage Rd,Rock Springs,WY,82901,307-382-2884
Aerial Coalition Technologies LLC,208 East Main,Riverton,WY,82501,936-632-1925
Aeroline Group LLC,160 Fox Hills Dr,Green River,WY,82935,307-212-2841
Affordable Auto Transport LLC,907 East Lincoln St,Gillette,WY,82716,307-696-9535
Affordable Autos,2350 Coffeen Avenue,Sheridan,WY,82801,307-673-8277
Affordable Transport LLC,907 East Lincoln,Gillette,WY,82716,307-696-9535
Aftermath Trucking Services LLC,5830 E 2nd St Ste 8,Casper,WY,82609,941-584-9868
Aftershock Services LLC,904 E 9th Street Lot #41,Gillette,WY,82716,307-685-4439
"Ag Haulers, Inc.",2706 Mckinney Drive,Cheyenne,WY,82009,307-221-7434
Ag Mine Service LLC,4909 Rocky Point,Gillette,WY,82718,307-686-5029
Agape Express LLC,305 H St Apt 1,Rock Springs,WY,82901,347-993-9344
Agk Transport Corp,444 South Center St,Casper,WY,82601,786-320-2091
Agm Transport LLC,941 Skyline Dr,Douglas,WY,82633,307-351-2748
Tri-state Imaging,970 Washington Street,Afton,WY,83110-0224,307-886-5488
Agtrans LLC,30 N Gould St Ste 20162,Sheridan,WY,82801-6317,847-489-3377
Aguilar Brothers LLC,3538 Rd 10,Emblem,WY,82422,307-762-3220
"Ahrenholtz Masonry, Inc.",4089 N 3rd St,Laramie,WY,82072,307-721-8198
Ai Logistics LLC,1000 E Garfield St Apt 18,Laramie,WY,82070,307-840-8189
Aim Cargo LLC,1508 E 21st St,Cheyenne,WY,82001,307-222-8403
Air Express Transportation Corp,30 Gould St Ste R,Sheridan,WY,82801,909-485-9307
Air Ride Trucking LLC,1935 N Loop Rd,Casper,WY,82601,307-472-0882
"Aj Transport, Inc.",101 S 8 Mile Road,Casper,WY,82604,307-259-1130
Ajm Trucking LLC,89 W Burlington,Guernsey,WY,82214,307-575-0798
Ajr Cargo LLC,114 S Pierce St,Laramie,WY,82070,307-222-2310
Ajr LLC,1120 Logan Ave Ste 111,Cheyenne,WY,82001,347-939-2352
Al Just Scrappin,708 W Maple,Rawlins,WY,82301,307-321-5988
Carr Trucking,1720 Jafer Rd,Casper,WY,82601,307-377-3292
Alan Mailloux LLC,6176 Coronado Dr,Casper,WY,82609,307-277-4872
Al's Equipment And Rentals LLC,541 N Wahsington,Afton,WY,83110,307-885-3334
Alaskan Fleet LLC,210 E Custer St,Laramie,WY,82070,307-368-5730
Green Light Trucking Co,4120 Rock Spgs St,Cheyenne,WY,82001,307-778-8746
A D G Transport,461 North Hodgeman Street,Laramie,WY,82072,307-399-9858
"Albright Sand & Gravel & Redi Mix, Inc.",4619 Hwy 26,Dubois,WY,82513,307-455-2346
Dante Johnson,30 N Gould 400,Sheridan,WY,82801,312-350-6157
"Alco Corporation, Inc.",324 Robert Street,Cody,WY,82414,307-587-3301
Alexander & Reed LLC,13921 S Hwy 189/191,Bondurant,WY,82922,307-739-1533
"Alexander Excavation, Inc.",101 Garfield Street,Lander,WY,82520,307-332-4956
Alexander G Smith,833 St Hwy 11,Laramie,WY,82070,307-761-1292
Alexs Auto And Repair,419 N Federal Blvd,Riverton,WY,82501,307-856-3360
Bears Trucking,1522 Pine St,Upton,WY,82730,307-468-2300
Ace Trucking,2150 Milleg Lane Unit 6,Big Piney,WY,83113,307-360-7383
"All American Fuels Company, Inc.",#1 Utility Lane,Pinedale,WY,82941,307-367-6311
All American Hot Shot LLC,1094 Rosberg Road,Casper,WY,82604,307-265-6676
All Around Drilling LLC,22 Loucks,Story,WY,82842,307-752-8347
All Around Field Services LLC,62 E Peaceful Valley Drive,Gillette,WY,82716,307-680-0061
All Around Towing LLC,322 North Park,Casper,WY,82601,307-315-1750
All Day Or Night Trucking LLC,804 S Illinois Ave,Casper,WY,82609,307-267-7412
All Energy Solutions LLC,5044 Whitlock Road,Casper,WY,82604,307-258-5296
All In One Enterprise LLC,1309 Coffeen Ave Ste 9682,Sheridan,WY,82801,267-670-5292
All In Well Services LLC,2001 W Lakeway Rd - Ste A,Gillette,WY,82718,307-299-3523
All Money In Trucking,34 Franklin Ave Ste 687,Pinedale,WY,82941,424-333-4648
All Out Enterprises LLC,1603 Capitol Avenue #511b,Cheyenne,WY,82001,310-595-6697
"All Out Hotshot, Inc.",2505 Saltcreek Hwy,Casper,WY,82601,307-267-3085
"All Service Lysite, Inc.",30 Fremont St,Lysite,WY,82642,307-876-9331
All Trails Trailer Sales Trucking,103 Green Creek Rd,Cody,WY,82414,307-587-3342
All Transportation Services LLC,1309 Coffeen Ave Suite 4435,Sheridan,WY,82801,307-218-9642
All Trucks Energy Services LLC,2403 Clover Rd,Casper,WY,82604,202-521-1493
All Ways Towing Of Wyoming LLC,1640 W 18th St,Cheyenne,WY,82001,307-214-5605
Laramie Towing,2521 Nighthawk,Laramie,WY,82072,307-348-7424
All-in Transport LLC,40 Badger Dr,Laramie,WY,82072,307-760-7803
All-pro Energy Service,30 N Gould St Ste 2498,Sheridan,WY,82801,307-248-9191
Sybrant Insulation,632 S Washington,Casper,WY,82601,307-265-5441
Dugan Leasing Systems,175 Ehman Lane,Pinedale,WY,82941,307-367-7070
Faris Ranch,Diamond Lake Road,Arlington,WY,82083,307-703-0363
"Allen Drill Collar Service, Inc.",220 Pendell Blvd,Mills,WY,82644,307-472-4000
Rattlesnake Dirt Works,2253 W Walnut St,Wheatland,WY,82201,307-331-8911
Ace Trucking,638 Hwy 50,Gillette,WY,82718,307-686-4058
Prairie Dog Electric,106 State St,Saratoga,WY,82331,307-326-8534
Allfreight Tech LLC,1908 Reynolds St Apt F,Laramie,WY,82072,307-275-1308
Allgier Trucking LLC,7354 Mesquite Ln,Casper,WY,82604,307-629-0992
Alliance Drilling Corp,2003 East 2nd Street,Gillette,WY,82718,307-682-4715
Alliance Electric LLC,4821 E 15th St,Casper,WY,82609,307-315-6055
Allied Trans LLC,412 N Main St Ste 100,Buffalo,WY,82834,307-202-8304
Durable Medical Equipment,600 East First St Suite #600,Casper,WY,82601,307-577-8796
Westworld Logistics,30 N Gould St Bldg A,Sheridan,WY,82801,307-429-0676
"Alltrans, Inc.",1580 Martin Ln,Jackson,WY,83001,307-733-3135
Allure Logistics LLC,30 N Gould St Ste 4000,Sheridan,WY,82801,678-851-9378
Aloha Express LLC,2251 Fairview Ave,Casper,WY,82609,240-364-4433
"Alota Sand & Gravel, Inc.",501 County Road 101,Alpine,WY,83128,307-654-7558
Alp Transportation LLC,30 N Gould St Ste R,Sheridan,WY,82801,617-465-7050
Overhead Door Co Of Riverton,600 E Main,Riverton,WY,82501,307-856-2210
Alpha 2 Omega Logistics LLC,2524 B Zuni St,Cheyenne,WY,82001,678-521-0175
Alpha Dog Logistics LLC,34 Franklin Ave # 687-1492,Pinedale,WY,82941,678-525-3982
"Alpha Petroleum Service, Inc.",503 Cheyenne Dr,Rock Springs,WY,82901,307-362-9116
Alpha Trucking LLC,1315 Concerto Ln,Cheyenne,WY,82007,307-631-3881
Alpha-omega Enterprises,249 Lower South Fork Rd,Cody,WY,82414,307-272-8100
Alpine Hotshot LLC,2140 Valcaro Drive,Casper,WY,82604,307-234-7575
Alpine Logistics LLC,303 Hwy 26,Alpine,WY,83128,307-690-2686
Altcem LLC,1808 E Allison Rd,Cheyenne,WY,82007,307-247-5775
Alternative Propane LLC,9 Doe Court,Gillette,WY,82717,307-682-8789
Altitude Trucking And Logistics Company LLC,215 East 21st Ave #109,Torrington,WY,82240,307-575-4717
Alvin F Ward Construction Co And Ward's New & Used Iron,1038 Hewitt,Riverton,WY,82501,307-856-9513
Bronco Drilling,801 E 5th Ave,Torrington,WY,82240,307-532-4882
Flying M Ranch,2953 Harris Ranch Road,Jay Em,WY,82219,307-532-4491
Al's Grading,36 Picket Rd,Pavillion,WY,82523,307-856-3560
Alvin York Transportation LLC,30 N Gould St Ste 23118,Sheridan,WY,82801,818-770-0038
Alger & Sons Well Service & Construction,161 Elm St,Buffalo,WY,82834,307-684-7424
Always A Better Gear LLC,225 Yellowstone Circle,Wright,WY,82732,307-299-4456
Always On Time Transportation LLC,30 N Gould St Ste R,Sheridan,WY,82801,225-954-7771
Am-pm Services LLC,6812 Greensburgh Ave,Gillette,WY,82718,307-685-2985
Amani Transport LLC,708 S Colorado Ave,Laramie,WY,82070,307-315-8263
"Amazing Trucking, Inc.",1603 Capitol Avenue Ste 413a #d100,Cheyenne,WY,82001,N/A
Ameri Carriage LLC,312 W 2nd St Suite 1797,Casper,WY,82601,443-365-3203
American Dream Logistics LLC,1316 E 19th St Unit 4,Cheyenne,WY,82001-4866,619-541-9293
Childers Trucking,7197 W Derick Dr,Casper,WY,82604,307-237-0764
American Hauling & Logistics LLC,2262 N 6 Mile Road,Casper,WY,82604,307-337-8291
Eagle Uniform & Linen Supply,494 Main Street,Lander,WY,82520,307-332-5454
American Pinnacle Meats LLC,52 Higby Road,Sheridan,WY,82801,303-638-9541
American Pride Towing & Recovery LLC,401 S Russell#142,Douglas,WY,82633,307-351-1094
American Transportation & Piloting Services LLC,304 Bighorn Dr,Wright,WY,82732,970-441-1075
Ami Transport LLC,604 Osburn Dr,Douglas,WY,82633-3201,307-359-3876
Amitron Express LLC,5830 E 2nd St Unit 6100,Casper,WY,82609,307-855-6255
"Amwest Petroleum, Inc.",1219 Pearl,Upton,WY,82730,307-468-9238
Ka Welker Transport,5069 Red Deer Trl,Bar Nunn,WY,82601,307-461-2449
Ananse Group LLC,4225 Hope Ct,Cheyenne,WY,82001,720-295-3770
"Anchor Environmental Aaa Services, Inc.",5685 1/2 Hanly St,Mills,WY,82644,307-745-9264
Anchor Unlimited LLC,56 A County Rd 211,Riverside,WY,82325,307-329-5100
Anderson Land And Livestock LLC,240 Burma Rd,Riverton,WY,82501,307-851-7825
Anderson Transportation Services LLC,1309 Coffeen Avenue,Sheridan,WY,82801,307-310-3010
Anderson Trucking LLC,714 Old Sundance Rd,Moorcroft,WY,82721,307-756-9441
Andres & Aarons Trucking LLC,917 Skyline Dr,Douglas,WY,82633-3204,307-359-8071
Andrew Theodore Hoponick,312 Thunder Road,Laramie,WY,82070,203-641-4853
Andujo Farm LLC,5694 County Road 203,Carpenter,WY,82054,307-772-1127
Andujo Trucking LLC,1508 S Greeley Hwy #3,Cheyenne,WY,82007,307-772-1464
"Angel Carriers, Inc.",1244 Arapahoe St,Thermopolis,WY,82443,307-864-5105
A Logistics,611 Quarterhorse Dr,Bear River,WY,82930,307-789-1673
Hibbco Trucking,410 Oak Ave,Burlington,WY,82411,307-762-3489
Keep Truckin Transport,10 Paintbrush Rd,Pinebluffs,WY,82082,936-215-2645
E & A Trucking,1525 Nevada,Rawlins,WY,82301,307-324-7603
A M Trucking,115 South Yellowstone,Glendo,WY,82213,307-735-4099
Anthony Ray Brandt,Box 62,Le Barge,WY,83123,435-459-2666
Luxurious Limosinez,709 W Leisher Rd,Cheyenne,WY,82007,307-274-5911
Antrucks LLC,30 N Gould St Ste N,Sheridan,WY,82801,251-228-6339
Antwine Team Trucking LLC,136 South Wolcott St Ste 202,Casper,WY,82601,307-886-2685
Anw Transport LLC,4301 Tepee St ,Gillette,WY,82718,307-696-9017
"Anytime Recovery Company, Inc.",2303 Old Salt Creek Road,Casper,WY,82601,307-237-4710
Apex Hotshot Services LLC,5895 Overlook Way,Mills,WY,82604,307-705-6000
Apex Services LLC,247 Industrial Dr,Rock Springs,WY,82901,307-448-3939
Apex Trucking LLC,5302 Nez Perce Trl,Bar Nunn,WY,82601,307-262-1974
"Appalachian Energy Services, Inc.",3037 Yellowstone Rd,Rock Springs,WY,82901,307-362-5285
Aquarius Drilling LLC,6727 Riverview Rd,Riverton,WY,82501,307-856-7853
Aquila Transportation LLC,1414 Birch St,Casper,WY,82604,307-259-9331
Ar Trucking LLC,412 N Main St #100,Buffalo,WY,82834,307-529-4163
Ar-shar Enterprises LLC,927 Jillian Drive,Carpenter,WY,82054,307-316-0098
Architectural Specialties LLC,5846 Old Highway 14,Beulah,WY,82712,307-643-2102
Arctic Hotshot,90 S Monkey,Glenrock,WY,82637,307-436-9094
"Ard Oil Company, Inc.",168 Cold Springs Road,Douglas,WY,82633,251-989-2442
Ardent Hot Shot Service,292 S 6th Ave 292 S 6th Ave,Mills,WY,82604,307-473-7512
Areed Express LLC,721 E 13th St,Casper,WY,82601,307-222-2480
Argo,30 N Gould St Ste 3887,Sheridan,WY,82801,307-343-4300
Harsy Angus Ranch,1570 Ruger Dr,Cheyenne,WY,82007,618-303-0908
Arlington LLC,30 N Gould Ste 4000,Sheridan,WY,82801,469-537-5664
"Armstrong Crane Service, Inc.",515 W Main,Riverton,WY,82501,307-856-2484
Denny Maynard,4205 Fort Casper Road,Casper,WY,82601,307-265-4371
Fd Cattle Ranch,747 Wagon Wheel Road,Opal,WY,83124,307-877-6151
Arnoldi Trucking LLC,370 Blairtown Road,Rock Springs,WY,82901,307-362-8279
Arock Services LLC,38 Gold Buckle Place,Rozet,WY,82727,307-660-0848
Aw Trucking,4115 S Pub Place,Jackson,WY,83001,307-413-4919
Arrow Service,1002 E 2nd,Upton,WY,82730,307-468-2340
"Arrow Moving & Storage Co, Inc.",1900 Wyott Drive,Cheyenne,WY,82007,307-632-9226
Arrow Production Service LLC,113 W Laurel,Gillette,WY,82718,307-299-0730
A & C Trucking,602 Murphy Gulch Rd,Banner,WY,82832,307-737-2498
Art Express LLC,103 W Woodstock St,Newcastle,WY,82701,605-519-3518
Ao's Truckin,585 Pleasant,Mills,WY,82644,307-577-4820
Rocky Road Hauling,1159 Cortez Rd,Ralston,WY,82440,307-272-4131
Arturo Soto,211 Monroe St Lot 16,Rawlins,WY,82301,307-321-8275
As Trucking LLC,500 Long Ln,Casper,WY,82609-2406,307-472-4443
"Asbestos Technical Services, Inc.",10990 Red Sky Loop,Cheyenne,WY,82009,307-214-0904
Ascensione Enterprises LLC,30 N Gould St Ste R,Sheridan,WY,82801,307-381-0524
Ashby Equipment LLC,208 E Heath,Rawlins,WY,82301,307-321-7253
"Aspen Energy Service, Inc.",2716 Comercial Way,Rock Springs,WY,82901,307-382-6791
Aspen Trucking,553 N 1st Ave,Casper,WY,82604,307-235-4777
Aspen Wolf Transport LLC,912 Cherry St,Cheyenne,WY,82007,307-640-2659
Arsi,41 Sunset Rim,Cody,WY,82414,307-587-4450
Astnz Enterprise LLC,30 N Gould St Ste R,Sheridan,WY,82801,208-834-4444
Asu Transportation LLC,302 Bighorn Dr,Wright,WY,82732,720-800-1104
Atlas Carbon LLC,3574 N Garner Lake Rd 3574 N Garner Lake Rd ,Gillette,WY,82716-9793,307-685-7214
Atnip Well & Pump Service,19 Juniper Dr,Lander,WY,82520,307-332-2800
"Aud & Di Campground Services, Inc.",332 Meadows Drive ,Alpine,WY,83128,202-521-1493
Auggie Zierlein Trucking,549 Road 7,Powell,WY,82435,307-899-1705
Auntie Q LLC,2350 Mountain View Drive,Cody,WY,82414,307-272-1449
Austin Trucking LLC,65 Last Chance Dr,Riverton,WY,82501-8774,307-840-6106
Authority Trucking LLC,1309 Coffeen Avenue Ste 1200,Sheridan,WY,82801,714-392-7689
Auto Carriers Express LLC,30 N Gould St Ste 6697,Sheridan,WY,82801,405-283-0698
Auto Connections,2514 N Main,Sheridan,WY,82801,307-673-6699
Auto Dynamic Engine,601 East E Street,Casper,WY,82601,307-266-1308
"Auto Inn Repair, Inc.",414 Aspen Ave,Kemmerer,WY,83101,800-524-6668
"Auto Net, Inc.",906 Main St Suite D,Lander,WY,82520,307-332-8312
"Automation & Electronics, Inc.",111 Big Horn Rd,Casper,WY,82601,307-234-9311
Autonomous Group LLC,109 E 17th St Ste 25,Cheyenne,WY,82001,303-862-3020
"Autoplex, Inc.",105 Valley View Dr,Lander,WY,82520,307-335-7539
Autos Direct2u LLC,415 Miller St,Pine Bluffs,WY,82082,307-640-5405
Avercorpo LLC,30 N Gould St Ste R,Sheridan,WY,82801,954-995-2546
Avl Trucking LLC,688 Antelope Dr Lot 46,Rock Springs,WY,82901,307-256-8413
Awsome Trucking LLC,2835 Thomas Rd,Cheyenne,WY,82009,307-316-2764
"Axle Motors, Inc.",101 S Ave C #3,Cheyenne,WY,82007,307-529-0637
Axt Solutions LLC,2322 Mandan Trl,Bar Nunn,WY,82601,307-939-3633
Axt Transports,312 W 2nd St Mailbox #1455,Casper,WY,82601,385-770-9813
"Ayres & Baker Pole & Post, Inc.",1262 N Hwy 414,Mountain View,WY,82939,307-782-3170
Az Line LLC,30 N Gould St Ste R,Sheridan,WY,82801,626-342-4476
B & B Appliance And Tv,714 Central Ave,Cheyenne,WY,82007-1303,307-638-6468
"B & D Dozer & Trucking, Inc.",81 Overhil Trail,Douglas,WY,82633,307-358-5123
B & D Hotshot LLC,1586 Cr 103,Evanston,WY,82930,307-679-6203
"B & D Services, Inc.",5480 S Winland Dr,Gillette,WY,82718,307-299-4346
"B & H Rig And Tong Sales, Inc.",1300 N Queen Street,Casper,WY,82604,307-265-5566
B & L Equipment LLC,199 Murphy Gulch,Banner,WY,82832,307-737-2451
B & L Transportation Company LLC,3062 Schlager Rd,Casper,WY,82604,866-971-0959
B & M Dozer Service LLC,1715 Beaver Creek Rd,Newcastle,WY,82701,307-746-2674
B & M Transport LLC,1485 Laclede St,Sheridan,WY,82801,307-751-9245
B & S Oil Services LLC,1223 Wyoming Avenue,Upton,WY,82730,307-257-4296
"B & T, Inc.",4084 Springs Dr #3,Rock Springs,WY,82901,307-382-7030
"B & W Crane Service, Inc.",5191 Magnolia St,Casper,WY,82604,307-234-0641
"B & W Glass, Inc.",2200 E 15th St,Cheyenne,WY,82003,307-634-4331
B And S Ranch,425 8th Street,Cokeville,WY,83114,307-279-3531
B B Trucking,91011 Hwy 89,Grover,WY,83122,307-886-5265
"B D Distributing, Inc.",157 N Ferris St,Powell,WY,82435,307-754-7025
B Nelson Trucking LLC,875 Old Sundance Rd,Moorcroft,WY,82721,307-756-2097
"B R & B Services, Inc.",1406 Hugar,Cheyenne,WY,82061,307-778-3894
"B S Oilfield Services, Inc.",#6 Fryburger Rd,Green River,WY,82935,307-875-0262
B&b Bros Transports,3404 Fitzpatrick Dr,Gillette,WY,82718,307-851-0151
B&b Trucking LLC,2 Mcbride St,Centennial,WY,82055,307-399-5528
B&c Trucking LLC,5900 Cy Ave,Casper,WY,82604,307-247-6459
B&g Roustabout Service LLC,1649-b Kroe Lane,Sheridan,WY,82801,307-673-0266
B&h Trucking LLC,3703 Homestead Ln,Gillette,WY,82716,435-790-5411
Driver,2101 Upland St Bldg F1,Rocksprings,WY,82901,575-636-9342
"B&t Fabrication, Inc.",1522 N Derrick Dr,Casper,WY,82604-1886,307-265-6206
"B-n-c Trash Service, Inc.",9 Skyview Dr,Pinedale,WY,82941,307-367-4122
Bear Lodge Resort,5600 Us 14a,Dayton,WY,82836,307-752-2444
Backcountry Safaris,3910 S Lake Creek Drive Apt Sagebrush 1321,Wilson,WY,83014,307-413-4288
Bad River Transport LLC,26 Indian Paintbrush Rd,Sheridan,WY,82801,360-798-8068
Badger Enterprises LLC,3 Pinto Ln,Lander,WY,82520,307-714-1988
Badger Production Services LLC,4988 N Hwy 14-16,Gillette,WY,82716,307-685-0657
"Badger Welding, Inc.",1212 Turkey Track Ln,Gillette,WY,82716,307-685-4742
Badlands Enterprises LLC,506 Church,Gillette,WY,82717,307-686-4856
Badwater Trucking LLC,1 Hutchison Road,Riverton,WY,82501,307-857-4260
Bai-wil Transportation,30 N Gould St Ste 4231,Sheridan,WY,82801,773-234-9011
Bailey Tire & Auto Service,811 S Federal Blvd,Riverton,WY,82501,307-856-6535
"Baimbridge Transport, Inc.",620 S 4th St W,Riverton,WY,82501,307-856-2363
Baker Hydro-excavating,20 Hawthorne,Mountain View,WY,82939,307-782-7292
"Baker Livestock Transport, Inc.",404 S Maple Street,Lusk,WY,82225,307-334-4026
Baker Tubular Services,Box 2297,Casper,WY,82602,N/A
Baker-joecks LLC,164 W Laramie,Guernsey,WY,82214,307-836-2869
Bakken Gold Transport LLC,4501 Wikaka St,Gillette,WY,82718-6665,307-670-3871
Baktrucking LLC,1901 Central Ave Apt 412,Cheyenne,WY,82001,646-895-3055
Baldeo Transport LLC,30 N Gould St Ste N,Sheridan,WY,82801,509-768-2249
Bandit Enterprise LLC,1011 Energy Street,Gillette,WY,82716,307-686-6624
Bar D Bar Trucking LLC,803 Rohan Ave,Gillette,WY,82716,307-680-2979
"Bar Eleven Ranch, Inc.",388 Eden Rye Patch,Farson,WY,82932,307-273-3041
"Bar S Services, Inc.",3330 I-80 Frontage Rd,Cheyenne,WY,82009,307-637-8544
Barbara Stringer,6669 Henderson Creek,Casper,WY,82604,307-258-0592
Bard Ranch Company,619 Bordeaux Rd,Wheatland,WY,82201,307-322-3815
Barncat Transportation Services 2 LLC,1095 Sugarview Dr Ste 500,Sheridan,WY,82801-5386,307-683-0983
"Barnum, Inc.",214 N Tisdale,Buffalo,WY,82834,307-684-5365
"Barrage 8, Inc.",1712 Pioneer Ave Ste 1176 ,Cheyenne,WY,82001-4406,307-920-7821
Barrientes Transport LLC,2232 Dell Range Blvd Ste 245-3555,Cheyenne,WY,82009,206-475-9285
"Barry Jones, Inc.",1102 Monroe,Torrington,WY,82240,307-532-5042
Barten Trucking LLC,690 Black Widow Rd,Casper,WY,82604,307-247-9192
"Bartlett Oilfield Service, Inc.",210 Indian Paintbrush,Bairoil,WY,82322,307-328-1015
Hiway Super Service,200 Main,Lusk,WY,82225,307-334-3681
Basin Ice Service LLC,1950 Pyrite Rd,Casper,WY,82604,307-237-9222
"Basin Mechanical, Inc.",3429 Cottonwood Ave,Cody,WY,82414,307-527-6413
Battlestar LLC,30 N Gould St Ste N,Sheridan,WY,82801,347-727-9011
Baysinger Trucking,2201 W 4 J Road,Gillette,WY,82718,307-686-0850
Bc Frontier Logistics LLC,8652 Christensen Rd,Cheyenne,WY,82009,307-267-6050
Bcb Hauling LLC,6216 Road 41,Torrington,WY,82240,307-575-9386
"Bcn Transport, Inc.",1712 E Cedar,Rawlins,WY,82301,307-328-0000
Bd Riggs LLC,1636 Palmer Dr Apt 2,Laramie,WY,82070,402-860-5129
Bdf LLC,4570 Smokerise Rd,Casper,WY,82604,307-277-2062
Velomovers,30 N Gould St Ste 21372,Sheridan,WY,82801-6317,725-223-8528
Bds Transport LLC,209 Dove Loop,Douglas,WY,82633,701-313-0218
Be Logistics LLC,113 Commerce Dr,Evanston,WY,82930,307-789-2488
Beach Mountain Enterprises LLC,320 Meadowwood St,Pinedale,WY,82941,307-749-0977
"Beacon Freight Lines, Inc.",1303 North Star Loop,Cheyenne,WY,82009,307-635-4486
"Bear Claw Distributing, Inc.",835 Palomino Dr,Bear River Town,WY,82930,307-679-8229
Bear Creek Trucking LLC,470 Beaver Creek Rd,Sheridan,WY,82801,307-461-1967
Bear Energy Services,12118 Deike Ct,Cheyenne,WY,82009-8788,307-421-2768
Bear Mountain Home Services LLC,583 E 5th St,Sheridan,WY,82801,715-703-8507
Bear River Services LLC,5015 Almy Rd #107,Evanston,WY,82930,307-689-4602
Bearlodge Services LLC,4 Brush Hollow Dr,Hulett,WY,82720,605-641-3256
Beartrap Trucking LLC,421 N 8th #5,Worland,WY,82401,719-250-4909
Beb Trucking LLC,213 S Fork Ave,Dayton,WY,82836,303-324-8285
Bee Haulers LLC,111 Ta Bi Drive,Worland,WY,82401,307-347-8601
Beha Way LLC,34 Franklin Ave Ste 687,Pinedale,WY,82941,917-945-5336
Bella Transportation LLC,1095 Sugarview Dr Ste 500,Sheridan,WY,82801,307-275-9484
Belle Fourche Pipeline Co,455 North Poplar,Casper,WY,82602,307-266-0300
Bellew's Energy Services LLC,1101 Frisky Court,Gillette,WY,82718,307-257-2457
Belveals Body Shop & Towing,219 E Mill St,Pinedale,WY,82941,307-367-6331
D & B Trucking,1321 Sussex Rd,Kaycee,WY,82639,307-738-2535
More Play Trucking,2824 Heights,Casper,WY,82601,307-267-1981
Ben Lamp Trucking,2147 N Lance Creek Rd,Lance Creek,WY,82222,307-334-2830
Ben's Backhoe Service,1105 Adams,Douglas,WY,82633,307-358-4362
Beneterra Environmental LLC,1415 N Main Street,Sheridan,WY,82801,307-673-0607
Sage Creek Enterprises,17661 Hwy 85,Lusk,WY,82225,307-334-3357
G&m Trucking,322 South Highway 24,Hulett,WY,82720,307-670-2386
Bennett Creek Trucking,409 Tolman Rd Clark,Powell,WY,82435,307-645-3291
Bentonite Performance Minerals LLC,554 Us Hwy 212,Colony,WY,82710,307-896-2596
Bergins Repair And Towing,207 North 10th Street,Sundance,WY,82729,307-283-1750
Bermrock Transportation LLC,2114 E Hancock St Apt 108,Laramie,WY,82072,307-372-9180
Impact Mobile Home Movers,1804 Elk St Lot 236,Rock Springs,WY,82901-4028,307-371-9401
Berscheit Trucking,216 Lupine,Evanston,WY,82930,307-789-5483
Beslers Hot Oil Service LLC,106 Stafford Bend,Gillette,WY,82718,605-877-2141
"Best Out West Spraying, Inc.",150 Pineview Dr,Gillette,WY,82716,307-682-5936
Best Products LLC,1712 Pioneer Ave Ste 568,Cheyenne,WY,82001,307-201-7090
Bestul Trucking Service LLC,616 S Indiana,Hudson,WY,82515,307-332-5418
Beyond Every Vision LLC,318 Mcmicken St,Rawlins,WY,82301,919-325-7892
"Beyond Orion Refining, Inc.",1002 E Prosser Rd,Cheyenne,WY,82007,307-631-0010
Bf Logistics Co LLC,220 Evelyn St,Cheyenne,WY,82007,954-683-9403
Bfm & Family Transport LLC,30 N Gould St Ste 34183,Sheridan,WY,82801,267-844-7154
"Bgm Buildings, Inc.",5201 Lundock Court,Gillette,WY,82718,307-299-6155
Bgray Logistics LLC,1611 Crook Ave,Cheyenne,WY,82001,307-222-2316
"Bhs, Inc.",185 Country Acres Road,Riverton,WY,82501,307-856-9425
Bhs Trucking LLC,411 2nd Ave N,Greybull,WY,82426,307-899-4905
Biden Transportation,30 N Gould St Ste 2284,Sheridan,WY,82801,307-278-1826
Bieber Bros LLC,1099 Lane 7,Powell,WY,82435,307-271-1907
Big Al's Towing And Recovery LLC,6526 Us Hwy 30,Cheyenne,WY,82001,307-632-6999
"Big Bear Drilling, Inc.",2500 Dove Road,Gillette,WY,82718,307-685-0940
Big Bear Motors,139 W Yellowstone Ave,Cody,WY,82414,307-587-5414
Big Bear Towing & Repair LLC,110084 Us Highway 89,Etna,WY,83118,208-316-1960
"Big Horn Redi Mix, Inc.",101 Amoretti St,Thermopolis,WY,82443,307-864-3397
Big Country Energy Services LLC,565 Lane 9,Powell,WY,82435-0390,307-754-3910
"Big D Sanitation, Inc.",3121 Garman Road,Gillette,WY,82717,307-682-3181
Big Dawg Auto LLC,1914 E Yellowstone Hwy,Casper,WY,82601,307-265-4008
Big Dawg Enterprises LLC,7296 A Cr 45,Torrington,WY,82240,307-338-0601
Big Dawg Trucking LLC,131 N Wilson,Casper,WY,82601,307-237-7386
Big Dog Trucking LLC,14 Lakeview Dr,Kinnear,WY,82516,307-262-1341
Big E Hotshot Services,2964 Cotton Creek Place,Casper,WY,82604,307-237-0707
Big Frackin Tanks LLC,3065 Hanson St,Cheyenne,WY,82001,307-630-6752
Bigjon's Backhoe Service,3199 Reesy Rd,Cody,WY,82414,307-272-2546
Bigrey Trucking LLC,2914 Saratoga Rd,Casper,WY,82604,307-316-2375
Rocket Sanitation,2451 County Road 103 2451 County Road 103,Evanston,WY,82930,307-789-9202
B & P Water Service,1315 S Federal Blvd #19,Riverton,WY,82501,307-856-6883
Double J Ranch,1389 Skull Creek Rd,Osage,WY,82723,307-465-2268
Bill Bailey,615 W Buffalo St,Rawlins,WY,82301,307-324-2733
B & B Enterprize,2335 Sky View Ln,Laramie,WY,82070-5386,307-761-1544
Bill Eckley Trucking,6778 Riverview Rd,Riverton,WY,82501,307-856-2010
Haynes Trucking,66 Skull Creek Rd,Osage,WY,82723,307-465-2460
Mule Creek Trucking,Hwy 85 N,Lusk,WY,82225,307-663-7632
Bill Kersting,2059 Monroe,Laramie,WY,82070,307-742-0956
Bill Koenig Trucking LLC,5626 East Hwy 26,Dubois,WY,82513,307-455-2205
Long Loop Cow Co,11225 W Holland,Casper,WY,82604,307-259-1674
"Bill Nielson Trucking, Inc.",1006 Susie Court,Kemmerer,WY,83101,307-877-3823
Wild West Construction,355 Mccullough Peaks Road,Cody,WY,82414,307-587-5677
Bill Trucking LLC,415 W Spruce St,Rawlins,WY,82301,307-321-8180
Vossler Trucking,2635 Torrington Rd,Cheyenne,WY,82009,307-286-3611
Bill Wiganowsky,1775 Shadow Valley Rd,Cheyenne,WY,82009,307-631-8900
"Bill's Oilfield Service, Inc.",10560 S Hwy 59 #a,Gillette,WY,82718,307-687-1144
Van Haulin,1257 Montana Ave,Upton,WY,82730,307-468-2631
Billy Craig,5 Shelly Road,Boulder,WY,82923,307-537-4288
"Bio-action, Inc.",3556 Burd Rd,Mills,WY,82644,307-473-2246
"Birch Creek, Inc.",508 Birch Creek Lane,Cokeville,WY,83114,307-279-3670
Bird-o'donnell Construction,356 W Lyons,Laramie,WY,82072,307-745-3213
Bison Towing LLC,8000 South Highway 89,Jackson,WY,83001,307-774-6562
Bison Trucking LLC,640 S 1st St,Dubois,WY,82513,970-939-4446
J Bivens Constuction,1841 East C Street,Torrington,WY,82240,970-222-7040
Xs Dispatching,5830 E 2nd St Ste 7000 #4197,Casper,WY,82609,239-932-3294
Bjcompton Trucking LLC,736 5th Ave W Lot 4,Rock Springs,WY,82901,307-209-1211
Bk Classics Transportation LLC,368 Cook Rd,Gillette,WY,82716,307-696-9213
Bkl Logistics LLC,1309 Cofeen Avenue Ste 10766,Sheridan,WY,82801,240-393-7835
Bkr Logistics LLC,1309 Coffeen Avenue Ste 6705,Sheridan,WY,82801,201-673-7863
Bl Diesel Service -n- Repair LLC,3211 Morrison Ct,Cheyenne,WY,82001,307-640-4305
Bl Trucking LLC,332 Desert Ln,Rock Springs,WY,82901-2902,307-522-8068
"Black And White Express, Inc.",1111 E Lincolnway #111,Cheyenne,WY,82001,307-638-6095
Black Barrel LLC,613 Primrose Dr,Gillette,WY,82716,307-299-6710
Black Bear Energy LLC,275 Force Road,Gillette,WY,82716,307-686-5080
"Black Bear Oil Field Services, Inc.",591 7th St,Mountain View,WY,82939,801-558-8564
Black Bull Transportation LLC,30 N Gould St Ste 3091,Sheridan,WY,82801,307-683-6788
"Black Canyon Productions, Inc.",2938 West Loucks,Sheridan,WY,82801,307-751-4710
"Black Canyon Transport, Inc.",5176 Craigy J Drive,Cheyenne,WY,82009,605-203-0646
Black Diamond Capital LLC,301 Thelma Dr # 448,Casper,WY,82609,580-303-0368
Black Diamond Logistics LLC,23549 Old Highway 87,Kaycee,WY,82639,307-337-4215
Black Diamond Moving Co LLC,615 W Elk Ave #d,Jackson,WY,83001,307-739-8553
Black Dog Raft Company,709 Vista West Drive,Star Valley Ranch,WY,83127,307-699-4110
Black Gold Energy Service LLC,1417 Energy St,Gillette,WY,82717,307-682-7404
Black Gold Hauling LLC,2411e Fox Farm Rd,Cheyenne,WY,82007,720-341-7820
Black Hat LLC,86 Bartlett Lane,Cody,WY,82414,307-472-2110
"Black Hills Auto Salvage, Inc.",110 Old Highway 85,Newcastle,WY,82701-9422,307-746-4976
Black Hills North West Wyoming Gas Utility LLC,2320 Mountain View Dr,Cody,WY,82414,605-721-2632
"Black Hills Trucking, Inc.",455 N Poplar Street,Casper,WY,82601,307-237-9301
"Black Jack Inspection, Inc.",5354 No Hwy 89,Evanston,WY,82930,307-789-1119
Black Kat Trucking LLC,1090 S Ponderosa Lane,Worland,WY,82401,307-431-6673
"Black Knight Trucking, Inc.",2732 Lazy R Lane,Cheyenne,WY,82007,307-634-9886
Black Label Originals,3302 Crestline Cir,Gillette,WY,82716,307-299-7957
Black Mountain Tree Service LLC,3338 Road 43,Shell,WY,82441,307-765-9520
"Black Mountain Well Service, Inc.",50 Cherokee Trail,Douglas,WY,82633,307-358-4002
Black Point Energy,1200 W Richards St,Douglas,WY,82633,970-370-4831
Black Rock Mine Service LLC,1507 Energy Street,Gillette,WY,82716,307-682-1192
"Black Rock Trucking, Inc.",384 Desert Lane,Rock Springs,WY,82901,307-389-3352
Black Sheep Livestock,3890 Lane 50,Manderson,WY,82432,307-469-2323
Black Tooth Transport LLC,12 Robinson Ln ,Buffalo,WY,82834,307-620-0410
Black Water Septic Solutions,703 Washington St,Sinclair,WY,82334,307-321-9771
Black Willow Sanitation,1319 Amoretti St,Thermopolis,WY,82443,307-864-3621
"Blackburn Cattle Co, Inc.",81 Inez Road,Douglas,WY,82633,307-358-4134
"Blackhawk Crane & Rigging, Inc.",1844 Schoonover St,Gillette,WY,82718,307-682-0911
Blacksmoke Trucking,4310 Tepee Street,Gillette,WY,82718,307-670-0933
B And B Swabbing Service,59 Coulter Trail,Douglas,WY,82633,307-358-6403
"Blake Drilling, Inc.",27 Montgomery Rd,Gillette,WY,82716,307-682-7986
Blake Trucking LLC,505 E Park Ave,Riverton,WY,82501,307-709-0076
"Blakeman Propane, Inc.",4111 N Hwy 14-16,Gillette,WY,82716,307-685-7155
Blaze Trucking LLC,4543 12 Mile Road,Casper,WY,82604,307-577-5103
Bloedorn Lumber - Gillette,2809 Fern Street,Gillette,WY,82716,307-532-2151
Bloedorn Lumber Buffalo,711 North Main,Buffalo,WY,82834,307-532-2151
Bloedorn Lumber,1551 Stillwater Ave,Cheyenne,WY,82009,307-532-2151
Bloedorn Lumber Douglas,333 S Riverbend Dr,Douglas,WY,82633,307-532-2151
Bloedorn Lumber Torrington,219 W 21st Ave,Torrington,WY,82240-2703,307-532-2151
Blowin Money Logistics LLC,267 Us Highway 20,Greybull,WY,82426,775-600-5771
Bloxom Trucking LLC,903 Hannum Rd,Gillette,WY,82716,307-686-8158
Blu Sage Trucking LLC,1103 Summit Ave Lot B2,Newcastle,WY,82701,307-941-0410
Maz's House & Mobile Home Movers,420 Fremont,Lander,WY,82520,307-332-4997
Emery Septic,7 Bridger,Douglas,WY,82633,307-358-4552
Blue Diamond Trucking LLC,1509 Elk Street,Rock Springs,WY,82901,307-448-0542
Blue Nile Logistics LLC,30 N Gould St Ste R,Sheridan,WY,82801,307-318-0830
Blue Nile Transports LLC,412 N Main St Ste 100,Buffalo,WY,82834,202-906-9432
Blue Orion Transport LLC,1502 Trent Ct Apt 13,Cheyenne,WY,82009,307-757-8819
Blue Sky Communications,109 E 17th Street Suite 4480,Cheyenne,WY,82001,202-521-1493
Blue Sky Transport & Services LLC,14152 Hwy 51,Rozet,WY,82727,307-686-4015
"Blue Spur Trucking, Inc.",#10 North Mountainview Rd,Riverton,WY,82501,307-856-1445
"Blue Star Trans West, Inc.",001 Muskrat Road,Shoshoni,WY,82649,307-332-2166
Blue West Group Corp,1718 Capitol Ave,Cheyenne,WY,82001,800-706-4741
Bluestar Autologistics LLC,30 N Gould St Ste,Sheridan,WY,82801,478-796-2431
Bm Trucking LLC,110 Birch Street,Glenrock,WY,82637,307-262-3835
Bo's H20,1511 Mydland Rd#111,Sheridan,WY,82801,406-740-0888
Boar Transport LLC,709 Mylar Park Drive,Cheyenne,WY,82009,307-432-0319
"Bob Jeffres Trucking, Inc.",1114 Buffalo Ave,Riverton,WY,82501,307-856-1849
Bob Keele Trucking,44 Rabbit Ln,Riverton,WY,82501,307-856-5261
Double Y Trucking,27 E Antelope Rd,Douglas,WY,82633,307-358-2207
Allen Enterprises,1600 Monte Vista,Gillette,WY,82717,307-682-9638
Bobby Lee Barnes,963a Rifle Pit Rd,Sundance,WY,82729,816-506-6479
Wilson Trucking,205 N Tyler,Pinedale,WY,82941,719-269-1001
Bobcat Hotshot Service LLC,5345 Webb Creek Road,Casper,WY,82604,307-473-3016
"Bobcat Of The Bighorn Basin, Inc.",2424 Bighorn Ave,Cody,WY,82414,307-213-5010
Boelens' Well Service LLC,1480 Arapahoe,Thermopolis,WY,82443,307-864-3284
Bokubs Logistics Services Limited Partnership,1309 Coffeen Ave Ste 3306,Sheridan,WY,82801,307-920-1705
Boldon Diesel Service,4190 E High Way 20,Lusk,WY,82225,307-334-2180
Boles Welding,5690 West Yellowstone,Casper,WY,82604,307-266-4154
"Bolinger, Inc.",141 Hwy 16 E,Buffalo,WY,82834,307-684-5515
Boman Excavation,25515 Carson Drive,Moran,WY,83013,307-543-2916
Bonanza Distributing,15 Mountain View Road,Douglas,WY,82633,406-656-3376
Boner's Hot Shot,1240 Derington Ave,Casper,WY,82609,307-797-8544
Bonsell Excavation LLC,802 Radium Stret,Lusk,WY,82225,307-340-0696
Boosted Transport LLC,3556 Casey Ranch Rd,Cheyenne,WY,82009,209-712-8052
Booth Chopping,2796 Rd 58,Veteran,WY,82243,307-837-2187
Bootstrap Hauling LLC,1503 Spring Creek Dr,Laramie,WY,82070-4721,307-314-2084
Border's Exxon,330 W North St,Powell,WY,82435,307-754-4056
"Borderline Fencing, Inc.",3864 K2 Ranch Road,Cheyenne,WY,82009,307-286-8389
Borderline Services LLC,179 Rustic Hills Rd,Rozet,WY,82727,307-685-6995
Borgialli Ranch,1477 Hwy 450,Newcastle,WY,82701,307-746-3622
Borland Logistics Group Corporation,312 W 2nd St # 1522,Casper,WY,82601,888-506-0551
Bos Trucking LLC,506 Park View Ave,Rock Springs,WY,82901,307-362-2490
Bosco Freight LLC,1309 Coffeen Avenue Ste 10400,Sheridan,WY,82801,404-291-0482
"Boss Enterprises, Inc.",58 Tressa Road,Gillette,WY,82718,307-685-2677
Bossx LLC,"1712 Pioneer Blvd, Ste 711",Cheyenne,WY,82001,714-292-3986
"Bottom Dollar Auto, Inc.",909 Fort Street,Buffalo,WY,82834,307-684-5123
Bow And Arrow Trucking LLC,2104 Big Lost Dr,Gillette,WY,82718,307-299-8848
Bowen Transport LLC,1382 Riverbend Dr,Douglas,WY,82633,307-359-5548
"Bower Petroleum Service, Inc.",1701 Robertson Ave,Worland,WY,82401,307-347-8883
Bower Transport LLC,233 5th Ave S,Greybull,WY,82426,307-431-0771
"Box R Ranch, Inc.",552 Willow Creek Rd,Cora,WY,82925,307-367-2291
Box Z Ranch,383 Wilderness Road,Crowheart,WY,82512,307-856-9822
Boxco Ii LLC,7108 Pasadena Road,Cheyenne,WY,82009,130-763-4673
Boxy LLC,2490 Doane Ln,Casper,WY,82601-9676,307-277-3994
Southern Cross Ranch,3194 Lane 35,Greybull,WY,82426,307-202-2304
"Boydston & Franzen Well Service, Inc.",3304 Big Horn Ave,Cody,WY,82414,307-587-4851
Boys & Girls Club Of Cheyenne,1700 Snyder Ave,Cheyenne,WY,82001,307-778-6674
"Br Transfer, Inc.",13 Mickelson Ln,Big Piney,WY,83113,307-367-2066
Br Trucking LLC,5 Wayne St,Rozet,WY,82727,307-670-4165
Hurt Trucking,1811 E 22 St,Casper,WY,82601,307-234-0076
Brad Applebee And Son Trucking LLC,802 Mccormick Rd,Wamsutter,WY,82336,307-705-0924
Brad Huffaker,320 Fairview Ln,Rock Springs,WY,82901,307-690-0036
Bjw,17 Birdie Ln,Pinedale,WY,82941,307-367-2805
Action Services,1422 Warm Springs Dr,Dubois,WY,82513,307-455-3777
Tile Contractor,147 Saddle Dr,Etna,WY,83118,307-883-3601
Bradford W Gilley Jr,208 East Main Street,Riverton,WY,82501,307-240-0707
Bradko Energy,4409 Landing Strip Ln,Gillette,WY,82718,307-680-4157
Gravel Time,1804 Utah,Gillette,WY,82716,307-682-6130
Tyler Exploration,615 S 7th #5,Douglas,WY,82633,307-351-1304
Bradley R Hill,8404 Cemetery Rd ,Lingle,WY,82223-8563,307-532-0897
"Bradys Circle C Mobile Home Set-up & Transport, Inc.",3920 Park Lane,Gillette,WY,82716,307-686-7130
Brahmshire LLC,30 N Gould St Ste 24794,Sheridan,WY,82801,307-202-9120
I-80 Towing,1209 S 3rd St,Laramie,WY,82070,307-742-6329
Bf Trucking,18 Crow Avenue,Riverton,WY,82501,307-851-0731
Brandt Heavy Hauling,2310 Tunnel Road,Wheatland,WY,82201,307-322-8129
Little Bit's Services,2816 Allendale Blvd,Casper,WY,82601,307-216-0067
Larry Brannan Trucking,78 Wild Bronc,Gillette,WY,82716,307-682-5991
"Brass Ring, Inc.",121 Franklin,Superior,WY,82945,307-382-3717
Brat Trucking,404 Obie Sue,Worland,WY,82401,307-347-3957
Guinn Trucking,2210 Helen Ave,Cheyenne,WY,82007,307-637-3002
Federal Auto,605 S Federal,Riverton,WY,82501,307-857-1603
Phoenix Production Company,225 West Yellowstone Ave,Cody,WY,82414,307-587-6440
M & M Sanitation,312 Wolcott,Albin,WY,82050,307-246-3412
Buggzy Trucking,57 Bill Hall Road,Douglas,WY,82633,701-840-9057
Shoshone River Company,1215 Road 9,Lovell,WY,82431-9511,307-548-2043
Git-r-done Dirt Service,59 Kenwood Drive,Newcastle,WY,82701,307-746-2418
"Blasthole Drillers, Inc.",2500 Dove Rd,Gillette,WY,82718,307-685-0940
Bret Gardner,720 Missouri Valley,Shoshoni,WY,82649,307-856-0282
Frank Brennan Construction,13720 A Hwy 51,R0zet,WY,82727,307-682-2181
Brian Ballou,7 Willow St,Gillette,WY,82716,307-660-7343
Ppr LLC,1198 North Burritt,Buffalo,WY,82834,307-751-1940
Renegade Trucking,9th Court,Rozet,WY,82727,307-680-0460
Brian L Severson,740 County Road 146,Carpenter,WY,82054,307-649-2307
Weeg And Bradford Trucking,22988 Us Hwy 85,Newcastle,WY,82701,307-746-4286
B A D Boys Trucking,208 Haystack Butte,Farson,WY,82932,307-273-3026
Brian Locke Trucking,1100 Lane 15 Box 989,Worland,WY,82401,307-431-0540
The Weld Shop,7a Roundup,Green River,WY,82935,307-875-0196
M P Excavation LLC,2719 Yellowstone Ave,Worland,WY,82401,130-743-1869
Peterson Trucking,1726 Wasserburger Rd,Lance Creek,WY,82222,307-334-2130
2/28/1964,6108 Co Rd 223,Pine Bluffs,WY,82082,307-245-3647
Skorcz Trucking,234 Farson N 2nd Rd,Farson,WY,82932,307-350-8483
Brian Tripp,123 Ave B,Rock River,WY,82083,307-378-2000
Hoss Trucking & Services,7645 Hwy 789 South,Lander,WY,82520,307-349-6592
Brickman Express LLC,438 N Dwyer Rd,Wheatland,WY,82201,307-322-5312
Bridger Crane & Rigging LLC,Cr 123 Box 232,Pinedale,WY,82941,307-360-7552
Bridger Crane Rigging LLC,14 Dollar Bill Lane,Boulder,WY,82923,307-537-3282
Bridger Heavy Transport LLC,14 Dollar Bill Lane,Boulder,WY,82923,307-537-3282
Bridger Logistics LLC,819 S 1st St,Glenrock,WY,82637,307-298-0017
Bridger Pipeline LLC,111 S Durbin,Casper,WY,82601,307-237-9301
Briggs Hay Company LLC,125 Saunders Rd,Gillette,WY,82718-8834,405-792-6946
"Brinkerhoff, Inc.",595 Lower Prairie Dog Rd,Sheridan,WY,82801,307-750-2408
"Brisco, Inc.",1136 Redhawk Drive,Cheyenne,WY,82007,307-634-3366
Britt Lee Lohof,1050 Lane 12,Lovell,WY,82431,307-548-6492
Bro Express LLC,339 S 5th St,Douglas,WY,82633,307-223-5846
Brock Burris,971 Gray Rd,Rozet,WY,82727,307-682-3574
Broken Arrow Field Services,755 Vinta Dr,Green River,WY,82935,307-875-5524
Broken Arrow Hotshot Services LLC,239 S Wyoming Ave,Buffalo,WY,82834,307-689-1033
Broken Horn Services,42 Kumor Rd,Buffalo,WY,82834,307-684-2126
Broken Link Energy LLC,4502 Hiline Rd,Gillette,WY,82718,307-685-7293
Brokers Auto Rv Ltd,1107 E Lincolnway,Cheyenne,WY,82001,307-635-1704
Bronson Foianini,1246 County Road 238 ,Lyman,WY,82937-9077,307-786-4627
Brothers Hotshot LLC,2221 Castlerock St,Casper,WY,82601,307-689-9237
Brothers Propane LLC,201 Hwy 59,Douglas,WY,82633,307-358-4428
Brothers Squared Trucking LLC,1211 S Cedar St,Casper,WY,82601,256-542-1472
Brothers Transportation LLC,540 S Forest Dr,Casper,WY,82609-2225,307-247-2566
Brower Ranch Arabian Trucking,10226 Hwy 20/26,Shoshoni,WY,82649,307-851-5963
J Roberts Trucking,810 W Snow King Ave,Jackson,WY,83001,307-733-2352
Brown Farms LLC,705 Jackson Street,Afton,WY,83110,307-885-3353
Honeywagon Sanitation Pumping,796 Huron Street,Laramie,WY,82070,307-745-5190
Browning Sons LLC,537 Washakie Dr,Rock Springs,WY,82901,206-276-3999
Browns Badger Daylighting Service,1423 Mcmicken,Rawlins,WY,82301,307-328-0400
Broyles Transportation LLC,1704 State Highway 13,Arlington,WY,82083,307-378-2002
Bruce F Reed,340 N Windriver Dr,Douglas,WY,82633,307-351-3000
Bruce Kilmer,461 Kirtley Road,Lusk,WY,82225,307-334-2040
"Bruce Ranch, Inc.",2267 Cheyenne River Road,Newcastle,WY,82701,307-746-4513
Bruce Taylor Trucking,25 Meade Creek Road,Sheridan,WY,82801,307-751-8278
Thurgood Haygrinding,611 W Sunnyside Ln,Thermopolis,WY,82443,307-864-3523
Wolfley Coinstruction Co,Wolfley Lane Last House,Etna,WY,83118,N/A
Bryan Bruch,297 Node Road,Lusk,WY,82225,130-733-4279
Bryan Colvard,2736 Hwy 450,Newcastle,WY,82701-2972,307-746-8047
Walker Trucking,1090 Indiana Road,Cheyenne,WY,82009,307-640-6254
Bs Carriers LLC,85 S Sage Hill Rd,Gillette,WY,82718,801-937-6716
"Bs Trucking Co, Inc.",110 So Pine Street,La Barge,WY,83123,307-386-2291
Bs Trucking LLC,548 Rd 3le,Meeteetse,WY,82433,307-868-2323
Hysong Excavation,1402 Thomes,Laramie,WY,82072,307-755-0892
"Bsi Services, Inc.",680 Highway 414 East,Mountain View,WY,82939,307-782-6411
"Bt, Inc.",642 S Federal Blvd,Riverton,WY,82501,307-856-7480
Bt Trucking LLC,7099 West Barton,Casper,WY,82609,307-265-0030
"Bte Trucking, Inc.",113 Oregon Trail,Glenrock,WY,82637,307-436-5774
Btk Services LLC,1906 S Washington St,Casper,WY,82601-4856,701-621-6977
"Buck Creek Freight, Inc.",255 Wasserbuger Rd,Lusk,WY,82225,307-334-3135
B & K Trucking,235 Front St #1449,Big Piney,WY,83113,307-260-9155
Crossed Sabres Ranch,829 N Fork Hwy,Wapiti,WY,82450,307-587-3750
Buck's Trucs,536 W 6th Avenue,La Barge,WY,83123,307-386-2520
Buckaroo Motor Company LLC,501 Main,Torrington,WY,82240,307-532-1054
Buckeye Transportation LLC,209 West Yellowstone,Douglas,WY,82633,307-358-3363
"Bucking Horse Transportation, Inc.",2760 S Robertson Rd Lot 31,Casper,WY,82604,720-309-3821
"Buckner's Trucking, Inc.",375 E 3rd N,Green River,WY,82935,307-875-9028
Buckys Outdoors LLC,146 South Lincoln Ave,Pinedale,WY,82941,307-367-4561
Bud's Field Service,2336 East Richards St,Douglas,WY,82633,307-358-3085
"Buechner's, Inc.",250 China Mary Rd,Evanston,WY,82930,801-560-5654
Buffalo Creek Trucking LLC,976 Materi Rd,Upton,WY,82730,307-468-2206
"Buffalo Drilling, Inc.",145 Shell Crk Rd,Buffalo,WY,82834,307-351-5122
Buffalo Jump Wines LLC,20 Ranchette Rd,Cody,WY,82414,207-250-7653
Buffalo Jump Wines LLC,20 Ranchette Rd,Cody,WY,82414,207-250-7653
Buffalo Roam Tours LLC,3065 Blair Dr,Jackson,WY,83002,307-413-0954
Buffalo Tranzit LLC,30 N Gould Street Ste 12593,Sheridan,WY,82801,307-922-0077
"Bug, Inc.",164 Cnty Rd 101,Elk Mountain,WY,82324-0072,307-348-7003
"Bulk Proppant Management Systems, Inc.",2078 Westgate Drive,Rock Springs,WY,82901,307-362-5210
Bull Dog Leasing And Hotshot LLC,412 1st Street West,Douglas,WY,82633,307-298-2121
"Bull Mountain Transfer, Inc.",219 E Fourth,Marbleton,WY,83113,307-276-3610
Bull Transport Corp,30 N Gould St Ste N,Sheridan,WY,82801,503-320-1798
"Bulldog, Inc.",28 N Pineview Dr,Gillette,WY,82716,307-682-0962
Bulldog Inspection LLC,325 Front St Apt 313,Evanston,WY,82930-3633,801-831-0444
Bulldog Trucking LLC,5 Dale Rd,Boulder,WY,82923,307-231-2076
"Bulldogger Services, Inc.",22 Bulldogger Dr,Parkman,WY,82838,307-751-4881
Bully Trucking LLC,537 Twin Butte Dr,Lyman,WY,82937,307-677-5432
Bumpa's,2435 S Larkspur,Casper,WY,82604,307-258-3496
"Burgener Trucking, Inc.",4636 S 3rd Street,Laramie,WY,82070,970-482-4888
Burgenics Trucking & Logistics LLC,4160 E 2nd St # 1216,Casper,WY,82609,213-460-5017
Burgess Rig Repair,7776 W Yellowstone Hwy,Casper,WY,82604,307-232-0770
Binning Construction,35 Bd Blvd,Pinedale,WY,82941,307-367-4401
Darren Berlinger,1335 North 7th Street Lot#1,Greybull,WY,82426,307-765-2014
Burnetts Hot Oil Services LLC,64 Dedman Gulch,Lander,WY,82520,202-521-1493
Bushong Property Services,7970 S Hwy 89,Jackson,WY,83001,307-739-1243
Busters Hay Grinding Services LLC,2368 Hwy 20,Greybull,WY,82426,307-765-2563
Bustin Butte Mobile Home Service LLC,2713 Cloud Ct,Rock Springs,WY,82901,307-871-8610
Butler's Auto Salvage,5345 Road 66x,Torrington,WY,82240,307-532-8643
Bw Logistics LLC,1443 Turquoise Dr,Cheyenne,WY,82009,307-258-1829
Bw Oil LLC,1210 Wagner Road,Moorcroft,WY,82721,763-746-9420
Bwh Services LLC,1214 Shipwheel Lane,Gillette,WY,82716,307-257-9922
Bwt LLC,50 Dalley Rd,Riverton,WY,82501,307-856-0054
"By The Way Transport, Inc.",109 E 17th Street Suite 4,Cheyenne,WY,82001,847-321-5647
"By The Wayside Transport, Inc.",30 N Gould St Suite 24610,Sheridan,WY,82801,360-775-9124
C & A Transport LLC,122 Skyline St,Pinedale,WY,82941,952-297-2249
C & B Trucking LLC,347 E 7th,Sheridan,WY,82801,307-655-5842
"C & H Well Servicing, Inc.",6480 Swanson Rd,Gillette,WY,82718-6925,307-682-1126
C & J Hauling LLC,109 E 17th Street Suite 460,Cheyenne,WY,82001,602-525-5684
"C & J Logistics, Inc.",187 Mesa Dr,Rock Springs,WY,82901,307-354-6496
"C & K Equipment Sales, Inc.",1851 Commercial Ave,Sheridan,WY,82801-8537,307-674-6405
C & L Well Service,22 Constitution Dr,Gillette,WY,82717,307-686-0352
Cory Jenkins,220 Barberry Way,Thayne,WY,83127,307-883-5789
C & T Tools LLC,604 S 4th St,Sundance,WY,82729,605-430-7375
"C & Y Transportation Co, Inc.",10000 East Hwy 20-26,Casper,WY,82609,307-266-1667
C A B Trucking LLC,127 Navajo Cir,Evanston,WY,82930,307-472-2110
C And R Distributors,9 Butch Cassidy St,Sundance,WY,82729,307-290-2193
C And T Tech LLC,2073 North Second Street,Lander,WY,82520,307-851-4968
"C Anderson Son Trucking, Inc.",1971 Yellowstone Rd,Rock Springs,WY,82901,307-362-7164
C Arrow Backhoe Services,777 Highway 237,Afton,WY,83110,307-884-3088
C Bar C Excavation LLC,700 Shoshone Ave Unit 13,Green River,WY,82935,307-875-7072
C Bar H Enterprise LLC,315 W Jefferson Rd,Cheyenne,WY,82007,307-631-7391
C Bar K Petroleum Services LLC Ii,60 Industrial Ln,Sheridan,WY,82801,307-672-9035
"C D M Trucking, Inc.",928 Laramie Street,Rock Springs,WY,82901,307-382-7738
C Harns Trucking LLC,64 Eden East First South,Eden,WY,82932,307-273-5290
"C House Farms, Inc.",4682 Road 19,Yoder,WY,82244,307-532-4886
C Laramore Transport LLC,460 East Brundage Ln,Sheridan,WY,82801,307-751-6540
C Lazy B Trucking LLC,7090 Rd 47f,Torrington,WY,82240,307-286-8995
C Roberts Trucking LLC,738 Daniel Merna Rd,Daniel,WY,83115,307-859-8367
C S Brashear Trucking LLC,1309 Coffeen Ave Ste 3848,Shebidan,WY,82801,859-496-9622
C Squared Trucking LLC,64 Eden East 1st South Rd,Eden,WY,82932,307-273-5290
"C W Waste Services, Inc.",855 Gov Valley Rd,Sundance,WY,82729,307-283-3403
Cb Trucking,534 1st Street,Mountain View,WY,82939,307-782-6565
C&c Tire And Auto LLC,103 N Gould,Sheridan,WY,82801,307-672-5114
C&c Transport LLC,6500 Riverbend Rd,Cheyenne,WY,82001,303-718-7998
Roustabaut,50 Reliance Road Lot 13,Rock Springs,WY,82901,307-705-3050
C&g Trucking Services LLC,222 Gateway Blvd Lot 65,Rock Springs,WY,82901,307-382-2124
C-4 Trucking LLC,170 Chalk Buttes Rd Lot 3,Douglas,WY,82633,307-350-2018
C2mr Trucking LLC,7413 Willshire Blvd,Cheyenne,WY,82009,307-638-6537
Ca Backhoe Service LLC,832 7th St,Rawlins,WY,82301-4703,307-321-1525
"Ca Transportation, Inc.",5900 East Yellowstone,Casper,WY,82601,307-577-8771
"Caballos, Inc.",6170 Rd 72 Unit A,Torrington,WY,82240,303-828-4146
Cactus Hill Corporation,3495 Road 12,Greybull,WY,82426,307-762-3547
"Cadence Express, Inc.",581 E Main St,Riverton,WY,82501,789-560-1212
Cadlrock Mining LLC,720 Cold Spring Rd,Douglas,WY,82633,307-359-1107
Cal Lee Tharp,5280 Rd 48,Hyattville,WY,82428,307-469-2393
C & R Works,1002 Lariat Drive,Etna,WY,83118-0284,307-883-0008
"Calcon, Inc.",9561 Hwy 89 North,Evanston,WY,82930,307-789-3707
Caleb Skinner LLC,109 E 17th St Ste 63,Cheyenne,WY,82001,503-781-0925
"Call Ready Mix & Lumber, Inc.",786 N Washington,Afton,WY,83110,307-885-2255
Calm Palms Transport LLC,172 Center St Suite 202 #2869,Jackson,WY,83001,813-314-7673
Calvin Barnes,Star Rt 8228 Hwy 314,Kemmerer,WY,83101,307-386-2325
"Cam Trucking, Inc.",427 East Miller,Rawlins,WY,82301,307-321-8148
Poor Dog Trucking,319 S Pine,Pinedale,WY,82941,307-367-3767
Camblin Trucking LLC,4248-2 Hwy 50,Gillette,WY,82718,307-464-0045
Tonys Towing,1104 Sioux Ave,Gillette,WY,82718,307-660-5207
Crc Trucking,5 Longbow Ln,Pinedale,WY,82941,307-367-4178
"Can-can Trucking, Inc.",25151 S Old Us Hwy 87,Kaycee,WY,82639,307-738-2630
"Canman Recycling, Inc.",722 West 22nd Street,Cheyenne,WY,82001,307-635-5891
Canyon Creek Contractors LLC,9 Plains Dr,Sheridan,WY,82801,307-655-5066
Canyon Creek Energy Services,1485 Laclede St,Sheridan,WY,82801,307-751-4031
Transporting Moble Homes,1580 Hilltop Dr Suite B,Gillette,WY,82716,307-686-7506
Amangani,1535 N East Butte Rd,Jackson,WY,83001,307-734-7333
Canyon View Excavation LLC,3200 Road 36,Greybull,WY,82426,307-765-9411
"Capital Business Systems, Inc.",2000 Westland Road,Cheyenne,WY,82001,307-637-6767
"Capital Lumber Company, Inc.",1222 Dunn Ave,Cheyenne,WY,82001,307-634-4471
"Capital Moving Services, Inc.",306 N American Rd,Cheyenne,WY,82007,307-632-7633
Capson Trucking LLC,659 St Hwy 230,Laramie,WY,82070,307-399-9441
Captrans LLC,412 N Main St Ste 100,Buffalo,WY,82834,307-529-0738
"Car Drop, Inc.",4000 S Poplar St Ste 2,Casper,WY,82601,518-605-6762
Car Go Transport LLC,505 Williams Street Space No 184,Cheyenne,WY,82007,307-638-4493
"Carbon Power & Light, Inc.",100 East Willow Street,Saratoga,WY,82331-0579,307-326-5206
Carefree Trucking LLC,46 Daisy Street,Gillette,WY,82716,307-686-4814
Cargo Gtrucking LLC,604 Osburn Dr,Douglas,WY,82633,307-223-1385
Cargo National LLC,30 N Gould St Ste 24574,Sheridan,WY,82801,213-999-9609
44 Livestock,619 Mcfarland,Encampment,WY,82325,307-327-5272
Black Ranch,157 Jack Smith Rd,Rozet,WY,82727,307-686-1695
Hofer Oilfield Service,20 Straight & Narrow Dr,Evanston,WY,82930,307-783-4705
C L Ayers Trucking,601 E 6th St,Pine Bluffs,WY,82082,307-245-3764
"Carl's Backhoe & Well Service, Inc.",1575 E Monroe Ave #72,Riverton,WY,82501,307-856-0466
Buckinghorse Mobile Home Transport,1575 E Monroe Ave #72,Riverton,WY,82501,307-856-0466
Carlin Enterprises LLC,904 E 9th Lot #40,Gillette,WY,82716,307-686-6566
Carnahan Trucking,8820 Road 15,Ft Laramie,WY,82212,307-837-2917
Carpenter Transportation,13455 S Bryan Flat Rd,Jackson,WY,83001,307-733-2653
Carr Coatings LLC,425 Pennsylvania Ave,Lovell,WY,82431,605-641-8283
Carrera Services,7 Bluebill Dr.,Sheridan,WY,82801,307-672-5454
"Carrizales Equipment, Inc.",739 Lane 39,Burlington,WY,82411,307-762-3569
Carson R Aanenson,3215 Ft Sanders Rd,Laramie,WY,82070,307-760-4110
Cascade Services LLC,442 Sunlight Drive,Powell,WY,82435,307-202-2428
Casey Dickau Trucking,916 Highway 93,Douglas,WY,82633,307-351-1978
Ceg Trucking,1310 10th St,Rock Springs,WY,82901,307-705-7147
Lone Wolf Trucking,410 E 7th St,Marbleton,WY,83113,307-276-5351
Longhorn Transport,44 Rocky Ford Rd,Sundance,WY,82729,307-281-2777
Casey Tenke Trucking LLC,1101 State Hwy 585,Sundance,WY,82729,307-283-1014
"Casper Area Transportation Coalition, Inc.",1715 E 4th St,Casper,WY,82601,307-265-1313
"Casper Electric, Inc.",3150 E Yellowstone Hwy,Casper,WY,82609,N/A
"Casper Fire Extinguisher Service, Inc.",435 N Mckinley St,Casper,WY,82601,307-237-8438
Casper Transport LLC,437 10th Street,Evanston,WY,82930,540-305-1590
Casper Winair Company,1655 East E St,Casper,WY,82601,307-577-0180
Mls Trucking,202 Mandan Ln,Cheyenne,WY,82009,307-432-6906
Castiw Trucking LLC,1221 S Cherry St,Casper,WY,82604,307-222-9404
Castle Rock Towing,1046 S Washington St,Afton,WY,83110,307-885-5337
"Castleman Truck Inspection, Inc.",6759 Coal Road,Casper,WY,82604,307-267-6339
"Cathedral Energy Services, Inc.",1949 Pyrite Rd,Casper,WY,82604,307-473-8087
Cato Soldier Creek Ranch LLC,782 Soldier Creek Rd,Sheridan,WY,82801,307-673-8898
Cavalry Logistics LLC,1925 S Oakcrest Ave,Casper,WY,82601-4753,863-662-1454
"Cavalry Water Service, Inc.",1434 N Grass Creek Rd,Casper,WY,82604,307-277-1280
"Caylor & Genz Earthmovers, Inc.",6826 Road 53,Torrington,WY,82240,307-532-5350
"Cbm Pumps And Services, Inc.",1451 Business Circle,Gillette,WY,82717,307-682-0999
"Cbs Transportation, Inc.",516 Washington St,Afton,WY,83110,307-885-9896
Cc Transload LLC,388 Douglas Dr,Rock Springs,WY,82901,307-382-2477
"Cc&t, Inc.",10749 Hwy 789,Riverton,WY,82501,307-856-0071
Ccc Enterprises LLC,2217 E Cedar St,Rawlins,WY,82301,307-321-1513
Cdg LLC,65 Del Creek Rd,Etna,WY,83118,307-883-6116
Cdi Cargo LLC,503 S Emerson Ave,Gillette,WY,82716,307-387-3130
C Can Rentals,1825 Pyrite Road,Casper,WY,82604,307-577-6000
Dick's Bison Wrecker,3900 Wolf Crk Rd,Casper,WY,82604,307-235-6884
Cedar Canyon Enterprises LLC,1400 Dewar Drrive Suite 203,Rock Springs,WY,82901,307-389-1557
Cell Rell Enterprise LLC,1603 Capitol Ave Ste 413,Cheyenne,WY,82001-4562,470-300-0124
Celtic Transport LLC,3292 Rd 42,Shell,WY,82441,307-213-4141
"Center Street Service, Inc.",86 N Center St,Rock Springs,WY,82901,307-362-6901
Centrad Healthcare LLC,419 North Fenway,Casper,WY,82601,877-614-7770
Central Fleet LLC,30 N Gould St Ste 12520,Sheridan,WY,82801,307-331-2913
Central Pride Transport,17 N Red Fox Rd,Wheatland,WY,82201,N/A
Bobcat Of Gillette,4250 S Douglas Hwy,Gillette,WY,82718,307-235-6685
Central Wyoming Transportation,811 S Federal Blvd,Riverton,WY,82501,307-856-1275
Central Wyoming Truck Sales,6360 E Yellowstone,Casper,WY,82636,307-265-2706
"Centur, Inc. Exp",300 W Carlson St Suite 304,Cheyenne,WY,82009,773-501-7727
"Cg Services, Inc.",1603 Capitol Ave Ste 512,Cheyenne,WY,82001,303-288-8685
Ch Brown Co LLC,20 West Frontage Road,Wheatland,WY,82201,307-322-2545
Ch Shipping LLC,56 Trail Creek Dr,Moorcroft,WY,82721,307-761-5206
Ch4 Consulting Service LLC,2000 Airport Rd,Gillette,WY,82717,307-682-9094
Burch Rodeo,303 Or Rd,Gillette,WY,82717,307-682-3149
Chad Gardner Transport,68 Sand Gulch Rd,Shoshoni,WY,82649,307-856-1552
Cws Trucking,1214 Wagonhammer Ln,Gillette,WY,82716,307-689-4713
Verschoor's Trucking,865 N 2nd St,Lander,WY,82520,307-332-5921
Champ LLC,515 Albin Street,Albin,WY,82050,307-246-3581
"Champion Logistics, Inc.",1461 Pennsylvania #2,Casper,WY,82609,307-253-9130
Crooked K Cattle,4965a Rd 51,Hyattville,WY,82428,307-469-2222
Chant Ranches LLC,853 Cowpoke,Baggs,WY,82321-0601,307-380-8128
"Chapman Trucking Co, Inc.",2161 Coleman Circle,Casper,WY,82601,307-472-7000
Humphreys Truck & Backhoe Service,2400 Big Horn Ave,Worland,WY,82401,307-347-8539
All Trails West,1701 Salsbury Ave,Cody,WY,82414,406-248-8955
Powder River Excavating,1288 Cr 145,Burns,WY,82053,307-630-4696
Mountain States Oilfield Service LLC,103 Hillside Dr,Evanston,WY,82931,307-789-1164
Buell Trucking,410 N Lobban,Buffalo,WY,82834,307-684-7788
Charles Freeman,11 Monte Vista Rd,Cora,WY,82925,580-421-5979
C & C Sets,373 N Pershing,Mills,WY,82644,307-267-1148
Webb Exploration Co,300 Chalk Buttes Rd,Douglas,WY,82633,307-358-3642
Moore Services,83 Deer Run Rd,Gillette,WY,82717,307-682-3074
C & C Welding LLC,243 Blackburn St,Cody,WY,82414,307-527-5280
C-ray Trucking,98 Foothills Cir ,Gillette,WY,82716,307-299-4597
Charles Scott,500 Lomac #21,Moorcroft,WY,82721,307-290-1129
Stevenson Trucking,719 Grant St,Upton,WY,82730,307-468-2510
Rourke Ranch,116a Four Corners Rd,Gillette,WY,82718,307-689-3997
Lawrence Excavation,877 Canell,Powell,WY,82435,307-899-0435
Charlie's Water Service,1135 Washington,Douglas,WY,82633,307-358-5755
Charlies Hot Shot Service LLC,166 Foothill Blvd Space 70,Rock Springs,WY,82901,307-362-6429
Charter Place LLC,300 North Nelson,Kirby,WY,82430,307-864-4187
Smokin Gun Transports,243 S Wheatland Hwy,Wheatland,WY,82201,307-331-1688
Chaulks Hot Shot Service LLC,1001 Sublet Drive,Kemmerer,WY,83101,307-359-3394
Chem-frac,372 Crescent Dr,Casper,WY,82604,307-235-3097
"Chemical Tracers, Inc.",1814 Steele Street,Laramie,WY,82070,307-742-0418
Chet Jackson Trucking,209 S Main St,Burns,WY,82053,307-547-3797
Chestnut Bros,2640 Commercial Way,Rock Spring,WY,82901,307-389-7156
Cc Trucking,905 W Main,Saratoga,WY,82331,307-326-5475
"Cheyenne Beverage, Inc.",1133 W 27th St,Cheyenne,WY,82001,307-638-3357
Cheyenne Outlaw LLC,7002 North Milliron Road,Cheyenne,WY,82009,866-226-4002
Cheyenne Winnelson Co,800 W 23rd St,Cheyenne,WY,82001,307-634-5867
Child Ranch LLC,3501 Hwy 30,Cokeville,WY,83114,307-279-3614
Children's Learning Center,245 Gill Street,Jacskon,WY,83001,307-733-1616
Childress Oil Field Services LLC,2052 W Mariposa Pkwy,Wheatland,WY,82201,307-331-5598
Chill Out LLC,27 Satanka,Laramie,WY,82070,307-742-4967
"Choam Transport, Inc.",615 S Antelope Creek Rd,Wheatland,WY,82201,307-331-3577
"Chocolate Covered Trucking, Inc.",3566 Agate Road,Cheyenne,WY,82009,970-396-8773
Choose The Right Transport LLC,1517 S Flat Rd,Worland,WY,82401,307-459-6499
Bolken Farms,102 South 8th Street,Basin,WY,82410,307-674-6748
Ashby Farms,1741 Lane 11,Powell,WY,82435,307-254-1257
M & T Recycling,848 E 2nd Ave,Torrington,WY,82240,307-532-2501
Chris Logistics LLC,43 Industrail Site Ext Rd,Pinedale,WY,82941,307-749-0443
Skyline Ranch,99 Thorsen Rd,Shoshoni,WY,82649,307-856-1808
Cds Excavation,815 Main Street,Dayton,WY,82836,307-655-9837
D-k Hauling,916 W 14th St,Casper,WY,82601,307-259-0808
C & J Enterprise,37 Moran Ranch Rd,Rozet,WY,82727,307-682-0318
"Christensen Ranch, Inc.",151 Walgreen Rd,Newcastle,WY,82701,307-746-2421
Culley Trucking,27 Bill Budd Rd,Big Piney,WY,83113,208-431-6808
Crowheart Transport,928 8th St,Rock Springs,WY,82901,307-371-8717
Huelle Ag,34 Sidewinder Rd,Riverton,WY,82501,307-850-9422
Knigge Trucking,8 Cottonwood Dr ,Shoshoni,WY,82649-8702,307-876-2345
Skeet Trucking,2264 Cnty Rd 144,Hillsdale,WY,82060,307-547-3949
Deluxe Harley Davidson-buell,3300 Conestoga Dr,Casper,WY,82718,307-687-2001
Martin Ranch,1187 Missouri Valley Rd,Riverton,WY,82501,307-850-2810
Chuck R Wood,3201 Echeta Rd # 35,Gillette,WY,82716,307-682-7099
"Chugwater Express, Inc.",503 Angie St,Cheyenne,WY,82007,307-778-7774
Cimarron Energy Logistics,1712 Pioneer Ave Suite 101,Cheyenne,WY,82001,404-424-9109
Circle 12 T LLC,190 Dirt Road,Riverton,WY,82501,307-856-4938
"Circle Nine Cattle Company, Inc.",704 Mush Creek Rd,Newcastle,WY,82701-9541,307-746-4071
Circle R LLC,14622 50 Hwy 85,Lusk,WY,82225,307-334-3103
"Circle S Aviation, Inc.",6054 Cr 211,Pine Bluffs,WY,82082,307-220-0806
Circle T Transport LLC,726 Bishop Rd,Rozet,WY,82727,307-682-1240
Circle W Services LLC,6601 Hendrich Ct,Gillette,WY,82718,307-660-3482
Cj LLC,2064 Skyview St,Rock Springs,WY,82901,307-705-1410
Cj Phoenix Logistics Corp,1117 Dally Ridge Rd Apt 3,Laramie,WY,82070,307-399-4632
Cj Trucking LLC,30 N Gould St Ste R,Sheridan,WY,82801,646-526-4257
Ck Trucking LLC,316 Park Ave,Lovell,WY,82431,307-272-5313
"Cl Well Service, Inc.",1001 Seiloff,Rawlins,WY,82301,307-328-1093
Clark Cattle Company LLC,16167 Us Highway 30,Cokeville,WY,83114,307-279-3479
Clarks Meat House,101 W Fremont Ave,Riverton,WY,82501-3443,307-856-9700
"Clary Trucking, Inc.orporated",4116 Charles St,Cheyenne,WY,82001,307-421-2167
Classic Limo,401 S Emerson Ave,Gillette,WY,82716-3838,307-689-4398
Classic LLC,915 S 11th St,Sundance,WY,82729,307-283-3197
"Claude's Welding Service, Inc.",Gen Delivery,Gillette,WY,82717,307-682-7434
Claw LLC,698 Kiowa Av,Gillette,WY,82718,307-686-2407
Clay Grandstaff,900 State Wy Hwy 151,Lagrange,WY,82221,307-532-6005
Tiger's Bobcat Service,2 Mcneil Lane,Cody,WY,82414,307-527-6124
Taylor Excavating,650 E Hansen,Jackson,WY,83001,307-733-3428
Clayton Thoman Trucking LLC,65 Jones Drive,La Barge,WY,83123,307-390-7032
"Clear Creek Well Service, Inc.",160 Fir St,Buffalo,WY,82834,307-684-7423
Cli Services,76 Waldron Rd,Baggs,WY,82321,435-828-8147
Tongue River Honey,309 Dayton St,Ranchester,WY,82839,307-655-9659
Hoopes Sheep Shearing,55 Hayter Avenue,Ft Bridger,WY,82933,307-782-6130
Cliffview Mhp,2301 Garnet Ave,Riverton,WY,82501,307-856-8525
Cline Livestock LLC,37 Halfway Lane,Ranchester,WY,82839,307-655-9850
Centennial Contractors,260 4th,Laramie,WY,82070,970-219-6673
Stanhope Trucking,1008 Missouri Valley Road,Riverton,WY,82501,775-848-2029
Clint S Anderson,610 Rd 1,Deaver,WY,82421,541-410-1664
Bromley & Sons Commercial Weed Spraying,311 West 8th Street,Encampment,WY,82325,307-327-5138
Clinton R Saxton,105 Independence Dr,Evanston,WY,82930,307-789-2524
Cloud Peak Energy,22 Mi Se Of Gillette,Gillette,WY,82717,307-685-4698
"Cloud Peak Express, Inc.",646 S Desmet,Buffalo,WY,82834,307-684-2638
Cloud Peak Logistics LLC,5311 Coffeen Ave,Sheridan,WY,82801,307-672-6651
"Cls Transport Service, Inc.",1105 N Jeffers Dr,Rawlins,WY,82301,307-324-3094
Cm Custom Hauling LLC,2201 South 15th Street Lot 2,Laramie,WY,82070,307-760-5408
Cmc Transport,1712 Pioneer Avenue,Cheyenne,WY,82001,136-063-7456
Cmc Trucking LLC,276 Highway 230 #58,Laramie,WY,82070,307-460-1286
Cn Bar Trucking LLC,8 Sugarloaf Ct,Sundance,WY,82729,307-281-2776
Cn4u LLC,30 N Gould St Apt 7994,Sheridan,WY,82801,307-429-2509
Cnc Trucking LLC,5105 Rourke Ave,Gillette,WY,82718,307-686-0878
Cnw National LLC,"201 Murray Rd, Cheyenne, Wy 82007",Cheyenne,WY,82007,786-261-8997
Cnz Corporation,559 Beaver Creek Rd,Sheridan,WY,82801,307-751-3473
"Co-metco, Inc.",724 Sherman,Upton,WY,82730,605-642-7755
Coal Pony Trucking-LLC,815 Calhoun Road,Opal,WY,83124,307-723-0099
Coast 2 Coast Transportation,1712 Pioneer Ave,Cheyenne,WY,82001,786-448-0899
Coast2coast Trucking LLC,30 N Gould St Ste N,Sheridan,WY,82801,509-768-2249
Cobra Line LLC,2239 Dry Ranch Rd,Sheridan,WY,82801,970-584-4464
Cobra Sc Transport LLC,1200 Larkspur Ln,Gillette,WY,82716-2013,307-363-3164
"Cobra Trucking, Inc.",7094 West Zero Road,Casper,WY,82604,307-473-1336
Cody A Easum,1226 Rd 5,Powell,WY,82435,307-202-0769
"Cody Ag Service, Inc.",302 Lane 17,Cody,WY,82414,307-754-3170
Cody Branigan,3086 Road 162,Albin,WY,82050,307-246-3347
Cody Kremers,1872a 28 Rd,Lusk,WY,82225,307-334-0121
C Hayworth Trucking,484 1/2 Left Creek Road,Carlile,WY,82721,307-756-3863
"Cody Laboratories, Inc.",601 Yellowstone Ave,Cody,WY,82414,202-521-1493
Martin Trucking,68 Sand Gulch Rd,Shoshoni,WY,82649,307-851-6034
"Cody Paint And Body, Inc.",2422 Mountain View Drive,Cody,WY,82414,307-587-4921
Fred Coleman,2071 Fir Drive,Rock Springs,WY,82901,307-382-3158
Coleman Electrical Services LLC,2809 Dogwood Avenue,Gillette,WY,82718,307-686-5775
Coleman Field Services LLC,23 Harvard Drive,Gillette,WY,82716,307-682-3087
"Coles Construction Service, Inc.",402 Industrial Park Dr,Gillette,WY,82716,307-682-3005
Blue Sky Trucking,661 Hwy 132,Ethete,WY,82520,307-856-7831
Shewolf Trucking,525 Agate,Pinedale,WY,82941,775-340-4016
Collibra Express LLC,5830 E 2nd St Ste 7000,Casper,WY,82609,234-348-2317
Collingwood Construction,801 North Third Street,Greybull,WY,82426,307-765-4568
"Collins Backhoe & Water, Inc.",1005 Garnet St,Kemmerer,WY,83101,307-828-3088
"Collins Mail Services, Inc.",725 E 6th Street,Sheridan,WY,82801,307-672-5518
"Collins Trucking, Inc.",2801 N Hwy 14-16,Gillette,WY,82716,406-436-2484
"Colorado International Transport, Inc.",310 N American Rd,Cheyenne,WY,82007,406-455-8605
Redwater Welding,245 Farrall Rd,Sundance,WY,82729,307-283-2256
Colters Ridge Trucking,734 Saddle Drive,Etna,WY,83128,307-413-5648
Teton Telecom,104101 Us Hwy 89,Freedom,WY,83120,307-883-2411
Commerztruck LLC,30 N Gould St Ste B,Sheridan,WY,82801,307-395-0304
Community Bible Church,1450 South Park Loop Road,Jackson,WY,83001,307-733-1941
Compass Logistics LLC,679 Harrison St,Sheridan,WY,82801,307-278-1117
"Compression Leasing Services, Inc.",1935 North Loop Road,Casper,WY,82601,307-265-3242
Conan Pilot LLC,1100 County Road 148,Burns,WY,82053,307-274-5584
Concours Carrier LLC,2469 Wind River Trail,Cheyenne,WY,82009,307-286-0746
"Concrete Express, Inc.",901 Fetterman,Buffalo,WY,82834,307-674-6686
Connecting Roads LLC,30 N Gould St Ste 23995,Sheridan,WY,82801,307-201-3996
Tyson Trucking,3813 Victoria Drive,Cheyenne,WY,82009,307-256-0557
C D Sign & Supply,505 E Washington Ave,Riverton,WY,82501,307-856-0703
Emcee Trucking,6224 Gothberg Rd,Casper,WY,82604,307-267-2790
Conqueror LLC,30 N Gould St Ste R,Sheridan,WY,82801,541-200-0155
Conquest Energy Services LLC,3105 East Second St,Gillette,WY,82718,307-685-4210
Consolidated Electrical Distributors,3330 East Yellowstone Highway,Casper,WY,82609,307-232-8300
Consumer Solutions Firm LLC,30 N Gould St Ste R,Sheridan,WY,82801,336-339-0134
Continental Services,2411 Oil Drive,Casper,WY,82601,307-472-0477
"Contracting Watering Service, Inc.",1945 N Main,Buffalo,WY,82834,307-684-7434
Cts,413a Morgan Ave,Rock Springs,WY,82901,307-362-3278
Cook Moving & Storage,2214 Big Horn Ave,Cody,WY,82414,307-587-3500
Cool Customs Body & Paint,4598 Us Hwy 26/85,Torrington,WY,82240,307-532-8808
Cool Hand Welding LLC,1176 S Glendo Hwy,Glendo,WY,82213,307-331-1472
"Cooper Welding, Inc.",2419 E Monroe Ave,Riverton,WY,82501,307-856-0576
Cop Out Trucking LLC,85 S Sage Hill Rd,Gillette,WY,82718,307-299-6961
Cope Trucking,75 Thornton Ranch Rd,Rock River,WY,82083,307-378-2439
"Copper Mountain Carriers, Inc.",1450 Arapahoe,Thermopolis,WY,82443,307-864-2202
Copper Mountain Ranch LLC,1369 Hwy 30,Otto,WY,82434,307-272-9283
Corcoran Services LLC,3931 N Gardner Lake Road,Gillette,WY,82716,307-299-5197
Grizzlys Services,312 W Jefferson Rd Sp 46,Cheyenne,WY,82007,307-634-0949
"Corkill Drilling, Inc.",613 S 2nd St,Glenrock,WY,82637,307-436-9839
Cornell Tool Sales LLC,10 Arapahoe Trail,Cody,WY,82414,307-250-4571
"Cornerstone Asphalt Maintenance, Inc.",736 Montana Ave,Lovell,WY,82431,307-272-7211
"Cornerstone Transport, Inc.",935 N Foster Rd,Casper,WY,82601,307-333-5936
